{"type":"FeatureCollection","features":[{"type":"Feature","properties":{"ID_0":177,"ISO":"PHL","NAME_0":"Philippines","ID_1":19066,"NAME_1":"Sulu","ID_2":1906617,"NAME_2":"Lugus","ID_3":1906617001,"NAME_3":"Alu Bus-Bus","NL_NAME_3":null,"VARNAME_3":null,"TYPE_3":"Barangay","ENGTYPE_3":"Village","PROVINCE":"Sulu","REGION":"Bangsamoro Autonomous Region In Muslim Mindanao (BARMM)","id":"barangay-1906617001","name":"Alu Bus-Bus","barangayCode":"1906617001","population":null,"formattedPop":null,"densityCategory":"No data","vulnerabilityRating":"No data","healthRiskLevel":"No data","areaKm2":1.426112,"centerLat":5.682171,"centerLng":120.86681,"geometrySource":"all_barangay-2.csv detailed WKT","geometryMatchMethod":"unique_official_admin_names","boundaryPointCount":27},"geometry":{"type":"MultiPolygon","coordinates":[[[[120.871368,5.684968],[120.871346,5.682435],[120.871048,5.681707],[120.869812,5.681582],[120.868874,5.680964],[120.868393,5.67979],[120.867256,5.678817],[120.865822,5.678591],[120.864479,5.679796],[120.864433,5.679633],[120.86367,5.679184],[120.863136,5.678146],[120.864227,5.67785],[120.865639,5.677201],[120.865173,5.675499],[120.864098,5.674229],[120.862907,5.672908],[120.862495,5.671715],[120.861389,5.670444],[120.859612,5.669674],[120.85862,5.669306],[120.856247,5.669682],[120.854927,5.670081],[120.853371,5.684495],[120.862251,5.685152],[120.862686,5.688419],[120.871368,5.684968]]]]}},{"type":"Feature","properties":{"ID_0":177,"ISO":"PHL","NAME_0":"Philippines","ID_1":19066,"NAME_1":"Sulu","ID_2":1906617,"NAME_2":"Lugus","ID_3":1906617002,"NAME_3":"Alu-Duyong","NL_NAME_3":null,"VARNAME_3":null,"TYPE_3":"Barangay","ENGTYPE_3":"Village","PROVINCE":"Sulu","REGION":"Bangsamoro Autonomous Region In Muslim Mindanao (BARMM)","id":"barangay-1906617002","name":"Alu-Duyong","barangayCode":"1906617002","population":null,"formattedPop":null,"densityCategory":"No data","vulnerabilityRating":"No data","healthRiskLevel":"No data","areaKm2":2.522781,"centerLat":5.672917,"centerLng":120.855525,"geometrySource":"all_barangay-2.csv detailed WKT","geometryMatchMethod":"unique_official_admin_names","boundaryPointCount":20},"geometry":{"type":"MultiPolygon","coordinates":[[[[120.853371,5.684495],[120.854927,5.670081],[120.854172,5.669541],[120.854065,5.668592],[120.854156,5.667329],[120.855988,5.667896],[120.8573,5.667795],[120.859695,5.667904],[120.861534,5.668448],[120.862236,5.667328],[120.860901,5.666139],[120.858063,5.66608],[120.85495,5.664948],[120.852112,5.664773],[120.850273,5.665034],[120.846313,5.664348],[120.844521,5.664658],[120.841232,5.664508],[120.842216,5.684218],[120.853371,5.684495]]]]}},{"type":"Feature","properties":{"ID_0":177,"ISO":"PHL","NAME_0":"Philippines","ID_1":19066,"NAME_1":"Sulu","ID_2":1906617,"NAME_2":"Lugus","ID_3":1906617003,"NAME_3":"Bas Lugus","NL_NAME_3":null,"VARNAME_3":null,"TYPE_3":"Barangay","ENGTYPE_3":"Village","PROVINCE":"Sulu","REGION":"Bangsamoro Autonomous Region In Muslim Mindanao (BARMM)","id":"barangay-1906617003","name":"Bas Lugus","barangayCode":"1906617003","population":null,"formattedPop":null,"densityCategory":"No data","vulnerabilityRating":"No data","healthRiskLevel":"No data","areaKm2":2.381234,"centerLat":5.691293,"centerLng":120.816689,"geometrySource":"all_barangay-2.csv detailed WKT","geometryMatchMethod":"unique_official_admin_names","boundaryPointCount":11},"geometry":{"type":"MultiPolygon","coordinates":[[[[120.811943,5.701656],[120.81337,5.70156],[120.81385,5.701444],[120.814232,5.701093],[120.815491,5.700482],[120.817055,5.700783],[120.818504,5.70184],[120.817635,5.682918],[120.812157,5.685685],[120.812584,5.693257],[120.811943,5.701656]]]]}},{"type":"Feature","properties":{"ID_0":177,"ISO":"PHL","NAME_0":"Philippines","ID_1":19066,"NAME_1":"Sulu","ID_2":1906617,"NAME_2":"Lugus","ID_3":1906617004,"NAME_3":"Gapas Rugasan","NL_NAME_3":null,"VARNAME_3":null,"TYPE_3":"Barangay","ENGTYPE_3":"Village","PROVINCE":"Sulu","REGION":"Bangsamoro Autonomous Region In Muslim Mindanao (BARMM)","id":"barangay-1906617004","name":"Gapas Rugasan","barangayCode":"1906617004","population":null,"formattedPop":null,"densityCategory":"No data","vulnerabilityRating":"No data","healthRiskLevel":"No data","areaKm2":1.116175,"centerLat":5.693611,"centerLng":120.871582,"geometrySource":"all_barangay-2.csv detailed WKT","geometryMatchMethod":"unique_official_admin_names","boundaryPointCount":11},"geometry":{"type":"MultiPolygon","coordinates":[[[[120.864265,5.703598],[120.865852,5.70261],[120.867073,5.701883],[120.86937,5.699569],[120.871071,5.698657],[120.871704,5.698339],[120.872437,5.692962],[120.871368,5.684968],[120.862686,5.688419],[120.862488,5.696148],[120.864265,5.703598]]]]}},{"type":"Feature","properties":{"ID_0":177,"ISO":"PHL","NAME_0":"Philippines","ID_1":19066,"NAME_1":"Sulu","ID_2":1906617,"NAME_2":"Lugus","ID_3":1906617005,"NAME_3":"Gapas Tubig Tuwak","NL_NAME_3":null,"VARNAME_3":null,"TYPE_3":"Barangay","ENGTYPE_3":"Village","PROVINCE":"Sulu","REGION":"Bangsamoro Autonomous Region In Muslim Mindanao (BARMM)","id":"barangay-1906617005","name":"Gapas Tubig Tuwak","barangayCode":"1906617005","population":null,"formattedPop":null,"densityCategory":"No data","vulnerabilityRating":"No data","healthRiskLevel":"No data","areaKm2":0.982086,"centerLat":5.689364,"centerLng":120.877911,"geometrySource":"all_barangay-2.csv detailed WKT","geometryMatchMethod":"unique_official_admin_names","boundaryPointCount":15},"geometry":{"type":"MultiPolygon","coordinates":[[[[120.871704,5.698339],[120.874962,5.696806],[120.878113,5.696352],[120.880051,5.695887],[120.877785,5.687908],[120.878876,5.681672],[120.876701,5.682218],[120.875595,5.683179],[120.874504,5.684373],[120.873619,5.683481],[120.873238,5.683096],[120.871933,5.684441],[120.871368,5.684968],[120.872437,5.692962],[120.871704,5.698339]]]]}},{"type":"Feature","properties":{"ID_0":177,"ISO":"PHL","NAME_0":"Philippines","ID_1":19066,"NAME_1":"Sulu","ID_2":1906617,"NAME_2":"Lugus","ID_3":1906617006,"NAME_3":"Huwit-huwit Proper","NL_NAME_3":null,"VARNAME_3":null,"TYPE_3":"Barangay","ENGTYPE_3":"Village","PROVINCE":"Sulu","REGION":"Bangsamoro Autonomous Region In Muslim Mindanao (BARMM)","id":"barangay-1906617006","name":"Huwit-huwit Proper","barangayCode":"1906617006","population":null,"formattedPop":null,"densityCategory":"No data","vulnerabilityRating":"No data","healthRiskLevel":"No data","areaKm2":2.771015,"centerLat":5.691512,"centerLng":120.834747,"geometrySource":"all_barangay-2.csv detailed WKT","geometryMatchMethod":"unique_official_admin_names","boundaryPointCount":8},"geometry":{"type":"MultiPolygon","coordinates":[[[[120.825768,5.704957],[120.829369,5.706041],[120.83194,5.707194],[120.83329,5.702604],[120.832405,5.683267],[120.825951,5.683296],[120.826157,5.703639],[120.825768,5.704957]]]]}},{"type":"Feature","properties":{"ID_0":177,"ISO":"PHL","NAME_0":"Philippines","ID_1":19066,"NAME_1":"Sulu","ID_2":1906617,"NAME_2":"Lugus","ID_3":1906617007,"NAME_3":"Huwit-huwit Bas Nonok","NL_NAME_3":null,"VARNAME_3":null,"TYPE_3":"Barangay","ENGTYPE_3":"Village","PROVINCE":"Sulu","REGION":"Bangsamoro Autonomous Region In Muslim Mindanao (BARMM)","id":"barangay-1906617007","name":"Huwit-huwit Bas Nonok","barangayCode":"1906617007","population":null,"formattedPop":null,"densityCategory":"No data","vulnerabilityRating":"No data","healthRiskLevel":"No data","areaKm2":1.721114,"centerLat":5.701248,"centerLng":120.836345,"geometrySource":"all_barangay-2.csv detailed WKT","geometryMatchMethod":"unique_official_admin_names","boundaryPointCount":9},"geometry":{"type":"MultiPolygon","coordinates":[[[[120.83194,5.707194],[120.834343,5.708432],[120.839027,5.71005],[120.840683,5.694627],[120.839348,5.683652],[120.838791,5.683303],[120.832405,5.683267],[120.83329,5.702604],[120.83194,5.707194]]]]}},{"type":"Feature","properties":{"ID_0":177,"ISO":"PHL","NAME_0":"Philippines","ID_1":19066,"NAME_1":"Sulu","ID_2":1906617,"NAME_2":"Lugus","ID_3":1906617008,"NAME_3":"Kutah Parang","NL_NAME_3":null,"VARNAME_3":null,"TYPE_3":"Barangay","ENGTYPE_3":"Village","PROVINCE":"Sulu","REGION":"Bangsamoro Autonomous Region In Muslim Mindanao (BARMM)","id":"barangay-1906617008","name":"Kutah Parang","barangayCode":"1906617008","population":null,"formattedPop":null,"densityCategory":"No data","vulnerabilityRating":"No data","healthRiskLevel":"No data","areaKm2":1.834111,"centerLat":5.698133,"centerLng":120.862548,"geometrySource":"all_barangay-2.csv detailed WKT","geometryMatchMethod":"unique_official_admin_names","boundaryPointCount":8},"geometry":{"type":"MultiPolygon","coordinates":[[[[120.857605,5.706288],[120.860123,5.705459],[120.862221,5.704334],[120.86322,5.703988],[120.864265,5.703598],[120.862488,5.696148],[120.855789,5.695291],[120.857605,5.706288]]]]}},{"type":"Feature","properties":{"ID_0":177,"ISO":"PHL","NAME_0":"Philippines","ID_1":19066,"NAME_1":"Sulu","ID_2":1906617,"NAME_2":"Lugus","ID_3":1906617009,"NAME_3":"Laha","NL_NAME_3":null,"VARNAME_3":null,"TYPE_3":"Barangay","ENGTYPE_3":"Village","PROVINCE":"Sulu","REGION":"Bangsamoro Autonomous Region In Muslim Mindanao (BARMM)","id":"barangay-1906617009","name":"Laha","barangayCode":"1906617009","population":null,"formattedPop":null,"densityCategory":"No data","vulnerabilityRating":"No data","healthRiskLevel":"No data","areaKm2":3.75368,"centerLat":5.671119,"centerLng":120.812614,"geometrySource":"all_barangay-2.csv detailed WKT","geometryMatchMethod":"unique_official_admin_names","boundaryPointCount":38},"geometry":{"type":"MultiPolygon","coordinates":[[[[120.822502,5.664785],[120.821495,5.664785],[120.8209,5.66485],[120.821274,5.665167],[120.821541,5.665478],[120.821991,5.665706],[120.822876,5.665723],[120.823097,5.66548],[120.822998,5.6649],[120.822502,5.664785]]],[[[120.812157,5.685685],[120.817635,5.682918],[120.82296,5.683183],[120.825951,5.683296],[120.825272,5.670046],[120.82328,5.670716],[120.822578,5.670408],[120.821327,5.669499],[120.819534,5.669878],[120.817917,5.668906],[120.817497,5.668496],[120.816216,5.667747],[120.814781,5.665539],[120.813766,5.663904],[120.812897,5.663266],[120.811691,5.663004],[120.80957,5.662884],[120.808014,5.662906],[120.805733,5.663332],[120.804619,5.663097],[120.802696,5.663056],[120.800331,5.663339],[120.799065,5.664249],[120.797874,5.666038],[120.79734,5.667556],[120.796997,5.668393],[120.797058,5.670399],[120.812157,5.685685]]]]}},{"type":"Feature","properties":{"ID_0":177,"ISO":"PHL","NAME_0":"Philippines","ID_1":19066,"NAME_1":"Sulu","ID_2":1906617,"NAME_2":"Lugus","ID_3":1906617010,"NAME_3":"Larap","NL_NAME_3":null,"VARNAME_3":null,"TYPE_3":"Barangay","ENGTYPE_3":"Village","PROVINCE":"Sulu","REGION":"Bangsamoro Autonomous Region In Muslim Mindanao (BARMM)","id":"barangay-1906617010","name":"Larap","barangayCode":"1906617010","population":null,"formattedPop":null,"densityCategory":"No data","vulnerabilityRating":"No data","healthRiskLevel":"No data","areaKm2":1.621185,"centerLat":5.699984,"centerLng":120.843667,"geometrySource":"all_barangay-2.csv detailed WKT","geometryMatchMethod":"unique_official_admin_names","boundaryPointCount":7},"geometry":{"type":"MultiPolygon","coordinates":[[[[120.839027,5.71005],[120.843674,5.709363],[120.849579,5.708572],[120.849136,5.70436],[120.850159,5.695288],[120.840683,5.694627],[120.839027,5.71005]]]]}},{"type":"Feature","properties":{"ID_0":177,"ISO":"PHL","NAME_0":"Philippines","ID_1":19066,"NAME_1":"Sulu","ID_2":1906617,"NAME_2":"Lugus","ID_3":1906617011,"NAME_3":"Lugus Proper","NL_NAME_3":null,"VARNAME_3":null,"TYPE_3":"Barangay","ENGTYPE_3":"Village","PROVINCE":"Sulu","REGION":"Bangsamoro Autonomous Region In Muslim Mindanao (BARMM)","id":"barangay-1906617011","name":"Lugus Proper","barangayCode":"1906617011","population":null,"formattedPop":null,"densityCategory":"No data","vulnerabilityRating":"No data","healthRiskLevel":"No data","areaKm2":2.488493,"centerLat":5.691651,"centerLng":120.825564,"geometrySource":"all_barangay-2.csv detailed WKT","geometryMatchMethod":"unique_official_admin_names","boundaryPointCount":9},"geometry":{"type":"MultiPolygon","coordinates":[[[[120.818504,5.70184],[120.820396,5.702778],[120.823311,5.7039],[120.825768,5.704957],[120.826157,5.703639],[120.825951,5.683296],[120.82296,5.683183],[120.817635,5.682918],[120.818504,5.70184]]]]}},{"type":"Feature","properties":{"ID_0":177,"ISO":"PHL","NAME_0":"Philippines","ID_1":19066,"NAME_1":"Sulu","ID_2":1906617,"NAME_2":"Lugus","ID_3":1906617012,"NAME_3":"Mangkallay","NL_NAME_3":null,"VARNAME_3":null,"TYPE_3":"Barangay","ENGTYPE_3":"Village","PROVINCE":"Sulu","REGION":"Bangsamoro Autonomous Region In Muslim Mindanao (BARMM)","id":"barangay-1906617012","name":"Mangkallay","barangayCode":"1906617012","population":null,"formattedPop":null,"densityCategory":"No data","vulnerabilityRating":"No data","healthRiskLevel":"No data","areaKm2":2.428433,"centerLat":5.678902,"centerLng":120.803019,"geometrySource":"all_barangay-2.csv detailed WKT","geometryMatchMethod":"unique_official_admin_names","boundaryPointCount":10},"geometry":{"type":"MultiPolygon","coordinates":[[[[120.812157,5.685685],[120.797058,5.670399],[120.797478,5.672167],[120.797943,5.674699],[120.799187,5.677081],[120.800789,5.680379],[120.801483,5.682759],[120.802277,5.68687],[120.806122,5.68564],[120.812157,5.685685]]]]}},{"type":"Feature","properties":{"ID_0":177,"ISO":"PHL","NAME_0":"Philippines","ID_1":19066,"NAME_1":"Sulu","ID_2":1906617,"NAME_2":"Lugus","ID_3":1906617013,"NAME_3":"Mantan","NL_NAME_3":null,"VARNAME_3":null,"TYPE_3":"Barangay","ENGTYPE_3":"Village","PROVINCE":"Sulu","REGION":"Bangsamoro Autonomous Region In Muslim Mindanao (BARMM)","id":"barangay-1906617013","name":"Mantan","barangayCode":"1906617013","population":null,"formattedPop":null,"densityCategory":"No data","vulnerabilityRating":"No data","healthRiskLevel":"No data","areaKm2":1.865081,"centerLat":5.700717,"centerLng":120.851819,"geometrySource":"all_barangay-2.csv detailed WKT","geometryMatchMethod":"unique_official_admin_names","boundaryPointCount":8},"geometry":{"type":"MultiPolygon","coordinates":[[[[120.849579,5.708572],[120.853577,5.707602],[120.854424,5.707503],[120.857605,5.706288],[120.855789,5.695291],[120.850159,5.695288],[120.849136,5.70436],[120.849579,5.708572]]]]}},{"type":"Feature","properties":{"ID_0":177,"ISO":"PHL","NAME_0":"Philippines","ID_1":19066,"NAME_1":"Sulu","ID_2":1906617,"NAME_2":"Lugus","ID_3":1906617014,"NAME_3":"Pait","NL_NAME_3":null,"VARNAME_3":null,"TYPE_3":"Barangay","ENGTYPE_3":"Village","PROVINCE":"Sulu","REGION":"Bangsamoro Autonomous Region In Muslim Mindanao (BARMM)","id":"barangay-1906617014","name":"Pait","barangayCode":"1906617014","population":null,"formattedPop":null,"densityCategory":"No data","vulnerabilityRating":"No data","healthRiskLevel":"No data","areaKm2":2.859391,"centerLat":5.686643,"centerLng":120.853762,"geometrySource":"all_barangay-2.csv detailed WKT","geometryMatchMethod":"unique_official_admin_names","boundaryPointCount":10},"geometry":{"type":"MultiPolygon","coordinates":[[[[120.862488,5.696148],[120.862686,5.688419],[120.862251,5.685152],[120.853371,5.684495],[120.842216,5.684218],[120.839348,5.683652],[120.840683,5.694627],[120.850159,5.695288],[120.855789,5.695291],[120.862488,5.696148]]]]}},{"type":"Feature","properties":{"ID_0":177,"ISO":"PHL","NAME_0":"Philippines","ID_1":19066,"NAME_1":"Sulu","ID_2":1906617,"NAME_2":"Lugus","ID_3":1906617015,"NAME_3":"Parian Kayawan","NL_NAME_3":null,"VARNAME_3":null,"TYPE_3":"Barangay","ENGTYPE_3":"Village","PROVINCE":"Sulu","REGION":"Bangsamoro Autonomous Region In Muslim Mindanao (BARMM)","id":"barangay-1906617015","name":"Parian Kayawan","barangayCode":"1906617015","population":null,"formattedPop":null,"densityCategory":"No data","vulnerabilityRating":"No data","healthRiskLevel":"No data","areaKm2":3.749613,"centerLat":5.672634,"centerLng":120.838038,"geometrySource":"all_barangay-2.csv detailed WKT","geometryMatchMethod":"unique_official_admin_names","boundaryPointCount":15},"geometry":{"type":"MultiPolygon","coordinates":[[[[120.842216,5.684218],[120.841232,5.664508],[120.838089,5.665447],[120.836075,5.666623],[120.832298,5.668639],[120.831131,5.669346],[120.828857,5.670279],[120.827934,5.66973],[120.826706,5.670158],[120.825272,5.670046],[120.825951,5.683296],[120.832405,5.683267],[120.838791,5.683303],[120.839348,5.683652],[120.842216,5.684218]]]]}},{"type":"Feature","properties":{"ID_0":177,"ISO":"PHL","NAME_0":"Philippines","ID_1":19066,"NAME_1":"Sulu","ID_2":1906617,"NAME_2":"Lugus","ID_3":1906617016,"NAME_3":"Sibul","NL_NAME_3":null,"VARNAME_3":null,"TYPE_3":"Barangay","ENGTYPE_3":"Village","PROVINCE":"Sulu","REGION":"Bangsamoro Autonomous Region In Muslim Mindanao (BARMM)","id":"barangay-1906617016","name":"Sibul","barangayCode":"1906617016","population":null,"formattedPop":null,"densityCategory":"No data","vulnerabilityRating":"No data","healthRiskLevel":"No data","areaKm2":1.231224,"centerLat":5.687483,"centerLng":120.884046,"geometrySource":"all_barangay-2.csv detailed WKT","geometryMatchMethod":"unique_official_admin_names","boundaryPointCount":17},"geometry":{"type":"MultiPolygon","coordinates":[[[[120.880051,5.695887],[120.882309,5.694792],[120.883911,5.693414],[120.885445,5.692701],[120.887611,5.692915],[120.889,5.691896],[120.888603,5.690818],[120.886986,5.688649],[120.886955,5.687611],[120.887161,5.685502],[120.886406,5.684915],[120.885185,5.6838],[120.882912,5.682154],[120.880356,5.681762],[120.878876,5.681672],[120.877785,5.687908],[120.880051,5.695887]]]]}},{"type":"Feature","properties":{"ID_0":177,"ISO":"PHL","NAME_0":"Philippines","ID_1":19066,"NAME_1":"Sulu","ID_2":1906617,"NAME_2":"Lugus","ID_3":1906617017,"NAME_3":"Tingkangan","NL_NAME_3":null,"VARNAME_3":null,"TYPE_3":"Barangay","ENGTYPE_3":"Village","PROVINCE":"Sulu","REGION":"Bangsamoro Autonomous Region In Muslim Mindanao (BARMM)","id":"barangay-1906617017","name":"Tingkangan","barangayCode":"1906617017","population":null,"formattedPop":null,"densityCategory":"No data","vulnerabilityRating":"No data","healthRiskLevel":"No data","areaKm2":2.030158,"centerLat":5.689128,"centerLng":120.809441,"geometrySource":"all_barangay-2.csv detailed WKT","geometryMatchMethod":"unique_official_admin_names","boundaryPointCount":13},"geometry":{"type":"MultiPolygon","coordinates":[[[[120.802277,5.68687],[120.802574,5.689532],[120.803123,5.69216],[120.803291,5.693227],[120.804115,5.695221],[120.805351,5.697742],[120.807732,5.700336],[120.809776,5.701535],[120.811943,5.701656],[120.812584,5.693257],[120.812157,5.685685],[120.806122,5.68564],[120.802277,5.68687]]]]}}]}
