{"type":"FeatureCollection","features":[{"type":"Feature","properties":{"ID_0":177,"ISO":"PHL","NAME_0":"Philippines","ID_1":19087,"NAME_1":"Maguindanao del Norte","ID_2":1908709,"NAME_2":"Matanog","ID_3":1908709001,"NAME_3":"Bongo Island","NL_NAME_3":null,"VARNAME_3":null,"TYPE_3":"Barangay","ENGTYPE_3":"Village","PROVINCE":"Maguindanao del Norte","REGION":"Bangsamoro Autonomous Region In Muslim Mindanao (BARMM)","id":"barangay-1908709001","name":"Bongo Island","barangayCode":"1908709001","population":null,"formattedPop":null,"densityCategory":"No data","vulnerabilityRating":"No data","healthRiskLevel":"No data","areaKm2":29.860597,"centerLat":7.333512,"centerLng":124.034805,"geometrySource":"barangays.geojson simplified fallback","geometryMatchMethod":"simplified_fallback","boundaryPointCount":11},"geometry":{"type":"MultiPolygon","coordinates":[[[[124.27868143500007,7.557954299000073],[124.28741143800005,7.51470357200003],[124.24798281500011,7.500521387000049],[124.23052885200002,7.512238555000067],[124.25134145900006,7.557931654000072],[124.27868143500007,7.557954299000073]]],[[[124.03467427300006,7.344431708000059],[124.04451404100007,7.340843041000028],[124.04218042900004,7.321429865000027],[124.02248265300011,7.334134042000073],[124.03467427300006,7.344431708000059]]]]}},{"type":"Feature","properties":{"ID_0":177,"ISO":"PHL","NAME_0":"Philippines","ID_1":19087,"NAME_1":"Maguindanao del Norte","ID_2":1908709,"NAME_2":"Matanog","ID_3":1908709002,"NAME_3":"Campo Islam","NL_NAME_3":null,"VARNAME_3":null,"TYPE_3":"Barangay","ENGTYPE_3":"Village","PROVINCE":"Maguindanao del Norte","REGION":"Bangsamoro Autonomous Region In Muslim Mindanao (BARMM)","id":"barangay-1908709002","name":"Campo Islam","barangayCode":"1908709002","population":null,"formattedPop":null,"densityCategory":"No data","vulnerabilityRating":"No data","healthRiskLevel":"No data","areaKm2":24.043417,"centerLat":7.383957,"centerLng":124.255568,"geometrySource":"barangays.geojson simplified fallback","geometryMatchMethod":"simplified_fallback","boundaryPointCount":12},"geometry":{"type":"MultiPolygon","coordinates":[[[[124.24564907800004,7.501214],[124.25076858600005,7.449364297000045],[124.23760254500007,7.446742407000045],[124.2038090750001,7.477711151000051],[124.20257143200001,7.487720832000036],[124.21800947200006,7.494359282000062],[124.23052885200002,7.512238555000067],[124.24564907800004,7.501214]]],[[[124.256847192,7.385278473000028],[124.25970506700003,7.376823243000047],[124.25116146300002,7.395344161000025],[124.256847192,7.385278473000028]]]]}},{"type":"Feature","properties":{"ID_0":177,"ISO":"PHL","NAME_0":"Philippines","ID_1":19087,"NAME_1":"Maguindanao del Norte","ID_2":1908709,"NAME_2":"Matanog","ID_3":1908709003,"NAME_3":"Cotongan","NL_NAME_3":null,"VARNAME_3":null,"TYPE_3":"Barangay","ENGTYPE_3":"Village","PROVINCE":"Maguindanao del Norte","REGION":"Bangsamoro Autonomous Region In Muslim Mindanao (BARMM)","id":"barangay-1908709003","name":"Cotongan","barangayCode":"1908709003","population":null,"formattedPop":null,"densityCategory":"No data","vulnerabilityRating":"No data","healthRiskLevel":"No data","areaKm2":11.294203,"centerLat":7.32538,"centerLng":124.02481,"geometrySource":"barangays.geojson simplified fallback","geometryMatchMethod":"simplified_fallback","boundaryPointCount":12},"geometry":{"type":"MultiPolygon","coordinates":[[[[124.28530787800003,7.470345197000029],[124.25062424500004,7.456594463000044],[124.25065568500008,7.477417432000038],[124.27170870900011,7.483121843000049],[124.2738824490001,7.495791131000033],[124.28240338800003,7.496661886000027],[124.28530787800003,7.470345197000029]]],[[[124.02274580400001,7.333494224000049],[124.03605713600007,7.324268749000055],[124.03556980600001,7.320054593000066],[124.01488240200001,7.321554799000069],[124.02274580400001,7.333494224000049]]]]}},{"type":"Feature","properties":{"ID_0":177,"ISO":"PHL","NAME_0":"Philippines","ID_1":19087,"NAME_1":"Maguindanao del Norte","ID_2":1908709,"NAME_2":"Matanog","ID_3":1908709004,"NAME_3":"Datu Macarimbang Biruar","NL_NAME_3":null,"VARNAME_3":null,"TYPE_3":"Barangay","ENGTYPE_3":"Village","PROVINCE":"Maguindanao del Norte","REGION":"Bangsamoro Autonomous Region In Muslim Mindanao (BARMM)","id":"barangay-1908709004","name":"Datu Macarimbang Biruar","barangayCode":"1908709004","population":null,"formattedPop":null,"densityCategory":"No data","vulnerabilityRating":"No data","healthRiskLevel":"No data","areaKm2":9.119292,"centerLat":7.349524,"centerLng":124.042659,"geometrySource":"barangays.geojson simplified fallback","geometryMatchMethod":"simplified_fallback","boundaryPointCount":10},"geometry":{"type":"MultiPolygon","coordinates":[[[[124.2614685310001,7.432809543000076],[124.25054903400007,7.429733378000037],[124.25062424500004,7.456594463000044],[124.28530787800003,7.470345197000029],[124.2614685310001,7.432809543000076]]],[[[124.04525627200007,7.357202998000048],[124.04728804100012,7.34935630800004],[124.03467427300006,7.344431708000059],[124.04043980100005,7.350055418000068],[124.04525627200007,7.357202998000048]]]]}},{"type":"Feature","properties":{"ID_0":177,"ISO":"PHL","NAME_0":"Philippines","ID_1":19087,"NAME_1":"Maguindanao del Norte","ID_2":1908709,"NAME_2":"Matanog","ID_3":1908709005,"NAME_3":"Gadungan","NL_NAME_3":null,"VARNAME_3":null,"TYPE_3":"Barangay","ENGTYPE_3":"Village","PROVINCE":"Maguindanao del Norte","REGION":"Bangsamoro Autonomous Region In Muslim Mindanao (BARMM)","id":"barangay-1908709005","name":"Gadungan","barangayCode":"1908709005","population":null,"formattedPop":null,"densityCategory":"No data","vulnerabilityRating":"No data","healthRiskLevel":"No data","areaKm2":19.70348,"centerLat":7.369391,"centerLng":124.309005,"geometrySource":"barangays.geojson simplified fallback","geometryMatchMethod":"simplified_fallback","boundaryPointCount":9},"geometry":{"type":"Polygon","coordinates":[[[124.19764680000003,7.471787687000074],[124.22788476000005,7.430369015000053],[124.22583105600006,7.406447275000062],[124.20627591100003,7.407734087000051],[124.19807593900009,7.421262056000046],[124.18576420800002,7.413876661000074],[124.19520726200005,7.43575265000004],[124.18494215400005,7.452008561000071],[124.19764680000003,7.471787687000074]]]}},{"type":"Feature","properties":{"ID_0":177,"ISO":"PHL","NAME_0":"Philippines","ID_1":19087,"NAME_1":"Maguindanao del Norte","ID_2":1908709,"NAME_2":"Matanog","ID_3":1908709007,"NAME_3":"Guiday T. Biruar","NL_NAME_3":null,"VARNAME_3":null,"TYPE_3":"Barangay","ENGTYPE_3":"Village","PROVINCE":"Maguindanao del Norte","REGION":"Bangsamoro Autonomous Region In Muslim Mindanao (BARMM)","id":"barangay-1908709007","name":"Guiday T. Biruar","barangayCode":"1908709007","population":null,"formattedPop":null,"densityCategory":"No data","vulnerabilityRating":"No data","healthRiskLevel":"No data","areaKm2":14.08715,"centerLat":7.333778,"centerLng":124.305994,"geometrySource":"barangays.geojson simplified fallback","geometryMatchMethod":"simplified_fallback","boundaryPointCount":8},"geometry":{"type":"Polygon","coordinates":[[[124.20567369900004,7.477238038000053],[124.23760254500007,7.446742407000045],[124.25076858600005,7.449364297000045],[124.24471388500001,7.415938168000025],[124.22924232500009,7.415603402000045],[124.22702816200001,7.432200886000032],[124.20235489100003,7.47078893500003],[124.20567369900004,7.477238038000053]]]}},{"type":"Feature","properties":{"ID_0":177,"ISO":"PHL","NAME_0":"Philippines","ID_1":19087,"NAME_1":"Maguindanao del Norte","ID_2":1908709,"NAME_2":"Matanog","ID_3":1908709008,"NAME_3":"Gumagadong Calawag","NL_NAME_3":null,"VARNAME_3":null,"TYPE_3":"Barangay","ENGTYPE_3":"Village","PROVINCE":"Maguindanao del Norte","REGION":"Bangsamoro Autonomous Region In Muslim Mindanao (BARMM)","id":"barangay-1908709008","name":"Gumagadong Calawag","barangayCode":"1908709008","population":null,"formattedPop":null,"densityCategory":"No data","vulnerabilityRating":"No data","healthRiskLevel":"No data","areaKm2":4.415161,"centerLat":7.39965,"centerLng":124.27984,"geometrySource":"barangays.geojson simplified fallback","geometryMatchMethod":"simplified_fallback","boundaryPointCount":5},"geometry":{"type":"Polygon","coordinates":[[[124.27170870900011,7.483121843000049],[124.25065568500008,7.477417432000038],[124.24206322500004,7.490133669000045],[124.2738824490001,7.495791131000033],[124.27170870900011,7.483121843000049]]]}},{"type":"Feature","properties":{"ID_0":177,"ISO":"PHL","NAME_0":"Philippines","ID_1":19087,"NAME_1":"Maguindanao del Norte","ID_2":1908709,"NAME_2":"Matanog","ID_3":1908709009,"NAME_3":"Kabuan","NL_NAME_3":null,"VARNAME_3":null,"TYPE_3":"Barangay","ENGTYPE_3":"Village","PROVINCE":"Maguindanao del Norte","REGION":"Bangsamoro Autonomous Region In Muslim Mindanao (BARMM)","id":"barangay-1908709009","name":"Kabuan","barangayCode":"1908709009","population":null,"formattedPop":null,"densityCategory":"No data","vulnerabilityRating":"No data","healthRiskLevel":"No data","areaKm2":11.124623,"centerLat":7.355978,"centerLng":124.342735,"geometrySource":"barangays.geojson simplified fallback","geometryMatchMethod":"simplified_fallback","boundaryPointCount":9},"geometry":{"type":"MultiPolygon","coordinates":[[[[124.28741143800005,7.51470357200003],[124.28240338800003,7.496661886000027],[124.2481929490001,7.491271005000044],[124.256720373,7.507820279000043],[124.28741143800005,7.51470357200003]]],[[[124.35681311700012,7.364380244000074],[124.35161085400011,7.347539193000046],[124.31729163800003,7.355055308000033],[124.35681311700012,7.364380244000074]]]]}}]}
