{"type":"FeatureCollection","features":[{"type":"Feature","properties":{"ID_0":177,"ISO":"PHL","NAME_0":"Philippines","ID_1":19007,"NAME_1":"Basilan","ID_2":1900712,"NAME_2":"Hadji Muhtamad","ID_3":1900712001,"NAME_3":"Baluk-baluk","NL_NAME_3":null,"VARNAME_3":null,"TYPE_3":"Barangay","ENGTYPE_3":"Village","PROVINCE":"Basilan","REGION":"Bangsamoro Autonomous Region In Muslim Mindanao (BARMM)","id":"barangay-1900712001","name":"Baluk-baluk","barangayCode":"1900712001","population":null,"formattedPop":null,"densityCategory":"No data","vulnerabilityRating":"No data","healthRiskLevel":"No data","areaKm2":7.010442,"centerLat":6.653505,"centerLng":121.706009,"geometrySource":"barangays.geojson simplified fallback","geometryMatchMethod":"simplified_fallback","boundaryPointCount":9},"geometry":{"type":"MultiPolygon","coordinates":[[[[121.6896416940001,6.570620167000072],[121.69418425100002,6.584492642000043],[121.69682680300002,6.56406048100007],[121.6896416940001,6.570620167000072]]],[[[121.71008720100008,6.694497979000062],[121.71757250600001,6.686280404000058],[121.70542189700006,6.642427056000031],[121.70284080800002,6.685043184000051],[121.71008720100008,6.694497979000062]]]]}},{"type":"Feature","properties":{"ID_0":177,"ISO":"PHL","NAME_0":"Philippines","ID_1":19007,"NAME_1":"Basilan","ID_2":1900712,"NAME_2":"Hadji Muhtamad","ID_3":1900712002,"NAME_3":"Dasalan","NL_NAME_3":null,"VARNAME_3":null,"TYPE_3":"Barangay","ENGTYPE_3":"Village","PROVINCE":"Basilan","REGION":"Bangsamoro Autonomous Region In Muslim Mindanao (BARMM)","id":"barangay-1900712002","name":"Dasalan","barangayCode":"1900712002","population":null,"formattedPop":null,"densityCategory":"No data","vulnerabilityRating":"No data","healthRiskLevel":"No data","areaKm2":6.732919,"centerLat":6.753358,"centerLng":121.454841,"geometrySource":"barangays.geojson simplified fallback","geometryMatchMethod":"simplified_fallback","boundaryPointCount":10},"geometry":{"type":"MultiPolygon","coordinates":[[[[121.45869593200007,6.765970226000036],[121.47216337200007,6.74834658900005],[121.46855025600007,6.734026112000038],[121.45051384600004,6.746777535000035],[121.45869593200007,6.765970226000036]]],[[[121.43472083400002,6.780159627000046],[121.43890061400009,6.761392262000072],[121.43375523500004,6.756572601000073],[121.42944880700009,6.766018162000023],[121.43472083400002,6.780159627000046]]]]}},{"type":"Feature","properties":{"ID_0":177,"ISO":"PHL","NAME_0":"Philippines","ID_1":19007,"NAME_1":"Basilan","ID_2":1900712,"NAME_2":"Hadji Muhtamad","ID_3":1900712003,"NAME_3":"Lubukan","NL_NAME_3":null,"VARNAME_3":null,"TYPE_3":"Barangay","ENGTYPE_3":"Village","PROVINCE":"Basilan","REGION":"Bangsamoro Autonomous Region In Muslim Mindanao (BARMM)","id":"barangay-1900712003","name":"Lubukan","barangayCode":"1900712003","population":null,"formattedPop":null,"densityCategory":"No data","vulnerabilityRating":"No data","healthRiskLevel":"No data","areaKm2":9.859747,"centerLat":6.65134,"centerLng":121.61444,"geometrySource":"barangays.geojson simplified fallback","geometryMatchMethod":"simplified_fallback","boundaryPointCount":12},"geometry":{"type":"MultiPolygon","coordinates":[[[[121.63815521800007,6.643196139000054],[121.641765931,6.643083485000034],[121.63801139100008,6.638433951000025],[121.63815521800007,6.643196139000054]]],[[[121.60581441300008,6.676559873000031],[121.613852285,6.661344291000034],[121.63210228300011,6.652854969000032],[121.62116441400008,6.62685534600007],[121.6117781260001,6.624994872000059],[121.61211295800001,6.648649995000028],[121.59009270800004,6.670526637000023],[121.60581441300008,6.676559873000031]]]]}},{"type":"Feature","properties":{"ID_0":177,"ISO":"PHL","NAME_0":"Philippines","ID_1":19007,"NAME_1":"Basilan","ID_2":1900712,"NAME_2":"Hadji Muhtamad","ID_3":1900712004,"NAME_3":"Luukbongsod","NL_NAME_3":null,"VARNAME_3":null,"TYPE_3":"Barangay","ENGTYPE_3":"Village","PROVINCE":"Basilan","REGION":"Bangsamoro Autonomous Region In Muslim Mindanao (BARMM)","id":"barangay-1900712004","name":"Luukbongsod","barangayCode":"1900712004","population":null,"formattedPop":null,"densityCategory":"No data","vulnerabilityRating":"No data","healthRiskLevel":"No data","areaKm2":2.04352,"centerLat":6.676908,"centerLng":121.594054,"geometrySource":"barangays.geojson simplified fallback","geometryMatchMethod":"simplified_fallback","boundaryPointCount":4},"geometry":{"type":"Polygon","coordinates":[[[121.58963946200004,6.682576897000047],[121.60522453400006,6.67695382200003],[121.58399661900012,6.668622491000065],[121.58963946200004,6.682576897000047]]]}},{"type":"Feature","properties":{"ID_0":177,"ISO":"PHL","NAME_0":"Philippines","ID_1":19007,"NAME_1":"Basilan","ID_2":1900712,"NAME_2":"Hadji Muhtamad","ID_3":1900712005,"NAME_3":"Mananggal","NL_NAME_3":null,"VARNAME_3":null,"TYPE_3":"Barangay","ENGTYPE_3":"Village","PROVINCE":"Basilan","REGION":"Bangsamoro Autonomous Region In Muslim Mindanao (BARMM)","id":"barangay-1900712005","name":"Mananggal","barangayCode":"1900712005","population":null,"formattedPop":null,"densityCategory":"No data","vulnerabilityRating":"No data","healthRiskLevel":"No data","areaKm2":5.08814,"centerLat":6.637091,"centerLng":121.580069,"geometrySource":"barangays.geojson simplified fallback","geometryMatchMethod":"simplified_fallback","boundaryPointCount":13},"geometry":{"type":"MultiPolygon","coordinates":[[[[121.55953839600011,6.636276507000048],[121.56157445000008,6.629741295000031],[121.55847284300012,6.629468767000049],[121.55953839600011,6.636276507000048]]],[[[121.56912957800012,6.646446405000063],[121.57311509200008,6.645706207000046],[121.5690504270001,6.643871570000044],[121.56912957800012,6.646446405000063]]],[[[121.58733527700008,6.650446927000075],[121.59130526900003,6.63191977200006],[121.58510813200007,6.62522301000007],[121.5694856240001,6.638750679000054],[121.58733527700008,6.650446927000075]]]]}},{"type":"Feature","properties":{"ID_0":177,"ISO":"PHL","NAME_0":"Philippines","ID_1":19007,"NAME_1":"Basilan","ID_2":1900712,"NAME_2":"Hadji Muhtamad","ID_3":1900712006,"NAME_3":"Palahangan","NL_NAME_3":null,"VARNAME_3":null,"TYPE_3":"Barangay","ENGTYPE_3":"Village","PROVINCE":"Basilan","REGION":"Bangsamoro Autonomous Region In Muslim Mindanao (BARMM)","id":"barangay-1900712006","name":"Palahangan","barangayCode":"1900712006","population":null,"formattedPop":null,"densityCategory":"No data","vulnerabilityRating":"No data","healthRiskLevel":"No data","areaKm2":2.301013,"centerLat":6.608847,"centerLng":121.543754,"geometrySource":"barangays.geojson simplified fallback","geometryMatchMethod":"simplified_fallback","boundaryPointCount":25},"geometry":{"type":"MultiPolygon","coordinates":[[[[121.56136923000008,6.585499151000022],[121.56680594900001,6.58701334400007],[121.56568140800005,6.583018947000028],[121.56136923000008,6.585499151000022]]],[[[121.56092713800001,6.60224594500005],[121.56638277000002,6.597111662000032],[121.56444726900008,6.591517195000051],[121.55986125200002,6.594028858000058],[121.56092713800001,6.60224594500005]]],[[[121.54778784000007,6.599966316000064],[121.55071624800007,6.602522435000026],[121.551268047,6.602136270000074],[121.54778784000007,6.599966316000064]]],[[[121.55050398900005,6.61100288800003],[121.55121157700012,6.611579919000064],[121.55121742900008,6.610899327000027],[121.55050398900005,6.61100288800003]]],[[[121.54524408200007,6.619121636000045],[121.55462340400004,6.618418194000071],[121.54445562300009,6.61445836200005],[121.54524408200007,6.619121636000045]]],[[[121.51013099800002,6.620962064000025],[121.51766120100001,6.624329160000059],[121.51764743800004,6.614606608000031],[121.51013099800002,6.620962064000025]]]]}},{"type":"Feature","properties":{"ID_0":177,"ISO":"PHL","NAME_0":"Philippines","ID_1":19007,"NAME_1":"Basilan","ID_2":1900712,"NAME_2":"Hadji Muhtamad","ID_3":1900712007,"NAME_3":"Panducan","NL_NAME_3":null,"VARNAME_3":null,"TYPE_3":"Barangay","ENGTYPE_3":"Village","PROVINCE":"Basilan","REGION":"Bangsamoro Autonomous Region In Muslim Mindanao (BARMM)","id":"barangay-1900712007","name":"Panducan","barangayCode":"1900712007","population":null,"formattedPop":null,"densityCategory":"No data","vulnerabilityRating":"No data","healthRiskLevel":"No data","areaKm2":6.331764,"centerLat":6.600387,"centerLng":121.616923,"geometrySource":"barangays.geojson simplified fallback","geometryMatchMethod":"simplified_fallback","boundaryPointCount":22},"geometry":{"type":"MultiPolygon","coordinates":[[[[121.61050020400012,6.586867131000076],[121.61286292600005,6.584161799000071],[121.612087803,6.582806873000038],[121.61050020400012,6.586867131000076]]],[[[121.61427016000005,6.596528252000041],[121.6160335940001,6.595002565000073],[121.6139547900001,6.59395558500006],[121.61427016000005,6.596528252000041]]],[[[121.61595255500004,6.601412273000051],[121.61784279500012,6.600438707000023],[121.61643945500009,6.599683647000063],[121.61595255500004,6.601412273000051]]],[[[121.6111644130001,6.605930262000072],[121.61219194800003,6.607325766000031],[121.6114466460001,6.606051812000032],[121.6111644130001,6.605930262000072]]],[[[121.62116441400008,6.62685534600007],[121.62354111700006,6.584557593000056],[121.61775743200008,6.558674451000059],[121.6197586400001,6.599340949000066],[121.60101387000009,6.622552684000027],[121.62116441400008,6.62685534600007]]]]}},{"type":"Feature","properties":{"ID_0":177,"ISO":"PHL","NAME_0":"Philippines","ID_1":19007,"NAME_1":"Basilan","ID_2":1900712,"NAME_2":"Hadji Muhtamad","ID_3":1900712008,"NAME_3":"Sangbay Big","NL_NAME_3":null,"VARNAME_3":null,"TYPE_3":"Barangay","ENGTYPE_3":"Village","PROVINCE":"Basilan","REGION":"Bangsamoro Autonomous Region In Muslim Mindanao (BARMM)","id":"barangay-1900712008","name":"Sangbay Big","barangayCode":"1900712008","population":null,"formattedPop":null,"densityCategory":"No data","vulnerabilityRating":"No data","healthRiskLevel":"No data","areaKm2":2.203781,"centerLat":6.82549,"centerLng":121.539593,"geometrySource":"barangays.geojson simplified fallback","geometryMatchMethod":"simplified_fallback","boundaryPointCount":5},"geometry":{"type":"Polygon","coordinates":[[[121.53414878300009,6.835180215000037],[121.54646087700007,6.824424430000022],[121.54869616400003,6.812109787000054],[121.53011811100009,6.828680413000029],[121.53414878300009,6.835180215000037]]]}},{"type":"Feature","properties":{"ID_0":177,"ISO":"PHL","NAME_0":"Philippines","ID_1":19007,"NAME_1":"Basilan","ID_2":1900712,"NAME_2":"Hadji Muhtamad","ID_3":1900712009,"NAME_3":"Sangbay Small","NL_NAME_3":null,"VARNAME_3":null,"TYPE_3":"Barangay","ENGTYPE_3":"Village","PROVINCE":"Basilan","REGION":"Bangsamoro Autonomous Region In Muslim Mindanao (BARMM)","id":"barangay-1900712009","name":"Sangbay Small","barangayCode":"1900712009","population":null,"formattedPop":null,"densityCategory":"No data","vulnerabilityRating":"No data","healthRiskLevel":"No data","areaKm2":3.08532,"centerLat":6.858845,"centerLng":121.566813,"geometrySource":"barangays.geojson simplified fallback","geometryMatchMethod":"simplified_fallback","boundaryPointCount":9},"geometry":{"type":"MultiPolygon","coordinates":[[[[121.55331132700007,6.846515269000065],[121.56113402300002,6.842456240000047],[121.55639625900005,6.828235225000071],[121.5471231360001,6.838321179000047],[121.55331132700007,6.846515269000065]]],[[[121.58609492900007,6.90235879100004],[121.5936898120001,6.900784642000076],[121.5931401260001,6.888397267000073],[121.58609492900007,6.90235879100004]]]]}},{"type":"Feature","properties":{"ID_0":177,"ISO":"PHL","NAME_0":"Philippines","ID_1":19007,"NAME_1":"Basilan","ID_2":1900712,"NAME_2":"Hadji Muhtamad","ID_3":1900712010,"NAME_3":"Tausan","NL_NAME_3":null,"VARNAME_3":null,"TYPE_3":"Barangay","ENGTYPE_3":"Village","PROVINCE":"Basilan","REGION":"Bangsamoro Autonomous Region In Muslim Mindanao (BARMM)","id":"barangay-1900712010","name":"Tausan","barangayCode":"1900712010","population":null,"formattedPop":null,"densityCategory":"No data","vulnerabilityRating":"No data","healthRiskLevel":"No data","areaKm2":8.921183,"centerLat":6.648027,"centerLng":121.590323,"geometrySource":"barangays.geojson simplified fallback","geometryMatchMethod":"simplified_fallback","boundaryPointCount":37},"geometry":{"type":"MultiPolygon","coordinates":[[[[121.53251054900011,6.659549109000068],[121.53766099200004,6.653018347000057],[121.53430384700005,6.645823159000031],[121.52915025900006,6.650218547000065],[121.53251054900011,6.659549109000068]]],[[[121.52934922300005,6.662970268000038],[121.5293538730001,6.662459218000038],[121.52910126100005,6.662585440000043],[121.52934922300005,6.662970268000038]]],[[[121.56963159200006,6.664965754000036],[121.57050141600007,6.65353705800004],[121.56503969700009,6.646216184000025],[121.5634043440001,6.647260077000055],[121.56963159200006,6.664965754000036]]],[[[121.53099801600001,6.665012240000067],[121.53129472300009,6.664890229000036],[121.531035814,6.664820778000035],[121.53099801600001,6.665012240000067]]],[[[121.5318673480001,6.665753682000059],[121.53219051100007,6.665404545000058],[121.53176529500001,6.665438335000033],[121.5318673480001,6.665753682000059]]],[[[121.53054300800011,6.668156250000038],[121.53125599100008,6.667290078000065],[121.53078528200001,6.666525270000022],[121.53054300800011,6.668156250000038]]],[[[121.53332519500009,6.669921875000057],[121.53332519500009,6.669128418000071],[121.53271484400011,6.669494629000042],[121.53332519500009,6.669921875000057]]],[[[121.59009270800004,6.670526637000023],[121.61211295800001,6.648649995000028],[121.6117781260001,6.624994872000059],[121.59940129600011,6.624786198000038],[121.60170546300003,6.640727283000047],[121.5844938890001,6.664510625000048],[121.59009270800004,6.670526637000023]]]]}}]}
