{"type":"FeatureCollection","features":[{"type":"Feature","properties":{"ID_0":177,"ISO":"PHL","NAME_0":"Philippines","ID_1":19066,"NAME_1":"Sulu","ID_2":1906602,"NAME_2":"Jolo (Capital)","ID_3":1906602001,"NAME_3":"Alat","NL_NAME_3":null,"VARNAME_3":null,"TYPE_3":"Barangay","ENGTYPE_3":"Village","PROVINCE":"Sulu","REGION":"Bangsamoro Autonomous Region In Muslim Mindanao (BARMM)","id":"barangay-1906602001","name":"Alat","barangayCode":"1906602001","population":null,"formattedPop":null,"densityCategory":"No data","vulnerabilityRating":"No data","healthRiskLevel":"No data","areaKm2":0.105799,"centerLat":6.047996,"centerLng":120.997121,"geometrySource":"all_barangay-2.csv detailed WKT","geometryMatchMethod":"psgc_coordinate_bridge","boundaryPointCount":7},"geometry":{"type":"MultiPolygon","coordinates":[[[[120.995453,6.055],[120.995956,6.055],[121.001213,6.05142],[120.993317,6.05143],[120.994057,6.05275],[120.994926,6.05408],[120.995453,6.055]]]]}},{"type":"Feature","properties":{"ID_0":177,"ISO":"PHL","NAME_0":"Philippines","ID_1":19066,"NAME_1":"Sulu","ID_2":1906602,"NAME_2":"Jolo (Capital)","ID_3":1906602002,"NAME_3":"Asturias","NL_NAME_3":null,"VARNAME_3":null,"TYPE_3":"Barangay","ENGTYPE_3":"Village","PROVINCE":"Sulu","REGION":"Bangsamoro Autonomous Region In Muslim Mindanao (BARMM)","id":"barangay-1906602002","name":"Asturias","barangayCode":"1906602002","population":null,"formattedPop":null,"densityCategory":"No data","vulnerabilityRating":"No data","healthRiskLevel":"No data","areaKm2":0.361847,"centerLat":6.046307,"centerLng":121.000581,"geometrySource":"all_barangay-2.csv detailed WKT","geometryMatchMethod":"psgc_coordinate_bridge","boundaryPointCount":13},"geometry":{"type":"MultiPolygon","coordinates":[[[[121.009743,6.0554],[121.017067,6.05286],[121.020813,6.05064],[121.022408,6.04966],[121.026619,6.04835],[121.022537,6.04297],[121.019379,6.0388],[121.017967,6.03711],[121.016602,6.03603],[121.009621,6.03954],[121.004608,6.04217],[121.002037,6.04334],[121.009743,6.0554]]]]}},{"type":"Feature","properties":{"ID_0":177,"ISO":"PHL","NAME_0":"Philippines","ID_1":19066,"NAME_1":"Sulu","ID_2":1906602,"NAME_2":"Jolo (Capital)","ID_3":1906602003,"NAME_3":"Bus-bus","NL_NAME_3":null,"VARNAME_3":null,"TYPE_3":"Barangay","ENGTYPE_3":"Village","PROVINCE":"Sulu","REGION":"Bangsamoro Autonomous Region In Muslim Mindanao (BARMM)","id":"barangay-1906602003","name":"Bus-bus","barangayCode":"1906602003","population":null,"formattedPop":null,"densityCategory":"No data","vulnerabilityRating":"No data","healthRiskLevel":"No data","areaKm2":1.022997,"centerLat":6.058948,"centerLng":121.008075,"geometrySource":"all_barangay-2.csv detailed WKT","geometryMatchMethod":"psgc_coordinate_bridge","boundaryPointCount":10},"geometry":{"type":"MultiPolygon","coordinates":[[[[121.009422,6.06323],[121.009613,6.06153],[121.009277,6.05779],[121.009743,6.0554],[121.007004,6.05981],[121.005676,6.06084],[121.005836,6.06097],[121.007217,6.06306],[121.007607,6.06363],[121.009422,6.06323]]]]}},{"type":"Feature","properties":{"ID_0":177,"ISO":"PHL","NAME_0":"Philippines","ID_1":19066,"NAME_1":"Sulu","ID_2":1906602,"NAME_2":"Jolo (Capital)","ID_3":1906602004,"NAME_3":"Chinese Pier","NL_NAME_3":null,"VARNAME_3":null,"TYPE_3":"Barangay","ENGTYPE_3":"Village","PROVINCE":"Sulu","REGION":"Bangsamoro Autonomous Region In Muslim Mindanao (BARMM)","id":"barangay-1906602004","name":"Chinese Pier","barangayCode":"1906602004","population":null,"formattedPop":null,"densityCategory":"No data","vulnerabilityRating":"No data","healthRiskLevel":"No data","areaKm2":0.085058,"centerLat":6.053233,"centerLng":120.997433,"geometrySource":"all_barangay-2.csv detailed WKT","geometryMatchMethod":"psgc_coordinate_bridge","boundaryPointCount":13},"geometry":{"type":"MultiPolygon","coordinates":[[[[120.992973,6.05389],[120.993057,6.05389],[120.993332,6.05417],[120.993607,6.05417],[120.993889,6.05444],[120.994453,6.05444],[120.99472,6.05472],[120.995003,6.05472],[120.995277,6.055],[120.995453,6.055],[120.994926,6.05408],[120.994057,6.05275],[120.992973,6.05389]]]]}},{"type":"Feature","properties":{"ID_0":177,"ISO":"PHL","NAME_0":"Philippines","ID_1":19066,"NAME_1":"Sulu","ID_2":1906602,"NAME_2":"Jolo (Capital)","ID_3":1906602007,"NAME_3":"San Raymundo","NL_NAME_3":null,"VARNAME_3":null,"TYPE_3":"Barangay","ENGTYPE_3":"Village","PROVINCE":"Sulu","REGION":"Bangsamoro Autonomous Region In Muslim Mindanao (BARMM)","id":"barangay-1906602007","name":"San Raymundo","barangayCode":"1906602007","population":null,"formattedPop":null,"densityCategory":"No data","vulnerabilityRating":"No data","healthRiskLevel":"No data","areaKm2":0.854436,"centerLat":6.049438,"centerLng":121.006553,"geometrySource":"all_barangay-2.csv detailed WKT","geometryMatchMethod":"psgc_coordinate_bridge","boundaryPointCount":16},"geometry":{"type":"MultiPolygon","coordinates":[[[[121.021301,6.05734],[121.024712,6.05614],[121.026314,6.05491],[121.028923,6.05325],[121.029373,6.05276],[121.026619,6.04835],[121.022408,6.04966],[121.020813,6.05064],[121.017067,6.05286],[121.009743,6.0554],[121.009277,6.05779],[121.009613,6.06153],[121.009422,6.06323],[121.015869,6.0607],[121.018707,6.0593],[121.021301,6.05734]]]]}},{"type":"Feature","properties":{"ID_0":177,"ISO":"PHL","NAME_0":"Philippines","ID_1":19066,"NAME_1":"Sulu","ID_2":1906602,"NAME_2":"Jolo (Capital)","ID_3":1906602008,"NAME_3":"Takut-takut","NL_NAME_3":null,"VARNAME_3":null,"TYPE_3":"Barangay","ENGTYPE_3":"Village","PROVINCE":"Sulu","REGION":"Bangsamoro Autonomous Region In Muslim Mindanao (BARMM)","id":"barangay-1906602008","name":"Takut-takut","barangayCode":"1906602008","population":null,"formattedPop":null,"densityCategory":"No data","vulnerabilityRating":"No data","healthRiskLevel":"No data","areaKm2":0.04888,"centerLat":6.05312,"centerLng":120.996082,"geometrySource":"all_barangay-2.csv detailed WKT","geometryMatchMethod":"psgc_coordinate_bridge","boundaryPointCount":9},"geometry":{"type":"MultiPolygon","coordinates":[[[[120.991508,6.05333],[120.991943,6.05333],[120.992233,6.05361],[120.9925,6.05361],[120.992767,6.05389],[120.992973,6.05389],[120.994057,6.05275],[120.993317,6.05143],[120.991508,6.05333]]]]}},{"type":"Feature","properties":{"ID_0":177,"ISO":"PHL","NAME_0":"Philippines","ID_1":19066,"NAME_1":"Sulu","ID_2":1906602,"NAME_2":"Jolo (Capital)","ID_3":1906602009,"NAME_3":"Tulay","NL_NAME_3":null,"VARNAME_3":null,"TYPE_3":"Barangay","ENGTYPE_3":"Village","PROVINCE":"Sulu","REGION":"Bangsamoro Autonomous Region In Muslim Mindanao (BARMM)","id":"barangay-1906602009","name":"Tulay","barangayCode":"1906602009","population":null,"formattedPop":null,"densityCategory":"No data","vulnerabilityRating":"No data","healthRiskLevel":"No data","areaKm2":0.21456,"centerLat":6.051204,"centerLng":120.995635,"geometrySource":"all_barangay-2.csv detailed WKT","geometryMatchMethod":"psgc_coordinate_bridge","boundaryPointCount":6},"geometry":{"type":"MultiPolygon","coordinates":[[[[120.990173,6.05322],[120.99028,6.05333],[120.991508,6.05333],[120.993317,6.05143],[120.99221,6.05112],[120.990173,6.05322]]]]}},{"type":"Feature","properties":{"ID_0":177,"ISO":"PHL","NAME_0":"Philippines","ID_1":19066,"NAME_1":"Sulu","ID_2":1906602,"NAME_2":"Jolo (Capital)","ID_3":1906602010,"NAME_3":"Walled City","NL_NAME_3":null,"VARNAME_3":null,"TYPE_3":"Barangay","ENGTYPE_3":"Village","PROVINCE":"Sulu","REGION":"Bangsamoro Autonomous Region In Muslim Mindanao (BARMM)","id":"barangay-1906602010","name":"Walled City","barangayCode":"1906602010","population":null,"formattedPop":null,"densityCategory":"No data","vulnerabilityRating":"No data","healthRiskLevel":"No data","areaKm2":0.308117,"centerLat":6.05384,"centerLng":121.000788,"geometrySource":"all_barangay-2.csv detailed WKT","geometryMatchMethod":"psgc_coordinate_bridge","boundaryPointCount":29},"geometry":{"type":"MultiPolygon","coordinates":[[[[121.009743,6.0554],[121.002037,6.04334],[121.001663,6.04395],[121.001373,6.04638],[121.001602,6.04802],[121.001129,6.04996],[121.001167,6.05041],[121.001213,6.05142],[120.995956,6.055],[120.997498,6.055],[120.997833,6.05477],[120.998268,6.055],[120.998596,6.05535],[120.998863,6.05558],[120.998863,6.05588],[120.999443,6.05694],[120.999443,6.05722],[120.999733,6.05778],[121.0,6.05806],[121.000648,6.05874],[121.001129,6.05874],[121.001549,6.05817],[121.002281,6.05831],[121.002937,6.05872],[121.003242,6.05893],[121.003548,6.05902],[121.005676,6.06084],[121.007004,6.05981],[121.009743,6.0554]]]]}}]}
