{"type":"FeatureCollection","features":[{"type":"Feature","properties":{"ID_0":177,"ISO":"PHL","NAME_0":"Philippines","ID_1":19036,"NAME_1":"Lanao del Sur","ID_2":1903605,"NAME_2":"Binidayan","ID_3":1903605001,"NAME_3":"Badak","NL_NAME_3":null,"VARNAME_3":null,"TYPE_3":"Barangay","ENGTYPE_3":"Village","PROVINCE":"Lanao del Sur","REGION":"Bangsamoro Autonomous Region In Muslim Mindanao (BARMM)","id":"barangay-1903605001","name":"Badak","barangayCode":"1903605001","population":null,"formattedPop":null,"densityCategory":"No data","vulnerabilityRating":"No data","healthRiskLevel":"No data","areaKm2":1.382727,"centerLat":7.783905,"centerLng":124.153107,"geometrySource":"all_barangay-2.csv detailed WKT","geometryMatchMethod":"unique_official_admin_names","boundaryPointCount":6},"geometry":{"type":"MultiPolygon","coordinates":[[[[124.154716,7.73492],[124.15741,7.7343],[124.153061,7.70124],[124.147247,7.70369],[124.151199,7.73544],[124.154716,7.73492]]]]}},{"type":"Feature","properties":{"ID_0":177,"ISO":"PHL","NAME_0":"Philippines","ID_1":19036,"NAME_1":"Lanao del Sur","ID_2":1903605,"NAME_2":"Binidayan","ID_3":1903605002,"NAME_3":"Baguiangun","NL_NAME_3":null,"VARNAME_3":null,"TYPE_3":"Barangay","ENGTYPE_3":"Village","PROVINCE":"Lanao del Sur","REGION":"Bangsamoro Autonomous Region In Muslim Mindanao (BARMM)","id":"barangay-1903605002","name":"Baguiangun","barangayCode":"1903605002","population":null,"formattedPop":null,"densityCategory":"No data","vulnerabilityRating":"No data","healthRiskLevel":"No data","areaKm2":1.040286,"centerLat":7.783553,"centerLng":124.147322,"geometrySource":"all_barangay-2.csv detailed WKT","geometryMatchMethod":"unique_official_admin_names","boundaryPointCount":6},"geometry":{"type":"MultiPolygon","coordinates":[[[[124.14183,7.7339],[124.144913,7.73311],[124.142616,7.70551],[124.137413,7.70771],[124.141617,7.73227],[124.14183,7.7339]]]]}},{"type":"Feature","properties":{"ID_0":177,"ISO":"PHL","NAME_0":"Philippines","ID_1":19036,"NAME_1":"Lanao del Sur","ID_2":1903605,"NAME_2":"Binidayan","ID_3":1903605003,"NAME_3":"Balut Maito","NL_NAME_3":null,"VARNAME_3":null,"TYPE_3":"Barangay","ENGTYPE_3":"Village","PROVINCE":"Lanao del Sur","REGION":"Bangsamoro Autonomous Region In Muslim Mindanao (BARMM)","id":"barangay-1903605003","name":"Balut Maito","barangayCode":"1903605003","population":null,"formattedPop":null,"densityCategory":"No data","vulnerabilityRating":"No data","healthRiskLevel":"No data","areaKm2":0.050179,"centerLat":7.830295,"centerLng":124.172439,"geometrySource":"all_barangay-2.csv detailed WKT","geometryMatchMethod":"unique_official_admin_names","boundaryPointCount":31},"geometry":{"type":"MultiPolygon","coordinates":[[[[124.17823,7.81882],[124.178864,7.81843],[124.17952,7.81799],[124.180634,7.81787],[124.181137,7.81767],[124.181793,7.81679],[124.182251,7.81538],[124.182098,7.81439],[124.181122,7.8135],[124.180542,7.81322],[124.179413,7.81308],[124.177994,7.81311],[124.176651,7.8131],[124.175797,7.8135],[124.174583,7.81406],[124.173737,7.81441],[124.172821,7.81521],[124.172668,7.81538],[124.172447,7.81559],[124.171837,7.81608],[124.171204,7.81717],[124.171158,7.81761],[124.171448,7.81841],[124.171944,7.81879],[124.172958,7.81875],[124.17366,7.81884],[124.174156,7.81884],[124.174606,7.81901],[124.175293,7.8194],[124.176552,7.81931],[124.17823,7.81882]]]]}},{"type":"Feature","properties":{"ID_0":177,"ISO":"PHL","NAME_0":"Philippines","ID_1":19036,"NAME_1":"Lanao del Sur","ID_2":1903605,"NAME_2":"Binidayan","ID_3":1903605004,"NAME_3":"Basak","NL_NAME_3":null,"VARNAME_3":null,"TYPE_3":"Barangay","ENGTYPE_3":"Village","PROVINCE":"Lanao del Sur","REGION":"Bangsamoro Autonomous Region In Muslim Mindanao (BARMM)","id":"barangay-1903605004","name":"Basak","barangayCode":"1903605004","population":null,"formattedPop":null,"densityCategory":"No data","vulnerabilityRating":"No data","healthRiskLevel":"No data","areaKm2":0.440136,"centerLat":7.803799,"centerLng":124.159592,"geometrySource":"all_barangay-2.csv detailed WKT","geometryMatchMethod":"unique_official_admin_names","boundaryPointCount":7},"geometry":{"type":"MultiPolygon","coordinates":[[[[124.16993,7.80016],[124.174217,7.79871],[124.173927,7.79441],[124.170067,7.79545],[124.166481,7.79656],[124.167107,7.80104],[124.16993,7.80016]]]]}},{"type":"Feature","properties":{"ID_0":177,"ISO":"PHL","NAME_0":"Philippines","ID_1":19036,"NAME_1":"Lanao del Sur","ID_2":1903605,"NAME_2":"Binidayan","ID_3":1903605005,"NAME_3":"Bubong","NL_NAME_3":null,"VARNAME_3":null,"TYPE_3":"Barangay","ENGTYPE_3":"Village","PROVINCE":"Lanao del Sur","REGION":"Bangsamoro Autonomous Region In Muslim Mindanao (BARMM)","id":"barangay-1903605005","name":"Bubong","barangayCode":"1903605005","population":null,"formattedPop":null,"densityCategory":"No data","vulnerabilityRating":"No data","healthRiskLevel":"No data","areaKm2":0.366088,"centerLat":7.805879,"centerLng":124.156644,"geometrySource":"all_barangay-2.csv detailed WKT","geometryMatchMethod":"unique_official_admin_names","boundaryPointCount":11},"geometry":{"type":"MultiPolygon","coordinates":[[[[124.170273,7.80534],[124.170143,7.80277],[124.16993,7.80016],[124.167107,7.80104],[124.16581,7.8017],[124.166519,7.80687],[124.166634,7.80684],[124.16729,7.80643],[124.168037,7.80586],[124.169456,7.80541],[124.170273,7.80534]]]]}},{"type":"Feature","properties":{"ID_0":177,"ISO":"PHL","NAME_0":"Philippines","ID_1":19036,"NAME_1":"Lanao del Sur","ID_2":1903605,"NAME_2":"Binidayan","ID_3":1903605006,"NAME_3":"Bubonga-Ranao","NL_NAME_3":null,"VARNAME_3":null,"TYPE_3":"Barangay","ENGTYPE_3":"Village","PROVINCE":"Lanao del Sur","REGION":"Bangsamoro Autonomous Region In Muslim Mindanao (BARMM)","id":"barangay-1903605006","name":"Bubonga-Ranao","barangayCode":"1903605006","population":null,"formattedPop":null,"densityCategory":"No data","vulnerabilityRating":"No data","healthRiskLevel":"No data","areaKm2":0.962152,"centerLat":7.796278,"centerLng":124.157394,"geometrySource":"all_barangay-2.csv detailed WKT","geometryMatchMethod":"unique_official_admin_names","boundaryPointCount":7},"geometry":{"type":"MultiPolygon","coordinates":[[[[124.166481,7.79656],[124.170067,7.79545],[124.163719,7.73323],[124.15741,7.7343],[124.154716,7.73492],[124.164757,7.7972],[124.166481,7.79656]]]]}},{"type":"Feature","properties":{"ID_0":177,"ISO":"PHL","NAME_0":"Philippines","ID_1":19036,"NAME_1":"Lanao del Sur","ID_2":1903605,"NAME_2":"Binidayan","ID_3":1903605009,"NAME_3":"Dansalan Dacsula","NL_NAME_3":null,"VARNAME_3":null,"TYPE_3":"Barangay","ENGTYPE_3":"Village","PROVINCE":"Lanao del Sur","REGION":"Bangsamoro Autonomous Region In Muslim Mindanao (BARMM)","id":"barangay-1903605009","name":"Dansalan Dacsula","barangayCode":"1903605009","population":null,"formattedPop":null,"densityCategory":"No data","vulnerabilityRating":"No data","healthRiskLevel":"No data","areaKm2":0.084639,"centerLat":7.804414,"centerLng":124.176246,"geometrySource":"all_barangay-2.csv detailed WKT","geometryMatchMethod":"unique_official_admin_names","boundaryPointCount":6},"geometry":{"type":"MultiPolygon","coordinates":[[[[124.151199,7.73544],[124.147247,7.70369],[124.142616,7.70551],[124.144913,7.73311],[124.147331,7.7363],[124.151199,7.73544]]]]}},{"type":"Feature","properties":{"ID_0":177,"ISO":"PHL","NAME_0":"Philippines","ID_1":19036,"NAME_1":"Lanao del Sur","ID_2":1903605,"NAME_2":"Binidayan","ID_3":1903605010,"NAME_3":"Ingud","NL_NAME_3":null,"VARNAME_3":null,"TYPE_3":"Barangay","ENGTYPE_3":"Village","PROVINCE":"Lanao del Sur","REGION":"Bangsamoro Autonomous Region In Muslim Mindanao (BARMM)","id":"barangay-1903605010","name":"Ingud","barangayCode":"1903605010","population":null,"formattedPop":null,"densityCategory":"No data","vulnerabilityRating":"No data","healthRiskLevel":"No data","areaKm2":0.408832,"centerLat":7.804567,"centerLng":124.14445,"geometrySource":"all_barangay-2.csv detailed WKT","geometryMatchMethod":"unique_official_admin_names","boundaryPointCount":8},"geometry":{"type":"MultiPolygon","coordinates":[[[[124.166519,7.80687],[124.16581,7.8017],[124.161148,7.80296],[124.162277,7.80789],[124.163101,7.8075],[124.163567,7.80726],[124.164139,7.80697],[124.166519,7.80687]]]]}},{"type":"Feature","properties":{"ID_0":177,"ISO":"PHL","NAME_0":"Philippines","ID_1":19036,"NAME_1":"Lanao del Sur","ID_2":1903605,"NAME_2":"Binidayan","ID_3":1903605011,"NAME_3":"Kialilidan","NL_NAME_3":null,"VARNAME_3":null,"TYPE_3":"Barangay","ENGTYPE_3":"Village","PROVINCE":"Lanao del Sur","REGION":"Bangsamoro Autonomous Region In Muslim Mindanao (BARMM)","id":"barangay-1903605011","name":"Kialilidan","barangayCode":"1903605011","population":null,"formattedPop":null,"densityCategory":"No data","vulnerabilityRating":"No data","healthRiskLevel":"No data","areaKm2":0.417963,"centerLat":7.805529,"centerLng":124.151378,"geometrySource":"all_barangay-2.csv detailed WKT","geometryMatchMethod":"unique_official_admin_names","boundaryPointCount":7},"geometry":{"type":"MultiPolygon","coordinates":[[[[124.16581,7.8017],[124.167107,7.80104],[124.166481,7.79656],[124.164757,7.7972],[124.160133,7.79844],[124.161148,7.80296],[124.16581,7.8017]]]]}},{"type":"Feature","properties":{"ID_0":177,"ISO":"PHL","NAME_0":"Philippines","ID_1":19036,"NAME_1":"Lanao del Sur","ID_2":1903605,"NAME_2":"Binidayan","ID_3":1903605012,"NAME_3":"Lumbac","NL_NAME_3":null,"VARNAME_3":null,"TYPE_3":"Barangay","ENGTYPE_3":"Village","PROVINCE":"Lanao del Sur","REGION":"Bangsamoro Autonomous Region In Muslim Mindanao (BARMM)","id":"barangay-1903605012","name":"Lumbac","barangayCode":"1903605012","population":null,"formattedPop":null,"densityCategory":"No data","vulnerabilityRating":"No data","healthRiskLevel":"No data","areaKm2":0.21553,"centerLat":7.803017,"centerLng":124.169935,"geometrySource":"all_barangay-2.csv detailed WKT","geometryMatchMethod":"unique_official_admin_names","boundaryPointCount":9},"geometry":{"type":"MultiPolygon","coordinates":[[[[124.181503,7.80297],[124.180901,7.79659],[124.177521,7.79779],[124.178459,7.80442],[124.179123,7.80424],[124.179787,7.80385],[124.180183,7.80363],[124.181038,7.80317],[124.181503,7.80297]]]]}},{"type":"Feature","properties":{"ID_0":177,"ISO":"PHL","NAME_0":"Philippines","ID_1":19036,"NAME_1":"Lanao del Sur","ID_2":1903605,"NAME_2":"Binidayan","ID_3":1903605014,"NAME_3":"Macaguiling","NL_NAME_3":null,"VARNAME_3":null,"TYPE_3":"Barangay","ENGTYPE_3":"Village","PROVINCE":"Lanao del Sur","REGION":"Bangsamoro Autonomous Region In Muslim Mindanao (BARMM)","id":"barangay-1903605014","name":"Macaguiling","barangayCode":"1903605014","population":null,"formattedPop":null,"densityCategory":"No data","vulnerabilityRating":"No data","healthRiskLevel":"No data","areaKm2":0.38119,"centerLat":7.809177,"centerLng":124.131875,"geometrySource":"all_barangay-2.csv detailed WKT","geometryMatchMethod":"unique_official_admin_names","boundaryPointCount":12},"geometry":{"type":"MultiPolygon","coordinates":[[[[124.160797,7.80869],[124.157463,7.80642],[124.156403,7.79988],[124.15274,7.80072],[124.153938,7.80825],[124.155357,7.80875],[124.156342,7.80897],[124.156929,7.80905],[124.157539,7.80906],[124.159058,7.80893],[124.160004,7.80884],[124.160797,7.80869]]]]}},{"type":"Feature","properties":{"ID_0":177,"ISO":"PHL","NAME_0":"Philippines","ID_1":19036,"NAME_1":"Lanao del Sur","ID_2":1903605,"NAME_2":"Binidayan","ID_3":1903605015,"NAME_3":"Madaya","NL_NAME_3":null,"VARNAME_3":null,"TYPE_3":"Barangay","ENGTYPE_3":"Village","PROVINCE":"Lanao del Sur","REGION":"Bangsamoro Autonomous Region In Muslim Mindanao (BARMM)","id":"barangay-1903605015","name":"Madaya","barangayCode":"1903605015","population":null,"formattedPop":null,"densityCategory":"No data","vulnerabilityRating":"No data","healthRiskLevel":"No data","areaKm2":0.613239,"centerLat":7.794213,"centerLng":124.17195,"geometrySource":"all_barangay-2.csv detailed WKT","geometryMatchMethod":"unique_official_admin_names","boundaryPointCount":12},"geometry":{"type":"MultiPolygon","coordinates":[[[[124.187988,7.79011],[124.18779,7.78685],[124.187927,7.78464],[124.187721,7.77921],[124.187447,7.77579],[124.186813,7.75819],[124.185478,7.72291],[124.18441,7.6875],[124.180229,7.6892],[124.17968,7.75912],[124.181709,7.79226],[124.187988,7.79011]]]]}},{"type":"Feature","properties":{"ID_0":177,"ISO":"PHL","NAME_0":"Philippines","ID_1":19036,"NAME_1":"Lanao del Sur","ID_2":1903605,"NAME_2":"Binidayan","ID_3":1903605016,"NAME_3":"Magonaya","NL_NAME_3":null,"VARNAME_3":null,"TYPE_3":"Barangay","ENGTYPE_3":"Village","PROVINCE":"Lanao del Sur","REGION":"Bangsamoro Autonomous Region In Muslim Mindanao (BARMM)","id":"barangay-1903605016","name":"Magonaya","barangayCode":"1903605016","population":null,"formattedPop":null,"densityCategory":"No data","vulnerabilityRating":"No data","healthRiskLevel":"No data","areaKm2":0.197384,"centerLat":7.804151,"centerLng":124.180469,"geometrySource":"all_barangay-2.csv detailed WKT","geometryMatchMethod":"unique_official_admin_names","boundaryPointCount":8},"geometry":{"type":"MultiPolygon","coordinates":[[[[124.187599,7.79978],[124.188004,7.79388],[124.184151,7.79551],[124.184593,7.80152],[124.185242,7.80109],[124.18576,7.80082],[124.18676,7.80047],[124.187599,7.79978]]]]}},{"type":"Feature","properties":{"ID_0":177,"ISO":"PHL","NAME_0":"Philippines","ID_1":19036,"NAME_1":"Lanao del Sur","ID_2":1903605,"NAME_2":"Binidayan","ID_3":1903605017,"NAME_3":"Maindig","NL_NAME_3":null,"VARNAME_3":null,"TYPE_3":"Barangay","ENGTYPE_3":"Village","PROVINCE":"Lanao del Sur","REGION":"Bangsamoro Autonomous Region In Muslim Mindanao (BARMM)","id":"barangay-1903605017","name":"Maindig","barangayCode":"1903605017","population":null,"formattedPop":null,"densityCategory":"No data","vulnerabilityRating":"No data","healthRiskLevel":"No data","areaKm2":0.041114,"centerLat":7.806362,"centerLng":124.166987,"geometrySource":"all_barangay-2.csv detailed WKT","geometryMatchMethod":"unique_official_admin_names","boundaryPointCount":8},"geometry":{"type":"MultiPolygon","coordinates":[[[[124.178459,7.80442],[124.177521,7.79779],[124.174217,7.79871],[124.173912,7.80205],[124.173958,7.80513],[124.175339,7.80524],[124.176247,7.80517],[124.178459,7.80442]]]]}},{"type":"Feature","properties":{"ID_0":177,"ISO":"PHL","NAME_0":"Philippines","ID_1":19036,"NAME_1":"Lanao del Sur","ID_2":1903605,"NAME_2":"Binidayan","ID_3":1903605018,"NAME_3":"Masolun","NL_NAME_3":null,"VARNAME_3":null,"TYPE_3":"Barangay","ENGTYPE_3":"Village","PROVINCE":"Lanao del Sur","REGION":"Bangsamoro Autonomous Region In Muslim Mindanao (BARMM)","id":"barangay-1903605018","name":"Masolun","barangayCode":"1903605018","population":null,"formattedPop":null,"densityCategory":"No data","vulnerabilityRating":"No data","healthRiskLevel":"No data","areaKm2":1.020614,"centerLat":7.784684,"centerLng":124.14243,"geometrySource":"all_barangay-2.csv detailed WKT","geometryMatchMethod":"unique_official_admin_names","boundaryPointCount":7},"geometry":{"type":"MultiPolygon","coordinates":[[[[124.151016,7.75801],[124.147331,7.7363],[124.144913,7.73311],[124.14183,7.7339],[124.145271,7.7546],[124.146042,7.75875],[124.151016,7.75801]]]]}},{"type":"Feature","properties":{"ID_0":177,"ISO":"PHL","NAME_0":"Philippines","ID_1":19036,"NAME_1":"Lanao del Sur","ID_2":1903605,"NAME_2":"Binidayan","ID_3":1903605019,"NAME_3":"Olama","NL_NAME_3":null,"VARNAME_3":null,"TYPE_3":"Barangay","ENGTYPE_3":"Village","PROVINCE":"Lanao del Sur","REGION":"Bangsamoro Autonomous Region In Muslim Mindanao (BARMM)","id":"barangay-1903605019","name":"Olama","barangayCode":"1903605019","population":null,"formattedPop":null,"densityCategory":"No data","vulnerabilityRating":"No data","healthRiskLevel":"No data","areaKm2":0.296717,"centerLat":7.803426,"centerLng":124.163655,"geometrySource":"all_barangay-2.csv detailed WKT","geometryMatchMethod":"unique_official_admin_names","boundaryPointCount":5},"geometry":{"type":"MultiPolygon","coordinates":[[[[124.170143,7.80277],[124.173912,7.80205],[124.174217,7.79871],[124.16993,7.80016],[124.170143,7.80277]]]]}},{"type":"Feature","properties":{"ID_0":177,"ISO":"PHL","NAME_0":"Philippines","ID_1":19036,"NAME_1":"Lanao del Sur","ID_2":1903605,"NAME_2":"Binidayan","ID_3":1903605020,"NAME_3":"Pagalamatan","NL_NAME_3":null,"VARNAME_3":null,"TYPE_3":"Barangay","ENGTYPE_3":"Village","PROVINCE":"Lanao del Sur","REGION":"Bangsamoro Autonomous Region In Muslim Mindanao (BARMM)","id":"barangay-1903605020","name":"Pagalamatan","barangayCode":"1903605020","population":null,"formattedPop":null,"densityCategory":"No data","vulnerabilityRating":"No data","healthRiskLevel":"No data","areaKm2":0.53401,"centerLat":7.79288,"centerLng":124.167714,"geometrySource":"all_barangay-2.csv detailed WKT","geometryMatchMethod":"unique_official_admin_names","boundaryPointCount":8},"geometry":{"type":"MultiPolygon","coordinates":[[[[124.181709,7.79226],[124.17968,7.75912],[124.180229,7.6892],[124.178268,7.68999],[124.170723,7.69276],[124.172539,7.75915],[124.173927,7.79441],[124.181709,7.79226]]]]}},{"type":"Feature","properties":{"ID_0":177,"ISO":"PHL","NAME_0":"Philippines","ID_1":19036,"NAME_1":"Lanao del Sur","ID_2":1903605,"NAME_2":"Binidayan","ID_3":1903605021,"NAME_3":"Pantar","NL_NAME_3":null,"VARNAME_3":null,"TYPE_3":"Barangay","ENGTYPE_3":"Village","PROVINCE":"Lanao del Sur","REGION":"Bangsamoro Autonomous Region In Muslim Mindanao (BARMM)","id":"barangay-1903605021","name":"Pantar","barangayCode":"1903605021","population":null,"formattedPop":null,"densityCategory":"No data","vulnerabilityRating":"No data","healthRiskLevel":"No data","areaKm2":0.385769,"centerLat":7.800836,"centerLng":124.177248,"geometrySource":"all_barangay-2.csv detailed WKT","geometryMatchMethod":"unique_official_admin_names","boundaryPointCount":7},"geometry":{"type":"MultiPolygon","coordinates":[[[[124.184151,7.79551],[124.188004,7.79388],[124.188057,7.79188],[124.187988,7.79011],[124.181709,7.79226],[124.18206,7.79626],[124.184151,7.79551]]]]}},{"type":"Feature","properties":{"ID_0":177,"ISO":"PHL","NAME_0":"Philippines","ID_1":19036,"NAME_1":"Lanao del Sur","ID_2":1903605,"NAME_2":"Binidayan","ID_3":1903605022,"NAME_3":"Picalilangan","NL_NAME_3":null,"VARNAME_3":null,"TYPE_3":"Barangay","ENGTYPE_3":"Village","PROVINCE":"Lanao del Sur","REGION":"Bangsamoro Autonomous Region In Muslim Mindanao (BARMM)","id":"barangay-1903605022","name":"Picalilangan","barangayCode":"1903605022","population":null,"formattedPop":null,"densityCategory":"No data","vulnerabilityRating":"No data","healthRiskLevel":"No data","areaKm2":1.204274,"centerLat":7.797536,"centerLng":124.14836,"geometrySource":"all_barangay-2.csv detailed WKT","geometryMatchMethod":"unique_official_admin_names","boundaryPointCount":8},"geometry":{"type":"MultiPolygon","coordinates":[[[[124.160133,7.79844],[124.164757,7.7972],[124.154716,7.73492],[124.151199,7.73544],[124.147331,7.7363],[124.151016,7.75801],[124.158722,7.79886],[124.160133,7.79844]]]]}},{"type":"Feature","properties":{"ID_0":177,"ISO":"PHL","NAME_0":"Philippines","ID_1":19036,"NAME_1":"Lanao del Sur","ID_2":1903605,"NAME_2":"Binidayan","ID_3":1903605023,"NAME_3":"Picotaan","NL_NAME_3":null,"VARNAME_3":null,"TYPE_3":"Barangay","ENGTYPE_3":"Village","PROVINCE":"Lanao del Sur","REGION":"Bangsamoro Autonomous Region In Muslim Mindanao (BARMM)","id":"barangay-1903605023","name":"Picotaan","barangayCode":"1903605023","population":null,"formattedPop":null,"densityCategory":"No data","vulnerabilityRating":"No data","healthRiskLevel":"No data","areaKm2":1.048944,"centerLat":7.782571,"centerLng":124.159005,"geometrySource":"all_barangay-2.csv detailed WKT","geometryMatchMethod":"unique_official_admin_names","boundaryPointCount":5},"geometry":{"type":"MultiPolygon","coordinates":[[[[124.15741,7.7343],[124.163719,7.73323],[124.160408,7.69812],[124.153061,7.70124],[124.15741,7.7343]]]]}},{"type":"Feature","properties":{"ID_0":177,"ISO":"PHL","NAME_0":"Philippines","ID_1":19036,"NAME_1":"Lanao del Sur","ID_2":1903605,"NAME_2":"Binidayan","ID_3":1903605024,"NAME_3":"Pindolonan","NL_NAME_3":null,"VARNAME_3":null,"TYPE_3":"Barangay","ENGTYPE_3":"Village","PROVINCE":"Lanao del Sur","REGION":"Bangsamoro Autonomous Region In Muslim Mindanao (BARMM)","id":"barangay-1903605024","name":"Pindolonan","barangayCode":"1903605024","population":null,"formattedPop":null,"densityCategory":"No data","vulnerabilityRating":"No data","healthRiskLevel":"No data","areaKm2":0.26646,"centerLat":7.803237,"centerLng":124.167217,"geometrySource":"all_barangay-2.csv detailed WKT","geometryMatchMethod":"unique_official_admin_names","boundaryPointCount":7},"geometry":{"type":"MultiPolygon","coordinates":[[[[124.177521,7.79779],[124.180901,7.79659],[124.18206,7.79626],[124.181709,7.79226],[124.173927,7.79441],[124.174217,7.79871],[124.177521,7.79779]]]]}},{"type":"Feature","properties":{"ID_0":177,"ISO":"PHL","NAME_0":"Philippines","ID_1":19036,"NAME_1":"Lanao del Sur","ID_2":1903605,"NAME_2":"Binidayan","ID_3":1903605025,"NAME_3":"Poblacion","NL_NAME_3":null,"VARNAME_3":null,"TYPE_3":"Barangay","ENGTYPE_3":"Village","PROVINCE":"Lanao del Sur","REGION":"Bangsamoro Autonomous Region In Muslim Mindanao (BARMM)","id":"barangay-1903605025","name":"Poblacion","barangayCode":"1903605025","population":null,"formattedPop":null,"densityCategory":"No data","vulnerabilityRating":"No data","healthRiskLevel":"No data","areaKm2":1.312005,"centerLat":7.788072,"centerLng":124.163798,"geometrySource":"all_barangay-2.csv detailed WKT","geometryMatchMethod":"unique_official_admin_names","boundaryPointCount":8},"geometry":{"type":"MultiPolygon","coordinates":[[[[124.170067,7.79545],[124.173927,7.79441],[124.172539,7.75915],[124.170723,7.69276],[124.16909,7.69339],[124.160408,7.69812],[124.163719,7.73323],[124.170067,7.79545]]]]}},{"type":"Feature","properties":{"ID_0":177,"ISO":"PHL","NAME_0":"Philippines","ID_1":19036,"NAME_1":"Lanao del Sur","ID_2":1903605,"NAME_2":"Binidayan","ID_3":1903605028,"NAME_3":"Soldaroro","NL_NAME_3":null,"VARNAME_3":null,"TYPE_3":"Barangay","ENGTYPE_3":"Village","PROVINCE":"Lanao del Sur","REGION":"Bangsamoro Autonomous Region In Muslim Mindanao (BARMM)","id":"barangay-1903605028","name":"Soldaroro","barangayCode":"1903605028","population":null,"formattedPop":null,"densityCategory":"No data","vulnerabilityRating":"No data","healthRiskLevel":"No data","areaKm2":0.462644,"centerLat":7.80607,"centerLng":124.136577,"geometrySource":"all_barangay-2.csv detailed WKT","geometryMatchMethod":"unique_official_admin_names","boundaryPointCount":9},"geometry":{"type":"MultiPolygon","coordinates":[[[[124.162277,7.80789],[124.161148,7.80296],[124.160133,7.79844],[124.158722,7.79886],[124.156403,7.79988],[124.157463,7.80642],[124.160797,7.80869],[124.161499,7.80837],[124.162277,7.80789]]]]}},{"type":"Feature","properties":{"ID_0":177,"ISO":"PHL","NAME_0":"Philippines","ID_1":19036,"NAME_1":"Lanao del Sur","ID_2":1903605,"NAME_2":"Binidayan","ID_3":1903605030,"NAME_3":"Tambac","NL_NAME_3":null,"VARNAME_3":null,"TYPE_3":"Barangay","ENGTYPE_3":"Village","PROVINCE":"Lanao del Sur","REGION":"Bangsamoro Autonomous Region In Muslim Mindanao (BARMM)","id":"barangay-1903605030","name":"Tambac","barangayCode":"1903605030","population":null,"formattedPop":null,"densityCategory":"No data","vulnerabilityRating":"No data","healthRiskLevel":"No data","areaKm2":0.26743,"centerLat":7.802275,"centerLng":124.172655,"geometrySource":"all_barangay-2.csv detailed WKT","geometryMatchMethod":"unique_official_admin_names","boundaryPointCount":9},"geometry":{"type":"MultiPolygon","coordinates":[[[[124.184593,7.80152],[124.184151,7.79551],[124.18206,7.79626],[124.180901,7.79659],[124.181503,7.80297],[124.183128,7.80239],[124.183746,7.8021],[124.184128,7.80193],[124.184593,7.80152]]]]}},{"type":"Feature","properties":{"ID_0":177,"ISO":"PHL","NAME_0":"Philippines","ID_1":19036,"NAME_1":"Lanao del Sur","ID_2":1903605,"NAME_2":"Binidayan","ID_3":1903605033,"NAME_3":"Timbangan","NL_NAME_3":null,"VARNAME_3":null,"TYPE_3":"Barangay","ENGTYPE_3":"Village","PROVINCE":"Lanao del Sur","REGION":"Bangsamoro Autonomous Region In Muslim Mindanao (BARMM)","id":"barangay-1903605033","name":"Timbangan","barangayCode":"1903605033","population":null,"formattedPop":null,"densityCategory":"No data","vulnerabilityRating":"No data","healthRiskLevel":"No data","areaKm2":1.645243,"centerLat":7.799091,"centerLng":124.1363,"geometrySource":"all_barangay-2.csv detailed WKT","geometryMatchMethod":"unique_official_admin_names","boundaryPointCount":11},"geometry":{"type":"MultiPolygon","coordinates":[[[[124.156403,7.79988],[124.158722,7.79886],[124.151016,7.75801],[124.146042,7.75875],[124.14817,7.77144],[124.149406,7.78025],[124.1502,7.78478],[124.151047,7.79025],[124.151833,7.79601],[124.15274,7.80072],[124.156403,7.79988]]]]}},{"type":"Feature","properties":{"ID_0":177,"ISO":"PHL","NAME_0":"Philippines","ID_1":19036,"NAME_1":"Lanao del Sur","ID_2":1903605,"NAME_2":"Binidayan","ID_3":1903605034,"NAME_3":"Tuca","NL_NAME_3":null,"VARNAME_3":null,"TYPE_3":"Barangay","ENGTYPE_3":"Village","PROVINCE":"Lanao del Sur","REGION":"Bangsamoro Autonomous Region In Muslim Mindanao (BARMM)","id":"barangay-1903605034","name":"Tuca","barangayCode":"1903605034","population":null,"formattedPop":null,"densityCategory":"No data","vulnerabilityRating":"No data","healthRiskLevel":"No data","areaKm2":0.106759,"centerLat":7.807791,"centerLng":124.163916,"geometrySource":"all_barangay-2.csv detailed WKT","geometryMatchMethod":"unique_official_admin_names","boundaryPointCount":8},"geometry":{"type":"MultiPolygon","coordinates":[[[[124.173958,7.80513],[124.173912,7.80205],[124.170143,7.80277],[124.170273,7.80534],[124.171387,7.8052],[124.172249,7.80499],[124.172997,7.80497],[124.173958,7.80513]]]]}}]}
