{"type":"FeatureCollection","features":[{"type":"Feature","properties":{"ID_0":177,"ISO":"PHL","NAME_0":"Philippines","ID_1":14032,"NAME_1":"Kalinga","ID_2":1403214,"NAME_2":"Tanudan","ID_3":1403214001,"NAME_3":"Anggacan","NL_NAME_3":null,"VARNAME_3":null,"TYPE_3":"Barangay","ENGTYPE_3":"Village","PROVINCE":"Kalinga","REGION":"Cordillera Administrative Region (CAR)","id":"barangay-1403214001","name":"Anggacan","barangayCode":"1403214001","population":null,"formattedPop":null,"densityCategory":"No data","vulnerabilityRating":"No data","healthRiskLevel":"No data","areaKm2":5.780004,"centerLat":17.318904,"centerLng":121.252105,"geometrySource":"all_barangay-2.csv detailed WKT","geometryMatchMethod":"unique_official_admin_names","boundaryPointCount":6},"geometry":{"type":"MultiPolygon","coordinates":[[[[121.335869,17.33728],[121.335564,17.32247],[121.260483,17.32131],[121.260071,17.336399],[121.283188,17.33695],[121.335869,17.33728]]]]}},{"type":"Feature","properties":{"ID_0":177,"ISO":"PHL","NAME_0":"Philippines","ID_1":14032,"NAME_1":"Kalinga","ID_2":1403214,"NAME_2":"Tanudan","ID_3":1403214002,"NAME_3":"Babbanoy","NL_NAME_3":null,"VARNAME_3":null,"TYPE_3":"Barangay","ENGTYPE_3":"Village","PROVINCE":"Kalinga","REGION":"Cordillera Administrative Region (CAR)","id":"barangay-1403214002","name":"Babbanoy","barangayCode":"1403214002","population":null,"formattedPop":null,"densityCategory":"No data","vulnerabilityRating":"No data","healthRiskLevel":"No data","areaKm2":8.088777,"centerLat":17.276541,"centerLng":121.209484,"geometrySource":"all_barangay-2.csv detailed WKT","geometryMatchMethod":"unique_official_admin_names","boundaryPointCount":7},"geometry":{"type":"MultiPolygon","coordinates":[[[[121.273727,17.28854],[121.273567,17.27281],[121.225319,17.272699],[121.190453,17.2736],[121.194748,17.284229],[121.196114,17.289619],[121.273727,17.28854]]]]}},{"type":"Feature","properties":{"ID_0":177,"ISO":"PHL","NAME_0":"Philippines","ID_1":14032,"NAME_1":"Kalinga","ID_2":1403214,"NAME_2":"Tanudan","ID_3":1403214003,"NAME_3":"Dacalan","NL_NAME_3":null,"VARNAME_3":null,"TYPE_3":"Barangay","ENGTYPE_3":"Village","PROVINCE":"Kalinga","REGION":"Cordillera Administrative Region (CAR)","id":"barangay-1403214003","name":"Dacalan","barangayCode":"1403214003","population":null,"formattedPop":null,"densityCategory":"No data","vulnerabilityRating":"No data","healthRiskLevel":"No data","areaKm2":73.641981,"centerLat":17.211336,"centerLng":121.202782,"geometrySource":"all_barangay-2.csv detailed WKT","geometryMatchMethod":"unique_official_admin_names","boundaryPointCount":46},"geometry":{"type":"MultiPolygon","coordinates":[[[[121.181679,17.24843],[121.206268,17.2416],[121.207199,17.241199],[121.209457,17.24123],[121.210091,17.241501],[121.211708,17.241301],[121.213989,17.241341],[121.214539,17.24172],[121.215424,17.242189],[121.21759,17.243759],[121.21965,17.245399],[121.220901,17.24571],[121.22242,17.24486],[121.223259,17.24527],[121.224129,17.24472],[121.224998,17.24526],[121.22596,17.245449],[121.227562,17.244591],[121.229233,17.244921],[121.230507,17.24502],[121.231537,17.244671],[121.233063,17.24338],[121.233856,17.24338],[121.234306,17.243641],[121.234741,17.243641],[121.234863,17.24262],[121.234734,17.24136],[121.234688,17.240561],[121.234947,17.240129],[121.235497,17.23884],[121.236977,17.23802],[121.239197,17.2374],[121.239906,17.237209],[121.273613,17.237631],[121.273537,17.20331],[121.249657,17.186239],[121.228813,17.180229],[121.221008,17.178089],[121.208023,17.1763],[121.191223,17.174271],[121.180008,17.17264],[121.162209,17.168171],[121.172081,17.21928],[121.175201,17.23056],[121.180489,17.24663],[121.181679,17.24843]]]]}},{"type":"Feature","properties":{"ID_0":177,"ISO":"PHL","NAME_0":"Philippines","ID_1":14032,"NAME_1":"Kalinga","ID_2":1403214,"NAME_2":"Tanudan","ID_3":1403214004,"NAME_3":"Gaang","NL_NAME_3":null,"VARNAME_3":null,"TYPE_3":"Barangay","ENGTYPE_3":"Village","PROVINCE":"Kalinga","REGION":"Cordillera Administrative Region (CAR)","id":"barangay-1403214004","name":"Gaang","barangayCode":"1403214004","population":null,"formattedPop":null,"densityCategory":"No data","vulnerabilityRating":"No data","healthRiskLevel":"No data","areaKm2":11.816713,"centerLat":17.249664,"centerLng":121.218857,"geometrySource":"all_barangay-2.csv detailed WKT","geometryMatchMethod":"unique_official_admin_names","boundaryPointCount":62},"geometry":{"type":"MultiPolygon","coordinates":[[[[121.224907,17.2628],[121.225937,17.261311],[121.226929,17.26067],[121.228203,17.260679],[121.229507,17.259211],[121.230904,17.25988],[121.23159,17.260639],[121.23291,17.259411],[121.234001,17.25835],[121.235588,17.25807],[121.238052,17.258631],[121.239243,17.25919],[121.240067,17.25951],[121.241127,17.26046],[121.273613,17.259501],[121.273613,17.237631],[121.239906,17.237209],[121.239197,17.2374],[121.236977,17.23802],[121.235497,17.23884],[121.234947,17.240129],[121.234688,17.240561],[121.234734,17.24136],[121.234863,17.24262],[121.234741,17.243641],[121.234306,17.243641],[121.233856,17.24338],[121.233063,17.24338],[121.231537,17.244671],[121.230507,17.24502],[121.229233,17.244921],[121.227562,17.244591],[121.22596,17.245449],[121.224998,17.24526],[121.224129,17.24472],[121.223259,17.24527],[121.22242,17.24486],[121.220901,17.24571],[121.21965,17.245399],[121.21759,17.243759],[121.215424,17.242189],[121.214539,17.24172],[121.213989,17.241341],[121.211708,17.241301],[121.210091,17.241501],[121.209457,17.24123],[121.207199,17.241199],[121.206268,17.2416],[121.181679,17.24843],[121.185379,17.260361],[121.20517,17.2614],[121.20713,17.260969],[121.209106,17.26123],[121.209892,17.261641],[121.211067,17.26186],[121.212807,17.262159],[121.214363,17.26269],[121.216057,17.26198],[121.217888,17.26203],[121.220596,17.262501],[121.222816,17.26297],[121.224907,17.2628]]]]}},{"type":"Feature","properties":{"ID_0":177,"ISO":"PHL","NAME_0":"Philippines","ID_1":14032,"NAME_1":"Kalinga","ID_2":1403214,"NAME_2":"Tanudan","ID_3":1403214005,"NAME_3":"Lower Mangali","NL_NAME_3":null,"VARNAME_3":null,"TYPE_3":"Barangay","ENGTYPE_3":"Village","PROVINCE":"Kalinga","REGION":"Cordillera Administrative Region (CAR)","id":"barangay-1403214005","name":"Lower Mangali","barangayCode":"1403214005","population":null,"formattedPop":null,"densityCategory":"No data","vulnerabilityRating":"No data","healthRiskLevel":"No data","areaKm2":6.375289,"centerLat":17.313012,"centerLng":121.218096,"geometrySource":"all_barangay-2.csv detailed WKT","geometryMatchMethod":"unique_official_admin_names","boundaryPointCount":5},"geometry":{"type":"MultiPolygon","coordinates":[[[[121.260071,17.336399],[121.260483,17.32131],[121.207718,17.32053],[121.215012,17.336781],[121.260071,17.336399]]]]}},{"type":"Feature","properties":{"ID_0":177,"ISO":"PHL","NAME_0":"Philippines","ID_1":14032,"NAME_1":"Kalinga","ID_2":1403214,"NAME_2":"Tanudan","ID_3":1403214006,"NAME_3":"Lower Taloctoc","NL_NAME_3":null,"VARNAME_3":null,"TYPE_3":"Barangay","ENGTYPE_3":"Village","PROVINCE":"Kalinga","REGION":"Cordillera Administrative Region (CAR)","id":"barangay-1403214006","name":"Lower Taloctoc","barangayCode":"1403214006","population":null,"formattedPop":null,"densityCategory":"No data","vulnerabilityRating":"No data","healthRiskLevel":"No data","areaKm2":19.10414,"centerLat":17.359742,"centerLng":121.246294,"geometrySource":"all_barangay-2.csv detailed WKT","geometryMatchMethod":"unique_official_admin_names","boundaryPointCount":19},"geometry":{"type":"MultiPolygon","coordinates":[[[[121.27356,17.3734],[121.277344,17.37318],[121.28183,17.372999],[121.28315,17.354111],[121.225433,17.353331],[121.228081,17.356911],[121.230217,17.359369],[121.232712,17.361679],[121.237083,17.364861],[121.241241,17.366791],[121.244202,17.367769],[121.247353,17.368839],[121.25161,17.37002],[121.253571,17.37079],[121.256813,17.371481],[121.260696,17.372311],[121.264107,17.372629],[121.268372,17.373211],[121.27356,17.3734]]]]}},{"type":"Feature","properties":{"ID_0":177,"ISO":"PHL","NAME_0":"Philippines","ID_1":14032,"NAME_1":"Kalinga","ID_2":1403214,"NAME_2":"Tanudan","ID_3":1403214007,"NAME_3":"Lower Lubo","NL_NAME_3":null,"VARNAME_3":null,"TYPE_3":"Barangay","ENGTYPE_3":"Village","PROVINCE":"Kalinga","REGION":"Cordillera Administrative Region (CAR)","id":"barangay-1403214007","name":"Lower Lubo","barangayCode":"1403214007","population":null,"formattedPop":null,"densityCategory":"No data","vulnerabilityRating":"No data","healthRiskLevel":"No data","areaKm2":8.47288,"centerLat":17.268798,"centerLng":121.247816,"geometrySource":"all_barangay-2.csv detailed WKT","geometryMatchMethod":"unique_official_admin_names","boundaryPointCount":18},"geometry":{"type":"MultiPolygon","coordinates":[[[[121.273567,17.27281],[121.273613,17.259501],[121.241127,17.26046],[121.240067,17.25951],[121.239243,17.25919],[121.238052,17.258631],[121.235588,17.25807],[121.234001,17.25835],[121.23291,17.259411],[121.23159,17.260639],[121.230904,17.25988],[121.229507,17.259211],[121.228203,17.260679],[121.226929,17.26067],[121.225937,17.261311],[121.224907,17.2628],[121.225319,17.272699],[121.273567,17.27281]]]]}},{"type":"Feature","properties":{"ID_0":177,"ISO":"PHL","NAME_0":"Philippines","ID_1":14032,"NAME_1":"Kalinga","ID_2":1403214,"NAME_2":"Tanudan","ID_3":1403214008,"NAME_3":"Upper Lubo","NL_NAME_3":null,"VARNAME_3":null,"TYPE_3":"Barangay","ENGTYPE_3":"Village","PROVINCE":"Kalinga","REGION":"Cordillera Administrative Region (CAR)","id":"barangay-1403214008","name":"Upper Lubo","barangayCode":"1403214008","population":null,"formattedPop":null,"densityCategory":"No data","vulnerabilityRating":"No data","healthRiskLevel":"No data","areaKm2":5.308286,"centerLat":17.264692,"centerLng":121.2073,"geometrySource":"all_barangay-2.csv detailed WKT","geometryMatchMethod":"unique_official_admin_names","boundaryPointCount":17},"geometry":{"type":"MultiPolygon","coordinates":[[[[121.225319,17.272699],[121.224907,17.2628],[121.222816,17.26297],[121.220596,17.262501],[121.217888,17.26203],[121.216057,17.26198],[121.214363,17.26269],[121.212807,17.262159],[121.211067,17.26186],[121.209892,17.261641],[121.209106,17.26123],[121.20713,17.260969],[121.20517,17.2614],[121.185379,17.260361],[121.189087,17.27033],[121.190453,17.2736],[121.225319,17.272699]]]]}},{"type":"Feature","properties":{"ID_0":177,"ISO":"PHL","NAME_0":"Philippines","ID_1":14032,"NAME_1":"Kalinga","ID_2":1403214,"NAME_2":"Tanudan","ID_3":1403214009,"NAME_3":"Mabaca","NL_NAME_3":null,"VARNAME_3":null,"TYPE_3":"Barangay","ENGTYPE_3":"Village","PROVINCE":"Kalinga","REGION":"Cordillera Administrative Region (CAR)","id":"barangay-1403214009","name":"Mabaca","barangayCode":"1403214009","population":null,"formattedPop":null,"densityCategory":"No data","vulnerabilityRating":"No data","healthRiskLevel":"No data","areaKm2":35.858823,"centerLat":17.320693,"centerLng":121.307332,"geometrySource":"all_barangay-2.csv detailed WKT","geometryMatchMethod":"unique_official_admin_names","boundaryPointCount":25},"geometry":{"type":"MultiPolygon","coordinates":[[[[121.334648,17.36433],[121.335869,17.33728],[121.283188,17.33695],[121.28315,17.354111],[121.28183,17.372999],[121.286118,17.372049],[121.291153,17.371281],[121.296432,17.37031],[121.299713,17.36973],[121.302368,17.36618],[121.306152,17.365],[121.31041,17.363819],[121.31514,17.361851],[121.326073,17.36203],[121.326767,17.36171],[121.32785,17.3615],[121.328171,17.361601],[121.32946,17.36142],[121.330467,17.36179],[121.331146,17.36203],[121.331734,17.362249],[121.332443,17.36248],[121.332901,17.362881],[121.333572,17.36347],[121.334648,17.36433]]]]}},{"type":"Feature","properties":{"ID_0":177,"ISO":"PHL","NAME_0":"Philippines","ID_1":14032,"NAME_1":"Kalinga","ID_2":1403214,"NAME_2":"Tanudan","ID_3":1403214010,"NAME_3":"Pangol","NL_NAME_3":null,"VARNAME_3":null,"TYPE_3":"Barangay","ENGTYPE_3":"Village","PROVINCE":"Kalinga","REGION":"Cordillera Administrative Region (CAR)","id":"barangay-1403214010","name":"Pangol","barangayCode":"1403214010","population":null,"formattedPop":null,"densityCategory":"No data","vulnerabilityRating":"No data","healthRiskLevel":"No data","areaKm2":72.490452,"centerLat":17.264071,"centerLng":121.312061,"geometrySource":"all_barangay-2.csv detailed WKT","geometryMatchMethod":"unique_official_admin_names","boundaryPointCount":9},"geometry":{"type":"MultiPolygon","coordinates":[[[[121.273453,17.298241],[121.33522,17.297791],[121.388397,17.29726],[121.370354,17.292391],[121.341202,17.28134],[121.333923,17.27249],[121.273567,17.27281],[121.273727,17.28854],[121.273453,17.298241]]]]}},{"type":"Feature","properties":{"ID_0":177,"ISO":"PHL","NAME_0":"Philippines","ID_1":14032,"NAME_1":"Kalinga","ID_2":1403214,"NAME_2":"Tanudan","ID_3":1403214011,"NAME_3":"Poblacion","NL_NAME_3":null,"VARNAME_3":null,"TYPE_3":"Barangay","ENGTYPE_3":"Village","PROVINCE":"Kalinga","REGION":"Cordillera Administrative Region (CAR)","id":"barangay-1403214011","name":"Poblacion","barangayCode":"1403214011","population":null,"formattedPop":null,"densityCategory":"No data","vulnerabilityRating":"No data","healthRiskLevel":"No data","areaKm2":12.62627,"centerLat":17.288045,"centerLng":121.235249,"geometrySource":"all_barangay-2.csv detailed WKT","geometryMatchMethod":"unique_official_admin_names","boundaryPointCount":8},"geometry":{"type":"MultiPolygon","coordinates":[[[[121.2005,17.304159],[121.260429,17.304689],[121.2603,17.29821],[121.273453,17.298241],[121.273727,17.28854],[121.196114,17.289619],[121.198647,17.298929],[121.2005,17.304159]]]]}},{"type":"Feature","properties":{"ID_0":177,"ISO":"PHL","NAME_0":"Philippines","ID_1":14032,"NAME_1":"Kalinga","ID_2":1403214,"NAME_2":"Tanudan","ID_3":1403214013,"NAME_3":"Upper Taloctoc","NL_NAME_3":null,"VARNAME_3":null,"TYPE_3":"Barangay","ENGTYPE_3":"Village","PROVINCE":"Kalinga","REGION":"Cordillera Administrative Region (CAR)","id":"barangay-1403214013","name":"Upper Taloctoc","barangayCode":"1403214013","population":null,"formattedPop":null,"densityCategory":"No data","vulnerabilityRating":"No data","healthRiskLevel":"No data","areaKm2":17.326482,"centerLat":17.336631,"centerLng":121.252693,"geometrySource":"all_barangay-2.csv detailed WKT","geometryMatchMethod":"unique_official_admin_names","boundaryPointCount":10},"geometry":{"type":"MultiPolygon","coordinates":[[[[121.28315,17.354111],[121.283188,17.33695],[121.260071,17.336399],[121.215012,17.336781],[121.217407,17.341539],[121.219276,17.344761],[121.220322,17.346109],[121.221977,17.348801],[121.225433,17.353331],[121.28315,17.354111]]]]}},{"type":"Feature","properties":{"ID_0":177,"ISO":"PHL","NAME_0":"Philippines","ID_1":14032,"NAME_1":"Kalinga","ID_2":1403214,"NAME_2":"Tanudan","ID_3":1403214014,"NAME_3":"Anggacan Sur","NL_NAME_3":null,"VARNAME_3":null,"TYPE_3":"Barangay","ENGTYPE_3":"Village","PROVINCE":"Kalinga","REGION":"Cordillera Administrative Region (CAR)","id":"barangay-1403214014","name":"Anggacan Sur","barangayCode":"1403214014","population":null,"formattedPop":null,"densityCategory":"No data","vulnerabilityRating":"No data","healthRiskLevel":"No data","areaKm2":10.370221,"centerLat":17.306963,"centerLng":121.262487,"geometrySource":"all_barangay-2.csv detailed WKT","geometryMatchMethod":"unique_official_admin_names","boundaryPointCount":7},"geometry":{"type":"MultiPolygon","coordinates":[[[[121.335564,17.32247],[121.33522,17.297791],[121.273453,17.298241],[121.2603,17.29821],[121.260429,17.304689],[121.260483,17.32131],[121.335564,17.32247]]]]}},{"type":"Feature","properties":{"ID_0":177,"ISO":"PHL","NAME_0":"Philippines","ID_1":14032,"NAME_1":"Kalinga","ID_2":1403214,"NAME_2":"Tanudan","ID_3":1403214015,"NAME_3":"Dupligan","NL_NAME_3":null,"VARNAME_3":null,"TYPE_3":"Barangay","ENGTYPE_3":"Village","PROVINCE":"Kalinga","REGION":"Cordillera Administrative Region (CAR)","id":"barangay-1403214015","name":"Dupligan","barangayCode":"1403214015","population":null,"formattedPop":null,"densityCategory":"No data","vulnerabilityRating":"No data","healthRiskLevel":"No data","areaKm2":40.1389,"centerLat":17.32083,"centerLng":121.368013,"geometrySource":"all_barangay-2.csv detailed WKT","geometryMatchMethod":"unique_official_admin_names","boundaryPointCount":45},"geometry":{"type":"MultiPolygon","coordinates":[[[[121.334648,17.36433],[121.336487,17.365101],[121.339577,17.366989],[121.344048,17.366289],[121.348518,17.363991],[121.350922,17.36198],[121.354202,17.35911],[121.354874,17.356091],[121.355797,17.354191],[121.356598,17.3515],[121.358566,17.34894],[121.358299,17.34725],[121.356979,17.345989],[121.356339,17.344061],[121.356522,17.3423],[121.35746,17.340281],[121.358253,17.33782],[121.359177,17.336029],[121.360367,17.334351],[121.361977,17.333441],[121.364304,17.332529],[121.366547,17.33215],[121.372711,17.333879],[121.373917,17.331961],[121.375191,17.33095],[121.377182,17.329729],[121.379967,17.328501],[121.382103,17.32773],[121.38501,17.32729],[121.386902,17.32601],[121.387962,17.32299],[121.388107,17.319521],[121.389313,17.317619],[121.389053,17.31588],[121.389587,17.31263],[121.389259,17.30999],[121.389801,17.30674],[121.390602,17.30405],[121.388206,17.30158],[121.389709,17.29928],[121.388397,17.29726],[121.33522,17.297791],[121.335564,17.32247],[121.335869,17.33728],[121.334648,17.36433]]]]}},{"type":"Feature","properties":{"ID_0":177,"ISO":"PHL","NAME_0":"Philippines","ID_1":14032,"NAME_1":"Kalinga","ID_2":1403214,"NAME_2":"Tanudan","ID_3":1403214016,"NAME_3":"Lay-asan","NL_NAME_3":null,"VARNAME_3":null,"TYPE_3":"Barangay","ENGTYPE_3":"Village","PROVINCE":"Kalinga","REGION":"Cordillera Administrative Region (CAR)","id":"barangay-1403214016","name":"Lay-asan","barangayCode":"1403214016","population":null,"formattedPop":null,"densityCategory":"No data","vulnerabilityRating":"No data","healthRiskLevel":"No data","areaKm2":6.161038,"centerLat":17.280204,"centerLng":121.383654,"geometrySource":"all_barangay-2.csv detailed WKT","geometryMatchMethod":"unique_official_admin_names","boundaryPointCount":9},"geometry":{"type":"MultiPolygon","coordinates":[[[[121.333923,17.27249],[121.324158,17.254061],[121.286583,17.21306],[121.284576,17.21007],[121.273537,17.20331],[121.273613,17.237631],[121.273613,17.259501],[121.273567,17.27281],[121.333923,17.27249]]]]}},{"type":"Feature","properties":{"ID_0":177,"ISO":"PHL","NAME_0":"Philippines","ID_1":14032,"NAME_1":"Kalinga","ID_2":1403214,"NAME_2":"Tanudan","ID_3":1403214017,"NAME_3":"Mangali Centro","NL_NAME_3":null,"VARNAME_3":null,"TYPE_3":"Barangay","ENGTYPE_3":"Village","PROVINCE":"Kalinga","REGION":"Cordillera Administrative Region (CAR)","id":"barangay-1403214017","name":"Mangali Centro","barangayCode":"1403214017","population":null,"formattedPop":null,"densityCategory":"No data","vulnerabilityRating":"No data","healthRiskLevel":"No data","areaKm2":5.389998,"centerLat":17.299161,"centerLng":121.217882,"geometrySource":"all_barangay-2.csv detailed WKT","geometryMatchMethod":"unique_official_admin_names","boundaryPointCount":5},"geometry":{"type":"MultiPolygon","coordinates":[[[[121.260483,17.32131],[121.260429,17.304689],[121.2005,17.304159],[121.207718,17.32053],[121.260483,17.32131]]]]}}]}
