{"type":"FeatureCollection","features":[{"type":"Feature","properties":{"ID_0":177,"ISO":"PHL","NAME_0":"Philippines","ID_1":14001,"NAME_1":"Abra","ID_2":1400103,"NAME_2":"Bucay","ID_3":1400103001,"NAME_3":"Abang","NL_NAME_3":null,"VARNAME_3":null,"TYPE_3":"Barangay","ENGTYPE_3":"Village","PROVINCE":"Abra","REGION":"Cordillera Administrative Region (CAR)","id":"barangay-1400103001","name":"Abang","barangayCode":"1400103001","population":null,"formattedPop":null,"densityCategory":"No data","vulnerabilityRating":"No data","healthRiskLevel":"No data","areaKm2":13.576687,"centerLat":17.514168,"centerLng":120.728446,"geometrySource":"all_barangay-2.csv detailed WKT","geometryMatchMethod":"unique_official_admin_names","boundaryPointCount":112},"geometry":{"type":"MultiPolygon","coordinates":[[[[120.724731,17.53619],[120.725922,17.535749],[120.726639,17.53599],[120.727364,17.536051],[120.727783,17.536551],[120.728569,17.53652],[120.729462,17.53632],[120.730476,17.53606],[120.731773,17.53771],[120.732353,17.53919],[120.74025,17.53632],[120.740562,17.53623],[120.740807,17.53599],[120.740913,17.535549],[120.7407,17.535179],[120.740387,17.53487],[120.739967,17.53459],[120.739449,17.53426],[120.739143,17.533819],[120.739243,17.533251],[120.739754,17.532909],[120.740189,17.53303],[120.740936,17.53343],[120.74131,17.533461],[120.741623,17.53282],[120.741768,17.532089],[120.742523,17.53162],[120.744041,17.5313],[120.745247,17.531219],[120.74646,17.53083],[120.74704,17.530519],[120.747742,17.53013],[120.748894,17.529791],[120.749702,17.529909],[120.750397,17.529989],[120.750977,17.52961],[120.751312,17.52853],[120.751244,17.52717],[120.750687,17.526251],[120.750214,17.525921],[120.749802,17.525841],[120.74939,17.52599],[120.749023,17.52622],[120.748802,17.526239],[120.748703,17.52557],[120.749153,17.524401],[120.749428,17.523991],[120.749199,17.523279],[120.748756,17.522579],[120.748711,17.521311],[120.748978,17.52104],[120.749893,17.52059],[120.750793,17.520241],[120.751671,17.519819],[120.753777,17.518379],[120.752762,17.516029],[120.749573,17.507759],[120.741142,17.487049],[120.740631,17.48732],[120.73877,17.486629],[120.738159,17.486971],[120.737312,17.48774],[120.736,17.48839],[120.735046,17.49041],[120.732903,17.491301],[120.73159,17.491751],[120.730499,17.492559],[120.728111,17.492741],[120.72644,17.493361],[120.724731,17.494881],[120.72332,17.49592],[120.71875,17.497271],[120.719597,17.498751],[120.718437,17.498409],[120.717697,17.498079],[120.716217,17.497181],[120.71505,17.496559],[120.713737,17.495939],[120.712311,17.49539],[120.714813,17.500771],[120.715233,17.505501],[120.715584,17.506651],[120.715843,17.51008],[120.716141,17.51096],[120.716637,17.511551],[120.718208,17.512489],[120.718933,17.51457],[120.718758,17.51613],[120.718407,17.517851],[120.716888,17.518221],[120.716637,17.51882],[120.716331,17.52022],[120.715736,17.52116],[120.714973,17.522671],[120.714699,17.523371],[120.714218,17.52491],[120.71405,17.52634],[120.71418,17.527531],[120.714684,17.52915],[120.715027,17.53021],[120.715233,17.53089],[120.715607,17.531281],[120.716232,17.5317],[120.716713,17.531851],[120.717628,17.531811],[120.718147,17.53157],[120.718384,17.53141],[120.719643,17.53161],[120.72036,17.5319],[120.721237,17.53269],[120.723343,17.53422],[120.724731,17.53619]]]]}},{"type":"Feature","properties":{"ID_0":177,"ISO":"PHL","NAME_0":"Philippines","ID_1":14001,"NAME_1":"Abra","ID_2":1400103,"NAME_2":"Bucay","ID_3":1400103002,"NAME_3":"Bangbangcag","NL_NAME_3":null,"VARNAME_3":null,"TYPE_3":"Barangay","ENGTYPE_3":"Village","PROVINCE":"Abra","REGION":"Cordillera Administrative Region (CAR)","id":"barangay-1400103002","name":"Bangbangcag","barangayCode":"1400103002","population":null,"formattedPop":null,"densityCategory":"No data","vulnerabilityRating":"No data","healthRiskLevel":"No data","areaKm2":3.199864,"centerLat":17.574539,"centerLng":120.743608,"geometrySource":"all_barangay-2.csv detailed WKT","geometryMatchMethod":"unique_official_admin_names","boundaryPointCount":7},"geometry":{"type":"MultiPolygon","coordinates":[[[[120.751007,17.57559],[120.751259,17.56778],[120.73806,17.56848],[120.736526,17.570459],[120.730789,17.57696],[120.745483,17.57671],[120.751007,17.57559]]]]}},{"type":"Feature","properties":{"ID_0":177,"ISO":"PHL","NAME_0":"Philippines","ID_1":14001,"NAME_1":"Abra","ID_2":1400103,"NAME_2":"Bucay","ID_3":1400103003,"NAME_3":"Bangcagan","NL_NAME_3":null,"VARNAME_3":null,"TYPE_3":"Barangay","ENGTYPE_3":"Village","PROVINCE":"Abra","REGION":"Cordillera Administrative Region (CAR)","id":"barangay-1400103003","name":"Bangcagan","barangayCode":"1400103003","population":null,"formattedPop":null,"densityCategory":"No data","vulnerabilityRating":"No data","healthRiskLevel":"No data","areaKm2":5.206245,"centerLat":17.560827,"centerLng":120.723123,"geometrySource":"all_barangay-2.csv detailed WKT","geometryMatchMethod":"unique_official_admin_names","boundaryPointCount":14},"geometry":{"type":"MultiPolygon","coordinates":[[[[120.738586,17.566759],[120.739952,17.56316],[120.740189,17.5616],[120.740311,17.56065],[120.709961,17.56131],[120.707108,17.56407],[120.707474,17.564341],[120.70829,17.56525],[120.709534,17.567209],[120.709831,17.567711],[120.710983,17.568781],[120.712257,17.57057],[120.71801,17.56731],[120.738586,17.566759]]]]}},{"type":"Feature","properties":{"ID_0":177,"ISO":"PHL","NAME_0":"Philippines","ID_1":14001,"NAME_1":"Abra","ID_2":1400103,"NAME_2":"Bucay","ID_3":1400103004,"NAME_3":"Banglolao","NL_NAME_3":null,"VARNAME_3":null,"TYPE_3":"Barangay","ENGTYPE_3":"Village","PROVINCE":"Abra","REGION":"Cordillera Administrative Region (CAR)","id":"barangay-1400103004","name":"Banglolao","barangayCode":"1400103004","population":null,"formattedPop":null,"densityCategory":"No data","vulnerabilityRating":"No data","healthRiskLevel":"No data","areaKm2":2.637076,"centerLat":17.527728,"centerLng":120.7076,"geometrySource":"all_barangay-2.csv detailed WKT","geometryMatchMethod":"unique_official_admin_names","boundaryPointCount":33},"geometry":{"type":"MultiPolygon","coordinates":[[[[120.713188,17.539921],[120.721519,17.53723],[120.724731,17.53619],[120.723343,17.53422],[120.721237,17.53269],[120.72036,17.5319],[120.719643,17.53161],[120.718384,17.53141],[120.718147,17.53157],[120.717628,17.531811],[120.716713,17.531851],[120.716232,17.5317],[120.715607,17.531281],[120.715233,17.53089],[120.715027,17.53021],[120.714684,17.52915],[120.71418,17.527531],[120.71405,17.52634],[120.714218,17.52491],[120.714699,17.523371],[120.714973,17.522671],[120.69751,17.5154],[120.696983,17.51795],[120.696693,17.52013],[120.696609,17.521441],[120.696953,17.52652],[120.697144,17.52846],[120.696907,17.52986],[120.696777,17.532181],[120.696136,17.53487],[120.695557,17.53651],[120.694458,17.53834],[120.713188,17.539921]]]]}},{"type":"Feature","properties":{"ID_0":177,"ISO":"PHL","NAME_0":"Philippines","ID_1":14001,"NAME_1":"Abra","ID_2":1400103,"NAME_2":"Bucay","ID_3":1400103005,"NAME_3":"Bugbog","NL_NAME_3":null,"VARNAME_3":null,"TYPE_3":"Barangay","ENGTYPE_3":"Village","PROVINCE":"Abra","REGION":"Cordillera Administrative Region (CAR)","id":"barangay-1400103005","name":"Bugbog","barangayCode":"1400103005","population":null,"formattedPop":null,"densityCategory":"No data","vulnerabilityRating":"No data","healthRiskLevel":"No data","areaKm2":5.5847,"centerLat":17.55667,"centerLng":120.697611,"geometrySource":"all_barangay-2.csv detailed WKT","geometryMatchMethod":"unique_official_admin_names","boundaryPointCount":22},"geometry":{"type":"MultiPolygon","coordinates":[[[[120.712257,17.57057],[120.710983,17.568781],[120.709831,17.567711],[120.709534,17.567209],[120.70829,17.56525],[120.707474,17.564341],[120.707108,17.56407],[120.709961,17.56131],[120.703712,17.55875],[120.703796,17.555849],[120.686096,17.547819],[120.68499,17.54978],[120.684532,17.550739],[120.683907,17.552271],[120.68367,17.554251],[120.683907,17.555981],[120.684311,17.557341],[120.684692,17.55834],[120.686218,17.56181],[120.694656,17.569559],[120.701767,17.57609],[120.712257,17.57057]]]]}},{"type":"Feature","properties":{"ID_0":177,"ISO":"PHL","NAME_0":"Philippines","ID_1":14001,"NAME_1":"Abra","ID_2":1400103,"NAME_2":"Bucay","ID_3":1400103006,"NAME_3":"Calao","NL_NAME_3":null,"VARNAME_3":null,"TYPE_3":"Barangay","ENGTYPE_3":"Village","PROVINCE":"Abra","REGION":"Cordillera Administrative Region (CAR)","id":"barangay-1400103006","name":"Calao","barangayCode":"1400103006","population":null,"formattedPop":null,"densityCategory":"No data","vulnerabilityRating":"No data","healthRiskLevel":"No data","areaKm2":2.000188,"centerLat":17.574644,"centerLng":120.77529,"geometrySource":"all_barangay-2.csv detailed WKT","geometryMatchMethod":"unique_official_admin_names","boundaryPointCount":14},"geometry":{"type":"MultiPolygon","coordinates":[[[[120.752419,17.575661],[120.767883,17.57547],[120.785461,17.575661],[120.786003,17.57321],[120.786018,17.57118],[120.785812,17.56982],[120.78511,17.568399],[120.783981,17.566879],[120.783188,17.565901],[120.782631,17.56513],[120.782333,17.564409],[120.751259,17.56778],[120.751007,17.57559],[120.752419,17.575661]]]]}},{"type":"Feature","properties":{"ID_0":177,"ISO":"PHL","NAME_0":"Philippines","ID_1":14001,"NAME_1":"Abra","ID_2":1400103,"NAME_2":"Bucay","ID_3":1400103007,"NAME_3":"Dugong","NL_NAME_3":null,"VARNAME_3":null,"TYPE_3":"Barangay","ENGTYPE_3":"Village","PROVINCE":"Abra","REGION":"Cordillera Administrative Region (CAR)","id":"barangay-1400103007","name":"Dugong","barangayCode":"1400103007","population":null,"formattedPop":null,"densityCategory":"No data","vulnerabilityRating":"No data","healthRiskLevel":"No data","areaKm2":5.090571,"centerLat":17.470621,"centerLng":120.716587,"geometrySource":"all_barangay-2.csv detailed WKT","geometryMatchMethod":"unique_official_admin_names","boundaryPointCount":38},"geometry":{"type":"MultiPolygon","coordinates":[[[[120.704567,17.485161],[120.70639,17.487949],[120.708267,17.49024],[120.710281,17.492069],[120.711166,17.493441],[120.712509,17.49268],[120.71389,17.490511],[120.714157,17.48834],[120.71418,17.48595],[120.714287,17.483459],[120.715157,17.481791],[120.718231,17.480909],[120.719971,17.48036],[120.720833,17.479361],[120.722252,17.47942],[120.723244,17.479851],[120.737389,17.476271],[120.73217,17.463221],[120.722839,17.46673],[120.722076,17.46698],[120.720573,17.467119],[120.719704,17.467409],[120.718208,17.4676],[120.716026,17.468491],[120.715637,17.468531],[120.714233,17.468031],[120.711678,17.467239],[120.709991,17.46701],[120.708618,17.46727],[120.707321,17.467279],[120.7061,17.46661],[120.703217,17.4664],[120.703468,17.468849],[120.703453,17.470619],[120.702744,17.4762],[120.703262,17.48028],[120.703743,17.48296],[120.704567,17.485161]]]]}},{"type":"Feature","properties":{"ID_0":177,"ISO":"PHL","NAME_0":"Philippines","ID_1":14001,"NAME_1":"Abra","ID_2":1400103,"NAME_2":"Bucay","ID_3":1400103008,"NAME_3":"Labon","NL_NAME_3":null,"VARNAME_3":null,"TYPE_3":"Barangay","ENGTYPE_3":"Village","PROVINCE":"Abra","REGION":"Cordillera Administrative Region (CAR)","id":"barangay-1400103008","name":"Labon","barangayCode":"1400103008","population":null,"formattedPop":null,"densityCategory":"No data","vulnerabilityRating":"No data","healthRiskLevel":"No data","areaKm2":1.433931,"centerLat":17.547447,"centerLng":120.724595,"geometrySource":"all_barangay-2.csv detailed WKT","geometryMatchMethod":"unique_official_admin_names","boundaryPointCount":10},"geometry":{"type":"MultiPolygon","coordinates":[[[[120.712738,17.54697],[120.732941,17.54809],[120.733498,17.54628],[120.733742,17.544479],[120.733437,17.542391],[120.73291,17.54084],[120.724091,17.54207],[120.72242,17.543909],[120.712807,17.54336],[120.712738,17.54697]]]]}},{"type":"Feature","properties":{"ID_0":177,"ISO":"PHL","NAME_0":"Philippines","ID_1":14001,"NAME_1":"Abra","ID_2":1400103,"NAME_2":"Bucay","ID_3":1400103009,"NAME_3":"Layugan","NL_NAME_3":null,"VARNAME_3":null,"TYPE_3":"Barangay","ENGTYPE_3":"Village","PROVINCE":"Abra","REGION":"Cordillera Administrative Region (CAR)","id":"barangay-1400103009","name":"Layugan","barangayCode":"1400103009","population":null,"formattedPop":null,"densityCategory":"No data","vulnerabilityRating":"No data","healthRiskLevel":"No data","areaKm2":10.725085,"centerLat":17.496428,"centerLng":120.68996,"geometrySource":"all_barangay-2.csv detailed WKT","geometryMatchMethod":"unique_official_admin_names","boundaryPointCount":17},"geometry":{"type":"MultiPolygon","coordinates":[[[[120.697868,17.50745],[120.715233,17.505501],[120.714813,17.500771],[120.712311,17.49539],[120.711166,17.493441],[120.710281,17.492069],[120.708267,17.49024],[120.70639,17.487949],[120.704567,17.485161],[120.68145,17.505119],[120.691093,17.5035],[120.692703,17.50404],[120.693764,17.50457],[120.694847,17.505119],[120.695824,17.50576],[120.696587,17.506599],[120.697868,17.50745]]]]}},{"type":"Feature","properties":{"ID_0":177,"ISO":"PHL","NAME_0":"Philippines","ID_1":14001,"NAME_1":"Abra","ID_2":1400103,"NAME_2":"Bucay","ID_3":1400103010,"NAME_3":"Madalipay","NL_NAME_3":null,"VARNAME_3":null,"TYPE_3":"Barangay","ENGTYPE_3":"Village","PROVINCE":"Abra","REGION":"Cordillera Administrative Region (CAR)","id":"barangay-1400103010","name":"Madalipay","barangayCode":"1400103010","population":null,"formattedPop":null,"densityCategory":"No data","vulnerabilityRating":"No data","healthRiskLevel":"No data","areaKm2":5.399221,"centerLat":17.465555,"centerLng":120.687516,"geometrySource":"all_barangay-2.csv detailed WKT","geometryMatchMethod":"unique_official_admin_names","boundaryPointCount":16},"geometry":{"type":"MultiPolygon","coordinates":[[[[120.702744,17.4762],[120.703453,17.470619],[120.703468,17.468849],[120.703217,17.4664],[120.702477,17.46409],[120.701927,17.462681],[120.701263,17.460569],[120.700432,17.45648],[120.691208,17.45785],[120.677658,17.457359],[120.673241,17.46966],[120.675003,17.471581],[120.674667,17.473049],[120.674294,17.474951],[120.674316,17.47645],[120.702744,17.4762]]]]}},{"type":"Feature","properties":{"ID_0":177,"ISO":"PHL","NAME_0":"Philippines","ID_1":14001,"NAME_1":"Abra","ID_2":1400103,"NAME_2":"Bucay","ID_3":1400103011,"NAME_3":"Pagala","NL_NAME_3":null,"VARNAME_3":null,"TYPE_3":"Barangay","ENGTYPE_3":"Village","PROVINCE":"Abra","REGION":"Cordillera Administrative Region (CAR)","id":"barangay-1400103011","name":"Pagala","barangayCode":"1400103011","population":null,"formattedPop":null,"densityCategory":"No data","vulnerabilityRating":"No data","healthRiskLevel":"No data","areaKm2":6.062392,"centerLat":17.575346,"centerLng":120.717301,"geometrySource":"all_barangay-2.csv detailed WKT","geometryMatchMethod":"unique_official_admin_names","boundaryPointCount":12},"geometry":{"type":"MultiPolygon","coordinates":[[[[120.719254,17.58733],[120.722122,17.58522],[120.729843,17.57765],[120.730789,17.57696],[120.736526,17.570459],[120.73806,17.56848],[120.738586,17.566759],[120.71801,17.56731],[120.712257,17.57057],[120.701767,17.57609],[120.704353,17.57869],[120.719254,17.58733]]]]}},{"type":"Feature","properties":{"ID_0":177,"ISO":"PHL","NAME_0":"Philippines","ID_1":14001,"NAME_1":"Abra","ID_2":1400103,"NAME_2":"Bucay","ID_3":1400103012,"NAME_3":"Palaquio","NL_NAME_3":null,"VARNAME_3":null,"TYPE_3":"Barangay","ENGTYPE_3":"Village","PROVINCE":"Abra","REGION":"Cordillera Administrative Region (CAR)","id":"barangay-1400103012","name":"Palaquio","barangayCode":"1400103012","population":null,"formattedPop":null,"densityCategory":"No data","vulnerabilityRating":"No data","healthRiskLevel":"No data","areaKm2":4.564419,"centerLat":17.565684,"centerLng":120.763126,"geometrySource":"all_barangay-2.csv detailed WKT","geometryMatchMethod":"unique_official_admin_names","boundaryPointCount":12},"geometry":{"type":"MultiPolygon","coordinates":[[[[120.751259,17.56778],[120.782333,17.564409],[120.782402,17.563459],[120.782791,17.562531],[120.785118,17.561769],[120.786133,17.559549],[120.740311,17.56065],[120.740189,17.5616],[120.739952,17.56316],[120.738586,17.566759],[120.73806,17.56848],[120.751259,17.56778]]]]}},{"type":"Feature","properties":{"ID_0":177,"ISO":"PHL","NAME_0":"Philippines","ID_1":14001,"NAME_1":"Abra","ID_2":1400103,"NAME_2":"Bucay","ID_3":1400103013,"NAME_3":"Pakiling","NL_NAME_3":null,"VARNAME_3":null,"TYPE_3":"Barangay","ENGTYPE_3":"Village","PROVINCE":"Abra","REGION":"Cordillera Administrative Region (CAR)","id":"barangay-1400103013","name":"Pakiling","barangayCode":"1400103013","population":null,"formattedPop":null,"densityCategory":"No data","vulnerabilityRating":"No data","healthRiskLevel":"No data","areaKm2":2.949069,"centerLat":17.513536,"centerLng":120.707344,"geometrySource":"all_barangay-2.csv detailed WKT","geometryMatchMethod":"unique_official_admin_names","boundaryPointCount":22},"geometry":{"type":"MultiPolygon","coordinates":[[[[120.714973,17.522671],[120.715736,17.52116],[120.716331,17.52022],[120.716637,17.51882],[120.716888,17.518221],[120.718407,17.517851],[120.718758,17.51613],[120.718933,17.51457],[120.718208,17.512489],[120.716637,17.511551],[120.716141,17.51096],[120.715843,17.51008],[120.715584,17.506651],[120.715233,17.505501],[120.697868,17.50745],[120.697449,17.50791],[120.698059,17.50942],[120.698174,17.51078],[120.698128,17.51157],[120.697838,17.513889],[120.69751,17.5154],[120.714973,17.522671]]]]}},{"type":"Feature","properties":{"ID_0":177,"ISO":"PHL","NAME_0":"Philippines","ID_1":14001,"NAME_1":"Abra","ID_2":1400103,"NAME_2":"Bucay","ID_3":1400103014,"NAME_3":"Patoc","NL_NAME_3":null,"VARNAME_3":null,"TYPE_3":"Barangay","ENGTYPE_3":"Village","PROVINCE":"Abra","REGION":"Cordillera Administrative Region (CAR)","id":"barangay-1400103014","name":"Patoc","barangayCode":"1400103014","population":null,"formattedPop":null,"densityCategory":"No data","vulnerabilityRating":"No data","healthRiskLevel":"No data","areaKm2":3.48804,"centerLat":17.459628,"centerLng":120.711918,"geometrySource":"all_barangay-2.csv detailed WKT","geometryMatchMethod":"unique_official_admin_names","boundaryPointCount":38},"geometry":{"type":"MultiPolygon","coordinates":[[[[120.73217,17.463221],[120.727699,17.457621],[120.726517,17.457371],[120.725838,17.45681],[120.725273,17.45616],[120.724564,17.455509],[120.723389,17.45466],[120.721497,17.453791],[120.720306,17.453779],[120.719299,17.453859],[120.718513,17.453831],[120.717407,17.453659],[120.717033,17.453609],[120.714752,17.453711],[120.713432,17.454041],[120.712158,17.45433],[120.707878,17.453951],[120.706207,17.45541],[120.703117,17.45615],[120.700432,17.45648],[120.701263,17.460569],[120.701927,17.462681],[120.702477,17.46409],[120.703217,17.4664],[120.7061,17.46661],[120.707321,17.467279],[120.708618,17.46727],[120.709991,17.46701],[120.711678,17.467239],[120.714233,17.468031],[120.715637,17.468531],[120.716026,17.468491],[120.718208,17.4676],[120.719704,17.467409],[120.720573,17.467119],[120.722076,17.46698],[120.722839,17.46673],[120.73217,17.463221]]]]}},{"type":"Feature","properties":{"ID_0":177,"ISO":"PHL","NAME_0":"Philippines","ID_1":14001,"NAME_1":"Abra","ID_2":1400103,"NAME_2":"Bucay","ID_3":1400103016,"NAME_3":"North Poblacion","NL_NAME_3":null,"VARNAME_3":null,"TYPE_3":"Barangay","ENGTYPE_3":"Village","PROVINCE":"Abra","REGION":"Cordillera Administrative Region (CAR)","id":"barangay-1400103016","name":"North Poblacion","barangayCode":"1400103016","population":null,"formattedPop":null,"densityCategory":"No data","vulnerabilityRating":"No data","healthRiskLevel":"No data","areaKm2":1.097329,"centerLat":17.54236,"centerLng":120.724413,"geometrySource":"all_barangay-2.csv detailed WKT","geometryMatchMethod":"unique_official_admin_names","boundaryPointCount":6},"geometry":{"type":"MultiPolygon","coordinates":[[[[120.724091,17.54207],[120.721519,17.53723],[120.713188,17.539921],[120.712807,17.54336],[120.72242,17.543909],[120.724091,17.54207]]]]}},{"type":"Feature","properties":{"ID_0":177,"ISO":"PHL","NAME_0":"Philippines","ID_1":14001,"NAME_1":"Abra","ID_2":1400103,"NAME_2":"Bucay","ID_3":1400103017,"NAME_3":"South Poblacion","NL_NAME_3":null,"VARNAME_3":null,"TYPE_3":"Barangay","ENGTYPE_3":"Village","PROVINCE":"Abra","REGION":"Cordillera Administrative Region (CAR)","id":"barangay-1400103017","name":"South Poblacion","barangayCode":"1400103017","population":null,"formattedPop":null,"densityCategory":"No data","vulnerabilityRating":"No data","healthRiskLevel":"No data","areaKm2":0.768704,"centerLat":17.537931,"centerLng":120.724014,"geometrySource":"all_barangay-2.csv detailed WKT","geometryMatchMethod":"unique_official_admin_names","boundaryPointCount":14},"geometry":{"type":"MultiPolygon","coordinates":[[[[120.73291,17.54084],[120.732353,17.53919],[120.731773,17.53771],[120.730476,17.53606],[120.729462,17.53632],[120.728569,17.53652],[120.727783,17.536551],[120.727364,17.536051],[120.726639,17.53599],[120.725922,17.535749],[120.724731,17.53619],[120.721519,17.53723],[120.724091,17.54207],[120.73291,17.54084]]]]}},{"type":"Feature","properties":{"ID_0":177,"ISO":"PHL","NAME_0":"Philippines","ID_1":14001,"NAME_1":"Abra","ID_2":1400103,"NAME_2":"Bucay","ID_3":1400103018,"NAME_3":"Quimloong","NL_NAME_3":null,"VARNAME_3":null,"TYPE_3":"Barangay","ENGTYPE_3":"Village","PROVINCE":"Abra","REGION":"Cordillera Administrative Region (CAR)","id":"barangay-1400103018","name":"Quimloong","barangayCode":"1400103018","population":null,"formattedPop":null,"densityCategory":"No data","vulnerabilityRating":"No data","healthRiskLevel":"No data","areaKm2":5.360729,"centerLat":17.4846,"centerLng":120.719998,"geometrySource":"all_barangay-2.csv detailed WKT","geometryMatchMethod":"unique_official_admin_names","boundaryPointCount":36},"geometry":{"type":"MultiPolygon","coordinates":[[[[120.712311,17.49539],[120.713737,17.495939],[120.71505,17.496559],[120.716217,17.497181],[120.717697,17.498079],[120.718437,17.498409],[120.719597,17.498751],[120.71875,17.497271],[120.72332,17.49592],[120.724731,17.494881],[120.72644,17.493361],[120.728111,17.492741],[120.730499,17.492559],[120.73159,17.491751],[120.732903,17.491301],[120.735046,17.49041],[120.736,17.48839],[120.737312,17.48774],[120.738159,17.486971],[120.73877,17.486629],[120.740631,17.48732],[120.741142,17.487049],[120.737389,17.476271],[120.723244,17.479851],[120.722252,17.47942],[120.720833,17.479361],[120.719971,17.48036],[120.718231,17.480909],[120.715157,17.481791],[120.714287,17.483459],[120.71418,17.48595],[120.714157,17.48834],[120.71389,17.490511],[120.712509,17.49268],[120.711166,17.493441],[120.712311,17.49539]]]]}},{"type":"Feature","properties":{"ID_0":177,"ISO":"PHL","NAME_0":"Philippines","ID_1":14001,"NAME_1":"Abra","ID_2":1400103,"NAME_2":"Bucay","ID_3":1400103019,"NAME_3":"Salnec","NL_NAME_3":null,"VARNAME_3":null,"TYPE_3":"Barangay","ENGTYPE_3":"Village","PROVINCE":"Abra","REGION":"Cordillera Administrative Region (CAR)","id":"barangay-1400103019","name":"Salnec","barangayCode":"1400103019","population":null,"formattedPop":null,"densityCategory":"No data","vulnerabilityRating":"No data","healthRiskLevel":"No data","areaKm2":3.416486,"centerLat":17.480093,"centerLng":120.685673,"geometrySource":"all_barangay-2.csv detailed WKT","geometryMatchMethod":"unique_official_admin_names","boundaryPointCount":24},"geometry":{"type":"MultiPolygon","coordinates":[[[[120.657982,17.51016],[120.666473,17.50843],[120.68145,17.505119],[120.704567,17.485161],[120.703743,17.48296],[120.703262,17.48028],[120.702744,17.4762],[120.674316,17.47645],[120.674713,17.479481],[120.674553,17.482149],[120.674271,17.4848],[120.674156,17.485781],[120.673409,17.48881],[120.672997,17.49074],[120.671593,17.494209],[120.670479,17.49617],[120.669434,17.4979],[120.668037,17.499599],[120.666618,17.500891],[120.665138,17.502239],[120.663902,17.50367],[120.661697,17.506321],[120.66008,17.5082],[120.657982,17.51016]]]]}},{"type":"Feature","properties":{"ID_0":177,"ISO":"PHL","NAME_0":"Philippines","ID_1":14001,"NAME_1":"Abra","ID_2":1400103,"NAME_2":"Bucay","ID_3":1400103020,"NAME_3":"San Miguel","NL_NAME_3":null,"VARNAME_3":null,"TYPE_3":"Barangay","ENGTYPE_3":"Village","PROVINCE":"Abra","REGION":"Cordillera Administrative Region (CAR)","id":"barangay-1400103020","name":"San Miguel","barangayCode":"1400103020","population":null,"formattedPop":null,"densityCategory":"No data","vulnerabilityRating":"No data","healthRiskLevel":"No data","areaKm2":1.274946,"centerLat":17.552415,"centerLng":120.715616,"geometrySource":"all_barangay-2.csv detailed WKT","geometryMatchMethod":"unique_official_admin_names","boundaryPointCount":17},"geometry":{"type":"MultiPolygon","coordinates":[[[[120.740311,17.56065],[120.740387,17.56016],[120.740257,17.55879],[120.739151,17.55694],[120.737839,17.55612],[120.737389,17.555559],[120.73571,17.554319],[120.734138,17.55298],[120.732697,17.550911],[120.732559,17.54937],[120.732941,17.54809],[120.712738,17.54697],[120.707527,17.54627],[120.703796,17.555849],[120.703712,17.55875],[120.709961,17.56131],[120.740311,17.56065]]]]}},{"type":"Feature","properties":{"ID_0":177,"ISO":"PHL","NAME_0":"Philippines","ID_1":14001,"NAME_1":"Abra","ID_2":1400103,"NAME_2":"Bucay","ID_3":1400103021,"NAME_3":"Siblong","NL_NAME_3":null,"VARNAME_3":null,"TYPE_3":"Barangay","ENGTYPE_3":"Village","PROVINCE":"Abra","REGION":"Cordillera Administrative Region (CAR)","id":"barangay-1400103021","name":"Siblong","barangayCode":"1400103021","population":null,"formattedPop":null,"densityCategory":"No data","vulnerabilityRating":"No data","healthRiskLevel":"No data","areaKm2":3.513362,"centerLat":17.538645,"centerLng":120.70279,"geometrySource":"all_barangay-2.csv detailed WKT","geometryMatchMethod":"unique_official_admin_names","boundaryPointCount":11},"geometry":{"type":"MultiPolygon","coordinates":[[[[120.686096,17.547819],[120.703796,17.555849],[120.707527,17.54627],[120.712738,17.54697],[120.712807,17.54336],[120.713188,17.539921],[120.694458,17.53834],[120.69117,17.54237],[120.689117,17.544451],[120.687248,17.54632],[120.686096,17.547819]]]]}},{"type":"Feature","properties":{"ID_0":177,"ISO":"PHL","NAME_0":"Philippines","ID_1":14001,"NAME_1":"Abra","ID_2":1400103,"NAME_2":"Bucay","ID_3":1400103022,"NAME_3":"Tabiog","NL_NAME_3":null,"VARNAME_3":null,"TYPE_3":"Barangay","ENGTYPE_3":"Village","PROVINCE":"Abra","REGION":"Cordillera Administrative Region (CAR)","id":"barangay-1400103022","name":"Tabiog","barangayCode":"1400103022","population":null,"formattedPop":null,"densityCategory":"No data","vulnerabilityRating":"No data","healthRiskLevel":"No data","areaKm2":11.621961,"centerLat":17.548613,"centerLng":120.75401,"geometrySource":"all_barangay-2.csv detailed WKT","geometryMatchMethod":"unique_official_admin_names","boundaryPointCount":67},"geometry":{"type":"MultiPolygon","coordinates":[[[[120.786133,17.559549],[120.787193,17.55743],[120.791496,17.54603],[120.762817,17.54215],[120.756233,17.527559],[120.753777,17.518379],[120.751671,17.519819],[120.750793,17.520241],[120.749893,17.52059],[120.748978,17.52104],[120.748711,17.521311],[120.748756,17.522579],[120.749199,17.523279],[120.749428,17.523991],[120.749153,17.524401],[120.748703,17.52557],[120.748802,17.526239],[120.749023,17.52622],[120.74939,17.52599],[120.749802,17.525841],[120.750214,17.525921],[120.750687,17.526251],[120.751244,17.52717],[120.751312,17.52853],[120.750977,17.52961],[120.750397,17.529989],[120.749702,17.529909],[120.748894,17.529791],[120.747742,17.53013],[120.74704,17.530519],[120.74646,17.53083],[120.745247,17.531219],[120.744041,17.5313],[120.742523,17.53162],[120.741768,17.532089],[120.741623,17.53282],[120.74131,17.533461],[120.740936,17.53343],[120.740189,17.53303],[120.739754,17.532909],[120.739243,17.533251],[120.739143,17.533819],[120.739449,17.53426],[120.739967,17.53459],[120.740387,17.53487],[120.7407,17.535179],[120.740913,17.535549],[120.740807,17.53599],[120.740562,17.53623],[120.74025,17.53632],[120.732353,17.53919],[120.73291,17.54084],[120.733437,17.542391],[120.733742,17.544479],[120.733498,17.54628],[120.732941,17.54809],[120.732559,17.54937],[120.732697,17.550911],[120.734138,17.55298],[120.73571,17.554319],[120.737389,17.555559],[120.737839,17.55612],[120.739151,17.55694],[120.740257,17.55879],[120.740387,17.56016],[120.740311,17.56065],[120.786133,17.559549]]]]}}]}
