{"type":"FeatureCollection","features":[{"type":"Feature","properties":{"ID_0":177,"ISO":"PHL","NAME_0":"Philippines","ID_1":14001,"NAME_1":"Abra","ID_2":1400117,"NAME_2":"Peñarrubia","ID_3":1400117001,"NAME_3":"Dumayco","NL_NAME_3":null,"VARNAME_3":null,"TYPE_3":"Barangay","ENGTYPE_3":"Village","PROVINCE":"Abra","REGION":"Cordillera Administrative Region (CAR)","id":"barangay-1400117001","name":"Dumayco","barangayCode":"1400117001","population":null,"formattedPop":null,"densityCategory":"No data","vulnerabilityRating":"No data","healthRiskLevel":"No data","areaKm2":2.480518,"centerLat":17.564073,"centerLng":120.661954,"geometrySource":"barangays.geojson simplified fallback","geometryMatchMethod":"simplified_fallback","boundaryPointCount":4},"geometry":{"type":"Polygon","coordinates":[[[120.65542723800002,17.573727751000035],[120.6721366810001,17.564290253000024],[120.66139478500008,17.552484873000026],[120.65542723800002,17.573727751000035]]]}},{"type":"Feature","properties":{"ID_0":177,"ISO":"PHL","NAME_0":"Philippines","ID_1":14001,"NAME_1":"Abra","ID_2":1400117,"NAME_2":"Peñarrubia","ID_3":1400117002,"NAME_3":"Lusuac","NL_NAME_3":null,"VARNAME_3":null,"TYPE_3":"Barangay","ENGTYPE_3":"Village","PROVINCE":"Abra","REGION":"Cordillera Administrative Region (CAR)","id":"barangay-1400117002","name":"Lusuac","barangayCode":"1400117002","population":null,"formattedPop":null,"densityCategory":"No data","vulnerabilityRating":"No data","healthRiskLevel":"No data","areaKm2":9.935825,"centerLat":17.545845,"centerLng":120.671554,"geometrySource":"barangays.geojson simplified fallback","geometryMatchMethod":"simplified_fallback","boundaryPointCount":8},"geometry":{"type":"Polygon","coordinates":[[[120.68534352800009,17.563872841000034],[120.68447984200009,17.53539849300006],[120.67270256300003,17.539915282000038],[120.66637992000005,17.524773245000063],[120.65338112000006,17.527549340000064],[120.654237824,17.543682600000068],[120.66599284200004,17.55899129900007],[120.68534352800009,17.563872841000034]]]}},{"type":"Feature","properties":{"ID_0":177,"ISO":"PHL","NAME_0":"Philippines","ID_1":14001,"NAME_1":"Abra","ID_2":1400117,"NAME_2":"Peñarrubia","ID_3":1400117003,"NAME_3":"Namarabar","NL_NAME_3":null,"VARNAME_3":null,"TYPE_3":"Barangay","ENGTYPE_3":"Village","PROVINCE":"Abra","REGION":"Cordillera Administrative Region (CAR)","id":"barangay-1400117003","name":"Namarabar","barangayCode":"1400117003","population":null,"formattedPop":null,"densityCategory":"No data","vulnerabilityRating":"No data","healthRiskLevel":"No data","areaKm2":1.994205,"centerLat":17.550662,"centerLng":120.643815,"geometrySource":"barangays.geojson simplified fallback","geometryMatchMethod":"simplified_fallback","boundaryPointCount":6},"geometry":{"type":"Polygon","coordinates":[[[120.6381785210001,17.56073146700004],[120.64021847100003,17.553256229000056],[120.6455452780001,17.558525521000035],[120.65309179100007,17.544327098000053],[120.63686653000002,17.547346944000026],[120.6381785210001,17.56073146700004]]]}},{"type":"Feature","properties":{"ID_0":177,"ISO":"PHL","NAME_0":"Philippines","ID_1":14001,"NAME_1":"Abra","ID_2":1400117,"NAME_2":"Peñarrubia","ID_3":1400117004,"NAME_3":"Patiao","NL_NAME_3":null,"VARNAME_3":null,"TYPE_3":"Barangay","ENGTYPE_3":"Village","PROVINCE":"Abra","REGION":"Cordillera Administrative Region (CAR)","id":"barangay-1400117004","name":"Patiao","barangayCode":"1400117004","population":null,"formattedPop":null,"densityCategory":"No data","vulnerabilityRating":"No data","healthRiskLevel":"No data","areaKm2":2.287176,"centerLat":17.553479,"centerLng":120.653843,"geometrySource":"barangays.geojson simplified fallback","geometryMatchMethod":"simplified_fallback","boundaryPointCount":5},"geometry":{"type":"Polygon","coordinates":[[[120.6493838780001,17.563195275000055],[120.66139478500008,17.552484873000026],[120.66059226700008,17.54456844200007],[120.65288227300005,17.543449603000056],[120.6493838780001,17.563195275000055]]]}},{"type":"Feature","properties":{"ID_0":177,"ISO":"PHL","NAME_0":"Philippines","ID_1":14001,"NAME_1":"Abra","ID_2":1400117,"NAME_2":"Peñarrubia","ID_3":1400117005,"NAME_3":"Malamsit","NL_NAME_3":null,"VARNAME_3":null,"TYPE_3":"Barangay","ENGTYPE_3":"Village","PROVINCE":"Abra","REGION":"Cordillera Administrative Region (CAR)","id":"barangay-1400117005","name":"Malamsit","barangayCode":"1400117005","population":null,"formattedPop":null,"densityCategory":"No data","vulnerabilityRating":"No data","healthRiskLevel":"No data","areaKm2":9.325642,"centerLat":17.522488,"centerLng":120.654417,"geometrySource":"barangays.geojson simplified fallback","geometryMatchMethod":"simplified_fallback","boundaryPointCount":8},"geometry":{"type":"Polygon","coordinates":[[[120.65287778900006,17.544095665000043],[120.65338112000006,17.527549340000064],[120.67877707900004,17.51663858300003],[120.6730418190001,17.50565900600003],[120.65539428200009,17.50800149500003],[120.64812934800011,17.520704477000038],[120.6266881250001,17.52170333300006],[120.65287778900006,17.544095665000043]]]}},{"type":"Feature","properties":{"ID_0":177,"ISO":"PHL","NAME_0":"Philippines","ID_1":14001,"NAME_1":"Abra","ID_2":1400117,"NAME_2":"Peñarrubia","ID_3":1400117006,"NAME_3":"Poblacion","NL_NAME_3":null,"VARNAME_3":null,"TYPE_3":"Barangay","ENGTYPE_3":"Village","PROVINCE":"Abra","REGION":"Cordillera Administrative Region (CAR)","id":"barangay-1400117006","name":"Poblacion","barangayCode":"1400117006","population":null,"formattedPop":null,"densityCategory":"No data","vulnerabilityRating":"No data","healthRiskLevel":"No data","areaKm2":0.649946,"centerLat":17.567684,"centerLng":120.652746,"geometrySource":"barangays.geojson simplified fallback","geometryMatchMethod":"simplified_fallback","boundaryPointCount":5},"geometry":{"type":"Polygon","coordinates":[[[120.65503353400004,17.56231485400002],[120.64866697800005,17.563212786000065],[120.65165553500003,17.573666827000068],[120.65542723800002,17.573727751000035],[120.65503353400004,17.56231485400002]]]}},{"type":"Feature","properties":{"ID_0":177,"ISO":"PHL","NAME_0":"Philippines","ID_1":14001,"NAME_1":"Abra","ID_2":1400117,"NAME_2":"Peñarrubia","ID_3":1400117007,"NAME_3":"Riang","NL_NAME_3":null,"VARNAME_3":null,"TYPE_3":"Barangay","ENGTYPE_3":"Village","PROVINCE":"Abra","REGION":"Cordillera Administrative Region (CAR)","id":"barangay-1400117007","name":"Riang","barangayCode":"1400117007","population":null,"formattedPop":null,"densityCategory":"No data","vulnerabilityRating":"No data","healthRiskLevel":"No data","areaKm2":1.645789,"centerLat":17.565377,"centerLng":120.64414,"geometrySource":"barangays.geojson simplified fallback","geometryMatchMethod":"simplified_fallback","boundaryPointCount":5},"geometry":{"type":"Polygon","coordinates":[[[120.651571525,17.57110658000005],[120.64866697800005,17.563212786000065],[120.64021847100003,17.553256229000056],[120.63781101600011,17.568510725000067],[120.651571525,17.57110658000005]]]}},{"type":"Feature","properties":{"ID_0":177,"ISO":"PHL","NAME_0":"Philippines","ID_1":14001,"NAME_1":"Abra","ID_2":1400117,"NAME_2":"Peñarrubia","ID_3":1400117008,"NAME_3":"Santa Rosa","NL_NAME_3":null,"VARNAME_3":null,"TYPE_3":"Barangay","ENGTYPE_3":"Village","PROVINCE":"Abra","REGION":"Cordillera Administrative Region (CAR)","id":"barangay-1400117008","name":"Santa Rosa","barangayCode":"1400117008","population":null,"formattedPop":null,"densityCategory":"No data","vulnerabilityRating":"No data","healthRiskLevel":"No data","areaKm2":9.602276,"centerLat":17.522885,"centerLng":120.684346,"geometrySource":"barangays.geojson simplified fallback","geometryMatchMethod":"simplified_fallback","boundaryPointCount":9},"geometry":{"type":"Polygon","coordinates":[[[120.6857636200001,17.547517449000054],[120.6974903580001,17.509876191000046],[120.69064973400009,17.50323588300006],[120.6730418190001,17.50565900600003],[120.67877707900004,17.51663858300003],[120.66637992000005,17.524773245000063],[120.67270256300003,17.539915282000038],[120.68447984200009,17.53539849300006],[120.6857636200001,17.547517449000054]]]}},{"type":"Feature","properties":{"ID_0":177,"ISO":"PHL","NAME_0":"Philippines","ID_1":14001,"NAME_1":"Abra","ID_2":1400117,"NAME_2":"Peñarrubia","ID_3":1400117009,"NAME_3":"Tattawa","NL_NAME_3":null,"VARNAME_3":null,"TYPE_3":"Barangay","ENGTYPE_3":"Village","PROVINCE":"Abra","REGION":"Cordillera Administrative Region (CAR)","id":"barangay-1400117009","name":"Tattawa","barangayCode":"1400117009","population":null,"formattedPop":null,"densityCategory":"No data","vulnerabilityRating":"No data","healthRiskLevel":"No data","areaKm2":1.617839,"centerLat":17.539669,"centerLng":120.639068,"geometrySource":"barangays.geojson simplified fallback","geometryMatchMethod":"simplified_fallback","boundaryPointCount":4},"geometry":{"type":"Polygon","coordinates":[[[120.63686653000002,17.547346944000026],[120.64738503700005,17.53646493900004],[120.63375233600004,17.529933810000045],[120.63686653000002,17.547346944000026]]]}}]}
