{"type":"FeatureCollection","features":[{"type":"Feature","properties":{"ID_0":177,"ISO":"PHL","NAME_0":"Philippines","ID_1":14032,"NAME_1":"Kalinga","ID_2":1403211,"NAME_2":"Rizal (Liwan)","ID_3":1403211001,"NAME_3":"Babalag East","NL_NAME_3":null,"VARNAME_3":null,"TYPE_3":"Barangay","ENGTYPE_3":"Village","PROVINCE":"Kalinga","REGION":"Cordillera Administrative Region (CAR)","id":"barangay-1403211001","name":"Babalag East","barangayCode":"1403211001","population":null,"formattedPop":null,"densityCategory":"No data","vulnerabilityRating":"No data","healthRiskLevel":"No data","areaKm2":5.133711,"centerLat":17.524321,"centerLng":121.598472,"geometrySource":"all_barangay-2.csv detailed WKT","geometryMatchMethod":"psgc_coordinate_bridge","boundaryPointCount":16},"geometry":{"type":"MultiPolygon","coordinates":[[[[121.583572,17.51955],[121.583687,17.51956],[121.583733,17.51956],[121.641769,17.520729],[121.609169,17.502131],[121.586929,17.501341],[121.586327,17.50132],[121.583977,17.502251],[121.582939,17.503691],[121.582237,17.504681],[121.581917,17.50565],[121.581711,17.50919],[121.581848,17.512489],[121.582367,17.515539],[121.583199,17.518511],[121.583572,17.51955]]]]}},{"type":"Feature","properties":{"ID_0":177,"ISO":"PHL","NAME_0":"Philippines","ID_1":14032,"NAME_1":"Kalinga","ID_2":1403211,"NAME_2":"Rizal (Liwan)","ID_3":1403211002,"NAME_3":"Calaocan","NL_NAME_3":null,"VARNAME_3":null,"TYPE_3":"Barangay","ENGTYPE_3":"Village","PROVINCE":"Kalinga","REGION":"Cordillera Administrative Region (CAR)","id":"barangay-1403211002","name":"Calaocan","barangayCode":"1403211002","population":null,"formattedPop":null,"densityCategory":"No data","vulnerabilityRating":"No data","healthRiskLevel":"No data","areaKm2":13.224946,"centerLat":17.503221,"centerLng":121.618833,"geometrySource":"all_barangay-2.csv detailed WKT","geometryMatchMethod":"psgc_coordinate_bridge","boundaryPointCount":5},"geometry":{"type":"MultiPolygon","coordinates":[[[[121.609169,17.502131],[121.609688,17.471479],[121.587082,17.47081],[121.586929,17.501341],[121.609169,17.502131]]]]}},{"type":"Feature","properties":{"ID_0":177,"ISO":"PHL","NAME_0":"Philippines","ID_1":14032,"NAME_1":"Kalinga","ID_2":1403211,"NAME_2":"Rizal (Liwan)","ID_3":1403211005,"NAME_3":"Kinama","NL_NAME_3":null,"VARNAME_3":null,"TYPE_3":"Barangay","ENGTYPE_3":"Village","PROVINCE":"Kalinga","REGION":"Cordillera Administrative Region (CAR)","id":"barangay-1403211005","name":"Kinama","barangayCode":"1403211005","population":null,"formattedPop":null,"densityCategory":"No data","vulnerabilityRating":"No data","healthRiskLevel":"No data","areaKm2":14.082586,"centerLat":17.564159,"centerLng":121.517371,"geometrySource":"all_barangay-2.csv detailed WKT","geometryMatchMethod":"psgc_coordinate_bridge","boundaryPointCount":6},"geometry":{"type":"MultiPolygon","coordinates":[[[[121.561829,17.55097],[121.562103,17.533701],[121.515579,17.529499],[121.502083,17.546419],[121.533058,17.548809],[121.561829,17.55097]]]]}},{"type":"Feature","properties":{"ID_0":177,"ISO":"PHL","NAME_0":"Philippines","ID_1":14032,"NAME_1":"Kalinga","ID_2":1403211,"NAME_2":"Rizal (Liwan)","ID_3":1403211006,"NAME_3":"Liwan East","NL_NAME_3":null,"VARNAME_3":null,"TYPE_3":"Barangay","ENGTYPE_3":"Village","PROVINCE":"Kalinga","REGION":"Cordillera Administrative Region (CAR)","id":"barangay-1403211006","name":"Liwan East","barangayCode":"1403211006","population":null,"formattedPop":null,"densityCategory":"No data","vulnerabilityRating":"No data","healthRiskLevel":"No data","areaKm2":3.174981,"centerLat":17.519688,"centerLng":121.621614,"geometrySource":"all_barangay-2.csv detailed WKT","geometryMatchMethod":"psgc_coordinate_bridge","boundaryPointCount":8},"geometry":{"type":"MultiPolygon","coordinates":[[[[121.641769,17.520729],[121.656052,17.508221],[121.667488,17.49506],[121.670303,17.49033],[121.671204,17.47566],[121.609688,17.471479],[121.609169,17.502131],[121.641769,17.520729]]]]}},{"type":"Feature","properties":{"ID_0":177,"ISO":"PHL","NAME_0":"Philippines","ID_1":14032,"NAME_1":"Kalinga","ID_2":1403211,"NAME_2":"Rizal (Liwan)","ID_3":1403211007,"NAME_3":"Liwan West","NL_NAME_3":null,"VARNAME_3":null,"TYPE_3":"Barangay","ENGTYPE_3":"Village","PROVINCE":"Kalinga","REGION":"Cordillera Administrative Region (CAR)","id":"barangay-1403211007","name":"Liwan West","barangayCode":"1403211007","population":null,"formattedPop":null,"densityCategory":"No data","vulnerabilityRating":"No data","healthRiskLevel":"No data","areaKm2":31.646916,"centerLat":17.481245,"centerLng":121.577244,"geometrySource":"all_barangay-2.csv detailed WKT","geometryMatchMethod":"psgc_coordinate_bridge","boundaryPointCount":9},"geometry":{"type":"MultiPolygon","coordinates":[[[[121.586929,17.501341],[121.587082,17.47081],[121.587547,17.450741],[121.581871,17.45046],[121.570992,17.46356],[121.556511,17.480301],[121.54937,17.488251],[121.562813,17.49309],[121.586929,17.501341]]]]}},{"type":"Feature","properties":{"ID_0":177,"ISO":"PHL","NAME_0":"Philippines","ID_1":14032,"NAME_1":"Kalinga","ID_2":1403211,"NAME_2":"Rizal (Liwan)","ID_3":1403211008,"NAME_3":"Macutay","NL_NAME_3":null,"VARNAME_3":null,"TYPE_3":"Barangay","ENGTYPE_3":"Village","PROVINCE":"Kalinga","REGION":"Cordillera Administrative Region (CAR)","id":"barangay-1403211008","name":"Macutay","barangayCode":"1403211008","population":null,"formattedPop":null,"densityCategory":"No data","vulnerabilityRating":"No data","healthRiskLevel":"No data","areaKm2":6.648109,"centerLat":17.552083,"centerLng":121.574177,"geometrySource":"all_barangay-2.csv detailed WKT","geometryMatchMethod":"psgc_coordinate_bridge","boundaryPointCount":7},"geometry":{"type":"MultiPolygon","coordinates":[[[[121.586807,17.57724],[121.593887,17.57028],[121.594292,17.534731],[121.562103,17.533701],[121.561829,17.55097],[121.56134,17.573481],[121.586807,17.57724]]]]}},{"type":"Feature","properties":{"ID_0":177,"ISO":"PHL","NAME_0":"Philippines","ID_1":14032,"NAME_1":"Kalinga","ID_2":1403211,"NAME_2":"Rizal (Liwan)","ID_3":1403211011,"NAME_3":"San Pascual","NL_NAME_3":null,"VARNAME_3":null,"TYPE_3":"Barangay","ENGTYPE_3":"Village","PROVINCE":"Kalinga","REGION":"Cordillera Administrative Region (CAR)","id":"barangay-1403211011","name":"San Pascual","barangayCode":"1403211011","population":null,"formattedPop":null,"densityCategory":"No data","vulnerabilityRating":"No data","healthRiskLevel":"No data","areaKm2":2.57542,"centerLat":17.534553,"centerLng":121.590213,"geometrySource":"all_barangay-2.csv detailed WKT","geometryMatchMethod":"psgc_coordinate_bridge","boundaryPointCount":10},"geometry":{"type":"MultiPolygon","coordinates":[[[[121.594292,17.534731],[121.628014,17.53561],[121.633163,17.53019],[121.641769,17.520729],[121.583733,17.51956],[121.583687,17.51956],[121.583572,17.51955],[121.56263,17.519211],[121.562103,17.533701],[121.594292,17.534731]]]]}},{"type":"Feature","properties":{"ID_0":177,"ISO":"PHL","NAME_0":"Philippines","ID_1":14032,"NAME_1":"Kalinga","ID_2":1403211,"NAME_2":"Rizal (Liwan)","ID_3":1403211012,"NAME_3":"San Quintin","NL_NAME_3":null,"VARNAME_3":null,"TYPE_3":"Barangay","ENGTYPE_3":"Village","PROVINCE":"Kalinga","REGION":"Cordillera Administrative Region (CAR)","id":"barangay-1403211012","name":"San Quintin","barangayCode":"1403211012","population":null,"formattedPop":null,"densityCategory":"No data","vulnerabilityRating":"No data","healthRiskLevel":"No data","areaKm2":8.507722,"centerLat":17.543445,"centerLng":121.613686,"geometrySource":"all_barangay-2.csv detailed WKT","geometryMatchMethod":"psgc_coordinate_bridge","boundaryPointCount":6},"geometry":{"type":"MultiPolygon","coordinates":[[[[121.600616,17.564251],[121.616837,17.548031],[121.628014,17.53561],[121.594292,17.534731],[121.593887,17.57028],[121.600616,17.564251]]]]}},{"type":"Feature","properties":{"ID_0":177,"ISO":"PHL","NAME_0":"Philippines","ID_1":14032,"NAME_1":"Kalinga","ID_2":1403211,"NAME_2":"Rizal (Liwan)","ID_3":1403211014,"NAME_3":"Santor","NL_NAME_3":null,"VARNAME_3":null,"TYPE_3":"Barangay","ENGTYPE_3":"Village","PROVINCE":"Kalinga","REGION":"Cordillera Administrative Region (CAR)","id":"barangay-1403211014","name":"Santor","barangayCode":"1403211014","population":null,"formattedPop":null,"densityCategory":"No data","vulnerabilityRating":"No data","healthRiskLevel":"No data","areaKm2":15.11105,"centerLat":17.470374,"centerLng":121.627226,"geometrySource":"all_barangay-2.csv detailed WKT","geometryMatchMethod":"psgc_coordinate_bridge","boundaryPointCount":7},"geometry":{"type":"MultiPolygon","coordinates":[[[[121.671204,17.47566],[121.671623,17.46384],[121.667877,17.453131],[121.587547,17.450741],[121.587082,17.47081],[121.609688,17.471479],[121.671204,17.47566]]]]}},{"type":"Feature","properties":{"ID_0":177,"ISO":"PHL","NAME_0":"Philippines","ID_1":14032,"NAME_1":"Kalinga","ID_2":1403211,"NAME_2":"Rizal (Liwan)","ID_3":1403211015,"NAME_3":"Babalag West","NL_NAME_3":null,"VARNAME_3":null,"TYPE_3":"Barangay","ENGTYPE_3":"Village","PROVINCE":"Kalinga","REGION":"Cordillera Administrative Region (CAR)","id":"barangay-1403211015","name":"Babalag West","barangayCode":"1403211015","population":null,"formattedPop":null,"densityCategory":"No data","vulnerabilityRating":"No data","healthRiskLevel":"No data","areaKm2":17.719219,"centerLat":17.512215,"centerLng":121.550821,"geometrySource":"all_barangay-2.csv detailed WKT","geometryMatchMethod":"psgc_coordinate_bridge","boundaryPointCount":14},"geometry":{"type":"MultiPolygon","coordinates":[[[[121.56263,17.519211],[121.583572,17.51955],[121.583199,17.518511],[121.582367,17.515539],[121.581848,17.512489],[121.581711,17.50919],[121.581917,17.50565],[121.582237,17.504681],[121.582939,17.503691],[121.583977,17.502251],[121.586327,17.50132],[121.586929,17.501341],[121.562813,17.49309],[121.56263,17.519211]]]]}},{"type":"Feature","properties":{"ID_0":177,"ISO":"PHL","NAME_0":"Philippines","ID_1":14032,"NAME_1":"Kalinga","ID_2":1403211,"NAME_2":"Rizal (Liwan)","ID_3":1403211016,"NAME_3":"Bulbol","NL_NAME_3":null,"VARNAME_3":null,"TYPE_3":"Barangay","ENGTYPE_3":"Village","PROVINCE":"Kalinga","REGION":"Cordillera Administrative Region (CAR)","id":"barangay-1403211016","name":"Bulbol","barangayCode":"1403211016","population":null,"formattedPop":null,"densityCategory":"No data","vulnerabilityRating":"No data","healthRiskLevel":"No data","areaKm2":23.955167,"centerLat":17.536531,"centerLng":121.540696,"geometrySource":"all_barangay-2.csv detailed WKT","geometryMatchMethod":"psgc_coordinate_bridge","boundaryPointCount":7},"geometry":{"type":"MultiPolygon","coordinates":[[[[121.562103,17.533701],[121.56263,17.519211],[121.562813,17.49309],[121.54937,17.488251],[121.53656,17.504299],[121.515579,17.529499],[121.562103,17.533701]]]]}},{"type":"Feature","properties":{"ID_0":177,"ISO":"PHL","NAME_0":"Philippines","ID_1":14032,"NAME_1":"Kalinga","ID_2":1403211,"NAME_2":"Rizal (Liwan)","ID_3":1403211017,"NAME_3":"Romualdez","NL_NAME_3":null,"VARNAME_3":null,"TYPE_3":"Barangay","ENGTYPE_3":"Village","PROVINCE":"Kalinga","REGION":"Cordillera Administrative Region (CAR)","id":"barangay-1403211017","name":"Romualdez","barangayCode":"1403211017","population":null,"formattedPop":null,"densityCategory":"No data","vulnerabilityRating":"No data","healthRiskLevel":"No data","areaKm2":31.500428,"centerLat":17.437279,"centerLng":121.596573,"geometrySource":"all_barangay-2.csv detailed WKT","geometryMatchMethod":"psgc_coordinate_bridge","boundaryPointCount":9},"geometry":{"type":"MultiPolygon","coordinates":[[[[121.587547,17.450741],[121.667877,17.453131],[121.67498,17.444799],[121.659882,17.43169],[121.60453,17.396601],[121.610573,17.40621],[121.613892,17.41263],[121.581871,17.45046],[121.587547,17.450741]]]]}},{"type":"Feature","properties":{"ID_0":177,"ISO":"PHL","NAME_0":"Philippines","ID_1":14032,"NAME_1":"Kalinga","ID_2":1403211,"NAME_2":"Rizal (Liwan)","ID_3":1403211018,"NAME_3":"San Francisco","NL_NAME_3":null,"VARNAME_3":null,"TYPE_3":"Barangay","ENGTYPE_3":"Village","PROVINCE":"Kalinga","REGION":"Cordillera Administrative Region (CAR)","id":"barangay-1403211018","name":"San Francisco","barangayCode":"1403211018","population":null,"formattedPop":null,"densityCategory":"No data","vulnerabilityRating":"No data","healthRiskLevel":"No data","areaKm2":3.308448,"centerLat":17.5836,"centerLng":121.506027,"geometrySource":"all_barangay-2.csv detailed WKT","geometryMatchMethod":"psgc_coordinate_bridge","boundaryPointCount":6},"geometry":{"type":"MultiPolygon","coordinates":[[[[121.531807,17.569189],[121.533058,17.548809],[121.502083,17.546419],[121.496933,17.55308],[121.488853,17.562571],[121.531807,17.569189]]]]}},{"type":"Feature","properties":{"ID_0":177,"ISO":"PHL","NAME_0":"Philippines","ID_1":14032,"NAME_1":"Kalinga","ID_2":1403211,"NAME_2":"Rizal (Liwan)","ID_3":1403211019,"NAME_3":"San Pedro","NL_NAME_3":null,"VARNAME_3":null,"TYPE_3":"Barangay","ENGTYPE_3":"Village","PROVINCE":"Kalinga","REGION":"Cordillera Administrative Region (CAR)","id":"barangay-1403211019","name":"San Pedro","barangayCode":"1403211019","population":null,"formattedPop":null,"densityCategory":"No data","vulnerabilityRating":"No data","healthRiskLevel":"No data","areaKm2":8.200059,"centerLat":17.568449,"centerLng":121.546542,"geometrySource":"barangays.geojson simplified fallback","geometryMatchMethod":"simplified_fallback","boundaryPointCount":5},"geometry":{"type":"Polygon","coordinates":[[[121.53392325200002,17.584324932000072],[121.56804816700003,17.56798621100006],[121.54848881200007,17.55206467100004],[121.5290751760001,17.56753535200005],[121.53392325200002,17.584324932000072]]]}}]}
