{"type":"FeatureCollection","features":[{"type":"Feature","properties":{"ID_0":177,"ISO":"PHL","NAME_0":"Philippines","ID_1":14001,"NAME_1":"Abra","ID_2":1400122,"NAME_2":"San Juan","ID_3":1400122001,"NAME_3":"Abualan","NL_NAME_3":null,"VARNAME_3":null,"TYPE_3":"Barangay","ENGTYPE_3":"Village","PROVINCE":"Abra","REGION":"Cordillera Administrative Region (CAR)","id":"barangay-1400122001","name":"Abualan","barangayCode":"1400122001","population":null,"formattedPop":null,"densityCategory":"No data","vulnerabilityRating":"No data","healthRiskLevel":"No data","areaKm2":29.279598,"centerLat":17.723893,"centerLng":120.775598,"geometrySource":"all_barangay-2.csv detailed WKT","geometryMatchMethod":"unique_official_admin_names","boundaryPointCount":26},"geometry":{"type":"MultiPolygon","coordinates":[[[[120.811371,17.740749],[120.782753,17.71497],[120.781212,17.69175],[120.779404,17.69146],[120.776939,17.691561],[120.774986,17.691339],[120.77317,17.691219],[120.771103,17.69054],[120.768646,17.69009],[120.766121,17.69066],[120.765121,17.69129],[120.763962,17.69211],[120.76194,17.692921],[120.759659,17.693001],[120.7556,17.694111],[120.754227,17.694481],[120.751991,17.694981],[120.750587,17.695311],[120.753777,17.700939],[120.748947,17.70631],[120.746643,17.708509],[120.745377,17.709209],[120.750092,17.724319],[120.764603,17.74015],[120.785896,17.76413],[120.811371,17.740749]]]]}},{"type":"Feature","properties":{"ID_0":177,"ISO":"PHL","NAME_0":"Philippines","ID_1":14001,"NAME_1":"Abra","ID_2":1400122,"NAME_2":"San Juan","ID_3":1400122002,"NAME_3":"Ba-ug","NL_NAME_3":null,"VARNAME_3":null,"TYPE_3":"Barangay","ENGTYPE_3":"Village","PROVINCE":"Abra","REGION":"Cordillera Administrative Region (CAR)","id":"barangay-1400122002","name":"Ba-ug","barangayCode":"1400122002","population":null,"formattedPop":null,"densityCategory":"No data","vulnerabilityRating":"No data","healthRiskLevel":"No data","areaKm2":4.641036,"centerLat":17.682547,"centerLng":120.74776,"geometrySource":"all_barangay-2.csv detailed WKT","geometryMatchMethod":"unique_official_admin_names","boundaryPointCount":30},"geometry":{"type":"MultiPolygon","coordinates":[[[[120.765121,17.69129],[120.754936,17.67684],[120.743584,17.671539],[120.739037,17.66996],[120.737473,17.671209],[120.738022,17.675249],[120.737823,17.6784],[120.733078,17.681971],[120.733398,17.68222],[120.735558,17.68351],[120.73671,17.684441],[120.737793,17.685011],[120.739227,17.68552],[120.740921,17.686199],[120.741524,17.68644],[120.743973,17.68638],[120.746063,17.68639],[120.746681,17.687811],[120.746918,17.68968],[120.74778,17.69199],[120.749847,17.69528],[120.749748,17.695761],[120.750587,17.695311],[120.751991,17.694981],[120.754227,17.694481],[120.7556,17.694111],[120.759659,17.693001],[120.76194,17.692921],[120.763962,17.69211],[120.765121,17.69129]]]]}},{"type":"Feature","properties":{"ID_0":177,"ISO":"PHL","NAME_0":"Philippines","ID_1":14001,"NAME_1":"Abra","ID_2":1400122,"NAME_2":"San Juan","ID_3":1400122003,"NAME_3":"Badas","NL_NAME_3":null,"VARNAME_3":null,"TYPE_3":"Barangay","ENGTYPE_3":"Village","PROVINCE":"Abra","REGION":"Cordillera Administrative Region (CAR)","id":"barangay-1400122003","name":"Badas","barangayCode":"1400122003","population":null,"formattedPop":null,"densityCategory":"No data","vulnerabilityRating":"No data","healthRiskLevel":"No data","areaKm2":0.528207,"centerLat":17.675615,"centerLng":120.731701,"geometrySource":"all_barangay-2.csv detailed WKT","geometryMatchMethod":"unique_official_admin_names","boundaryPointCount":17},"geometry":{"type":"MultiPolygon","coordinates":[[[[120.733078,17.681971],[120.737823,17.6784],[120.738022,17.675249],[120.736931,17.675579],[120.735168,17.675409],[120.733833,17.67511],[120.733307,17.67499],[120.731979,17.674919],[120.731277,17.67547],[120.730667,17.676411],[120.730713,17.6766],[120.731262,17.677481],[120.731377,17.67782],[120.731354,17.678909],[120.731087,17.680161],[120.732384,17.681391],[120.733078,17.681971]]]]}},{"type":"Feature","properties":{"ID_0":177,"ISO":"PHL","NAME_0":"Philippines","ID_1":14001,"NAME_1":"Abra","ID_2":1400122,"NAME_2":"San Juan","ID_3":1400122004,"NAME_3":"Cabcaborao","NL_NAME_3":null,"VARNAME_3":null,"TYPE_3":"Barangay","ENGTYPE_3":"Village","PROVINCE":"Abra","REGION":"Cordillera Administrative Region (CAR)","id":"barangay-1400122004","name":"Cabcaborao","barangayCode":"1400122004","population":null,"formattedPop":null,"densityCategory":"No data","vulnerabilityRating":"No data","healthRiskLevel":"No data","areaKm2":5.463352,"centerLat":17.705532,"centerLng":120.722743,"geometrySource":"all_barangay-2.csv detailed WKT","geometryMatchMethod":"unique_official_admin_names","boundaryPointCount":33},"geometry":{"type":"MultiPolygon","coordinates":[[[[120.733238,17.718861],[120.741913,17.7115],[120.740227,17.710449],[120.739403,17.70966],[120.738663,17.709141],[120.738457,17.707581],[120.736259,17.707741],[120.735107,17.7073],[120.733437,17.704081],[120.732613,17.7033],[120.730728,17.7006],[120.729897,17.699209],[120.730011,17.69808],[120.72982,17.695221],[120.729401,17.694139],[120.729286,17.693171],[120.727676,17.69388],[120.709763,17.70047],[120.710564,17.702129],[120.711357,17.70384],[120.712196,17.70525],[120.712677,17.70639],[120.712967,17.70817],[120.7127,17.71014],[120.712273,17.711361],[120.712044,17.712959],[120.711189,17.7145],[120.710617,17.71554],[120.709877,17.71837],[120.709908,17.72093],[120.709953,17.723061],[120.710167,17.724211],[120.733238,17.718861]]]]}},{"type":"Feature","properties":{"ID_0":177,"ISO":"PHL","NAME_0":"Philippines","ID_1":14001,"NAME_1":"Abra","ID_2":1400122,"NAME_2":"San Juan","ID_3":1400122005,"NAME_3":"Colabaoan","NL_NAME_3":null,"VARNAME_3":null,"TYPE_3":"Barangay","ENGTYPE_3":"Village","PROVINCE":"Abra","REGION":"Cordillera Administrative Region (CAR)","id":"barangay-1400122005","name":"Colabaoan","barangayCode":"1400122005","population":null,"formattedPop":null,"densityCategory":"No data","vulnerabilityRating":"No data","healthRiskLevel":"No data","areaKm2":0.36314,"centerLat":17.67257,"centerLng":120.726225,"geometrySource":"all_barangay-2.csv detailed WKT","geometryMatchMethod":"unique_official_admin_names","boundaryPointCount":11},"geometry":{"type":"MultiPolygon","coordinates":[[[[120.72271,17.673491],[120.723907,17.673059],[120.72509,17.67226],[120.726128,17.672251],[120.727249,17.673429],[120.731728,17.670799],[120.724838,17.665701],[120.721153,17.667391],[120.723778,17.669451],[120.723137,17.67238],[120.72271,17.673491]]]]}},{"type":"Feature","properties":{"ID_0":177,"ISO":"PHL","NAME_0":"Philippines","ID_1":14001,"NAME_1":"Abra","ID_2":1400122,"NAME_2":"San Juan","ID_3":1400122006,"NAME_3":"Culiong","NL_NAME_3":null,"VARNAME_3":null,"TYPE_3":"Barangay","ENGTYPE_3":"Village","PROVINCE":"Abra","REGION":"Cordillera Administrative Region (CAR)","id":"barangay-1400122006","name":"Culiong","barangayCode":"1400122006","population":null,"formattedPop":null,"densityCategory":"No data","vulnerabilityRating":"No data","healthRiskLevel":"No data","areaKm2":0.969121,"centerLat":17.693423,"centerLng":120.742948,"geometrySource":"all_barangay-2.csv detailed WKT","geometryMatchMethod":"unique_official_admin_names","boundaryPointCount":17},"geometry":{"type":"MultiPolygon","coordinates":[[[[120.745377,17.709209],[120.746643,17.708509],[120.748947,17.70631],[120.753777,17.700939],[120.750587,17.695311],[120.749748,17.695761],[120.749847,17.69528],[120.74778,17.69199],[120.746918,17.68968],[120.746681,17.687811],[120.746063,17.68639],[120.743973,17.68638],[120.741524,17.68644],[120.740921,17.686199],[120.739227,17.68552],[120.735443,17.69079],[120.745377,17.709209]]]]}},{"type":"Feature","properties":{"ID_0":177,"ISO":"PHL","NAME_0":"Philippines","ID_1":14001,"NAME_1":"Abra","ID_2":1400122,"NAME_2":"San Juan","ID_3":1400122007,"NAME_3":"Daoidao","NL_NAME_3":null,"VARNAME_3":null,"TYPE_3":"Barangay","ENGTYPE_3":"Village","PROVINCE":"Abra","REGION":"Cordillera Administrative Region (CAR)","id":"barangay-1400122007","name":"Daoidao","barangayCode":"1400122007","population":null,"formattedPop":null,"densityCategory":"No data","vulnerabilityRating":"No data","healthRiskLevel":"No data","areaKm2":1.469283,"centerLat":17.679863,"centerLng":120.713287,"geometrySource":"all_barangay-2.csv detailed WKT","geometryMatchMethod":"unique_official_admin_names","boundaryPointCount":23},"geometry":{"type":"MultiPolygon","coordinates":[[[[120.715279,17.68239],[120.719147,17.68354],[120.72216,17.679029],[120.726303,17.67944],[120.730667,17.676411],[120.729584,17.67568],[120.728394,17.67485],[120.728271,17.674709],[120.727249,17.673429],[120.726128,17.672251],[120.72509,17.67226],[120.723907,17.673059],[120.72271,17.673491],[120.721367,17.67441],[120.720993,17.674971],[120.720543,17.675501],[120.719681,17.676941],[120.719078,17.678301],[120.718491,17.679239],[120.717232,17.680691],[120.718307,17.68177],[120.715752,17.682199],[120.715279,17.68239]]]]}},{"type":"Feature","properties":{"ID_0":177,"ISO":"PHL","NAME_0":"Philippines","ID_1":14001,"NAME_1":"Abra","ID_2":1400122,"NAME_2":"San Juan","ID_3":1400122008,"NAME_3":"Guimba","NL_NAME_3":null,"VARNAME_3":null,"TYPE_3":"Barangay","ENGTYPE_3":"Village","PROVINCE":"Abra","REGION":"Cordillera Administrative Region (CAR)","id":"barangay-1400122008","name":"Guimba","barangayCode":"1400122008","population":null,"formattedPop":null,"densityCategory":"No data","vulnerabilityRating":"No data","healthRiskLevel":"No data","areaKm2":0.213821,"centerLat":17.68068,"centerLng":120.728252,"geometrySource":"all_barangay-2.csv detailed WKT","geometryMatchMethod":"unique_official_admin_names","boundaryPointCount":11},"geometry":{"type":"MultiPolygon","coordinates":[[[[120.729179,17.684],[120.733078,17.681971],[120.732384,17.681391],[120.731087,17.680161],[120.731354,17.678909],[120.731377,17.67782],[120.731262,17.677481],[120.730713,17.6766],[120.730667,17.676411],[120.726303,17.67944],[120.729179,17.684]]]]}},{"type":"Feature","properties":{"ID_0":177,"ISO":"PHL","NAME_0":"Philippines","ID_1":14001,"NAME_1":"Abra","ID_2":1400122,"NAME_2":"San Juan","ID_3":1400122009,"NAME_3":"Lam-ag","NL_NAME_3":null,"VARNAME_3":null,"TYPE_3":"Barangay","ENGTYPE_3":"Village","PROVINCE":"Abra","REGION":"Cordillera Administrative Region (CAR)","id":"barangay-1400122009","name":"Lam-ag","barangayCode":"1400122009","population":null,"formattedPop":null,"densityCategory":"No data","vulnerabilityRating":"No data","healthRiskLevel":"No data","areaKm2":0.49891,"centerLat":17.669933,"centerLng":120.732457,"geometrySource":"all_barangay-2.csv detailed WKT","geometryMatchMethod":"unique_official_admin_names","boundaryPointCount":15},"geometry":{"type":"MultiPolygon","coordinates":[[[[120.738022,17.675249],[120.737473,17.671209],[120.731728,17.670799],[120.727249,17.673429],[120.728271,17.674709],[120.728394,17.67485],[120.729584,17.67568],[120.730667,17.676411],[120.731277,17.67547],[120.731979,17.674919],[120.733307,17.67499],[120.733833,17.67511],[120.735168,17.675409],[120.736931,17.675579],[120.738022,17.675249]]]]}},{"type":"Feature","properties":{"ID_0":177,"ISO":"PHL","NAME_0":"Philippines","ID_1":14001,"NAME_1":"Abra","ID_2":1400122,"NAME_2":"San Juan","ID_3":1400122010,"NAME_3":"Lumobang","NL_NAME_3":null,"VARNAME_3":null,"TYPE_3":"Barangay","ENGTYPE_3":"Village","PROVINCE":"Abra","REGION":"Cordillera Administrative Region (CAR)","id":"barangay-1400122010","name":"Lumobang","barangayCode":"1400122010","population":null,"formattedPop":null,"densityCategory":"No data","vulnerabilityRating":"No data","healthRiskLevel":"No data","areaKm2":0.868542,"centerLat":17.664598,"centerLng":120.730572,"geometrySource":"all_barangay-2.csv detailed WKT","geometryMatchMethod":"unique_official_admin_names","boundaryPointCount":8},"geometry":{"type":"MultiPolygon","coordinates":[[[[120.737473,17.671209],[120.739037,17.66996],[120.743584,17.671539],[120.745049,17.665859],[120.73288,17.665701],[120.724838,17.665701],[120.731728,17.670799],[120.737473,17.671209]]]]}},{"type":"Feature","properties":{"ID_0":177,"ISO":"PHL","NAME_0":"Philippines","ID_1":14001,"NAME_1":"Abra","ID_2":1400122,"NAME_2":"San Juan","ID_3":1400122011,"NAME_3":"Nangobongan","NL_NAME_3":null,"VARNAME_3":null,"TYPE_3":"Barangay","ENGTYPE_3":"Village","PROVINCE":"Abra","REGION":"Cordillera Administrative Region (CAR)","id":"barangay-1400122011","name":"Nangobongan","barangayCode":"1400122011","population":null,"formattedPop":null,"densityCategory":"No data","vulnerabilityRating":"No data","healthRiskLevel":"No data","areaKm2":1.247864,"centerLat":17.700176,"centerLng":120.736239,"geometrySource":"all_barangay-2.csv detailed WKT","geometryMatchMethod":"unique_official_admin_names","boundaryPointCount":18},"geometry":{"type":"MultiPolygon","coordinates":[[[[120.741913,17.7115],[120.745377,17.709209],[120.735443,17.69079],[120.729286,17.693171],[120.729401,17.694139],[120.72982,17.695221],[120.730011,17.69808],[120.729897,17.699209],[120.730728,17.7006],[120.732613,17.7033],[120.733437,17.704081],[120.735107,17.7073],[120.736259,17.707741],[120.738457,17.707581],[120.738663,17.709141],[120.739403,17.70966],[120.740227,17.710449],[120.741913,17.7115]]]]}},{"type":"Feature","properties":{"ID_0":177,"ISO":"PHL","NAME_0":"Philippines","ID_1":14001,"NAME_1":"Abra","ID_2":1400122,"NAME_2":"San Juan","ID_3":1400122012,"NAME_3":"Pattaoig","NL_NAME_3":null,"VARNAME_3":null,"TYPE_3":"Barangay","ENGTYPE_3":"Village","PROVINCE":"Abra","REGION":"Cordillera Administrative Region (CAR)","id":"barangay-1400122012","name":"Pattaoig","barangayCode":"1400122012","population":null,"formattedPop":null,"densityCategory":"No data","vulnerabilityRating":"No data","healthRiskLevel":"No data","areaKm2":0.702082,"centerLat":17.673387,"centerLng":120.719849,"geometrySource":"all_barangay-2.csv detailed WKT","geometryMatchMethod":"unique_official_admin_names","boundaryPointCount":8},"geometry":{"type":"MultiPolygon","coordinates":[[[[120.723137,17.67238],[120.723778,17.669451],[120.721153,17.667391],[120.719582,17.66864],[120.72039,17.66926],[120.721352,17.67009],[120.722099,17.670771],[120.723137,17.67238]]]]}},{"type":"Feature","properties":{"ID_0":177,"ISO":"PHL","NAME_0":"Philippines","ID_1":14001,"NAME_1":"Abra","ID_2":1400122,"NAME_2":"San Juan","ID_3":1400122013,"NAME_3":"Poblacion North","NL_NAME_3":null,"VARNAME_3":null,"TYPE_3":"Barangay","ENGTYPE_3":"Village","PROVINCE":"Abra","REGION":"Cordillera Administrative Region (CAR)","id":"barangay-1400122013","name":"Poblacion North","barangayCode":"1400122013","population":null,"formattedPop":null,"densityCategory":"No data","vulnerabilityRating":"No data","healthRiskLevel":"No data","areaKm2":1.696002,"centerLat":17.688945,"centerLng":120.734178,"geometrySource":"all_barangay-2.csv detailed WKT","geometryMatchMethod":"unique_official_admin_names","boundaryPointCount":6},"geometry":{"type":"MultiPolygon","coordinates":[[[[120.729286,17.693171],[120.735443,17.69079],[120.729179,17.684],[120.72477,17.686399],[120.727676,17.69388],[120.729286,17.693171]]]]}},{"type":"Feature","properties":{"ID_0":177,"ISO":"PHL","NAME_0":"Philippines","ID_1":14001,"NAME_1":"Abra","ID_2":1400122,"NAME_2":"San Juan","ID_3":1400122014,"NAME_3":"Poblacion South","NL_NAME_3":null,"VARNAME_3":null,"TYPE_3":"Barangay","ENGTYPE_3":"Village","PROVINCE":"Abra","REGION":"Cordillera Administrative Region (CAR)","id":"barangay-1400122014","name":"Poblacion South","barangayCode":"1400122014","population":null,"formattedPop":null,"densityCategory":"No data","vulnerabilityRating":"No data","healthRiskLevel":"No data","areaKm2":0.112917,"centerLat":17.681802,"centerLng":120.731758,"geometrySource":"all_barangay-2.csv detailed WKT","geometryMatchMethod":"unique_official_admin_names","boundaryPointCount":9},"geometry":{"type":"MultiPolygon","coordinates":[[[[120.739227,17.68552],[120.737793,17.685011],[120.73671,17.684441],[120.735558,17.68351],[120.733398,17.68222],[120.733078,17.681971],[120.729179,17.684],[120.735443,17.69079],[120.739227,17.68552]]]]}},{"type":"Feature","properties":{"ID_0":177,"ISO":"PHL","NAME_0":"Philippines","ID_1":14001,"NAME_1":"Abra","ID_2":1400122,"NAME_2":"San Juan","ID_3":1400122015,"NAME_3":"Quidaoen","NL_NAME_3":null,"VARNAME_3":null,"TYPE_3":"Barangay","ENGTYPE_3":"Village","PROVINCE":"Abra","REGION":"Cordillera Administrative Region (CAR)","id":"barangay-1400122015","name":"Quidaoen","barangayCode":"1400122015","population":null,"formattedPop":null,"densityCategory":"No data","vulnerabilityRating":"No data","healthRiskLevel":"No data","areaKm2":5.096574,"centerLat":17.721658,"centerLng":120.721483,"geometrySource":"all_barangay-2.csv detailed WKT","geometryMatchMethod":"unique_official_admin_names","boundaryPointCount":10},"geometry":{"type":"MultiPolygon","coordinates":[[[[120.73719,17.727819],[120.733238,17.718861],[120.710167,17.724211],[120.710587,17.725189],[120.711327,17.726721],[120.713257,17.727831],[120.714813,17.729179],[120.720154,17.73168],[120.721786,17.732639],[120.73719,17.727819]]]]}},{"type":"Feature","properties":{"ID_0":177,"ISO":"PHL","NAME_0":"Philippines","ID_1":14001,"NAME_1":"Abra","ID_2":1400122,"NAME_2":"San Juan","ID_3":1400122016,"NAME_3":"Sabangan","NL_NAME_3":null,"VARNAME_3":null,"TYPE_3":"Barangay","ENGTYPE_3":"Village","PROVINCE":"Abra","REGION":"Cordillera Administrative Region (CAR)","id":"barangay-1400122016","name":"Sabangan","barangayCode":"1400122016","population":null,"formattedPop":null,"densityCategory":"No data","vulnerabilityRating":"No data","healthRiskLevel":"No data","areaKm2":0.401701,"centerLat":17.679935,"centerLng":120.723808,"geometrySource":"barangays.geojson simplified fallback","geometryMatchMethod":"simplified_fallback","boundaryPointCount":4},"geometry":{"type":"Polygon","coordinates":[[[120.7198965450001,17.682472337000036],[120.72645859200009,17.678095335000023],[120.72401127500007,17.67426564400006],[120.7198965450001,17.682472337000036]]]}},{"type":"Feature","properties":{"ID_0":177,"ISO":"PHL","NAME_0":"Philippines","ID_1":14001,"NAME_1":"Abra","ID_2":1400122,"NAME_2":"San Juan","ID_3":1400122017,"NAME_3":"Silet","NL_NAME_3":null,"VARNAME_3":null,"TYPE_3":"Barangay","ENGTYPE_3":"Village","PROVINCE":"Abra","REGION":"Cordillera Administrative Region (CAR)","id":"barangay-1400122017","name":"Silet","barangayCode":"1400122017","population":null,"formattedPop":null,"densityCategory":"No data","vulnerabilityRating":"No data","healthRiskLevel":"No data","areaKm2":2.879266,"centerLat":17.72054,"centerLng":120.745061,"geometrySource":"all_barangay-2.csv detailed WKT","geometryMatchMethod":"unique_official_admin_names","boundaryPointCount":6},"geometry":{"type":"MultiPolygon","coordinates":[[[[120.750092,17.724319],[120.745377,17.709209],[120.741913,17.7115],[120.733238,17.718861],[120.73719,17.727819],[120.750092,17.724319]]]]}},{"type":"Feature","properties":{"ID_0":177,"ISO":"PHL","NAME_0":"Philippines","ID_1":14001,"NAME_1":"Abra","ID_2":1400122,"NAME_2":"San Juan","ID_3":1400122018,"NAME_3":"Supi-il","NL_NAME_3":null,"VARNAME_3":null,"TYPE_3":"Barangay","ENGTYPE_3":"Village","PROVINCE":"Abra","REGION":"Cordillera Administrative Region (CAR)","id":"barangay-1400122018","name":"Supi-il","barangayCode":"1400122018","population":null,"formattedPop":null,"densityCategory":"No data","vulnerabilityRating":"No data","healthRiskLevel":"No data","areaKm2":8.895973,"centerLat":17.675022,"centerLng":120.762049,"geometrySource":"all_barangay-2.csv detailed WKT","geometryMatchMethod":"unique_official_admin_names","boundaryPointCount":15},"geometry":{"type":"MultiPolygon","coordinates":[[[[120.781212,17.69175],[120.779984,17.670139],[120.779747,17.66584],[120.745049,17.665859],[120.743584,17.671539],[120.754936,17.67684],[120.765121,17.69129],[120.766121,17.69066],[120.768646,17.69009],[120.771103,17.69054],[120.77317,17.691219],[120.774986,17.691339],[120.776939,17.691561],[120.779404,17.69146],[120.781212,17.69175]]]]}},{"type":"Feature","properties":{"ID_0":177,"ISO":"PHL","NAME_0":"Philippines","ID_1":14001,"NAME_1":"Abra","ID_2":1400122,"NAME_2":"San Juan","ID_3":1400122019,"NAME_3":"Tagaytay","NL_NAME_3":null,"VARNAME_3":null,"TYPE_3":"Barangay","ENGTYPE_3":"Village","PROVINCE":"Abra","REGION":"Cordillera Administrative Region (CAR)","id":"barangay-1400122019","name":"Tagaytay","barangayCode":"1400122019","population":null,"formattedPop":null,"densityCategory":"No data","vulnerabilityRating":"No data","healthRiskLevel":"No data","areaKm2":3.098914,"centerLat":17.689814,"centerLng":120.717752,"geometrySource":"all_barangay-2.csv detailed WKT","geometryMatchMethod":"unique_official_admin_names","boundaryPointCount":21},"geometry":{"type":"MultiPolygon","coordinates":[[[[120.727676,17.69388],[120.72477,17.686399],[120.719147,17.68354],[120.715279,17.68239],[120.714401,17.682699],[120.713257,17.683319],[120.712334,17.68368],[120.711594,17.683941],[120.711281,17.684191],[120.710922,17.68428],[120.710213,17.684389],[120.707687,17.687611],[120.707764,17.688749],[120.707626,17.689899],[120.707367,17.691339],[120.706734,17.693081],[120.706581,17.69529],[120.707512,17.69755],[120.708603,17.699011],[120.709763,17.70047],[120.727676,17.69388]]]]}}]}
