{"type":"FeatureCollection","features":[{"type":"Feature","properties":{"ID_0":177,"ISO":"PHL","NAME_0":"Philippines","ID_1":14044,"NAME_1":"Mountain Province","ID_2":1404404,"NAME_2":"Bontoc (Capital)","ID_3":1404404001,"NAME_3":"Alab Proper","NL_NAME_3":null,"VARNAME_3":null,"TYPE_3":"Barangay","ENGTYPE_3":"Village","PROVINCE":"Mountain Province","REGION":"Cordillera Administrative Region (CAR)","id":"barangay-1404404001","name":"Alab Proper","barangayCode":"1404404001","population":null,"formattedPop":null,"densityCategory":"No data","vulnerabilityRating":"No data","healthRiskLevel":"No data","areaKm2":7.106993,"centerLat":17.083032,"centerLng":120.937342,"geometrySource":"all_barangay-2.csv detailed WKT","geometryMatchMethod":"psgc_coordinate_bridge","boundaryPointCount":62},"geometry":{"type":"MultiPolygon","coordinates":[[[[120.944519,17.113091],[120.951622,17.09849],[120.958023,17.08654],[120.957657,17.084141],[120.955978,17.085649],[120.955544,17.085911],[120.954948,17.08638],[120.954613,17.08643],[120.954269,17.08596],[120.954483,17.085501],[120.954597,17.08444],[120.955002,17.0835],[120.955132,17.08321],[120.954453,17.08139],[120.954079,17.0811],[120.953201,17.08079],[120.952667,17.080721],[120.951797,17.0805],[120.951469,17.080351],[120.951424,17.07975],[120.952332,17.07827],[120.952477,17.077511],[120.951714,17.075649],[120.95034,17.074739],[120.949768,17.074739],[120.948883,17.07482],[120.94828,17.07489],[120.947594,17.074539],[120.947258,17.073759],[120.947113,17.0725],[120.94664,17.07165],[120.946091,17.07091],[120.945686,17.07008],[120.945518,17.06892],[120.945374,17.067909],[120.944832,17.066429],[120.944122,17.065519],[120.943871,17.06521],[120.943207,17.06419],[120.943077,17.062349],[120.942253,17.05925],[120.940948,17.059111],[120.933937,17.060169],[120.935707,17.066469],[120.936943,17.070419],[120.938904,17.074751],[120.939758,17.07703],[120.940201,17.07966],[120.940392,17.081921],[120.940338,17.08469],[120.940132,17.08758],[120.939812,17.09132],[120.93885,17.094139],[120.938568,17.09527],[120.937378,17.09819],[120.936493,17.1007],[120.935966,17.102261],[120.934517,17.105579],[120.934349,17.105921],[120.932953,17.108709],[120.932137,17.11062],[120.944519,17.113091]]]]}},{"type":"Feature","properties":{"ID_0":177,"ISO":"PHL","NAME_0":"Philippines","ID_1":14044,"NAME_1":"Mountain Province","ID_2":1404404,"NAME_2":"Bontoc (Capital)","ID_3":1404404002,"NAME_3":"Alab Oriente","NL_NAME_3":null,"VARNAME_3":null,"TYPE_3":"Barangay","ENGTYPE_3":"Village","PROVINCE":"Mountain Province","REGION":"Cordillera Administrative Region (CAR)","id":"barangay-1404404002","name":"Alab Oriente","barangayCode":"1404404002","population":null,"formattedPop":null,"densityCategory":"No data","vulnerabilityRating":"No data","healthRiskLevel":"No data","areaKm2":5.793221,"centerLat":17.06315,"centerLng":120.950479,"geometrySource":"all_barangay-2.csv detailed WKT","geometryMatchMethod":"psgc_coordinate_bridge","boundaryPointCount":41},"geometry":{"type":"MultiPolygon","coordinates":[[[[120.983063,17.06735],[120.984467,17.062389],[120.942253,17.05925],[120.943077,17.062349],[120.943207,17.06419],[120.943871,17.06521],[120.944122,17.065519],[120.944832,17.066429],[120.945374,17.067909],[120.945518,17.06892],[120.945686,17.07008],[120.946091,17.07091],[120.94664,17.07165],[120.947113,17.0725],[120.947258,17.073759],[120.947594,17.074539],[120.94828,17.07489],[120.948883,17.07482],[120.949768,17.074739],[120.95034,17.074739],[120.951714,17.075649],[120.952477,17.077511],[120.952332,17.07827],[120.951424,17.07975],[120.951469,17.080351],[120.951797,17.0805],[120.952667,17.080721],[120.953201,17.08079],[120.954079,17.0811],[120.954453,17.08139],[120.955132,17.08321],[120.955002,17.0835],[120.954597,17.08444],[120.954483,17.085501],[120.954269,17.08596],[120.954613,17.08643],[120.954948,17.08638],[120.955544,17.085911],[120.955978,17.085649],[120.957657,17.084141],[120.983063,17.06735]]]]}},{"type":"Feature","properties":{"ID_0":177,"ISO":"PHL","NAME_0":"Philippines","ID_1":14044,"NAME_1":"Mountain Province","ID_2":1404404,"NAME_2":"Bontoc (Capital)","ID_3":1404404003,"NAME_3":"Balili","NL_NAME_3":null,"VARNAME_3":null,"TYPE_3":"Barangay","ENGTYPE_3":"Village","PROVINCE":"Mountain Province","REGION":"Cordillera Administrative Region (CAR)","id":"barangay-1404404003","name":"Balili","barangayCode":"1404404003","population":null,"formattedPop":null,"densityCategory":"No data","vulnerabilityRating":"No data","healthRiskLevel":"No data","areaKm2":9.342346,"centerLat":17.044645,"centerLng":120.941833,"geometrySource":"all_barangay-2.csv detailed WKT","geometryMatchMethod":"psgc_coordinate_bridge","boundaryPointCount":50},"geometry":{"type":"MultiPolygon","coordinates":[[[[120.942253,17.05925],[120.942047,17.058439],[120.94162,17.057581],[120.941231,17.056549],[120.941093,17.05555],[120.940666,17.0543],[120.940277,17.053221],[120.939629,17.051571],[120.939682,17.050091],[120.940208,17.048651],[120.940437,17.04701],[120.93969,17.04587],[120.938782,17.044861],[120.938782,17.04409],[120.93943,17.042049],[120.938904,17.04092],[120.93885,17.040239],[120.93914,17.040159],[120.940033,17.040039],[120.940804,17.039579],[120.941017,17.03861],[120.941063,17.037451],[120.941093,17.036619],[120.941223,17.03644],[120.92038,17.0259],[120.916649,17.030769],[120.917137,17.03157],[120.917236,17.03175],[120.917641,17.032949],[120.918694,17.03422],[120.919456,17.034611],[120.919968,17.03529],[120.920471,17.03627],[120.921249,17.037189],[120.921753,17.037741],[120.922211,17.03812],[120.922607,17.038],[120.923286,17.037661],[120.924103,17.037531],[120.924652,17.03768],[120.925171,17.03841],[120.925163,17.0394],[120.926079,17.040409],[120.927002,17.04101],[120.927818,17.04195],[120.928642,17.04273],[120.929398,17.04324],[120.933937,17.060169],[120.940948,17.059111],[120.942253,17.05925]]]]}},{"type":"Feature","properties":{"ID_0":177,"ISO":"PHL","NAME_0":"Philippines","ID_1":14044,"NAME_1":"Mountain Province","ID_2":1404404,"NAME_2":"Bontoc (Capital)","ID_3":1404404004,"NAME_3":"Bayyo","NL_NAME_3":null,"VARNAME_3":null,"TYPE_3":"Barangay","ENGTYPE_3":"Village","PROVINCE":"Mountain Province","REGION":"Cordillera Administrative Region (CAR)","id":"barangay-1404404004","name":"Bayyo","barangayCode":"1404404004","population":null,"formattedPop":null,"densityCategory":"No data","vulnerabilityRating":"No data","healthRiskLevel":"No data","areaKm2":23.006435,"centerLat":17.004268,"centerLng":121.005269,"geometrySource":"all_barangay-2.csv detailed WKT","geometryMatchMethod":"psgc_coordinate_bridge","boundaryPointCount":44},"geometry":{"type":"MultiPolygon","coordinates":[[[[121.075447,17.037781],[121.071938,17.02883],[121.067039,17.022329],[121.060509,17.01405],[121.058968,17.01162],[121.042259,16.999229],[121.025497,16.99412],[121.000381,16.99432],[120.978653,16.99798],[120.978523,17.00242],[120.978943,17.003941],[120.97937,17.005369],[120.980537,17.006411],[120.981339,17.0068],[120.981628,17.00725],[120.981621,17.008129],[120.98159,17.00898],[120.982224,17.01038],[120.983681,17.01108],[120.985291,17.011681],[120.98613,17.012341],[120.986328,17.012951],[120.986557,17.013889],[120.987106,17.0144],[120.988319,17.01495],[120.989449,17.0156],[120.990646,17.01609],[120.992172,17.017151],[120.993767,17.01906],[120.994217,17.02059],[120.994293,17.022051],[120.994713,17.02404],[120.995117,17.024891],[120.995903,17.0259],[120.996513,17.02685],[120.997253,17.028431],[120.99794,17.02976],[120.999039,17.032101],[120.998863,17.03302],[120.999008,17.03297],[120.99765,17.035379],[121.018021,17.036671],[121.039078,17.03582],[121.075447,17.037781]]]]}},{"type":"Feature","properties":{"ID_0":177,"ISO":"PHL","NAME_0":"Philippines","ID_1":14044,"NAME_1":"Mountain Province","ID_2":1404404,"NAME_2":"Bontoc (Capital)","ID_3":1404404005,"NAME_3":"Bontoc Ili","NL_NAME_3":null,"VARNAME_3":null,"TYPE_3":"Barangay","ENGTYPE_3":"Village","PROVINCE":"Mountain Province","REGION":"Cordillera Administrative Region (CAR)","id":"barangay-1404404005","name":"Bontoc Ili","barangayCode":"1404404005","population":null,"formattedPop":null,"densityCategory":"No data","vulnerabilityRating":"No data","healthRiskLevel":"No data","areaKm2":10.58185,"centerLat":17.089643,"centerLng":120.960067,"geometrySource":"all_barangay-2.csv detailed WKT","geometryMatchMethod":"psgc_coordinate_bridge","boundaryPointCount":41},"geometry":{"type":"MultiPolygon","coordinates":[[[[120.989761,17.11548],[120.989563,17.11541],[120.989792,17.113661],[120.989647,17.112631],[120.980942,17.10882],[120.97924,17.10745],[120.979347,17.105721],[120.980164,17.10154],[120.980827,17.098881],[120.980743,17.09804],[120.979767,17.097521],[120.978996,17.0968],[120.978416,17.095819],[120.977814,17.094391],[120.977722,17.093349],[120.977692,17.09317],[120.977524,17.09272],[120.97702,17.09193],[120.976372,17.09054],[120.976044,17.08979],[120.975571,17.088209],[120.977417,17.085711],[120.978554,17.085119],[120.979713,17.084299],[120.980232,17.084009],[120.980057,17.08176],[120.979736,17.07992],[120.97966,17.077539],[120.980888,17.075251],[120.982079,17.073389],[120.982719,17.07081],[120.982941,17.068621],[120.983063,17.06735],[120.957657,17.084141],[120.958023,17.08654],[120.951622,17.09849],[120.944519,17.113091],[120.952026,17.11515],[120.968193,17.11834],[120.977623,17.1187],[120.989761,17.11548]]]]}},{"type":"Feature","properties":{"ID_0":177,"ISO":"PHL","NAME_0":"Philippines","ID_1":14044,"NAME_1":"Mountain Province","ID_2":1404404,"NAME_2":"Bontoc (Capital)","ID_3":1404404006,"NAME_3":"Caneo","NL_NAME_3":null,"VARNAME_3":null,"TYPE_3":"Barangay","ENGTYPE_3":"Village","PROVINCE":"Mountain Province","REGION":"Cordillera Administrative Region (CAR)","id":"barangay-1404404006","name":"Caneo","barangayCode":"1404404006","population":null,"formattedPop":null,"densityCategory":"No data","vulnerabilityRating":"No data","healthRiskLevel":"No data","areaKm2":37.006099,"centerLat":17.086332,"centerLng":121.039116,"geometrySource":"all_barangay-2.csv detailed WKT","geometryMatchMethod":"psgc_coordinate_bridge","boundaryPointCount":26},"geometry":{"type":"MultiPolygon","coordinates":[[[[121.025467,17.105129],[121.03952,17.10186],[121.055458,17.103821],[121.073463,17.119181],[121.076134,17.11842],[121.09185,17.10465],[121.101028,17.094879],[121.090843,17.072069],[121.060211,17.071699],[121.032623,17.072701],[121.014389,17.07468],[121.01387,17.076611],[121.013878,17.077551],[121.01429,17.07943],[121.015327,17.082041],[121.016167,17.083651],[121.017838,17.085621],[121.018784,17.086861],[121.019661,17.088779],[121.02034,17.09075],[121.020988,17.0928],[121.021477,17.095039],[121.022186,17.097269],[121.022713,17.09952],[121.022751,17.101749],[121.025467,17.105129]]]]}},{"type":"Feature","properties":{"ID_0":177,"ISO":"PHL","NAME_0":"Philippines","ID_1":14044,"NAME_1":"Mountain Province","ID_2":1404404,"NAME_2":"Bontoc (Capital)","ID_3":1404404007,"NAME_3":"Dalican","NL_NAME_3":null,"VARNAME_3":null,"TYPE_3":"Barangay","ENGTYPE_3":"Village","PROVINCE":"Mountain Province","REGION":"Cordillera Administrative Region (CAR)","id":"barangay-1404404007","name":"Dalican","barangayCode":"1404404007","population":null,"formattedPop":null,"densityCategory":"No data","vulnerabilityRating":"No data","healthRiskLevel":"No data","areaKm2":11.504602,"centerLat":17.123283,"centerLng":120.930181,"geometrySource":"all_barangay-2.csv detailed WKT","geometryMatchMethod":"psgc_coordinate_bridge","boundaryPointCount":41},"geometry":{"type":"MultiPolygon","coordinates":[[[[120.94651,17.14472],[120.945587,17.14385],[120.94519,17.143221],[120.944748,17.142599],[120.944511,17.141689],[120.945267,17.14127],[120.945641,17.141029],[120.945793,17.13987],[120.946091,17.138769],[120.946548,17.138121],[120.946602,17.13735],[120.945602,17.13628],[120.945091,17.134809],[120.945297,17.133209],[120.945236,17.131781],[120.944862,17.130791],[120.944443,17.129391],[120.944504,17.12788],[120.944733,17.12669],[120.945198,17.125839],[120.945847,17.125299],[120.94706,17.12491],[120.948402,17.12443],[120.949173,17.123409],[120.950233,17.121719],[120.950958,17.120371],[120.951859,17.119209],[120.952133,17.11809],[120.951813,17.11689],[120.951736,17.116119],[120.952026,17.11515],[120.944519,17.113091],[120.932137,17.11062],[120.930832,17.114071],[120.929237,17.117781],[120.927818,17.121071],[120.926559,17.124041],[120.925423,17.127199],[120.921837,17.13352],[120.917664,17.14263],[120.94651,17.14472]]]]}},{"type":"Feature","properties":{"ID_0":177,"ISO":"PHL","NAME_0":"Philippines","ID_1":14044,"NAME_1":"Mountain Province","ID_2":1404404,"NAME_2":"Bontoc (Capital)","ID_3":1404404009,"NAME_3":"Gonogon","NL_NAME_3":null,"VARNAME_3":null,"TYPE_3":"Barangay","ENGTYPE_3":"Village","PROVINCE":"Mountain Province","REGION":"Cordillera Administrative Region (CAR)","id":"barangay-1404404009","name":"Gonogon","barangayCode":"1404404009","population":null,"formattedPop":null,"densityCategory":"No data","vulnerabilityRating":"No data","healthRiskLevel":"No data","areaKm2":10.858502,"centerLat":17.023031,"centerLng":120.949903,"geometrySource":"all_barangay-2.csv detailed WKT","geometryMatchMethod":"psgc_coordinate_bridge","boundaryPointCount":65},"geometry":{"type":"MultiPolygon","coordinates":[[[[120.984467,17.062389],[120.985733,17.057461],[120.987953,17.051121],[120.992371,17.042801],[120.996223,17.037251],[120.99765,17.035379],[120.999008,17.03297],[120.998863,17.03302],[120.999039,17.032101],[120.99794,17.02976],[120.997253,17.028431],[120.996513,17.02685],[120.995903,17.0259],[120.995117,17.024891],[120.994713,17.02404],[120.994293,17.022051],[120.994217,17.02059],[120.993767,17.01906],[120.992172,17.017151],[120.990646,17.01609],[120.989449,17.0156],[120.988319,17.01495],[120.987106,17.0144],[120.986557,17.013889],[120.986328,17.012951],[120.98613,17.012341],[120.985291,17.011681],[120.983681,17.01108],[120.982224,17.01038],[120.98159,17.00898],[120.981621,17.008129],[120.981628,17.00725],[120.981339,17.0068],[120.980537,17.006411],[120.97937,17.005369],[120.978943,17.003941],[120.978523,17.00242],[120.978653,16.99798],[120.937668,17.016859],[120.92038,17.0259],[120.941223,17.03644],[120.941093,17.036619],[120.941063,17.037451],[120.941017,17.03861],[120.940804,17.039579],[120.940033,17.040039],[120.93914,17.040159],[120.93885,17.040239],[120.938904,17.04092],[120.93943,17.042049],[120.938782,17.04409],[120.938782,17.044861],[120.93969,17.04587],[120.940437,17.04701],[120.940208,17.048651],[120.939682,17.050091],[120.939629,17.051571],[120.940277,17.053221],[120.940666,17.0543],[120.941093,17.05555],[120.941231,17.056549],[120.94162,17.057581],[120.942047,17.058439],[120.942253,17.05925],[120.984467,17.062389]]]]}},{"type":"Feature","properties":{"ID_0":177,"ISO":"PHL","NAME_0":"Philippines","ID_1":14044,"NAME_1":"Mountain Province","ID_2":1404404,"NAME_2":"Bontoc (Capital)","ID_3":1404404010,"NAME_3":"Guinaang","NL_NAME_3":null,"VARNAME_3":null,"TYPE_3":"Barangay","ENGTYPE_3":"Village","PROVINCE":"Mountain Province","REGION":"Cordillera Administrative Region (CAR)","id":"barangay-1404404010","name":"Guinaang","barangayCode":"1404404010","population":null,"formattedPop":null,"densityCategory":"No data","vulnerabilityRating":"No data","healthRiskLevel":"No data","areaKm2":7.625927,"centerLat":17.124314,"centerLng":120.956462,"geometrySource":"all_barangay-2.csv detailed WKT","geometryMatchMethod":"psgc_coordinate_bridge","boundaryPointCount":35},"geometry":{"type":"MultiPolygon","coordinates":[[[[120.978371,17.14613],[120.977623,17.1187],[120.968193,17.11834],[120.952026,17.11515],[120.951736,17.116119],[120.951813,17.11689],[120.952133,17.11809],[120.951859,17.119209],[120.950958,17.120371],[120.950233,17.121719],[120.949173,17.123409],[120.948402,17.12443],[120.94706,17.12491],[120.945847,17.125299],[120.945198,17.125839],[120.944733,17.12669],[120.944504,17.12788],[120.944443,17.129391],[120.944862,17.130791],[120.945236,17.131781],[120.945297,17.133209],[120.945091,17.134809],[120.945602,17.13628],[120.946602,17.13735],[120.946548,17.138121],[120.946091,17.138769],[120.945793,17.13987],[120.945641,17.141029],[120.945267,17.14127],[120.944511,17.141689],[120.944748,17.142599],[120.94519,17.143221],[120.945587,17.14385],[120.94651,17.14472],[120.978371,17.14613]]]]}},{"type":"Feature","properties":{"ID_0":177,"ISO":"PHL","NAME_0":"Philippines","ID_1":14044,"NAME_1":"Mountain Province","ID_2":1404404,"NAME_2":"Bontoc (Capital)","ID_3":1404404011,"NAME_3":"Mainit","NL_NAME_3":null,"VARNAME_3":null,"TYPE_3":"Barangay","ENGTYPE_3":"Village","PROVINCE":"Mountain Province","REGION":"Cordillera Administrative Region (CAR)","id":"barangay-1404404011","name":"Mainit","barangayCode":"1404404011","population":null,"formattedPop":null,"densityCategory":"No data","vulnerabilityRating":"No data","healthRiskLevel":"No data","areaKm2":53.685702,"centerLat":17.17107,"centerLng":120.933171,"geometrySource":"all_barangay-2.csv detailed WKT","geometryMatchMethod":"psgc_coordinate_bridge","boundaryPointCount":12},"geometry":{"type":"MultiPolygon","coordinates":[[[[120.897667,17.1908],[120.905449,17.200809],[120.915199,17.2134],[120.934662,17.2061],[120.95417,17.198721],[120.970337,17.19042],[120.984306,17.18174],[120.978371,17.14613],[120.94651,17.14472],[120.917664,17.14263],[120.913147,17.1537],[120.897667,17.1908]]]]}},{"type":"Feature","properties":{"ID_0":177,"ISO":"PHL","NAME_0":"Philippines","ID_1":14044,"NAME_1":"Mountain Province","ID_2":1404404,"NAME_2":"Bontoc (Capital)","ID_3":1404404012,"NAME_3":"Maligcong","NL_NAME_3":null,"VARNAME_3":null,"TYPE_3":"Barangay","ENGTYPE_3":"Village","PROVINCE":"Mountain Province","REGION":"Cordillera Administrative Region (CAR)","id":"barangay-1404404012","name":"Maligcong","barangayCode":"1404404012","population":null,"formattedPop":null,"densityCategory":"No data","vulnerabilityRating":"No data","healthRiskLevel":"No data","areaKm2":18.369697,"centerLat":17.140071,"centerLng":120.981633,"geometrySource":"all_barangay-2.csv detailed WKT","geometryMatchMethod":"psgc_coordinate_bridge","boundaryPointCount":10},"geometry":{"type":"MultiPolygon","coordinates":[[[[121.038078,17.147039],[121.034729,17.142611],[121.019859,17.128799],[121.005493,17.12307],[120.989761,17.11548],[120.977623,17.1187],[120.978371,17.14613],[120.984306,17.18174],[121.016808,17.16],[121.038078,17.147039]]]]}},{"type":"Feature","properties":{"ID_0":177,"ISO":"PHL","NAME_0":"Philippines","ID_1":14044,"NAME_1":"Mountain Province","ID_2":1404404,"NAME_2":"Bontoc (Capital)","ID_3":1404404013,"NAME_3":"Samoki","NL_NAME_3":null,"VARNAME_3":null,"TYPE_3":"Barangay","ENGTYPE_3":"Village","PROVINCE":"Mountain Province","REGION":"Cordillera Administrative Region (CAR)","id":"barangay-1404404013","name":"Samoki","barangayCode":"1404404013","population":null,"formattedPop":null,"densityCategory":"No data","vulnerabilityRating":"No data","healthRiskLevel":"No data","areaKm2":12.179739,"centerLat":17.075938,"centerLng":120.983229,"geometrySource":"all_barangay-2.csv detailed WKT","geometryMatchMethod":"psgc_coordinate_bridge","boundaryPointCount":60},"geometry":{"type":"MultiPolygon","coordinates":[[[[121.025467,17.105129],[121.022751,17.101749],[121.022713,17.09952],[121.022186,17.097269],[121.021477,17.095039],[121.020988,17.0928],[121.02034,17.09075],[121.019661,17.088779],[121.018784,17.086861],[121.017838,17.085621],[121.016167,17.083651],[121.015327,17.082041],[121.01429,17.07943],[121.013878,17.077551],[121.01387,17.076611],[121.014389,17.07468],[120.983063,17.06735],[120.982941,17.068621],[120.982719,17.07081],[120.982079,17.073389],[120.980888,17.075251],[120.97966,17.077539],[120.979736,17.07992],[120.980057,17.08176],[120.980232,17.084009],[120.980453,17.08453],[120.981216,17.08658],[120.981842,17.08894],[120.982597,17.09236],[120.983063,17.09376],[120.984016,17.094641],[120.986313,17.09528],[120.988823,17.095449],[120.990936,17.095221],[120.992348,17.09553],[120.993423,17.096371],[120.994873,17.098],[120.996017,17.09934],[120.997017,17.10055],[120.997353,17.101271],[120.998367,17.102449],[120.999924,17.10367],[121.00116,17.104071],[121.002563,17.10454],[121.004211,17.105009],[121.00573,17.105721],[121.007317,17.106371],[121.008507,17.10721],[121.009148,17.10808],[121.009689,17.108549],[121.010643,17.10914],[121.0121,17.10997],[121.014107,17.11088],[121.014969,17.111],[121.015282,17.111111],[121.016243,17.111151],[121.018173,17.108841],[121.019943,17.107281],[121.020828,17.106461],[121.025467,17.105129]]]]}},{"type":"Feature","properties":{"ID_0":177,"ISO":"PHL","NAME_0":"Philippines","ID_1":14044,"NAME_1":"Mountain Province","ID_2":1404404,"NAME_2":"Bontoc (Capital)","ID_3":1404404014,"NAME_3":"Talubin","NL_NAME_3":null,"VARNAME_3":null,"TYPE_3":"Barangay","ENGTYPE_3":"Village","PROVINCE":"Mountain Province","REGION":"Cordillera Administrative Region (CAR)","id":"barangay-1404404014","name":"Talubin","barangayCode":"1404404014","population":null,"formattedPop":null,"densityCategory":"No data","vulnerabilityRating":"No data","healthRiskLevel":"No data","areaKm2":46.760579,"centerLat":17.042147,"centerLng":121.012952,"geometrySource":"all_barangay-2.csv detailed WKT","geometryMatchMethod":"psgc_coordinate_bridge","boundaryPointCount":16},"geometry":{"type":"MultiPolygon","coordinates":[[[[121.090843,17.072069],[121.080017,17.046659],[121.075447,17.037781],[121.039078,17.03582],[121.018021,17.036671],[120.99765,17.035379],[120.996223,17.037251],[120.992371,17.042801],[120.987953,17.051121],[120.985733,17.057461],[120.984467,17.062389],[120.983063,17.06735],[121.014389,17.07468],[121.032623,17.072701],[121.060211,17.071699],[121.090843,17.072069]]]]}},{"type":"Feature","properties":{"ID_0":177,"ISO":"PHL","NAME_0":"Philippines","ID_1":14044,"NAME_1":"Mountain Province","ID_2":1404404,"NAME_2":"Bontoc (Capital)","ID_3":1404404015,"NAME_3":"Tocucan","NL_NAME_3":null,"VARNAME_3":null,"TYPE_3":"Barangay","ENGTYPE_3":"Village","PROVINCE":"Mountain Province","REGION":"Cordillera Administrative Region (CAR)","id":"barangay-1404404015","name":"Tocucan","barangayCode":"1404404015","population":null,"formattedPop":null,"densityCategory":"No data","vulnerabilityRating":"No data","healthRiskLevel":"No data","areaKm2":21.412303,"centerLat":17.123352,"centerLng":121.011205,"geometrySource":"all_barangay-2.csv detailed WKT","geometryMatchMethod":"psgc_coordinate_bridge","boundaryPointCount":17},"geometry":{"type":"MultiPolygon","coordinates":[[[[121.005493,17.12307],[121.019859,17.128799],[121.034729,17.142611],[121.038078,17.147039],[121.058006,17.13401],[121.073463,17.119181],[121.055458,17.103821],[121.03952,17.10186],[121.025467,17.105129],[121.020828,17.106461],[121.019943,17.107281],[121.018173,17.108841],[121.016243,17.111151],[121.013863,17.113689],[121.01133,17.11577],[121.008347,17.11791],[121.005493,17.12307]]]]}},{"type":"Feature","properties":{"ID_0":177,"ISO":"PHL","NAME_0":"Philippines","ID_1":14044,"NAME_1":"Mountain Province","ID_2":1404404,"NAME_2":"Bontoc (Capital)","ID_3":1404404016,"NAME_3":"Poblacion","NL_NAME_3":null,"VARNAME_3":null,"TYPE_3":"Barangay","ENGTYPE_3":"Village","PROVINCE":"Mountain Province","REGION":"Cordillera Administrative Region (CAR)","id":"barangay-1404404016","name":"Poblacion","barangayCode":"1404404016","population":null,"formattedPop":null,"densityCategory":"No data","vulnerabilityRating":"No data","healthRiskLevel":"No data","areaKm2":0.373088,"centerLat":17.090635,"centerLng":120.976232,"geometrySource":"barangays.geojson simplified fallback","geometryMatchMethod":"simplified_fallback","boundaryPointCount":4},"geometry":{"type":"Polygon","coordinates":[[[120.9714001320001,17.092519862000074],[120.97945469800004,17.091980367000076],[120.97783709100008,17.085451328000033],[120.9714001320001,17.092519862000074]]]}},{"type":"Feature","properties":{"ID_0":177,"ISO":"PHL","NAME_0":"Philippines","ID_1":14044,"NAME_1":"Mountain Province","ID_2":1404404,"NAME_2":"Bontoc (Capital)","ID_3":1404404017,"NAME_3":"Caluttit","NL_NAME_3":null,"VARNAME_3":null,"TYPE_3":"Barangay","ENGTYPE_3":"Village","PROVINCE":"Mountain Province","REGION":"Cordillera Administrative Region (CAR)","id":"barangay-1404404017","name":"Caluttit","barangayCode":"1404404017","population":null,"formattedPop":null,"densityCategory":"No data","vulnerabilityRating":"No data","healthRiskLevel":"No data","areaKm2":4.276379,"centerLat":17.102283,"centerLng":120.980228,"geometrySource":"barangays.geojson simplified fallback","geometryMatchMethod":"simplified_fallback","boundaryPointCount":6},"geometry":{"type":"Polygon","coordinates":[[[120.98903494300009,17.11155995400003],[120.99535264700012,17.10210175000003],[120.9904438740001,17.09594240100006],[120.97020194000004,17.095456591000072],[120.96646214400005,17.107015107000052],[120.98903494300009,17.11155995400003]]]}}]}
