{"type":"FeatureCollection","features":[{"type":"Feature","properties":{"ID_0":177,"ISO":"PHL","NAME_0":"Philippines","ID_1":14011,"NAME_1":"Benguet","ID_2":1401107,"NAME_2":"Kabayan","ID_3":1401107001,"NAME_3":"Adaoay","NL_NAME_3":null,"VARNAME_3":null,"TYPE_3":"Barangay","ENGTYPE_3":"Village","PROVINCE":"Benguet","REGION":"Cordillera Administrative Region (CAR)","id":"barangay-1401107001","name":"Adaoay","barangayCode":"1401107001","population":null,"formattedPop":null,"densityCategory":"No data","vulnerabilityRating":"No data","healthRiskLevel":"No data","areaKm2":13.260407,"centerLat":16.57442,"centerLng":120.820959,"geometrySource":"all_barangay-2.csv detailed WKT","geometryMatchMethod":"unique_official_admin_names","boundaryPointCount":13},"geometry":{"type":"MultiPolygon","coordinates":[[[[120.804237,16.595659],[120.819077,16.597891],[120.832619,16.593651],[120.84845,16.591949],[120.84581,16.574141],[120.847427,16.563219],[120.8489,16.55979],[120.842056,16.560961],[120.831848,16.56233],[120.821518,16.564989],[120.811691,16.56823],[120.801193,16.57258],[120.804237,16.595659]]]]}},{"type":"Feature","properties":{"ID_0":177,"ISO":"PHL","NAME_0":"Philippines","ID_1":14011,"NAME_1":"Benguet","ID_2":1401107,"NAME_2":"Kabayan","ID_3":1401107002,"NAME_3":"Anchukey","NL_NAME_3":null,"VARNAME_3":null,"TYPE_3":"Barangay","ENGTYPE_3":"Village","PROVINCE":"Benguet","REGION":"Cordillera Administrative Region (CAR)","id":"barangay-1401107002","name":"Anchukey","barangayCode":"1401107002","population":null,"formattedPop":null,"densityCategory":"No data","vulnerabilityRating":"No data","healthRiskLevel":"No data","areaKm2":16.849468,"centerLat":16.612601,"centerLng":120.814439,"geometrySource":"all_barangay-2.csv detailed WKT","geometryMatchMethod":"unique_official_admin_names","boundaryPointCount":30},"geometry":{"type":"MultiPolygon","coordinates":[[[[120.826149,16.64389],[120.82563,16.64263],[120.824806,16.641491],[120.824242,16.640751],[120.823502,16.63942],[120.822937,16.63792],[120.822594,16.63653],[120.8228,16.635889],[120.822952,16.635111],[120.822777,16.633221],[120.822838,16.63232],[120.823593,16.63113],[120.825012,16.63073],[120.826302,16.630369],[120.826759,16.62945],[120.82621,16.62727],[120.82563,16.62616],[120.826447,16.62574],[120.827637,16.62623],[120.829933,16.60902],[120.832619,16.593651],[120.819077,16.597891],[120.804237,16.595659],[120.804153,16.638729],[120.822227,16.646749],[120.824013,16.646231],[120.824257,16.646191],[120.825203,16.646111],[120.825768,16.645491],[120.826149,16.64389]]]]}},{"type":"Feature","properties":{"ID_0":177,"ISO":"PHL","NAME_0":"Philippines","ID_1":14011,"NAME_1":"Benguet","ID_2":1401107,"NAME_2":"Kabayan","ID_3":1401107003,"NAME_3":"Ballay","NL_NAME_3":null,"VARNAME_3":null,"TYPE_3":"Barangay","ENGTYPE_3":"Village","PROVINCE":"Benguet","REGION":"Cordillera Administrative Region (CAR)","id":"barangay-1401107003","name":"Ballay","barangayCode":"1401107003","population":null,"formattedPop":null,"densityCategory":"No data","vulnerabilityRating":"No data","healthRiskLevel":"No data","areaKm2":7.23911,"centerLat":16.669671,"centerLng":120.838353,"geometrySource":"all_barangay-2.csv detailed WKT","geometryMatchMethod":"unique_official_admin_names","boundaryPointCount":27},"geometry":{"type":"MultiPolygon","coordinates":[[[[120.859947,16.67992],[120.85817,16.675131],[120.857513,16.67099],[120.8563,16.66531],[120.854553,16.660311],[120.816811,16.65601],[120.816132,16.656919],[120.815804,16.657619],[120.815804,16.6583],[120.816528,16.659571],[120.816933,16.66053],[120.817833,16.661289],[120.818657,16.661421],[120.820396,16.662439],[120.821877,16.66361],[120.824074,16.66544],[120.824944,16.66766],[120.824677,16.669371],[120.823547,16.670679],[120.823593,16.672569],[120.824219,16.675051],[120.824753,16.67572],[120.828056,16.67598],[120.835823,16.67654],[120.844147,16.67738],[120.850769,16.67828],[120.859947,16.67992]]]]}},{"type":"Feature","properties":{"ID_0":177,"ISO":"PHL","NAME_0":"Philippines","ID_1":14011,"NAME_1":"Benguet","ID_2":1401107,"NAME_2":"Kabayan","ID_3":1401107004,"NAME_3":"Bashoy","NL_NAME_3":null,"VARNAME_3":null,"TYPE_3":"Barangay","ENGTYPE_3":"Village","PROVINCE":"Benguet","REGION":"Cordillera Administrative Region (CAR)","id":"barangay-1401107004","name":"Bashoy","barangayCode":"1401107004","population":null,"formattedPop":null,"densityCategory":"No data","vulnerabilityRating":"No data","healthRiskLevel":"No data","areaKm2":10.399652,"centerLat":16.571719,"centerLng":120.854711,"geometrySource":"all_barangay-2.csv detailed WKT","geometryMatchMethod":"unique_official_admin_names","boundaryPointCount":10},"geometry":{"type":"MultiPolygon","coordinates":[[[[120.869904,16.582939],[120.872513,16.558821],[120.865143,16.55887],[120.859062,16.55892],[120.8489,16.55979],[120.847427,16.563219],[120.84581,16.574141],[120.84845,16.591949],[120.858566,16.58585],[120.869904,16.582939]]]]}},{"type":"Feature","properties":{"ID_0":177,"ISO":"PHL","NAME_0":"Philippines","ID_1":14011,"NAME_1":"Benguet","ID_2":1401107,"NAME_2":"Kabayan","ID_3":1401107005,"NAME_3":"Batan","NL_NAME_3":null,"VARNAME_3":null,"TYPE_3":"Barangay","ENGTYPE_3":"Village","PROVINCE":"Benguet","REGION":"Cordillera Administrative Region (CAR)","id":"barangay-1401107005","name":"Batan","barangayCode":"1401107005","population":null,"formattedPop":null,"densityCategory":"No data","vulnerabilityRating":"No data","healthRiskLevel":"No data","areaKm2":26.691533,"centerLat":16.599263,"centerLng":120.783017,"geometrySource":"all_barangay-2.csv detailed WKT","geometryMatchMethod":"unique_official_admin_names","boundaryPointCount":15},"geometry":{"type":"MultiPolygon","coordinates":[[[[120.804153,16.638729],[120.804237,16.595659],[120.801193,16.57258],[120.792397,16.576521],[120.786217,16.57933],[120.774803,16.585329],[120.761147,16.592859],[120.763718,16.597349],[120.7659,16.602461],[120.766937,16.60339],[120.771393,16.61587],[120.773369,16.62351],[120.775146,16.632851],[120.77626,16.64113],[120.804153,16.638729]]]]}},{"type":"Feature","properties":{"ID_0":177,"ISO":"PHL","NAME_0":"Philippines","ID_1":14011,"NAME_1":"Benguet","ID_2":1401107,"NAME_2":"Kabayan","ID_3":1401107009,"NAME_3":"Duacan","NL_NAME_3":null,"VARNAME_3":null,"TYPE_3":"Barangay","ENGTYPE_3":"Village","PROVINCE":"Benguet","REGION":"Cordillera Administrative Region (CAR)","id":"barangay-1401107009","name":"Duacan","barangayCode":"1401107009","population":null,"formattedPop":null,"densityCategory":"No data","vulnerabilityRating":"No data","healthRiskLevel":"No data","areaKm2":8.089613,"centerLat":16.610098,"centerLng":120.8431,"geometrySource":"all_barangay-2.csv detailed WKT","geometryMatchMethod":"unique_official_admin_names","boundaryPointCount":7},"geometry":{"type":"MultiPolygon","coordinates":[[[[120.864922,16.62479],[120.849098,16.603979],[120.84845,16.591949],[120.832619,16.593651],[120.829933,16.60902],[120.855614,16.629181],[120.864922,16.62479]]]]}},{"type":"Feature","properties":{"ID_0":177,"ISO":"PHL","NAME_0":"Philippines","ID_1":14011,"NAME_1":"Benguet","ID_2":1401107,"NAME_2":"Kabayan","ID_3":1401107010,"NAME_3":"Eddet","NL_NAME_3":null,"VARNAME_3":null,"TYPE_3":"Barangay","ENGTYPE_3":"Village","PROVINCE":"Benguet","REGION":"Cordillera Administrative Region (CAR)","id":"barangay-1401107010","name":"Eddet","barangayCode":"1401107010","population":null,"formattedPop":null,"densityCategory":"No data","vulnerabilityRating":"No data","healthRiskLevel":"No data","areaKm2":6.818497,"centerLat":16.601792,"centerLng":120.85696,"geometrySource":"all_barangay-2.csv detailed WKT","geometryMatchMethod":"unique_official_admin_names","boundaryPointCount":6},"geometry":{"type":"MultiPolygon","coordinates":[[[[120.84845,16.591949],[120.849098,16.603979],[120.864922,16.62479],[120.869904,16.582939],[120.858566,16.58585],[120.84845,16.591949]]]]}},{"type":"Feature","properties":{"ID_0":177,"ISO":"PHL","NAME_0":"Philippines","ID_1":14011,"NAME_1":"Benguet","ID_2":1401107,"NAME_2":"Kabayan","ID_3":1401107012,"NAME_3":"Gusaran","NL_NAME_3":null,"VARNAME_3":null,"TYPE_3":"Barangay","ENGTYPE_3":"Village","PROVINCE":"Benguet","REGION":"Cordillera Administrative Region (CAR)","id":"barangay-1401107012","name":"Gusaran","barangayCode":"1401107012","population":null,"formattedPop":null,"densityCategory":"No data","vulnerabilityRating":"No data","healthRiskLevel":"No data","areaKm2":5.503107,"centerLat":16.652151,"centerLng":120.83485,"geometrySource":"all_barangay-2.csv detailed WKT","geometryMatchMethod":"unique_official_admin_names","boundaryPointCount":24},"geometry":{"type":"MultiPolygon","coordinates":[[[[120.854553,16.660311],[120.84745,16.644091],[120.835152,16.64435],[120.826149,16.64389],[120.825768,16.645491],[120.825203,16.646111],[120.824257,16.646191],[120.824013,16.646231],[120.822227,16.646749],[120.822433,16.648001],[120.823067,16.648701],[120.823624,16.64926],[120.824059,16.649719],[120.824608,16.650431],[120.824142,16.651569],[120.823288,16.65225],[120.821907,16.652849],[120.820869,16.653311],[120.818733,16.653749],[120.818336,16.6539],[120.817596,16.65486],[120.817612,16.65546],[120.816811,16.65601],[120.854553,16.660311]]]]}},{"type":"Feature","properties":{"ID_0":177,"ISO":"PHL","NAME_0":"Philippines","ID_1":14011,"NAME_1":"Benguet","ID_2":1401107,"NAME_2":"Kabayan","ID_3":1401107013,"NAME_3":"Kabayan Barrio","NL_NAME_3":null,"VARNAME_3":null,"TYPE_3":"Barangay","ENGTYPE_3":"Village","PROVINCE":"Benguet","REGION":"Cordillera Administrative Region (CAR)","id":"barangay-1401107013","name":"Kabayan Barrio","barangayCode":"1401107013","population":null,"formattedPop":null,"densityCategory":"No data","vulnerabilityRating":"No data","healthRiskLevel":"No data","areaKm2":0.92302,"centerLat":16.638236,"centerLng":120.825401,"geometrySource":"all_barangay-2.csv detailed WKT","geometryMatchMethod":"unique_official_admin_names","boundaryPointCount":22},"geometry":{"type":"MultiPolygon","coordinates":[[[[120.835152,16.64435],[120.833633,16.63695],[120.827637,16.62623],[120.826447,16.62574],[120.82563,16.62616],[120.82621,16.62727],[120.826759,16.62945],[120.826302,16.630369],[120.825012,16.63073],[120.823593,16.63113],[120.822838,16.63232],[120.822777,16.633221],[120.822952,16.635111],[120.8228,16.635889],[120.822594,16.63653],[120.822937,16.63792],[120.823502,16.63942],[120.824242,16.640751],[120.824806,16.641491],[120.82563,16.64263],[120.826149,16.64389],[120.835152,16.64435]]]]}},{"type":"Feature","properties":{"ID_0":177,"ISO":"PHL","NAME_0":"Philippines","ID_1":14011,"NAME_1":"Benguet","ID_2":1401107,"NAME_2":"Kabayan","ID_3":1401107014,"NAME_3":"Lusod","NL_NAME_3":null,"VARNAME_3":null,"TYPE_3":"Barangay","ENGTYPE_3":"Village","PROVINCE":"Benguet","REGION":"Cordillera Administrative Region (CAR)","id":"barangay-1401107014","name":"Lusod","barangayCode":"1401107014","population":null,"formattedPop":null,"densityCategory":"No data","vulnerabilityRating":"No data","healthRiskLevel":"No data","areaKm2":36.597463,"centerLat":16.600464,"centerLng":120.890335,"geometrySource":"all_barangay-2.csv detailed WKT","geometryMatchMethod":"unique_official_admin_names","boundaryPointCount":14},"geometry":{"type":"MultiPolygon","coordinates":[[[[120.895973,16.631069],[120.895813,16.60948],[120.8964,16.607651],[120.89782,16.605921],[120.900146,16.603519],[120.902893,16.60178],[120.904892,16.600691],[120.905243,16.595869],[120.892807,16.558969],[120.884247,16.55867],[120.872513,16.558821],[120.869904,16.582939],[120.864922,16.62479],[120.895973,16.631069]]]]}},{"type":"Feature","properties":{"ID_0":177,"ISO":"PHL","NAME_0":"Philippines","ID_1":14011,"NAME_1":"Benguet","ID_2":1401107,"NAME_2":"Kabayan","ID_3":1401107016,"NAME_3":"Pacso","NL_NAME_3":null,"VARNAME_3":null,"TYPE_3":"Barangay","ENGTYPE_3":"Village","PROVINCE":"Benguet","REGION":"Cordillera Administrative Region (CAR)","id":"barangay-1401107016","name":"Pacso","barangayCode":"1401107016","population":null,"formattedPop":null,"densityCategory":"No data","vulnerabilityRating":"No data","healthRiskLevel":"No data","areaKm2":15.786501,"centerLat":16.658769,"centerLng":120.802859,"geometrySource":"all_barangay-2.csv detailed WKT","geometryMatchMethod":"unique_official_admin_names","boundaryPointCount":38},"geometry":{"type":"MultiPolygon","coordinates":[[[[120.824753,16.67572],[120.824219,16.675051],[120.823593,16.672569],[120.823547,16.670679],[120.824677,16.669371],[120.824944,16.66766],[120.824074,16.66544],[120.821877,16.66361],[120.820396,16.662439],[120.818657,16.661421],[120.817833,16.661289],[120.816933,16.66053],[120.816528,16.659571],[120.815804,16.6583],[120.815804,16.657619],[120.816132,16.656919],[120.816811,16.65601],[120.817612,16.65546],[120.817596,16.65486],[120.818336,16.6539],[120.818733,16.653749],[120.820869,16.653311],[120.821907,16.652849],[120.823288,16.65225],[120.824142,16.651569],[120.824608,16.650431],[120.824059,16.649719],[120.823624,16.64926],[120.823067,16.648701],[120.822433,16.648001],[120.822227,16.646749],[120.804153,16.638729],[120.77626,16.64113],[120.759689,16.63974],[120.772881,16.6735],[120.80024,16.675369],[120.820358,16.675779],[120.824753,16.67572]]]]}},{"type":"Feature","properties":{"ID_0":177,"ISO":"PHL","NAME_0":"Philippines","ID_1":14011,"NAME_1":"Benguet","ID_2":1401107,"NAME_2":"Kabayan","ID_3":1401107017,"NAME_3":"Poblacion","NL_NAME_3":null,"VARNAME_3":null,"TYPE_3":"Barangay","ENGTYPE_3":"Village","PROVINCE":"Benguet","REGION":"Cordillera Administrative Region (CAR)","id":"barangay-1401107017","name":"Poblacion","barangayCode":"1401107017","population":null,"formattedPop":null,"densityCategory":"No data","vulnerabilityRating":"No data","healthRiskLevel":"No data","areaKm2":6.182867,"centerLat":16.629827,"centerLng":120.837154,"geometrySource":"all_barangay-2.csv detailed WKT","geometryMatchMethod":"unique_official_admin_names","boundaryPointCount":7},"geometry":{"type":"MultiPolygon","coordinates":[[[[120.84745,16.644091],[120.855614,16.629181],[120.829933,16.60902],[120.827637,16.62623],[120.833633,16.63695],[120.835152,16.64435],[120.84745,16.644091]]]]}},{"type":"Feature","properties":{"ID_0":177,"ISO":"PHL","NAME_0":"Philippines","ID_1":14011,"NAME_1":"Benguet","ID_2":1401107,"NAME_2":"Kabayan","ID_3":1401107018,"NAME_3":"Tawangan","NL_NAME_3":null,"VARNAME_3":null,"TYPE_3":"Barangay","ENGTYPE_3":"Village","PROVINCE":"Benguet","REGION":"Cordillera Administrative Region (CAR)","id":"barangay-1401107018","name":"Tawangan","barangayCode":"1401107018","population":null,"formattedPop":null,"densityCategory":"No data","vulnerabilityRating":"No data","healthRiskLevel":"No data","areaKm2":35.83702,"centerLat":16.655903,"centerLng":120.878286,"geometrySource":"all_barangay-2.csv detailed WKT","geometryMatchMethod":"unique_official_admin_names","boundaryPointCount":14},"geometry":{"type":"MultiPolygon","coordinates":[[[[120.859947,16.67992],[120.86718,16.681681],[120.879303,16.685181],[120.89521,16.69025],[120.895714,16.662661],[120.895973,16.631069],[120.864922,16.62479],[120.855614,16.629181],[120.84745,16.644091],[120.854553,16.660311],[120.8563,16.66531],[120.857513,16.67099],[120.85817,16.675131],[120.859947,16.67992]]]]}}]}
