{"type":"FeatureCollection","features":[{"type":"Feature","properties":{"ID_0":177,"ISO":"PHL","NAME_0":"Philippines","ID_1":14001,"NAME_1":"Abra","ID_2":1400126,"NAME_2":"Tubo","ID_3":1400126001,"NAME_3":"Alangtin","NL_NAME_3":null,"VARNAME_3":null,"TYPE_3":"Barangay","ENGTYPE_3":"Village","PROVINCE":"Abra","REGION":"Cordillera Administrative Region (CAR)","id":"barangay-1400126001","name":"Alangtin","barangayCode":"1400126001","population":null,"formattedPop":null,"densityCategory":"No data","vulnerabilityRating":"No data","healthRiskLevel":"No data","areaKm2":31.152671,"centerLat":17.215553,"centerLng":120.761409,"geometrySource":"all_barangay-2.csv detailed WKT","geometryMatchMethod":"unique_official_admin_names","boundaryPointCount":26},"geometry":{"type":"MultiPolygon","coordinates":[[[[120.792923,17.25209],[120.814888,17.21174],[120.790627,17.2033],[120.739853,17.1868],[120.733162,17.205891],[120.729286,17.221741],[120.729851,17.22138],[120.730911,17.22076],[120.732819,17.21998],[120.734062,17.22027],[120.735199,17.220949],[120.736023,17.221029],[120.736862,17.22172],[120.737259,17.222891],[120.737587,17.224621],[120.738289,17.225559],[120.739258,17.22632],[120.739532,17.22695],[120.74025,17.227289],[120.741089,17.22735],[120.742363,17.227209],[120.744759,17.227221],[120.745552,17.22723],[120.749359,17.230459],[120.773499,17.242189],[120.792923,17.25209]]]]}},{"type":"Feature","properties":{"ID_0":177,"ISO":"PHL","NAME_0":"Philippines","ID_1":14001,"NAME_1":"Abra","ID_2":1400126,"NAME_2":"Tubo","ID_3":1400126002,"NAME_3":"Amtuagan","NL_NAME_3":null,"VARNAME_3":null,"TYPE_3":"Barangay","ENGTYPE_3":"Village","PROVINCE":"Abra","REGION":"Cordillera Administrative Region (CAR)","id":"barangay-1400126002","name":"Amtuagan","barangayCode":"1400126002","population":null,"formattedPop":null,"densityCategory":"No data","vulnerabilityRating":"No data","healthRiskLevel":"No data","areaKm2":35.854552,"centerLat":17.31734,"centerLng":120.770899,"geometrySource":"all_barangay-2.csv detailed WKT","geometryMatchMethod":"unique_official_admin_names","boundaryPointCount":10},"geometry":{"type":"MultiPolygon","coordinates":[[[[120.84063,17.342581],[120.846817,17.34156],[120.761574,17.29847],[120.73098,17.282419],[120.719498,17.29332],[120.729927,17.30447],[120.749237,17.32243],[120.768623,17.340281],[120.814003,17.3421],[120.84063,17.342581]]]]}},{"type":"Feature","properties":{"ID_0":177,"ISO":"PHL","NAME_0":"Philippines","ID_1":14001,"NAME_1":"Abra","ID_2":1400126,"NAME_2":"Tubo","ID_3":1400126003,"NAME_3":"Dilong","NL_NAME_3":null,"VARNAME_3":null,"TYPE_3":"Barangay","ENGTYPE_3":"Village","PROVINCE":"Abra","REGION":"Cordillera Administrative Region (CAR)","id":"barangay-1400126003","name":"Dilong","barangayCode":"1400126003","population":null,"formattedPop":null,"densityCategory":"No data","vulnerabilityRating":"No data","healthRiskLevel":"No data","areaKm2":19.356155,"centerLat":17.189332,"centerLng":120.709326,"geometrySource":"all_barangay-2.csv detailed WKT","geometryMatchMethod":"unique_official_admin_names","boundaryPointCount":146},"geometry":{"type":"MultiPolygon","coordinates":[[[[120.67971,17.205259],[120.681541,17.205351],[120.683006,17.205179],[120.684029,17.20599],[120.685677,17.20652],[120.686943,17.208429],[120.689796,17.208179],[120.69091,17.206289],[120.692078,17.204559],[120.692352,17.201811],[120.694313,17.200121],[120.695847,17.1985],[120.696457,17.19906],[120.696892,17.199289],[120.698227,17.19994],[120.699417,17.19842],[120.700859,17.19853],[120.70285,17.19792],[120.704483,17.19796],[120.706451,17.19935],[120.708183,17.20051],[120.711121,17.20129],[120.713768,17.202999],[120.714157,17.204241],[120.715683,17.204559],[120.716904,17.205021],[120.718338,17.20406],[120.718788,17.203871],[120.71936,17.205469],[120.720093,17.20661],[120.72049,17.206461],[120.72094,17.2075],[120.721779,17.2068],[120.722382,17.206989],[120.723091,17.20726],[120.724342,17.2073],[120.725723,17.20727],[120.726852,17.206869],[120.728279,17.20661],[120.729797,17.205629],[120.733162,17.205891],[120.739853,17.1868],[120.738297,17.186211],[120.736572,17.18574],[120.735298,17.186769],[120.734207,17.188141],[120.732674,17.18788],[120.731117,17.187389],[120.731041,17.186951],[120.731873,17.186211],[120.732193,17.18512],[120.730858,17.184191],[120.729362,17.183571],[120.730377,17.18297],[120.730667,17.182091],[120.73101,17.181061],[120.732101,17.18079],[120.733162,17.18161],[120.73378,17.18186],[120.734039,17.18117],[120.734062,17.18017],[120.734352,17.17922],[120.735359,17.17837],[120.735291,17.17725],[120.734077,17.17507],[120.733963,17.174021],[120.734497,17.17362],[120.734177,17.172911],[120.734161,17.171961],[120.73468,17.17127],[120.735046,17.17103],[120.735519,17.17067],[120.734543,17.17029],[120.734131,17.17],[120.734123,17.1693],[120.734207,17.167931],[120.734497,17.167379],[120.735107,17.16707],[120.735474,17.166361],[120.735802,17.16563],[120.736679,17.165051],[120.737152,17.164619],[120.737297,17.164061],[120.737556,17.163509],[120.738838,17.16239],[120.739021,17.16202],[120.739113,17.161301],[120.739738,17.160179],[120.741074,17.160709],[120.741898,17.16127],[120.742767,17.16242],[120.742767,17.162901],[120.742897,17.16349],[120.743507,17.163349],[120.744186,17.163111],[120.745247,17.16312],[120.745811,17.16263],[120.746071,17.162001],[120.746483,17.16132],[120.74704,17.160801],[120.747993,17.159361],[120.748947,17.158131],[120.749229,17.15789],[120.74939,17.157619],[120.747726,17.157551],[120.737473,17.156981],[120.729759,17.15732],[120.72747,17.157209],[120.720833,17.157619],[120.715317,17.157789],[120.709297,17.15815],[120.702171,17.15873],[120.697098,17.15984],[120.694687,17.160561],[120.6931,17.161461],[120.689247,17.163481],[120.686203,17.166651],[120.683647,17.17255],[120.682938,17.175159],[120.682449,17.178301],[120.682793,17.181271],[120.683037,17.18199],[120.683243,17.184099],[120.681953,17.185841],[120.679604,17.186729],[120.677567,17.187269],[120.676277,17.18848],[120.675423,17.190359],[120.673828,17.192089],[120.670837,17.192381],[120.668793,17.19239],[120.667351,17.19393],[120.66774,17.195721],[120.668739,17.196791],[120.668991,17.197069],[120.671799,17.196939],[120.674408,17.19627],[120.675987,17.197611],[120.678886,17.19762],[120.680206,17.197411],[120.681671,17.198799],[120.681648,17.2008],[120.681007,17.20211],[120.680008,17.203991],[120.679268,17.20513],[120.67971,17.205259]]]]}},{"type":"Feature","properties":{"ID_0":177,"ISO":"PHL","NAME_0":"Philippines","ID_1":14001,"NAME_1":"Abra","ID_2":1400126,"NAME_2":"Tubo","ID_3":1400126004,"NAME_3":"Kili","NL_NAME_3":null,"VARNAME_3":null,"TYPE_3":"Barangay","ENGTYPE_3":"Village","PROVINCE":"Abra","REGION":"Cordillera Administrative Region (CAR)","id":"barangay-1400126004","name":"Kili","barangayCode":"1400126004","population":null,"formattedPop":null,"densityCategory":"No data","vulnerabilityRating":"No data","healthRiskLevel":"No data","areaKm2":78.855753,"centerLat":17.239094,"centerLng":120.812677,"geometrySource":"all_barangay-2.csv detailed WKT","geometryMatchMethod":"unique_official_admin_names","boundaryPointCount":39},"geometry":{"type":"MultiPolygon","coordinates":[[[[120.964241,17.343781],[120.958908,17.337391],[120.954109,17.330231],[120.94751,17.318609],[120.94059,17.307461],[120.935112,17.29571],[120.930748,17.28517],[120.926857,17.27331],[120.923477,17.2609],[120.914787,17.247601],[120.915977,17.223709],[120.915199,17.2134],[120.905449,17.200809],[120.897667,17.1908],[120.896812,17.19001],[120.894188,17.188089],[120.891144,17.186991],[120.886253,17.18787],[120.877289,17.18926],[120.864929,17.18878],[120.858276,17.188181],[120.857384,17.188101],[120.854698,17.18854],[120.85183,17.18874],[120.850533,17.18885],[120.850372,17.18889],[120.849823,17.188919],[120.847542,17.18886],[120.843323,17.187901],[120.838943,17.188141],[120.83744,17.18882],[120.828613,17.188601],[120.814888,17.21174],[120.792923,17.25209],[120.761574,17.29847],[120.846817,17.34156],[120.881271,17.343081],[120.942047,17.343861],[120.964241,17.343781]]]]}},{"type":"Feature","properties":{"ID_0":177,"ISO":"PHL","NAME_0":"Philippines","ID_1":14001,"NAME_1":"Abra","ID_2":1400126,"NAME_2":"Tubo","ID_3":1400126005,"NAME_3":"Poblacion","NL_NAME_3":null,"VARNAME_3":null,"TYPE_3":"Barangay","ENGTYPE_3":"Village","PROVINCE":"Abra","REGION":"Cordillera Administrative Region (CAR)","id":"barangay-1400126005","name":"Poblacion","barangayCode":"1400126005","population":null,"formattedPop":null,"densityCategory":"No data","vulnerabilityRating":"No data","healthRiskLevel":"No data","areaKm2":19.079879,"centerLat":17.25877,"centerLng":120.72888,"geometrySource":"all_barangay-2.csv detailed WKT","geometryMatchMethod":"unique_official_admin_names","boundaryPointCount":17},"geometry":{"type":"MultiPolygon","coordinates":[[[[120.719498,17.29332],[120.73098,17.282419],[120.773499,17.242189],[120.749359,17.230459],[120.738983,17.24671],[120.737953,17.24824],[120.737152,17.24979],[120.735481,17.250811],[120.734207,17.252331],[120.734642,17.255301],[120.734138,17.255199],[120.733627,17.254999],[120.732048,17.255421],[120.730232,17.257589],[120.707397,17.28237],[120.711258,17.28635],[120.719498,17.29332]]]]}},{"type":"Feature","properties":{"ID_0":177,"ISO":"PHL","NAME_0":"Philippines","ID_1":14001,"NAME_1":"Abra","ID_2":1400126,"NAME_2":"Tubo","ID_3":1400126006,"NAME_3":"Supo","NL_NAME_3":null,"VARNAME_3":null,"TYPE_3":"Barangay","ENGTYPE_3":"Village","PROVINCE":"Abra","REGION":"Cordillera Administrative Region (CAR)","id":"barangay-1400126006","name":"Supo","barangayCode":"1400126006","population":null,"formattedPop":null,"densityCategory":"No data","vulnerabilityRating":"No data","healthRiskLevel":"No data","areaKm2":19.039121,"centerLat":17.225463,"centerLng":120.696274,"geometrySource":"all_barangay-2.csv detailed WKT","geometryMatchMethod":"unique_official_admin_names","boundaryPointCount":105},"geometry":{"type":"MultiPolygon","coordinates":[[[[120.682648,17.25573],[120.688248,17.26387],[120.700417,17.25174],[120.701576,17.25106],[120.70295,17.251101],[120.70433,17.25005],[120.706543,17.249451],[120.708527,17.248501],[120.709862,17.24752],[120.711243,17.246611],[120.71209,17.246111],[120.712624,17.24507],[120.713089,17.24386],[120.712952,17.243441],[120.713661,17.242769],[120.713837,17.24254],[120.713913,17.24268],[120.714531,17.24234],[120.715363,17.241631],[120.716293,17.240499],[120.72802,17.223169],[120.729286,17.221741],[120.733162,17.205891],[120.729797,17.205629],[120.728279,17.20661],[120.726852,17.206869],[120.725723,17.20727],[120.724342,17.2073],[120.723091,17.20726],[120.722382,17.206989],[120.721779,17.2068],[120.72094,17.2075],[120.72049,17.206461],[120.720093,17.20661],[120.71936,17.205469],[120.718788,17.203871],[120.718338,17.20406],[120.716904,17.205021],[120.715683,17.204559],[120.714157,17.204241],[120.713768,17.202999],[120.711121,17.20129],[120.708183,17.20051],[120.706451,17.19935],[120.704483,17.19796],[120.70285,17.19792],[120.700859,17.19853],[120.699417,17.19842],[120.698227,17.19994],[120.696892,17.199289],[120.696457,17.19906],[120.695847,17.1985],[120.694313,17.200121],[120.692352,17.201811],[120.692078,17.204559],[120.69091,17.206289],[120.689796,17.208179],[120.686943,17.208429],[120.685677,17.20652],[120.684029,17.20599],[120.683006,17.205179],[120.681541,17.205351],[120.67971,17.205259],[120.679237,17.20516],[120.678482,17.20635],[120.677673,17.208839],[120.677757,17.20916],[120.678047,17.210159],[120.678642,17.21158],[120.67881,17.211981],[120.680199,17.213181],[120.682907,17.215611],[120.682953,17.21599],[120.683189,17.218161],[120.682404,17.21994],[120.68251,17.220119],[120.682907,17.22072],[120.684883,17.22209],[120.686272,17.22315],[120.687241,17.224091],[120.686951,17.225361],[120.686409,17.22575],[120.684189,17.227119],[120.683792,17.229679],[120.682533,17.23167],[120.681717,17.23365],[120.683167,17.236891],[120.683128,17.23925],[120.682457,17.23995],[120.681,17.240419],[120.679314,17.24017],[120.677437,17.239849],[120.675972,17.240129],[120.67469,17.240391],[120.674377,17.241341],[120.673981,17.2423],[120.673988,17.242399],[120.674156,17.24415],[120.6754,17.244749],[120.676659,17.245119],[120.67765,17.246281],[120.679962,17.24819],[120.680893,17.24951],[120.681953,17.25325],[120.682648,17.25573]]]]}},{"type":"Feature","properties":{"ID_0":177,"ISO":"PHL","NAME_0":"Philippines","ID_1":14001,"NAME_1":"Abra","ID_2":1400126,"NAME_2":"Tubo","ID_3":1400126007,"NAME_3":"Tiempo","NL_NAME_3":null,"VARNAME_3":null,"TYPE_3":"Barangay","ENGTYPE_3":"Village","PROVINCE":"Abra","REGION":"Cordillera Administrative Region (CAR)","id":"barangay-1400126007","name":"Tiempo","barangayCode":"1400126007","population":null,"formattedPop":null,"densityCategory":"No data","vulnerabilityRating":"No data","healthRiskLevel":"No data","areaKm2":25.280323,"centerLat":17.268156,"centerLng":120.760098,"geometrySource":"all_barangay-2.csv detailed WKT","geometryMatchMethod":"unique_official_admin_names","boundaryPointCount":5},"geometry":{"type":"MultiPolygon","coordinates":[[[[120.73098,17.282419],[120.761574,17.29847],[120.792923,17.25209],[120.773499,17.242189],[120.73098,17.282419]]]]}},{"type":"Feature","properties":{"ID_0":177,"ISO":"PHL","NAME_0":"Philippines","ID_1":14001,"NAME_1":"Abra","ID_2":1400126,"NAME_2":"Tubo","ID_3":1400126008,"NAME_3":"Tubtuba","NL_NAME_3":null,"VARNAME_3":null,"TYPE_3":"Barangay","ENGTYPE_3":"Village","PROVINCE":"Abra","REGION":"Cordillera Administrative Region (CAR)","id":"barangay-1400126008","name":"Tubtuba","barangayCode":"1400126008","population":null,"formattedPop":null,"densityCategory":"No data","vulnerabilityRating":"No data","healthRiskLevel":"No data","areaKm2":26.874281,"centerLat":17.175936,"centerLng":120.768774,"geometrySource":"all_barangay-2.csv detailed WKT","geometryMatchMethod":"unique_official_admin_names","boundaryPointCount":93},"geometry":{"type":"MultiPolygon","coordinates":[[[[120.790627,17.2033],[120.787193,17.195009],[120.785713,17.193569],[120.784729,17.19228],[120.783752,17.190929],[120.782967,17.189529],[120.783089,17.18762],[120.781769,17.18453],[120.780144,17.18185],[120.780533,17.180731],[120.779953,17.17985],[120.778961,17.17907],[120.777412,17.17816],[120.777458,17.17651],[120.778603,17.175961],[120.779587,17.17527],[120.778557,17.174431],[120.77774,17.173679],[120.777817,17.172421],[120.777687,17.171209],[120.777344,17.16996],[120.776756,17.16918],[120.776749,17.16795],[120.775749,17.16666],[120.774971,17.165489],[120.774757,17.16346],[120.774727,17.163179],[120.766373,17.159519],[120.75676,17.157881],[120.74939,17.157619],[120.749229,17.15789],[120.748947,17.158131],[120.747993,17.159361],[120.74704,17.160801],[120.746483,17.16132],[120.746071,17.162001],[120.745811,17.16263],[120.745247,17.16312],[120.744186,17.163111],[120.743507,17.163349],[120.742897,17.16349],[120.742767,17.162901],[120.742767,17.16242],[120.741898,17.16127],[120.741074,17.160709],[120.739738,17.160179],[120.739113,17.161301],[120.739021,17.16202],[120.738838,17.16239],[120.737556,17.163509],[120.737297,17.164061],[120.737152,17.164619],[120.736679,17.165051],[120.735802,17.16563],[120.735474,17.166361],[120.735107,17.16707],[120.734497,17.167379],[120.734207,17.167931],[120.734123,17.1693],[120.734131,17.17],[120.734543,17.17029],[120.735519,17.17067],[120.735046,17.17103],[120.73468,17.17127],[120.734161,17.171961],[120.734177,17.172911],[120.734497,17.17362],[120.733963,17.174021],[120.734077,17.17507],[120.735291,17.17725],[120.735359,17.17837],[120.734352,17.17922],[120.734062,17.18017],[120.734039,17.18117],[120.73378,17.18186],[120.733162,17.18161],[120.732101,17.18079],[120.73101,17.181061],[120.730667,17.182091],[120.730377,17.18297],[120.729362,17.183571],[120.730858,17.184191],[120.732193,17.18512],[120.731873,17.186211],[120.731041,17.186951],[120.731117,17.187389],[120.732674,17.18788],[120.734207,17.188141],[120.735298,17.186769],[120.736572,17.18574],[120.738297,17.186211],[120.739853,17.1868],[120.790627,17.2033]]]]}},{"type":"Feature","properties":{"ID_0":177,"ISO":"PHL","NAME_0":"Philippines","ID_1":14001,"NAME_1":"Abra","ID_2":1400126,"NAME_2":"Tubo","ID_3":1400126009,"NAME_3":"Wayangan","NL_NAME_3":null,"VARNAME_3":null,"TYPE_3":"Barangay","ENGTYPE_3":"Village","PROVINCE":"Abra","REGION":"Cordillera Administrative Region (CAR)","id":"barangay-1400126009","name":"Wayangan","barangayCode":"1400126009","population":null,"formattedPop":null,"densityCategory":"No data","vulnerabilityRating":"No data","healthRiskLevel":"No data","areaKm2":14.447737,"centerLat":17.243383,"centerLng":120.712232,"geometrySource":"all_barangay-2.csv detailed WKT","geometryMatchMethod":"unique_official_admin_names","boundaryPointCount":51},"geometry":{"type":"MultiPolygon","coordinates":[[[[120.688248,17.26387],[120.707397,17.28237],[120.730232,17.257589],[120.732048,17.255421],[120.733627,17.254999],[120.734138,17.255199],[120.734642,17.255301],[120.734207,17.252331],[120.735481,17.250811],[120.737152,17.24979],[120.737953,17.24824],[120.738983,17.24671],[120.749359,17.230459],[120.745552,17.22723],[120.744759,17.227221],[120.742363,17.227209],[120.741089,17.22735],[120.74025,17.227289],[120.739532,17.22695],[120.739258,17.22632],[120.738289,17.225559],[120.737587,17.224621],[120.737259,17.222891],[120.736862,17.22172],[120.736023,17.221029],[120.735199,17.220949],[120.734062,17.22027],[120.732819,17.21998],[120.730911,17.22076],[120.729851,17.22138],[120.729286,17.221741],[120.72802,17.223169],[120.716293,17.240499],[120.715363,17.241631],[120.714531,17.24234],[120.713913,17.24268],[120.713837,17.24254],[120.713661,17.242769],[120.712952,17.243441],[120.713089,17.24386],[120.712624,17.24507],[120.71209,17.246111],[120.711243,17.246611],[120.709862,17.24752],[120.708527,17.248501],[120.706543,17.249451],[120.70433,17.25005],[120.70295,17.251101],[120.701576,17.25106],[120.700417,17.25174],[120.688248,17.26387]]]]}},{"type":"Feature","properties":{"ID_0":177,"ISO":"PHL","NAME_0":"Philippines","ID_1":14001,"NAME_1":"Abra","ID_2":1400126,"NAME_2":"Tubo","ID_3":1400126010,"NAME_3":"Tabacda","NL_NAME_3":null,"VARNAME_3":null,"TYPE_3":"Barangay","ENGTYPE_3":"Village","PROVINCE":"Abra","REGION":"Cordillera Administrative Region (CAR)","id":"barangay-1400126010","name":"Tabacda","barangayCode":"1400126010","population":null,"formattedPop":null,"densityCategory":"No data","vulnerabilityRating":"No data","healthRiskLevel":"No data","areaKm2":161.414325,"centerLat":17.28013,"centerLng":120.876759,"geometrySource":"all_barangay-2.csv detailed WKT","geometryMatchMethod":"unique_official_admin_names","boundaryPointCount":34},"geometry":{"type":"MultiPolygon","coordinates":[[[[120.790627,17.2033],[120.814888,17.21174],[120.828613,17.188601],[120.798912,17.18788],[120.795303,17.18255],[120.787888,17.173161],[120.776413,17.1639],[120.774727,17.163179],[120.774757,17.16346],[120.774971,17.165489],[120.775749,17.16666],[120.776749,17.16795],[120.776756,17.16918],[120.777344,17.16996],[120.777687,17.171209],[120.777817,17.172421],[120.77774,17.173679],[120.778557,17.174431],[120.779587,17.17527],[120.778603,17.175961],[120.777458,17.17651],[120.777412,17.17816],[120.778961,17.17907],[120.779953,17.17985],[120.780533,17.180731],[120.780144,17.18185],[120.781769,17.18453],[120.783089,17.18762],[120.782967,17.189529],[120.783752,17.190929],[120.784729,17.19228],[120.785713,17.193569],[120.787193,17.195009],[120.790627,17.2033]]]]}}]}
