{"type":"FeatureCollection","features":[{"type":"Feature","properties":{"ID_0":177,"ISO":"PHL","NAME_0":"Philippines","ID_1":17051,"NAME_1":"Occidental Mindoro","ID_2":1705108,"NAME_2":"Rizal","ID_3":1705108001,"NAME_3":"Adela","NL_NAME_3":null,"VARNAME_3":null,"TYPE_3":"Barangay","ENGTYPE_3":"Village","PROVINCE":"Occidental Mindoro","REGION":"Mimaropa Region","id":"barangay-1705108001","name":"Adela","barangayCode":"1705108001","population":null,"formattedPop":null,"densityCategory":"No data","vulnerabilityRating":"No data","healthRiskLevel":"No data","areaKm2":10.02386,"centerLat":12.449517,"centerLng":120.982874,"geometrySource":"all_barangay-2.csv detailed WKT","geometryMatchMethod":"unique_official_admin_names","boundaryPointCount":112},"geometry":{"type":"MultiPolygon","coordinates":[[[[120.986481,12.46891],[120.988564,12.46619],[121.006798,12.44026],[121.004837,12.43936],[121.001877,12.43807],[121.000076,12.43683],[120.996017,12.43585],[120.993584,12.43394],[120.990082,12.43031],[120.98835,12.42938],[120.984093,12.43062],[120.981133,12.43166],[120.978203,12.43063],[120.975967,12.42792],[120.97583,12.42806],[120.97583,12.42833],[120.975281,12.42889],[120.975281,12.42917],[120.974998,12.42944],[120.974442,12.43],[120.974442,12.43028],[120.974098,12.43083],[120.974152,12.43114],[120.974716,12.43195],[120.974716,12.43222],[120.975281,12.43278],[120.975281,12.43333],[120.975563,12.43361],[120.975563,12.43472],[120.97583,12.435],[120.97583,12.43556],[120.976669,12.43639],[120.976936,12.43639],[120.977219,12.43667],[120.977501,12.43667],[120.977783,12.43694],[120.976669,12.43806],[120.976387,12.43778],[120.976112,12.43778],[120.97583,12.4375],[120.975563,12.4375],[120.975563,12.43722],[120.975281,12.43694],[120.975281,12.43667],[120.974998,12.43639],[120.974998,12.43583],[120.974716,12.43556],[120.974716,12.43528],[120.974442,12.435],[120.974442,12.43472],[120.974167,12.43444],[120.973892,12.43472],[120.973457,12.43507],[120.973297,12.43558],[120.973083,12.43617],[120.972893,12.4368],[120.972748,12.43744],[120.972572,12.43802],[120.972458,12.43856],[120.972282,12.43899],[120.972191,12.43934],[120.972054,12.43959],[120.971947,12.43987],[120.971802,12.44013],[120.971687,12.44043],[120.971558,12.4407],[120.971443,12.44097],[120.971313,12.44124],[120.971077,12.44154],[120.970787,12.44192],[120.970573,12.44238],[120.970291,12.4428],[120.969994,12.44324],[120.96965,12.44372],[120.969353,12.44423],[120.969147,12.44471],[120.968941,12.4451],[120.968758,12.44546],[120.968597,12.44588],[120.968384,12.44629],[120.968086,12.44666],[120.967789,12.447],[120.967506,12.44736],[120.967216,12.44772],[120.966927,12.44805],[120.966637,12.44835],[120.966408,12.44865],[120.966187,12.44896],[120.965942,12.44927],[120.965523,12.44951],[120.965187,12.44977],[120.965218,12.45004],[120.965149,12.45028],[120.965027,12.45051],[120.964912,12.45078],[120.964706,12.45105],[120.964447,12.45131],[120.964157,12.45159],[120.963814,12.45188],[120.963417,12.45216],[120.963058,12.45251],[120.962784,12.45289],[120.962502,12.45325],[120.96225,12.45358],[120.961983,12.4539],[120.9617,12.45421],[120.961418,12.45455],[120.961151,12.4549],[120.960854,12.45522],[120.960564,12.45553],[120.960503,12.45558],[120.986481,12.46891]]]]}},{"type":"Feature","properties":{"ID_0":177,"ISO":"PHL","NAME_0":"Philippines","ID_1":17051,"NAME_1":"Occidental Mindoro","ID_2":1705108,"NAME_2":"Rizal","ID_3":1705108002,"NAME_3":"Aguas","NL_NAME_3":null,"VARNAME_3":null,"TYPE_3":"Barangay","ENGTYPE_3":"Village","PROVINCE":"Occidental Mindoro","REGION":"Mimaropa Region","id":"barangay-1705108002","name":"Aguas","barangayCode":"1705108002","population":null,"formattedPop":null,"densityCategory":"No data","vulnerabilityRating":"No data","healthRiskLevel":"No data","areaKm2":30.922599,"centerLat":12.532965,"centerLng":121.079081,"geometrySource":"all_barangay-2.csv detailed WKT","geometryMatchMethod":"unique_official_admin_names","boundaryPointCount":46},"geometry":{"type":"MultiPolygon","coordinates":[[[[121.044693,12.55352],[121.083733,12.55354],[121.084793,12.55257],[121.086311,12.55174],[121.088081,12.55095],[121.088783,12.54964],[121.088303,12.54724],[121.088226,12.54475],[121.087677,12.54235],[121.087738,12.53897],[121.086227,12.53694],[121.084686,12.53636],[121.082733,12.53693],[121.081017,12.53687],[121.078323,12.5383],[121.076897,12.53895],[121.07415,12.53633],[121.073257,12.5346],[121.072487,12.53152],[121.07032,12.52853],[121.071487,12.52484],[121.072609,12.5235],[121.072144,12.52168],[121.074043,12.49307],[121.068489,12.48814],[121.064018,12.48574],[121.061111,12.48399],[121.056633,12.4797],[121.053383,12.47664],[121.049713,12.47417],[121.047203,12.47264],[121.046753,12.47707],[121.047577,12.48192],[121.048126,12.48551],[121.048264,12.48873],[121.046494,12.49136],[121.04686,12.4942],[121.047974,12.49715],[121.049591,12.49923],[121.050377,12.50105],[121.049423,12.50374],[121.050323,12.50653],[121.051292,12.50865],[121.052177,12.52312],[121.046898,12.54492],[121.044693,12.55352]]]]}},{"type":"Feature","properties":{"ID_0":177,"ISO":"PHL","NAME_0":"Philippines","ID_1":17051,"NAME_1":"Occidental Mindoro","ID_2":1705108,"NAME_2":"Rizal","ID_3":1705108003,"NAME_3":"Magsikap","NL_NAME_3":null,"VARNAME_3":null,"TYPE_3":"Barangay","ENGTYPE_3":"Village","PROVINCE":"Occidental Mindoro","REGION":"Mimaropa Region","id":"barangay-1705108003","name":"Magsikap","barangayCode":"1705108003","population":null,"formattedPop":null,"densityCategory":"No data","vulnerabilityRating":"No data","healthRiskLevel":"No data","areaKm2":15.16228,"centerLat":12.505376,"centerLng":120.989745,"geometrySource":"all_barangay-2.csv detailed WKT","geometryMatchMethod":"unique_official_admin_names","boundaryPointCount":21},"geometry":{"type":"MultiPolygon","coordinates":[[[[120.971031,12.55354],[121.003014,12.55351],[120.997543,12.53616],[121.000397,12.51981],[121.005127,12.50025],[121.003883,12.49995],[121.002586,12.49894],[120.999893,12.4983],[120.996658,12.49797],[120.994179,12.49899],[120.989616,12.49645],[120.986954,12.49303],[120.984787,12.48995],[120.983963,12.48639],[120.980247,12.47841],[120.975563,12.48971],[120.968941,12.50839],[120.971428,12.51031],[120.967659,12.5243],[120.970879,12.52742],[120.971031,12.55354]]]]}},{"type":"Feature","properties":{"ID_0":177,"ISO":"PHL","NAME_0":"Philippines","ID_1":17051,"NAME_1":"Occidental Mindoro","ID_2":1705108,"NAME_2":"Rizal","ID_3":1705108004,"NAME_3":"Malawaan","NL_NAME_3":null,"VARNAME_3":null,"TYPE_3":"Barangay","ENGTYPE_3":"Village","PROVINCE":"Occidental Mindoro","REGION":"Mimaropa Region","id":"barangay-1705108004","name":"Malawaan","barangayCode":"1705108004","population":null,"formattedPop":null,"densityCategory":"No data","vulnerabilityRating":"No data","healthRiskLevel":"No data","areaKm2":17.42863,"centerLat":12.516636,"centerLng":120.944877,"geometrySource":"all_barangay-2.csv detailed WKT","geometryMatchMethod":"unique_official_admin_names","boundaryPointCount":171},"geometry":{"type":"MultiPolygon","coordinates":[[[[120.962212,12.55337],[120.971031,12.55354],[120.970879,12.52742],[120.967659,12.5243],[120.971428,12.51031],[120.968941,12.50839],[120.935081,12.493868],[120.934067,12.49339],[120.933708,12.49366],[120.933357,12.49401],[120.93306,12.4944],[120.932716,12.49475],[120.932472,12.49516],[120.932198,12.49558],[120.931938,12.49603],[120.931664,12.4965],[120.931389,12.49694],[120.931137,12.49735],[120.930992,12.49775],[120.93084,12.4981],[120.93071,12.49845],[120.930557,12.49877],[120.93042,12.49909],[120.930252,12.49938],[120.930061,12.49966],[120.929947,12.49993],[120.929787,12.50012],[120.929626,12.50033],[120.929443,12.50064],[120.929192,12.50107],[120.928886,12.50159],[120.928482,12.5021],[120.928146,12.50262],[120.927818,12.50305],[120.927521,12.50345],[120.927261,12.50385],[120.92701,12.50421],[120.926758,12.50456],[120.926437,12.50486],[120.926048,12.50504],[120.925774,12.50527],[120.925583,12.50555],[120.925507,12.50592],[120.925652,12.5064],[120.926086,12.50682],[120.926666,12.50713],[120.927223,12.5075],[120.927498,12.5075],[120.92778,12.50778],[120.928612,12.50778],[120.929619,12.50878],[120.929733,12.50889],[120.929581,12.50903],[120.929169,12.50944],[120.929169,12.50972],[120.928886,12.50972],[120.928612,12.51],[120.928047,12.51],[120.92778,12.50972],[120.92778,12.50944],[120.926941,12.50861],[120.926666,12.50861],[120.926392,12.50833],[120.925278,12.50833],[120.925003,12.50861],[120.925003,12.50889],[120.925278,12.50917],[120.925278,12.50944],[120.925247,12.51009],[120.925232,12.5106],[120.925438,12.51106],[120.925537,12.5115],[120.925568,12.51193],[120.925621,12.51236],[120.925613,12.51286],[120.925568,12.51338],[120.925507,12.51388],[120.925362,12.51435],[120.925163,12.51484],[120.924919,12.51538],[120.924721,12.51611],[120.924454,12.51639],[120.924454,12.51667],[120.924156,12.51695],[120.924156,12.51722],[120.923889,12.5175],[120.923889,12.51778],[120.923607,12.51806],[120.923607,12.51861],[120.923264,12.51918],[120.923264,12.51952],[120.923737,12.51952],[120.924721,12.51917],[120.925003,12.51944],[120.925003,12.51972],[120.924156,12.52056],[120.923889,12.52056],[120.922867,12.521],[120.922234,12.52083],[120.921944,12.52083],[120.921669,12.52111],[120.921669,12.52167],[120.921387,12.52194],[120.921387,12.52222],[120.921112,12.5225],[120.921112,12.52278],[120.920837,12.52329],[120.920601,12.52379],[120.920464,12.52441],[120.920303,12.52507],[120.920181,12.52577],[120.920029,12.52645],[120.919968,12.52712],[120.919823,12.52768],[120.919746,12.52811],[120.919746,12.52841],[120.919762,12.52879],[120.919739,12.52905],[120.919701,12.52933],[120.919693,12.52942],[120.91951,12.52985],[120.919403,12.53036],[120.919197,12.53083],[120.919167,12.5313],[120.919159,12.53172],[120.919113,12.53212],[120.918938,12.5325],[120.918892,12.53301],[120.918892,12.53358],[120.918892,12.53417],[120.918892,12.53471],[120.918892,12.5352],[120.918922,12.53565],[120.919083,12.53605],[120.919159,12.53647],[120.919167,12.53692],[120.919167,12.5374],[120.919167,12.53791],[120.919167,12.53842],[120.919197,12.53891],[120.919357,12.53939],[120.919434,12.53987],[120.919449,12.54036],[120.919449,12.54086],[120.919472,12.54135],[120.919601,12.54181],[120.919838,12.54227],[120.920052,12.54282],[120.920349,12.54342],[120.920609,12.5441],[120.920883,12.54475],[120.921089,12.54538],[120.921242,12.54597],[120.921516,12.54644],[120.921738,12.54691],[120.921959,12.54738],[120.922211,12.54784],[120.922432,12.54834],[120.922523,12.54898],[120.922722,12.54964],[120.923058,12.55028],[120.923477,12.55091],[120.923973,12.55151],[120.924591,12.55183],[120.925163,12.55213],[120.925552,12.5525],[120.925827,12.5525],[120.925903,12.55256],[120.92691,12.55253],[120.926933,12.55257],[120.962212,12.55337]]]]}},{"type":"Feature","properties":{"ID_0":177,"ISO":"PHL","NAME_0":"Philippines","ID_1":17051,"NAME_1":"Occidental Mindoro","ID_2":1705108,"NAME_2":"Rizal","ID_3":1705108005,"NAME_3":"Pitogo","NL_NAME_3":null,"VARNAME_3":null,"TYPE_3":"Barangay","ENGTYPE_3":"Village","PROVINCE":"Occidental Mindoro","REGION":"Mimaropa Region","id":"barangay-1705108005","name":"Pitogo","barangayCode":"1705108005","population":null,"formattedPop":null,"densityCategory":"No data","vulnerabilityRating":"No data","healthRiskLevel":"No data","areaKm2":14.725313,"centerLat":12.501715,"centerLng":121.067048,"geometrySource":"all_barangay-2.csv detailed WKT","geometryMatchMethod":"unique_official_admin_names","boundaryPointCount":43},"geometry":{"type":"MultiPolygon","coordinates":[[[[121.083733,12.55354],[121.117126,12.55428],[121.11055,12.54322],[121.108887,12.54008],[121.106644,12.53636],[121.10479,12.53307],[121.104874,12.52914],[121.102982,12.52437],[121.099068,12.52406],[121.097191,12.52355],[121.096779,12.51899],[121.096573,12.51443],[121.095627,12.51173],[121.093277,12.50985],[121.089996,12.50883],[121.089302,12.50634],[121.089104,12.504],[121.086998,12.50152],[121.082947,12.49902],[121.078979,12.49606],[121.074043,12.49307],[121.072144,12.52168],[121.072609,12.5235],[121.071487,12.52484],[121.07032,12.52853],[121.072487,12.53152],[121.073257,12.5346],[121.07415,12.53633],[121.076897,12.53895],[121.078323,12.5383],[121.081017,12.53687],[121.082733,12.53693],[121.084686,12.53636],[121.086227,12.53694],[121.087738,12.53897],[121.087677,12.54235],[121.088226,12.54475],[121.088303,12.54724],[121.088783,12.54964],[121.088081,12.55095],[121.086311,12.55174],[121.084793,12.55257],[121.083733,12.55354]]]]}},{"type":"Feature","properties":{"ID_0":177,"ISO":"PHL","NAME_0":"Philippines","ID_1":17051,"NAME_1":"Occidental Mindoro","ID_2":1705108,"NAME_2":"Rizal","ID_3":1705108006,"NAME_3":"Rizal","NL_NAME_3":null,"VARNAME_3":null,"TYPE_3":"Barangay","ENGTYPE_3":"Village","PROVINCE":"Occidental Mindoro","REGION":"Mimaropa Region","id":"barangay-1705108006","name":"Rizal","barangayCode":"1705108006","population":null,"formattedPop":null,"densityCategory":"No data","vulnerabilityRating":"No data","healthRiskLevel":"No data","areaKm2":46.641856,"centerLat":12.562129,"centerLng":121.049593,"geometrySource":"all_barangay-2.csv detailed WKT","geometryMatchMethod":"unique_official_admin_names","boundaryPointCount":19},"geometry":{"type":"MultiPolygon","coordinates":[[[[121.003014,12.55351],[121.044693,12.55352],[121.046898,12.54492],[121.042877,12.53953],[121.041809,12.53553],[121.038223,12.53159],[121.035454,12.52775],[121.03511,12.5247],[121.033318,12.52085],[121.030388,12.51962],[121.027382,12.51816],[121.020714,12.51591],[121.019432,12.51559],[121.011971,12.5157],[121.006866,12.51844],[121.003021,12.52012],[121.000397,12.51981],[120.997543,12.53616],[121.003014,12.55351]]]]}},{"type":"Feature","properties":{"ID_0":177,"ISO":"PHL","NAME_0":"Philippines","ID_1":17051,"NAME_1":"Occidental Mindoro","ID_2":1705108,"NAME_2":"Rizal","ID_3":1705108007,"NAME_3":"Rumbang","NL_NAME_3":null,"VARNAME_3":null,"TYPE_3":"Barangay","ENGTYPE_3":"Village","PROVINCE":"Occidental Mindoro","REGION":"Mimaropa Region","id":"barangay-1705108007","name":"Rumbang","barangayCode":"1705108007","population":null,"formattedPop":null,"densityCategory":"No data","vulnerabilityRating":"No data","healthRiskLevel":"No data","areaKm2":9.217771,"centerLat":12.473853,"centerLng":120.9693,"geometrySource":"all_barangay-2.csv detailed WKT","geometryMatchMethod":"unique_official_admin_names","boundaryPointCount":67},"geometry":{"type":"MultiPolygon","coordinates":[[[[120.980247,12.47841],[120.986481,12.46891],[120.960503,12.45558],[120.960297,12.4558],[120.960068,12.45604],[120.959877,12.45631],[120.959633,12.45655],[120.959457,12.45694],[120.95932,12.45734],[120.959221,12.45773],[120.959106,12.45807],[120.959106,12.45845],[120.959084,12.45877],[120.958878,12.45902],[120.958488,12.45926],[120.958023,12.45951],[120.957733,12.45981],[120.957542,12.46019],[120.957458,12.46064],[120.957321,12.46106],[120.957176,12.46139],[120.95697,12.46167],[120.956818,12.46194],[120.956642,12.4622],[120.956429,12.46246],[120.956253,12.46281],[120.9561,12.46317],[120.95594,12.46349],[120.955849,12.46378],[120.955818,12.46409],[120.955727,12.4644],[120.955544,12.46472],[120.955276,12.46509],[120.955002,12.4655],[120.954857,12.46573],[120.954727,12.46594],[120.954483,12.46641],[120.954239,12.4669],[120.954102,12.46746],[120.95388,12.46797],[120.953613,12.46848],[120.953339,12.469],[120.953079,12.46952],[120.952827,12.47001],[120.952591,12.47051],[120.952347,12.47103],[120.952202,12.47157],[120.951981,12.47204],[120.951851,12.47252],[120.951691,12.47293],[120.951591,12.47333],[120.951401,12.47366],[120.951187,12.47398],[120.950989,12.47431],[120.950867,12.47464],[120.950813,12.47495],[120.950668,12.47519],[120.950546,12.47544],[120.950432,12.47568],[120.950333,12.47597],[120.950211,12.47632],[120.950027,12.47668],[120.949997,12.47722],[120.949707,12.47751],[120.950562,12.47795],[120.975563,12.48971],[120.980247,12.47841]]]]}},{"type":"Feature","properties":{"ID_0":177,"ISO":"PHL","NAME_0":"Philippines","ID_1":17051,"NAME_1":"Occidental Mindoro","ID_2":1705108,"NAME_2":"Rizal","ID_3":1705108008,"NAME_3":"Salvacion","NL_NAME_3":null,"VARNAME_3":null,"TYPE_3":"Barangay","ENGTYPE_3":"Village","PROVINCE":"Occidental Mindoro","REGION":"Mimaropa Region","id":"barangay-1705108008","name":"Salvacion","barangayCode":"1705108008","population":null,"formattedPop":null,"densityCategory":"No data","vulnerabilityRating":"No data","healthRiskLevel":"No data","areaKm2":7.132658,"centerLat":12.493914,"centerLng":120.955054,"geometrySource":"all_barangay-2.csv detailed WKT","geometryMatchMethod":"unique_official_admin_names","boundaryPointCount":49},"geometry":{"type":"MultiPolygon","coordinates":[[[[120.968941,12.50839],[120.975563,12.48971],[120.950562,12.47795],[120.949707,12.47751],[120.949173,12.47806],[120.949173,12.47833],[120.948891,12.47861],[120.948608,12.47889],[120.948608,12.47917],[120.948059,12.47972],[120.948059,12.48028],[120.947502,12.48083],[120.947502,12.48167],[120.947777,12.48194],[120.947502,12.48222],[120.947502,12.4825],[120.945267,12.48472],[120.945267,12.485],[120.945,12.48528],[120.945,12.48556],[120.944443,12.48611],[120.944443,12.48639],[120.944168,12.48667],[120.944168,12.48694],[120.942223,12.48889],[120.941673,12.48889],[120.941422,12.48908],[120.94101,12.48925],[120.940598,12.48945],[120.940132,12.4896],[120.939613,12.48968],[120.93924,12.48994],[120.938957,12.49026],[120.938637,12.49052],[120.938347,12.49082],[120.938049,12.49113],[120.937737,12.49139],[120.937393,12.4916],[120.936996,12.49174],[120.9366,12.49193],[120.936172,12.49211],[120.93576,12.49228],[120.935402,12.49249],[120.935051,12.49268],[120.934738,12.49288],[120.934433,12.49312],[120.934067,12.49339],[120.935081,12.493868],[120.968941,12.50839]]]]}},{"type":"Feature","properties":{"ID_0":177,"ISO":"PHL","NAME_0":"Philippines","ID_1":17051,"NAME_1":"Occidental Mindoro","ID_2":1705108,"NAME_2":"Rizal","ID_3":1705108009,"NAME_3":"San Pedro","NL_NAME_3":null,"VARNAME_3":null,"TYPE_3":"Barangay","ENGTYPE_3":"Village","PROVINCE":"Occidental Mindoro","REGION":"Mimaropa Region","id":"barangay-1705108009","name":"San Pedro","barangayCode":"1705108009","population":null,"formattedPop":null,"densityCategory":"No data","vulnerabilityRating":"No data","healthRiskLevel":"No data","areaKm2":12.876129,"centerLat":12.467926,"centerLng":121.001634,"geometrySource":"all_barangay-2.csv detailed WKT","geometryMatchMethod":"unique_official_admin_names","boundaryPointCount":44},"geometry":{"type":"MultiPolygon","coordinates":[[[[121.047203,12.47264],[121.043411,12.469],[121.039284,12.46306],[121.036636,12.45974],[121.032654,12.45529],[121.029549,12.45431],[121.027107,12.45434],[121.024933,12.45256],[121.022827,12.45021],[121.019737,12.44933],[121.016693,12.44841],[121.012787,12.44715],[121.008888,12.44492],[121.007462,12.44182],[121.006798,12.44026],[120.988564,12.46619],[120.989594,12.46744],[120.992813,12.46681],[120.994659,12.46519],[120.996071,12.46444],[120.99897,12.46638],[121.000809,12.46797],[121.004753,12.46802],[121.008667,12.46705],[121.010696,12.46736],[121.012016,12.46925],[121.013153,12.47118],[121.014969,12.47296],[121.017754,12.47496],[121.018951,12.477],[121.020279,12.47873],[121.02211,12.47967],[121.025543,12.47853],[121.026817,12.4777],[121.027657,12.47706],[121.029266,12.47653],[121.030243,12.47585],[121.032051,12.47512],[121.034607,12.47433],[121.04023,12.47567],[121.042603,12.47641],[121.044357,12.47682],[121.046753,12.47707],[121.047203,12.47264]]]]}},{"type":"Feature","properties":{"ID_0":177,"ISO":"PHL","NAME_0":"Philippines","ID_1":17051,"NAME_1":"Occidental Mindoro","ID_2":1705108,"NAME_2":"Rizal","ID_3":1705108010,"NAME_3":"Santo Niño","NL_NAME_3":null,"VARNAME_3":"Santo Nino","TYPE_3":"Barangay","ENGTYPE_3":"Village","PROVINCE":"Occidental Mindoro","REGION":"Mimaropa Region","id":"barangay-1705108010","name":"Santo Niño","barangayCode":"1705108010","population":null,"formattedPop":null,"densityCategory":"No data","vulnerabilityRating":"No data","healthRiskLevel":"No data","areaKm2":22.332005,"centerLat":12.486262,"centerLng":121.026378,"geometrySource":"all_barangay-2.csv detailed WKT","geometryMatchMethod":"unique_official_admin_names","boundaryPointCount":50},"geometry":{"type":"MultiPolygon","coordinates":[[[[121.049423,12.50374],[121.050377,12.50105],[121.049591,12.49923],[121.047974,12.49715],[121.04686,12.4942],[121.046494,12.49136],[121.048264,12.48873],[121.048126,12.48551],[121.047577,12.48192],[121.046753,12.47707],[121.044357,12.47682],[121.042603,12.47641],[121.04023,12.47567],[121.034607,12.47433],[121.032051,12.47512],[121.030243,12.47585],[121.029266,12.47653],[121.027657,12.47706],[121.026817,12.4777],[121.025543,12.47853],[121.02211,12.47967],[121.020279,12.47873],[121.018951,12.477],[121.017754,12.47496],[121.014969,12.47296],[121.013153,12.47118],[121.012016,12.46925],[121.010696,12.46736],[121.008667,12.46705],[121.004753,12.46802],[121.000809,12.46797],[120.99897,12.46638],[120.996071,12.46444],[120.994659,12.46519],[120.992813,12.46681],[120.989594,12.46744],[120.988564,12.46619],[120.986481,12.46891],[120.980247,12.47841],[120.983963,12.48639],[120.984787,12.48995],[120.986954,12.49303],[120.989616,12.49645],[120.994179,12.49899],[120.996658,12.49797],[120.999893,12.4983],[121.002586,12.49894],[121.003883,12.49995],[121.005127,12.50025],[121.049423,12.50374]]]]}},{"type":"Feature","properties":{"ID_0":177,"ISO":"PHL","NAME_0":"Philippines","ID_1":17051,"NAME_1":"Occidental Mindoro","ID_2":1705108,"NAME_2":"Rizal","ID_3":1705108012,"NAME_3":"Manoot","NL_NAME_3":null,"VARNAME_3":null,"TYPE_3":"Barangay","ENGTYPE_3":"Village","PROVINCE":"Occidental Mindoro","REGION":"Mimaropa Region","id":"barangay-1705108012","name":"Manoot","barangayCode":"1705108012","population":null,"formattedPop":null,"densityCategory":"No data","vulnerabilityRating":"No data","healthRiskLevel":"No data","areaKm2":117.329173,"centerLat":12.623061,"centerLng":121.129076,"geometrySource":"all_barangay-2.csv detailed WKT","geometryMatchMethod":"unique_official_admin_names","boundaryPointCount":21},"geometry":{"type":"MultiPolygon","coordinates":[[[[121.046898,12.54492],[121.052177,12.52312],[121.051292,12.50865],[121.050323,12.50653],[121.049423,12.50374],[121.005127,12.50025],[121.000397,12.51981],[121.003021,12.52012],[121.006866,12.51844],[121.011971,12.5157],[121.019432,12.51559],[121.020714,12.51591],[121.027382,12.51816],[121.030388,12.51962],[121.033318,12.52085],[121.03511,12.5247],[121.035454,12.52775],[121.038223,12.53159],[121.041809,12.53553],[121.042877,12.53953],[121.046898,12.54492]]]]}}]}
