{"type":"FeatureCollection","features":[{"type":"Feature","properties":{"ID_0":177,"ISO":"PHL","NAME_0":"Philippines","ID_1":17053,"NAME_1":"Palawan","ID_2":1705324,"NAME_2":"Sofronio Española","ID_3":1705324001,"NAME_3":"Abo-abo","NL_NAME_3":null,"VARNAME_3":null,"TYPE_3":"Barangay","ENGTYPE_3":"Village","PROVINCE":"Palawan","REGION":"Mimaropa Region","id":"barangay-1705324001","name":"Abo-abo","barangayCode":"1705324001","population":null,"formattedPop":null,"densityCategory":"No data","vulnerabilityRating":"No data","healthRiskLevel":"No data","areaKm2":11.908268,"centerLat":9.16796,"centerLng":118.086393,"geometrySource":"all_barangay-2.csv detailed WKT","geometryMatchMethod":"unique_official_admin_names","boundaryPointCount":75},"geometry":{"type":"MultiPolygon","coordinates":[[[[118.055481,9.20203],[118.088814,9.16889],[118.090157,9.16922],[118.091003,9.16974],[118.091431,9.17055],[118.091728,9.17119],[118.093323,9.17],[118.09491,9.16975],[118.095757,9.16971],[118.097343,9.16898],[118.098083,9.16874],[118.098846,9.16849],[118.099632,9.16749],[118.100769,9.16727],[118.10202,9.16588],[118.102028,9.1652],[118.103088,9.1643],[118.104637,9.16297],[118.105682,9.16273],[118.106453,9.16334],[118.108948,9.16156],[118.109627,9.16056],[118.111427,9.16021],[118.111816,9.15875],[118.110687,9.15793],[118.111938,9.1564],[118.113197,9.15597],[118.115097,9.15579],[118.11586,9.15655],[118.117157,9.15718],[118.117752,9.15716],[118.117844,9.15783],[118.119507,9.15691],[118.121117,9.15531],[118.121384,9.15406],[118.122704,9.15368],[118.123253,9.15373],[118.123734,9.15213],[118.123283,9.15155],[118.124611,9.15074],[118.125427,9.1493],[118.126373,9.14571],[118.126328,9.14567],[118.125954,9.14545],[118.125504,9.14531],[118.125023,9.1452],[118.124588,9.14499],[118.124199,9.1447],[118.123878,9.14432],[118.12355,9.14395],[118.123199,9.1436],[118.122864,9.14326],[118.122551,9.14289],[118.122337,9.14245],[118.122368,9.14194],[118.122429,9.14138],[118.12236,9.1408],[118.122093,9.14033],[118.12175,9.13991],[118.121437,9.13949],[118.12114,9.13906],[118.120857,9.13864],[118.120712,9.13838],[118.119881,9.13837],[118.119019,9.13821],[118.118958,9.13892],[118.118431,9.13982],[118.11763,9.14065],[118.116783,9.14038],[118.11573,9.13957],[118.115509,9.13936],[118.114899,9.13865],[118.114883,9.13841],[118.040077,9.18693],[118.055481,9.20203]]]]}},{"type":"Feature","properties":{"ID_0":177,"ISO":"PHL","NAME_0":"Philippines","ID_1":17053,"NAME_1":"Palawan","ID_2":1705324,"NAME_2":"Sofronio Española","ID_3":1705324002,"NAME_3":"Iraray","NL_NAME_3":null,"VARNAME_3":null,"TYPE_3":"Barangay","ENGTYPE_3":"Village","PROVINCE":"Palawan","REGION":"Mimaropa Region","id":"barangay-1705324002","name":"Iraray","barangayCode":"1705324002","population":null,"formattedPop":null,"densityCategory":"No data","vulnerabilityRating":"No data","healthRiskLevel":"No data","areaKm2":24.247138,"centerLat":8.982252,"centerLng":118.026181,"geometrySource":"all_barangay-2.csv detailed WKT","geometryMatchMethod":"unique_official_admin_names","boundaryPointCount":214},"geometry":{"type":"MultiPolygon","coordinates":[[[[117.899986,9.08414],[117.918907,9.10327],[118.010292,9.00799],[118.010643,9.00785],[118.011581,9.00764],[118.012779,9.00733],[118.013657,9.00632],[118.013977,9.0054],[118.015938,9.00391],[118.016937,9.00336],[118.018044,9.00205],[118.01973,9.0013],[118.020737,9.00102],[118.02195,8.99928],[118.022583,8.99949],[118.024223,8.99827],[118.02533,8.99712],[118.027863,8.99586],[118.029083,8.99469],[118.030159,8.99319],[118.03093,8.99185],[118.031807,8.99036],[118.032806,8.98879],[118.033699,8.98684],[118.033859,8.9859],[118.033897,8.98465],[118.034126,8.98453],[118.034393,8.98396],[118.034714,8.98336],[118.035583,8.98259],[118.036377,8.98158],[118.036789,8.9806],[118.037216,8.98048],[118.038109,8.98024],[118.038223,8.97976],[118.038589,8.97918],[118.039139,8.97826],[118.039543,8.97714],[118.040001,8.97702],[118.040817,8.97701],[118.040916,8.97666],[118.041138,8.97584],[118.041893,8.97605],[118.043022,8.97609],[118.044449,8.97573],[118.045433,8.97562],[118.04599,8.97543],[118.046379,8.9747],[118.046516,8.97288],[118.04644,8.97213],[118.04718,8.9706],[118.04808,8.96998],[118.047691,8.97009],[118.047234,8.97024],[118.046654,8.97003],[118.046173,8.96955],[118.045868,8.96893],[118.045738,8.96819],[118.045731,8.96745],[118.045776,8.96679],[118.045921,8.96624],[118.046089,8.96569],[118.046219,8.96514],[118.046356,8.96474],[118.046387,8.96465],[118.046532,8.96422],[118.046768,8.96389],[118.046837,8.96384],[118.047096,8.96365],[118.047493,8.96345],[118.047859,8.96334],[118.047943,8.96332],[118.048363,8.96328],[118.048523,8.96325],[118.048698,8.96322],[118.04882,8.96305],[118.048737,8.96282],[118.048721,8.96274],[118.048569,8.96233],[118.048477,8.96185],[118.048431,8.96134],[118.048363,8.96082],[118.048317,8.96056],[118.048286,8.96031],[118.04818,8.95985],[118.048073,8.95946],[118.04792,8.9591],[118.047737,8.95873],[118.047539,8.9583],[118.047256,8.95778],[118.04689,8.95723],[118.046494,8.95667],[118.04615,8.95613],[118.045853,8.95567],[118.045624,8.95527],[118.045486,8.95488],[118.04528,8.95453],[118.045021,8.95417],[118.044746,8.95376],[118.044472,8.95334],[118.044327,8.95309],[118.044228,8.95291],[118.044037,8.95249],[118.043869,8.95212],[118.043663,8.95176],[118.043488,8.9513],[118.043419,8.951],[118.043358,8.95073],[118.043243,8.95013],[118.043182,8.94998],[118.043037,8.94964],[118.042801,8.94925],[118.042633,8.94886],[118.042557,8.94871],[118.04248,8.94849],[118.042259,8.94817],[118.041939,8.9479],[118.04171,8.94775],[118.041557,8.94766],[118.041229,8.94735],[118.040894,8.94705],[118.040329,8.94671],[118.039963,8.94672],[118.039574,8.94672],[118.039169,8.94685],[118.039062,8.94689],[118.038918,8.94685],[118.038757,8.9468],[118.038612,8.94684],[118.038498,8.94687],[118.038399,8.94683],[118.038231,8.94677],[118.038101,8.94683],[118.03788,8.94692],[118.037437,8.94708],[118.037201,8.94727],[118.036942,8.94749],[118.036629,8.9477],[118.036293,8.94791],[118.035957,8.94828],[118.035759,8.94869],[118.035599,8.94905],[118.035179,8.94918],[118.034637,8.94927],[118.034042,8.94927],[118.033577,8.94914],[118.033157,8.94889],[118.032768,8.94859],[118.032448,8.94823],[118.032219,8.94779],[118.031937,8.94737],[118.031647,8.94697],[118.031288,8.94664],[118.031013,8.94628],[118.030861,8.94592],[118.030777,8.94554],[118.030563,8.94524],[118.030319,8.94492],[118.030098,8.94455],[118.029846,8.94417],[118.029617,8.94378],[118.029472,8.94338],[118.029442,8.94294],[118.029404,8.9425],[118.029373,8.94242],[118.028061,8.94284],[118.025864,8.94352],[118.025383,8.94402],[118.024811,8.9447],[118.024033,8.94539],[118.023689,8.94568],[118.022797,8.94655],[118.022751,8.94688],[118.022652,8.94711],[118.022202,8.94731],[118.021637,8.94725],[118.021042,8.9471],[118.020332,8.94719],[118.019524,8.94755],[118.01902,8.94772],[118.018631,8.94773],[118.018463,8.94729],[118.017159,8.94707],[118.016533,8.94727],[118.015297,8.94743],[118.015106,8.94732],[118.014412,8.94687],[118.013741,8.94691],[118.01339,8.94724],[118.012756,8.94809],[118.012489,8.94803],[118.011589,8.94858],[118.011848,8.94915],[118.012192,8.94991],[118.011803,8.95049],[118.011063,8.95067],[118.010201,8.95071],[118.009651,8.95084],[118.009392,8.95138],[118.00914,8.95231],[118.00882,8.95298],[118.008163,8.95369],[118.007492,8.95447],[118.006943,8.95459],[118.006363,8.95447],[118.004837,8.95582],[118.004494,8.95643],[118.002167,8.95688],[118.002052,8.9575],[118.00193,8.95785],[117.998657,8.96116],[117.923264,9.0388],[117.889297,9.07554],[117.899986,9.08414]]]]}},{"type":"Feature","properties":{"ID_0":177,"ISO":"PHL","NAME_0":"Philippines","ID_1":17053,"NAME_1":"Palawan","ID_2":1705324,"NAME_2":"Sofronio Española","ID_3":1705324003,"NAME_3":"Isumbo","NL_NAME_3":null,"VARNAME_3":null,"TYPE_3":"Barangay","ENGTYPE_3":"Village","PROVINCE":"Palawan","REGION":"Mimaropa Region","id":"barangay-1705324003","name":"Isumbo","barangayCode":"1705324003","population":null,"formattedPop":null,"densityCategory":"No data","vulnerabilityRating":"No data","healthRiskLevel":"No data","areaKm2":32.478012,"centerLat":9.15298,"centerLng":118.074744,"geometrySource":"all_barangay-2.csv detailed WKT","geometryMatchMethod":"unique_official_admin_names","boundaryPointCount":247},"geometry":{"type":"MultiPolygon","coordinates":[[[[118.159126,9.08858],[118.159554,9.08833],[118.159958,9.08804],[118.160339,9.08771],[118.16069,9.08737],[118.161003,9.08701],[118.161049,9.08654],[118.160843,9.08605],[118.160606,9.08553],[118.160492,9.08486],[118.160271,9.0842],[118.159943,9.08358],[118.159531,9.08322],[118.159447,9.08315],[118.159172,9.08306],[118.15889,9.08309],[118.158569,9.08322],[118.15818,9.08337],[118.157791,9.08361],[118.157387,9.08387],[118.156967,9.08412],[118.156601,9.08443],[118.156273,9.08475],[118.155983,9.08513],[118.155701,9.08552],[118.15551,9.08571],[118.155357,9.08585],[118.155037,9.08619],[118.154778,9.08661],[118.154533,9.08703],[118.154404,9.0875],[118.154228,9.08786],[118.154327,9.08817],[118.154678,9.08839],[118.155052,9.08851],[118.155533,9.0885],[118.155998,9.0886],[118.156502,9.08873],[118.157028,9.08891],[118.157578,9.0891],[118.158157,9.08903],[118.158684,9.08881],[118.159126,9.08858]]],[[[118.126953,9.08917],[118.126251,9.08916],[118.125931,9.08917],[118.125603,9.08916],[118.12513,9.08917],[118.12458,9.08919],[118.124023,9.08933],[118.123497,9.08958],[118.123077,9.08992],[118.122726,9.09034],[118.122452,9.09084],[118.122177,9.0914],[118.12191,9.09198],[118.121658,9.09254],[118.121429,9.09306],[118.121422,9.09358],[118.121582,9.0941],[118.121727,9.09463],[118.121986,9.09511],[118.122353,9.09553],[118.122772,9.0959],[118.123207,9.09626],[118.123627,9.09657],[118.124046,9.0968],[118.124489,9.09692],[118.124977,9.09694],[118.125473,9.09695],[118.125969,9.09695],[118.126457,9.09694],[118.126938,9.09692],[118.127342,9.09682],[118.127693,9.0967],[118.128036,9.09665],[118.128403,9.09657],[118.128777,9.09642],[118.129204,9.09629],[118.129547,9.09602],[118.129921,9.09576],[118.130234,9.09549],[118.13047,9.09521],[118.130661,9.09489],[118.130836,9.09458],[118.130989,9.09427],[118.131088,9.09395],[118.131111,9.09359],[118.131111,9.09317],[118.131104,9.09269],[118.13102,9.09217],[118.130836,9.09174],[118.130821,9.09169],[118.130562,9.09126],[118.130318,9.09088],[118.130074,9.09056],[118.129807,9.09027],[118.129532,9.09],[118.129189,9.08973],[118.128761,9.08951],[118.12822,9.08935],[118.127617,9.0892],[118.126953,9.08917]]],[[[118.133987,9.09948],[118.133621,9.09926],[118.133247,9.09945],[118.132767,9.0997],[118.132263,9.09998],[118.131813,9.10027],[118.131416,9.10053],[118.131088,9.10074],[118.130791,9.1009],[118.130539,9.10112],[118.130257,9.1014],[118.13002,9.10178],[118.130043,9.10225],[118.130173,9.10261],[118.13044,9.10275],[118.130768,9.10279],[118.131126,9.10285],[118.131508,9.10305],[118.132072,9.10322],[118.132782,9.1031],[118.13353,9.10297],[118.134178,9.10259],[118.134758,9.10211],[118.135101,9.10142],[118.13501,9.10064],[118.134621,9.09996],[118.133987,9.09948]]],[[[118.040077,9.18693],[118.114883,9.13841],[118.114899,9.13865],[118.115509,9.13936],[118.11573,9.13957],[118.116783,9.14038],[118.11763,9.14065],[118.118431,9.13982],[118.118958,9.13892],[118.119019,9.13821],[118.119881,9.13837],[118.120712,9.13838],[118.120628,9.13822],[118.120422,9.1378],[118.120201,9.13739],[118.120003,9.13695],[118.119797,9.13647],[118.119659,9.13596],[118.119438,9.13548],[118.119186,9.13503],[118.118942,9.13464],[118.118759,9.13429],[118.118713,9.13393],[118.118828,9.13356],[118.118874,9.13313],[118.118874,9.13263],[118.118797,9.13209],[118.118759,9.13157],[118.118767,9.1311],[118.118622,9.13073],[118.118469,9.13038],[118.118378,9.13003],[118.118347,9.12962],[118.118317,9.12915],[118.118271,9.1286],[118.118149,9.12799],[118.118134,9.12729],[118.118149,9.12655],[118.118011,9.12581],[118.117767,9.12512],[118.1175,9.12446],[118.117241,9.12382],[118.117027,9.12319],[118.116966,9.12253],[118.116966,9.12191],[118.116966,9.12137],[118.116676,9.12094],[118.116386,9.12058],[118.116074,9.12026],[118.115738,9.11994],[118.11541,9.11953],[118.115143,9.11898],[118.114983,9.11833],[118.114861,9.11767],[118.114899,9.11705],[118.114906,9.11649],[118.114769,9.11603],[118.114571,9.11561],[118.114304,9.11523],[118.113983,9.11484],[118.113617,9.11445],[118.113213,9.11408],[118.112778,9.11376],[118.112343,9.11348],[118.1119,9.11326],[118.111481,9.11304],[118.111076,9.11283],[118.110641,9.11268],[118.110222,9.11252],[118.109802,9.11238],[118.109444,9.11218],[118.109154,9.1119],[118.108917,9.1115],[118.108742,9.11102],[118.108643,9.1105],[118.108597,9.11],[118.108543,9.10956],[118.108421,9.10917],[118.108383,9.10878],[118.108414,9.10836],[118.108383,9.10796],[118.108391,9.10753],[118.108467,9.10708],[118.108528,9.10665],[118.108459,9.10626],[118.108322,9.10589],[118.108139,9.10551],[118.108032,9.10504],[118.107857,9.10457],[118.107559,9.10417],[118.107201,9.1038],[118.106773,9.10348],[118.10627,9.10321],[118.105766,9.10295],[118.105377,9.10259],[118.105118,9.10213],[118.105026,9.10155],[118.104988,9.10096],[118.104919,9.10038],[118.104736,9.09984],[118.104584,9.09932],[118.104477,9.099],[118.10379,9.09919],[118.103157,9.09914],[118.102173,9.10021],[118.100708,9.10077],[118.099411,9.10159],[118.098221,9.10188],[118.096786,9.1021],[118.09549,9.10328],[118.09446,9.10466],[118.092682,9.1061],[118.091782,9.10707],[118.091316,9.10743],[118.009201,9.16657],[118.017387,9.16966],[118.040077,9.18693]]]]}},{"type":"Feature","properties":{"ID_0":177,"ISO":"PHL","NAME_0":"Philippines","ID_1":17053,"NAME_1":"Palawan","ID_2":1705324,"NAME_2":"Sofronio Española","ID_3":1705324004,"NAME_3":"Labog","NL_NAME_3":null,"VARNAME_3":null,"TYPE_3":"Barangay","ENGTYPE_3":"Village","PROVINCE":"Palawan","REGION":"Mimaropa Region","id":"barangay-1705324004","name":"Labog","barangayCode":"1705324004","population":null,"formattedPop":null,"densityCategory":"No data","vulnerabilityRating":"No data","healthRiskLevel":"No data","areaKm2":81.771372,"centerLat":9.094197,"centerLng":118.018493,"geometrySource":"all_barangay-2.csv detailed WKT","geometryMatchMethod":"unique_official_admin_names","boundaryPointCount":220},"geometry":{"type":"MultiPolygon","coordinates":[[[[117.98156,9.14788],[117.983521,9.14729],[117.983727,9.14672],[117.984337,9.14604],[117.98452,9.14467],[117.984261,9.1436],[117.984497,9.14243],[117.985687,9.14127],[117.985992,9.14105],[117.986351,9.14007],[117.987297,9.13909],[117.988419,9.13943],[117.989433,9.13927],[117.990303,9.13811],[117.991287,9.13802],[117.992912,9.13711],[117.993279,9.13743],[117.994087,9.13764],[117.995079,9.1372],[117.996338,9.13656],[117.997688,9.13599],[117.998894,9.13515],[118.067642,9.07774],[118.067436,9.07782],[118.067078,9.07646],[118.067863,9.07543],[118.068733,9.07475],[118.069649,9.07363],[118.070457,9.07289],[118.070351,9.07198],[118.069572,9.07096],[118.068909,9.06979],[118.068367,9.06947],[118.06749,9.06845],[118.067932,9.06648],[118.06913,9.06579],[118.071259,9.06573],[118.072517,9.06556],[118.073387,9.06369],[118.073837,9.06222],[118.075211,9.05995],[118.076447,9.05888],[118.07766,9.05834],[118.078819,9.05827],[118.079697,9.05829],[118.080658,9.05869],[118.081467,9.05835],[118.082657,9.05753],[118.083412,9.05678],[118.083511,9.05597],[118.083649,9.05475],[118.083344,9.0536],[118.083511,9.05304],[118.083603,9.05193],[118.085213,9.05052],[118.08535,9.05019],[118.085083,9.04941],[118.084953,9.04936],[118.084633,9.04921],[118.084297,9.04913],[118.084023,9.04902],[118.083977,9.049],[118.083763,9.04892],[118.083633,9.04887],[118.083214,9.0487],[118.082687,9.04853],[118.082108,9.04835],[118.08149,9.04817],[118.080879,9.04801],[118.08033,9.04781],[118.079803,9.04763],[118.079338,9.0474],[118.078918,9.04718],[118.078583,9.04693],[118.078247,9.04674],[118.077919,9.04667],[118.077637,9.04664],[118.07737,9.04661],[118.077087,9.04652],[118.076752,9.04643],[118.076363,9.04647],[118.075989,9.04666],[118.075577,9.04687],[118.075104,9.04699],[118.0746,9.04714],[118.074074,9.0471],[118.073547,9.04698],[118.073059,9.04691],[118.072609,9.04679],[118.072159,9.0467],[118.071678,9.04668],[118.071213,9.04673],[118.07077,9.0469],[118.070702,9.04691],[118.070351,9.047],[118.070137,9.04708],[118.070007,9.04713],[118.069763,9.04704],[118.069633,9.04683],[118.069527,9.04656],[118.069504,9.04618],[118.069588,9.0457],[118.069778,9.04514],[118.07003,9.04463],[118.070053,9.04458],[118.070412,9.04406],[118.070839,9.04359],[118.071327,9.04318],[118.071922,9.04295],[118.072662,9.04295],[118.073013,9.04274],[118.073174,9.0424],[118.073387,9.04203],[118.073647,9.04173],[118.073837,9.0415],[118.073822,9.04125],[118.073792,9.04121],[118.073418,9.04075],[118.073112,9.04019],[118.073097,9.03956],[118.07325,9.03896],[118.073532,9.03849],[118.073639,9.03851],[118.074173,9.03861],[118.074448,9.03833],[118.074997,9.03833],[118.075279,9.03806],[118.075546,9.03806],[118.075844,9.03778],[118.077217,9.03778],[118.077499,9.0375],[118.078331,9.0375],[118.078613,9.03722],[118.07917,9.03694],[118.079689,9.03642],[118.07972,9.03639],[118.07972,9.03611],[118.080338,9.03549],[118.08139,9.03444],[118.081657,9.03444],[118.081947,9.03417],[118.082497,9.03417],[118.082779,9.03389],[118.083344,9.03389],[118.083603,9.03362],[118.083893,9.03361],[118.084442,9.03306],[118.084442,9.03278],[118.084686,9.03254],[118.084717,9.0325],[118.084717,9.03243],[118.084717,9.03222],[118.084793,9.03216],[118.084999,9.03194],[118.084999,9.03167],[118.085831,9.03083],[118.085831,9.03028],[118.085716,9.03017],[118.085564,9.03],[118.085564,9.02985],[118.085564,9.02972],[118.085411,9.02958],[118.085281,9.02944],[118.085281,9.02933],[118.085281,9.02806],[118.085091,9.02787],[118.084999,9.02778],[118.084999,9.02697],[118.084999,9.02667],[118.084717,9.02639],[118.084717,9.02583],[118.084267,9.02538],[118.084167,9.02528],[118.084167,9.02508],[118.084167,9.025],[118.084122,9.02496],[118.083893,9.02472],[118.083893,9.02444],[118.083344,9.02389],[118.083344,9.02361],[118.082809,9.02343],[118.082687,9.02339],[118.082397,9.02314],[118.082062,9.02296],[118.081718,9.02298],[118.081497,9.02305],[118.08136,9.0231],[118.081009,9.02327],[118.080597,9.02331],[118.080223,9.02323],[118.079933,9.02294],[118.079819,9.02251],[118.079933,9.02203],[118.080002,9.02167],[118.080093,9.02167],[118.080559,9.02167],[118.080833,9.02139],[118.08139,9.02139],[118.081657,9.02111],[118.082222,9.02111],[118.082779,9.02056],[118.082779,9.02],[118.082497,9.01972],[118.082497,9.01944],[118.082222,9.01917],[118.082222,9.01889],[118.081947,9.01861],[118.081947,9.01806],[118.081657,9.01778],[118.081657,9.01695],[118.08139,9.01667],[118.08139,9.01639],[118.081108,9.01611],[118.081108,9.01583],[118.08139,9.01556],[118.08139,9.01472],[118.081238,9.01457],[118.0811,9.01443],[117.952423,9.12731],[117.98156,9.14788]]]]}},{"type":"Feature","properties":{"ID_0":177,"ISO":"PHL","NAME_0":"Philippines","ID_1":17053,"NAME_1":"Palawan","ID_2":1705324,"NAME_2":"Sofronio Española","ID_3":1705324005,"NAME_3":"Panitian","NL_NAME_3":null,"VARNAME_3":null,"TYPE_3":"Barangay","ENGTYPE_3":"Village","PROVINCE":"Palawan","REGION":"Mimaropa Region","id":"barangay-1705324005","name":"Panitian","barangayCode":"1705324005","population":null,"formattedPop":null,"densityCategory":"No data","vulnerabilityRating":"No data","healthRiskLevel":"No data","areaKm2":81.125579,"centerLat":9.118889,"centerLng":118.057882,"geometrySource":"all_barangay-2.csv detailed WKT","geometryMatchMethod":"unique_official_admin_names","boundaryPointCount":365},"geometry":{"type":"MultiPolygon","coordinates":[[[[118.117912,9.04298],[118.117523,9.04293],[118.117378,9.04309],[118.117287,9.04318],[118.117142,9.04334],[118.116837,9.04363],[118.116539,9.04402],[118.116409,9.0446],[118.116402,9.04521],[118.116493,9.04576],[118.116631,9.04626],[118.116661,9.04677],[118.116669,9.04716],[118.116669,9.04728],[118.116707,9.04775],[118.11692,9.04813],[118.117149,9.04848],[118.1175,9.0487],[118.117928,9.04891],[118.118423,9.04914],[118.119019,9.04932],[118.119614,9.04943],[118.120193,9.04909],[118.120552,9.04848],[118.120789,9.04782],[118.120857,9.04713],[118.120483,9.04651],[118.119926,9.04605],[118.119476,9.04559],[118.119232,9.04513],[118.119392,9.04462],[118.119583,9.04418],[118.119453,9.04388],[118.119171,9.04353],[118.11869,9.04312],[118.117912,9.04298]]],[[[118.138496,9.0604],[118.138123,9.06011],[118.137619,9.06003],[118.136909,9.06037],[118.136276,9.06016],[118.135963,9.05994],[118.135696,9.05984],[118.135277,9.06026],[118.134903,9.0607],[118.134712,9.06115],[118.134567,9.06155],[118.134468,9.06196],[118.134453,9.06242],[118.134453,9.06293],[118.13443,9.06344],[118.134361,9.06393],[118.134209,9.06439],[118.134163,9.06482],[118.134117,9.06522],[118.133926,9.06557],[118.13385,9.06598],[118.133827,9.06605],[118.133614,9.06652],[118.133423,9.06702],[118.133598,9.06745],[118.134048,9.06777],[118.134567,9.06803],[118.135094,9.06817],[118.135513,9.06838],[118.135887,9.06862],[118.136276,9.06887],[118.136703,9.06909],[118.137161,9.0693],[118.137512,9.06963],[118.137863,9.06997],[118.138237,9.07024],[118.138649,9.07031],[118.139053,9.07012],[118.13942,9.06974],[118.139793,9.06937],[118.140198,9.06908],[118.140587,9.06876],[118.140991,9.06849],[118.141403,9.06829],[118.141724,9.06805],[118.142059,9.06779],[118.142418,9.06751],[118.142799,9.06722],[118.143173,9.06694],[118.143501,9.06663],[118.143738,9.06626],[118.143837,9.06586],[118.143623,9.06547],[118.143341,9.06508],[118.143059,9.06472],[118.143059,9.06444],[118.142502,9.06389],[118.142502,9.06361],[118.14222,9.06333],[118.14196,9.06312],[118.141953,9.06297],[118.141953,9.06289],[118.141876,9.06259],[118.141663,9.06227],[118.141403,9.06196],[118.14106,9.06167],[118.140694,9.06142],[118.140511,9.06134],[118.140266,9.06123],[118.139816,9.06107],[118.139397,9.06083],[118.138969,9.06058],[118.138496,9.0604]]],[[[118.009201,9.16657],[118.091316,9.10743],[118.091782,9.10707],[118.092682,9.1061],[118.09446,9.10466],[118.09549,9.10328],[118.096786,9.1021],[118.098221,9.10188],[118.099411,9.10159],[118.100708,9.10077],[118.102173,9.10021],[118.103157,9.09914],[118.10379,9.09919],[118.104477,9.099],[118.104424,9.09882],[118.104492,9.09831],[118.104584,9.0978],[118.104477,9.09729],[118.10434,9.09678],[118.104156,9.09633],[118.104019,9.09593],[118.103989,9.09559],[118.104134,9.0953],[118.104271,9.09501],[118.104408,9.09472],[118.104523,9.09443],[118.104713,9.09417],[118.104958,9.0939],[118.105217,9.09362],[118.105476,9.09332],[118.105652,9.09291],[118.105858,9.09248],[118.106041,9.09202],[118.106102,9.09153],[118.106117,9.09106],[118.106117,9.09063],[118.10611,9.09022],[118.10611,9.08979],[118.10611,9.08929],[118.106117,9.08872],[118.10611,9.08813],[118.106056,9.08756],[118.105942,9.08708],[118.105766,9.08671],[118.105713,9.08658],[118.105614,9.08637],[118.105507,9.08596],[118.1054,9.08552],[118.105461,9.08502],[118.105537,9.08452],[118.105553,9.08403],[118.105553,9.08359],[118.10556,9.08323],[118.105621,9.08292],[118.105743,9.08265],[118.105827,9.08233],[118.105904,9.08196],[118.106049,9.08158],[118.10611,9.08112],[118.106133,9.08061],[118.106194,9.08009],[118.106323,9.07961],[118.106323,9.07914],[118.106209,9.07871],[118.106071,9.07833],[118.105904,9.07802],[118.105789,9.07766],[118.105637,9.07734],[118.105476,9.07701],[118.105263,9.07667],[118.10498,9.07635],[118.104691,9.07606],[118.104424,9.07581],[118.104202,9.07558],[118.104019,9.07533],[118.103943,9.07497],[118.10392,9.07485],[118.103889,9.07453],[118.103821,9.07405],[118.103699,9.07359],[118.103668,9.07314],[118.103729,9.07278],[118.103828,9.07247],[118.103897,9.07214],[118.104042,9.07176],[118.104187,9.07129],[118.104378,9.07072],[118.1045,9.07003],[118.10466,9.06932],[118.104713,9.06858],[118.104691,9.06786],[118.10453,9.06719],[118.10424,9.06685],[118.104134,9.06672],[118.103706,9.06628],[118.103363,9.06581],[118.103317,9.06568],[118.10321,9.06531],[118.103287,9.06478],[118.103409,9.06434],[118.103477,9.06416],[118.103569,9.06398],[118.103706,9.06367],[118.103859,9.06339],[118.103958,9.06306],[118.10379,9.06269],[118.103661,9.06253],[118.103477,9.06232],[118.103058,9.06194],[118.102783,9.06167],[118.102783,9.06119],[118.102783,9.06056],[118.102501,9.06028],[118.102501,9.05972],[118.102219,9.05944],[118.102219,9.05778],[118.102501,9.0575],[118.102501,9.05695],[118.102219,9.05667],[118.102219,9.05611],[118.101952,9.05584],[118.101936,9.05528],[118.101669,9.055],[118.101669,9.05417],[118.101936,9.05389],[118.101936,9.05361],[118.102219,9.05333],[118.102219,9.05306],[118.102783,9.0525],[118.102783,9.05194],[118.102501,9.05167],[118.102501,9.05139],[118.10218,9.05107],[118.101936,9.05083],[118.101936,9.05056],[118.101387,9.05],[118.101318,9.04989],[118.100906,9.04952],[118.100441,9.04909],[118.099991,9.04863],[118.099564,9.04819],[118.099159,9.04781],[118.098801,9.04747],[118.098503,9.04711],[118.098213,9.04677],[118.097847,9.04648],[118.097473,9.04624],[118.097076,9.04603],[118.096733,9.04579],[118.096382,9.04551],[118.096046,9.04521],[118.09568,9.045],[118.095268,9.04503],[118.094818,9.04521],[118.094391,9.04549],[118.093987,9.04576],[118.093857,9.04588],[118.093674,9.04606],[118.093384,9.04638],[118.093109,9.04676],[118.09285,9.04718],[118.092644,9.04763],[118.092407,9.04803],[118.092102,9.04837],[118.091759,9.04871],[118.091454,9.0491],[118.091232,9.04953],[118.09108,9.04993],[118.090874,9.05026],[118.090683,9.05059],[118.090477,9.05093],[118.090302,9.05134],[118.090179,9.05173],[118.089996,9.05209],[118.089767,9.05244],[118.089523,9.05274],[118.089233,9.05295],[118.089172,9.05296],[118.08889,9.05303],[118.088654,9.05303],[118.088539,9.05303],[118.088493,9.05302],[118.088181,9.05298],[118.087822,9.053],[118.087646,9.05305],[118.087433,9.05311],[118.08696,9.05319],[118.08651,9.053],[118.086327,9.0528],[118.086166,9.05262],[118.085999,9.05215],[118.085999,9.05166],[118.085876,9.05122],[118.085838,9.05078],[118.085823,9.05035],[118.085747,9.04997],[118.085541,9.04969],[118.085281,9.04949],[118.085083,9.04941],[118.08535,9.05019],[118.085213,9.05052],[118.083603,9.05193],[118.083511,9.05304],[118.083344,9.0536],[118.083649,9.05475],[118.083511,9.05597],[118.083412,9.05678],[118.082657,9.05753],[118.081467,9.05835],[118.080658,9.05869],[118.079697,9.05829],[118.078819,9.05827],[118.07766,9.05834],[118.076447,9.05888],[118.075211,9.05995],[118.073837,9.06222],[118.073387,9.06369],[118.072517,9.06556],[118.071259,9.06573],[118.06913,9.06579],[118.067932,9.06648],[118.06749,9.06845],[118.068367,9.06947],[118.068909,9.06979],[118.069572,9.07096],[118.070351,9.07198],[118.070457,9.07289],[118.069649,9.07363],[118.068733,9.07475],[118.067863,9.07543],[118.067078,9.07646],[118.067436,9.07782],[118.067642,9.07774],[117.998894,9.13515],[117.997688,9.13599],[117.996338,9.13656],[117.995079,9.1372],[117.994087,9.13764],[117.993279,9.13743],[117.992912,9.13711],[117.991287,9.13802],[117.990303,9.13811],[117.989433,9.13927],[117.988419,9.13943],[117.987297,9.13909],[117.986351,9.14007],[117.985992,9.14105],[117.985687,9.14127],[117.984497,9.14243],[117.984261,9.1436],[117.98452,9.14467],[117.984337,9.14604],[117.983727,9.14672],[117.983521,9.14729],[117.98156,9.14788],[118.009201,9.16657]]]]}},{"type":"Feature","properties":{"ID_0":177,"ISO":"PHL","NAME_0":"Philippines","ID_1":17053,"NAME_1":"Palawan","ID_2":1705324,"NAME_2":"Sofronio Española","ID_3":1705324006,"NAME_3":"Pulot Center","NL_NAME_3":null,"VARNAME_3":null,"TYPE_3":"Barangay","ENGTYPE_3":"Village","PROVINCE":"Palawan","REGION":"Mimaropa Region","id":"barangay-1705324006","name":"Pulot Center","barangayCode":"1705324006","population":null,"formattedPop":null,"densityCategory":"No data","vulnerabilityRating":"No data","healthRiskLevel":"No data","areaKm2":27.465936,"centerLat":8.972686,"centerLng":117.991341,"geometrySource":"all_barangay-2.csv detailed WKT","geometryMatchMethod":"unique_official_admin_names","boundaryPointCount":23},"geometry":{"type":"MultiPolygon","coordinates":[[[[117.923264,9.0388],[117.998657,8.96116],[117.975456,8.94107],[117.891792,9.02389],[117.893173,9.02492],[117.894508,9.02682],[117.895508,9.02887],[117.896698,9.03057],[117.898666,9.03081],[117.900818,9.031],[117.902367,9.03154],[117.903587,9.03242],[117.90464,9.03228],[117.906929,9.03171],[117.907944,9.0316],[117.909508,9.03256],[117.911537,9.03392],[117.913872,9.03473],[117.915894,9.0349],[117.91774,9.03563],[117.919189,9.03717],[117.921227,9.03776],[117.923264,9.0388]]]]}},{"type":"Feature","properties":{"ID_0":177,"ISO":"PHL","NAME_0":"Philippines","ID_1":17053,"NAME_1":"Palawan","ID_2":1705324,"NAME_2":"Sofronio Española","ID_3":1705324007,"NAME_3":"Pulot Interior","NL_NAME_3":null,"VARNAME_3":null,"TYPE_3":"Barangay","ENGTYPE_3":"Village","PROVINCE":"Palawan","REGION":"Mimaropa Region","id":"barangay-1705324007","name":"Pulot Interior","barangayCode":"1705324007","population":null,"formattedPop":null,"densityCategory":"No data","vulnerabilityRating":"No data","healthRiskLevel":"No data","areaKm2":71.048239,"centerLat":9.026447,"centerLng":117.949465,"geometrySource":"all_barangay-2.csv detailed WKT","geometryMatchMethod":"unique_official_admin_names","boundaryPointCount":23},"geometry":{"type":"MultiPolygon","coordinates":[[[[117.889297,9.07554],[117.923264,9.0388],[117.921227,9.03776],[117.919189,9.03717],[117.91774,9.03563],[117.915894,9.0349],[117.913872,9.03473],[117.911537,9.03392],[117.909508,9.03256],[117.907944,9.0316],[117.906929,9.03171],[117.90464,9.03228],[117.903587,9.03242],[117.902367,9.03154],[117.900818,9.031],[117.898666,9.03081],[117.896698,9.03057],[117.895508,9.02887],[117.894508,9.02682],[117.893173,9.02492],[117.891792,9.02389],[117.862457,9.05485],[117.889297,9.07554]]]]}},{"type":"Feature","properties":{"ID_0":177,"ISO":"PHL","NAME_0":"Philippines","ID_1":17053,"NAME_1":"Palawan","ID_2":1705324,"NAME_2":"Sofronio Española","ID_3":1705324008,"NAME_3":"Pulot Shore","NL_NAME_3":null,"VARNAME_3":null,"TYPE_3":"Barangay","ENGTYPE_3":"Village","PROVINCE":"Palawan","REGION":"Mimaropa Region","id":"barangay-1705324008","name":"Pulot Shore","barangayCode":"1705324008","population":null,"formattedPop":null,"densityCategory":"No data","vulnerabilityRating":"No data","healthRiskLevel":"No data","areaKm2":19.909319,"centerLat":8.932446,"centerLng":118.007126,"geometrySource":"all_barangay-2.csv detailed WKT","geometryMatchMethod":"unique_official_admin_names","boundaryPointCount":130},"geometry":{"type":"MultiPolygon","coordinates":[[[[118.029373,8.94242],[118.029251,8.94206],[118.029297,8.94155],[118.029198,8.941],[118.029114,8.94041],[118.028893,8.93986],[118.028641,8.93936],[118.028397,8.93892],[118.028267,8.93848],[118.027893,8.93809],[118.02729,8.93779],[118.026917,8.93754],[118.026817,8.93746],[118.026451,8.93714],[118.026154,8.93681],[118.025879,8.93643],[118.025673,8.93604],[118.025642,8.93599],[118.025589,8.93545],[118.025337,8.93368],[118.025414,8.93326],[118.026108,8.93195],[118.026108,8.93111],[118.02549,8.93021],[118.025459,8.93006],[118.0252,8.92965],[118.025208,8.9291],[118.025482,8.92826],[118.025627,8.92778],[118.025482,8.92694],[118.025284,8.92604],[118.025002,8.92563],[118.024788,8.92417],[118.024582,8.92347],[118.024513,8.92149],[118.024139,8.92092],[118.023849,8.92019],[118.023727,8.92006],[118.023567,8.91986],[118.023354,8.9196],[118.023041,8.91934],[118.022697,8.91914],[118.022469,8.91882],[118.022118,8.91846],[118.021927,8.91811],[118.021713,8.91793],[118.021469,8.91771],[118.021263,8.91746],[118.021057,8.91716],[118.020821,8.91682],[118.020561,8.91649],[118.020302,8.91618],[118.020088,8.91587],[118.019989,8.9155],[118.019852,8.91514],[118.019753,8.91477],[118.019661,8.91441],[118.019524,8.91405],[118.019447,8.91362],[118.019371,8.91313],[118.019234,8.91264],[118.019127,8.91215],[118.018982,8.91172],[118.01889,8.91136],[118.018768,8.91108],[118.018623,8.91081],[118.018433,8.91051],[118.018227,8.91016],[118.017998,8.90976],[118.017723,8.90933],[118.017464,8.90883],[118.017067,8.90845],[117.988182,8.9305],[117.986122,8.93236],[117.984009,8.93389],[117.980171,8.93701],[117.97934,8.93724],[117.978394,8.93779],[117.977463,8.93839],[117.976051,8.93944],[117.975143,8.94017],[117.975166,8.9405],[117.975456,8.94107],[117.998657,8.96116],[118.00193,8.95785],[118.002052,8.9575],[118.002167,8.95688],[118.004494,8.95643],[118.004837,8.95582],[118.006363,8.95447],[118.006943,8.95459],[118.007492,8.95447],[118.008163,8.95369],[118.00882,8.95298],[118.00914,8.95231],[118.009392,8.95138],[118.009651,8.95084],[118.010201,8.95071],[118.011063,8.95067],[118.011803,8.95049],[118.012192,8.94991],[118.011848,8.94915],[118.011589,8.94858],[118.012489,8.94803],[118.012756,8.94809],[118.01339,8.94724],[118.013741,8.94691],[118.014412,8.94687],[118.015106,8.94732],[118.015297,8.94743],[118.016533,8.94727],[118.017159,8.94707],[118.018463,8.94729],[118.018631,8.94773],[118.01902,8.94772],[118.019524,8.94755],[118.020332,8.94719],[118.021042,8.9471],[118.021637,8.94725],[118.022202,8.94731],[118.022652,8.94711],[118.022751,8.94688],[118.022797,8.94655],[118.023689,8.94568],[118.024033,8.94539],[118.024811,8.9447],[118.025383,8.94402],[118.025864,8.94352],[118.028061,8.94284],[118.029373,8.94242]]]]}},{"type":"Feature","properties":{"ID_0":177,"ISO":"PHL","NAME_0":"Philippines","ID_1":17053,"NAME_1":"Palawan","ID_2":1705324,"NAME_2":"Sofronio Española","ID_3":1705324009,"NAME_3":"Punang","NL_NAME_3":null,"VARNAME_3":null,"TYPE_3":"Barangay","ENGTYPE_3":"Village","PROVINCE":"Palawan","REGION":"Mimaropa Region","id":"barangay-1705324009","name":"Punang","barangayCode":"1705324009","population":null,"formattedPop":null,"densityCategory":"No data","vulnerabilityRating":"No data","healthRiskLevel":"No data","areaKm2":92.088339,"centerLat":9.054106,"centerLng":117.999196,"geometrySource":"all_barangay-2.csv detailed WKT","geometryMatchMethod":"unique_official_admin_names","boundaryPointCount":247},"geometry":{"type":"MultiPolygon","coordinates":[[[[117.952423,9.12731],[118.0811,9.01443],[118.080833,9.01417],[118.080833,9.01397],[118.080833,9.01389],[118.080322,9.01338],[118.07917,9.01222],[118.078888,9.01222],[118.078056,9.01139],[118.077217,9.01139],[118.075546,9.00972],[118.075279,9.00972],[118.074722,9.00917],[118.074448,9.00917],[118.074173,9.00889],[118.073891,9.00889],[118.073723,9.00899],[118.073257,9.00898],[118.072853,9.00913],[118.07251,9.00936],[118.072159,9.00953],[118.071732,9.00943],[118.071251,9.00924],[118.070686,9.00908],[118.070183,9.00879],[118.069717,9.00851],[118.06929,9.0083],[118.068893,9.00831],[118.068489,9.00834],[118.068092,9.00838],[118.06778,9.00861],[118.065552,9.00861],[118.065399,9.00868],[118.06443,9.00912],[118.064034,9.00943],[118.063637,9.00971],[118.063599,9.00973],[118.063164,9.01001],[118.062714,9.01021],[118.062187,9.01028],[118.061638,9.01027],[118.06105,9.01021],[118.060493,9.00999],[118.060173,9.00982],[118.059929,9.0097],[118.059433,9.00934],[118.059128,9.00887],[118.05909,9.0088],[118.058884,9.00844],[118.05867,9.00804],[118.058578,9.00759],[118.05851,9.00714],[118.058571,9.0067],[118.058601,9.00625],[118.058617,9.00581],[118.058678,9.00539],[118.058838,9.00499],[118.058998,9.0046],[118.059143,9.00458],[118.059998,9.00444],[118.060837,9.00444],[118.061111,9.00417],[118.062767,9.00417],[118.063332,9.00361],[118.063606,9.00361],[118.064453,9.00278],[118.064453,9.0025],[118.06472,9.00222],[118.065002,9.00222],[118.065277,9.00194],[118.065552,9.00194],[118.066528,9.00097],[118.066597,9.00056],[118.066521,9.00028],[118.066673,9.0],[118.067421,8.99818],[118.067528,8.9978],[118.067528,8.99735],[118.067436,8.99686],[118.067322,8.99634],[118.067177,8.9958],[118.067093,8.99523],[118.066887,8.99473],[118.06662,8.99429],[118.066437,8.99404],[118.066307,8.99386],[118.066002,8.99348],[118.06572,8.99321],[118.065407,8.99309],[118.065079,8.99315],[118.064667,8.9933],[118.064209,8.99344],[118.063744,8.99349],[118.063278,8.99348],[118.062851,8.99341],[118.062447,8.99345],[118.062088,8.99362],[118.061836,8.99378],[118.061729,8.99386],[118.061363,8.99416],[118.060982,8.99451],[118.060623,8.99491],[118.06028,8.99536],[118.059914,8.99584],[118.059692,8.99608],[118.059479,8.99632],[118.058922,8.99666],[118.058273,8.99656],[118.057693,8.99631],[118.057167,8.99604],[118.056709,8.99574],[118.056396,8.99535],[118.056152,8.99496],[118.055969,8.99457],[118.055801,8.99421],[118.055588,8.99384],[118.055397,8.99338],[118.055237,8.9928],[118.055054,8.9922],[118.054916,8.99158],[118.055077,8.99092],[118.055397,8.99051],[118.055473,8.99043],[118.055923,8.99013],[118.056313,8.98999],[118.056641,8.98981],[118.056953,8.98965],[118.057243,8.98944],[118.057503,8.9892],[118.057693,8.98903],[118.057762,8.98895],[118.057999,8.98864],[118.058197,8.9883],[118.058403,8.98808],[118.058449,8.98804],[118.058563,8.98797],[118.058723,8.98786],[118.059029,8.9877],[118.059387,8.98752],[118.059776,8.98732],[118.06015,8.9871],[118.060257,8.987],[118.060417,8.98686],[118.060577,8.98662],[118.060623,8.98637],[118.060562,8.9861],[118.060417,8.98581],[118.060211,8.98552],[118.059967,8.98525],[118.059677,8.98503],[118.059357,8.98483],[118.059013,8.9846],[118.058609,8.98433],[118.058197,8.98398],[118.057823,8.98353],[118.057457,8.98306],[118.057098,8.9826],[118.056778,8.98213],[118.05648,8.9816],[118.056229,8.98103],[118.056084,8.98048],[118.056084,8.98024],[118.056084,8.98],[118.056137,8.9796],[118.056229,8.97925],[118.056267,8.97887],[118.056229,8.97845],[118.056122,8.97802],[118.055923,8.97761],[118.055687,8.97719],[118.055428,8.97674],[118.055122,8.97629],[118.054771,8.97588],[118.054337,8.97553],[118.054001,8.97513],[118.053726,8.97467],[118.05352,8.97416],[118.053322,8.97362],[118.053108,8.97304],[118.052917,8.97244],[118.052811,8.97184],[118.052742,8.97125],[118.052689,8.97072],[118.052597,8.97027],[118.052406,8.96994],[118.052116,8.96978],[118.05172,8.96977],[118.051277,8.96979],[118.050774,8.96978],[118.050194,8.96984],[118.049538,8.96988],[118.048882,8.96985],[118.048424,8.96991],[118.048233,8.96993],[118.04808,8.96998],[118.04718,8.9706],[118.04644,8.97213],[118.046516,8.97288],[118.046379,8.9747],[118.04599,8.97543],[118.045433,8.97562],[118.044449,8.97573],[118.043022,8.97609],[118.041893,8.97605],[118.041138,8.97584],[118.040916,8.97666],[118.040817,8.97701],[118.040001,8.97702],[118.039543,8.97714],[118.039139,8.97826],[118.038589,8.97918],[118.038223,8.97976],[118.038109,8.98024],[118.037216,8.98048],[118.036789,8.9806],[118.036377,8.98158],[118.035583,8.98259],[118.034714,8.98336],[118.034393,8.98396],[118.034126,8.98453],[118.033897,8.98465],[118.033859,8.9859],[118.033699,8.98684],[118.032806,8.98879],[118.031807,8.99036],[118.03093,8.99185],[118.030159,8.99319],[118.029083,8.99469],[118.027863,8.99586],[118.02533,8.99712],[118.024223,8.99827],[118.022583,8.99949],[118.02195,8.99928],[118.020737,9.00102],[118.01973,9.0013],[118.018044,9.00205],[118.016937,9.00336],[118.015938,9.00391],[118.013977,9.0054],[118.013657,9.00632],[118.012779,9.00733],[118.011581,9.00764],[118.010643,9.00785],[118.010292,9.00799],[117.918907,9.10327],[117.934967,9.1137],[117.952423,9.12731]]]]}}]}
