{"type":"FeatureCollection","features":[{"type":"Feature","properties":{"ID_0":177,"ISO":"PHL","NAME_0":"Philippines","ID_1":17053,"NAME_1":"Palawan","ID_2":1705315,"NAME_2":"Narra","ID_3":1705315001,"NAME_3":"Antipuluan","NL_NAME_3":null,"VARNAME_3":null,"TYPE_3":"Barangay","ENGTYPE_3":"Village","PROVINCE":"Palawan","REGION":"Mimaropa Region","id":"barangay-1705315001","name":"Antipuluan","barangayCode":"1705315001","population":null,"formattedPop":null,"densityCategory":"No data","vulnerabilityRating":"No data","healthRiskLevel":"No data","areaKm2":15.773985,"centerLat":9.290813,"centerLng":118.42278,"geometrySource":"all_barangay-2.csv detailed WKT","geometryMatchMethod":"unique_official_admin_names","boundaryPointCount":197},"geometry":{"type":"MultiPolygon","coordinates":[[[[118.44165,9.31868],[118.471008,9.30223],[118.470612,9.30222],[118.470154,9.30222],[118.469688,9.30222],[118.469208,9.30222],[118.468689,9.30217],[118.468147,9.30206],[118.46759,9.30194],[118.467033,9.3018],[118.466507,9.30168],[118.466042,9.30157],[118.465652,9.30139],[118.465271,9.3012],[118.464867,9.30099],[118.464417,9.3008],[118.463982,9.30056],[118.463531,9.30036],[118.463051,9.30024],[118.462646,9.3],[118.46225,9.29975],[118.461838,9.29948],[118.46138,9.29927],[118.460907,9.29907],[118.460533,9.29875],[118.460114,9.29843],[118.459679,9.29807],[118.459213,9.29777],[118.45874,9.29748],[118.458366,9.29715],[118.458054,9.29681],[118.457764,9.29649],[118.457443,9.29622],[118.457031,9.29603],[118.456688,9.29576],[118.456383,9.29546],[118.456047,9.29521],[118.45578,9.29494],[118.455544,9.29468],[118.455276,9.29444],[118.455002,9.29414],[118.454727,9.29378],[118.454407,9.29337],[118.453972,9.29304],[118.453522,9.29268],[118.453087,9.29225],[118.452721,9.29172],[118.452332,9.29122],[118.451973,9.29072],[118.451668,9.29024],[118.45137,9.28981],[118.45108,9.2894],[118.450798,9.289],[118.450493,9.28861],[118.450203,9.28822],[118.449997,9.28776],[118.449829,9.28729],[118.449539,9.28696],[118.449203,9.28669],[118.448914,9.28641],[118.448647,9.28609],[118.448387,9.28572],[118.448334,9.28555],[118.448196,9.28524],[118.44799,9.28469],[118.447647,9.28415],[118.447281,9.28358],[118.446953,9.283],[118.446663,9.28246],[118.446404,9.28199],[118.446167,9.28158],[118.446022,9.28117],[118.445824,9.28078],[118.44558,9.28039],[118.445381,9.27997],[118.445213,9.27953],[118.445,9.27912],[118.444801,9.27871],[118.444717,9.27833],[118.444168,9.27778],[118.442703,9.27576],[118.442413,9.27565],[118.442307,9.27562],[118.441963,9.27538],[118.441566,9.27538],[118.44117,9.27565],[118.440773,9.27606],[118.440498,9.27635],[118.440353,9.27651],[118.440086,9.27704],[118.44001,9.27762],[118.440041,9.27818],[118.440132,9.2786],[118.440147,9.27869],[118.440201,9.27917],[118.440018,9.2796],[118.439796,9.27998],[118.439507,9.28028],[118.439133,9.28056],[118.438667,9.28078],[118.438042,9.28084],[118.437347,9.28084],[118.436661,9.28084],[118.435982,9.28079],[118.43541,9.28056],[118.434883,9.28034],[118.434357,9.28033],[118.433907,9.28028],[118.433487,9.28016],[118.433037,9.27999],[118.432564,9.2798],[118.432022,9.27966],[118.431503,9.27943],[118.43103,9.27915],[118.430603,9.2788],[118.430206,9.27839],[118.429802,9.278],[118.429413,9.27758],[118.428993,9.27717],[118.428619,9.27671],[118.428146,9.27629],[118.427727,9.27576],[118.427261,9.27523],[118.426819,9.27466],[118.426514,9.27402],[118.42627,9.27338],[118.426193,9.2729],[118.426147,9.27267],[118.425827,9.27221],[118.425827,9.27179],[118.425598,9.27134],[118.425484,9.2708],[118.42527,9.27024],[118.425056,9.26968],[118.424957,9.26915],[118.42482,9.2687],[118.424728,9.26834],[118.424637,9.26802],[118.424469,9.26771],[118.424332,9.2674],[118.424171,9.26709],[118.424004,9.2668],[118.423767,9.26655],[118.423538,9.26631],[118.423286,9.26607],[118.423264,9.26604],[118.422997,9.26582],[118.422722,9.26556],[118.42244,9.2653],[118.422142,9.26506],[118.421799,9.26486],[118.421463,9.26464],[118.421173,9.26437],[118.420959,9.26407],[118.420914,9.26369],[118.420937,9.26346],[118.419456,9.26365],[118.418983,9.26442],[118.418388,9.26454],[118.41787,9.26406],[118.417374,9.26332],[118.417191,9.26354],[118.417053,9.26404],[118.416397,9.26398],[118.415863,9.26442],[118.415421,9.2649],[118.414131,9.26607],[118.414124,9.26719],[118.41317,9.26814],[118.412613,9.26814],[118.412216,9.26847],[118.412018,9.26879],[118.412376,9.26921],[118.412567,9.26975],[118.412216,9.27029],[118.411018,9.27],[118.410522,9.27026],[118.410049,9.27063],[118.409477,9.27022],[118.409248,9.27015],[118.409119,9.27045],[118.409317,9.27077],[118.409439,9.27148],[118.409271,9.27211],[118.408669,9.27285],[118.408119,9.27285],[118.408218,9.27382],[118.407639,9.27428],[118.407417,9.27497],[118.407066,9.27574],[118.406937,9.27613],[118.406479,9.2765],[118.3731,9.31626],[118.376099,9.32934],[118.378479,9.34229],[118.4347,9.30452],[118.44165,9.31868]]]]}},{"type":"Feature","properties":{"ID_0":177,"ISO":"PHL","NAME_0":"Philippines","ID_1":17053,"NAME_1":"Palawan","ID_2":1705315,"NAME_2":"Narra","ID_3":1705315002,"NAME_3":"Aramaywan","NL_NAME_3":null,"VARNAME_3":null,"TYPE_3":"Barangay","ENGTYPE_3":"Village","PROVINCE":"Palawan","REGION":"Mimaropa Region","id":"barangay-1705315002","name":"Aramaywan","barangayCode":"1705315002","population":null,"formattedPop":null,"densityCategory":"No data","vulnerabilityRating":"No data","healthRiskLevel":"No data","areaKm2":47.77881,"centerLat":9.222539,"centerLng":118.166067,"geometrySource":"all_barangay-2.csv detailed WKT","geometryMatchMethod":"unique_official_admin_names","boundaryPointCount":88},"geometry":{"type":"MultiPolygon","coordinates":[[[[118.141006,9.26101],[118.174637,9.28585],[118.196312,9.20937],[118.208397,9.16812],[118.207222,9.16694],[118.207222,9.16639],[118.206947,9.16611],[118.206947,9.16528],[118.206108,9.16444],[118.20472,9.16444],[118.204437,9.16417],[118.203613,9.16417],[118.203331,9.16389],[118.203056,9.16389],[118.202766,9.16361],[118.202499,9.16361],[118.202217,9.16389],[118.201668,9.16389],[118.199173,9.16139],[118.198891,9.16139],[118.197777,9.16028],[118.196953,9.15972],[118.196327,9.16009],[118.195839,9.16022],[118.195358,9.1603],[118.19487,9.16039],[118.194328,9.16064],[118.193733,9.16078],[118.193161,9.1607],[118.192757,9.16041],[118.192558,9.15999],[118.192451,9.15952],[118.192299,9.15905],[118.192001,9.15867],[118.19191,9.15858],[118.191643,9.15828],[118.191177,9.15789],[118.190689,9.15752],[118.190224,9.15713],[118.189873,9.15662],[118.189659,9.15599],[118.189438,9.15537],[118.189194,9.15479],[118.188873,9.15429],[118.188454,9.15392],[118.187981,9.15363],[118.187508,9.15342],[118.187019,9.15326],[118.186569,9.1531],[118.186081,9.15296],[118.18557,9.15277],[118.185043,9.15258],[118.184486,9.15243],[118.184021,9.15224],[118.183594,9.15207],[118.183189,9.15196],[118.182823,9.15187],[118.182518,9.15174],[118.182213,9.15168],[118.181877,9.15166],[118.181534,9.15166],[118.181152,9.15167],[118.180717,9.15169],[118.180237,9.15175],[118.179787,9.15188],[118.179283,9.15193],[118.178726,9.15192],[118.178421,9.15258],[118.170158,9.16969],[118.16935,9.16997],[118.168831,9.17054],[118.168167,9.17175],[118.168312,9.17229],[118.169006,9.17401],[118.167053,9.1769],[118.16761,9.1777],[118.167358,9.1785],[118.166183,9.17899],[118.165123,9.18093],[118.164238,9.18256],[118.163544,9.18348],[118.162842,9.18455],[118.162376,9.18497],[118.161491,9.18607],[118.16095,9.18641],[118.160683,9.18694],[118.160789,9.18791],[118.141006,9.26101]]]]}},{"type":"Feature","properties":{"ID_0":177,"ISO":"PHL","NAME_0":"Philippines","ID_1":17053,"NAME_1":"Palawan","ID_2":1705315,"NAME_2":"Narra","ID_3":1705315003,"NAME_3":"Batang-batang","NL_NAME_3":null,"VARNAME_3":null,"TYPE_3":"Barangay","ENGTYPE_3":"Village","PROVINCE":"Palawan","REGION":"Mimaropa Region","id":"barangay-1705315003","name":"Batang-batang","barangayCode":"1705315003","population":null,"formattedPop":null,"densityCategory":"No data","vulnerabilityRating":"No data","healthRiskLevel":"No data","areaKm2":12.561552,"centerLat":9.200261,"centerLng":118.341675,"geometrySource":"all_barangay-2.csv detailed WKT","geometryMatchMethod":"unique_official_admin_names","boundaryPointCount":114},"geometry":{"type":"MultiPolygon","coordinates":[[[[118.348137,9.222],[118.348373,9.18208],[118.348579,9.18191],[118.348343,9.18167],[118.348343,9.18139],[118.348053,9.18111],[118.347839,9.18095],[118.347778,9.1809],[118.347229,9.18083],[118.346657,9.18028],[118.346657,9.18],[118.34639,9.17972],[118.34639,9.17944],[118.345657,9.17871],[118.345558,9.17861],[118.345284,9.17861],[118.345093,9.17843],[118.344719,9.17806],[118.344437,9.17806],[118.34417,9.17778],[118.344078,9.17778],[118.343887,9.17778],[118.343613,9.17806],[118.342781,9.17806],[118.342499,9.17799],[118.341942,9.17833],[118.34185,9.17833],[118.341667,9.17833],[118.341393,9.17861],[118.341179,9.17861],[118.34111,9.17861],[118.340927,9.17858],[118.340378,9.17877],[118.339813,9.17887],[118.339233,9.17889],[118.338654,9.17889],[118.338081,9.17884],[118.337563,9.17865],[118.337051,9.17852],[118.336609,9.17832],[118.336487,9.17824],[118.336197,9.17806],[118.335808,9.1778],[118.335373,9.1776],[118.334923,9.1774],[118.334488,9.17715],[118.334061,9.17684],[118.333633,9.17652],[118.333221,9.17618],[118.332764,9.1759],[118.332336,9.17566],[118.331947,9.17545],[118.331657,9.17528],[118.33139,9.17528],[118.331146,9.17552],[118.331108,9.17556],[118.330833,9.17556],[118.330559,9.17528],[118.330002,9.17528],[118.329437,9.17472],[118.329437,9.17444],[118.329247,9.17425],[118.32917,9.17417],[118.329079,9.17417],[118.328827,9.17417],[118.328056,9.17417],[118.327744,9.17448],[118.32827,9.17502],[118.32843,9.17562],[118.327904,9.17657],[118.327072,9.17727],[118.326271,9.17818],[118.325783,9.17882],[118.325043,9.17995],[118.32515,9.18093],[118.325218,9.18171],[118.3255,9.18248],[118.326157,9.18253],[118.327347,9.18264],[118.327988,9.18267],[118.328377,9.18303],[118.328438,9.18455],[118.327759,9.18566],[118.327026,9.18686],[118.326942,9.18797],[118.32711,9.18878],[118.327179,9.18921],[118.326897,9.18941],[118.326347,9.18955],[118.325844,9.18973],[118.325951,9.19033],[118.326622,9.19103],[118.326874,9.19126],[118.327171,9.19155],[118.327454,9.19189],[118.327713,9.19318],[118.328209,9.19457],[118.328781,9.19514],[118.329391,9.1956],[118.329918,9.19622],[118.329773,9.19695],[118.329536,9.19722],[118.329567,9.19813],[118.329849,9.19888],[118.330597,9.20026],[118.330902,9.20155],[118.330597,9.20343],[118.330292,9.20524],[118.329758,9.20682],[118.329369,9.20769],[118.329308,9.20844],[118.328827,9.21351],[118.32798,9.21585],[118.348137,9.222]]]]}},{"type":"Feature","properties":{"ID_0":177,"ISO":"PHL","NAME_0":"Philippines","ID_1":17053,"NAME_1":"Palawan","ID_2":1705315,"NAME_2":"Narra","ID_3":1705315004,"NAME_3":"Bato-bato","NL_NAME_3":null,"VARNAME_3":null,"TYPE_3":"Barangay","ENGTYPE_3":"Village","PROVINCE":"Palawan","REGION":"Mimaropa Region","id":"barangay-1705315004","name":"Bato-bato","barangayCode":"1705315004","population":null,"formattedPop":null,"densityCategory":"No data","vulnerabilityRating":"No data","healthRiskLevel":"No data","areaKm2":131.581753,"centerLat":9.255664,"centerLng":118.261491,"geometrySource":"all_barangay-2.csv detailed WKT","geometryMatchMethod":"unique_official_admin_names","boundaryPointCount":271},"geometry":{"type":"MultiPolygon","coordinates":[[[[118.241829,9.33516],[118.251312,9.31455],[118.251389,9.31365],[118.251556,9.31171],[118.251717,9.31093],[118.25238,9.31005],[118.253059,9.30939],[118.253548,9.30818],[118.254051,9.30707],[118.254639,9.3062],[118.254753,9.30547],[118.254349,9.30459],[118.254448,9.3037],[118.25502,9.30361],[118.255569,9.30335],[118.256416,9.30216],[118.257042,9.30203],[118.25824,9.30162],[118.258324,9.3007],[118.258179,9.29998],[118.258438,9.29894],[118.25885,9.29863],[118.259171,9.29767],[118.259109,9.29683],[118.2593,9.29591],[118.259789,9.29492],[118.260094,9.29441],[118.260406,9.2939],[118.261124,9.29333],[118.264816,9.28482],[118.273003,9.26721],[118.284973,9.24064],[118.285873,9.24072],[118.28685,9.24033],[118.288254,9.23931],[118.289253,9.23862],[118.290154,9.23765],[118.291077,9.23592],[118.292732,9.23086],[118.293037,9.23063],[118.29364,9.22962],[118.293938,9.22861],[118.294594,9.22674],[118.296143,9.22462],[118.297684,9.22397],[118.29985,9.22363],[118.301788,9.22343],[118.303017,9.22267],[118.304008,9.22137],[118.305069,9.2205],[118.306877,9.21929],[118.307617,9.21827],[118.308693,9.21628],[118.30864,9.21501],[118.308113,9.21346],[118.308037,9.21207],[118.308693,9.21041],[118.308792,9.2093],[118.309288,9.20825],[118.310387,9.20812],[118.31118,9.20836],[118.311707,9.20768],[118.312241,9.20677],[118.31221,9.2058],[118.31105,9.20503],[118.310341,9.20384],[118.310654,9.2016],[118.311813,9.19927],[118.311699,9.19865],[118.311478,9.19822],[118.310623,9.19714],[118.310043,9.19645],[118.30899,9.1953],[118.308884,9.1943],[118.308807,9.19371],[118.308693,9.19282],[118.308144,9.1915],[118.307617,9.19086],[118.307022,9.18973],[118.306961,9.18892],[118.307518,9.18901],[118.308296,9.18853],[118.308487,9.18771],[118.308441,9.18695],[118.308731,9.18602],[118.310669,9.1855],[118.310593,9.18653],[118.311661,9.187],[118.311996,9.18681],[118.312393,9.18649],[118.312752,9.18636],[118.313583,9.18584],[118.314377,9.1854],[118.314743,9.18467],[118.315086,9.18403],[118.315659,9.1834],[118.31575,9.1826],[118.315659,9.18152],[118.314743,9.18091],[118.314232,9.18062],[118.314133,9.18031],[118.313332,9.18111],[118.310837,9.18111],[118.310547,9.18139],[118.309998,9.18139],[118.309723,9.18167],[118.308609,9.18167],[118.307938,9.1823],[118.307793,9.18243],[118.307503,9.18255],[118.307243,9.18269],[118.30703,9.18264],[118.30674,9.18261],[118.305557,9.1825],[118.304039,9.1825],[118.30349,9.18248],[118.302071,9.18247],[118.301727,9.18259],[118.301392,9.18274],[118.301018,9.18278],[118.300552,9.18278],[118.300278,9.18278],[118.300003,9.1825],[118.299454,9.1825],[118.298683,9.18271],[118.297081,9.18264],[118.296387,9.1825],[118.295349,9.1825],[118.294724,9.18243],[118.294144,9.1822],[118.293587,9.18195],[118.293068,9.18172],[118.292557,9.18162],[118.292122,9.18144],[118.29171,9.1813],[118.291313,9.18117],[118.29084,9.18118],[118.290314,9.18133],[118.28978,9.18132],[118.289284,9.18115],[118.288803,9.181],[118.288383,9.18083],[118.287971,9.18063],[118.287521,9.18047],[118.287048,9.18029],[118.286522,9.18014],[118.286011,9.17999],[118.285507,9.17983],[118.285004,9.17972],[118.284538,9.17959],[118.284149,9.17941],[118.283791,9.17918],[118.28344,9.17899],[118.283081,9.17879],[118.282707,9.17856],[118.282257,9.17834],[118.281738,9.17815],[118.281128,9.17805],[118.280502,9.17797],[118.279907,9.17784],[118.279747,9.17784],[118.279381,9.17783],[118.278923,9.1778],[118.278488,9.17776],[118.278107,9.17767],[118.277733,9.17755],[118.277328,9.1775],[118.276909,9.17746],[118.276512,9.17735],[118.276176,9.17725],[118.276123,9.17723],[118.275719,9.17716],[118.275307,9.17718],[118.275253,9.17719],[118.27494,9.17721],[118.274567,9.17722],[118.274193,9.17721],[118.273743,9.17714],[118.273277,9.17694],[118.272812,9.17672],[118.272339,9.17658],[118.271942,9.17644],[118.271553,9.17639],[118.271149,9.17638],[118.270729,9.17632],[118.270271,9.17618],[118.269783,9.17618],[118.269287,9.17633],[118.268768,9.17637],[118.268227,9.17631],[118.267723,9.1761],[118.26725,9.17583],[118.266853,9.17557],[118.266472,9.17535],[118.266083,9.17522],[118.265732,9.17503],[118.265373,9.17481],[118.265244,9.17471],[118.265007,9.17454],[118.264633,9.17422],[118.264381,9.17403],[118.264214,9.17391],[118.263786,9.17365],[118.263603,9.17358],[118.263359,9.17348],[118.26297,9.17331],[118.262604,9.17312],[118.262177,9.17299],[118.261757,9.17283],[118.261337,9.17274],[118.260933,9.17261],[118.260513,9.1725],[118.260071,9.17238],[118.259644,9.17217],[118.259216,9.1719],[118.258812,9.17161],[118.258377,9.17134],[118.257988,9.17105],[118.257607,9.17071],[118.257263,9.17033],[118.256889,9.16999],[118.256416,9.16973],[118.25592,9.16956],[118.255753,9.16956],[118.255058,9.17112],[118.254478,9.17316],[118.253578,9.17417],[118.252792,9.17543],[118.252182,9.17645],[118.251297,9.1785],[118.251106,9.17954],[118.251221,9.18095],[118.251518,9.1819],[118.252632,9.18389],[118.253281,9.18561],[118.253304,9.18647],[118.253059,9.18705],[118.252541,9.18838],[118.2519,9.18953],[118.251457,9.19029],[118.250839,9.1915],[118.249962,9.19311],[118.249191,9.19468],[118.249138,9.19552],[118.248627,9.19736],[118.248543,9.19885],[118.248047,9.19966],[118.247337,9.20087],[118.247269,9.20281],[118.24749,9.20423],[118.247871,9.20522],[118.248177,9.20615],[118.247818,9.2072],[118.247108,9.20755],[118.246567,9.20769],[118.246109,9.20825],[118.245689,9.209],[118.245323,9.20984],[118.244308,9.2109],[118.243553,9.21144],[118.242867,9.21218],[118.242439,9.2138],[118.241943,9.2156],[118.242073,9.21673],[118.242416,9.21757],[118.243217,9.21872],[118.243843,9.21982],[118.244011,9.22125],[118.244148,9.22193],[118.213242,9.31426],[118.241829,9.33516]]]]}},{"type":"Feature","properties":{"ID_0":177,"ISO":"PHL","NAME_0":"Philippines","ID_1":17053,"NAME_1":"Palawan","ID_2":1705315,"NAME_2":"Narra","ID_3":1705315005,"NAME_3":"Burirao","NL_NAME_3":null,"VARNAME_3":null,"TYPE_3":"Barangay","ENGTYPE_3":"Village","PROVINCE":"Palawan","REGION":"Mimaropa Region","id":"barangay-1705315005","name":"Burirao","barangayCode":"1705315005","population":null,"formattedPop":null,"densityCategory":"No data","vulnerabilityRating":"No data","healthRiskLevel":"No data","areaKm2":22.430542,"centerLat":9.179262,"centerLng":118.124484,"geometrySource":"all_barangay-2.csv detailed WKT","geometryMatchMethod":"unique_official_admin_names","boundaryPointCount":34},"geometry":{"type":"MultiPolygon","coordinates":[[[[118.076576,9.21475],[118.110336,9.23925],[118.160591,9.14804],[118.16114,9.14789],[118.160751,9.14766],[118.160339,9.14732],[118.159981,9.14703],[118.15963,9.14684],[118.159279,9.14671],[118.158897,9.14667],[118.158691,9.14667],[118.158501,9.14666],[118.158073,9.14669],[118.157639,9.14676],[118.157188,9.1469],[118.156647,9.14702],[118.156067,9.14722],[118.155457,9.1474],[118.1548,9.1474],[118.154503,9.14729],[118.154266,9.1472],[118.153893,9.14693],[118.153603,9.14662],[118.15332,9.14628],[118.153023,9.14592],[118.15271,9.14555],[118.152412,9.14515],[118.152161,9.14469],[118.151917,9.14417],[118.151947,9.14359],[118.152023,9.1431],[118.151199,9.14401],[118.151077,9.14412],[118.076576,9.21475]]]]}},{"type":"Feature","properties":{"ID_0":177,"ISO":"PHL","NAME_0":"Philippines","ID_1":17053,"NAME_1":"Palawan","ID_2":1705315,"NAME_2":"Narra","ID_3":1705315006,"NAME_3":"Caguisan","NL_NAME_3":null,"VARNAME_3":null,"TYPE_3":"Barangay","ENGTYPE_3":"Village","PROVINCE":"Palawan","REGION":"Mimaropa Region","id":"barangay-1705315006","name":"Caguisan","barangayCode":"1705315006","population":null,"formattedPop":null,"densityCategory":"No data","vulnerabilityRating":"No data","healthRiskLevel":"No data","areaKm2":11.454712,"centerLat":9.221629,"centerLng":118.36471,"geometrySource":"all_barangay-2.csv detailed WKT","geometryMatchMethod":"unique_official_admin_names","boundaryPointCount":333},"geometry":{"type":"MultiPolygon","coordinates":[[[[118.381706,9.20179],[118.381317,9.20179],[118.380829,9.20198],[118.380363,9.20232],[118.379921,9.20276],[118.379517,9.20324],[118.379272,9.20382],[118.379181,9.20446],[118.379173,9.20507],[118.379204,9.2056],[118.379356,9.20609],[118.379677,9.20654],[118.380241,9.20677],[118.380829,9.20663],[118.381363,9.20634],[118.381844,9.20599],[118.382217,9.20553],[118.38253,9.20496],[118.38279,9.20435],[118.383003,9.20373],[118.382957,9.2031],[118.382591,9.20254],[118.382309,9.2023],[118.382011,9.20206],[118.381706,9.20179]]],[[[118.38623,9.21863],[118.386032,9.21836],[118.385689,9.21837],[118.38559,9.21838],[118.384979,9.21874],[118.384453,9.21917],[118.384453,9.21944],[118.384163,9.21972],[118.384163,9.22056],[118.384453,9.22083],[118.384727,9.22084],[118.384804,9.22091],[118.385277,9.22139],[118.385834,9.22083],[118.385834,9.22056],[118.386108,9.22028],[118.386108,9.22],[118.386391,9.21972],[118.386574,9.21914],[118.38623,9.21863]]],[[[118.389999,9.22944],[118.390266,9.22917],[118.390556,9.22917],[118.390839,9.22889],[118.391144,9.22858],[118.391388,9.22833],[118.391388,9.22778],[118.390556,9.22694],[118.390266,9.22667],[118.389977,9.22669],[118.389427,9.22723],[118.389168,9.2275],[118.389168,9.22778],[118.388893,9.22806],[118.388893,9.22833],[118.389168,9.22861],[118.389168,9.22889],[118.389717,9.22944],[118.389999,9.22944]]],[[[118.388817,9.23822],[118.389748,9.2376],[118.390762,9.23701],[118.391449,9.23672],[118.393066,9.23736],[118.393501,9.23631],[118.393417,9.23618],[118.393356,9.23593],[118.393341,9.23572],[118.393333,9.23551],[118.393257,9.235],[118.392883,9.23449],[118.392357,9.23409],[118.391853,9.23399],[118.391457,9.23417],[118.391083,9.23442],[118.390663,9.23458],[118.390228,9.23453],[118.389793,9.23439],[118.389389,9.23412],[118.389107,9.23369],[118.388817,9.23325],[118.388649,9.2328],[118.388649,9.23228],[118.388733,9.23175],[118.388557,9.23119],[118.388161,9.23073],[118.387604,9.23044],[118.3871,9.23013],[118.387001,9.23004],[118.386703,9.22979],[118.386391,9.22944],[118.386169,9.22909],[118.386124,9.22872],[118.386124,9.22859],[118.386124,9.22839],[118.386223,9.22813],[118.386391,9.22789],[118.38662,9.22764],[118.386871,9.22731],[118.387207,9.22697],[118.387672,9.22666],[118.388161,9.22631],[118.38855,9.22583],[118.388733,9.22524],[118.388603,9.2247],[118.388313,9.22422],[118.387932,9.22377],[118.387451,9.22346],[118.387016,9.22359],[118.386673,9.22389],[118.386673,9.22419],[118.386673,9.22444],[118.386391,9.22472],[118.386391,9.225],[118.386307,9.22509],[118.385834,9.22556],[118.385834,9.22583],[118.384773,9.22689],[118.384453,9.22722],[118.384163,9.22722],[118.383888,9.22694],[118.383614,9.22694],[118.383331,9.22667],[118.383057,9.22667],[118.382668,9.22628],[118.3825,9.22611],[118.381943,9.22611],[118.381668,9.22583],[118.381668,9.22556],[118.381943,9.22528],[118.382217,9.22486],[118.382767,9.22472],[118.383057,9.22444],[118.382767,9.22417],[118.382767,9.22389],[118.3825,9.22361],[118.3825,9.22278],[118.382103,9.22238],[118.381668,9.22194],[118.381393,9.22222],[118.380836,9.22222],[118.380547,9.2225],[118.380386,9.2225],[118.38028,9.2225],[118.380058,9.22272],[118.379997,9.22278],[118.379723,9.22278],[118.379448,9.2225],[118.379173,9.2225],[118.377502,9.22083],[118.377502,9.22056],[118.377617,9.21995],[118.379044,9.21846],[118.379807,9.21859],[118.38015,9.21817],[118.38028,9.21778],[118.38028,9.21667],[118.379997,9.21639],[118.379997,9.21611],[118.379448,9.21556],[118.379173,9.21556],[118.378891,9.21528],[118.378807,9.21522],[118.378372,9.21502],[118.377922,9.21487],[118.377419,9.21501],[118.376953,9.21529],[118.376869,9.21536],[118.376587,9.21561],[118.376556,9.21563],[118.376534,9.21569],[118.376343,9.216],[118.376122,9.21632],[118.375908,9.2166],[118.37571,9.21692],[118.375664,9.21698],[118.375443,9.21722],[118.375107,9.2175],[118.374901,9.2176],[118.374718,9.2177],[118.374199,9.2176],[118.373703,9.21736],[118.373329,9.217],[118.373047,9.21666],[118.372917,9.21635],[118.372993,9.21627],[118.373161,9.21606],[118.373337,9.21556],[118.373894,9.21556],[118.375,9.21444],[118.375,9.21417],[118.375557,9.21361],[118.375557,9.21278],[118.375267,9.2125],[118.375267,9.21222],[118.374443,9.21139],[118.374168,9.21139],[118.373894,9.21111],[118.373337,9.21111],[118.37326,9.21118],[118.373047,9.21139],[118.372551,9.21139],[118.372498,9.21139],[118.372398,9.21149],[118.371674,9.21222],[118.371628,9.21226],[118.371109,9.21278],[118.371109,9.21306],[118.370552,9.21361],[118.370277,9.21361],[118.369797,9.21408],[118.36972,9.21417],[118.369164,9.21417],[118.368874,9.21386],[118.368607,9.21361],[118.368332,9.21361],[118.367233,9.2125],[118.366943,9.2125],[118.366669,9.21222],[118.366386,9.21222],[118.366112,9.21194],[118.365547,9.21194],[118.364166,9.21056],[118.363892,9.21056],[118.362503,9.20917],[118.362503,9.20861],[118.362778,9.20833],[118.362778,9.20778],[118.363052,9.2075],[118.363052,9.20639],[118.363327,9.20611],[118.363327,9.20472],[118.363609,9.20445],[118.363609,9.20333],[118.363327,9.20306],[118.363327,9.20278],[118.363243,9.20268],[118.362778,9.20222],[118.362778,9.20194],[118.362221,9.20139],[118.362221,9.2012],[118.362221,9.20056],[118.362503,9.20028],[118.362503,9.2],[118.364441,9.19806],[118.364441,9.19778],[118.364723,9.1975],[118.364723,9.19722],[118.364998,9.19694],[118.364998,9.19667],[118.364723,9.19639],[118.364723,9.19583],[118.364441,9.19556],[118.364441,9.19528],[118.363327,9.19417],[118.363136,9.19417],[118.363052,9.19417],[118.362778,9.19444],[118.362503,9.19444],[118.362221,9.19472],[118.361954,9.19472],[118.361389,9.19528],[118.361107,9.19528],[118.360832,9.19556],[118.360283,9.19556],[118.35778,9.19306],[118.35778,9.19278],[118.358063,9.19249],[118.358612,9.19194],[118.358887,9.19194],[118.360001,9.19083],[118.360001,9.18972],[118.359444,9.18917],[118.359444,9.18889],[118.358887,9.18833],[118.358566,9.18833],[118.35833,9.18833],[118.358063,9.18806],[118.35778,9.18806],[118.357224,9.1875],[118.356667,9.1875],[118.356392,9.18778],[118.35611,9.18778],[118.355827,9.18806],[118.355553,9.18806],[118.355278,9.18833],[118.354721,9.18833],[118.354446,9.18806],[118.354156,9.18806],[118.353889,9.18778],[118.353653,9.18776],[118.353333,9.1875],[118.351387,9.18556],[118.351387,9.18526],[118.351387,9.185],[118.351112,9.18472],[118.351112,9.18389],[118.35083,9.18361],[118.35083,9.18333],[118.350563,9.18306],[118.349998,9.18306],[118.349747,9.18281],[118.349716,9.18278],[118.349442,9.18278],[118.348579,9.18191],[118.348373,9.18208],[118.348137,9.222],[118.347672,9.22829],[118.378464,9.23759],[118.380089,9.23793],[118.380493,9.23764],[118.380959,9.23767],[118.38118,9.23843],[118.38131,9.23909],[118.382057,9.23959],[118.382782,9.23983],[118.383568,9.24025],[118.384377,9.24069],[118.384979,9.24088],[118.385712,9.24138],[118.386147,9.24163],[118.387001,9.24119],[118.387421,9.24106],[118.388252,9.24063],[118.388702,9.24037],[118.388763,9.24005],[118.388351,9.23915],[118.388817,9.23822]]]]}},{"type":"Feature","properties":{"ID_0":177,"ISO":"PHL","NAME_0":"Philippines","ID_1":17053,"NAME_1":"Palawan","ID_2":1705315,"NAME_2":"Narra","ID_3":1705315007,"NAME_3":"Calategas","NL_NAME_3":null,"VARNAME_3":null,"TYPE_3":"Barangay","ENGTYPE_3":"Village","PROVINCE":"Palawan","REGION":"Mimaropa Region","id":"barangay-1705315007","name":"Calategas","barangayCode":"1705315007","population":null,"formattedPop":null,"densityCategory":"No data","vulnerabilityRating":"No data","healthRiskLevel":"No data","areaKm2":93.785282,"centerLat":9.229497,"centerLng":118.207636,"geometrySource":"all_barangay-2.csv detailed WKT","geometryMatchMethod":"unique_official_admin_names","boundaryPointCount":166},"geometry":{"type":"MultiPolygon","coordinates":[[[[118.213242,9.31426],[118.244148,9.22193],[118.244011,9.22125],[118.243843,9.21982],[118.243217,9.21872],[118.242416,9.21757],[118.242073,9.21673],[118.241943,9.2156],[118.242439,9.2138],[118.242867,9.21218],[118.243553,9.21144],[118.244308,9.2109],[118.245323,9.20984],[118.245689,9.209],[118.246109,9.20825],[118.246567,9.20769],[118.247108,9.20755],[118.247818,9.2072],[118.248177,9.20615],[118.247871,9.20522],[118.24749,9.20423],[118.247269,9.20281],[118.247337,9.20087],[118.248047,9.19966],[118.248543,9.19885],[118.248627,9.19736],[118.249138,9.19552],[118.249191,9.19468],[118.249962,9.19311],[118.250839,9.1915],[118.251457,9.19029],[118.2519,9.18953],[118.252541,9.18838],[118.253059,9.18705],[118.253304,9.18647],[118.253281,9.18561],[118.252632,9.18389],[118.251518,9.1819],[118.251221,9.18095],[118.251106,9.17954],[118.251297,9.1785],[118.252182,9.17645],[118.252792,9.17543],[118.253578,9.17417],[118.254478,9.17316],[118.255058,9.17112],[118.255753,9.16956],[118.255371,9.16956],[118.254807,9.16948],[118.25425,9.16939],[118.253723,9.16919],[118.253166,9.16899],[118.252647,9.16876],[118.252121,9.16853],[118.251556,9.16831],[118.250992,9.16802],[118.250427,9.16766],[118.249847,9.16728],[118.249367,9.16683],[118.24884,9.16644],[118.248253,9.16612],[118.247673,9.16584],[118.247101,9.1656],[118.246536,9.16544],[118.24601,9.16537],[118.245537,9.16537],[118.245171,9.16525],[118.24482,9.16511],[118.244438,9.16503],[118.244034,9.165],[118.243591,9.165],[118.243118,9.165],[118.242622,9.16497],[118.242142,9.16489],[118.241676,9.16477],[118.241226,9.16472],[118.240799,9.1647],[118.240387,9.16463],[118.23999,9.16454],[118.239594,9.16459],[118.239189,9.16465],[118.238823,9.1646],[118.238457,9.16449],[118.238113,9.16444],[118.237732,9.16439],[118.237343,9.16424],[118.236954,9.164],[118.236458,9.16389],[118.235924,9.16382],[118.235397,9.16366],[118.234947,9.16342],[118.23452,9.16321],[118.234108,9.16301],[118.233658,9.16287],[118.233131,9.16288],[118.232552,9.16286],[118.232033,9.16263],[118.231552,9.16236],[118.231087,9.16208],[118.230637,9.16187],[118.230186,9.16171],[118.229698,9.16161],[118.22921,9.16146],[118.228706,9.1613],[118.228233,9.1611],[118.227814,9.16087],[118.22744,9.16063],[118.227081,9.16041],[118.226707,9.1602],[118.226349,9.15997],[118.226013,9.15971],[118.225632,9.15944],[118.225197,9.15917],[118.224716,9.15891],[118.224213,9.15869],[118.223763,9.15844],[118.223389,9.15816],[118.223061,9.15785],[118.222717,9.15757],[118.222359,9.15737],[118.221977,9.15724],[118.221603,9.15719],[118.221542,9.1572],[118.221184,9.15723],[118.220749,9.15736],[118.22036,9.1577],[118.220047,9.15822],[118.219963,9.15887],[118.219902,9.15951],[118.220001,9.16],[118.220001,9.16056],[118.220284,9.16083],[118.220284,9.16139],[118.219719,9.16194],[118.219719,9.16222],[118.218887,9.16306],[118.218887,9.16333],[118.217781,9.16444],[118.217781,9.16528],[118.217499,9.16556],[118.217499,9.16639],[118.216942,9.16694],[118.216942,9.16765],[118.216942,9.16778],[118.21611,9.16861],[118.215553,9.16861],[118.215279,9.16889],[118.214447,9.16889],[118.213608,9.16972],[118.212784,9.16889],[118.212502,9.16889],[118.212219,9.16861],[118.211388,9.16861],[118.211113,9.16833],[118.210831,9.16833],[118.210564,9.16861],[118.209999,9.16861],[118.209717,9.16889],[118.209442,9.16861],[118.209167,9.16861],[118.208893,9.16833],[118.208611,9.16833],[118.208397,9.16812],[118.196312,9.20937],[118.174637,9.28585],[118.213242,9.31426]]]]}},{"type":"Feature","properties":{"ID_0":177,"ISO":"PHL","NAME_0":"Philippines","ID_1":17053,"NAME_1":"Palawan","ID_2":1705315,"NAME_2":"Narra","ID_3":1705315008,"NAME_3":"Dumagueña","NL_NAME_3":null,"VARNAME_3":"Dumaguena","TYPE_3":"Barangay","ENGTYPE_3":"Village","PROVINCE":"Palawan","REGION":"Mimaropa Region","id":"barangay-1705315008","name":"Dumagueña","barangayCode":"1705315008","population":null,"formattedPop":null,"densityCategory":"No data","vulnerabilityRating":"No data","healthRiskLevel":"No data","areaKm2":15.165609,"centerLat":9.418388,"centerLng":118.424448,"geometrySource":"barangays.geojson simplified fallback","geometryMatchMethod":"simplified_fallback","boundaryPointCount":7},"geometry":{"type":"Polygon","coordinates":[[[118.42314410200004,9.441752691000033],[118.42321773700007,9.43324278700004],[118.45048029600002,9.418269047000024],[118.43089534600006,9.38921343000004],[118.41053015500006,9.410103096000057],[118.40096175700012,9.434552564000057],[118.42314410200004,9.441752691000033]]]}},{"type":"Feature","properties":{"ID_0":177,"ISO":"PHL","NAME_0":"Philippines","ID_1":17053,"NAME_1":"Palawan","ID_2":1705315,"NAME_2":"Narra","ID_3":1705315009,"NAME_3":"Elvita","NL_NAME_3":null,"VARNAME_3":null,"TYPE_3":"Barangay","ENGTYPE_3":"Village","PROVINCE":"Palawan","REGION":"Mimaropa Region","id":"barangay-1705315009","name":"Elvita","barangayCode":"1705315009","population":null,"formattedPop":null,"densityCategory":"No data","vulnerabilityRating":"No data","healthRiskLevel":"No data","areaKm2":25.438682,"centerLat":9.364307,"centerLng":118.37802,"geometrySource":"all_barangay-2.csv detailed WKT","geometryMatchMethod":"unique_official_admin_names","boundaryPointCount":6},"geometry":{"type":"MultiPolygon","coordinates":[[[[118.314537,9.4047],[118.326447,9.42127],[118.44165,9.31868],[118.4347,9.30452],[118.378479,9.34229],[118.314537,9.4047]]]]}},{"type":"Feature","properties":{"ID_0":177,"ISO":"PHL","NAME_0":"Philippines","ID_1":17053,"NAME_1":"Palawan","ID_2":1705315,"NAME_2":"Narra","ID_3":1705315010,"NAME_3":"Estrella Village","NL_NAME_3":null,"VARNAME_3":null,"TYPE_3":"Barangay","ENGTYPE_3":"Village","PROVINCE":"Palawan","REGION":"Mimaropa Region","id":"barangay-1705315010","name":"Estrella Village","barangayCode":"1705315010","population":null,"formattedPop":null,"densityCategory":"No data","vulnerabilityRating":"No data","healthRiskLevel":"No data","areaKm2":32.167828,"centerLat":9.383754,"centerLng":118.415439,"geometrySource":"all_barangay-2.csv detailed WKT","geometryMatchMethod":"unique_official_admin_names","boundaryPointCount":16},"geometry":{"type":"MultiPolygon","coordinates":[[[[118.349937,9.45304],[118.418404,9.38725],[118.443062,9.36301],[118.444252,9.36149],[118.446037,9.35998],[118.446312,9.35872],[118.445549,9.35677],[118.444817,9.35391],[118.445488,9.35109],[118.446167,9.34893],[118.446083,9.34679],[118.446312,9.3453],[118.443748,9.34279],[118.416451,9.36835],[118.337982,9.43664],[118.349937,9.45304]]]]}},{"type":"Feature","properties":{"ID_0":177,"ISO":"PHL","NAME_0":"Philippines","ID_1":17053,"NAME_1":"Palawan","ID_2":1705315,"NAME_2":"Narra","ID_3":1705315011,"NAME_3":"Ipilan","NL_NAME_3":null,"VARNAME_3":null,"TYPE_3":"Barangay","ENGTYPE_3":"Village","PROVINCE":"Palawan","REGION":"Mimaropa Region","id":"barangay-1705315011","name":"Ipilan","barangayCode":"1705315011","population":null,"formattedPop":null,"densityCategory":"No data","vulnerabilityRating":"No data","healthRiskLevel":"No data","areaKm2":16.548432,"centerLat":9.175935,"centerLng":118.101203,"geometrySource":"all_barangay-2.csv detailed WKT","geometryMatchMethod":"unique_official_admin_names","boundaryPointCount":229},"geometry":{"type":"MultiPolygon","coordinates":[[[[118.159157,9.11333],[118.158333,9.11333],[118.158333,9.11361],[118.157784,9.11389],[118.156937,9.11417],[118.156937,9.11472],[118.157219,9.11472],[118.159157,9.11444],[118.159447,9.11417],[118.159447,9.11389],[118.159157,9.11361],[118.159157,9.11333]]],[[[118.163467,9.121],[118.163193,9.12093],[118.16275,9.12106],[118.162209,9.12117],[118.161667,9.12139],[118.161133,9.12165],[118.160583,9.12191],[118.16011,9.12224],[118.159737,9.12264],[118.159439,9.12313],[118.159157,9.12365],[118.158943,9.12418],[118.158989,9.12475],[118.159363,9.12525],[118.159554,9.12538],[118.159882,9.12563],[118.160492,9.12572],[118.160843,9.12582],[118.160988,9.12586],[118.161369,9.12608],[118.161697,9.1263],[118.162064,9.12649],[118.16246,9.12662],[118.162903,9.1266],[118.163292,9.12641],[118.163612,9.12611],[118.163857,9.12581],[118.164047,9.1255],[118.164177,9.12516],[118.164337,9.12479],[118.164413,9.12437],[118.164383,9.1239],[118.1642,9.12343],[118.164108,9.12294],[118.164253,9.12248],[118.164383,9.12201],[118.164268,9.12155],[118.163773,9.12116],[118.163467,9.121]]],[[[118.171059,9.13008],[118.170517,9.13004],[118.169907,9.1301],[118.16938,9.13029],[118.168922,9.13054],[118.168579,9.13086],[118.168381,9.13123],[118.16832,9.13167],[118.168228,9.13213],[118.168053,9.13259],[118.167953,9.13303],[118.168373,9.13346],[118.168938,9.1338],[118.169563,9.13394],[118.170143,9.1341],[118.170708,9.13416],[118.171257,9.13419],[118.171783,9.13423],[118.172249,9.13416],[118.172653,9.13403],[118.17292,9.13379],[118.173058,9.13351],[118.173172,9.13325],[118.173286,9.13299],[118.173317,9.13268],[118.173279,9.13233],[118.17308,9.13198],[118.172813,9.13168],[118.172546,9.1314],[118.172256,9.13111],[118.171921,9.1308],[118.171516,9.13042],[118.171349,9.13024],[118.171059,9.13008]]],[[[118.076576,9.21475],[118.151077,9.14412],[118.151199,9.14401],[118.152023,9.1431],[118.152023,9.14304],[118.152168,9.14258],[118.152229,9.14212],[118.152313,9.1417],[118.152542,9.14135],[118.15284,9.14104],[118.153137,9.14072],[118.153389,9.14034],[118.153603,9.13995],[118.153664,9.13979],[118.153748,9.13958],[118.153877,9.13922],[118.15403,9.13887],[118.153923,9.13853],[118.153702,9.13818],[118.153381,9.13783],[118.153,9.13747],[118.152611,9.13706],[118.152191,9.13663],[118.151756,9.13623],[118.151329,9.13589],[118.150909,9.13561],[118.150719,9.13545],[118.150574,9.13532],[118.150208,9.1351],[118.149818,9.13499],[118.149452,9.13486],[118.149109,9.13472],[118.148773,9.13461],[118.148407,9.13457],[118.148003,9.13472],[118.147583,9.13489],[118.147141,9.13504],[118.14666,9.13522],[118.146118,9.13537],[118.145714,9.13564],[118.145416,9.136],[118.145233,9.13641],[118.144997,9.13681],[118.14473,9.13726],[118.144463,9.13776],[118.144241,9.13832],[118.144218,9.13847],[118.14415,9.13896],[118.144051,9.13953],[118.143883,9.14],[118.143661,9.14038],[118.143417,9.14073],[118.143349,9.14082],[118.143143,9.14107],[118.142761,9.14133],[118.142326,9.14159],[118.141907,9.14187],[118.141541,9.14215],[118.141327,9.14252],[118.141151,9.14287],[118.141037,9.1432],[118.140907,9.14351],[118.140793,9.14386],[118.140579,9.14421],[118.140373,9.1446],[118.140068,9.14495],[118.139763,9.14531],[118.139427,9.14565],[118.13903,9.14594],[118.138557,9.14619],[118.138123,9.14651],[118.137756,9.14688],[118.137413,9.14725],[118.137108,9.14758],[118.13681,9.14776],[118.136513,9.14781],[118.136238,9.14781],[118.135963,9.14781],[118.135651,9.14784],[118.135307,9.14797],[118.135162,9.148],[118.134933,9.14804],[118.134491,9.14806],[118.134033,9.14806],[118.133537,9.14806],[118.133057,9.14807],[118.132584,9.1481],[118.132103,9.14807],[118.131607,9.14805],[118.131126,9.148],[118.130692,9.14781],[118.130241,9.14765],[118.129784,9.14754],[118.12928,9.1475],[118.128799,9.14744],[118.128387,9.14727],[118.128014,9.14707],[118.12764,9.14688],[118.127296,9.14661],[118.126984,9.1463],[118.126663,9.14597],[118.126373,9.14571],[118.125427,9.1493],[118.124611,9.15074],[118.123283,9.15155],[118.123734,9.15213],[118.123253,9.15373],[118.122704,9.15368],[118.121384,9.15406],[118.121117,9.15531],[118.119507,9.15691],[118.117844,9.15783],[118.117752,9.15716],[118.117157,9.15718],[118.11586,9.15655],[118.115097,9.15579],[118.113197,9.15597],[118.111938,9.1564],[118.110687,9.15793],[118.111816,9.15875],[118.111427,9.16021],[118.109627,9.16056],[118.108948,9.16156],[118.106453,9.16334],[118.105682,9.16273],[118.104637,9.16297],[118.103088,9.1643],[118.102028,9.1652],[118.10202,9.16588],[118.100769,9.16727],[118.099632,9.16749],[118.098846,9.16849],[118.098083,9.16874],[118.097343,9.16898],[118.095757,9.16971],[118.09491,9.16975],[118.093323,9.17],[118.091728,9.17119],[118.091431,9.17055],[118.091003,9.16974],[118.090157,9.16922],[118.088814,9.16889],[118.055481,9.20203],[118.076576,9.21475]]]]}},{"type":"Feature","properties":{"ID_0":177,"ISO":"PHL","NAME_0":"Philippines","ID_1":17053,"NAME_1":"Palawan","ID_2":1705315,"NAME_2":"Narra","ID_3":1705315012,"NAME_3":"Malatgao","NL_NAME_3":null,"VARNAME_3":null,"TYPE_3":"Barangay","ENGTYPE_3":"Village","PROVINCE":"Palawan","REGION":"Mimaropa Region","id":"barangay-1705315012","name":"Malatgao","barangayCode":"1705315012","population":null,"formattedPop":null,"densityCategory":"No data","vulnerabilityRating":"No data","healthRiskLevel":"No data","areaKm2":15.72355,"centerLat":9.319996,"centerLng":118.466127,"geometrySource":"all_barangay-2.csv detailed WKT","geometryMatchMethod":"unique_official_admin_names","boundaryPointCount":178},"geometry":{"type":"MultiPolygon","coordinates":[[[[118.446312,9.3453],[118.4487,9.34364],[118.450562,9.34284],[118.453011,9.34172],[118.454773,9.34173],[118.456993,9.33925],[118.458054,9.33713],[118.460564,9.33574],[118.461823,9.33262],[118.462967,9.32948],[118.467194,9.32782],[118.469833,9.32783],[118.471947,9.32895],[118.473091,9.33025],[118.474327,9.33118],[118.476761,9.33101],[118.479607,9.32899],[118.485069,9.32658],[118.485649,9.32491],[118.487473,9.32448],[118.488724,9.32388],[118.491333,9.32291],[118.493149,9.32206],[118.495827,9.32155],[118.498848,9.32036],[118.498657,9.31949],[118.498611,9.31944],[118.498611,9.31927],[118.498611,9.31917],[118.498581,9.31914],[118.498337,9.31889],[118.498337,9.31802],[118.498337,9.3175],[118.498192,9.31736],[118.498047,9.31722],[118.498047,9.31694],[118.49778,9.31667],[118.49778,9.31548],[118.49778,9.31528],[118.497726,9.31522],[118.497498,9.315],[118.497498,9.31472],[118.497223,9.31444],[118.497223,9.31417],[118.497437,9.31394],[118.497498,9.31389],[118.497498,9.31306],[118.497223,9.31278],[118.497223,9.3125],[118.497498,9.31222],[118.497498,9.31139],[118.498047,9.31083],[118.498047,9.31056],[118.497223,9.30972],[118.496948,9.31],[118.496094,9.31001],[118.495827,9.31028],[118.495003,9.31028],[118.494843,9.31029],[118.494461,9.31021],[118.493988,9.31009],[118.493362,9.31003],[118.492683,9.31001],[118.492027,9.30982],[118.491447,9.30963],[118.490967,9.30941],[118.49054,9.3092],[118.490173,9.30909],[118.489929,9.30905],[118.489723,9.30889],[118.489441,9.30889],[118.488747,9.30889],[118.488327,9.3084],[118.488541,9.30799],[118.489998,9.30833],[118.490547,9.30833],[118.490837,9.30861],[118.492767,9.30861],[118.493057,9.30889],[118.493721,9.30889],[118.494453,9.30889],[118.49472,9.30861],[118.495277,9.30861],[118.495552,9.30833],[118.495552,9.30806],[118.495827,9.30778],[118.495827,9.30695],[118.495552,9.30667],[118.49511,9.30638],[118.494713,9.30613],[118.494179,9.30587],[118.493683,9.30562],[118.493317,9.30532],[118.493027,9.30503],[118.49279,9.30478],[118.492607,9.30453],[118.492477,9.30423],[118.492317,9.30396],[118.49218,9.30364],[118.491951,9.3033],[118.491699,9.30289],[118.491447,9.30239],[118.491226,9.30176],[118.490936,9.30114],[118.490822,9.30049],[118.490761,9.29989],[118.490852,9.2993],[118.490967,9.29875],[118.490868,9.29833],[118.490707,9.29792],[118.490532,9.29749],[118.490341,9.29705],[118.490227,9.29662],[118.490082,9.29622],[118.489937,9.29582],[118.489799,9.29544],[118.489677,9.29504],[118.489487,9.29469],[118.489258,9.29436],[118.489159,9.2942],[118.489059,9.29404],[118.489037,9.29401],[118.488853,9.29365],[118.488602,9.29341],[118.488243,9.29331],[118.487846,9.29321],[118.487411,9.2931],[118.487,9.29312],[118.486656,9.29336],[118.486526,9.29354],[118.486366,9.29376],[118.486061,9.29426],[118.48587,9.29489],[118.485786,9.2956],[118.485626,9.2963],[118.485558,9.29694],[118.485558,9.29722],[118.485931,9.2976],[118.486389,9.29806],[118.486389,9.29833],[118.485832,9.29889],[118.485558,9.29889],[118.485283,9.29917],[118.484734,9.29917],[118.484444,9.29944],[118.484169,9.29944],[118.483612,9.3],[118.483437,9.30017],[118.482826,9.30058],[118.482224,9.30097],[118.480278,9.30139],[118.479301,9.30195],[118.478889,9.30215],[118.478333,9.30222],[118.478058,9.30222],[118.477501,9.30278],[118.477219,9.30278],[118.476936,9.30306],[118.476112,9.30306],[118.47583,9.30333],[118.475563,9.30333],[118.475281,9.30361],[118.474998,9.30361],[118.474716,9.30333],[118.474167,9.30333],[118.473892,9.30306],[118.473343,9.30306],[118.473167,9.30275],[118.472649,9.30254],[118.472107,9.30247],[118.471603,9.30232],[118.471092,9.30224],[118.471008,9.30223],[118.44165,9.31868],[118.452728,9.32496],[118.453308,9.33489],[118.443748,9.34279],[118.446312,9.3453]]]]}},{"type":"Feature","properties":{"ID_0":177,"ISO":"PHL","NAME_0":"Philippines","ID_1":17053,"NAME_1":"Palawan","ID_2":1705315,"NAME_2":"Narra","ID_3":1705315013,"NAME_3":"Malinao","NL_NAME_3":null,"VARNAME_3":null,"TYPE_3":"Barangay","ENGTYPE_3":"Village","PROVINCE":"Palawan","REGION":"Mimaropa Region","id":"barangay-1705315013","name":"Malinao","barangayCode":"1705315013","population":null,"formattedPop":null,"densityCategory":"No data","vulnerabilityRating":"No data","healthRiskLevel":"No data","areaKm2":74.272414,"centerLat":9.296035,"centerLng":118.348458,"geometrySource":"all_barangay-2.csv detailed WKT","geometryMatchMethod":"unique_official_admin_names","boundaryPointCount":146},"geometry":{"type":"MultiPolygon","coordinates":[[[[118.292511,9.37677],[118.338112,9.3294],[118.325027,9.31678],[118.351318,9.29919],[118.380234,9.25412],[118.387306,9.24606],[118.393066,9.23736],[118.391449,9.23672],[118.390762,9.23701],[118.389748,9.2376],[118.388817,9.23822],[118.388351,9.23915],[118.388763,9.24005],[118.388702,9.24037],[118.388252,9.24063],[118.387421,9.24106],[118.387001,9.24119],[118.386147,9.24163],[118.385712,9.24138],[118.384979,9.24088],[118.384377,9.24069],[118.383568,9.24025],[118.382782,9.23983],[118.382057,9.23959],[118.38131,9.23909],[118.38118,9.23843],[118.380959,9.23767],[118.380493,9.23764],[118.380089,9.23793],[118.378464,9.23759],[118.347672,9.22829],[118.347816,9.23363],[118.329033,9.26114],[118.328697,9.26137],[118.32811,9.2623],[118.326576,9.26319],[118.323517,9.26548],[118.323563,9.26595],[118.323418,9.26653],[118.322998,9.26671],[118.322403,9.26684],[118.321953,9.26705],[118.320686,9.26763],[118.320396,9.26775],[118.319862,9.26825],[118.319847,9.269],[118.319687,9.26961],[118.318977,9.27016],[118.31768,9.27079],[118.316994,9.27071],[118.314842,9.27213],[118.314629,9.27283],[118.314232,9.27315],[118.313667,9.27331],[118.312767,9.27332],[118.312508,9.27366],[118.312431,9.27504],[118.312187,9.27586],[118.311867,9.27632],[118.311501,9.27671],[118.311203,9.27746],[118.310806,9.2786],[118.3106,9.27916],[118.310738,9.27949],[118.31073,9.27981],[118.310478,9.28],[118.310066,9.28004],[118.309319,9.28043],[118.308777,9.28126],[118.308289,9.28235],[118.30719,9.28273],[118.306976,9.28343],[118.307693,9.28429],[118.308144,9.28446],[118.308113,9.28464],[118.30748,9.2851],[118.30706,9.28549],[118.3069,9.28605],[118.306976,9.28687],[118.306908,9.2876],[118.306259,9.28797],[118.305611,9.2881],[118.304863,9.28842],[118.304703,9.28921],[118.305199,9.28978],[118.305901,9.29011],[118.306038,9.29028],[118.304901,9.29122],[118.304626,9.29188],[118.304169,9.29227],[118.303589,9.29259],[118.303207,9.29298],[118.302811,9.29389],[118.30246,9.2959],[118.302834,9.29686],[118.303047,9.29761],[118.30278,9.29871],[118.302422,9.29927],[118.302139,9.30006],[118.30204,9.30102],[118.301933,9.30146],[118.301323,9.30204],[118.301109,9.30267],[118.301117,9.30347],[118.300117,9.3046],[118.299751,9.30583],[118.299667,9.3064],[118.299583,9.30691],[118.299553,9.30712],[118.299744,9.30762],[118.300133,9.30813],[118.29493,9.31451],[118.294807,9.31497],[118.294144,9.31754],[118.293541,9.31789],[118.292717,9.31823],[118.292397,9.31867],[118.292267,9.31988],[118.292267,9.32052],[118.292053,9.32112],[118.291023,9.322],[118.290947,9.32235],[118.291237,9.32294],[118.291847,9.32381],[118.292007,9.32466],[118.291786,9.32538],[118.291397,9.32601],[118.29084,9.32635],[118.290108,9.32688],[118.289322,9.32783],[118.288589,9.32935],[118.287697,9.3299],[118.286919,9.32998],[118.285873,9.32997],[118.284988,9.33031],[118.283493,9.33153],[118.282768,9.33187],[118.281464,9.33188],[118.280602,9.33177],[118.279747,9.33197],[118.279297,9.33262],[118.279152,9.33316],[118.279152,9.33393],[118.278893,9.33482],[118.270729,9.35415],[118.292511,9.37677]]]]}},{"type":"Feature","properties":{"ID_0":177,"ISO":"PHL","NAME_0":"Philippines","ID_1":17053,"NAME_1":"Palawan","ID_2":1705315,"NAME_2":"Narra","ID_3":1705315014,"NAME_3":"Narra","NL_NAME_3":null,"VARNAME_3":null,"TYPE_3":"Barangay","ENGTYPE_3":"Village","PROVINCE":"Palawan","REGION":"Mimaropa Region","id":"barangay-1705315014","name":"Narra","barangayCode":"1705315014","population":null,"formattedPop":null,"densityCategory":"No data","vulnerabilityRating":"No data","healthRiskLevel":"No data","areaKm2":51.782789,"centerLat":9.329212,"centerLng":118.372827,"geometrySource":"all_barangay-2.csv detailed WKT","geometryMatchMethod":"unique_official_admin_names","boundaryPointCount":57},"geometry":{"type":"MultiPolygon","coordinates":[[[[118.299133,9.38821],[118.314537,9.4047],[118.378479,9.34229],[118.376099,9.32934],[118.3731,9.31626],[118.406479,9.2765],[118.406937,9.27613],[118.407066,9.27574],[118.407417,9.27497],[118.407639,9.27428],[118.408218,9.27382],[118.408119,9.27285],[118.408669,9.27285],[118.409271,9.27211],[118.409439,9.27148],[118.409317,9.27077],[118.409119,9.27045],[118.409248,9.27015],[118.409477,9.27022],[118.410049,9.27063],[118.410522,9.27026],[118.411018,9.27],[118.412216,9.27029],[118.412567,9.26975],[118.412376,9.26921],[118.412018,9.26879],[118.412216,9.26847],[118.412613,9.26814],[118.41317,9.26814],[118.414124,9.26719],[118.414131,9.26607],[118.413452,9.26571],[118.412666,9.26579],[118.411263,9.26545],[118.410667,9.26514],[118.410248,9.26468],[118.409599,9.26343],[118.408859,9.26192],[118.40789,9.26016],[118.406761,9.25941],[118.406021,9.25823],[118.405663,9.25764],[118.404793,9.25691],[118.403793,9.25611],[118.402992,9.25583],[118.402138,9.25499],[118.401527,9.2541],[118.400261,9.25327],[118.398407,9.25209],[118.397232,9.25141],[118.387306,9.24606],[118.380234,9.25412],[118.351318,9.29919],[118.325027,9.31678],[118.338112,9.3294],[118.292511,9.37677],[118.299133,9.38821]]]]}},{"type":"Feature","properties":{"ID_0":177,"ISO":"PHL","NAME_0":"Philippines","ID_1":17053,"NAME_1":"Palawan","ID_2":1705315,"NAME_2":"Narra","ID_3":1705315015,"NAME_3":"Panacan","NL_NAME_3":null,"VARNAME_3":null,"TYPE_3":"Barangay","ENGTYPE_3":"Village","PROVINCE":"Palawan","REGION":"Mimaropa Region","id":"barangay-1705315015","name":"Panacan","barangayCode":"1705315015","population":null,"formattedPop":null,"densityCategory":"No data","vulnerabilityRating":"No data","healthRiskLevel":"No data","areaKm2":11.927479,"centerLat":9.231757,"centerLng":118.433107,"geometrySource":"all_barangay-2.csv detailed WKT","geometryMatchMethod":"unique_official_admin_names","boundaryPointCount":138},"geometry":{"type":"MultiPolygon","coordinates":[[[[118.414131,9.26607],[118.415421,9.2649],[118.415863,9.26442],[118.416397,9.26398],[118.417053,9.26404],[118.417191,9.26354],[118.417374,9.26332],[118.41787,9.26406],[118.418388,9.26454],[118.418983,9.26442],[118.419456,9.26365],[118.420937,9.26346],[118.420967,9.26327],[118.420937,9.26291],[118.420807,9.26256],[118.420563,9.26215],[118.42028,9.26166],[118.420036,9.26113],[118.419884,9.26058],[118.419746,9.26003],[118.419693,9.25949],[118.419563,9.25897],[118.419533,9.25846],[118.419189,9.25742],[118.418877,9.25688],[118.418671,9.25638],[118.418633,9.25588],[118.418671,9.25539],[118.41864,9.25492],[118.418663,9.25444],[118.418747,9.25397],[118.418747,9.25349],[118.418556,9.25299],[118.41861,9.2525],[118.419724,9.25139],[118.419724,9.25111],[118.419441,9.25083],[118.419441,9.24944],[118.419724,9.24917],[118.419724,9.24861],[118.419998,9.24833],[118.419998,9.24722],[118.420563,9.24667],[118.420563,9.24661],[118.420708,9.24636],[118.420807,9.24609],[118.420914,9.24581],[118.421173,9.24557],[118.421333,9.24529],[118.421013,9.2448],[118.420883,9.2447],[118.420631,9.24452],[118.420311,9.2446],[118.419907,9.24469],[118.419434,9.24474],[118.418907,9.24485],[118.418327,9.245],[118.416656,9.245],[118.416389,9.24528],[118.415749,9.24528],[118.414719,9.24528],[118.413887,9.24486],[118.41333,9.245],[118.413063,9.245],[118.41243,9.24479],[118.41243,9.24472],[118.411987,9.24472],[118.41153,9.24472],[118.411087,9.24472],[118.410637,9.24472],[118.410179,9.24473],[118.409691,9.24473],[118.409187,9.24473],[118.408607,9.24472],[118.408562,9.24468],[118.408333,9.24445],[118.406517,9.24445],[118.406113,9.24445],[118.405693,9.24445],[118.405586,9.24437],[118.404999,9.24389],[118.404427,9.24391],[118.403992,9.24395],[118.403862,9.24396],[118.40329,9.24394],[118.402733,9.24385],[118.402168,9.24366],[118.401604,9.24358],[118.401077,9.24344],[118.400589,9.24335],[118.400093,9.24333],[118.399567,9.24333],[118.399063,9.24329],[118.398537,9.24313],[118.39801,9.24299],[118.397522,9.24282],[118.397057,9.24278],[118.396652,9.24273],[118.396317,9.24255],[118.39595,9.24232],[118.395576,9.24197],[118.395233,9.24159],[118.394958,9.24119],[118.394707,9.24086],[118.394524,9.24058],[118.39444,9.24023],[118.394417,9.2401],[118.394371,9.23985],[118.39418,9.23947],[118.394028,9.239],[118.393997,9.23844],[118.394096,9.23785],[118.39402,9.23729],[118.393806,9.23687],[118.393562,9.2364],[118.393501,9.23631],[118.393066,9.23736],[118.387306,9.24606],[118.397232,9.25141],[118.398407,9.25209],[118.400261,9.25327],[118.401527,9.2541],[118.402138,9.25499],[118.402992,9.25583],[118.403793,9.25611],[118.404793,9.25691],[118.405663,9.25764],[118.406021,9.25823],[118.406761,9.25941],[118.40789,9.26016],[118.408859,9.26192],[118.409599,9.26343],[118.410248,9.26468],[118.410667,9.26514],[118.411263,9.26545],[118.412666,9.26579],[118.413452,9.26571],[118.414131,9.26607]]]]}},{"type":"Feature","properties":{"ID_0":177,"ISO":"PHL","NAME_0":"Philippines","ID_1":17053,"NAME_1":"Palawan","ID_2":1705315,"NAME_2":"Narra","ID_3":1705315016,"NAME_3":"Princess Urduja","NL_NAME_3":null,"VARNAME_3":null,"TYPE_3":"Barangay","ENGTYPE_3":"Village","PROVINCE":"Palawan","REGION":"Mimaropa Region","id":"barangay-1705315016","name":"Princess Urduja","barangayCode":"1705315016","population":null,"formattedPop":null,"densityCategory":"No data","vulnerabilityRating":"No data","healthRiskLevel":"No data","areaKm2":67.405463,"centerLat":9.289912,"centerLng":118.303954,"geometrySource":"all_barangay-2.csv detailed WKT","geometryMatchMethod":"unique_official_admin_names","boundaryPointCount":162},"geometry":{"type":"MultiPolygon","coordinates":[[[[118.347672,9.22829],[118.348137,9.222],[118.32798,9.21585],[118.327339,9.21742],[118.326477,9.21949],[118.325844,9.22257],[118.325363,9.22455],[118.324493,9.22671],[118.323753,9.22797],[118.322838,9.2304],[118.321983,9.23101],[118.320549,9.2313],[118.319237,9.2325],[118.318802,9.23347],[118.316483,9.2352],[118.315437,9.23532],[118.313148,9.2358],[118.31041,9.23799],[118.310059,9.23965],[118.309334,9.24126],[118.307602,9.2427],[118.306442,9.24361],[118.304543,9.24565],[118.303391,9.248],[118.302994,9.24881],[118.302628,9.25179],[118.302597,9.25299],[118.302803,9.2546],[118.302788,9.25654],[118.302177,9.25796],[118.301003,9.25979],[118.299927,9.26127],[118.298737,9.2627],[118.29718,9.26373],[118.295967,9.26399],[118.294456,9.26413],[118.293533,9.26449],[118.292702,9.26536],[118.291443,9.267],[118.290527,9.26842],[118.289642,9.26969],[118.288986,9.27085],[118.288979,9.273],[118.289093,9.27413],[118.289284,9.27493],[118.28949,9.27562],[118.289017,9.27657],[118.288757,9.27675],[118.288437,9.2775],[118.288597,9.27858],[118.288818,9.27957],[118.288963,9.28041],[118.289062,9.28224],[118.289101,9.28318],[118.289169,9.28454],[118.28923,9.28565],[118.290443,9.28895],[118.290878,9.28966],[118.291153,9.29104],[118.291328,9.29255],[118.291687,9.29412],[118.291969,9.29472],[118.292236,9.29561],[118.292671,9.29709],[118.293159,9.29792],[118.293854,9.29894],[118.294067,9.29969],[118.293839,9.30114],[118.293579,9.30238],[118.293266,9.30322],[118.293427,9.30425],[118.293617,9.30479],[118.293663,9.30568],[118.29335,9.30718],[118.293373,9.30828],[118.293381,9.30952],[118.293327,9.31074],[118.29361,9.31173],[118.294121,9.31211],[118.294746,9.31254],[118.29493,9.31451],[118.300133,9.30813],[118.299744,9.30762],[118.299553,9.30712],[118.299583,9.30691],[118.299667,9.3064],[118.299751,9.30583],[118.300117,9.3046],[118.301117,9.30347],[118.301109,9.30267],[118.301323,9.30204],[118.301933,9.30146],[118.30204,9.30102],[118.302139,9.30006],[118.302422,9.29927],[118.30278,9.29871],[118.303047,9.29761],[118.302834,9.29686],[118.30246,9.2959],[118.302811,9.29389],[118.303207,9.29298],[118.303589,9.29259],[118.304169,9.29227],[118.304626,9.29188],[118.304901,9.29122],[118.306038,9.29028],[118.305901,9.29011],[118.305199,9.28978],[118.304703,9.28921],[118.304863,9.28842],[118.305611,9.2881],[118.306259,9.28797],[118.306908,9.2876],[118.306976,9.28687],[118.3069,9.28605],[118.30706,9.28549],[118.30748,9.2851],[118.308113,9.28464],[118.308144,9.28446],[118.307693,9.28429],[118.306976,9.28343],[118.30719,9.28273],[118.308289,9.28235],[118.308777,9.28126],[118.309319,9.28043],[118.310066,9.28004],[118.310478,9.28],[118.31073,9.27981],[118.310738,9.27949],[118.3106,9.27916],[118.310806,9.2786],[118.311203,9.27746],[118.311501,9.27671],[118.311867,9.27632],[118.312187,9.27586],[118.312431,9.27504],[118.312508,9.27366],[118.312767,9.27332],[118.313667,9.27331],[118.314232,9.27315],[118.314629,9.27283],[118.314842,9.27213],[118.316994,9.27071],[118.31768,9.27079],[118.318977,9.27016],[118.319687,9.26961],[118.319847,9.269],[118.319862,9.26825],[118.320396,9.26775],[118.320686,9.26763],[118.321953,9.26705],[118.322403,9.26684],[118.322998,9.26671],[118.323418,9.26653],[118.323563,9.26595],[118.323517,9.26548],[118.326576,9.26319],[118.32811,9.2623],[118.328697,9.26137],[118.329033,9.26114],[118.347816,9.23363],[118.347672,9.22829]]]]}},{"type":"Feature","properties":{"ID_0":177,"ISO":"PHL","NAME_0":"Philippines","ID_1":17053,"NAME_1":"Palawan","ID_2":1705315,"NAME_2":"Narra","ID_3":1705315017,"NAME_3":"Sandoval","NL_NAME_3":null,"VARNAME_3":null,"TYPE_3":"Barangay","ENGTYPE_3":"Village","PROVINCE":"Palawan","REGION":"Mimaropa Region","id":"barangay-1705315017","name":"Sandoval","barangayCode":"1705315017","population":null,"formattedPop":null,"densityCategory":"No data","vulnerabilityRating":"No data","healthRiskLevel":"No data","areaKm2":8.847065,"centerLat":9.348228,"centerLng":118.46426,"geometrySource":"all_barangay-2.csv detailed WKT","geometryMatchMethod":"unique_official_admin_names","boundaryPointCount":15},"geometry":{"type":"MultiPolygon","coordinates":[[[[118.460716,9.37617],[118.478668,9.36021],[118.493317,9.34686],[118.486656,9.33394],[118.478653,9.33857],[118.47197,9.33592],[118.446312,9.3453],[118.446083,9.34679],[118.446167,9.34893],[118.445488,9.35109],[118.444817,9.35391],[118.445549,9.35677],[118.446312,9.35872],[118.446037,9.35998],[118.460716,9.37617]]]]}},{"type":"Feature","properties":{"ID_0":177,"ISO":"PHL","NAME_0":"Philippines","ID_1":17053,"NAME_1":"Palawan","ID_2":1705315,"NAME_2":"Narra","ID_3":1705315018,"NAME_3":"Tacras","NL_NAME_3":null,"VARNAME_3":null,"TYPE_3":"Barangay","ENGTYPE_3":"Village","PROVINCE":"Palawan","REGION":"Mimaropa Region","id":"barangay-1705315018","name":"Tacras","barangayCode":"1705315018","population":null,"formattedPop":null,"densityCategory":"No data","vulnerabilityRating":"No data","healthRiskLevel":"No data","areaKm2":33.083344,"centerLat":9.206319,"centerLng":118.14079,"geometrySource":"all_barangay-2.csv detailed WKT","geometryMatchMethod":"unique_official_admin_names","boundaryPointCount":76},"geometry":{"type":"MultiPolygon","coordinates":[[[[118.141006,9.26101],[118.160789,9.18791],[118.160683,9.18694],[118.16095,9.18641],[118.161491,9.18607],[118.162376,9.18497],[118.162842,9.18455],[118.163544,9.18348],[118.164238,9.18256],[118.165123,9.18093],[118.166183,9.17899],[118.167358,9.1785],[118.16761,9.1777],[118.167053,9.1769],[118.169006,9.17401],[118.168312,9.17229],[118.168167,9.17175],[118.168831,9.17054],[118.16935,9.16997],[118.170158,9.16969],[118.178421,9.15258],[118.178726,9.15192],[118.178177,9.1519],[118.177643,9.15202],[118.177177,9.15226],[118.176781,9.15252],[118.176743,9.15254],[118.176323,9.15283],[118.175903,9.15311],[118.175522,9.15338],[118.175217,9.15367],[118.17495,9.15394],[118.174683,9.1542],[118.174393,9.15444],[118.174072,9.15463],[118.17366,9.15477],[118.173218,9.15494],[118.172729,9.15498],[118.172234,9.15494],[118.171883,9.1548],[118.171738,9.15475],[118.171219,9.15459],[118.170631,9.15448],[118.170013,9.15443],[118.169403,9.15435],[118.16925,9.15429],[118.168861,9.15415],[118.168381,9.15389],[118.167999,9.15367],[118.167923,9.15362],[118.167458,9.15335],[118.167007,9.15308],[118.166672,9.15275],[118.166443,9.15237],[118.166313,9.15194],[118.166367,9.15148],[118.166428,9.15105],[118.166397,9.15068],[118.166191,9.15037],[118.165909,9.15008],[118.165588,9.14978],[118.165176,9.14949],[118.164719,9.14924],[118.164337,9.14907],[118.164238,9.14903],[118.163834,9.14883],[118.163513,9.14864],[118.163193,9.14849],[118.162811,9.14838],[118.162331,9.1483],[118.161781,9.14818],[118.161247,9.14795],[118.16114,9.14789],[118.160591,9.14804],[118.110336,9.23925],[118.141006,9.26101]]]]}},{"type":"Feature","properties":{"ID_0":177,"ISO":"PHL","NAME_0":"Philippines","ID_1":17053,"NAME_1":"Palawan","ID_2":1705315,"NAME_2":"Narra","ID_3":1705315019,"NAME_3":"Taritien","NL_NAME_3":null,"VARNAME_3":null,"TYPE_3":"Barangay","ENGTYPE_3":"Village","PROVINCE":"Palawan","REGION":"Mimaropa Region","id":"barangay-1705315019","name":"Taritien","barangayCode":"1705315019","population":null,"formattedPop":null,"densityCategory":"No data","vulnerabilityRating":"No data","healthRiskLevel":"No data","areaKm2":41.292362,"centerLat":9.361719,"centerLng":118.404337,"geometrySource":"all_barangay-2.csv detailed WKT","geometryMatchMethod":"unique_official_admin_names","boundaryPointCount":8},"geometry":{"type":"MultiPolygon","coordinates":[[[[118.326447,9.42127],[118.337982,9.43664],[118.416451,9.36835],[118.443748,9.34279],[118.453308,9.33489],[118.452728,9.32496],[118.44165,9.31868],[118.326447,9.42127]]]]}},{"type":"Feature","properties":{"ID_0":177,"ISO":"PHL","NAME_0":"Philippines","ID_1":17053,"NAME_1":"Palawan","ID_2":1705315,"NAME_2":"Narra","ID_3":1705315020,"NAME_3":"Teresa","NL_NAME_3":null,"VARNAME_3":null,"TYPE_3":"Barangay","ENGTYPE_3":"Village","PROVINCE":"Palawan","REGION":"Mimaropa Region","id":"barangay-1705315020","name":"Teresa","barangayCode":"1705315020","population":null,"formattedPop":null,"densityCategory":"No data","vulnerabilityRating":"No data","healthRiskLevel":"No data","areaKm2":8.136422,"centerLat":9.196697,"centerLng":118.321859,"geometrySource":"all_barangay-2.csv detailed WKT","geometryMatchMethod":"unique_official_admin_names","boundaryPointCount":293},"geometry":{"type":"MultiPolygon","coordinates":[[[[118.261848,9.34931],[118.270729,9.35415],[118.278893,9.33482],[118.279152,9.33393],[118.279152,9.33316],[118.279297,9.33262],[118.279747,9.33197],[118.280602,9.33177],[118.281464,9.33188],[118.282768,9.33187],[118.283493,9.33153],[118.284988,9.33031],[118.285873,9.32997],[118.286919,9.32998],[118.287697,9.3299],[118.288589,9.32935],[118.289322,9.32783],[118.290108,9.32688],[118.29084,9.32635],[118.291397,9.32601],[118.291786,9.32538],[118.292007,9.32466],[118.291847,9.32381],[118.291237,9.32294],[118.290947,9.32235],[118.291023,9.322],[118.292053,9.32112],[118.292267,9.32052],[118.292267,9.31988],[118.292397,9.31867],[118.292717,9.31823],[118.293541,9.31789],[118.294144,9.31754],[118.294807,9.31497],[118.29493,9.31451],[118.294746,9.31254],[118.294121,9.31211],[118.29361,9.31173],[118.293327,9.31074],[118.293381,9.30952],[118.293373,9.30828],[118.29335,9.30718],[118.293663,9.30568],[118.293617,9.30479],[118.293427,9.30425],[118.293266,9.30322],[118.293579,9.30238],[118.293839,9.30114],[118.294067,9.29969],[118.293854,9.29894],[118.293159,9.29792],[118.292671,9.29709],[118.292236,9.29561],[118.291969,9.29472],[118.291687,9.29412],[118.291328,9.29255],[118.291153,9.29104],[118.290878,9.28966],[118.290443,9.28895],[118.28923,9.28565],[118.289169,9.28454],[118.289101,9.28318],[118.289062,9.28224],[118.288963,9.28041],[118.288818,9.27957],[118.288597,9.27858],[118.288437,9.2775],[118.288757,9.27675],[118.289017,9.27657],[118.28949,9.27562],[118.289284,9.27493],[118.289093,9.27413],[118.288979,9.273],[118.288986,9.27085],[118.289642,9.26969],[118.290527,9.26842],[118.291443,9.267],[118.292702,9.26536],[118.293533,9.26449],[118.294456,9.26413],[118.295967,9.26399],[118.29718,9.26373],[118.298737,9.2627],[118.299927,9.26127],[118.301003,9.25979],[118.302177,9.25796],[118.302788,9.25654],[118.302803,9.2546],[118.302597,9.25299],[118.302628,9.25179],[118.302994,9.24881],[118.303391,9.248],[118.304543,9.24565],[118.306442,9.24361],[118.307602,9.2427],[118.309334,9.24126],[118.310059,9.23965],[118.31041,9.23799],[118.313148,9.2358],[118.315437,9.23532],[118.316483,9.2352],[118.318802,9.23347],[118.319237,9.2325],[118.320549,9.2313],[118.321983,9.23101],[118.322838,9.2304],[118.323753,9.22797],[118.324493,9.22671],[118.325363,9.22455],[118.325844,9.22257],[118.326477,9.21949],[118.327339,9.21742],[118.32798,9.21585],[118.328827,9.21351],[118.329308,9.20844],[118.329369,9.20769],[118.329758,9.20682],[118.330292,9.20524],[118.330597,9.20343],[118.330902,9.20155],[118.330597,9.20026],[118.329849,9.19888],[118.329567,9.19813],[118.329536,9.19722],[118.329773,9.19695],[118.329918,9.19622],[118.329391,9.1956],[118.328781,9.19514],[118.328209,9.19457],[118.327713,9.19318],[118.327454,9.19189],[118.327171,9.19155],[118.326874,9.19126],[118.326622,9.19103],[118.325951,9.19033],[118.325844,9.18973],[118.326347,9.18955],[118.326897,9.18941],[118.327179,9.18921],[118.32711,9.18878],[118.326942,9.18797],[118.327026,9.18686],[118.327759,9.18566],[118.328438,9.18455],[118.328377,9.18303],[118.327988,9.18267],[118.327347,9.18264],[118.326157,9.18253],[118.3255,9.18248],[118.325218,9.18171],[118.32515,9.18093],[118.325043,9.17995],[118.325783,9.17882],[118.326271,9.17818],[118.327072,9.17727],[118.327904,9.17657],[118.32843,9.17562],[118.32827,9.17502],[118.327744,9.17448],[118.327217,9.175],[118.326942,9.175],[118.326668,9.17528],[118.326668,9.17556],[118.326393,9.17583],[118.326111,9.17583],[118.325844,9.17611],[118.325546,9.17611],[118.324997,9.17667],[118.324722,9.17667],[118.324448,9.17694],[118.323433,9.17694],[118.323059,9.17694],[118.322777,9.17667],[118.322502,9.17667],[118.321953,9.17722],[118.321663,9.17722],[118.321388,9.1775],[118.319443,9.1775],[118.319168,9.17778],[118.31778,9.17778],[118.317497,9.17806],[118.316391,9.17806],[118.316109,9.17778],[118.315826,9.17778],[118.315552,9.17806],[118.315277,9.17806],[118.314453,9.17889],[118.314453,9.17917],[118.314163,9.17944],[118.314163,9.17999],[118.314163,9.18028],[118.314133,9.18031],[118.314232,9.18062],[118.314743,9.18091],[118.315659,9.18152],[118.31575,9.1826],[118.315659,9.1834],[118.315086,9.18403],[118.314743,9.18467],[118.314377,9.1854],[118.313583,9.18584],[118.312752,9.18636],[118.312393,9.18649],[118.311996,9.18681],[118.311661,9.187],[118.310593,9.18653],[118.310669,9.1855],[118.308731,9.18602],[118.308441,9.18695],[118.308487,9.18771],[118.308296,9.18853],[118.307518,9.18901],[118.306961,9.18892],[118.307022,9.18973],[118.307617,9.19086],[118.308144,9.1915],[118.308693,9.19282],[118.308807,9.19371],[118.308884,9.1943],[118.30899,9.1953],[118.310043,9.19645],[118.310623,9.19714],[118.311478,9.19822],[118.311699,9.19865],[118.311813,9.19927],[118.310654,9.2016],[118.310341,9.20384],[118.31105,9.20503],[118.31221,9.2058],[118.312241,9.20677],[118.311707,9.20768],[118.31118,9.20836],[118.310387,9.20812],[118.309288,9.20825],[118.308792,9.2093],[118.308693,9.21041],[118.308037,9.21207],[118.308113,9.21346],[118.30864,9.21501],[118.308693,9.21628],[118.307617,9.21827],[118.306877,9.21929],[118.305069,9.2205],[118.304008,9.22137],[118.303017,9.22267],[118.301788,9.22343],[118.29985,9.22363],[118.297684,9.22397],[118.296143,9.22462],[118.294594,9.22674],[118.293938,9.22861],[118.29364,9.22962],[118.293037,9.23063],[118.292732,9.23086],[118.291077,9.23592],[118.290154,9.23765],[118.289253,9.23862],[118.288254,9.23931],[118.28685,9.24033],[118.285873,9.24072],[118.284973,9.24064],[118.273003,9.26721],[118.264816,9.28482],[118.261124,9.29333],[118.260406,9.2939],[118.260094,9.29441],[118.259789,9.29492],[118.2593,9.29591],[118.259109,9.29683],[118.259171,9.29767],[118.25885,9.29863],[118.258438,9.29894],[118.258179,9.29998],[118.258324,9.3007],[118.25824,9.30162],[118.257042,9.30203],[118.256416,9.30216],[118.255569,9.30335],[118.25502,9.30361],[118.254448,9.3037],[118.254349,9.30459],[118.254753,9.30547],[118.254639,9.3062],[118.254051,9.30707],[118.253548,9.30818],[118.253059,9.30939],[118.25238,9.31005],[118.251717,9.31093],[118.251556,9.31171],[118.251389,9.31365],[118.251312,9.31455],[118.241829,9.33516],[118.261848,9.34931]]]]}},{"type":"Feature","properties":{"ID_0":177,"ISO":"PHL","NAME_0":"Philippines","ID_1":17053,"NAME_1":"Palawan","ID_2":1705315,"NAME_2":"Narra","ID_3":1705315021,"NAME_3":"Tinagong Dagat","NL_NAME_3":null,"VARNAME_3":null,"TYPE_3":"Barangay","ENGTYPE_3":"Village","PROVINCE":"Palawan","REGION":"Mimaropa Region","id":"barangay-1705315021","name":"Tinagong Dagat","barangayCode":"1705315021","population":null,"formattedPop":null,"densityCategory":"No data","vulnerabilityRating":"No data","healthRiskLevel":"No data","areaKm2":4.82891,"centerLat":9.327498,"centerLng":118.484038,"geometrySource":"all_barangay-2.csv detailed WKT","geometryMatchMethod":"unique_official_admin_names","boundaryPointCount":90},"geometry":{"type":"MultiPolygon","coordinates":[[[[118.493317,9.34686],[118.495979,9.34523],[118.496887,9.3429],[118.498138,9.34151],[118.498932,9.34079],[118.499687,9.34021],[118.502953,9.33894],[118.504921,9.33709],[118.50631,9.3354],[118.508492,9.33523],[118.51004,9.33533],[118.511642,9.33227],[118.511948,9.33097],[118.512497,9.329656],[118.51236,9.32973],[118.512009,9.32999],[118.511726,9.33041],[118.511436,9.33084],[118.511192,9.3312],[118.510941,9.3315],[118.510674,9.33159],[118.510208,9.33171],[118.509712,9.33162],[118.509216,9.33145],[118.50869,9.33136],[118.508186,9.33124],[118.507729,9.33108],[118.507347,9.33084],[118.507004,9.3306],[118.506653,9.33032],[118.506264,9.33002],[118.505829,9.32971],[118.505386,9.32937],[118.504967,9.32897],[118.50457,9.32858],[118.504211,9.3282],[118.503922,9.32781],[118.503647,9.32741],[118.503387,9.32701],[118.503098,9.32662],[118.5028,9.32624],[118.50251,9.32584],[118.502228,9.32544],[118.501938,9.32505],[118.50164,9.32471],[118.501373,9.3244],[118.501183,9.32408],[118.501183,9.32371],[118.501297,9.32331],[118.501228,9.32298],[118.500923,9.32276],[118.50061,9.32254],[118.500267,9.32222],[118.500267,9.32194],[118.499443,9.32111],[118.499443,9.32083],[118.499168,9.32056],[118.499168,9.32028],[118.498894,9.32],[118.498894,9.31972],[118.498657,9.31949],[118.498848,9.32036],[118.495827,9.32155],[118.493149,9.32206],[118.491333,9.32291],[118.488724,9.32388],[118.487473,9.32448],[118.485649,9.32491],[118.485069,9.32658],[118.479607,9.32899],[118.476761,9.33101],[118.474327,9.33118],[118.473091,9.33025],[118.471947,9.32895],[118.469833,9.32783],[118.467194,9.32782],[118.462967,9.32948],[118.461823,9.33262],[118.460564,9.33574],[118.458054,9.33713],[118.456993,9.33925],[118.454773,9.34173],[118.453011,9.34172],[118.450562,9.34284],[118.4487,9.34364],[118.446312,9.3453],[118.47197,9.33592],[118.478653,9.33857],[118.486656,9.33394],[118.493317,9.34686]]]]}},{"type":"Feature","properties":{"ID_0":177,"ISO":"PHL","NAME_0":"Philippines","ID_1":17053,"NAME_1":"Palawan","ID_2":1705315,"NAME_2":"Narra","ID_3":1705315022,"NAME_3":"Bagong Sikat","NL_NAME_3":null,"VARNAME_3":null,"TYPE_3":"Barangay","ENGTYPE_3":"Village","PROVINCE":"Palawan","REGION":"Mimaropa Region","id":"barangay-1705315022","name":"Bagong Sikat","barangayCode":"1705315022","population":null,"formattedPop":null,"densityCategory":"No data","vulnerabilityRating":"No data","healthRiskLevel":"No data","areaKm2":7.769789,"centerLat":9.373714,"centerLng":118.448256,"geometrySource":"all_barangay-2.csv detailed WKT","geometryMatchMethod":"unique_official_admin_names","boundaryPointCount":9},"geometry":{"type":"MultiPolygon","coordinates":[[[[118.432899,9.3988],[118.454826,9.38003],[118.460716,9.37617],[118.446037,9.35998],[118.444252,9.36149],[118.443062,9.36301],[118.418404,9.38725],[118.43261,9.39848],[118.432899,9.3988]]]]}},{"type":"Feature","properties":{"ID_0":177,"ISO":"PHL","NAME_0":"Philippines","ID_1":17053,"NAME_1":"Palawan","ID_2":1705315,"NAME_2":"Narra","ID_3":1705315023,"NAME_3":"Panacan 2","NL_NAME_3":null,"VARNAME_3":null,"TYPE_3":"Barangay","ENGTYPE_3":"Village","PROVINCE":"Palawan","REGION":"Mimaropa Region","id":"barangay-1705315023","name":"Panacan 2","barangayCode":"1705315023","population":null,"formattedPop":null,"densityCategory":"No data","vulnerabilityRating":"No data","healthRiskLevel":"No data","areaKm2":3.635873,"centerLat":9.260643,"centerLng":118.413352,"geometrySource":"all_barangay-2.csv detailed WKT","geometryMatchMethod":"unique_official_admin_names","boundaryPointCount":298},"geometry":{"type":"MultiPolygon","coordinates":[[[[118.440018,9.24906],[118.440727,9.24898],[118.441467,9.249],[118.442093,9.24875],[118.442467,9.24825],[118.442642,9.24771],[118.44239,9.24719],[118.442108,9.24672],[118.441818,9.24635],[118.441757,9.24631],[118.441513,9.24612],[118.441399,9.2459],[118.441406,9.24567],[118.441521,9.24545],[118.441719,9.24522],[118.441887,9.24496],[118.441856,9.24467],[118.441727,9.24441],[118.441681,9.24433],[118.441483,9.24396],[118.441162,9.24357],[118.440872,9.24321],[118.440659,9.24283],[118.440567,9.24241],[118.440514,9.24201],[118.440323,9.24169],[118.440147,9.2414],[118.43998,9.24113],[118.439796,9.24087],[118.439781,9.24059],[118.439941,9.24028],[118.440033,9.23997],[118.440178,9.23967],[118.440323,9.23937],[118.440536,9.2391],[118.440697,9.23891],[118.440773,9.23884],[118.440964,9.23858],[118.4412,9.23828],[118.441307,9.23795],[118.441322,9.23765],[118.441391,9.2375],[118.442497,9.23778],[118.443336,9.23778],[118.443611,9.23806],[118.444443,9.23806],[118.44455,9.23805],[118.445091,9.23806],[118.445587,9.23811],[118.445961,9.23832],[118.446251,9.2385],[118.446564,9.23862],[118.446838,9.23875],[118.447159,9.23881],[118.447441,9.2389],[118.447708,9.2389],[118.44799,9.23887],[118.448303,9.23877],[118.449173,9.23861],[118.449722,9.23806],[118.449997,9.23806],[118.450279,9.23778],[118.45118,9.2375],[118.451942,9.23694],[118.452057,9.23648],[118.452499,9.23637],[118.45298,9.23613],[118.453529,9.23584],[118.454048,9.23552],[118.45417,9.23514],[118.454201,9.23477],[118.454308,9.23445],[118.454483,9.23414],[118.454712,9.23386],[118.454933,9.23358],[118.455116,9.23331],[118.455254,9.23299],[118.455307,9.23259],[118.45549,9.23222],[118.455704,9.23189],[118.455833,9.23157],[118.455933,9.23127],[118.455856,9.23083],[118.455902,9.23039],[118.456123,9.23001],[118.456451,9.22962],[118.456734,9.22916],[118.456978,9.22868],[118.457207,9.22824],[118.457428,9.2278],[118.457527,9.22732],[118.457687,9.22687],[118.457787,9.22647],[118.457893,9.22611],[118.458008,9.22574],[118.458054,9.2253],[118.458038,9.22483],[118.458008,9.22457],[118.457977,9.22436],[118.457787,9.22389],[118.457657,9.22336],[118.457802,9.22273],[118.457977,9.22206],[118.457916,9.22141],[118.45755,9.22089],[118.457161,9.22045],[118.456902,9.22002],[118.456718,9.21961],[118.456596,9.21914],[118.456383,9.21869],[118.456123,9.21817],[118.455841,9.21759],[118.455566,9.21699],[118.455254,9.21647],[118.454933,9.21602],[118.454697,9.21559],[118.454437,9.21525],[118.454193,9.21497],[118.453949,9.21471],[118.453697,9.21443],[118.453407,9.21414],[118.453087,9.21383],[118.452713,9.21351],[118.452217,9.21326],[118.451691,9.21302],[118.451157,9.21276],[118.450668,9.21245],[118.450233,9.21209],[118.449753,9.21182],[118.44931,9.21156],[118.448853,9.21137],[118.448402,9.21117],[118.447899,9.21106],[118.447433,9.21082],[118.446922,9.21055],[118.446373,9.21033],[118.445763,9.21024],[118.445168,9.21007],[118.444572,9.21001],[118.444023,9.21],[118.443527,9.20999],[118.443077,9.20993],[118.44265,9.20984],[118.442207,9.20977],[118.44175,9.20973],[118.441292,9.20972],[118.440811,9.20972],[118.440292,9.20975],[118.439774,9.20991],[118.439293,9.21019],[118.43882,9.21035],[118.438362,9.21055],[118.437897,9.21073],[118.437531,9.21097],[118.437187,9.21122],[118.436813,9.21142],[118.436378,9.21162],[118.435783,9.2117],[118.435097,9.21182],[118.434433,9.21192],[118.433746,9.21191],[118.433144,9.21175],[118.43261,9.21153],[118.432167,9.21118],[118.43177,9.21082],[118.431412,9.21046],[118.431259,9.21029],[118.431107,9.21012],[118.430817,9.20984],[118.430588,9.20969],[118.430397,9.20947],[118.430099,9.20925],[118.429764,9.20905],[118.429443,9.20878],[118.429077,9.20849],[118.428688,9.20813],[118.428192,9.20779],[118.427643,9.20746],[118.427467,9.20737],[118.427147,9.2072],[118.427048,9.20714],[118.426743,9.20697],[118.426422,9.20712],[118.426117,9.20769],[118.425827,9.20832],[118.425552,9.20888],[118.425293,9.20942],[118.425102,9.20997],[118.425171,9.21052],[118.425301,9.21098],[118.42543,9.21131],[118.425377,9.21158],[118.425301,9.21187],[118.425278,9.21224],[118.425278,9.21269],[118.425331,9.21319],[118.425529,9.21366],[118.425682,9.2141],[118.425842,9.21445],[118.426003,9.21473],[118.426132,9.21503],[118.4263,9.21538],[118.426376,9.21579],[118.426407,9.21623],[118.426491,9.2166],[118.426651,9.21686],[118.426804,9.21711],[118.426903,9.2174],[118.426964,9.21771],[118.427078,9.21799],[118.427292,9.21824],[118.427521,9.21854],[118.427803,9.21889],[118.428162,9.21927],[118.428581,9.21968],[118.429047,9.22008],[118.429443,9.22057],[118.429764,9.22112],[118.430138,9.22158],[118.430389,9.22205],[118.430641,9.22247],[118.430923,9.22287],[118.431252,9.2233],[118.431664,9.22372],[118.432083,9.22417],[118.432449,9.22465],[118.432747,9.22513],[118.432991,9.22563],[118.433167,9.22615],[118.433311,9.22673],[118.433319,9.22737],[118.433296,9.22803],[118.433258,9.22865],[118.43309,9.22921],[118.432991,9.22974],[118.432953,9.22981],[118.432716,9.23021],[118.432404,9.23067],[118.432259,9.2313],[118.432098,9.23191],[118.431877,9.23243],[118.431686,9.23292],[118.43187,9.23361],[118.431931,9.2343],[118.431877,9.23495],[118.431664,9.23555],[118.431442,9.23613],[118.431389,9.23668],[118.431374,9.23718],[118.431267,9.23763],[118.431213,9.23811],[118.431343,9.23867],[118.431381,9.23928],[118.431389,9.23991],[118.431442,9.24055],[118.431664,9.24111],[118.431923,9.24162],[118.432198,9.24204],[118.432426,9.24246],[118.432549,9.24295],[118.432716,9.24342],[118.432716,9.24393],[118.432579,9.24443],[118.432587,9.24493],[118.432854,9.24534],[118.433228,9.24571],[118.433678,9.24601],[118.434174,9.24623],[118.434624,9.24642],[118.43499,9.24663],[118.435333,9.24679],[118.4356,9.2469],[118.435852,9.24701],[118.436096,9.24723],[118.436394,9.24757],[118.436737,9.24795],[118.437157,9.24828],[118.437607,9.2486],[118.438103,9.24885],[118.438713,9.2489],[118.439346,9.24895],[118.440018,9.24906]]],[[[118.500832,9.25306],[118.501106,9.25278],[118.501389,9.25278],[118.501663,9.2525],[118.501953,9.2525],[118.502777,9.25167],[118.502777,9.25111],[118.50222,9.25056],[118.501953,9.25056],[118.501389,9.25056],[118.501106,9.25083],[118.500832,9.25083],[118.500267,9.25139],[118.500267,9.25194],[118.5,9.25222],[118.500832,9.25306]]]]}}]}
