{"type":"FeatureCollection","features":[{"type":"Feature","properties":{"ID_0":177,"ISO":"PHL","NAME_0":"Philippines","ID_1":17059,"NAME_1":"Romblon","ID_2":1705901,"NAME_2":"Alcantara","ID_3":1705901001,"NAME_3":"Bonlao","NL_NAME_3":null,"VARNAME_3":null,"TYPE_3":"Barangay","ENGTYPE_3":"Village","PROVINCE":"Romblon","REGION":"Mimaropa Region","id":"barangay-1705901001","name":"Bonlao","barangayCode":"1705901001","population":null,"formattedPop":null,"densityCategory":"No data","vulnerabilityRating":"No data","healthRiskLevel":"No data","areaKm2":5.154909,"centerLat":12.30778,"centerLng":122.06504,"geometrySource":"all_barangay-2.csv detailed WKT","geometryMatchMethod":"unique_official_admin_names","boundaryPointCount":20},"geometry":{"type":"MultiPolygon","coordinates":[[[[122.035469,12.3364],[122.044617,12.336],[122.053207,12.31704],[122.078331,12.30367],[122.078331,12.30333],[122.078056,12.30306],[122.078056,12.30278],[122.077766,12.3025],[122.077766,12.30115],[122.077766,12.30083],[122.077499,12.30056],[122.077499,12.30028],[122.076111,12.29889],[122.075546,12.29861],[122.075279,12.29834],[122.07502,12.29839],[122.074951,12.2984],[122.032463,12.30505],[122.029648,12.31811],[122.035469,12.3364]]]]}},{"type":"Feature","properties":{"ID_0":177,"ISO":"PHL","NAME_0":"Philippines","ID_1":17059,"NAME_1":"Romblon","ID_2":1705901,"NAME_2":"Alcantara","ID_3":1705901002,"NAME_3":"Calagonsao","NL_NAME_3":null,"VARNAME_3":null,"TYPE_3":"Barangay","ENGTYPE_3":"Village","PROVINCE":"Romblon","REGION":"Mimaropa Region","id":"barangay-1705901002","name":"Calagonsao","barangayCode":"1705901002","population":null,"formattedPop":null,"densityCategory":"No data","vulnerabilityRating":"No data","healthRiskLevel":"No data","areaKm2":8.26771,"centerLat":12.351076,"centerLng":122.075689,"geometrySource":"all_barangay-2.csv detailed WKT","geometryMatchMethod":"unique_official_admin_names","boundaryPointCount":72},"geometry":{"type":"MultiPolygon","coordinates":[[[[122.097633,12.3554],[122.096657,12.35444],[122.096512,12.35351],[122.096367,12.35296],[122.096313,12.35254],[122.096092,12.35227],[122.095818,12.35192],[122.095596,12.3511],[122.095543,12.35048],[122.095322,12.34986],[122.094719,12.34917],[122.094719,12.34861],[122.09417,12.34833],[122.09417,12.34694],[122.09333,12.34611],[122.09333,12.34472],[122.091393,12.34278],[122.091393,12.34167],[122.090897,12.34125],[122.090691,12.34091],[122.09034,12.34056],[122.090202,12.34029],[122.090057,12.33994],[122.089989,12.33939],[122.089989,12.33898],[122.08992,12.3385],[122.089432,12.33801],[122.089218,12.33774],[122.089218,12.33726],[122.089149,12.33684],[122.08889,12.33611],[122.088608,12.33583],[122.088608,12.33528],[122.088333,12.335],[122.088333,12.33472],[122.088058,12.33444],[122.087502,12.33417],[122.087502,12.33333],[122.087219,12.33306],[122.087502,12.33278],[122.087502,12.33183],[122.087502,12.33111],[122.087219,12.33083],[122.087219,12.33056],[122.086937,12.33028],[122.086853,12.33023],[122.086388,12.33],[122.086388,12.32972],[122.086113,12.32945],[122.086113,12.32917],[122.085831,12.32889],[122.085831,12.32861],[122.085564,12.32833],[122.085564,12.32806],[122.084999,12.3275],[122.085281,12.32722],[122.085281,12.32694],[122.084167,12.32584],[122.078163,12.33059],[122.074928,12.33309],[122.072853,12.33467],[122.070633,12.3364],[122.069252,12.33872],[122.068176,12.3411],[122.065964,12.3424],[122.064041,12.34316],[122.062119,12.34543],[122.066231,12.36166],[122.080498,12.36314],[122.096207,12.35608],[122.097687,12.35557],[122.097633,12.3554]]]]}},{"type":"Feature","properties":{"ID_0":177,"ISO":"PHL","NAME_0":"Philippines","ID_1":17059,"NAME_1":"Romblon","ID_2":1705901,"NAME_2":"Alcantara","ID_3":1705901003,"NAME_3":"Camili","NL_NAME_3":null,"VARNAME_3":null,"TYPE_3":"Barangay","ENGTYPE_3":"Village","PROVINCE":"Romblon","REGION":"Mimaropa Region","id":"barangay-1705901003","name":"Camili","barangayCode":"1705901003","population":null,"formattedPop":null,"densityCategory":"No data","vulnerabilityRating":"No data","healthRiskLevel":"No data","areaKm2":23.285967,"centerLat":12.302822,"centerLng":122.0417,"geometrySource":"all_barangay-2.csv detailed WKT","geometryMatchMethod":"unique_official_admin_names","boundaryPointCount":19},"geometry":{"type":"MultiPolygon","coordinates":[[[[122.047287,12.26929],[122.05117,12.25346],[122.048363,12.25081],[122.036873,12.25227],[122.03363,12.25732],[122.039597,12.27364],[122.040817,12.27292],[122.04184,12.2721],[122.043007,12.27107],[122.043068,12.26963],[122.043137,12.26906],[122.042717,12.26844],[122.042427,12.26732],[122.043297,12.26655],[122.044327,12.26664],[122.045723,12.26798],[122.046143,12.26862],[122.046654,12.26903],[122.047287,12.26929]]]]}},{"type":"Feature","properties":{"ID_0":177,"ISO":"PHL","NAME_0":"Philippines","ID_1":17059,"NAME_1":"Romblon","ID_2":1705901,"NAME_2":"Alcantara","ID_3":1705901004,"NAME_3":"Comod-om","NL_NAME_3":null,"VARNAME_3":null,"TYPE_3":"Barangay","ENGTYPE_3":"Village","PROVINCE":"Romblon","REGION":"Mimaropa Region","id":"barangay-1705901004","name":"Comod-om","barangayCode":"1705901004","population":null,"formattedPop":null,"densityCategory":"No data","vulnerabilityRating":"No data","healthRiskLevel":"No data","areaKm2":5.578853,"centerLat":12.226169,"centerLng":122.040135,"geometrySource":"barangays.geojson simplified fallback","geometryMatchMethod":"simplified_fallback","boundaryPointCount":11},"geometry":{"type":"Polygon","coordinates":[[[122.04778414900011,12.244539037000038],[122.04001737400006,12.228795258000048],[122.04942075600002,12.221899284000074],[122.048203682,12.219913873000053],[122.04502873600006,12.222141709000027],[122.04133358000001,12.221811689000049],[122.04028402000006,12.221352334000073],[122.04744577800011,12.203217660000064],[122.03471015500008,12.21190123200006],[122.03045523100002,12.233091427000033],[122.04778414900011,12.244539037000038]]]}},{"type":"Feature","properties":{"ID_0":177,"ISO":"PHL","NAME_0":"Philippines","ID_1":17059,"NAME_1":"Romblon","ID_2":1705901,"NAME_2":"Alcantara","ID_3":1705901005,"NAME_3":"Madalag","NL_NAME_3":null,"VARNAME_3":null,"TYPE_3":"Barangay","ENGTYPE_3":"Village","PROVINCE":"Romblon","REGION":"Mimaropa Region","id":"barangay-1705901005","name":"Madalag","barangayCode":"1705901005","population":null,"formattedPop":null,"densityCategory":"No data","vulnerabilityRating":"No data","healthRiskLevel":"No data","areaKm2":4.227207,"centerLat":12.252935,"centerLng":122.036459,"geometrySource":"all_barangay-2.csv detailed WKT","geometryMatchMethod":"unique_official_admin_names","boundaryPointCount":10},"geometry":{"type":"MultiPolygon","coordinates":[[[[122.03363,12.25732],[122.036873,12.25227],[122.048363,12.25081],[122.046707,12.24152],[122.037216,12.23707],[122.032051,12.23182],[122.029259,12.23797],[122.026039,12.2461],[122.026443,12.25593],[122.03363,12.25732]]]]}},{"type":"Feature","properties":{"ID_0":177,"ISO":"PHL","NAME_0":"Philippines","ID_1":17059,"NAME_1":"Romblon","ID_2":1705901,"NAME_2":"Alcantara","ID_3":1705901006,"NAME_3":"Poblacion","NL_NAME_3":null,"VARNAME_3":null,"TYPE_3":"Barangay","ENGTYPE_3":"Village","PROVINCE":"Romblon","REGION":"Mimaropa Region","id":"barangay-1705901006","name":"Poblacion","barangayCode":"1705901006","population":null,"formattedPop":null,"densityCategory":"No data","vulnerabilityRating":"No data","healthRiskLevel":"No data","areaKm2":0.933423,"centerLat":12.261265,"centerLng":122.054944,"geometrySource":"all_barangay-2.csv detailed WKT","geometryMatchMethod":"unique_official_admin_names","boundaryPointCount":39},"geometry":{"type":"MultiPolygon","coordinates":[[[[122.058258,12.26326],[122.057777,12.26278],[122.057777,12.26194],[122.057503,12.26167],[122.057503,12.26083],[122.05722,12.26056],[122.05722,12.25972],[122.056541,12.25949],[122.056389,12.25944],[122.056107,12.25917],[122.056107,12.25778],[122.056427,12.25746],[122.056664,12.25722],[122.056664,12.25667],[122.056641,12.25664],[122.056389,12.25639],[122.056664,12.25611],[122.056664,12.25583],[122.056953,12.25556],[122.056953,12.25528],[122.05722,12.255],[122.05722,12.25472],[122.057777,12.25444],[122.058327,12.25389],[122.058891,12.25361],[122.05925,12.25325],[122.059723,12.25278],[122.059723,12.25222],[122.05899,12.25149],[122.058891,12.25139],[122.058449,12.25117],[122.05117,12.25346],[122.047287,12.26929],[122.054588,12.2654],[122.055344,12.26495],[122.05674,12.26417],[122.057426,12.26374],[122.057587,12.26365],[122.058258,12.26326]]]]}},{"type":"Feature","properties":{"ID_0":177,"ISO":"PHL","NAME_0":"Philippines","ID_1":17059,"NAME_1":"Romblon","ID_2":1705901,"NAME_2":"Alcantara","ID_3":1705901007,"NAME_3":"San Isidro","NL_NAME_3":null,"VARNAME_3":null,"TYPE_3":"Barangay","ENGTYPE_3":"Village","PROVINCE":"Romblon","REGION":"Mimaropa Region","id":"barangay-1705901007","name":"San Isidro","barangayCode":"1705901007","population":null,"formattedPop":null,"densityCategory":"No data","vulnerabilityRating":"No data","healthRiskLevel":"No data","areaKm2":1.900629,"centerLat":12.286815,"centerLng":122.065202,"geometrySource":"all_barangay-2.csv detailed WKT","geometryMatchMethod":"unique_official_admin_names","boundaryPointCount":55},"geometry":{"type":"MultiPolygon","coordinates":[[[[122.032463,12.30505],[122.074951,12.2984],[122.07502,12.29839],[122.075279,12.29834],[122.074997,12.29806],[122.074547,12.29783],[122.074448,12.29778],[122.074173,12.2975],[122.073608,12.29722],[122.073608,12.29694],[122.073334,12.29667],[122.073334,12.29639],[122.073059,12.29611],[122.073059,12.29583],[122.072777,12.29556],[122.072777,12.29456],[122.072777,12.29167],[122.072502,12.29139],[122.072502,12.29111],[122.07222,12.29083],[122.07222,12.29028],[122.071953,12.29],[122.071953,12.28972],[122.071762,12.28954],[122.071663,12.28944],[122.071663,12.28917],[122.071388,12.28889],[122.071388,12.28796],[122.071388,12.28472],[122.071114,12.28444],[122.071114,12.28417],[122.070831,12.28389],[122.070831,12.28361],[122.070557,12.28333],[122.070557,12.28306],[122.07,12.2825],[122.069443,12.28222],[122.069443,12.28167],[122.069168,12.28139],[122.069168,12.28111],[122.068893,12.28084],[122.068893,12.28028],[122.068611,12.28],[122.068611,12.27972],[122.068336,12.27944],[122.068336,12.27917],[122.068047,12.27889],[122.068336,12.27861],[122.068336,12.27707],[122.068283,12.27688],[122.057549,12.27853],[122.039803,12.28633],[122.030533,12.29058],[122.031487,12.29963],[122.032463,12.30505]]]]}},{"type":"Feature","properties":{"ID_0":177,"ISO":"PHL","NAME_0":"Philippines","ID_1":17059,"NAME_1":"Romblon","ID_2":1705901,"NAME_2":"Alcantara","ID_3":1705901008,"NAME_3":"Tugdan","NL_NAME_3":null,"VARNAME_3":null,"TYPE_3":"Barangay","ENGTYPE_3":"Village","PROVINCE":"Romblon","REGION":"Mimaropa Region","id":"barangay-1705901008","name":"Tugdan","barangayCode":"1705901008","population":null,"formattedPop":null,"densityCategory":"No data","vulnerabilityRating":"No data","healthRiskLevel":"No data","areaKm2":7.180446,"centerLat":12.333912,"centerLng":122.070974,"geometrySource":"all_barangay-2.csv detailed WKT","geometryMatchMethod":"unique_official_admin_names","boundaryPointCount":52},"geometry":{"type":"MultiPolygon","coordinates":[[[[122.052307,12.34133],[122.062119,12.34543],[122.064041,12.34316],[122.065964,12.3424],[122.068176,12.3411],[122.069252,12.33872],[122.070633,12.3364],[122.072853,12.33467],[122.074928,12.33309],[122.078163,12.33059],[122.084167,12.32584],[122.084167,12.32528],[122.083611,12.325],[122.083611,12.32373],[122.083611,12.32361],[122.083366,12.32336],[122.083344,12.32333],[122.082222,12.32278],[122.082222,12.3225],[122.081947,12.32222],[122.081947,12.32194],[122.081657,12.32167],[122.081657,12.32],[122.08139,12.31972],[122.081947,12.31917],[122.081947,12.31833],[122.082497,12.31806],[122.083611,12.31694],[122.084167,12.31667],[122.085281,12.31556],[122.086937,12.315],[122.087219,12.31472],[122.088501,12.31447],[122.088608,12.31444],[122.088608,12.31419],[122.088608,12.31321],[122.088608,12.31306],[122.088463,12.31291],[122.088333,12.31278],[122.087219,12.3125],[122.087502,12.31222],[122.087502,12.31139],[122.086937,12.31111],[122.086937,12.31056],[122.086388,12.31028],[122.086388,12.30972],[122.085693,12.30903],[122.085564,12.30889],[122.08548,12.30888],[122.083054,12.30868],[122.063507,12.32076],[122.052307,12.34133]]]]}},{"type":"Feature","properties":{"ID_0":177,"ISO":"PHL","NAME_0":"Philippines","ID_1":17059,"NAME_1":"Romblon","ID_2":1705901,"NAME_2":"Alcantara","ID_3":1705901009,"NAME_3":"Bagsik","NL_NAME_3":null,"VARNAME_3":null,"TYPE_3":"Barangay","ENGTYPE_3":"Village","PROVINCE":"Romblon","REGION":"Mimaropa Region","id":"barangay-1705901009","name":"Bagsik","barangayCode":"1705901009","population":null,"formattedPop":null,"densityCategory":"No data","vulnerabilityRating":"No data","healthRiskLevel":"No data","areaKm2":2.917331,"centerLat":12.271638,"centerLng":122.038004,"geometrySource":"all_barangay-2.csv detailed WKT","geometryMatchMethod":"unique_official_admin_names","boundaryPointCount":24},"geometry":{"type":"MultiPolygon","coordinates":[[[[122.030533,12.29058],[122.039803,12.28633],[122.039749,12.2853],[122.039597,12.28482],[122.039192,12.28387],[122.039047,12.28292],[122.039017,12.28217],[122.038673,12.28134],[122.038147,12.27937],[122.038818,12.27823],[122.039284,12.27731],[122.039261,12.27674],[122.03997,12.27606],[122.039833,12.27545],[122.039032,12.27492],[122.039597,12.27364],[122.03363,12.25732],[122.026443,12.25593],[122.026703,12.26002],[122.027184,12.27116],[122.027458,12.27737],[122.027779,12.28026],[122.029953,12.28714],[122.030533,12.29058]]]]}},{"type":"Feature","properties":{"ID_0":177,"ISO":"PHL","NAME_0":"Philippines","ID_1":17059,"NAME_1":"Romblon","ID_2":1705901,"NAME_2":"Alcantara","ID_3":1705901010,"NAME_3":"Gui-ob","NL_NAME_3":null,"VARNAME_3":null,"TYPE_3":"Barangay","ENGTYPE_3":"Village","PROVINCE":"Romblon","REGION":"Mimaropa Region","id":"barangay-1705901010","name":"Gui-ob","barangayCode":"1705901010","population":null,"formattedPop":null,"densityCategory":"No data","vulnerabilityRating":"No data","healthRiskLevel":"No data","areaKm2":2.254003,"centerLat":12.251871,"centerLng":122.049642,"geometrySource":"all_barangay-2.csv detailed WKT","geometryMatchMethod":"unique_official_admin_names","boundaryPointCount":36},"geometry":{"type":"MultiPolygon","coordinates":[[[[122.058449,12.25117],[122.058327,12.25111],[122.058327,12.25037],[122.058327,12.24972],[122.057503,12.24889],[122.057503,12.24861],[122.056557,12.24767],[122.056389,12.2475],[122.056389,12.24743],[122.056389,12.24694],[122.056107,12.24667],[122.056107,12.24583],[122.055832,12.24583],[122.055832,12.24611],[122.054779,12.24611],[122.054733,12.24611],[122.054733,12.24592],[122.054733,12.24409],[122.054733,12.24361],[122.054443,12.24333],[122.055,12.24278],[122.056107,12.2425],[122.056107,12.24095],[122.056107,12.24083],[122.05558,12.24073],[122.054733,12.24056],[122.054733,12.24001],[122.053551,12.2398],[122.053047,12.23972],[122.05217,12.2396],[122.051109,12.23944],[122.050903,12.23923],[122.046707,12.24152],[122.048363,12.25081],[122.05117,12.25346],[122.058449,12.25117]]]]}},{"type":"Feature","properties":{"ID_0":177,"ISO":"PHL","NAME_0":"Philippines","ID_1":17059,"NAME_1":"Romblon","ID_2":1705901,"NAME_2":"Alcantara","ID_3":1705901011,"NAME_3":"Lawan","NL_NAME_3":null,"VARNAME_3":null,"TYPE_3":"Barangay","ENGTYPE_3":"Village","PROVINCE":"Romblon","REGION":"Mimaropa Region","id":"barangay-1705901011","name":"Lawan","barangayCode":"1705901011","population":null,"formattedPop":null,"densityCategory":"No data","vulnerabilityRating":"No data","healthRiskLevel":"No data","areaKm2":1.130791,"centerLat":12.275041,"centerLng":122.060816,"geometrySource":"all_barangay-2.csv detailed WKT","geometryMatchMethod":"unique_official_admin_names","boundaryPointCount":63},"geometry":{"type":"MultiPolygon","coordinates":[[[[122.068336,12.27707],[122.068336,12.27667],[122.068047,12.27639],[122.066948,12.27583],[122.066673,12.27556],[122.065002,12.27472],[122.065002,12.27444],[122.06472,12.27417],[122.06472,12.27222],[122.06369,12.27092],[122.063339,12.27051],[122.063057,12.27003],[122.06292,12.26927],[122.062782,12.26858],[122.062637,12.26817],[122.0625,12.26782],[122.062233,12.26695],[122.062233,12.26667],[122.061111,12.26556],[122.060547,12.26528],[122.058891,12.26472],[122.058891,12.26444],[122.058609,12.26417],[122.058609,12.26389],[122.058327,12.26361],[122.058327,12.26333],[122.058258,12.26326],[122.057587,12.26365],[122.057426,12.26374],[122.05674,12.26417],[122.055344,12.26495],[122.054588,12.2654],[122.047287,12.26929],[122.046654,12.26903],[122.046143,12.26862],[122.045723,12.26798],[122.044327,12.26664],[122.043297,12.26655],[122.042427,12.26732],[122.042717,12.26844],[122.043137,12.26906],[122.043068,12.26963],[122.043007,12.27107],[122.04184,12.2721],[122.040817,12.27292],[122.039597,12.27364],[122.039032,12.27492],[122.039833,12.27545],[122.03997,12.27606],[122.039261,12.27674],[122.039284,12.27731],[122.038818,12.27823],[122.038147,12.27937],[122.038673,12.28134],[122.039017,12.28217],[122.039047,12.28292],[122.039192,12.28387],[122.039597,12.28482],[122.039749,12.2853],[122.039803,12.28633],[122.057549,12.27853],[122.068283,12.27688],[122.068336,12.27707]]]]}},{"type":"Feature","properties":{"ID_0":177,"ISO":"PHL","NAME_0":"Philippines","ID_1":17059,"NAME_1":"Romblon","ID_2":1705901,"NAME_2":"Alcantara","ID_3":1705901012,"NAME_3":"San Roque","NL_NAME_3":null,"VARNAME_3":null,"TYPE_3":"Barangay","ENGTYPE_3":"Village","PROVINCE":"Romblon","REGION":"Mimaropa Region","id":"barangay-1705901012","name":"San Roque","barangayCode":"1705901012","population":null,"formattedPop":null,"densityCategory":"No data","vulnerabilityRating":"No data","healthRiskLevel":"No data","areaKm2":7.647569,"centerLat":12.329233,"centerLng":122.058768,"geometrySource":"all_barangay-2.csv detailed WKT","geometryMatchMethod":"unique_official_admin_names","boundaryPointCount":19},"geometry":{"type":"MultiPolygon","coordinates":[[[[122.052307,12.34133],[122.063507,12.32076],[122.083054,12.30868],[122.082222,12.30861],[122.08139,12.30778],[122.08139,12.30722],[122.08075,12.30658],[122.080559,12.30639],[122.08036,12.30629],[122.080002,12.30611],[122.080002,12.30602],[122.080002,12.30528],[122.078888,12.30417],[122.078842,12.30415],[122.078331,12.30389],[122.078331,12.30367],[122.053207,12.31704],[122.044617,12.336],[122.052307,12.34133]]]]}}]}
