{"type":"FeatureCollection","features":[{"type":"Feature","properties":{"ID_0":177,"ISO":"PHL","NAME_0":"Philippines","ID_1":17059,"NAME_1":"Romblon","ID_2":1705906,"NAME_2":"Corcuera","ID_3":1705906001,"NAME_3":"Alegria","NL_NAME_3":null,"VARNAME_3":null,"TYPE_3":"Barangay","ENGTYPE_3":"Village","PROVINCE":"Romblon","REGION":"Mimaropa Region","id":"barangay-1705906001","name":"Alegria","barangayCode":"1705906001","population":null,"formattedPop":null,"densityCategory":"No data","vulnerabilityRating":"No data","healthRiskLevel":"No data","areaKm2":2.9047,"centerLat":12.825744,"centerLng":122.079708,"geometrySource":"all_barangay-2.csv detailed WKT","geometryMatchMethod":"unique_official_admin_names","boundaryPointCount":98},"geometry":{"type":"MultiPolygon","coordinates":[[[[122.067146,12.81872],[122.067871,12.82055],[122.068069,12.82115],[122.06813,12.8218],[122.068352,12.82391],[122.068329,12.82424],[122.068764,12.82426],[122.070168,12.82447],[122.070587,12.82463],[122.071083,12.82481],[122.07177,12.82516],[122.072609,12.82536],[122.074219,12.82598],[122.074783,12.8264],[122.075127,12.82688],[122.076111,12.8275],[122.077972,12.82901],[122.078468,12.82936],[122.078957,12.83005],[122.079262,12.831],[122.079308,12.83115],[122.079376,12.83131],[122.079514,12.83156],[122.079514,12.83359],[122.079514,12.83377],[122.079803,12.83445],[122.080276,12.83528],[122.080833,12.83556],[122.08139,12.83611],[122.083817,12.83672],[122.084717,12.83694],[122.085052,12.83738],[122.085136,12.8375],[122.085602,12.83767],[122.086578,12.83747],[122.087837,12.83747],[122.088676,12.83719],[122.089157,12.83692],[122.089798,12.8363],[122.089943,12.83581],[122.090073,12.83471],[122.089867,12.83402],[122.089653,12.83361],[122.08931,12.8332],[122.089157,12.83194],[122.089722,12.83139],[122.089722,12.83111],[122.089447,12.83083],[122.089447,12.83028],[122.08889,12.82972],[122.08889,12.82945],[122.088608,12.82917],[122.088608,12.82889],[122.087502,12.82778],[122.087502,12.82694],[122.086937,12.82639],[122.086388,12.82611],[122.086388,12.82583],[122.086113,12.82556],[122.086113,12.82528],[122.085831,12.825],[122.085831,12.82472],[122.085564,12.82444],[122.085564,12.82361],[122.084999,12.82306],[122.084999,12.82194],[122.084717,12.82167],[122.085281,12.82111],[122.085281,12.82083],[122.084999,12.82056],[122.084999,12.82028],[122.084717,12.82],[122.084351,12.81952],[122.084442,12.81917],[122.084442,12.81889],[122.084167,12.81861],[122.082222,12.81833],[122.082222,12.81806],[122.08139,12.81722],[122.08139,12.81694],[122.08139,12.81667],[122.080833,12.81639],[122.080559,12.81611],[122.080002,12.81583],[122.080002,12.81556],[122.079941,12.81549],[122.079117,12.81553],[122.077629,12.81602],[122.077103,12.81656],[122.076241,12.81763],[122.075157,12.81832],[122.073776,12.81811],[122.072563,12.81841],[122.071793,12.8192],[122.070732,12.81906],[122.069572,12.81849],[122.068169,12.81796],[122.067146,12.81872]]]]}},{"type":"Feature","properties":{"ID_0":177,"ISO":"PHL","NAME_0":"Philippines","ID_1":17059,"NAME_1":"Romblon","ID_2":1705906,"NAME_2":"Corcuera","ID_3":1705906002,"NAME_3":"Ambulong","NL_NAME_3":null,"VARNAME_3":null,"TYPE_3":"Barangay","ENGTYPE_3":"Village","PROVINCE":"Romblon","REGION":"Mimaropa Region","id":"barangay-1705906002","name":"Ambulong","barangayCode":"1705906002","population":null,"formattedPop":null,"densityCategory":"No data","vulnerabilityRating":"No data","healthRiskLevel":"No data","areaKm2":1.016484,"centerLat":12.788466,"centerLng":122.057603,"geometrySource":"all_barangay-2.csv detailed WKT","geometryMatchMethod":"unique_official_admin_names","boundaryPointCount":54},"geometry":{"type":"MultiPolygon","coordinates":[[[[122.056023,12.79656],[122.057251,12.79532],[122.058563,12.79542],[122.059219,12.79534],[122.059509,12.79488],[122.060143,12.79499],[122.060867,12.79521],[122.061119,12.79454],[122.061523,12.7943],[122.062393,12.79429],[122.062553,12.79356],[122.063019,12.79341],[122.06398,12.79359],[122.064308,12.79291],[122.066147,12.79319],[122.067039,12.7933],[122.067619,12.79344],[122.067413,12.79315],[122.067413,12.79253],[122.066917,12.79148],[122.066498,12.79093],[122.065826,12.79028],[122.065552,12.79],[122.065552,12.78944],[122.065002,12.78889],[122.065002,12.78861],[122.06472,12.78833],[122.06472,12.78806],[122.063606,12.78694],[122.063606,12.78639],[122.063332,12.78611],[122.063332,12.78583],[122.062233,12.78472],[122.061668,12.78444],[122.061111,12.78389],[122.059837,12.78364],[122.059723,12.78361],[122.059532,12.78342],[122.059174,12.78306],[122.058052,12.78278],[122.057777,12.7825],[122.057472,12.78248],[122.057404,12.7827],[122.05722,12.78357],[122.057129,12.78478],[122.057533,12.78635],[122.057587,12.78771],[122.056747,12.78875],[122.056572,12.78988],[122.056633,12.79181],[122.055359,12.79328],[122.054764,12.79497],[122.054329,12.79676],[122.056023,12.79656]]]]}},{"type":"Feature","properties":{"ID_0":177,"ISO":"PHL","NAME_0":"Philippines","ID_1":17059,"NAME_1":"Romblon","ID_2":1705906,"NAME_2":"Corcuera","ID_3":1705906003,"NAME_3":"Colongcolong","NL_NAME_3":null,"VARNAME_3":null,"TYPE_3":"Barangay","ENGTYPE_3":"Village","PROVINCE":"Romblon","REGION":"Mimaropa Region","id":"barangay-1705906003","name":"Colongcolong","barangayCode":"1705906003","population":null,"formattedPop":null,"densityCategory":"No data","vulnerabilityRating":"No data","healthRiskLevel":"No data","areaKm2":1.731769,"centerLat":12.817305,"centerLng":122.061178,"geometrySource":"all_barangay-2.csv detailed WKT","geometryMatchMethod":"unique_official_admin_names","boundaryPointCount":51},"geometry":{"type":"MultiPolygon","coordinates":[[[[122.054878,12.8191],[122.055,12.81917],[122.055267,12.81944],[122.056137,12.82016],[122.056358,12.82072],[122.056778,12.82113],[122.056976,12.8214],[122.057404,12.82182],[122.057747,12.82209],[122.058388,12.82251],[122.059158,12.82292],[122.059624,12.82317],[122.059776,12.82326],[122.060547,12.82333],[122.060631,12.82334],[122.063057,12.82361],[122.063789,12.82379],[122.064163,12.82389],[122.065826,12.82412],[122.067291,12.82419],[122.068329,12.82424],[122.068352,12.82391],[122.06813,12.8218],[122.068069,12.82115],[122.067871,12.82055],[122.067146,12.81872],[122.06665,12.81786],[122.066231,12.8162],[122.065033,12.81603],[122.063637,12.81562],[122.062187,12.81453],[122.061317,12.81334],[122.060638,12.81227],[122.059273,12.81139],[122.058327,12.81013],[122.056931,12.80932],[122.055397,12.80927],[122.053833,12.80958],[122.054024,12.81081],[122.054466,12.81148],[122.054771,12.81206],[122.055138,12.81255],[122.055237,12.81322],[122.055069,12.81398],[122.054848,12.81455],[122.054878,12.81545],[122.054909,12.81607],[122.054543,12.81677],[122.054741,12.81765],[122.054741,12.8179],[122.054878,12.8191]]]]}},{"type":"Feature","properties":{"ID_0":177,"ISO":"PHL","NAME_0":"Philippines","ID_1":17059,"NAME_1":"Romblon","ID_2":1705906,"NAME_2":"Corcuera","ID_3":1705906004,"NAME_3":"Gobon","NL_NAME_3":null,"VARNAME_3":null,"TYPE_3":"Barangay","ENGTYPE_3":"Village","PROVINCE":"Romblon","REGION":"Mimaropa Region","id":"barangay-1705906004","name":"Gobon","barangayCode":"1705906004","population":null,"formattedPop":null,"densityCategory":"No data","vulnerabilityRating":"No data","healthRiskLevel":"No data","areaKm2":0.823246,"centerLat":12.808636,"centerLng":122.061233,"geometrySource":"all_barangay-2.csv detailed WKT","geometryMatchMethod":"unique_official_admin_names","boundaryPointCount":29},"geometry":{"type":"MultiPolygon","coordinates":[[[[122.066231,12.8162],[122.066803,12.81563],[122.066467,12.8148],[122.06501,12.81346],[122.064774,12.81233],[122.065514,12.81071],[122.066437,12.80923],[122.066544,12.80783],[122.066521,12.80615],[122.064987,12.80543],[122.06324,12.80473],[122.059967,12.80363],[122.058701,12.80223],[122.058311,12.80153],[122.056267,12.80133],[122.056053,12.80454],[122.055763,12.80631],[122.055069,12.80694],[122.053833,12.80958],[122.055397,12.80927],[122.056931,12.80932],[122.058327,12.81013],[122.059273,12.81139],[122.060638,12.81227],[122.061317,12.81334],[122.062187,12.81453],[122.063637,12.81562],[122.065033,12.81603],[122.066231,12.8162]]]]}},{"type":"Feature","properties":{"ID_0":177,"ISO":"PHL","NAME_0":"Philippines","ID_1":17059,"NAME_1":"Romblon","ID_2":1705906,"NAME_2":"Corcuera","ID_3":1705906005,"NAME_3":"Guintiguiban","NL_NAME_3":null,"VARNAME_3":null,"TYPE_3":"Barangay","ENGTYPE_3":"Village","PROVINCE":"Romblon","REGION":"Mimaropa Region","id":"barangay-1705906005","name":"Guintiguiban","barangayCode":"1705906005","population":null,"formattedPop":null,"densityCategory":"No data","vulnerabilityRating":"No data","healthRiskLevel":"No data","areaKm2":0.568287,"centerLat":12.797349,"centerLng":122.039698,"geometrySource":"all_barangay-2.csv detailed WKT","geometryMatchMethod":"unique_official_admin_names","boundaryPointCount":50},"geometry":{"type":"MultiPolygon","coordinates":[[[[122.040558,12.80252],[122.041771,12.80211],[122.042557,12.80171],[122.04319,12.80096],[122.043297,12.80029],[122.044113,12.79997],[122.044678,12.79938],[122.045174,12.79902],[122.046021,12.7992],[122.047012,12.79906],[122.046997,12.79855],[122.046822,12.79779],[122.047249,12.79747],[122.047913,12.79719],[122.047997,12.79657],[122.04657,12.7961],[122.045601,12.79627],[122.044502,12.79595],[122.043777,12.79511],[122.042892,12.79514],[122.041962,12.79475],[122.041557,12.7938],[122.040779,12.79362],[122.040237,12.79405],[122.039658,12.79369],[122.039146,12.79341],[122.038483,12.79362],[122.037712,12.79347],[122.03717,12.79355],[122.035988,12.79392],[122.035896,12.795],[122.035957,12.79578],[122.036552,12.7968],[122.037117,12.79753],[122.037483,12.79816],[122.03643,12.7985],[122.035187,12.79883],[122.035477,12.80003],[122.035767,12.80059],[122.035133,12.80096],[122.03447,12.80146],[122.033661,12.80176],[122.032562,12.8019],[122.033829,12.8031],[122.035149,12.80292],[122.035881,12.80282],[122.037666,12.80382],[122.038803,12.80336],[122.039337,12.80268],[122.040558,12.80252]]]]}},{"type":"Feature","properties":{"ID_0":177,"ISO":"PHL","NAME_0":"Philippines","ID_1":17059,"NAME_1":"Romblon","ID_2":1705906,"NAME_2":"Corcuera","ID_3":1705906006,"NAME_3":"Ilijan","NL_NAME_3":null,"VARNAME_3":null,"TYPE_3":"Barangay","ENGTYPE_3":"Village","PROVINCE":"Romblon","REGION":"Mimaropa Region","id":"barangay-1705906006","name":"Ilijan","barangayCode":"1705906006","population":null,"formattedPop":null,"densityCategory":"No data","vulnerabilityRating":"No data","healthRiskLevel":"No data","areaKm2":2.240756,"centerLat":12.798294,"centerLng":122.062451,"geometrySource":"all_barangay-2.csv detailed WKT","geometryMatchMethod":"unique_official_admin_names","boundaryPointCount":47},"geometry":{"type":"MultiPolygon","coordinates":[[[[122.072929,12.8032],[122.072227,12.8025],[122.071953,12.80222],[122.071388,12.80194],[122.071388,12.80181],[122.071251,12.80153],[122.070831,12.80111],[122.070831,12.80056],[122.068611,12.79833],[122.068611,12.79806],[122.068336,12.79778],[122.068336,12.7975],[122.068123,12.79652],[122.068123,12.79563],[122.06797,12.79515],[122.068176,12.79459],[122.067932,12.79387],[122.067619,12.79344],[122.067039,12.7933],[122.066147,12.79319],[122.064308,12.79291],[122.06398,12.79359],[122.063019,12.79341],[122.062553,12.79356],[122.062393,12.79429],[122.061523,12.7943],[122.061119,12.79454],[122.060867,12.79521],[122.060143,12.79499],[122.059509,12.79488],[122.059219,12.79534],[122.058563,12.79542],[122.057251,12.79532],[122.056023,12.79656],[122.056419,12.79816],[122.057243,12.79939],[122.056267,12.80133],[122.058311,12.80153],[122.058701,12.80223],[122.059967,12.80363],[122.06324,12.80473],[122.064987,12.80543],[122.066521,12.80615],[122.068527,12.80582],[122.069992,12.80514],[122.071983,12.80388],[122.072929,12.8032]]]]}},{"type":"Feature","properties":{"ID_0":177,"ISO":"PHL","NAME_0":"Philippines","ID_1":17059,"NAME_1":"Romblon","ID_2":1705906,"NAME_2":"Corcuera","ID_3":1705906007,"NAME_3":"Labnig","NL_NAME_3":null,"VARNAME_3":null,"TYPE_3":"Barangay","ENGTYPE_3":"Village","PROVINCE":"Romblon","REGION":"Mimaropa Region","id":"barangay-1705906007","name":"Labnig","barangayCode":"1705906007","population":null,"formattedPop":null,"densityCategory":"No data","vulnerabilityRating":"No data","healthRiskLevel":"No data","areaKm2":1.506663,"centerLat":12.81101,"centerLng":122.071257,"geometrySource":"all_barangay-2.csv detailed WKT","geometryMatchMethod":"unique_official_admin_names","boundaryPointCount":52},"geometry":{"type":"MultiPolygon","coordinates":[[[[122.066231,12.8162],[122.06665,12.81786],[122.067146,12.81872],[122.068169,12.81796],[122.069572,12.81849],[122.070732,12.81906],[122.071793,12.8192],[122.072563,12.81841],[122.073776,12.81811],[122.075157,12.81832],[122.076241,12.81763],[122.077103,12.81656],[122.077629,12.81602],[122.079117,12.81553],[122.079941,12.81549],[122.07972,12.81528],[122.07972,12.815],[122.078331,12.81361],[122.077766,12.81333],[122.077766,12.81306],[122.077217,12.8125],[122.077217,12.81222],[122.076668,12.81167],[122.076668,12.81139],[122.075844,12.81056],[122.075844,12.81],[122.075546,12.80972],[122.075546,12.80944],[122.075279,12.80917],[122.075279,12.80861],[122.074997,12.80833],[122.074997,12.80806],[122.07486,12.80778],[122.075279,12.80722],[122.075279,12.80611],[122.074448,12.80528],[122.074448,12.80417],[122.073334,12.80361],[122.073059,12.80333],[122.072929,12.8032],[122.071983,12.80388],[122.069992,12.80514],[122.068527,12.80582],[122.066521,12.80615],[122.066544,12.80783],[122.066437,12.80923],[122.065514,12.81071],[122.064774,12.81233],[122.06501,12.81346],[122.066467,12.8148],[122.066803,12.81563],[122.066231,12.8162]]]]}},{"type":"Feature","properties":{"ID_0":177,"ISO":"PHL","NAME_0":"Philippines","ID_1":17059,"NAME_1":"Romblon","ID_2":1705906,"NAME_2":"Corcuera","ID_3":1705906008,"NAME_3":"Mabini","NL_NAME_3":null,"VARNAME_3":null,"TYPE_3":"Barangay","ENGTYPE_3":"Village","PROVINCE":"Romblon","REGION":"Mimaropa Region","id":"barangay-1705906008","name":"Mabini","barangayCode":"1705906008","population":null,"formattedPop":null,"densityCategory":"No data","vulnerabilityRating":"No data","healthRiskLevel":"No data","areaKm2":0.512441,"centerLat":12.794713,"centerLng":122.033459,"geometrySource":"all_barangay-2.csv detailed WKT","geometryMatchMethod":"unique_official_admin_names","boundaryPointCount":76},"geometry":{"type":"MultiPolygon","coordinates":[[[[122.030296,12.79655],[122.030388,12.79654],[122.030807,12.79667],[122.031303,12.79654],[122.031647,12.79626],[122.03157,12.79585],[122.03157,12.7953],[122.031631,12.7951],[122.031723,12.79482],[122.031723,12.79477],[122.031723,12.79392],[122.031433,12.79371],[122.031227,12.79371],[122.030937,12.79413],[122.030434,12.79438],[122.030388,12.7944],[122.029823,12.79447],[122.029472,12.79468],[122.029198,12.79516],[122.028923,12.79537],[122.028297,12.79498],[122.028473,12.79542],[122.029472,12.79672],[122.029991,12.79694],[122.029716,12.79667],[122.030296,12.79655]]],[[[122.030579,12.7902],[122.029831,12.78924],[122.029716,12.78935],[122.029716,12.78944],[122.029442,12.78972],[122.029442,12.79067],[122.029518,12.79102],[122.029861,12.7915],[122.030212,12.79185],[122.030632,12.79233],[122.031273,12.79295],[122.031822,12.79315],[122.032501,12.79389],[122.032784,12.79417],[122.032784,12.79444],[122.033157,12.79526],[122.033157,12.79567],[122.033096,12.79629],[122.032753,12.79664],[122.032219,12.79722],[122.032219,12.79778],[122.032494,12.79831],[122.032433,12.79926],[122.032356,12.79975],[122.032272,12.80018],[122.032227,12.80037],[122.032227,12.80078],[122.032158,12.80147],[122.032158,12.8025],[122.032127,12.80265],[122.032204,12.80256],[122.032562,12.8019],[122.033661,12.80176],[122.03447,12.80146],[122.035133,12.80096],[122.035767,12.80059],[122.035477,12.80003],[122.035187,12.79883],[122.03643,12.7985],[122.037483,12.79816],[122.037117,12.79753],[122.036552,12.7968],[122.035957,12.79578],[122.035896,12.795],[122.035988,12.79392],[122.03508,12.7933],[122.033546,12.79226],[122.033379,12.79134],[122.031837,12.7906],[122.030579,12.7902]]]]}},{"type":"Feature","properties":{"ID_0":177,"ISO":"PHL","NAME_0":"Philippines","ID_1":17059,"NAME_1":"Romblon","ID_2":1705906,"NAME_2":"Corcuera","ID_3":1705906009,"NAME_3":"Mahaba","NL_NAME_3":null,"VARNAME_3":null,"TYPE_3":"Barangay","ENGTYPE_3":"Village","PROVINCE":"Romblon","REGION":"Mimaropa Region","id":"barangay-1705906009","name":"Mahaba","barangayCode":"1705906009","population":null,"formattedPop":null,"densityCategory":"No data","vulnerabilityRating":"No data","healthRiskLevel":"No data","areaKm2":1.779756,"centerLat":12.811549,"centerLng":122.048467,"geometrySource":"all_barangay-2.csv detailed WKT","geometryMatchMethod":"unique_official_admin_names","boundaryPointCount":51},"geometry":{"type":"MultiPolygon","coordinates":[[[[122.040329,12.81632],[122.041107,12.81639],[122.044724,12.81667],[122.04995,12.81693],[122.050278,12.81694],[122.051666,12.81722],[122.052223,12.8175],[122.052498,12.81778],[122.053612,12.81833],[122.053886,12.81861],[122.054878,12.8191],[122.054741,12.8179],[122.054741,12.81765],[122.054543,12.81677],[122.054909,12.81607],[122.054878,12.81545],[122.054848,12.81455],[122.055069,12.81398],[122.055237,12.81322],[122.055138,12.81255],[122.054771,12.81206],[122.054466,12.81148],[122.054024,12.81081],[122.053833,12.80958],[122.052597,12.80942],[122.052071,12.80932],[122.051132,12.80919],[122.050079,12.80882],[122.049957,12.80877],[122.049309,12.8086],[122.048424,12.80858],[122.047546,12.80831],[122.047043,12.808],[122.046463,12.80749],[122.045776,12.80697],[122.045113,12.80666],[122.044228,12.80625],[122.044182,12.80625],[122.04303,12.80639],[122.042137,12.80745],[122.043068,12.80827],[122.043327,12.80973],[122.042938,12.81045],[122.042343,12.81097],[122.042374,12.81182],[122.042023,12.81267],[122.041023,12.8135],[122.041023,12.81467],[122.04097,12.81513],[122.040321,12.81622],[122.040329,12.81632]]]]}},{"type":"Feature","properties":{"ID_0":177,"ISO":"PHL","NAME_0":"Philippines","ID_1":17059,"NAME_1":"Romblon","ID_2":1705906,"NAME_2":"Corcuera","ID_3":1705906010,"NAME_3":"Mangansag","NL_NAME_3":null,"VARNAME_3":null,"TYPE_3":"Barangay","ENGTYPE_3":"Village","PROVINCE":"Romblon","REGION":"Mimaropa Region","id":"barangay-1705906010","name":"Mangansag","barangayCode":"1705906010","population":null,"formattedPop":null,"densityCategory":"No data","vulnerabilityRating":"No data","healthRiskLevel":"No data","areaKm2":1.853095,"centerLat":12.807939,"centerLng":122.036911,"geometrySource":"all_barangay-2.csv detailed WKT","geometryMatchMethod":"unique_official_admin_names","boundaryPointCount":70},"geometry":{"type":"MultiPolygon","coordinates":[[[[122.0271,12.80737],[122.028343,12.80861],[122.029442,12.8093],[122.029716,12.80958],[122.029999,12.80972],[122.030441,12.80994],[122.031326,12.81081],[122.031677,12.81116],[122.031891,12.81157],[122.032173,12.81191],[122.032661,12.81226],[122.033081,12.8126],[122.033218,12.81315],[122.033363,12.81343],[122.033707,12.8137],[122.034271,12.81412],[122.034691,12.81467],[122.034737,12.81475],[122.034973,12.81508],[122.035316,12.81536],[122.035797,12.81577],[122.036438,12.81605],[122.037064,12.81619],[122.038048,12.81639],[122.038887,12.81625],[122.039513,12.81625],[122.040329,12.81632],[122.040321,12.81622],[122.04097,12.81513],[122.041023,12.81467],[122.041023,12.8135],[122.042023,12.81267],[122.042374,12.81182],[122.042343,12.81097],[122.042938,12.81045],[122.043327,12.80973],[122.043068,12.80827],[122.042137,12.80745],[122.04303,12.80639],[122.042526,12.80522],[122.041969,12.80402],[122.041527,12.80318],[122.040558,12.80252],[122.039337,12.80268],[122.038803,12.80336],[122.037666,12.80382],[122.035881,12.80282],[122.035149,12.80292],[122.033829,12.8031],[122.032562,12.8019],[122.032204,12.80256],[122.032127,12.80265],[122.032082,12.80285],[122.031807,12.80319],[122.031601,12.80319],[122.030991,12.80374],[122.030746,12.80467],[122.030632,12.80497],[122.030319,12.80519],[122.029961,12.80533],[122.029701,12.80555],[122.029457,12.80589],[122.029129,12.80614],[122.028793,12.80625],[122.028526,12.80645],[122.028358,12.80684],[122.028053,12.80699],[122.027527,12.80696],[122.027397,12.80689],[122.0271,12.80737]]]]}},{"type":"Feature","properties":{"ID_0":177,"ISO":"PHL","NAME_0":"Philippines","ID_1":17059,"NAME_1":"Romblon","ID_2":1705906,"NAME_2":"Corcuera","ID_3":1705906011,"NAME_3":"Poblacion","NL_NAME_3":null,"VARNAME_3":null,"TYPE_3":"Barangay","ENGTYPE_3":"Village","PROVINCE":"Romblon","REGION":"Mimaropa Region","id":"barangay-1705906011","name":"Poblacion","barangayCode":"1705906011","population":null,"formattedPop":null,"densityCategory":"No data","vulnerabilityRating":"No data","healthRiskLevel":"No data","areaKm2":0.247446,"centerLat":12.783801,"centerLng":122.049577,"geometrySource":"all_barangay-2.csv detailed WKT","geometryMatchMethod":"unique_official_admin_names","boundaryPointCount":33},"geometry":{"type":"MultiPolygon","coordinates":[[[[122.047462,12.7854],[122.048637,12.78519],[122.0494,12.7847],[122.050163,12.78442],[122.051353,12.78458],[122.052353,12.78409],[122.053383,12.7842],[122.054008,12.78426],[122.054573,12.78317],[122.054787,12.78261],[122.054901,12.78229],[122.054031,12.78223],[122.053886,12.78222],[122.052856,12.78171],[122.052223,12.78139],[122.052223,12.78111],[122.051666,12.78111],[122.051666,12.78139],[122.051537,12.78139],[122.051109,12.78139],[122.051064,12.78143],[122.050827,12.78167],[122.050278,12.78167],[122.049721,12.78222],[122.048889,12.78222],[122.048607,12.7825],[122.048332,12.7825],[122.048058,12.78278],[122.047501,12.78278],[122.047234,12.78306],[122.046669,12.78306],[122.046501,12.78322],[122.047462,12.7854]]]]}},{"type":"Feature","properties":{"ID_0":177,"ISO":"PHL","NAME_0":"Philippines","ID_1":17059,"NAME_1":"Romblon","ID_2":1705906,"NAME_2":"Corcuera","ID_3":1705906013,"NAME_3":"San Agustin","NL_NAME_3":null,"VARNAME_3":null,"TYPE_3":"Barangay","ENGTYPE_3":"Village","PROVINCE":"Romblon","REGION":"Mimaropa Region","id":"barangay-1705906013","name":"San Agustin","barangayCode":"1705906013","population":null,"formattedPop":null,"densityCategory":"No data","vulnerabilityRating":"No data","healthRiskLevel":"No data","areaKm2":0.874194,"centerLat":12.79009,"centerLng":122.050565,"geometrySource":"all_barangay-2.csv detailed WKT","geometryMatchMethod":"unique_official_admin_names","boundaryPointCount":38},"geometry":{"type":"MultiPolygon","coordinates":[[[[122.054329,12.79676],[122.054764,12.79497],[122.055359,12.79328],[122.056633,12.79181],[122.056572,12.78988],[122.056747,12.78875],[122.057587,12.78771],[122.057533,12.78635],[122.057129,12.78478],[122.05722,12.78357],[122.057404,12.7827],[122.057472,12.78248],[122.056618,12.78242],[122.055473,12.78234],[122.054901,12.78229],[122.054787,12.78261],[122.054573,12.78317],[122.054008,12.78426],[122.053383,12.7842],[122.052353,12.78409],[122.051353,12.78458],[122.050163,12.78442],[122.0494,12.7847],[122.048637,12.78519],[122.047462,12.7854],[122.047218,12.78611],[122.047363,12.78749],[122.047607,12.78895],[122.047363,12.79002],[122.047287,12.79154],[122.047592,12.79272],[122.048157,12.79512],[122.047997,12.79657],[122.049004,12.79677],[122.050117,12.79757],[122.051598,12.79749],[122.052849,12.79694],[122.054329,12.79676]]]]}},{"type":"Feature","properties":{"ID_0":177,"ISO":"PHL","NAME_0":"Philippines","ID_1":17059,"NAME_1":"Romblon","ID_2":1705906,"NAME_2":"Corcuera","ID_3":1705906014,"NAME_3":"San Roque","NL_NAME_3":null,"VARNAME_3":null,"TYPE_3":"Barangay","ENGTYPE_3":"Village","PROVINCE":"Romblon","REGION":"Mimaropa Region","id":"barangay-1705906014","name":"San Roque","barangayCode":"1705906014","population":null,"formattedPop":null,"densityCategory":"No data","vulnerabilityRating":"No data","healthRiskLevel":"No data","areaKm2":1.357244,"centerLat":12.800229,"centerLng":122.026038,"geometrySource":"all_barangay-2.csv detailed WKT","geometryMatchMethod":"unique_official_admin_names","boundaryPointCount":90},"geometry":{"type":"MultiPolygon","coordinates":[[[[122.0271,12.80737],[122.027397,12.80689],[122.027527,12.80696],[122.028053,12.80699],[122.028358,12.80684],[122.028526,12.80645],[122.028793,12.80625],[122.029129,12.80614],[122.029457,12.80589],[122.029701,12.80555],[122.029961,12.80533],[122.030319,12.80519],[122.030632,12.80497],[122.030746,12.80467],[122.030991,12.80374],[122.031601,12.80319],[122.031113,12.80306],[122.030563,12.80278],[122.030563,12.80139],[122.031387,12.80056],[122.031387,12.80028],[122.03083,12.79972],[122.03083,12.79778],[122.029991,12.79694],[122.029472,12.79672],[122.028473,12.79542],[122.028297,12.79498],[122.027222,12.79444],[122.027222,12.79417],[122.02639,12.79389],[122.025833,12.79389],[122.025558,12.79361],[122.025284,12.79361],[122.025002,12.79333],[122.024719,12.79333],[122.024437,12.79306],[122.02417,12.79306],[122.023888,12.79333],[122.023613,12.79333],[122.023331,12.79361],[122.023064,12.79361],[122.022903,12.79377],[122.022499,12.79417],[122.022133,12.79417],[122.021942,12.79417],[122.021744,12.79437],[122.021667,12.79444],[122.021599,12.79444],[122.021393,12.79444],[122.021233,12.7946],[122.021111,12.79472],[122.020668,12.79472],[122.020554,12.79472],[122.020523,12.79475],[122.020279,12.795],[122.019997,12.795],[122.019722,12.79528],[122.019447,12.79528],[122.019157,12.79556],[122.019157,12.79583],[122.018608,12.79639],[122.018608,12.79694],[122.018372,12.79719],[122.018333,12.79722],[122.018333,12.7975],[122.018463,12.79762],[122.01989,12.79906],[122.020844,12.8],[122.021393,12.8],[122.021942,12.80056],[122.022217,12.80056],[122.022499,12.80083],[122.022499,12.80111],[122.022659,12.80127],[122.022781,12.80139],[122.022781,12.80166],[122.022781,12.80222],[122.023041,12.80248],[122.023064,12.80252],[122.023064,12.80306],[122.023331,12.80333],[122.023331,12.80361],[122.023613,12.80392],[122.023613,12.80417],[122.023903,12.80446],[122.02417,12.80472],[122.024437,12.805],[122.025558,12.80528],[122.025558,12.80583],[122.0271,12.80737]]]]}},{"type":"Feature","properties":{"ID_0":177,"ISO":"PHL","NAME_0":"Philippines","ID_1":17059,"NAME_1":"Romblon","ID_2":1705906,"NAME_2":"Corcuera","ID_3":1705906015,"NAME_3":"San Vicente","NL_NAME_3":null,"VARNAME_3":null,"TYPE_3":"Barangay","ENGTYPE_3":"Village","PROVINCE":"Romblon","REGION":"Mimaropa Region","id":"barangay-1705906015","name":"San Vicente","barangayCode":"1705906015","population":null,"formattedPop":null,"densityCategory":"No data","vulnerabilityRating":"No data","healthRiskLevel":"No data","areaKm2":1.502123,"centerLat":12.801419,"centerLng":122.049199,"geometrySource":"all_barangay-2.csv detailed WKT","geometryMatchMethod":"unique_official_admin_names","boundaryPointCount":47},"geometry":{"type":"MultiPolygon","coordinates":[[[[122.053833,12.80958],[122.055069,12.80694],[122.055763,12.80631],[122.056053,12.80454],[122.056267,12.80133],[122.057243,12.79939],[122.056419,12.79816],[122.056023,12.79656],[122.054329,12.79676],[122.052849,12.79694],[122.051598,12.79749],[122.050117,12.79757],[122.049004,12.79677],[122.047997,12.79657],[122.047913,12.79719],[122.047249,12.79747],[122.046822,12.79779],[122.046997,12.79855],[122.047012,12.79906],[122.046021,12.7992],[122.045174,12.79902],[122.044678,12.79938],[122.044113,12.79997],[122.043297,12.80029],[122.04319,12.80096],[122.042557,12.80171],[122.041771,12.80211],[122.040558,12.80252],[122.041527,12.80318],[122.041969,12.80402],[122.042526,12.80522],[122.04303,12.80639],[122.044182,12.80625],[122.044228,12.80625],[122.045113,12.80666],[122.045776,12.80697],[122.046463,12.80749],[122.047043,12.808],[122.047546,12.80831],[122.048424,12.80858],[122.049309,12.8086],[122.049957,12.80877],[122.050079,12.80882],[122.051132,12.80919],[122.052071,12.80932],[122.052597,12.80942],[122.053833,12.80958]]]]}},{"type":"Feature","properties":{"ID_0":177,"ISO":"PHL","NAME_0":"Philippines","ID_1":17059,"NAME_1":"Romblon","ID_2":1705906,"NAME_2":"Corcuera","ID_3":1705906016,"NAME_3":"Tacasan","NL_NAME_3":null,"VARNAME_3":null,"TYPE_3":"Barangay","ENGTYPE_3":"Village","PROVINCE":"Romblon","REGION":"Mimaropa Region","id":"barangay-1705906016","name":"Tacasan","barangayCode":"1705906016","population":null,"formattedPop":null,"densityCategory":"No data","vulnerabilityRating":"No data","healthRiskLevel":"No data","areaKm2":1.554384,"centerLat":12.789739,"centerLng":122.040392,"geometrySource":"all_barangay-2.csv detailed WKT","geometryMatchMethod":"unique_official_admin_names","boundaryPointCount":78},"geometry":{"type":"MultiPolygon","coordinates":[[[[122.047997,12.79657],[122.048157,12.79512],[122.047592,12.79272],[122.047287,12.79154],[122.047363,12.79002],[122.047607,12.78895],[122.047363,12.78749],[122.047218,12.78611],[122.047462,12.7854],[122.046501,12.78322],[122.046387,12.78333],[122.046112,12.78333],[122.04583,12.78361],[122.045563,12.78361],[122.04528,12.78389],[122.044998,12.78389],[122.044724,12.78417],[122.044167,12.78417],[122.043892,12.78444],[122.043327,12.78444],[122.043053,12.78472],[122.041389,12.78472],[122.041107,12.785],[122.040833,12.78472],[122.040703,12.78472],[122.040558,12.78472],[122.040497,12.78478],[122.040001,12.78528],[122.039719,12.78528],[122.039436,12.78556],[122.038612,12.78556],[122.03833,12.78583],[122.036667,12.78583],[122.036636,12.7858],[122.03611,12.78528],[122.035843,12.78528],[122.035278,12.78583],[122.035233,12.78583],[122.034157,12.78583],[122.034012,12.78599],[122.03389,12.78611],[122.033798,12.78602],[122.033607,12.78583],[122.032501,12.78583],[122.032043,12.78629],[122.031937,12.78639],[122.031807,12.78639],[122.031387,12.78639],[122.031067,12.78671],[122.030167,12.78761],[122.029999,12.78778],[122.029999,12.7879],[122.029999,12.78833],[122.029892,12.78844],[122.029716,12.78861],[122.029716,12.78935],[122.029831,12.78924],[122.030579,12.7902],[122.031837,12.7906],[122.033379,12.79134],[122.033546,12.79226],[122.03508,12.7933],[122.035988,12.79392],[122.03717,12.79355],[122.037712,12.79347],[122.038483,12.79362],[122.039146,12.79341],[122.039658,12.79369],[122.040237,12.79405],[122.040779,12.79362],[122.041557,12.7938],[122.041962,12.79475],[122.042892,12.79514],[122.043777,12.79511],[122.044502,12.79595],[122.045601,12.79627],[122.04657,12.7961],[122.047997,12.79657]]]]}}]}
