{"type":"FeatureCollection","features":[{"type":"Feature","properties":{"ID_0":177,"ISO":"PHL","NAME_0":"Philippines","ID_1":3014,"NAME_1":"Bulacan","ID_2":301415,"NAME_2":"Pandi","ID_3":301415001,"NAME_3":"Bagbaguin","NL_NAME_3":null,"VARNAME_3":null,"TYPE_3":"Barangay","ENGTYPE_3":"Village","PROVINCE":"Bulacan","REGION":"Region III (Central Luzon)","id":"barangay-0301415001","name":"Bagbaguin","barangayCode":"0301415001","population":null,"formattedPop":null,"densityCategory":"No data","vulnerabilityRating":"No data","healthRiskLevel":"No data","areaKm2":4.284988,"centerLat":14.890797,"centerLng":120.918249,"geometrySource":"all_barangay-2.csv detailed WKT","geometryMatchMethod":"unique_official_admin_names","boundaryPointCount":27},"geometry":{"type":"MultiPolygon","coordinates":[[[[120.935577,14.88668],[120.942703,14.88052],[120.940491,14.87939],[120.939194,14.87851],[120.937447,14.87757],[120.93602,14.87715],[120.93399,14.87614],[120.932243,14.87531],[120.930687,14.87446],[120.929527,14.87393],[120.928169,14.87342],[120.927307,14.87312],[120.926117,14.87239],[120.926422,14.87322],[120.926453,14.87396],[120.926239,14.87481],[120.926048,14.87548],[120.926041,14.87656],[120.926224,14.8772],[120.926483,14.87778],[120.927933,14.87924],[120.928886,14.87976],[120.930817,14.88164],[120.931877,14.8824],[120.933456,14.88355],[120.934753,14.88506],[120.935577,14.88668]]]]}},{"type":"Feature","properties":{"ID_0":177,"ISO":"PHL","NAME_0":"Philippines","ID_1":3014,"NAME_1":"Bulacan","ID_2":301415,"NAME_2":"Pandi","ID_3":301415002,"NAME_3":"Bagong Barrio","NL_NAME_3":null,"VARNAME_3":null,"TYPE_3":"Barangay","ENGTYPE_3":"Village","PROVINCE":"Bulacan","REGION":"Region III (Central Luzon)","id":"barangay-0301415002","name":"Bagong Barrio","barangayCode":"0301415002","population":null,"formattedPop":null,"densityCategory":"No data","vulnerabilityRating":"No data","healthRiskLevel":"No data","areaKm2":3.299533,"centerLat":14.892483,"centerLng":120.954225,"geometrySource":"all_barangay-2.csv detailed WKT","geometryMatchMethod":"unique_official_admin_names","boundaryPointCount":30},"geometry":{"type":"MultiPolygon","coordinates":[[[[120.97271,14.88618],[120.972214,14.88552],[120.972038,14.88492],[120.972191,14.88429],[120.972252,14.88334],[120.972023,14.8825],[120.970947,14.88131],[120.969612,14.88076],[120.968452,14.88036],[120.966904,14.87976],[120.96521,14.87902],[120.96389,14.87837],[120.962219,14.87761],[120.961456,14.87722],[120.959679,14.87662],[120.95771,14.87614],[120.955551,14.87581],[120.956741,14.8771],[120.957336,14.87806],[120.957497,14.87914],[120.95739,14.88068],[120.957603,14.88204],[120.958099,14.88346],[120.959427,14.88386],[120.961121,14.88422],[120.963921,14.88522],[120.966583,14.88539],[120.967918,14.88567],[120.970627,14.88588],[120.97271,14.88618]]]]}},{"type":"Feature","properties":{"ID_0":177,"ISO":"PHL","NAME_0":"Philippines","ID_1":3014,"NAME_1":"Bulacan","ID_2":301415,"NAME_2":"Pandi","ID_3":301415003,"NAME_3":"Bunsuran III","NL_NAME_3":null,"VARNAME_3":null,"TYPE_3":"Barangay","ENGTYPE_3":"Village","PROVINCE":"Bulacan","REGION":"Region III (Central Luzon)","id":"barangay-0301415003","name":"Bunsuran III","barangayCode":"0301415003","population":null,"formattedPop":null,"densityCategory":"No data","vulnerabilityRating":"No data","healthRiskLevel":"No data","areaKm2":1.093019,"centerLat":14.866654,"centerLng":120.92958,"geometrySource":"all_barangay-2.csv detailed WKT","geometryMatchMethod":"unique_official_admin_names","boundaryPointCount":18},"geometry":{"type":"MultiPolygon","coordinates":[[[[120.949913,14.86349],[120.95121,14.85555],[120.951393,14.85374],[120.946404,14.85279],[120.941353,14.85213],[120.941116,14.85284],[120.940804,14.85387],[120.940071,14.85561],[120.93895,14.85781],[120.939377,14.85916],[120.939888,14.8603],[120.940567,14.86141],[120.941238,14.86197],[120.942711,14.86295],[120.943802,14.86384],[120.946159,14.86368],[120.947617,14.86342],[120.949913,14.86349]]]]}},{"type":"Feature","properties":{"ID_0":177,"ISO":"PHL","NAME_0":"Philippines","ID_1":3014,"NAME_1":"Bulacan","ID_2":301415,"NAME_2":"Pandi","ID_3":301415004,"NAME_3":"Bunsuran I","NL_NAME_3":null,"VARNAME_3":null,"TYPE_3":"Barangay","ENGTYPE_3":"Village","PROVINCE":"Bulacan","REGION":"Region III (Central Luzon)","id":"barangay-0301415004","name":"Bunsuran I","barangayCode":"0301415004","population":null,"formattedPop":null,"densityCategory":"No data","vulnerabilityRating":"No data","healthRiskLevel":"No data","areaKm2":1.480324,"centerLat":14.863586,"centerLng":120.939836,"geometrySource":"all_barangay-2.csv detailed WKT","geometryMatchMethod":"unique_official_admin_names","boundaryPointCount":12},"geometry":{"type":"MultiPolygon","coordinates":[[[[120.960747,14.86336],[120.96151,14.85827],[120.961868,14.85638],[120.956413,14.85493],[120.955521,14.85484],[120.953873,14.85434],[120.952766,14.85397],[120.951393,14.85374],[120.95121,14.85555],[120.949913,14.86349],[120.952057,14.86355],[120.960747,14.86336]]]]}},{"type":"Feature","properties":{"ID_0":177,"ISO":"PHL","NAME_0":"Philippines","ID_1":3014,"NAME_1":"Bulacan","ID_2":301415,"NAME_2":"Pandi","ID_3":301415005,"NAME_3":"Bunsuran II","NL_NAME_3":null,"VARNAME_3":null,"TYPE_3":"Barangay","ENGTYPE_3":"Village","PROVINCE":"Bulacan","REGION":"Region III (Central Luzon)","id":"barangay-0301415005","name":"Bunsuran II","barangayCode":"0301415005","population":null,"formattedPop":null,"densityCategory":"No data","vulnerabilityRating":"No data","healthRiskLevel":"No data","areaKm2":1.150245,"centerLat":14.856031,"centerLng":120.924767,"geometrySource":"all_barangay-2.csv detailed WKT","geometryMatchMethod":"unique_official_admin_names","boundaryPointCount":32},"geometry":{"type":"MultiPolygon","coordinates":[[[[120.928741,14.85955],[120.93895,14.85781],[120.940071,14.85561],[120.940804,14.85387],[120.941116,14.85284],[120.941353,14.85213],[120.941147,14.85103],[120.940697,14.84997],[120.940193,14.84865],[120.939346,14.8479],[120.9384,14.84721],[120.936447,14.84608],[120.936256,14.84673],[120.935631,14.84766],[120.935043,14.84909],[120.934677,14.85007],[120.934753,14.85094],[120.935249,14.85242],[120.935547,14.85352],[120.935463,14.85436],[120.934959,14.85494],[120.934196,14.85522],[120.93338,14.85553],[120.93251,14.85608],[120.931839,14.85619],[120.931061,14.85603],[120.929962,14.85581],[120.929024,14.85632],[120.928497,14.85712],[120.928436,14.8579],[120.928558,14.85862],[120.928741,14.85955]]]]}},{"type":"Feature","properties":{"ID_0":177,"ISO":"PHL","NAME_0":"Philippines","ID_1":3014,"NAME_1":"Bulacan","ID_2":301415,"NAME_2":"Pandi","ID_3":301415006,"NAME_3":"Cacarong Bata","NL_NAME_3":null,"VARNAME_3":null,"TYPE_3":"Barangay","ENGTYPE_3":"Village","PROVINCE":"Bulacan","REGION":"Region III (Central Luzon)","id":"barangay-0301415006","name":"Cacarong Bata","barangayCode":"0301415006","population":null,"formattedPop":null,"densityCategory":"No data","vulnerabilityRating":"No data","healthRiskLevel":"No data","areaKm2":1.233648,"centerLat":14.899588,"centerLng":120.964371,"geometrySource":"all_barangay-2.csv detailed WKT","geometryMatchMethod":"unique_official_admin_names","boundaryPointCount":51},"geometry":{"type":"MultiPolygon","coordinates":[[[[120.969612,14.8958],[120.972412,14.89554],[120.973869,14.89428],[120.975121,14.89353],[120.976418,14.89263],[120.975243,14.8918],[120.974182,14.89043],[120.973587,14.88968],[120.972481,14.88864],[120.971359,14.88795],[120.970467,14.88744],[120.96962,14.88707],[120.968262,14.88658],[120.966713,14.8862],[120.964973,14.8856],[120.963921,14.88522],[120.961121,14.88422],[120.959427,14.88386],[120.958099,14.88346],[120.956543,14.88281],[120.955078,14.88223],[120.953438,14.88167],[120.951988,14.88123],[120.950272,14.8808],[120.949081,14.88065],[120.947456,14.88061],[120.946373,14.88051],[120.944427,14.88035],[120.942703,14.88052],[120.943321,14.8812],[120.944221,14.88204],[120.944794,14.88255],[120.946037,14.8836],[120.947113,14.88436],[120.948883,14.88519],[120.950203,14.88573],[120.951538,14.88624],[120.952881,14.88693],[120.953957,14.8876],[120.955078,14.88881],[120.955757,14.88959],[120.957123,14.89081],[120.958214,14.89191],[120.959251,14.89285],[120.960388,14.89356],[120.961861,14.89408],[120.963341,14.89455],[120.96463,14.89477],[120.966133,14.89499],[120.967491,14.89575],[120.969612,14.8958]]]]}},{"type":"Feature","properties":{"ID_0":177,"ISO":"PHL","NAME_0":"Philippines","ID_1":3014,"NAME_1":"Bulacan","ID_2":301415,"NAME_2":"Pandi","ID_3":301415007,"NAME_3":"Cacarong Matanda","NL_NAME_3":null,"VARNAME_3":null,"TYPE_3":"Barangay","ENGTYPE_3":"Village","PROVINCE":"Bulacan","REGION":"Region III (Central Luzon)","id":"barangay-0301415007","name":"Cacarong Matanda","barangayCode":"0301415007","population":null,"formattedPop":null,"densityCategory":"No data","vulnerabilityRating":"No data","healthRiskLevel":"No data","areaKm2":2.867013,"centerLat":14.907453,"centerLng":120.971154,"geometrySource":"all_barangay-2.csv detailed WKT","geometryMatchMethod":"unique_official_admin_names","boundaryPointCount":30},"geometry":{"type":"MultiPolygon","coordinates":[[[[120.985687,14.892],[120.983017,14.8895],[120.981651,14.88844],[120.980919,14.88789],[120.979858,14.8872],[120.978256,14.88682],[120.976128,14.88648],[120.974564,14.88635],[120.97271,14.88618],[120.970627,14.88588],[120.967918,14.88567],[120.966583,14.88539],[120.963921,14.88522],[120.964973,14.8856],[120.966713,14.8862],[120.968262,14.88658],[120.96962,14.88707],[120.970467,14.88744],[120.971359,14.88795],[120.972481,14.88864],[120.973587,14.88968],[120.974182,14.89043],[120.975243,14.8918],[120.976418,14.89263],[120.978401,14.89277],[120.979668,14.89264],[120.981369,14.89255],[120.982933,14.89211],[120.983818,14.89196],[120.985687,14.892]]]]}},{"type":"Feature","properties":{"ID_0":177,"ISO":"PHL","NAME_0":"Philippines","ID_1":3014,"NAME_1":"Bulacan","ID_2":301415,"NAME_2":"Pandi","ID_3":301415008,"NAME_3":"Cupang","NL_NAME_3":null,"VARNAME_3":null,"TYPE_3":"Barangay","ENGTYPE_3":"Village","PROVINCE":"Bulacan","REGION":"Region III (Central Luzon)","id":"barangay-0301415008","name":"Cupang","barangayCode":"0301415008","population":null,"formattedPop":null,"densityCategory":"No data","vulnerabilityRating":"No data","healthRiskLevel":"No data","areaKm2":2.364288,"centerLat":14.896672,"centerLng":120.938361,"geometrySource":"all_barangay-2.csv detailed WKT","geometryMatchMethod":"unique_official_admin_names","boundaryPointCount":36},"geometry":{"type":"MultiPolygon","coordinates":[[[[120.952591,14.89452],[120.957062,14.89437],[120.957947,14.89468],[120.958649,14.8953],[120.959877,14.89593],[120.962883,14.89592],[120.967491,14.89575],[120.966133,14.89499],[120.96463,14.89477],[120.963341,14.89455],[120.961861,14.89408],[120.960388,14.89356],[120.959251,14.89285],[120.958214,14.89191],[120.957123,14.89081],[120.955757,14.88959],[120.955078,14.88881],[120.953957,14.8876],[120.952881,14.88693],[120.951538,14.88624],[120.950203,14.88573],[120.948883,14.88519],[120.947113,14.88436],[120.946037,14.8836],[120.944794,14.88255],[120.944221,14.88204],[120.943321,14.8812],[120.942703,14.88052],[120.935577,14.88668],[120.936333,14.88835],[120.93692,14.89095],[120.937607,14.89318],[120.939117,14.894],[120.943413,14.89485],[120.95121,14.89482],[120.952591,14.89452]]]]}},{"type":"Feature","properties":{"ID_0":177,"ISO":"PHL","NAME_0":"Philippines","ID_1":3014,"NAME_1":"Bulacan","ID_2":301415,"NAME_2":"Pandi","ID_3":301415009,"NAME_3":"Malibong Bata","NL_NAME_3":null,"VARNAME_3":null,"TYPE_3":"Barangay","ENGTYPE_3":"Village","PROVINCE":"Bulacan","REGION":"Region III (Central Luzon)","id":"barangay-0301415009","name":"Malibong Bata","barangayCode":"0301415009","population":null,"formattedPop":null,"densityCategory":"No data","vulnerabilityRating":"No data","healthRiskLevel":"No data","areaKm2":1.597141,"centerLat":14.839993,"centerLng":120.927738,"geometrySource":"all_barangay-2.csv detailed WKT","geometryMatchMethod":"unique_official_admin_names","boundaryPointCount":22},"geometry":{"type":"MultiPolygon","coordinates":[[[[120.940193,14.84865],[120.942673,14.84916],[120.943687,14.84927],[120.94558,14.84933],[120.946869,14.84951],[120.948082,14.84947],[120.949333,14.84959],[120.950684,14.84987],[120.952972,14.85044],[120.955017,14.85101],[120.955803,14.85151],[120.954689,14.84408],[120.93441,14.84054],[120.934349,14.84197],[120.934662,14.84334],[120.934921,14.84441],[120.93528,14.84473],[120.936081,14.84507],[120.936447,14.84608],[120.9384,14.84721],[120.939346,14.8479],[120.940193,14.84865]]]]}},{"type":"Feature","properties":{"ID_0":177,"ISO":"PHL","NAME_0":"Philippines","ID_1":3014,"NAME_1":"Bulacan","ID_2":301415,"NAME_2":"Pandi","ID_3":301415010,"NAME_3":"Malibong Matanda","NL_NAME_3":null,"VARNAME_3":null,"TYPE_3":"Barangay","ENGTYPE_3":"Village","PROVINCE":"Bulacan","REGION":"Region III (Central Luzon)","id":"barangay-0301415010","name":"Malibong Matanda","barangayCode":"0301415010","population":null,"formattedPop":null,"densityCategory":"No data","vulnerabilityRating":"No data","healthRiskLevel":"No data","areaKm2":3.940186,"centerLat":14.848908,"centerLng":120.93653,"geometrySource":"all_barangay-2.csv detailed WKT","geometryMatchMethod":"unique_official_admin_names","boundaryPointCount":22},"geometry":{"type":"MultiPolygon","coordinates":[[[[120.951393,14.85374],[120.952766,14.85397],[120.953873,14.85434],[120.955521,14.85484],[120.956413,14.85493],[120.956223,14.85246],[120.955803,14.85151],[120.955017,14.85101],[120.952972,14.85044],[120.950684,14.84987],[120.949333,14.84959],[120.948082,14.84947],[120.946869,14.84951],[120.94558,14.84933],[120.943687,14.84927],[120.942673,14.84916],[120.940193,14.84865],[120.940697,14.84997],[120.941147,14.85103],[120.941353,14.85213],[120.946404,14.85279],[120.951393,14.85374]]]]}},{"type":"Feature","properties":{"ID_0":177,"ISO":"PHL","NAME_0":"Philippines","ID_1":3014,"NAME_1":"Bulacan","ID_2":301415,"NAME_2":"Pandi","ID_3":301415011,"NAME_3":"Manatal","NL_NAME_3":null,"VARNAME_3":null,"TYPE_3":"Barangay","ENGTYPE_3":"Village","PROVINCE":"Bulacan","REGION":"Region III (Central Luzon)","id":"barangay-0301415011","name":"Manatal","barangayCode":"0301415011","population":null,"formattedPop":null,"densityCategory":"No data","vulnerabilityRating":"No data","healthRiskLevel":"No data","areaKm2":3.341209,"centerLat":14.873999,"centerLng":120.916115,"geometrySource":"all_barangay-2.csv detailed WKT","geometryMatchMethod":"unique_official_admin_names","boundaryPointCount":34},"geometry":{"type":"MultiPolygon","coordinates":[[[[120.932243,14.87531],[120.935478,14.86874],[120.936317,14.86776],[120.937592,14.86726],[120.938683,14.86693],[120.940681,14.86659],[120.942123,14.86636],[120.944054,14.86669],[120.943802,14.86384],[120.942711,14.86295],[120.941238,14.86197],[120.940567,14.86141],[120.939888,14.8603],[120.939377,14.85916],[120.93895,14.85781],[120.928741,14.85955],[120.928757,14.86063],[120.928619,14.86143],[120.928238,14.86221],[120.927422,14.86308],[120.926857,14.86385],[120.926521,14.86452],[120.926437,14.86508],[120.926048,14.86745],[120.925682,14.86792],[120.925148,14.86896],[120.925049,14.86977],[120.925438,14.87101],[120.926117,14.87239],[120.927307,14.87312],[120.928169,14.87342],[120.929527,14.87393],[120.930687,14.87446],[120.932243,14.87531]]]]}},{"type":"Feature","properties":{"ID_0":177,"ISO":"PHL","NAME_0":"Philippines","ID_1":3014,"NAME_1":"Bulacan","ID_2":301415,"NAME_2":"Pandi","ID_3":301415012,"NAME_3":"Mapulang Lupa","NL_NAME_3":null,"VARNAME_3":null,"TYPE_3":"Barangay","ENGTYPE_3":"Village","PROVINCE":"Bulacan","REGION":"Region III (Central Luzon)","id":"barangay-0301415012","name":"Mapulang Lupa","barangayCode":"0301415012","population":null,"formattedPop":null,"densityCategory":"No data","vulnerabilityRating":"No data","healthRiskLevel":"No data","areaKm2":2.102838,"centerLat":14.882218,"centerLng":120.964502,"geometrySource":"all_barangay-2.csv detailed WKT","geometryMatchMethod":"unique_official_admin_names","boundaryPointCount":40},"geometry":{"type":"MultiPolygon","coordinates":[[[[120.96521,14.87902],[120.968399,14.87837],[120.972237,14.87769],[120.978691,14.87655],[120.98378,14.87571],[120.988678,14.87501],[120.999207,14.87034],[120.997673,14.86851],[120.996017,14.86641],[120.994713,14.86756],[120.993408,14.8686],[120.991997,14.86936],[120.989761,14.86992],[120.988037,14.87051],[120.985512,14.87079],[120.982948,14.87095],[120.980186,14.87123],[120.978394,14.8713],[120.976593,14.87154],[120.975616,14.87166],[120.973969,14.87144],[120.972588,14.87118],[120.971138,14.87106],[120.969879,14.87116],[120.969093,14.87136],[120.967308,14.87148],[120.965523,14.87148],[120.964012,14.8714],[120.962433,14.8717],[120.961517,14.87172],[120.960358,14.87186],[120.960373,14.87243],[120.960487,14.87374],[120.960297,14.87497],[120.960197,14.87583],[120.959679,14.87662],[120.961456,14.87722],[120.962219,14.87761],[120.96389,14.87837],[120.96521,14.87902]]]]}},{"type":"Feature","properties":{"ID_0":177,"ISO":"PHL","NAME_0":"Philippines","ID_1":3014,"NAME_1":"Bulacan","ID_2":301415,"NAME_2":"Pandi","ID_3":301415013,"NAME_3":"Masagana","NL_NAME_3":null,"VARNAME_3":null,"TYPE_3":"Barangay","ENGTYPE_3":"Village","PROVINCE":"Bulacan","REGION":"Region III (Central Luzon)","id":"barangay-0301415013","name":"Masagana","barangayCode":"0301415013","population":null,"formattedPop":null,"densityCategory":"No data","vulnerabilityRating":"No data","healthRiskLevel":"No data","areaKm2":2.080211,"centerLat":14.88358,"centerLng":120.932172,"geometrySource":"all_barangay-2.csv detailed WKT","geometryMatchMethod":"unique_official_admin_names","boundaryPointCount":36},"geometry":{"type":"MultiPolygon","coordinates":[[[[120.942703,14.88052],[120.944427,14.88035],[120.946373,14.88051],[120.947456,14.88061],[120.949081,14.88065],[120.950272,14.8808],[120.951988,14.88123],[120.953438,14.88167],[120.955078,14.88223],[120.956543,14.88281],[120.958099,14.88346],[120.957603,14.88204],[120.95739,14.88068],[120.957497,14.87914],[120.957336,14.87806],[120.956741,14.8771],[120.955551,14.87581],[120.953857,14.8752],[120.951576,14.87473],[120.94989,14.87415],[120.948311,14.87341],[120.946449,14.87235],[120.945396,14.87201],[120.944107,14.8713],[120.942963,14.8707],[120.941338,14.87008],[120.940193,14.86977],[120.93792,14.86934],[120.935478,14.86874],[120.932243,14.87531],[120.93399,14.87614],[120.93602,14.87715],[120.937447,14.87757],[120.939194,14.87851],[120.940491,14.87939],[120.942703,14.88052]]]]}},{"type":"Feature","properties":{"ID_0":177,"ISO":"PHL","NAME_0":"Philippines","ID_1":3014,"NAME_1":"Bulacan","ID_2":301415,"NAME_2":"Pandi","ID_3":301415014,"NAME_3":"Masuso","NL_NAME_3":null,"VARNAME_3":null,"TYPE_3":"Barangay","ENGTYPE_3":"Village","PROVINCE":"Bulacan","REGION":"Region III (Central Luzon)","id":"barangay-0301415014","name":"Masuso","barangayCode":"0301415014","population":null,"formattedPop":null,"densityCategory":"No data","vulnerabilityRating":"No data","healthRiskLevel":"No data","areaKm2":2.160206,"centerLat":14.880606,"centerLng":120.938844,"geometrySource":"all_barangay-2.csv detailed WKT","geometryMatchMethod":"unique_official_admin_names","boundaryPointCount":36},"geometry":{"type":"MultiPolygon","coordinates":[[[[120.959679,14.87662],[120.960197,14.87583],[120.960297,14.87497],[120.960487,14.87374],[120.960373,14.87243],[120.960358,14.87186],[120.959999,14.87031],[120.957863,14.86961],[120.956711,14.86949],[120.955338,14.86945],[120.953484,14.86921],[120.951752,14.8689],[120.949287,14.86818],[120.947212,14.86757],[120.94529,14.86697],[120.944054,14.86669],[120.942123,14.86636],[120.940681,14.86659],[120.938683,14.86693],[120.937592,14.86726],[120.936317,14.86776],[120.935478,14.86874],[120.93792,14.86934],[120.940193,14.86977],[120.941338,14.87008],[120.942963,14.8707],[120.944107,14.8713],[120.945396,14.87201],[120.946449,14.87235],[120.948311,14.87341],[120.94989,14.87415],[120.951576,14.87473],[120.953857,14.8752],[120.955551,14.87581],[120.95771,14.87614],[120.959679,14.87662]]]]}},{"type":"Feature","properties":{"ID_0":177,"ISO":"PHL","NAME_0":"Philippines","ID_1":3014,"NAME_1":"Bulacan","ID_2":301415,"NAME_2":"Pandi","ID_3":301415015,"NAME_3":"Pinagkuartelan","NL_NAME_3":null,"VARNAME_3":null,"TYPE_3":"Barangay","ENGTYPE_3":"Village","PROVINCE":"Bulacan","REGION":"Region III (Central Luzon)","id":"barangay-0301415015","name":"Pinagkuartelan","barangayCode":"0301415015","population":null,"formattedPop":null,"densityCategory":"No data","vulnerabilityRating":"No data","healthRiskLevel":"No data","areaKm2":2.195882,"centerLat":14.89865,"centerLng":120.98238,"geometrySource":"all_barangay-2.csv detailed WKT","geometryMatchMethod":"unique_official_admin_names","boundaryPointCount":29},"geometry":{"type":"MultiPolygon","coordinates":[[[[121.006432,14.90684],[121.009003,14.90888],[121.011497,14.91138],[121.011963,14.91044],[121.011833,14.90909],[121.011497,14.90752],[121.011093,14.90628],[121.010017,14.90377],[121.010002,14.90245],[121.010521,14.90153],[121.01149,14.90072],[121.012337,14.89885],[121.012444,14.89681],[121.01133,14.89176],[121.010269,14.88915],[121.006378,14.89034],[121.003372,14.89081],[121.000816,14.8912],[120.99884,14.89156],[120.997276,14.89155],[120.996017,14.89181],[120.993874,14.89215],[120.991699,14.89213],[120.992287,14.89433],[120.992683,14.89481],[120.994347,14.89643],[121.001404,14.90265],[121.004646,14.90512],[121.006432,14.90684]]]]}},{"type":"Feature","properties":{"ID_0":177,"ISO":"PHL","NAME_0":"Philippines","ID_1":3014,"NAME_1":"Bulacan","ID_2":301415,"NAME_2":"Pandi","ID_3":301415016,"NAME_3":"Poblacion","NL_NAME_3":null,"VARNAME_3":null,"TYPE_3":"Barangay","ENGTYPE_3":"Village","PROVINCE":"Bulacan","REGION":"Region III (Central Luzon)","id":"barangay-0301415016","name":"Poblacion","barangayCode":"0301415016","population":null,"formattedPop":null,"densityCategory":"No data","vulnerabilityRating":"No data","healthRiskLevel":"No data","areaKm2":4.842562,"centerLat":14.870558,"centerLng":120.955834,"geometrySource":"all_barangay-2.csv detailed WKT","geometryMatchMethod":"unique_official_admin_names","boundaryPointCount":50},"geometry":{"type":"MultiPolygon","coordinates":[[[[120.960358,14.87186],[120.961517,14.87172],[120.962433,14.8717],[120.964012,14.8714],[120.965523,14.87148],[120.967308,14.87148],[120.969093,14.87136],[120.969879,14.87116],[120.971138,14.87106],[120.972588,14.87118],[120.973969,14.87144],[120.975616,14.87166],[120.976593,14.87154],[120.978394,14.8713],[120.980186,14.87123],[120.982948,14.87095],[120.985512,14.87079],[120.988037,14.87051],[120.989761,14.86992],[120.991997,14.86936],[120.993408,14.8686],[120.994713,14.86756],[120.996017,14.86641],[120.994919,14.86459],[120.994202,14.86343],[120.993233,14.86172],[120.992523,14.8609],[120.990868,14.85962],[120.989662,14.85882],[120.9879,14.85802],[120.986053,14.85717],[120.980759,14.85454],[120.980843,14.85547],[120.980759,14.85631],[120.980469,14.8569],[120.979477,14.85778],[120.978447,14.85841],[120.977341,14.85874],[120.976051,14.85887],[120.974533,14.85873],[120.973244,14.85856],[120.971542,14.85815],[120.967102,14.8574],[120.964394,14.85689],[120.961868,14.85638],[120.96151,14.85827],[120.960747,14.86336],[120.960472,14.86587],[120.959999,14.87031],[120.960358,14.87186]]]]}},{"type":"Feature","properties":{"ID_0":177,"ISO":"PHL","NAME_0":"Philippines","ID_1":3014,"NAME_1":"Bulacan","ID_2":301415,"NAME_2":"Pandi","ID_3":301415017,"NAME_3":"Real de Cacarong","NL_NAME_3":null,"VARNAME_3":null,"TYPE_3":"Barangay","ENGTYPE_3":"Village","PROVINCE":"Bulacan","REGION":"Region III (Central Luzon)","id":"barangay-0301415017","name":"Real de Cacarong","barangayCode":"0301415017","population":null,"formattedPop":null,"densityCategory":"No data","vulnerabilityRating":"No data","healthRiskLevel":"No data","areaKm2":1.910641,"centerLat":14.917099,"centerLng":120.979594,"geometrySource":"all_barangay-2.csv detailed WKT","geometryMatchMethod":"unique_official_admin_names","boundaryPointCount":39},"geometry":{"type":"MultiPolygon","coordinates":[[[[120.980408,14.91208],[120.980827,14.91284],[120.981506,14.91363],[120.982773,14.91525],[120.984741,14.91328],[120.986656,14.90931],[120.987473,14.90666],[120.988274,14.90209],[120.988876,14.90017],[120.990852,14.89772],[120.991333,14.89631],[120.992287,14.89433],[120.991699,14.89213],[120.990318,14.89203],[120.988457,14.89173],[120.985687,14.892],[120.983818,14.89196],[120.982933,14.89211],[120.981369,14.89255],[120.979668,14.89264],[120.978401,14.89277],[120.976418,14.89263],[120.975121,14.89353],[120.973869,14.89428],[120.972412,14.89554],[120.975937,14.89576],[120.979362,14.8956],[120.980453,14.89568],[120.981407,14.89596],[120.981789,14.89626],[120.983452,14.8971],[120.983727,14.8975],[120.984154,14.89864],[120.984451,14.90113],[120.983887,14.90302],[120.982857,14.90445],[120.981522,14.90738],[120.980713,14.90993],[120.980408,14.91208]]]]}},{"type":"Feature","properties":{"ID_0":177,"ISO":"PHL","NAME_0":"Philippines","ID_1":3014,"NAME_1":"Bulacan","ID_2":301415,"NAME_2":"Pandi","ID_3":301415018,"NAME_3":"San Roque","NL_NAME_3":null,"VARNAME_3":null,"TYPE_3":"Barangay","ENGTYPE_3":"Village","PROVINCE":"Bulacan","REGION":"Region III (Central Luzon)","id":"barangay-0301415018","name":"San Roque","barangayCode":"0301415018","population":null,"formattedPop":null,"densityCategory":"No data","vulnerabilityRating":"No data","healthRiskLevel":"No data","areaKm2":1.206746,"centerLat":14.857174,"centerLng":120.953491,"geometrySource":"all_barangay-2.csv detailed WKT","geometryMatchMethod":"unique_official_admin_names","boundaryPointCount":29},"geometry":{"type":"MultiPolygon","coordinates":[[[[120.956413,14.85493],[120.961868,14.85638],[120.964394,14.85689],[120.967102,14.8574],[120.971542,14.85815],[120.973244,14.85856],[120.974533,14.85873],[120.976051,14.85887],[120.977341,14.85874],[120.978447,14.85841],[120.979477,14.85778],[120.980469,14.8569],[120.980759,14.85631],[120.980843,14.85547],[120.980759,14.85454],[120.97924,14.8539],[120.974854,14.85176],[120.97258,14.8508],[120.968712,14.84952],[120.966507,14.84965],[120.965286,14.84967],[120.963516,14.84969],[120.961884,14.84975],[120.960388,14.84993],[120.959213,14.85029],[120.95787,14.85089],[120.957123,14.85134],[120.956223,14.85246],[120.956413,14.85493]]]]}},{"type":"Feature","properties":{"ID_0":177,"ISO":"PHL","NAME_0":"Philippines","ID_1":3014,"NAME_1":"Bulacan","ID_2":301415,"NAME_2":"Pandi","ID_3":301415019,"NAME_3":"Siling Bata","NL_NAME_3":null,"VARNAME_3":null,"TYPE_3":"Barangay","ENGTYPE_3":"Village","PROVINCE":"Bulacan","REGION":"Region III (Central Luzon)","id":"barangay-0301415019","name":"Siling Bata","barangayCode":"0301415019","population":null,"formattedPop":null,"densityCategory":"No data","vulnerabilityRating":"No data","healthRiskLevel":"No data","areaKm2":1.818252,"centerLat":14.890153,"centerLng":120.973842,"geometrySource":"all_barangay-2.csv detailed WKT","geometryMatchMethod":"unique_official_admin_names","boundaryPointCount":28},"geometry":{"type":"MultiPolygon","coordinates":[[[[120.96521,14.87902],[120.966904,14.87976],[120.968452,14.88036],[120.969612,14.88076],[120.970947,14.88131],[120.972023,14.8825],[120.972252,14.88334],[120.974083,14.88295],[120.976044,14.88259],[120.978287,14.88225],[120.979797,14.8819],[120.980873,14.88191],[120.982727,14.88172],[120.984138,14.88151],[120.985817,14.88121],[120.988586,14.88085],[120.991249,14.88044],[120.992287,14.87966],[120.993736,14.87858],[120.996727,14.8765],[121.000816,14.87344],[120.999207,14.87034],[120.988678,14.87501],[120.98378,14.87571],[120.978691,14.87655],[120.972237,14.87769],[120.968399,14.87837],[120.96521,14.87902]]]]}},{"type":"Feature","properties":{"ID_0":177,"ISO":"PHL","NAME_0":"Philippines","ID_1":3014,"NAME_1":"Bulacan","ID_2":301415,"NAME_2":"Pandi","ID_3":301415020,"NAME_3":"Siling Matanda","NL_NAME_3":null,"VARNAME_3":null,"TYPE_3":"Barangay","ENGTYPE_3":"Village","PROVINCE":"Bulacan","REGION":"Region III (Central Luzon)","id":"barangay-0301415020","name":"Siling Matanda","barangayCode":"0301415020","population":null,"formattedPop":null,"densityCategory":"No data","vulnerabilityRating":"No data","healthRiskLevel":"No data","areaKm2":3.319219,"centerLat":14.905171,"centerLng":120.992255,"geometrySource":"all_barangay-2.csv detailed WKT","geometryMatchMethod":"unique_official_admin_names","boundaryPointCount":44},"geometry":{"type":"MultiPolygon","coordinates":[[[[120.991699,14.89213],[120.993874,14.89215],[120.996017,14.89181],[120.997276,14.89155],[120.99884,14.89156],[121.000816,14.8912],[121.003372,14.89081],[121.006378,14.89034],[121.010269,14.88915],[121.010437,14.88876],[121.008171,14.88488],[121.006752,14.88214],[121.004997,14.87878],[121.0028,14.87575],[121.000816,14.87344],[120.996727,14.8765],[120.993736,14.87858],[120.992287,14.87966],[120.991249,14.88044],[120.988586,14.88085],[120.985817,14.88121],[120.984138,14.88151],[120.982727,14.88172],[120.980873,14.88191],[120.979797,14.8819],[120.978287,14.88225],[120.976044,14.88259],[120.974083,14.88295],[120.972252,14.88334],[120.972191,14.88429],[120.972038,14.88492],[120.972214,14.88552],[120.97271,14.88618],[120.974564,14.88635],[120.976128,14.88648],[120.978256,14.88682],[120.979858,14.8872],[120.980919,14.88789],[120.981651,14.88844],[120.983017,14.8895],[120.985687,14.892],[120.988457,14.89173],[120.990318,14.89203],[120.991699,14.89213]]]]}},{"type":"Feature","properties":{"ID_0":177,"ISO":"PHL","NAME_0":"Philippines","ID_1":3014,"NAME_1":"Bulacan","ID_2":301415,"NAME_2":"Pandi","ID_3":301415021,"NAME_3":"Baka-bakahan","NL_NAME_3":null,"VARNAME_3":null,"TYPE_3":"Barangay","ENGTYPE_3":"Village","PROVINCE":"Bulacan","REGION":"Region III (Central Luzon)","id":"barangay-0301415021","name":"Baka-bakahan","barangayCode":"0301415021","population":null,"formattedPop":null,"densityCategory":"No data","vulnerabilityRating":"No data","healthRiskLevel":"No data","areaKm2":1.062863,"centerLat":14.84934,"centerLng":120.948,"geometrySource":"all_barangay-2.csv detailed WKT","geometryMatchMethod":"unique_official_admin_names","boundaryPointCount":18},"geometry":{"type":"MultiPolygon","coordinates":[[[[120.956223,14.85246],[120.957123,14.85134],[120.95787,14.85089],[120.959213,14.85029],[120.960388,14.84993],[120.961884,14.84975],[120.963516,14.84969],[120.965286,14.84967],[120.966507,14.84965],[120.968712,14.84952],[120.965569,14.84807],[120.962044,14.84641],[120.959991,14.84553],[120.957779,14.84496],[120.956306,14.84451],[120.954689,14.84408],[120.955803,14.85151],[120.956223,14.85246]]]]}},{"type":"Feature","properties":{"ID_0":177,"ISO":"PHL","NAME_0":"Philippines","ID_1":3014,"NAME_1":"Bulacan","ID_2":301415,"NAME_2":"Pandi","ID_3":301415022,"NAME_3":"Santo Niño","NL_NAME_3":null,"VARNAME_3":"Santo Nino","TYPE_3":"Barangay","ENGTYPE_3":"Village","PROVINCE":"Bulacan","REGION":"Region III (Central Luzon)","id":"barangay-0301415022","name":"Santo Niño","barangayCode":"0301415022","population":null,"formattedPop":null,"densityCategory":"No data","vulnerabilityRating":"No data","healthRiskLevel":"No data","areaKm2":1.066708,"centerLat":14.871318,"centerLng":120.939413,"geometrySource":"all_barangay-2.csv detailed WKT","geometryMatchMethod":"unique_official_admin_names","boundaryPointCount":18},"geometry":{"type":"MultiPolygon","coordinates":[[[[120.959999,14.87031],[120.960472,14.86587],[120.960747,14.86336],[120.952057,14.86355],[120.949913,14.86349],[120.947617,14.86342],[120.946159,14.86368],[120.943802,14.86384],[120.944054,14.86669],[120.94529,14.86697],[120.947212,14.86757],[120.949287,14.86818],[120.951752,14.8689],[120.953484,14.86921],[120.955338,14.86945],[120.956711,14.86949],[120.957863,14.86961],[120.959999,14.87031]]]]}}]}
