{"type":"FeatureCollection","features":[{"type":"Feature","properties":{"ID_0":177,"ISO":"PHL","NAME_0":"Philippines","ID_1":6030,"NAME_1":"Iloilo","ID_2":603041,"NAME_2":"San Miguel","ID_3":603041001,"NAME_3":"Bgy. 1 Pob.","NL_NAME_3":null,"VARNAME_3":null,"TYPE_3":"Barangay","ENGTYPE_3":"Village","PROVINCE":"Iloilo","REGION":"Region VI (Western Visayas)","id":"barangay-0603041001","name":"Bgy. 1 Pob.","barangayCode":"0603041001","population":null,"formattedPop":null,"densityCategory":"No data","vulnerabilityRating":"No data","healthRiskLevel":"No data","areaKm2":1.263964,"centerLat":10.773853,"centerLng":122.471699,"geometrySource":"all_barangay-2.csv detailed WKT","geometryMatchMethod":"unique_official_admin_names","boundaryPointCount":20},"geometry":{"type":"MultiPolygon","coordinates":[[[[122.477577,10.77905],[122.479729,10.77804],[122.47876,10.77425],[122.476707,10.76838],[122.471413,10.76932],[122.471718,10.77308],[122.472969,10.77351],[122.473289,10.7752],[122.47287,10.77551],[122.472473,10.77622],[122.469833,10.77733],[122.470367,10.77819],[122.470909,10.77794],[122.471497,10.77828],[122.473137,10.77757],[122.473541,10.77653],[122.475403,10.77696],[122.476021,10.77841],[122.47702,10.77804],[122.477577,10.77905]]]]}},{"type":"Feature","properties":{"ID_0":177,"ISO":"PHL","NAME_0":"Philippines","ID_1":6030,"NAME_1":"Iloilo","ID_2":603041,"NAME_2":"San Miguel","ID_3":603041002,"NAME_3":"Bgy. 10","NL_NAME_3":null,"VARNAME_3":null,"TYPE_3":"Barangay","ENGTYPE_3":"Village","PROVINCE":"Iloilo","REGION":"Region VI (Western Visayas)","id":"barangay-0603041002","name":"Bgy. 10","barangayCode":"0603041002","population":null,"formattedPop":null,"densityCategory":"No data","vulnerabilityRating":"No data","healthRiskLevel":"No data","areaKm2":0.197572,"centerLat":10.772917,"centerLng":122.461481,"geometrySource":"all_barangay-2.csv detailed WKT","geometryMatchMethod":"unique_official_admin_names","boundaryPointCount":11},"geometry":{"type":"MultiPolygon","coordinates":[[[[122.464783,10.77441],[122.465263,10.77391],[122.465111,10.77332],[122.466377,10.77326],[122.466316,10.77268],[122.467407,10.77011],[122.463791,10.77079],[122.463943,10.77136],[122.464592,10.77178],[122.464149,10.7729],[122.464783,10.77441]]]]}},{"type":"Feature","properties":{"ID_0":177,"ISO":"PHL","NAME_0":"Philippines","ID_1":6030,"NAME_1":"Iloilo","ID_2":603041,"NAME_2":"San Miguel","ID_3":603041003,"NAME_3":"Bgy. 11 Pob.","NL_NAME_3":null,"VARNAME_3":null,"TYPE_3":"Barangay","ENGTYPE_3":"Village","PROVINCE":"Iloilo","REGION":"Region VI (Western Visayas)","id":"barangay-0603041003","name":"Bgy. 11 Pob.","barangayCode":"0603041003","population":null,"formattedPop":null,"densityCategory":"No data","vulnerabilityRating":"No data","healthRiskLevel":"No data","areaKm2":0.344362,"centerLat":10.774653,"centerLng":122.464873,"geometrySource":"all_barangay-2.csv detailed WKT","geometryMatchMethod":"unique_official_admin_names","boundaryPointCount":32},"geometry":{"type":"MultiPolygon","coordinates":[[[[122.466522,10.77623],[122.469452,10.775],[122.470573,10.7728],[122.471283,10.77298],[122.471718,10.77308],[122.471413,10.76932],[122.467407,10.77011],[122.466316,10.77268],[122.466377,10.77326],[122.465111,10.77332],[122.465263,10.77391],[122.464783,10.77441],[122.465538,10.77462],[122.465019,10.77591],[122.466522,10.77623]]],[[[122.466522,10.77623],[122.465843,10.77692],[122.46608,10.7773],[122.467407,10.77747],[122.468384,10.77666],[122.469467,10.77613],[122.469383,10.77566],[122.466522,10.77623]]],[[[122.467407,10.77747],[122.466293,10.7781],[122.467216,10.77977],[122.467987,10.77937],[122.468437,10.77909],[122.470367,10.77819],[122.469833,10.77733],[122.468803,10.77786],[122.467407,10.77747]]]]}},{"type":"Feature","properties":{"ID_0":177,"ISO":"PHL","NAME_0":"Philippines","ID_1":6030,"NAME_1":"Iloilo","ID_2":603041,"NAME_2":"San Miguel","ID_3":603041004,"NAME_3":"Bgy. 12 Pob.","NL_NAME_3":null,"VARNAME_3":null,"TYPE_3":"Barangay","ENGTYPE_3":"Village","PROVINCE":"Iloilo","REGION":"Region VI (Western Visayas)","id":"barangay-0603041004","name":"Bgy. 12 Pob.","barangayCode":"0603041004","population":null,"formattedPop":null,"densityCategory":"No data","vulnerabilityRating":"No data","healthRiskLevel":"No data","areaKm2":0.032375,"centerLat":10.779671,"centerLng":122.464254,"geometrySource":"all_barangay-2.csv detailed WKT","geometryMatchMethod":"unique_official_admin_names","boundaryPointCount":45},"geometry":{"type":"MultiPolygon","coordinates":[[[[122.462753,10.77544],[122.465019,10.77591],[122.465538,10.77462],[122.464783,10.77441],[122.462753,10.77544]]],[[[122.466522,10.77623],[122.469383,10.77566],[122.47068,10.77448],[122.469452,10.775],[122.466522,10.77623]]],[[[122.462753,10.77544],[122.460312,10.77517],[122.460716,10.77582],[122.461563,10.77692],[122.462753,10.77544]]],[[[122.466522,10.77623],[122.465019,10.77591],[122.463997,10.77712],[122.465843,10.77692],[122.466522,10.77623]]],[[[122.467407,10.77747],[122.468803,10.77786],[122.469833,10.77733],[122.469467,10.77613],[122.468384,10.77666],[122.467407,10.77747]]],[[[122.463997,10.77712],[122.461563,10.77692],[122.461617,10.77701],[122.462227,10.7778],[122.462692,10.77841],[122.462883,10.77867],[122.463997,10.77712]]],[[[122.467407,10.77747],[122.46608,10.7773],[122.465233,10.77866],[122.462883,10.77867],[122.463463,10.77953],[122.464638,10.78098],[122.465286,10.78074],[122.465973,10.7804],[122.466347,10.78017],[122.467216,10.77977],[122.466293,10.7781],[122.467407,10.77747]]]]}},{"type":"Feature","properties":{"ID_0":177,"ISO":"PHL","NAME_0":"Philippines","ID_1":6030,"NAME_1":"Iloilo","ID_2":603041,"NAME_2":"San Miguel","ID_3":603041005,"NAME_3":"Bgy. 13 Pob.","NL_NAME_3":null,"VARNAME_3":null,"TYPE_3":"Barangay","ENGTYPE_3":"Village","PROVINCE":"Iloilo","REGION":"Region VI (Western Visayas)","id":"barangay-0603041005","name":"Bgy. 13 Pob.","barangayCode":"0603041005","population":null,"formattedPop":null,"densityCategory":"No data","vulnerabilityRating":"No data","healthRiskLevel":"No data","areaKm2":0.111763,"centerLat":10.776935,"centerLng":122.461947,"geometrySource":"all_barangay-2.csv detailed WKT","geometryMatchMethod":"unique_official_admin_names","boundaryPointCount":21},"geometry":{"type":"MultiPolygon","coordinates":[[[[122.462753,10.77544],[122.464783,10.77441],[122.464149,10.7729],[122.464592,10.77178],[122.463943,10.77136],[122.463791,10.77079],[122.459381,10.77195],[122.459396,10.77265],[122.460312,10.77517],[122.462753,10.77544]]],[[[122.462753,10.77544],[122.461563,10.77692],[122.463997,10.77712],[122.465019,10.77591],[122.462753,10.77544]]],[[[122.463997,10.77712],[122.462883,10.77867],[122.465233,10.77866],[122.46608,10.7773],[122.465843,10.77692],[122.463997,10.77712]]]]}},{"type":"Feature","properties":{"ID_0":177,"ISO":"PHL","NAME_0":"Philippines","ID_1":6030,"NAME_1":"Iloilo","ID_2":603041,"NAME_2":"San Miguel","ID_3":603041006,"NAME_3":"Bgy. 14 Pob.","NL_NAME_3":null,"VARNAME_3":null,"TYPE_3":"Barangay","ENGTYPE_3":"Village","PROVINCE":"Iloilo","REGION":"Region VI (Western Visayas)","id":"barangay-0603041006","name":"Bgy. 14 Pob.","barangayCode":"0603041006","population":null,"formattedPop":null,"densityCategory":"No data","vulnerabilityRating":"No data","healthRiskLevel":"No data","areaKm2":0.248508,"centerLat":10.782059,"centerLng":122.462139,"geometrySource":"all_barangay-2.csv detailed WKT","geometryMatchMethod":"unique_official_admin_names","boundaryPointCount":24},"geometry":{"type":"MultiPolygon","coordinates":[[[[122.464638,10.78098],[122.463463,10.77953],[122.462883,10.77867],[122.462692,10.77841],[122.462227,10.7778],[122.461617,10.77701],[122.461563,10.77692],[122.460716,10.77582],[122.459763,10.77601],[122.456306,10.77669],[122.456306,10.77673],[122.457047,10.78038],[122.45723,10.78091],[122.457581,10.78196],[122.45787,10.78282],[122.458618,10.78362],[122.459953,10.78401],[122.461342,10.78363],[122.462959,10.78341],[122.462952,10.78271],[122.462013,10.78276],[122.461891,10.78208],[122.463867,10.78139],[122.464638,10.78098]]]]}},{"type":"Feature","properties":{"ID_0":177,"ISO":"PHL","NAME_0":"Philippines","ID_1":6030,"NAME_1":"Iloilo","ID_2":603041,"NAME_2":"San Miguel","ID_3":603041007,"NAME_3":"Bgy. 15 Pob.","NL_NAME_3":null,"VARNAME_3":null,"TYPE_3":"Barangay","ENGTYPE_3":"Village","PROVINCE":"Iloilo","REGION":"Region VI (Western Visayas)","id":"barangay-0603041007","name":"Bgy. 15 Pob.","barangayCode":"0603041007","population":null,"formattedPop":null,"densityCategory":"No data","vulnerabilityRating":"No data","healthRiskLevel":"No data","areaKm2":0.251871,"centerLat":10.778825,"centerLng":122.459468,"geometrySource":"all_barangay-2.csv detailed WKT","geometryMatchMethod":"unique_official_admin_names","boundaryPointCount":7},"geometry":{"type":"MultiPolygon","coordinates":[[[[122.456306,10.77669],[122.459763,10.77601],[122.460716,10.77582],[122.460312,10.77517],[122.459396,10.77265],[122.455559,10.77321],[122.456306,10.77669]]]]}},{"type":"Feature","properties":{"ID_0":177,"ISO":"PHL","NAME_0":"Philippines","ID_1":6030,"NAME_1":"Iloilo","ID_2":603041,"NAME_2":"San Miguel","ID_3":603041008,"NAME_3":"Bgy. 16 Pob.","NL_NAME_3":null,"VARNAME_3":null,"TYPE_3":"Barangay","ENGTYPE_3":"Village","PROVINCE":"Iloilo","REGION":"Region VI (Western Visayas)","id":"barangay-0603041008","name":"Bgy. 16 Pob.","barangayCode":"0603041008","population":null,"formattedPop":null,"densityCategory":"No data","vulnerabilityRating":"No data","healthRiskLevel":"No data","areaKm2":0.123611,"centerLat":10.773732,"centerLng":122.458503,"geometrySource":"all_barangay-2.csv detailed WKT","geometryMatchMethod":"unique_official_admin_names","boundaryPointCount":7},"geometry":{"type":"MultiPolygon","coordinates":[[[[122.459396,10.77265],[122.459381,10.77195],[122.459023,10.77121],[122.456802,10.77039],[122.454948,10.7705],[122.455559,10.77321],[122.459396,10.77265]]]]}},{"type":"Feature","properties":{"ID_0":177,"ISO":"PHL","NAME_0":"Philippines","ID_1":6030,"NAME_1":"Iloilo","ID_2":603041,"NAME_2":"San Miguel","ID_3":603041009,"NAME_3":"Bgy. 2 Pob.","NL_NAME_3":null,"VARNAME_3":null,"TYPE_3":"Barangay","ENGTYPE_3":"Village","PROVINCE":"Iloilo","REGION":"Region VI (Western Visayas)","id":"barangay-0603041009","name":"Bgy. 2 Pob.","barangayCode":"0603041009","population":null,"formattedPop":null,"densityCategory":"No data","vulnerabilityRating":"No data","healthRiskLevel":"No data","areaKm2":0.068112,"centerLat":10.78307,"centerLng":122.470598,"geometrySource":"all_barangay-2.csv detailed WKT","geometryMatchMethod":"unique_official_admin_names","boundaryPointCount":32},"geometry":{"type":"MultiPolygon","coordinates":[[[[122.476082,10.77919],[122.476021,10.77841],[122.475403,10.77696],[122.473541,10.77653],[122.473137,10.77757],[122.47419,10.77902],[122.476082,10.77919]]],[[[122.476082,10.77919],[122.475883,10.77992],[122.475151,10.78016],[122.475609,10.78074],[122.475327,10.78149],[122.47657,10.78215],[122.476387,10.78304],[122.476601,10.78312],[122.476868,10.78353],[122.477249,10.78417],[122.477493,10.78418],[122.477707,10.78364],[122.477814,10.78323],[122.477966,10.78291],[122.47831,10.78259],[122.479019,10.78223],[122.47953,10.78215],[122.478912,10.78171],[122.478439,10.78154],[122.477867,10.78129],[122.477539,10.78095],[122.477509,10.78037],[122.477417,10.77996],[122.477089,10.77934],[122.476082,10.77919]]]]}},{"type":"Feature","properties":{"ID_0":177,"ISO":"PHL","NAME_0":"Philippines","ID_1":6030,"NAME_1":"Iloilo","ID_2":603041,"NAME_2":"San Miguel","ID_3":603041010,"NAME_3":"Bgy. 3 Pob.","NL_NAME_3":null,"VARNAME_3":null,"TYPE_3":"Barangay","ENGTYPE_3":"Village","PROVINCE":"Iloilo","REGION":"Region VI (Western Visayas)","id":"barangay-0603041010","name":"Bgy. 3 Pob.","barangayCode":"0603041010","population":null,"formattedPop":null,"densityCategory":"No data","vulnerabilityRating":"No data","healthRiskLevel":"No data","areaKm2":0.040485,"centerLat":10.781392,"centerLng":122.468588,"geometrySource":"all_barangay-2.csv detailed WKT","geometryMatchMethod":"unique_official_admin_names","boundaryPointCount":22},"geometry":{"type":"MultiPolygon","coordinates":[[[[122.476082,10.77919],[122.477089,10.77934],[122.477577,10.77905],[122.47702,10.77804],[122.476021,10.77841],[122.476082,10.77919]]],[[[122.476082,10.77919],[122.47419,10.77902],[122.473297,10.77935],[122.472923,10.77956],[122.472809,10.7803],[122.473961,10.78094],[122.474152,10.77977],[122.475151,10.78016],[122.475883,10.77992],[122.476082,10.77919]]],[[[122.472809,10.7803],[122.472252,10.77999],[122.471687,10.78025],[122.471893,10.78107],[122.472649,10.78141],[122.472809,10.7803]]]]}},{"type":"Feature","properties":{"ID_0":177,"ISO":"PHL","NAME_0":"Philippines","ID_1":6030,"NAME_1":"Iloilo","ID_2":603041,"NAME_2":"San Miguel","ID_3":603041011,"NAME_3":"Bgy. 4 Pob.","NL_NAME_3":null,"VARNAME_3":null,"TYPE_3":"Barangay","ENGTYPE_3":"Village","PROVINCE":"Iloilo","REGION":"Region VI (Western Visayas)","id":"barangay-0603041011","name":"Bgy. 4 Pob.","barangayCode":"0603041011","population":null,"formattedPop":null,"densityCategory":"No data","vulnerabilityRating":"No data","healthRiskLevel":"No data","areaKm2":0.849671,"centerLat":10.779827,"centerLng":122.475729,"geometrySource":"all_barangay-2.csv detailed WKT","geometryMatchMethod":"unique_official_admin_names","boundaryPointCount":22},"geometry":{"type":"MultiPolygon","coordinates":[[[[122.480164,10.77963],[122.479729,10.77804],[122.477577,10.77905],[122.477089,10.77934],[122.477417,10.77996],[122.477509,10.78037],[122.477539,10.78095],[122.477867,10.78129],[122.478439,10.78154],[122.478912,10.78171],[122.47953,10.78215],[122.480263,10.78224],[122.480789,10.78229],[122.48114,10.78256],[122.481133,10.78307],[122.48098,10.78371],[122.481163,10.78403],[122.48204,10.78382],[122.482773,10.78359],[122.483109,10.783],[122.483261,10.7823],[122.480164,10.77963]]]]}},{"type":"Feature","properties":{"ID_0":177,"ISO":"PHL","NAME_0":"Philippines","ID_1":6030,"NAME_1":"Iloilo","ID_2":603041,"NAME_2":"San Miguel","ID_3":603041012,"NAME_3":"Bgy. 5 Pob.","NL_NAME_3":null,"VARNAME_3":null,"TYPE_3":"Barangay","ENGTYPE_3":"Village","PROVINCE":"Iloilo","REGION":"Region VI (Western Visayas)","id":"barangay-0603041012","name":"Bgy. 5 Pob.","barangayCode":"0603041012","population":null,"formattedPop":null,"densityCategory":"No data","vulnerabilityRating":"No data","healthRiskLevel":"No data","areaKm2":0.047239,"centerLat":10.784401,"centerLng":122.470373,"geometrySource":"all_barangay-2.csv detailed WKT","geometryMatchMethod":"unique_official_admin_names","boundaryPointCount":9},"geometry":{"type":"MultiPolygon","coordinates":[[[[122.476387,10.78304],[122.47657,10.78215],[122.473633,10.78292],[122.473877,10.78367],[122.474243,10.7844],[122.474342,10.78385],[122.474876,10.78351],[122.475761,10.78314],[122.476387,10.78304]]]]}},{"type":"Feature","properties":{"ID_0":177,"ISO":"PHL","NAME_0":"Philippines","ID_1":6030,"NAME_1":"Iloilo","ID_2":603041,"NAME_2":"San Miguel","ID_3":603041013,"NAME_3":"Bgy. 6 Pob.","NL_NAME_3":null,"VARNAME_3":null,"TYPE_3":"Barangay","ENGTYPE_3":"Village","PROVINCE":"Iloilo","REGION":"Region VI (Western Visayas)","id":"barangay-0603041013","name":"Bgy. 6 Pob.","barangayCode":"0603041013","population":null,"formattedPop":null,"densityCategory":"No data","vulnerabilityRating":"No data","healthRiskLevel":"No data","areaKm2":0.031065,"centerLat":10.782879,"centerLng":122.468878,"geometrySource":"all_barangay-2.csv detailed WKT","geometryMatchMethod":"unique_official_admin_names","boundaryPointCount":18},"geometry":{"type":"MultiPolygon","coordinates":[[[[122.474243,10.7844],[122.473877,10.78367],[122.473633,10.78292],[122.47657,10.78215],[122.475327,10.78149],[122.475609,10.78074],[122.475151,10.78016],[122.474152,10.77977],[122.473961,10.78094],[122.472809,10.7803],[122.472649,10.78141],[122.473671,10.78558],[122.474091,10.7855],[122.474571,10.78541],[122.474953,10.78521],[122.475037,10.78497],[122.474762,10.78469],[122.474243,10.7844]]]]}},{"type":"Feature","properties":{"ID_0":177,"ISO":"PHL","NAME_0":"Philippines","ID_1":6030,"NAME_1":"Iloilo","ID_2":603041,"NAME_2":"San Miguel","ID_3":603041014,"NAME_3":"Bgy. 7 Pob.","NL_NAME_3":null,"VARNAME_3":null,"TYPE_3":"Barangay","ENGTYPE_3":"Village","PROVINCE":"Iloilo","REGION":"Region VI (Western Visayas)","id":"barangay-0603041014","name":"Bgy. 7 Pob.","barangayCode":"0603041014","population":null,"formattedPop":null,"densityCategory":"No data","vulnerabilityRating":"No data","healthRiskLevel":"No data","areaKm2":0.04348,"centerLat":10.778377,"centerLng":122.465295,"geometrySource":"all_barangay-2.csv detailed WKT","geometryMatchMethod":"unique_official_admin_names","boundaryPointCount":13},"geometry":{"type":"MultiPolygon","coordinates":[[[[122.469833,10.77733],[122.472473,10.77622],[122.47287,10.77551],[122.473289,10.7752],[122.472969,10.77351],[122.471718,10.77308],[122.471283,10.77298],[122.470573,10.7728],[122.469452,10.775],[122.47068,10.77448],[122.469383,10.77566],[122.469467,10.77613],[122.469833,10.77733]]]]}},{"type":"Feature","properties":{"ID_0":177,"ISO":"PHL","NAME_0":"Philippines","ID_1":6030,"NAME_1":"Iloilo","ID_2":603041,"NAME_2":"San Miguel","ID_3":603041015,"NAME_3":"Bgy. 8 Pob.","NL_NAME_3":null,"VARNAME_3":null,"TYPE_3":"Barangay","ENGTYPE_3":"Village","PROVINCE":"Iloilo","REGION":"Region VI (Western Visayas)","id":"barangay-0603041015","name":"Bgy. 8 Pob.","barangayCode":"0603041015","population":null,"formattedPop":null,"densityCategory":"No data","vulnerabilityRating":"No data","healthRiskLevel":"No data","areaKm2":0.333201,"centerLat":10.785807,"centerLng":122.468816,"geometrySource":"all_barangay-2.csv detailed WKT","geometryMatchMethod":"unique_official_admin_names","boundaryPointCount":18},"geometry":{"type":"MultiPolygon","coordinates":[[[[122.473671,10.78558],[122.472649,10.78141],[122.471893,10.78107],[122.471687,10.78025],[122.472252,10.77999],[122.472809,10.7803],[122.472923,10.77956],[122.473297,10.77935],[122.47419,10.77902],[122.473137,10.77757],[122.471497,10.77828],[122.470909,10.77794],[122.470367,10.77819],[122.468437,10.77909],[122.467987,10.77937],[122.469688,10.78482],[122.470161,10.78501],[122.473671,10.78558]]]]}},{"type":"Feature","properties":{"ID_0":177,"ISO":"PHL","NAME_0":"Philippines","ID_1":6030,"NAME_1":"Iloilo","ID_2":603041,"NAME_2":"San Miguel","ID_3":603041016,"NAME_3":"Bgy. 9 Pob.","NL_NAME_3":null,"VARNAME_3":null,"TYPE_3":"Barangay","ENGTYPE_3":"Village","PROVINCE":"Iloilo","REGION":"Region VI (Western Visayas)","id":"barangay-0603041016","name":"Bgy. 9 Pob.","barangayCode":"0603041016","population":null,"formattedPop":null,"densityCategory":"No data","vulnerabilityRating":"No data","healthRiskLevel":"No data","areaKm2":0.057869,"centerLat":10.781716,"centerLng":122.465388,"geometrySource":"all_barangay-2.csv detailed WKT","geometryMatchMethod":"unique_official_admin_names","boundaryPointCount":19},"geometry":{"type":"MultiPolygon","coordinates":[[[[122.469688,10.78482],[122.467987,10.77937],[122.467216,10.77977],[122.466347,10.78017],[122.465973,10.7804],[122.465286,10.78074],[122.464638,10.78098],[122.463867,10.78139],[122.461891,10.78208],[122.462013,10.78276],[122.462952,10.78271],[122.462959,10.78341],[122.464172,10.78339],[122.466049,10.78335],[122.466751,10.78432],[122.467499,10.78464],[122.468819,10.78467],[122.469414,10.78478],[122.469688,10.78482]]]]}},{"type":"Feature","properties":{"ID_0":177,"ISO":"PHL","NAME_0":"Philippines","ID_1":6030,"NAME_1":"Iloilo","ID_2":603041,"NAME_2":"San Miguel","ID_3":603041017,"NAME_3":"Consolacion","NL_NAME_3":null,"VARNAME_3":null,"TYPE_3":"Barangay","ENGTYPE_3":"Village","PROVINCE":"Iloilo","REGION":"Region VI (Western Visayas)","id":"barangay-0603041017","name":"Consolacion","barangayCode":"0603041017","population":null,"formattedPop":null,"densityCategory":"No data","vulnerabilityRating":"No data","healthRiskLevel":"No data","areaKm2":3.832531,"centerLat":10.80987,"centerLng":122.475903,"geometrySource":"all_barangay-2.csv detailed WKT","geometryMatchMethod":"unique_official_admin_names","boundaryPointCount":60},"geometry":{"type":"MultiPolygon","coordinates":[[[[122.492088,10.81823],[122.488098,10.81548],[122.487907,10.81514],[122.48687,10.81528],[122.486488,10.81506],[122.48642,10.81475],[122.487106,10.81438],[122.487038,10.81372],[122.486877,10.81372],[122.486687,10.81354],[122.485893,10.81372],[122.485657,10.81335],[122.486343,10.81284],[122.486519,10.81265],[122.486511,10.81185],[122.48571,10.81208],[122.485619,10.81193],[122.486183,10.81161],[122.484558,10.80664],[122.478348,10.79838],[122.477402,10.79905],[122.477173,10.79919],[122.476738,10.79968],[122.476143,10.80015],[122.475647,10.80054],[122.474854,10.80081],[122.474327,10.80065],[122.473747,10.80013],[122.473557,10.79971],[122.473061,10.79986],[122.472931,10.80028],[122.47287,10.80107],[122.472321,10.80186],[122.472313,10.80212],[122.472198,10.80244],[122.471748,10.80268],[122.47139,10.8024],[122.471107,10.80241],[122.47065,10.80259],[122.470787,10.80309],[122.470787,10.80341],[122.470444,10.80363],[122.469818,10.80401],[122.469391,10.80363],[122.468979,10.80387],[122.46833,10.80424],[122.468018,10.80419],[122.467377,10.80424],[122.466637,10.80439],[122.465973,10.80433],[122.46563,10.80439],[122.464897,10.80451],[122.464577,10.80476],[122.464317,10.80534],[122.464027,10.80601],[122.463943,10.80644],[122.47084,10.81338],[122.473793,10.82124],[122.484451,10.81906],[122.492088,10.81823]]]]}},{"type":"Feature","properties":{"ID_0":177,"ISO":"PHL","NAME_0":"Philippines","ID_1":6030,"NAME_1":"Iloilo","ID_2":603041,"NAME_2":"San Miguel","ID_3":603041018,"NAME_3":"Igtambo","NL_NAME_3":null,"VARNAME_3":null,"TYPE_3":"Barangay","ENGTYPE_3":"Village","PROVINCE":"Iloilo","REGION":"Region VI (Western Visayas)","id":"barangay-0603041018","name":"Igtambo","barangayCode":"0603041018","population":null,"formattedPop":null,"densityCategory":"No data","vulnerabilityRating":"No data","healthRiskLevel":"No data","areaKm2":1.500439,"centerLat":10.775725,"centerLng":122.450616,"geometrySource":"all_barangay-2.csv detailed WKT","geometryMatchMethod":"unique_official_admin_names","boundaryPointCount":22},"geometry":{"type":"MultiPolygon","coordinates":[[[[122.457047,10.78038],[122.456306,10.77673],[122.456306,10.77669],[122.455559,10.77321],[122.454948,10.7705],[122.445641,10.77047],[122.443977,10.78368],[122.445251,10.78389],[122.445938,10.78347],[122.44593,10.78271],[122.445747,10.78188],[122.446091,10.78099],[122.447144,10.7806],[122.449028,10.781],[122.44973,10.78118],[122.451447,10.78129],[122.452621,10.78073],[122.453873,10.77983],[122.454933,10.77937],[122.455711,10.77973],[122.456413,10.78007],[122.457047,10.78038]]]]}},{"type":"Feature","properties":{"ID_0":177,"ISO":"PHL","NAME_0":"Philippines","ID_1":6030,"NAME_1":"Iloilo","ID_2":603041,"NAME_2":"San Miguel","ID_3":603041019,"NAME_3":"San Antonio","NL_NAME_3":null,"VARNAME_3":null,"TYPE_3":"Barangay","ENGTYPE_3":"Village","PROVINCE":"Iloilo","REGION":"Region VI (Western Visayas)","id":"barangay-0603041019","name":"San Antonio","barangayCode":"0603041019","population":null,"formattedPop":null,"densityCategory":"No data","vulnerabilityRating":"No data","healthRiskLevel":"No data","areaKm2":2.698815,"centerLat":10.773762,"centerLng":122.435606,"geometrySource":"all_barangay-2.csv detailed WKT","geometryMatchMethod":"unique_official_admin_names","boundaryPointCount":12},"geometry":{"type":"MultiPolygon","coordinates":[[[[122.443977,10.78368],[122.445641,10.77047],[122.441711,10.76997],[122.43486,10.76935],[122.427803,10.76079],[122.426567,10.77122],[122.429398,10.77323],[122.432831,10.77545],[122.435318,10.77718],[122.437897,10.77952],[122.442177,10.78194],[122.443977,10.78368]]]]}},{"type":"Feature","properties":{"ID_0":177,"ISO":"PHL","NAME_0":"Philippines","ID_1":6030,"NAME_1":"Iloilo","ID_2":603041,"NAME_2":"San Miguel","ID_3":603041020,"NAME_3":"San Jose","NL_NAME_3":null,"VARNAME_3":null,"TYPE_3":"Barangay","ENGTYPE_3":"Village","PROVINCE":"Iloilo","REGION":"Region VI (Western Visayas)","id":"barangay-0603041020","name":"San Jose","barangayCode":"0603041020","population":null,"formattedPop":null,"densityCategory":"No data","vulnerabilityRating":"No data","healthRiskLevel":"No data","areaKm2":6.089509,"centerLat":10.767115,"centerLng":122.492481,"geometrySource":"all_barangay-2.csv detailed WKT","geometryMatchMethod":"unique_official_admin_names","boundaryPointCount":26},"geometry":{"type":"MultiPolygon","coordinates":[[[[122.479729,10.77804],[122.480164,10.77963],[122.49881,10.77139],[122.50116,10.76964],[122.508087,10.7626],[122.50341,10.75669],[122.503166,10.75411],[122.502991,10.75491],[122.50235,10.7553],[122.501556,10.75578],[122.500519,10.7559],[122.499107,10.75625],[122.498497,10.75682],[122.498596,10.75714],[122.497139,10.75763],[122.496353,10.75763],[122.495247,10.75739],[122.494347,10.75707],[122.49337,10.75689],[122.492264,10.75673],[122.490967,10.75672],[122.489548,10.75668],[122.488182,10.75741],[122.476707,10.76838],[122.47876,10.77425],[122.479729,10.77804]]]]}},{"type":"Feature","properties":{"ID_0":177,"ISO":"PHL","NAME_0":"Philippines","ID_1":6030,"NAME_1":"Iloilo","ID_2":603041,"NAME_2":"San Miguel","ID_3":603041021,"NAME_3":"Santa Cruz","NL_NAME_3":null,"VARNAME_3":null,"TYPE_3":"Barangay","ENGTYPE_3":"Village","PROVINCE":"Iloilo","REGION":"Region VI (Western Visayas)","id":"barangay-0603041021","name":"Santa Cruz","barangayCode":"0603041021","population":null,"formattedPop":null,"densityCategory":"No data","vulnerabilityRating":"No data","healthRiskLevel":"No data","areaKm2":5.651835,"centerLat":10.792011,"centerLng":122.460635,"geometrySource":"barangays.geojson simplified fallback","geometryMatchMethod":"simplified_fallback","boundaryPointCount":6},"geometry":{"type":"Polygon","coordinates":[[[122.46371452500011,10.805299752000053],[122.47793496100007,10.798064724000028],[122.46539334300007,10.78288499200005],[122.44927108700006,10.778280608000046],[122.44339462100004,10.783590168000046],[122.46371452500011,10.805299752000053]]]}},{"type":"Feature","properties":{"ID_0":177,"ISO":"PHL","NAME_0":"Philippines","ID_1":6030,"NAME_1":"Iloilo","ID_2":603041,"NAME_2":"San Miguel","ID_3":603041022,"NAME_3":"Santa Teresa","NL_NAME_3":null,"VARNAME_3":null,"TYPE_3":"Barangay","ENGTYPE_3":"Village","PROVINCE":"Iloilo","REGION":"Region VI (Western Visayas)","id":"barangay-0603041022","name":"Santa Teresa","barangayCode":"0603041022","population":null,"formattedPop":null,"densityCategory":"No data","vulnerabilityRating":"No data","healthRiskLevel":"No data","areaKm2":3.431571,"centerLat":10.805282,"centerLng":122.489603,"geometrySource":"all_barangay-2.csv detailed WKT","geometryMatchMethod":"unique_official_admin_names","boundaryPointCount":67},"geometry":{"type":"MultiPolygon","coordinates":[[[[122.492088,10.81823],[122.497704,10.81744],[122.4972,10.81265],[122.496407,10.80182],[122.495392,10.79371],[122.49334,10.79521],[122.492828,10.79443],[122.492523,10.79446],[122.492523,10.79474],[122.492264,10.79491],[122.491943,10.7945],[122.491707,10.79459],[122.491829,10.79504],[122.491493,10.79537],[122.491226,10.79511],[122.490753,10.79515],[122.490547,10.79516],[122.490494,10.79498],[122.490623,10.79486],[122.490631,10.7947],[122.490799,10.79461],[122.490761,10.79449],[122.490318,10.7946],[122.489708,10.79511],[122.489578,10.7947],[122.489143,10.79498],[122.489143,10.79546],[122.487923,10.79601],[122.487839,10.79592],[122.486412,10.79651],[122.486107,10.79646],[122.485107,10.79693],[122.484779,10.79695],[122.484467,10.79704],[122.484543,10.79746],[122.483688,10.79782],[122.483917,10.79866],[122.483414,10.7989],[122.48291,10.79794],[122.482933,10.79767],[122.482803,10.79735],[122.482452,10.79751],[122.482498,10.79784],[122.482307,10.79794],[122.482147,10.79783],[122.481941,10.79785],[122.481659,10.7974],[122.478348,10.79838],[122.484558,10.80664],[122.486183,10.81161],[122.485619,10.81193],[122.48571,10.81208],[122.486511,10.81185],[122.486519,10.81265],[122.486343,10.81284],[122.485657,10.81335],[122.485893,10.81372],[122.486687,10.81354],[122.486877,10.81372],[122.487038,10.81372],[122.487106,10.81438],[122.48642,10.81475],[122.486488,10.81506],[122.48687,10.81528],[122.487907,10.81514],[122.488098,10.81548],[122.492088,10.81823]]]]}},{"type":"Feature","properties":{"ID_0":177,"ISO":"PHL","NAME_0":"Philippines","ID_1":6030,"NAME_1":"Iloilo","ID_2":603041,"NAME_2":"San Miguel","ID_3":603041023,"NAME_3":"Santo Angel","NL_NAME_3":null,"VARNAME_3":null,"TYPE_3":"Barangay","ENGTYPE_3":"Village","PROVINCE":"Iloilo","REGION":"Region VI (Western Visayas)","id":"barangay-0603041023","name":"Santo Angel","barangayCode":"0603041023","population":null,"formattedPop":null,"densityCategory":"No data","vulnerabilityRating":"No data","healthRiskLevel":"No data","areaKm2":1.900294,"centerLat":10.765113,"centerLng":122.421144,"geometrySource":"all_barangay-2.csv detailed WKT","geometryMatchMethod":"unique_official_admin_names","boundaryPointCount":26},"geometry":{"type":"MultiPolygon","coordinates":[[[[122.426567,10.77122],[122.427803,10.76079],[122.421043,10.75338],[122.421242,10.75418],[122.421547,10.75487],[122.421494,10.75527],[122.420959,10.75604],[122.420731,10.7565],[122.420647,10.75727],[122.420563,10.75801],[122.420647,10.75876],[122.41848,10.76188],[122.414948,10.76434],[122.415009,10.76619],[122.415787,10.76681],[122.416893,10.76757],[122.41806,10.76875],[122.418549,10.76898],[122.419296,10.76933],[122.419884,10.76978],[122.421539,10.77101],[122.421921,10.77165],[122.423119,10.77412],[122.424072,10.77497],[122.424362,10.77574],[122.426567,10.77122]]]]}},{"type":"Feature","properties":{"ID_0":177,"ISO":"PHL","NAME_0":"Philippines","ID_1":6030,"NAME_1":"Iloilo","ID_2":603041,"NAME_2":"San Miguel","ID_3":603041024,"NAME_3":"Santo Niño","NL_NAME_3":null,"VARNAME_3":"Santo Nino","TYPE_3":"Barangay","ENGTYPE_3":"Village","PROVINCE":"Iloilo","REGION":"Region VI (Western Visayas)","id":"barangay-0603041024","name":"Santo Niño","barangayCode":"0603041024","population":null,"formattedPop":null,"densityCategory":"No data","vulnerabilityRating":"No data","healthRiskLevel":"No data","areaKm2":4.070882,"centerLat":10.787514,"centerLng":122.484232,"geometrySource":"all_barangay-2.csv detailed WKT","geometryMatchMethod":"unique_official_admin_names","boundaryPointCount":83},"geometry":{"type":"MultiPolygon","coordinates":[[[[122.495392,10.79371],[122.494453,10.78677],[122.49398,10.78497],[122.494812,10.78125],[122.49881,10.77139],[122.480164,10.77963],[122.483261,10.7823],[122.483109,10.783],[122.482773,10.78359],[122.48204,10.78382],[122.481163,10.78403],[122.48098,10.78371],[122.481133,10.78307],[122.48114,10.78256],[122.480789,10.78229],[122.480263,10.78224],[122.47953,10.78215],[122.479019,10.78223],[122.47831,10.78259],[122.477966,10.78291],[122.477814,10.78323],[122.477707,10.78364],[122.477493,10.78418],[122.477249,10.78417],[122.476868,10.78353],[122.476601,10.78312],[122.476387,10.78304],[122.475761,10.78314],[122.474876,10.78351],[122.474342,10.78385],[122.474243,10.7844],[122.474762,10.78469],[122.475037,10.78497],[122.474953,10.78521],[122.474571,10.78541],[122.474091,10.7855],[122.473671,10.78558],[122.474586,10.78955],[122.47541,10.78964],[122.478348,10.79838],[122.481659,10.7974],[122.481941,10.79785],[122.482147,10.79783],[122.482307,10.79794],[122.482498,10.79784],[122.482452,10.79751],[122.482803,10.79735],[122.482933,10.79767],[122.48291,10.79794],[122.483414,10.7989],[122.483917,10.79866],[122.483688,10.79782],[122.484543,10.79746],[122.484467,10.79704],[122.484779,10.79695],[122.485107,10.79693],[122.486107,10.79646],[122.486412,10.79651],[122.487839,10.79592],[122.487923,10.79601],[122.489143,10.79546],[122.489143,10.79498],[122.489578,10.7947],[122.489708,10.79511],[122.490318,10.7946],[122.490761,10.79449],[122.490799,10.79461],[122.490631,10.7947],[122.490623,10.79486],[122.490494,10.79498],[122.490547,10.79516],[122.490753,10.79515],[122.491226,10.79511],[122.491493,10.79537],[122.491829,10.79504],[122.491707,10.79459],[122.491943,10.7945],[122.492264,10.79491],[122.492523,10.79474],[122.492523,10.79446],[122.492828,10.79443],[122.49334,10.79521],[122.495392,10.79371]]]]}}]}
