{"type":"FeatureCollection","features":[{"type":"Feature","properties":{"ID_0":177,"ISO":"PHL","NAME_0":"Philippines","ID_1":4056,"NAME_1":"Quezon","ID_2":405635,"NAME_2":"Plaridel","ID_3":405635002,"NAME_3":"Concepcion","NL_NAME_3":null,"VARNAME_3":null,"TYPE_3":"Barangay","ENGTYPE_3":"Village","PROVINCE":"Quezon","REGION":"Region IV-A (Calabarzon)","id":"barangay-0405635002","name":"Concepcion","barangayCode":"0405635002","population":null,"formattedPop":null,"densityCategory":"No data","vulnerabilityRating":"No data","healthRiskLevel":"No data","areaKm2":1.213932,"centerLat":13.95928,"centerLng":121.999479,"geometrySource":"all_barangay-2.csv detailed WKT","geometryMatchMethod":"unique_official_admin_names","boundaryPointCount":39},"geometry":{"type":"MultiPolygon","coordinates":[[[[122.003967,13.96355],[122.004601,13.96313],[122.00502,13.963],[122.005997,13.96231],[122.006416,13.96176],[122.006844,13.96142],[122.007607,13.96114],[122.00853,13.96107],[122.009163,13.96066],[122.009506,13.96025],[122.009789,13.9599],[122.010071,13.9597],[122.010361,13.95955],[122.010368,13.95885],[122.010521,13.95634],[122.010719,13.95426],[122.009666,13.95366],[122.006302,13.9523],[122.004623,13.95128],[122.004128,13.94891],[122.004066,13.94622],[122.003922,13.94479],[122.003777,13.94472],[122.00177,13.94225],[122.00103,13.9417],[122.000076,13.94057],[121.998306,13.94074],[121.995819,13.93956],[121.993683,13.93965],[121.991722,13.94052],[121.990952,13.94012],[121.989616,13.94279],[121.98941,13.94556],[121.987,13.94721],[121.985367,13.94734],[121.991508,13.95652],[121.998398,13.95917],[122.003021,13.9628],[122.003967,13.96355]]]]}},{"type":"Feature","properties":{"ID_0":177,"ISO":"PHL","NAME_0":"Philippines","ID_1":4056,"NAME_1":"Quezon","ID_2":405635,"NAME_2":"Plaridel","ID_3":405635003,"NAME_3":"Duhat","NL_NAME_3":null,"VARNAME_3":null,"TYPE_3":"Barangay","ENGTYPE_3":"Village","PROVINCE":"Quezon","REGION":"Region IV-A (Calabarzon)","id":"barangay-0405635003","name":"Duhat","barangayCode":"0405635003","population":null,"formattedPop":null,"densityCategory":"No data","vulnerabilityRating":"No data","healthRiskLevel":"No data","areaKm2":5.258545,"centerLat":13.928737,"centerLng":122.011269,"geometrySource":"all_barangay-2.csv detailed WKT","geometryMatchMethod":"unique_official_admin_names","boundaryPointCount":30},"geometry":{"type":"MultiPolygon","coordinates":[[[[122.00103,13.9417],[122.001968,13.94191],[122.003471,13.94066],[122.004677,13.93857],[122.007156,13.93793],[122.00824,13.93587],[122.010063,13.93387],[122.012657,13.93302],[122.014442,13.93141],[122.017036,13.93101],[122.018883,13.93016],[122.01931,13.92884],[122.020271,13.92753],[122.021141,13.92532],[122.021393,13.92213],[122.021011,13.91928],[122.018494,13.92245],[122.017082,13.92489],[122.012512,13.92604],[122.008743,13.92794],[122.004509,13.93039],[121.997337,13.93533],[121.995682,13.9367],[121.990952,13.94012],[121.991722,13.94052],[121.993683,13.93965],[121.995819,13.93956],[121.998306,13.94074],[122.000076,13.94057],[122.00103,13.9417]]]]}},{"type":"Feature","properties":{"ID_0":177,"ISO":"PHL","NAME_0":"Philippines","ID_1":4056,"NAME_1":"Quezon","ID_2":405635,"NAME_2":"Plaridel","ID_3":405635004,"NAME_3":"Ilaya","NL_NAME_3":null,"VARNAME_3":null,"TYPE_3":"Barangay","ENGTYPE_3":"Village","PROVINCE":"Quezon","REGION":"Region IV-A (Calabarzon)","id":"barangay-0405635004","name":"Ilaya","barangayCode":"0405635004","population":null,"formattedPop":null,"densityCategory":"No data","vulnerabilityRating":"No data","healthRiskLevel":"No data","areaKm2":1.0925,"centerLat":13.947989,"centerLng":122.017153,"geometrySource":"all_barangay-2.csv detailed WKT","geometryMatchMethod":"unique_official_admin_names","boundaryPointCount":25},"geometry":{"type":"MultiPolygon","coordinates":[[[[122.016197,13.94918],[122.017662,13.94816],[122.018822,13.94561],[122.020264,13.94486],[122.023651,13.94235],[122.023956,13.94054],[122.020859,13.94117],[122.019547,13.94282],[122.016777,13.94244],[122.014526,13.9426],[122.012283,13.94399],[122.009773,13.94578],[122.008034,13.94652],[122.006477,13.94655],[122.004303,13.946],[122.004066,13.94622],[122.004128,13.94891],[122.004623,13.95128],[122.006302,13.9523],[122.009666,13.95366],[122.010719,13.95426],[122.010567,13.95413],[122.012016,13.95331],[122.014664,13.95151],[122.016197,13.94918]]]]}},{"type":"Feature","properties":{"ID_0":177,"ISO":"PHL","NAME_0":"Philippines","ID_1":4056,"NAME_1":"Quezon","ID_2":405635,"NAME_2":"Plaridel","ID_3":405635005,"NAME_3":"Ilosong","NL_NAME_3":null,"VARNAME_3":null,"TYPE_3":"Barangay","ENGTYPE_3":"Village","PROVINCE":"Quezon","REGION":"Region IV-A (Calabarzon)","id":"barangay-0405635005","name":"Ilosong","barangayCode":"0405635005","population":null,"formattedPop":null,"densityCategory":"No data","vulnerabilityRating":"No data","healthRiskLevel":"No data","areaKm2":5.874711,"centerLat":13.932132,"centerLng":122.024108,"geometrySource":"all_barangay-2.csv detailed WKT","geometryMatchMethod":"unique_official_admin_names","boundaryPointCount":52},"geometry":{"type":"MultiPolygon","coordinates":[[[[122.004066,13.94622],[122.004303,13.946],[122.006477,13.94655],[122.008034,13.94652],[122.009773,13.94578],[122.012283,13.94399],[122.014526,13.9426],[122.016777,13.94244],[122.019547,13.94282],[122.020859,13.94117],[122.023956,13.94054],[122.024643,13.93975],[122.025803,13.93971],[122.027153,13.93827],[122.028717,13.93676],[122.029663,13.93474],[122.030403,13.9319],[122.030281,13.93177],[122.03035,13.93151],[122.027237,13.92831],[122.028717,13.92711],[122.029922,13.92605],[122.031441,13.92431],[122.033234,13.92114],[122.035843,13.92044],[122.036591,13.91841],[122.036537,13.91595],[122.03756,13.91437],[122.037567,13.91282],[122.037392,13.91252],[122.034416,13.91423],[122.031952,13.91365],[122.021011,13.91928],[122.021393,13.92213],[122.021141,13.92532],[122.020271,13.92753],[122.01931,13.92884],[122.018883,13.93016],[122.017036,13.93101],[122.014442,13.93141],[122.012657,13.93302],[122.010063,13.93387],[122.00824,13.93587],[122.007156,13.93793],[122.004677,13.93857],[122.003471,13.94066],[122.001968,13.94191],[122.00103,13.9417],[122.00177,13.94225],[122.003777,13.94472],[122.003922,13.94479],[122.004066,13.94622]]]]}},{"type":"Feature","properties":{"ID_0":177,"ISO":"PHL","NAME_0":"Philippines","ID_1":4056,"NAME_1":"Quezon","ID_2":405635,"NAME_2":"Plaridel","ID_3":405635007,"NAME_3":"Tanauan","NL_NAME_3":null,"VARNAME_3":null,"TYPE_3":"Barangay","ENGTYPE_3":"Village","PROVINCE":"Quezon","REGION":"Region IV-A (Calabarzon)","id":"barangay-0405635007","name":"Tanauan","barangayCode":"0405635007","population":null,"formattedPop":null,"densityCategory":"No data","vulnerabilityRating":"No data","healthRiskLevel":"No data","areaKm2":2.212675,"centerLat":13.967892,"centerLng":121.992049,"geometrySource":"all_barangay-2.csv detailed WKT","geometryMatchMethod":"unique_official_admin_names","boundaryPointCount":58},"geometry":{"type":"MultiPolygon","coordinates":[[[[121.983353,13.97939],[121.983856,13.97921],[121.984337,13.97903],[121.985527,13.97862],[121.98616,13.97862],[121.986954,13.97861],[121.987778,13.97861],[121.988052,13.97833],[121.988808,13.97833],[121.989304,13.97792],[121.990417,13.97744],[121.990997,13.97715],[121.991676,13.97682],[121.992279,13.97651],[121.992561,13.97609],[121.993332,13.97556],[121.993607,13.97556],[121.995003,13.97417],[121.995003,13.97389],[121.995232,13.97365],[121.995277,13.97361],[121.995552,13.97361],[121.99691,13.97225],[121.998337,13.97083],[121.998337,13.97056],[121.998642,13.97024],[121.998894,13.97],[121.998894,13.96944],[121.999062,13.96927],[121.999168,13.96917],[121.999168,13.96889],[121.999733,13.96833],[122.0,13.96861],[122.000267,13.96795],[122.000267,13.9674],[122.000679,13.96685],[122.000816,13.9663],[122.001099,13.96575],[122.001801,13.96513],[122.002777,13.96451],[122.003342,13.96396],[122.003967,13.96355],[122.003021,13.9628],[121.998398,13.95917],[121.991508,13.95652],[121.985367,13.94734],[121.985283,13.94734],[121.985237,13.94724],[121.984016,13.94819],[121.983063,13.95219],[121.982063,13.95694],[121.981216,13.9624],[121.980186,13.96715],[121.978737,13.97131],[121.978859,13.97388],[121.981552,13.97642],[121.982697,13.97823],[121.983353,13.97939]]]]}},{"type":"Feature","properties":{"ID_0":177,"ISO":"PHL","NAME_0":"Philippines","ID_1":4056,"NAME_1":"Quezon","ID_2":405635,"NAME_2":"Plaridel","ID_3":405635008,"NAME_3":"Central","NL_NAME_3":null,"VARNAME_3":null,"TYPE_3":"Barangay","ENGTYPE_3":"Village","PROVINCE":"Quezon","REGION":"Region IV-A (Calabarzon)","id":"barangay-0405635008","name":"Central","barangayCode":"0405635008","population":null,"formattedPop":null,"densityCategory":"No data","vulnerabilityRating":"No data","healthRiskLevel":"No data","areaKm2":0.067301,"centerLat":13.956014,"centerLng":122.018964,"geometrySource":"all_barangay-2.csv detailed WKT","geometryMatchMethod":"unique_official_admin_names","boundaryPointCount":17},"geometry":{"type":"MultiPolygon","coordinates":[[[[122.015167,13.95851],[122.015541,13.95839],[122.016029,13.95825],[122.016663,13.95791],[122.01757,13.9575],[122.018066,13.95708],[122.018417,13.95674],[122.019112,13.9566],[122.019608,13.9564],[122.020309,13.95612],[122.021149,13.95612],[122.021187,13.95611],[122.02079,13.95541],[122.018639,13.95212],[122.015106,13.95474],[122.015152,13.9573],[122.015167,13.95851]]]]}},{"type":"Feature","properties":{"ID_0":177,"ISO":"PHL","NAME_0":"Philippines","ID_1":4056,"NAME_1":"Quezon","ID_2":405635,"NAME_2":"Plaridel","ID_3":405635009,"NAME_3":"Paang Bundok","NL_NAME_3":null,"VARNAME_3":null,"TYPE_3":"Barangay","ENGTYPE_3":"Village","PROVINCE":"Quezon","REGION":"Region IV-A (Calabarzon)","id":"barangay-0405635009","name":"Paang Bundok","barangayCode":"0405635009","population":null,"formattedPop":null,"densityCategory":"No data","vulnerabilityRating":"No data","healthRiskLevel":"No data","areaKm2":0.990499,"centerLat":13.950936,"centerLng":122.022984,"geometrySource":"all_barangay-2.csv detailed WKT","geometryMatchMethod":"unique_official_admin_names","boundaryPointCount":9},"geometry":{"type":"MultiPolygon","coordinates":[[[[122.015106,13.95474],[122.018639,13.95212],[122.016197,13.94918],[122.014664,13.95151],[122.012016,13.95331],[122.010567,13.95413],[122.010719,13.95426],[122.010521,13.95634],[122.015106,13.95474]]]]}},{"type":"Feature","properties":{"ID_0":177,"ISO":"PHL","NAME_0":"Philippines","ID_1":4056,"NAME_1":"Quezon","ID_2":405635,"NAME_2":"Plaridel","ID_3":405635010,"NAME_3":"Pampaaralan","NL_NAME_3":null,"VARNAME_3":null,"TYPE_3":"Barangay","ENGTYPE_3":"Village","PROVINCE":"Quezon","REGION":"Region IV-A (Calabarzon)","id":"barangay-0405635010","name":"Pampaaralan","barangayCode":"0405635010","population":null,"formattedPop":null,"densityCategory":"No data","vulnerabilityRating":"No data","healthRiskLevel":"No data","areaKm2":0.166915,"centerLat":13.956312,"centerLng":122.015484,"geometrySource":"all_barangay-2.csv detailed WKT","geometryMatchMethod":"unique_official_admin_names","boundaryPointCount":13},"geometry":{"type":"MultiPolygon","coordinates":[[[[122.010361,13.95955],[122.010643,13.95942],[122.011261,13.95949],[122.012032,13.95928],[122.012733,13.95915],[122.013496,13.95887],[122.014702,13.95867],[122.015167,13.95851],[122.015152,13.9573],[122.015106,13.95474],[122.010521,13.95634],[122.010368,13.95885],[122.010361,13.95955]]]]}},{"type":"Feature","properties":{"ID_0":177,"ISO":"PHL","NAME_0":"Philippines","ID_1":4056,"NAME_1":"Quezon","ID_2":405635,"NAME_2":"Plaridel","ID_3":405635011,"NAME_3":"M. L. Tumagay Pob.","NL_NAME_3":null,"VARNAME_3":null,"TYPE_3":"Barangay","ENGTYPE_3":"Village","PROVINCE":"Quezon","REGION":"Region IV-A (Calabarzon)","id":"barangay-0405635011","name":"M. L. Tumagay Pob.","barangayCode":"0405635011","population":null,"formattedPop":null,"densityCategory":"No data","vulnerabilityRating":"No data","healthRiskLevel":"No data","areaKm2":1.566866,"centerLat":13.953112,"centerLng":122.007342,"geometrySource":"all_barangay-2.csv detailed WKT","geometryMatchMethod":"unique_official_admin_names","boundaryPointCount":12},"geometry":{"type":"MultiPolygon","coordinates":[[[[122.021187,13.95611],[122.021851,13.95585],[122.022133,13.95578],[122.021797,13.95387],[122.021187,13.95164],[122.021187,13.95008],[122.019333,13.94883],[122.017662,13.94816],[122.016197,13.94918],[122.018639,13.95212],[122.02079,13.95541],[122.021187,13.95611]]]]}}]}
