{"type":"FeatureCollection","features":[{"type":"Feature","properties":{"ID_0":177,"ISO":"PHL","NAME_0":"Philippines","ID_1":8026,"NAME_1":"Eastern Samar","ID_2":802620,"NAME_2":"San Julian","ID_3":802620001,"NAME_3":"Bunacan","NL_NAME_3":null,"VARNAME_3":null,"TYPE_3":"Barangay","ENGTYPE_3":"Village","PROVINCE":"Eastern Samar","REGION":"Region VIII (Eastern Visayas)","id":"barangay-0802620001","name":"Bunacan","barangayCode":"0802620001","population":null,"formattedPop":null,"densityCategory":"No data","vulnerabilityRating":"No data","healthRiskLevel":"No data","areaKm2":8.586598,"centerLat":11.717275,"centerLng":125.419434,"geometrySource":"all_barangay-2.csv detailed WKT","geometryMatchMethod":"unique_official_admin_names","boundaryPointCount":24},"geometry":{"type":"MultiPolygon","coordinates":[[[[125.425194,11.72393],[125.427483,11.71646],[125.420311,11.7161],[125.413803,11.71625],[125.403511,11.7153],[125.393356,11.7129],[125.391342,11.71158],[125.38562,11.7099],[125.37944,11.7062],[125.371948,11.703],[125.362556,11.69886],[125.34993,11.6943],[125.337471,11.68982],[125.331017,11.68708],[125.3256,11.68531],[125.311996,11.68048],[125.298317,11.67745],[125.2817,11.67688],[125.278793,11.70795],[125.278053,11.71664],[125.300682,11.72691],[125.31868,11.73819],[125.350578,11.72219],[125.425194,11.72393]]]]}},{"type":"Feature","properties":{"ID_0":177,"ISO":"PHL","NAME_0":"Philippines","ID_1":8026,"NAME_1":"Eastern Samar","ID_2":802620,"NAME_2":"San Julian","ID_3":802620002,"NAME_3":"Campidhan","NL_NAME_3":null,"VARNAME_3":null,"TYPE_3":"Barangay","ENGTYPE_3":"Village","PROVINCE":"Eastern Samar","REGION":"Region VIII (Eastern Visayas)","id":"barangay-0802620002","name":"Campidhan","barangayCode":"0802620002","population":null,"formattedPop":null,"densityCategory":"No data","vulnerabilityRating":"No data","healthRiskLevel":"No data","areaKm2":5.097767,"centerLat":11.748746,"centerLng":125.406786,"geometrySource":"all_barangay-2.csv detailed WKT","geometryMatchMethod":"unique_official_admin_names","boundaryPointCount":51},"geometry":{"type":"MultiPolygon","coordinates":[[[[125.41333,11.75859],[125.41333,11.75806],[125.413612,11.75778],[125.413612,11.75667],[125.413887,11.75639],[125.413887,11.75611],[125.414169,11.75583],[125.414108,11.75562],[125.414383,11.75524],[125.414543,11.75496],[125.41227,11.75208],[125.410896,11.75025],[125.408661,11.74896],[125.406837,11.74763],[125.403297,11.74541],[125.402161,11.74489],[125.401382,11.7452],[125.400879,11.74422],[125.40126,11.74318],[125.4039,11.74076],[125.402802,11.73984],[125.402222,11.73951],[125.399979,11.73901],[125.398537,11.73956],[125.397957,11.7389],[125.39695,11.73668],[125.396217,11.73599],[125.395126,11.73583],[125.393204,11.73619],[125.39151,11.73653],[125.389893,11.73643],[125.388878,11.73526],[125.387558,11.73452],[125.387016,11.73404],[125.356758,11.73582],[125.358093,11.74173],[125.394707,11.77286],[125.39489,11.77177],[125.399437,11.77055],[125.401489,11.76949],[125.40184,11.76766],[125.403839,11.76427],[125.405029,11.7636],[125.406601,11.76319],[125.408447,11.76477],[125.410004,11.7654],[125.411583,11.76532],[125.413254,11.76329],[125.413162,11.76181],[125.413116,11.75899],[125.41333,11.75859]]]]}},{"type":"Feature","properties":{"ID_0":177,"ISO":"PHL","NAME_0":"Philippines","ID_1":8026,"NAME_1":"Eastern Samar","ID_2":802620,"NAME_2":"San Julian","ID_3":802620003,"NAME_3":"Casoroy","NL_NAME_3":null,"VARNAME_3":null,"TYPE_3":"Barangay","ENGTYPE_3":"Village","PROVINCE":"Eastern Samar","REGION":"Region VIII (Eastern Visayas)","id":"barangay-0802620003","name":"Casoroy","barangayCode":"0802620003","population":null,"formattedPop":null,"densityCategory":"No data","vulnerabilityRating":"No data","healthRiskLevel":"No data","areaKm2":8.67277,"centerLat":11.78661,"centerLng":125.414793,"geometrySource":"all_barangay-2.csv detailed WKT","geometryMatchMethod":"unique_official_admin_names","boundaryPointCount":37},"geometry":{"type":"MultiPolygon","coordinates":[[[[125.425041,11.77087],[125.425003,11.77083],[125.425003,11.77],[125.425278,11.76972],[125.425278,11.76944],[125.425552,11.76917],[125.425552,11.76889],[125.426109,11.76833],[125.426109,11.76806],[125.426666,11.7675],[125.426666,11.76722],[125.427422,11.76647],[125.427383,11.76618],[125.425758,11.76769],[125.42347,11.77094],[125.42028,11.77186],[125.417961,11.77172],[125.415817,11.774],[125.415031,11.77543],[125.412064,11.77664],[125.408997,11.77642],[125.406883,11.77775],[125.406837,11.78089],[125.40464,11.7836],[125.398613,11.78491],[125.39521,11.78796],[125.400284,11.79181],[125.410004,11.79721],[125.416031,11.79802],[125.420258,11.7957],[125.423058,11.792],[125.424721,11.78861],[125.42614,11.781],[125.427116,11.779],[125.425827,11.77716],[125.424789,11.7713],[125.425041,11.77087]]]]}},{"type":"Feature","properties":{"ID_0":177,"ISO":"PHL","NAME_0":"Philippines","ID_1":8026,"NAME_1":"Eastern Samar","ID_2":802620,"NAME_2":"San Julian","ID_3":802620004,"NAME_3":"Libas","NL_NAME_3":null,"VARNAME_3":null,"TYPE_3":"Barangay","ENGTYPE_3":"Village","PROVINCE":"Eastern Samar","REGION":"Region VIII (Eastern Visayas)","id":"barangay-0802620004","name":"Libas","barangayCode":"0802620004","population":null,"formattedPop":null,"densityCategory":"No data","vulnerabilityRating":"No data","healthRiskLevel":"No data","areaKm2":8.45756,"centerLat":11.737415,"centerLng":125.422672,"geometrySource":"all_barangay-2.csv detailed WKT","geometryMatchMethod":"unique_official_admin_names","boundaryPointCount":134},"geometry":{"type":"MultiPolygon","coordinates":[[[[125.414543,11.75496],[125.414627,11.75482],[125.414963,11.75441],[125.415329,11.75399],[125.415817,11.75363],[125.416428,11.75333],[125.417099,11.75309],[125.417824,11.7531],[125.41851,11.75331],[125.419189,11.7535],[125.419861,11.75364],[125.420441,11.75389],[125.420982,11.75413],[125.421516,11.7543],[125.421997,11.75446],[125.422432,11.75464],[125.422897,11.75477],[125.423347,11.75496],[125.423851,11.755],[125.424393,11.755],[125.425003,11.755],[125.426666,11.755],[125.427223,11.75556],[125.427498,11.75556],[125.42778,11.75583],[125.428047,11.75556],[125.428337,11.75583],[125.428337,11.75611],[125.428612,11.75639],[125.428612,11.75722],[125.429443,11.75806],[125.429733,11.75806],[125.43,11.75833],[125.430267,11.75833],[125.430557,11.75861],[125.431389,11.75861],[125.431664,11.75889],[125.431953,11.75889],[125.43222,11.75861],[125.432503,11.75861],[125.433067,11.75803],[125.433609,11.7575],[125.433609,11.75694],[125.432503,11.75583],[125.432503,11.75528],[125.43222,11.755],[125.43222,11.75472],[125.431953,11.75444],[125.431953,11.75417],[125.431107,11.75333],[125.430832,11.75333],[125.430267,11.75278],[125.429733,11.75278],[125.429443,11.7525],[125.429169,11.7525],[125.428886,11.75222],[125.428612,11.75222],[125.42778,11.75139],[125.427498,11.75111],[125.427498,11.75083],[125.426941,11.75028],[125.426941,11.75],[125.426666,11.74973],[125.426666,11.74861],[125.426941,11.74861],[125.42778,11.74778],[125.428047,11.74778],[125.428337,11.74806],[125.429169,11.74806],[125.429443,11.74833],[125.43,11.74833],[125.430267,11.74861],[125.430832,11.74806],[125.431107,11.74806],[125.431664,11.7475],[125.431953,11.7475],[125.432213,11.74723],[125.433609,11.74654],[125.435707,11.74571],[125.436958,11.74464],[125.4375,11.74417],[125.4375,11.74389],[125.438057,11.74333],[125.438057,11.74306],[125.438332,11.74278],[125.438332,11.74194],[125.438606,11.74167],[125.438606,11.74111],[125.438881,11.74084],[125.438728,11.74075],[125.438217,11.74074],[125.437286,11.74138],[125.435349,11.7407],[125.434113,11.73949],[125.433487,11.73908],[125.431953,11.73837],[125.430717,11.73701],[125.431252,11.73533],[125.431213,11.73511],[125.430008,11.73419],[125.428833,11.73388],[125.428467,11.73427],[125.428108,11.73293],[125.427788,11.73224],[125.426201,11.73247],[125.423943,11.73063],[125.425194,11.72393],[125.350578,11.72219],[125.356758,11.73582],[125.387016,11.73404],[125.387558,11.73452],[125.388878,11.73526],[125.389893,11.73643],[125.39151,11.73653],[125.393204,11.73619],[125.395126,11.73583],[125.396217,11.73599],[125.39695,11.73668],[125.397957,11.7389],[125.398537,11.73956],[125.399979,11.73901],[125.402222,11.73951],[125.402802,11.73984],[125.4039,11.74076],[125.40126,11.74318],[125.400879,11.74422],[125.401382,11.7452],[125.402161,11.74489],[125.403297,11.74541],[125.406837,11.74763],[125.408661,11.74896],[125.410896,11.75025],[125.41227,11.75208],[125.414543,11.75496]]]]}},{"type":"Feature","properties":{"ID_0":177,"ISO":"PHL","NAME_0":"Philippines","ID_1":8026,"NAME_1":"Eastern Samar","ID_2":802620,"NAME_2":"San Julian","ID_3":802620005,"NAME_3":"Nena","NL_NAME_3":null,"VARNAME_3":null,"TYPE_3":"Barangay","ENGTYPE_3":"Village","PROVINCE":"Eastern Samar","REGION":"Region VIII (Eastern Visayas)","id":"barangay-0802620005","name":"Nena","barangayCode":"0802620005","population":null,"formattedPop":null,"densityCategory":"No data","vulnerabilityRating":"No data","healthRiskLevel":"No data","areaKm2":13.936683,"centerLat":11.770911,"centerLng":125.392818,"geometrySource":"all_barangay-2.csv detailed WKT","geometryMatchMethod":"unique_official_admin_names","boundaryPointCount":64},"geometry":{"type":"MultiPolygon","coordinates":[[[[125.390083,11.78459],[125.39521,11.78796],[125.398613,11.78491],[125.40464,11.7836],[125.406837,11.78089],[125.406883,11.77775],[125.408997,11.77642],[125.412064,11.77664],[125.415031,11.77543],[125.415817,11.774],[125.417961,11.77172],[125.42028,11.77186],[125.42347,11.77094],[125.425758,11.76769],[125.427383,11.76618],[125.427422,11.76647],[125.42778,11.76611],[125.42778,11.76583],[125.426941,11.765],[125.425827,11.765],[125.425552,11.76528],[125.424454,11.76528],[125.423889,11.76583],[125.423607,11.76583],[125.423332,11.76611],[125.422783,11.76611],[125.422501,11.76639],[125.422234,11.76611],[125.421944,11.76611],[125.421669,11.76583],[125.419724,11.76583],[125.419441,11.76556],[125.418327,11.76556],[125.417503,11.76472],[125.417221,11.76472],[125.415283,11.76278],[125.415001,11.76278],[125.414436,11.76222],[125.414719,11.76194],[125.413887,11.76111],[125.413887,11.76083],[125.413612,11.76056],[125.413612,11.76],[125.41333,11.75972],[125.41333,11.75859],[125.413116,11.75899],[125.413162,11.76181],[125.413254,11.76329],[125.411583,11.76532],[125.410004,11.7654],[125.408447,11.76477],[125.406601,11.76319],[125.405029,11.7636],[125.403839,11.76427],[125.40184,11.76766],[125.401489,11.76949],[125.399437,11.77055],[125.39489,11.77177],[125.394707,11.77286],[125.393494,11.77417],[125.391586,11.77634],[125.389458,11.77822],[125.387123,11.78284],[125.390083,11.78459]]]]}},{"type":"Feature","properties":{"ID_0":177,"ISO":"PHL","NAME_0":"Philippines","ID_1":8026,"NAME_1":"Eastern Samar","ID_2":802620,"NAME_2":"San Julian","ID_3":802620006,"NAME_3":"Pagbabangnan","NL_NAME_3":null,"VARNAME_3":null,"TYPE_3":"Barangay","ENGTYPE_3":"Village","PROVINCE":"Eastern Samar","REGION":"Region VIII (Eastern Visayas)","id":"barangay-0802620006","name":"Pagbabangnan","barangayCode":"0802620006","population":null,"formattedPop":null,"densityCategory":"No data","vulnerabilityRating":"No data","healthRiskLevel":"No data","areaKm2":2.999171,"centerLat":11.733394,"centerLng":125.459151,"geometrySource":"all_barangay-2.csv detailed WKT","geometryMatchMethod":"unique_official_admin_names","boundaryPointCount":33},"geometry":{"type":"MultiPolygon","coordinates":[[[[125.468971,11.74018],[125.469559,11.73935],[125.469978,11.73852],[125.470177,11.73756],[125.470253,11.7359],[125.469566,11.73469],[125.46917,11.73417],[125.468613,11.73417],[125.46833,11.73389],[125.468063,11.73417],[125.467781,11.73389],[125.467499,11.73389],[125.467216,11.73361],[125.466393,11.73361],[125.465584,11.73382],[125.46489,11.73396],[125.464813,11.7334],[125.464813,11.73258],[125.465553,11.7325],[125.467216,11.73083],[125.467499,11.73083],[125.467781,11.73056],[125.46833,11.73028],[125.469673,11.72894],[125.468674,11.72872],[125.46759,11.72854],[125.446518,11.72487],[125.446098,11.7258],[125.440842,11.73248],[125.467102,11.73977],[125.467056,11.73984],[125.467461,11.73972],[125.468971,11.74018]]]]}},{"type":"Feature","properties":{"ID_0":177,"ISO":"PHL","NAME_0":"Philippines","ID_1":8026,"NAME_1":"Eastern Samar","ID_2":802620,"NAME_2":"San Julian","ID_3":802620007,"NAME_3":"Barangay No. 1 Poblacion","NL_NAME_3":null,"VARNAME_3":null,"TYPE_3":"Barangay","ENGTYPE_3":"Village","PROVINCE":"Eastern Samar","REGION":"Region VIII (Eastern Visayas)","id":"barangay-0802620007","name":"Barangay No. 1 Poblacion","barangayCode":"0802620007","population":null,"formattedPop":null,"densityCategory":"No data","vulnerabilityRating":"No data","healthRiskLevel":"No data","areaKm2":0.800935,"centerLat":11.75343,"centerLng":125.459193,"geometrySource":"all_barangay-2.csv detailed WKT","geometryMatchMethod":"unique_official_admin_names","boundaryPointCount":27},"geometry":{"type":"MultiPolygon","coordinates":[[[[125.463333,11.75315],[125.463333,11.75194],[125.462784,11.75139],[125.462784,11.74972],[125.463058,11.74944],[125.463058,11.74917],[125.463333,11.74889],[125.463333,11.74833],[125.463608,11.74806],[125.463608,11.74722],[125.46389,11.74694],[125.46389,11.74639],[125.464157,11.74611],[125.464157,11.74583],[125.464447,11.74556],[125.464447,11.74528],[125.464722,11.745],[125.464722,11.74472],[125.464867,11.74457],[125.464073,11.74424],[125.453377,11.74081],[125.452797,11.74295],[125.451683,11.7477],[125.45594,11.7501],[125.457733,11.75081],[125.461021,11.75225],[125.463333,11.75315]]]]}},{"type":"Feature","properties":{"ID_0":177,"ISO":"PHL","NAME_0":"Philippines","ID_1":8026,"NAME_1":"Eastern Samar","ID_2":802620,"NAME_2":"San Julian","ID_3":802620008,"NAME_3":"Barangay No. 2 Poblacion","NL_NAME_3":null,"VARNAME_3":null,"TYPE_3":"Barangay","ENGTYPE_3":"Village","PROVINCE":"Eastern Samar","REGION":"Region VIII (Eastern Visayas)","id":"barangay-0802620008","name":"Barangay No. 2 Poblacion","barangayCode":"0802620008","population":null,"formattedPop":null,"densityCategory":"No data","vulnerabilityRating":"No data","healthRiskLevel":"No data","areaKm2":0.065829,"centerLat":11.756781,"centerLng":125.456532,"geometrySource":"all_barangay-2.csv detailed WKT","geometryMatchMethod":"unique_official_admin_names","boundaryPointCount":25},"geometry":{"type":"MultiPolygon","coordinates":[[[[125.453003,11.75351],[125.453003,11.75335],[125.456757,11.75493],[125.460419,11.75589],[125.462349,11.75624],[125.462219,11.75611],[125.462502,11.75611],[125.462784,11.75583],[125.462784,11.755],[125.463058,11.75472],[125.463058,11.75417],[125.463333,11.75389],[125.463333,11.75315],[125.461021,11.75225],[125.457733,11.75081],[125.45594,11.7501],[125.451683,11.7477],[125.45108,11.74968],[125.450493,11.75167],[125.450546,11.75167],[125.451393,11.7525],[125.451668,11.7525],[125.452217,11.75306],[125.452499,11.75306],[125.453003,11.75351]]]]}},{"type":"Feature","properties":{"ID_0":177,"ISO":"PHL","NAME_0":"Philippines","ID_1":8026,"NAME_1":"Eastern Samar","ID_2":802620,"NAME_2":"San Julian","ID_3":802620009,"NAME_3":"Barangay No. 3 Poblacion","NL_NAME_3":null,"VARNAME_3":null,"TYPE_3":"Barangay","ENGTYPE_3":"Village","PROVINCE":"Eastern Samar","REGION":"Region VIII (Eastern Visayas)","id":"barangay-0802620009","name":"Barangay No. 3 Poblacion","barangayCode":"0802620009","population":null,"formattedPop":null,"densityCategory":"No data","vulnerabilityRating":"No data","healthRiskLevel":"No data","areaKm2":0.133798,"centerLat":11.75736,"centerLng":125.455312,"geometrySource":"all_barangay-2.csv detailed WKT","geometryMatchMethod":"unique_official_admin_names","boundaryPointCount":41},"geometry":{"type":"MultiPolygon","coordinates":[[[[125.453003,11.75351],[125.453033,11.75354],[125.453331,11.75472],[125.453331,11.755],[125.453102,11.75523],[125.453056,11.75528],[125.453056,11.75583],[125.452766,11.75611],[125.452766,11.75639],[125.453056,11.75667],[125.453056,11.75722],[125.454437,11.75861],[125.45472,11.75861],[125.455002,11.75889],[125.455276,11.75889],[125.455559,11.75917],[125.456108,11.75917],[125.45639,11.75944],[125.458054,11.75944],[125.458344,11.75972],[125.458923,11.75972],[125.459167,11.75972],[125.459442,11.76],[125.459717,11.76],[125.459999,11.76028],[125.460281,11.76028],[125.460281,11.76],[125.460831,11.75944],[125.461388,11.75944],[125.462219,11.75861],[125.462219,11.75806],[125.462502,11.75778],[125.462502,11.75722],[125.462784,11.75694],[125.462502,11.75667],[125.462502,11.75639],[125.462349,11.75624],[125.460419,11.75589],[125.456757,11.75493],[125.453003,11.75335],[125.453003,11.75351]]]]}},{"type":"Feature","properties":{"ID_0":177,"ISO":"PHL","NAME_0":"Philippines","ID_1":8026,"NAME_1":"Eastern Samar","ID_2":802620,"NAME_2":"San Julian","ID_3":802620010,"NAME_3":"Barangay No. 4 Poblacion","NL_NAME_3":null,"VARNAME_3":null,"TYPE_3":"Barangay","ENGTYPE_3":"Village","PROVINCE":"Eastern Samar","REGION":"Region VIII (Eastern Visayas)","id":"barangay-0802620010","name":"Barangay No. 4 Poblacion","barangayCode":"0802620010","population":null,"formattedPop":null,"densityCategory":"No data","vulnerabilityRating":"No data","healthRiskLevel":"No data","areaKm2":0.117147,"centerLat":11.751228,"centerLng":125.454339,"geometrySource":"all_barangay-2.csv detailed WKT","geometryMatchMethod":"unique_official_admin_names","boundaryPointCount":9},"geometry":{"type":"MultiPolygon","coordinates":[[[[125.451683,11.7477],[125.452797,11.74295],[125.453377,11.74081],[125.452026,11.7405],[125.451752,11.74044],[125.447983,11.73959],[125.446037,11.7444],[125.447144,11.74509],[125.451683,11.7477]]]]}},{"type":"Feature","properties":{"ID_0":177,"ISO":"PHL","NAME_0":"Philippines","ID_1":8026,"NAME_1":"Eastern Samar","ID_2":802620,"NAME_2":"San Julian","ID_3":802620011,"NAME_3":"Barangay No. 5 Poblacion","NL_NAME_3":null,"VARNAME_3":null,"TYPE_3":"Barangay","ENGTYPE_3":"Village","PROVINCE":"Eastern Samar","REGION":"Region VIII (Eastern Visayas)","id":"barangay-0802620011","name":"Barangay No. 5 Poblacion","barangayCode":"0802620011","population":null,"formattedPop":null,"densityCategory":"No data","vulnerabilityRating":"No data","healthRiskLevel":"No data","areaKm2":0.042007,"centerLat":11.753791,"centerLng":125.453346,"geometrySource":"all_barangay-2.csv detailed WKT","geometryMatchMethod":"unique_official_admin_names","boundaryPointCount":18},"geometry":{"type":"MultiPolygon","coordinates":[[[[125.444504,11.74811],[125.445,11.74861],[125.445,11.74917],[125.446114,11.74917],[125.446388,11.74944],[125.446663,11.74944],[125.447502,11.75028],[125.447777,11.75028],[125.448891,11.75139],[125.449722,11.75139],[125.449997,11.75167],[125.450493,11.75167],[125.45108,11.74968],[125.451683,11.7477],[125.447144,11.74509],[125.446037,11.7444],[125.44474,11.74758],[125.444504,11.74811]]]]}},{"type":"Feature","properties":{"ID_0":177,"ISO":"PHL","NAME_0":"Philippines","ID_1":8026,"NAME_1":"Eastern Samar","ID_2":802620,"NAME_2":"San Julian","ID_3":802620012,"NAME_3":"Barangay No. 6 Poblacion","NL_NAME_3":null,"VARNAME_3":null,"TYPE_3":"Barangay","ENGTYPE_3":"Village","PROVINCE":"Eastern Samar","REGION":"Region VIII (Eastern Visayas)","id":"barangay-0802620012","name":"Barangay No. 6 Poblacion","barangayCode":"0802620012","population":null,"formattedPop":null,"densityCategory":"No data","vulnerabilityRating":"No data","healthRiskLevel":"No data","areaKm2":2.371652,"centerLat":11.740489,"centerLng":125.446005,"geometrySource":"all_barangay-2.csv detailed WKT","geometryMatchMethod":"unique_official_admin_names","boundaryPointCount":43},"geometry":{"type":"MultiPolygon","coordinates":[[[[125.446037,11.7444],[125.447983,11.73959],[125.435623,11.73622],[125.431213,11.73511],[125.431252,11.73533],[125.430717,11.73701],[125.431953,11.73837],[125.433487,11.73908],[125.434113,11.73949],[125.435349,11.7407],[125.437286,11.74138],[125.438217,11.74074],[125.438728,11.74075],[125.438881,11.74084],[125.438889,11.74028],[125.439453,11.73972],[125.43972,11.73972],[125.440002,11.73944],[125.440552,11.73944],[125.441109,11.74],[125.441109,11.74028],[125.441673,11.74083],[125.441673,11.74139],[125.441948,11.74167],[125.441948,11.74194],[125.442223,11.74222],[125.442223,11.7425],[125.442497,11.74278],[125.442497,11.74333],[125.44278,11.74361],[125.44278,11.74445],[125.442497,11.74472],[125.442497,11.745],[125.44278,11.74528],[125.44278,11.74583],[125.443047,11.74611],[125.443047,11.74639],[125.443893,11.74722],[125.443893,11.74806],[125.444443,11.74806],[125.444504,11.74811],[125.44474,11.74758],[125.446037,11.7444]]]]}},{"type":"Feature","properties":{"ID_0":177,"ISO":"PHL","NAME_0":"Philippines","ID_1":8026,"NAME_1":"Eastern Samar","ID_2":802620,"NAME_2":"San Julian","ID_3":802620013,"NAME_3":"Putong","NL_NAME_3":null,"VARNAME_3":null,"TYPE_3":"Barangay","ENGTYPE_3":"Village","PROVINCE":"Eastern Samar","REGION":"Region VIII (Eastern Visayas)","id":"barangay-0802620013","name":"Putong","barangayCode":"0802620013","population":null,"formattedPop":null,"densityCategory":"No data","vulnerabilityRating":"No data","healthRiskLevel":"No data","areaKm2":80.945146,"centerLat":11.720349,"centerLng":125.343047,"geometrySource":"all_barangay-2.csv detailed WKT","geometryMatchMethod":"unique_official_admin_names","boundaryPointCount":12},"geometry":{"type":"MultiPolygon","coordinates":[[[[125.394707,11.77286],[125.358093,11.74173],[125.356758,11.73582],[125.350578,11.72219],[125.31868,11.73819],[125.337318,11.74854],[125.357964,11.76029],[125.387123,11.78284],[125.389458,11.77822],[125.391586,11.77634],[125.393494,11.77417],[125.394707,11.77286]]]]}},{"type":"Feature","properties":{"ID_0":177,"ISO":"PHL","NAME_0":"Philippines","ID_1":8026,"NAME_1":"Eastern Samar","ID_2":802620,"NAME_2":"San Julian","ID_3":802620015,"NAME_3":"San Isidro","NL_NAME_3":null,"VARNAME_3":null,"TYPE_3":"Barangay","ENGTYPE_3":"Village","PROVINCE":"Eastern Samar","REGION":"Region VIII (Eastern Visayas)","id":"barangay-0802620015","name":"San Isidro","barangayCode":"0802620015","population":null,"formattedPop":null,"densityCategory":"No data","vulnerabilityRating":"No data","healthRiskLevel":"No data","areaKm2":3.446964,"centerLat":11.718822,"centerLng":125.460534,"geometrySource":"all_barangay-2.csv detailed WKT","geometryMatchMethod":"unique_official_admin_names","boundaryPointCount":43},"geometry":{"type":"MultiPolygon","coordinates":[[[[125.469673,11.72894],[125.470558,11.72806],[125.470558,11.72778],[125.469719,11.72694],[125.469719,11.72639],[125.470001,11.72611],[125.470001,11.72583],[125.469719,11.72556],[125.469719,11.72417],[125.470558,11.72333],[125.470558,11.72278],[125.471657,11.72167],[125.471947,11.72167],[125.472221,11.72139],[125.472221,11.72111],[125.472778,11.72056],[125.472778,11.72],[125.473053,11.72],[125.47361,11.71944],[125.473892,11.71944],[125.474998,11.71833],[125.474998,11.71783],[125.47258,11.71745],[125.47123,11.71738],[125.471184,11.71739],[125.471123,11.71741],[125.468407,11.71686],[125.461617,11.71607],[125.455742,11.71552],[125.449669,11.7156],[125.448219,11.71701],[125.447548,11.71766],[125.44722,11.71849],[125.446831,11.71946],[125.447189,11.72037],[125.447212,11.72042],[125.447548,11.72128],[125.447571,11.72276],[125.44738,11.72322],[125.446518,11.72487],[125.46759,11.72854],[125.468674,11.72872],[125.469673,11.72894]]]]}},{"type":"Feature","properties":{"ID_0":177,"ISO":"PHL","NAME_0":"Philippines","ID_1":8026,"NAME_1":"Eastern Samar","ID_2":802620,"NAME_2":"San Julian","ID_3":802620016,"NAME_3":"San Miguel","NL_NAME_3":null,"VARNAME_3":null,"TYPE_3":"Barangay","ENGTYPE_3":"Village","PROVINCE":"Eastern Samar","REGION":"Region VIII (Eastern Visayas)","id":"barangay-0802620016","name":"San Miguel","barangayCode":"0802620016","population":null,"formattedPop":null,"densityCategory":"No data","vulnerabilityRating":"No data","healthRiskLevel":"No data","areaKm2":3.330679,"centerLat":11.721219,"centerLng":125.445019,"geometrySource":"all_barangay-2.csv detailed WKT","geometryMatchMethod":"unique_official_admin_names","boundaryPointCount":28},"geometry":{"type":"MultiPolygon","coordinates":[[[[125.435623,11.73622],[125.437927,11.73456],[125.440842,11.73248],[125.446098,11.7258],[125.446518,11.72487],[125.44738,11.72322],[125.447571,11.72276],[125.447548,11.72128],[125.447212,11.72042],[125.447189,11.72037],[125.446831,11.71946],[125.44722,11.71849],[125.447548,11.71766],[125.448219,11.71701],[125.449669,11.7156],[125.446617,11.71636],[125.443367,11.71619],[125.427483,11.71646],[125.425194,11.72393],[125.423943,11.73063],[125.426201,11.73247],[125.427788,11.73224],[125.428108,11.73293],[125.428467,11.73427],[125.428833,11.73388],[125.430008,11.73419],[125.431213,11.73511],[125.435623,11.73622]]]]}},{"type":"Feature","properties":{"ID_0":177,"ISO":"PHL","NAME_0":"Philippines","ID_1":8026,"NAME_1":"Eastern Samar","ID_2":802620,"NAME_2":"San Julian","ID_3":802620020,"NAME_3":"Lunang","NL_NAME_3":null,"VARNAME_3":null,"TYPE_3":"Barangay","ENGTYPE_3":"Village","PROVINCE":"Eastern Samar","REGION":"Region VIII (Eastern Visayas)","id":"barangay-0802620020","name":"Lunang","barangayCode":"0802620020","population":null,"formattedPop":null,"densityCategory":"No data","vulnerabilityRating":"No data","healthRiskLevel":"No data","areaKm2":1.308964,"centerLat":11.744292,"centerLng":125.45898,"geometrySource":"all_barangay-2.csv detailed WKT","geometryMatchMethod":"unique_official_admin_names","boundaryPointCount":26},"geometry":{"type":"MultiPolygon","coordinates":[[[[125.453377,11.74081],[125.464073,11.74424],[125.464867,11.74457],[125.464996,11.74445],[125.464996,11.74417],[125.465279,11.74389],[125.465279,11.74333],[125.465553,11.74306],[125.465553,11.74278],[125.46611,11.74222],[125.466393,11.74222],[125.466667,11.7425],[125.467392,11.74197],[125.468369,11.74114],[125.468933,11.74025],[125.468971,11.74018],[125.467461,11.73972],[125.467056,11.73984],[125.467102,11.73977],[125.440842,11.73248],[125.437927,11.73456],[125.435623,11.73622],[125.447983,11.73959],[125.451752,11.74044],[125.452026,11.7405],[125.453377,11.74081]]]]}}]}
