{"type":"FeatureCollection","features":[{"type":"Feature","properties":{"ID_0":177,"ISO":"PHL","NAME_0":"Philippines","ID_1":3049,"NAME_1":"Nueva Ecija","ID_2":304906,"NAME_2":"Cuyapo","ID_3":304906001,"NAME_3":"Baloy","NL_NAME_3":null,"VARNAME_3":null,"TYPE_3":"Barangay","ENGTYPE_3":"Village","PROVINCE":"Nueva Ecija","REGION":"Region III (Central Luzon)","id":"barangay-0304906001","name":"Baloy","barangayCode":"0304906001","population":null,"formattedPop":null,"densityCategory":"No data","vulnerabilityRating":"No data","healthRiskLevel":"No data","areaKm2":12.871988,"centerLat":15.809112,"centerLng":120.771891,"geometrySource":"all_barangay-2.csv detailed WKT","geometryMatchMethod":"unique_official_admin_names","boundaryPointCount":10},"geometry":{"type":"MultiPolygon","coordinates":[[[[120.753342,15.8249],[120.760521,15.81951],[120.766953,15.81477],[120.772507,15.80954],[120.774529,15.80741],[120.776611,15.80426],[120.768318,15.79662],[120.75676,15.78562],[120.754181,15.80793],[120.753342,15.8249]]]]}},{"type":"Feature","properties":{"ID_0":177,"ISO":"PHL","NAME_0":"Philippines","ID_1":3049,"NAME_1":"Nueva Ecija","ID_2":304906,"NAME_2":"Cuyapo","ID_3":304906002,"NAME_3":"Bambanaba","NL_NAME_3":null,"VARNAME_3":null,"TYPE_3":"Barangay","ENGTYPE_3":"Village","PROVINCE":"Nueva Ecija","REGION":"Region III (Central Luzon)","id":"barangay-0304906002","name":"Bambanaba","barangayCode":"0304906002","population":null,"formattedPop":null,"densityCategory":"No data","vulnerabilityRating":"No data","healthRiskLevel":"No data","areaKm2":9.482572,"centerLat":15.752913,"centerLng":120.728262,"geometrySource":"all_barangay-2.csv detailed WKT","geometryMatchMethod":"unique_official_admin_names","boundaryPointCount":11},"geometry":{"type":"MultiPolygon","coordinates":[[[[120.725998,15.75291],[120.733803,15.75253],[120.73439,15.75249],[120.736061,15.75205],[120.737419,15.75116],[120.738136,15.75064],[120.714104,15.73504],[120.710983,15.74146],[120.705994,15.75305],[120.712669,15.75317],[120.725998,15.75291]]]]}},{"type":"Feature","properties":{"ID_0":177,"ISO":"PHL","NAME_0":"Philippines","ID_1":3049,"NAME_1":"Nueva Ecija","ID_2":304906,"NAME_2":"Cuyapo","ID_3":304906003,"NAME_3":"Bantug","NL_NAME_3":null,"VARNAME_3":null,"TYPE_3":"Barangay","ENGTYPE_3":"Village","PROVINCE":"Nueva Ecija","REGION":"Region III (Central Luzon)","id":"barangay-0304906003","name":"Bantug","barangayCode":"0304906003","population":null,"formattedPop":null,"densityCategory":"No data","vulnerabilityRating":"No data","healthRiskLevel":"No data","areaKm2":5.836195,"centerLat":15.758223,"centerLng":120.674002,"geometrySource":"all_barangay-2.csv detailed WKT","geometryMatchMethod":"unique_official_admin_names","boundaryPointCount":10},"geometry":{"type":"MultiPolygon","coordinates":[[[[120.673347,15.77612],[120.671989,15.77042],[120.668007,15.7705],[120.666908,15.76838],[120.653137,15.7686],[120.65313,15.77493],[120.657257,15.77507],[120.663544,15.77551],[120.667412,15.77568],[120.673347,15.77612]]]]}},{"type":"Feature","properties":{"ID_0":177,"ISO":"PHL","NAME_0":"Philippines","ID_1":3049,"NAME_1":"Nueva Ecija","ID_2":304906,"NAME_2":"Cuyapo","ID_3":304906004,"NAME_3":"Bentigan","NL_NAME_3":null,"VARNAME_3":null,"TYPE_3":"Barangay","ENGTYPE_3":"Village","PROVINCE":"Nueva Ecija","REGION":"Region III (Central Luzon)","id":"barangay-0304906004","name":"Bentigan","barangayCode":"0304906004","population":null,"formattedPop":null,"densityCategory":"No data","vulnerabilityRating":"No data","healthRiskLevel":"No data","areaKm2":4.296335,"centerLat":15.760781,"centerLng":120.653217,"geometrySource":"all_barangay-2.csv detailed WKT","geometryMatchMethod":"unique_official_admin_names","boundaryPointCount":19},"geometry":{"type":"MultiPolygon","coordinates":[[[[120.653137,15.7686],[120.666908,15.76838],[120.664543,15.76167],[120.661201,15.75423],[120.659843,15.74948],[120.657127,15.75096],[120.655167,15.75189],[120.646912,15.7558],[120.645042,15.75723],[120.64035,15.75942],[120.63855,15.76052],[120.639214,15.76162],[120.640877,15.76336],[120.642097,15.76483],[120.64267,15.76618],[120.642738,15.76752],[120.642464,15.76825],[120.642227,15.76865],[120.653137,15.7686]]]]}},{"type":"Feature","properties":{"ID_0":177,"ISO":"PHL","NAME_0":"Philippines","ID_1":3049,"NAME_1":"Nueva Ecija","ID_2":304906,"NAME_2":"Cuyapo","ID_3":304906005,"NAME_3":"Bibiclat","NL_NAME_3":null,"VARNAME_3":null,"TYPE_3":"Barangay","ENGTYPE_3":"Village","PROVINCE":"Nueva Ecija","REGION":"Region III (Central Luzon)","id":"barangay-0304906005","name":"Bibiclat","barangayCode":"0304906005","population":null,"formattedPop":null,"densityCategory":"No data","vulnerabilityRating":"No data","healthRiskLevel":"No data","areaKm2":7.650825,"centerLat":15.756221,"centerLng":120.706937,"geometrySource":"all_barangay-2.csv detailed WKT","geometryMatchMethod":"unique_official_admin_names","boundaryPointCount":7},"geometry":{"type":"MultiPolygon","coordinates":[[[[120.664543,15.76167],[120.703529,15.76035],[120.704529,15.75826],[120.705551,15.75561],[120.705994,15.75305],[120.661201,15.75423],[120.664543,15.76167]]]]}},{"type":"Feature","properties":{"ID_0":177,"ISO":"PHL","NAME_0":"Philippines","ID_1":3049,"NAME_1":"Nueva Ecija","ID_2":304906,"NAME_2":"Cuyapo","ID_3":304906006,"NAME_3":"Bonifacio","NL_NAME_3":null,"VARNAME_3":null,"TYPE_3":"Barangay","ENGTYPE_3":"Village","PROVINCE":"Nueva Ecija","REGION":"Region III (Central Luzon)","id":"barangay-0304906006","name":"Bonifacio","barangayCode":"0304906006","population":null,"formattedPop":null,"densityCategory":"No data","vulnerabilityRating":"No data","healthRiskLevel":"No data","areaKm2":4.695533,"centerLat":15.80705,"centerLng":120.746475,"geometrySource":"all_barangay-2.csv detailed WKT","geometryMatchMethod":"unique_official_admin_names","boundaryPointCount":20},"geometry":{"type":"MultiPolygon","coordinates":[[[[120.751053,15.82554],[120.75177,15.82539],[120.753342,15.8249],[120.754181,15.80793],[120.75354,15.80796],[120.751343,15.80788],[120.748253,15.80766],[120.744507,15.80746],[120.742821,15.80726],[120.741501,15.80663],[120.739807,15.8054],[120.738319,15.82739],[120.740334,15.82743],[120.741882,15.82738],[120.742683,15.82729],[120.74514,15.82706],[120.74678,15.82683],[120.748756,15.82621],[120.75058,15.82574],[120.751053,15.82554]]]]}},{"type":"Feature","properties":{"ID_0":177,"ISO":"PHL","NAME_0":"Philippines","ID_1":3049,"NAME_1":"Nueva Ecija","ID_2":304906,"NAME_2":"Cuyapo","ID_3":304906007,"NAME_3":"Bued","NL_NAME_3":null,"VARNAME_3":null,"TYPE_3":"Barangay","ENGTYPE_3":"Village","PROVINCE":"Nueva Ecija","REGION":"Region III (Central Luzon)","id":"barangay-0304906007","name":"Bued","barangayCode":"0304906007","population":null,"formattedPop":null,"densityCategory":"No data","vulnerabilityRating":"No data","healthRiskLevel":"No data","areaKm2":1.802427,"centerLat":15.822313,"centerLng":120.65701,"geometrySource":"all_barangay-2.csv detailed WKT","geometryMatchMethod":"unique_official_admin_names","boundaryPointCount":22},"geometry":{"type":"MultiPolygon","coordinates":[[[[120.635811,15.83079],[120.638107,15.83068],[120.639809,15.83066],[120.642014,15.83053],[120.644402,15.83037],[120.645241,15.83048],[120.646652,15.83034],[120.648163,15.83013],[120.649223,15.83004],[120.651939,15.82993],[120.652428,15.82873],[120.653709,15.82766],[120.654907,15.82718],[120.656616,15.82683],[120.657333,15.82665],[120.65892,15.82584],[120.659843,15.82507],[120.660896,15.82373],[120.652687,15.82342],[120.643417,15.82338],[120.635941,15.82348],[120.635811,15.83079]]]]}},{"type":"Feature","properties":{"ID_0":177,"ISO":"PHL","NAME_0":"Philippines","ID_1":3049,"NAME_1":"Nueva Ecija","ID_2":304906,"NAME_2":"Cuyapo","ID_3":304906008,"NAME_3":"Bulala","NL_NAME_3":null,"VARNAME_3":null,"TYPE_3":"Barangay","ENGTYPE_3":"Village","PROVINCE":"Nueva Ecija","REGION":"Region III (Central Luzon)","id":"barangay-0304906008","name":"Bulala","barangayCode":"0304906008","population":null,"formattedPop":null,"densityCategory":"No data","vulnerabilityRating":"No data","healthRiskLevel":"No data","areaKm2":1.250008,"centerLat":15.76978,"centerLng":120.667945,"geometrySource":"all_barangay-2.csv detailed WKT","geometryMatchMethod":"unique_official_admin_names","boundaryPointCount":12},"geometry":{"type":"MultiPolygon","coordinates":[[[[120.669258,15.78049],[120.670143,15.77929],[120.67083,15.778],[120.671509,15.77729],[120.673347,15.77612],[120.667412,15.77568],[120.663544,15.77551],[120.657257,15.77507],[120.65313,15.77493],[120.653358,15.77893],[120.662651,15.77939],[120.669258,15.78049]]]]}},{"type":"Feature","properties":{"ID_0":177,"ISO":"PHL","NAME_0":"Philippines","ID_1":3049,"NAME_1":"Nueva Ecija","ID_2":304906,"NAME_2":"Cuyapo","ID_3":304906009,"NAME_3":"Burgos","NL_NAME_3":null,"VARNAME_3":null,"TYPE_3":"Barangay","ENGTYPE_3":"Village","PROVINCE":"Nueva Ecija","REGION":"Region III (Central Luzon)","id":"barangay-0304906009","name":"Burgos","barangayCode":"0304906009","population":null,"formattedPop":null,"densityCategory":"No data","vulnerabilityRating":"No data","healthRiskLevel":"No data","areaKm2":5.464703,"centerLat":15.763044,"centerLng":120.700741,"geometrySource":"all_barangay-2.csv detailed WKT","geometryMatchMethod":"unique_official_admin_names","boundaryPointCount":11},"geometry":{"type":"MultiPolygon","coordinates":[[[[120.699768,15.76941],[120.701637,15.7654],[120.702888,15.7618],[120.703529,15.76035],[120.664543,15.76167],[120.666908,15.76838],[120.668007,15.7705],[120.671989,15.77042],[120.681602,15.77014],[120.690376,15.76991],[120.699768,15.76941]]]]}},{"type":"Feature","properties":{"ID_0":177,"ISO":"PHL","NAME_0":"Philippines","ID_1":3049,"NAME_1":"Nueva Ecija","ID_2":304906,"NAME_2":"Cuyapo","ID_3":304906010,"NAME_3":"Cabileo","NL_NAME_3":null,"VARNAME_3":null,"TYPE_3":"Barangay","ENGTYPE_3":"Village","PROVINCE":"Nueva Ecija","REGION":"Region III (Central Luzon)","id":"barangay-0304906010","name":"Cabileo","barangayCode":"0304906010","population":null,"formattedPop":null,"densityCategory":"No data","vulnerabilityRating":"No data","healthRiskLevel":"No data","areaKm2":2.357398,"centerLat":15.771171,"centerLng":120.697969,"geometrySource":"all_barangay-2.csv detailed WKT","geometryMatchMethod":"unique_official_admin_names","boundaryPointCount":44},"geometry":{"type":"MultiPolygon","coordinates":[[[[120.754181,15.80793],[120.75676,15.78562],[120.699768,15.76941],[120.690376,15.76991],[120.681602,15.77014],[120.671989,15.77042],[120.673347,15.77612],[120.676224,15.77644],[120.67849,15.77641],[120.679848,15.77648],[120.68029,15.77691],[120.680656,15.77747],[120.680687,15.7783],[120.680588,15.77973],[120.688164,15.78091],[120.693703,15.78144],[120.695129,15.78161],[120.695503,15.78586],[120.698936,15.78634],[120.701721,15.78708],[120.702972,15.78746],[120.707321,15.78827],[120.711502,15.78953],[120.714203,15.79039],[120.715927,15.7909],[120.719643,15.79269],[120.721329,15.79341],[120.72345,15.79417],[120.724869,15.79472],[120.726723,15.7953],[120.730766,15.79709],[120.732132,15.79816],[120.733322,15.79947],[120.733788,15.80013],[120.737068,15.80334],[120.737862,15.80395],[120.739807,15.8054],[120.741501,15.80663],[120.742821,15.80726],[120.744507,15.80746],[120.748253,15.80766],[120.751343,15.80788],[120.75354,15.80796],[120.754181,15.80793]]]]}},{"type":"Feature","properties":{"ID_0":177,"ISO":"PHL","NAME_0":"Philippines","ID_1":3049,"NAME_1":"Nueva Ecija","ID_2":304906,"NAME_2":"Cuyapo","ID_3":304906011,"NAME_3":"Cabatuan","NL_NAME_3":null,"VARNAME_3":null,"TYPE_3":"Barangay","ENGTYPE_3":"Village","PROVINCE":"Nueva Ecija","REGION":"Region III (Central Luzon)","id":"barangay-0304906011","name":"Cabatuan","barangayCode":"0304906011","population":null,"formattedPop":null,"densityCategory":"No data","vulnerabilityRating":"No data","healthRiskLevel":"No data","areaKm2":2.622667,"centerLat":15.789489,"centerLng":120.704317,"geometrySource":"all_barangay-2.csv detailed WKT","geometryMatchMethod":"unique_official_admin_names","boundaryPointCount":17},"geometry":{"type":"MultiPolygon","coordinates":[[[[120.679367,15.8103],[120.679573,15.80143],[120.669617,15.80024],[120.66819,15.80117],[120.667503,15.80186],[120.666908,15.80378],[120.667084,15.80503],[120.667923,15.80711],[120.669037,15.80875],[120.669479,15.80932],[120.669983,15.81027],[120.671051,15.80997],[120.673897,15.81013],[120.675293,15.81023],[120.676582,15.81016],[120.678673,15.81022],[120.679367,15.8103]]]]}},{"type":"Feature","properties":{"ID_0":177,"ISO":"PHL","NAME_0":"Philippines","ID_1":3049,"NAME_1":"Nueva Ecija","ID_2":304906,"NAME_2":"Cuyapo","ID_3":304906012,"NAME_3":"Cacapasan","NL_NAME_3":null,"VARNAME_3":null,"TYPE_3":"Barangay","ENGTYPE_3":"Village","PROVINCE":"Nueva Ecija","REGION":"Region III (Central Luzon)","id":"barangay-0304906012","name":"Cacapasan","barangayCode":"0304906012","population":null,"formattedPop":null,"densityCategory":"No data","vulnerabilityRating":"No data","healthRiskLevel":"No data","areaKm2":3.444357,"centerLat":15.725195,"centerLng":120.725909,"geometrySource":"all_barangay-2.csv detailed WKT","geometryMatchMethod":"unique_official_admin_names","boundaryPointCount":20},"geometry":{"type":"MultiPolygon","coordinates":[[[[120.754272,15.74817],[120.75174,15.74616],[120.735931,15.73331],[120.72728,15.72617],[120.721619,15.72152],[120.717087,15.72851],[120.715607,15.73213],[120.714104,15.73504],[120.738136,15.75064],[120.738609,15.74996],[120.739777,15.7495],[120.740868,15.74885],[120.74263,15.74797],[120.743683,15.74788],[120.745491,15.74855],[120.746674,15.74925],[120.748138,15.74973],[120.749847,15.74952],[120.750549,15.74934],[120.754272,15.74817]]]]}},{"type":"Feature","properties":{"ID_0":177,"ISO":"PHL","NAME_0":"Philippines","ID_1":3049,"NAME_1":"Nueva Ecija","ID_2":304906,"NAME_2":"Cuyapo","ID_3":304906013,"NAME_3":"Calancuasan Norte","NL_NAME_3":null,"VARNAME_3":null,"TYPE_3":"Barangay","ENGTYPE_3":"Village","PROVINCE":"Nueva Ecija","REGION":"Region III (Central Luzon)","id":"barangay-0304906013","name":"Calancuasan Norte","barangayCode":"0304906013","population":null,"formattedPop":null,"densityCategory":"No data","vulnerabilityRating":"No data","healthRiskLevel":"No data","areaKm2":1.938589,"centerLat":15.802352,"centerLng":120.642271,"geometrySource":"all_barangay-2.csv detailed WKT","geometryMatchMethod":"unique_official_admin_names","boundaryPointCount":14},"geometry":{"type":"MultiPolygon","coordinates":[[[[120.664078,15.80662],[120.658821,15.80116],[120.655548,15.79809],[120.65226,15.79449],[120.632843,15.80048],[120.632729,15.80104],[120.63224,15.80218],[120.631844,15.80307],[120.630981,15.80472],[120.630417,15.80587],[120.629707,15.8066],[120.642143,15.80641],[120.653267,15.8063],[120.664078,15.80662]]]]}},{"type":"Feature","properties":{"ID_0":177,"ISO":"PHL","NAME_0":"Philippines","ID_1":3049,"NAME_1":"Nueva Ecija","ID_2":304906,"NAME_2":"Cuyapo","ID_3":304906014,"NAME_3":"Calancuasan Sur","NL_NAME_3":null,"VARNAME_3":null,"TYPE_3":"Barangay","ENGTYPE_3":"Village","PROVINCE":"Nueva Ecija","REGION":"Region III (Central Luzon)","id":"barangay-0304906014","name":"Calancuasan Sur","barangayCode":"0304906014","population":null,"formattedPop":null,"densityCategory":"No data","vulnerabilityRating":"No data","healthRiskLevel":"No data","areaKm2":3.9929,"centerLat":15.787985,"centerLng":120.634262,"geometrySource":"all_barangay-2.csv detailed WKT","geometryMatchMethod":"unique_official_admin_names","boundaryPointCount":24},"geometry":{"type":"MultiPolygon","coordinates":[[[[120.632843,15.80048],[120.65226,15.79449],[120.652847,15.79395],[120.653511,15.79249],[120.653763,15.79165],[120.654167,15.79001],[120.654167,15.78859],[120.65345,15.78847],[120.650574,15.78837],[120.646698,15.78827],[120.641762,15.78828],[120.635033,15.78864],[120.628616,15.78864],[120.620621,15.78828],[120.62043,15.78966],[120.619743,15.79253],[120.61937,15.79454],[120.620598,15.79552],[120.622093,15.79594],[120.625473,15.79731],[120.627968,15.79834],[120.629753,15.79887],[120.631897,15.79991],[120.632843,15.80048]]]]}},{"type":"Feature","properties":{"ID_0":177,"ISO":"PHL","NAME_0":"Philippines","ID_1":3049,"NAME_1":"Nueva Ecija","ID_2":304906,"NAME_2":"Cuyapo","ID_3":304906015,"NAME_3":"Colosboa","NL_NAME_3":null,"VARNAME_3":null,"TYPE_3":"Barangay","ENGTYPE_3":"Village","PROVINCE":"Nueva Ecija","REGION":"Region III (Central Luzon)","id":"barangay-0304906015","name":"Colosboa","barangayCode":"0304906015","population":null,"formattedPop":null,"densityCategory":"No data","vulnerabilityRating":"No data","healthRiskLevel":"No data","areaKm2":11.537172,"centerLat":15.790035,"centerLng":120.728701,"geometrySource":"all_barangay-2.csv detailed WKT","geometryMatchMethod":"unique_official_admin_names","boundaryPointCount":28},"geometry":{"type":"MultiPolygon","coordinates":[[[[120.709549,15.82074],[120.715233,15.82302],[120.715477,15.81063],[120.715927,15.7909],[120.714203,15.79039],[120.711502,15.78953],[120.707321,15.78827],[120.702972,15.78746],[120.701721,15.78708],[120.698936,15.78634],[120.695503,15.78586],[120.692543,15.78605],[120.692482,15.78905],[120.6931,15.79144],[120.692711,15.79617],[120.697227,15.79597],[120.702332,15.79636],[120.705383,15.79691],[120.705589,15.8021],[120.705406,15.80708],[120.705276,15.81088],[120.705353,15.81229],[120.705383,15.81473],[120.706261,15.81693],[120.706848,15.81813],[120.707603,15.81903],[120.708237,15.81969],[120.709549,15.82074]]]]}},{"type":"Feature","properties":{"ID_0":177,"ISO":"PHL","NAME_0":"Philippines","ID_1":3049,"NAME_1":"Nueva Ecija","ID_2":304906,"NAME_2":"Cuyapo","ID_3":304906016,"NAME_3":"Columbitin","NL_NAME_3":null,"VARNAME_3":null,"TYPE_3":"Barangay","ENGTYPE_3":"Village","PROVINCE":"Nueva Ecija","REGION":"Region III (Central Luzon)","id":"barangay-0304906016","name":"Columbitin","barangayCode":"0304906016","population":null,"formattedPop":null,"densityCategory":"No data","vulnerabilityRating":"No data","healthRiskLevel":"No data","areaKm2":3.972393,"centerLat":15.815036,"centerLng":120.719934,"geometrySource":"all_barangay-2.csv detailed WKT","geometryMatchMethod":"unique_official_admin_names","boundaryPointCount":13},"geometry":{"type":"MultiPolygon","coordinates":[[[[120.729012,15.82978],[120.730339,15.81027],[120.729584,15.81049],[120.730766,15.79709],[120.726723,15.7953],[120.724869,15.79472],[120.72345,15.79417],[120.721329,15.79341],[120.719643,15.79269],[120.715927,15.7909],[120.715477,15.81063],[120.715233,15.82302],[120.729012,15.82978]]]]}},{"type":"Feature","properties":{"ID_0":177,"ISO":"PHL","NAME_0":"Philippines","ID_1":3049,"NAME_1":"Nueva Ecija","ID_2":304906,"NAME_2":"Cuyapo","ID_3":304906017,"NAME_3":"Curva","NL_NAME_3":null,"VARNAME_3":null,"TYPE_3":"Barangay","ENGTYPE_3":"Village","PROVINCE":"Nueva Ecija","REGION":"Region III (Central Luzon)","id":"barangay-0304906017","name":"Curva","barangayCode":"0304906017","population":null,"formattedPop":null,"densityCategory":"No data","vulnerabilityRating":"No data","healthRiskLevel":"No data","areaKm2":1.780174,"centerLat":15.782119,"centerLng":120.68918,"geometrySource":"all_barangay-2.csv detailed WKT","geometryMatchMethod":"unique_official_admin_names","boundaryPointCount":28},"geometry":{"type":"MultiPolygon","coordinates":[[[[120.692711,15.79617],[120.6931,15.79144],[120.692482,15.78905],[120.692543,15.78605],[120.692268,15.78579],[120.691383,15.78553],[120.690659,15.78526],[120.689583,15.78477],[120.688797,15.78497],[120.687927,15.78503],[120.687088,15.78514],[120.686234,15.78506],[120.684792,15.7851],[120.684097,15.78493],[120.682648,15.78469],[120.683281,15.78533],[120.683006,15.78702],[120.68261,15.78825],[120.682373,15.78842],[120.681374,15.78853],[120.68116,15.79044],[120.680939,15.79205],[120.68074,15.7932],[120.680901,15.79419],[120.681267,15.795],[120.681808,15.79569],[120.688881,15.79644],[120.692711,15.79617]]]]}},{"type":"Feature","properties":{"ID_0":177,"ISO":"PHL","NAME_0":"Philippines","ID_1":3049,"NAME_1":"Nueva Ecija","ID_2":304906,"NAME_2":"Cuyapo","ID_3":304906018,"NAME_3":"District I","NL_NAME_3":null,"VARNAME_3":null,"TYPE_3":"Barangay","ENGTYPE_3":"Village","PROVINCE":"Nueva Ecija","REGION":"Region III (Central Luzon)","id":"barangay-0304906018","name":"District I","barangayCode":"0304906018","population":null,"formattedPop":null,"densityCategory":"No data","vulnerabilityRating":"No data","healthRiskLevel":"No data","areaKm2":0.098717,"centerLat":15.780093,"centerLng":120.664006,"geometrySource":"all_barangay-2.csv detailed WKT","geometryMatchMethod":"unique_official_admin_names","boundaryPointCount":5},"geometry":{"type":"MultiPolygon","coordinates":[[[[120.659729,15.78394],[120.663277,15.78456],[120.663513,15.78226],[120.660004,15.78183],[120.659729,15.78394]]]]}},{"type":"Feature","properties":{"ID_0":177,"ISO":"PHL","NAME_0":"Philippines","ID_1":3049,"NAME_1":"Nueva Ecija","ID_2":304906,"NAME_2":"Cuyapo","ID_3":304906019,"NAME_3":"District II","NL_NAME_3":null,"VARNAME_3":null,"TYPE_3":"Barangay","ENGTYPE_3":"Village","PROVINCE":"Nueva Ecija","REGION":"Region III (Central Luzon)","id":"barangay-0304906019","name":"District II","barangayCode":"0304906019","population":null,"formattedPop":null,"densityCategory":"No data","vulnerabilityRating":"No data","healthRiskLevel":"No data","areaKm2":0.637263,"centerLat":15.78735,"centerLng":120.663902,"geometrySource":"all_barangay-2.csv detailed WKT","geometryMatchMethod":"unique_official_admin_names","boundaryPointCount":21},"geometry":{"type":"MultiPolygon","coordinates":[[[[120.668961,15.78827],[120.668419,15.7873],[120.66877,15.78531],[120.665733,15.78501],[120.664703,15.78485],[120.664459,15.7848],[120.663277,15.78456],[120.659729,15.78394],[120.659081,15.78379],[120.658783,15.78606],[120.657837,15.78719],[120.656799,15.78851],[120.656631,15.78867],[120.657143,15.78869],[120.657547,15.7887],[120.658028,15.78868],[120.658653,15.7887],[120.659859,15.7887],[120.662308,15.78858],[120.666763,15.78837],[120.668961,15.78827]]]]}},{"type":"Feature","properties":{"ID_0":177,"ISO":"PHL","NAME_0":"Philippines","ID_1":3049,"NAME_1":"Nueva Ecija","ID_2":304906,"NAME_2":"Cuyapo","ID_3":304906021,"NAME_3":"District IV","NL_NAME_3":null,"VARNAME_3":null,"TYPE_3":"Barangay","ENGTYPE_3":"Village","PROVINCE":"Nueva Ecija","REGION":"Region III (Central Luzon)","id":"barangay-0304906021","name":"District IV","barangayCode":"0304906021","population":null,"formattedPop":null,"densityCategory":"No data","vulnerabilityRating":"No data","healthRiskLevel":"No data","areaKm2":0.231086,"centerLat":15.78077,"centerLng":120.668107,"geometrySource":"all_barangay-2.csv detailed WKT","geometryMatchMethod":"unique_official_admin_names","boundaryPointCount":8},"geometry":{"type":"MultiPolygon","coordinates":[[[[120.663277,15.78456],[120.664459,15.7848],[120.664703,15.78485],[120.665733,15.78501],[120.66877,15.78531],[120.669189,15.78299],[120.663513,15.78226],[120.663277,15.78456]]]]}},{"type":"Feature","properties":{"ID_0":177,"ISO":"PHL","NAME_0":"Philippines","ID_1":3049,"NAME_1":"Nueva Ecija","ID_2":304906,"NAME_2":"Cuyapo","ID_3":304906022,"NAME_3":"District V","NL_NAME_3":null,"VARNAME_3":null,"TYPE_3":"Barangay","ENGTYPE_3":"Village","PROVINCE":"Nueva Ecija","REGION":"Region III (Central Luzon)","id":"barangay-0304906022","name":"District V","barangayCode":"0304906022","population":null,"formattedPop":null,"densityCategory":"No data","vulnerabilityRating":"No data","healthRiskLevel":"No data","areaKm2":0.123353,"centerLat":15.777127,"centerLng":120.66799,"geometrySource":"all_barangay-2.csv detailed WKT","geometryMatchMethod":"unique_official_admin_names","boundaryPointCount":10},"geometry":{"type":"MultiPolygon","coordinates":[[[[120.669189,15.78299],[120.669281,15.78153],[120.665047,15.781],[120.663643,15.78086],[120.66301,15.78077],[120.662521,15.78067],[120.66021,15.78038],[120.660004,15.78183],[120.663513,15.78226],[120.669189,15.78299]]]]}},{"type":"Feature","properties":{"ID_0":177,"ISO":"PHL","NAME_0":"Philippines","ID_1":3049,"NAME_1":"Nueva Ecija","ID_2":304906,"NAME_2":"Cuyapo","ID_3":304906023,"NAME_3":"District VI","NL_NAME_3":null,"VARNAME_3":null,"TYPE_3":"Barangay","ENGTYPE_3":"Village","PROVINCE":"Nueva Ecija","REGION":"Region III (Central Luzon)","id":"barangay-0304906023","name":"District VI","barangayCode":"0304906023","population":null,"formattedPop":null,"densityCategory":"No data","vulnerabilityRating":"No data","healthRiskLevel":"No data","areaKm2":0.407384,"centerLat":15.776272,"centerLng":120.66015,"geometrySource":"all_barangay-2.csv detailed WKT","geometryMatchMethod":"unique_official_admin_names","boundaryPointCount":9},"geometry":{"type":"MultiPolygon","coordinates":[[[[120.662521,15.78067],[120.662651,15.77939],[120.653358,15.77893],[120.653458,15.78009],[120.655159,15.78009],[120.655777,15.78019],[120.658997,15.78023],[120.66021,15.78038],[120.662521,15.78067]]]]}},{"type":"Feature","properties":{"ID_0":177,"ISO":"PHL","NAME_0":"Philippines","ID_1":3049,"NAME_1":"Nueva Ecija","ID_2":304906,"NAME_2":"Cuyapo","ID_3":304906024,"NAME_3":"District VII","NL_NAME_3":null,"VARNAME_3":null,"TYPE_3":"Barangay","ENGTYPE_3":"Village","PROVINCE":"Nueva Ecija","REGION":"Region III (Central Luzon)","id":"barangay-0304906024","name":"District VII","barangayCode":"0304906024","population":null,"formattedPop":null,"densityCategory":"No data","vulnerabilityRating":"No data","healthRiskLevel":"No data","areaKm2":0.227599,"centerLat":15.775309,"centerLng":120.663832,"geometrySource":"all_barangay-2.csv detailed WKT","geometryMatchMethod":"unique_official_admin_names","boundaryPointCount":8},"geometry":{"type":"MultiPolygon","coordinates":[[[[120.669281,15.78153],[120.669258,15.78049],[120.662651,15.77939],[120.662521,15.78067],[120.66301,15.78077],[120.663643,15.78086],[120.665047,15.781],[120.669281,15.78153]]]]}},{"type":"Feature","properties":{"ID_0":177,"ISO":"PHL","NAME_0":"Philippines","ID_1":3049,"NAME_1":"Nueva Ecija","ID_2":304906,"NAME_2":"Cuyapo","ID_3":304906025,"NAME_3":"District VIII","NL_NAME_3":null,"VARNAME_3":null,"TYPE_3":"Barangay","ENGTYPE_3":"Village","PROVINCE":"Nueva Ecija","REGION":"Region III (Central Luzon)","id":"barangay-0304906025","name":"District VIII","barangayCode":"0304906025","population":null,"formattedPop":null,"densityCategory":"No data","vulnerabilityRating":"No data","healthRiskLevel":"No data","areaKm2":0.305316,"centerLat":15.782194,"centerLng":120.660371,"geometrySource":"all_barangay-2.csv detailed WKT","geometryMatchMethod":"unique_official_admin_names","boundaryPointCount":14},"geometry":{"type":"MultiPolygon","coordinates":[[[[120.654167,15.78859],[120.656631,15.78867],[120.656799,15.78851],[120.657837,15.78719],[120.658783,15.78606],[120.659081,15.78379],[120.659729,15.78394],[120.660004,15.78183],[120.66021,15.78038],[120.658997,15.78023],[120.655777,15.78019],[120.655159,15.78009],[120.653458,15.78009],[120.654167,15.78859]]]]}},{"type":"Feature","properties":{"ID_0":177,"ISO":"PHL","NAME_0":"Philippines","ID_1":3049,"NAME_1":"Nueva Ecija","ID_2":304906,"NAME_2":"Cuyapo","ID_3":304906026,"NAME_3":"Landig","NL_NAME_3":null,"VARNAME_3":null,"TYPE_3":"Barangay","ENGTYPE_3":"Village","PROVINCE":"Nueva Ecija","REGION":"Region III (Central Luzon)","id":"barangay-0304906026","name":"Landig","barangayCode":"0304906026","population":null,"formattedPop":null,"densityCategory":"No data","vulnerabilityRating":"No data","healthRiskLevel":"No data","areaKm2":2.620324,"centerLat":15.791676,"centerLng":120.655754,"geometrySource":"all_barangay-2.csv detailed WKT","geometryMatchMethod":"unique_official_admin_names","boundaryPointCount":20},"geometry":{"type":"MultiPolygon","coordinates":[[[[120.671928,15.79479],[120.6716,15.79374],[120.67086,15.79224],[120.670128,15.79104],[120.668961,15.78827],[120.666763,15.78837],[120.662308,15.78858],[120.659859,15.7887],[120.658653,15.7887],[120.658028,15.78868],[120.657547,15.7887],[120.657143,15.78869],[120.656631,15.78867],[120.654167,15.78859],[120.654167,15.79001],[120.653763,15.79165],[120.653511,15.79249],[120.652847,15.79395],[120.65226,15.79449],[120.671928,15.79479]]]]}},{"type":"Feature","properties":{"ID_0":177,"ISO":"PHL","NAME_0":"Philippines","ID_1":3049,"NAME_1":"Nueva Ecija","ID_2":304906,"NAME_2":"Cuyapo","ID_3":304906027,"NAME_3":"Latap","NL_NAME_3":null,"VARNAME_3":null,"TYPE_3":"Barangay","ENGTYPE_3":"Village","PROVINCE":"Nueva Ecija","REGION":"Region III (Central Luzon)","id":"barangay-0304906027","name":"Latap","barangayCode":"0304906027","population":null,"formattedPop":null,"densityCategory":"No data","vulnerabilityRating":"No data","healthRiskLevel":"No data","areaKm2":1.972761,"centerLat":15.79076,"centerLng":120.672103,"geometrySource":"all_barangay-2.csv detailed WKT","geometryMatchMethod":"unique_official_admin_names","boundaryPointCount":24},"geometry":{"type":"MultiPolygon","coordinates":[[[[120.669983,15.81027],[120.669479,15.80932],[120.669037,15.80875],[120.667923,15.80711],[120.667084,15.80503],[120.666908,15.80378],[120.667503,15.80186],[120.66819,15.80117],[120.669617,15.80024],[120.670753,15.7996],[120.671516,15.79912],[120.671982,15.79869],[120.672478,15.79794],[120.67263,15.797],[120.672371,15.79571],[120.671928,15.79479],[120.65226,15.79449],[120.655548,15.79809],[120.658821,15.80116],[120.664078,15.80662],[120.666054,15.80849],[120.667938,15.81025],[120.670052,15.81224],[120.669983,15.81027]]]]}},{"type":"Feature","properties":{"ID_0":177,"ISO":"PHL","NAME_0":"Philippines","ID_1":3049,"NAME_1":"Nueva Ecija","ID_2":304906,"NAME_2":"Cuyapo","ID_3":304906028,"NAME_3":"Loob","NL_NAME_3":null,"VARNAME_3":null,"TYPE_3":"Barangay","ENGTYPE_3":"Village","PROVINCE":"Nueva Ecija","REGION":"Region III (Central Luzon)","id":"barangay-0304906028","name":"Loob","barangayCode":"0304906028","population":null,"formattedPop":null,"densityCategory":"No data","vulnerabilityRating":"No data","healthRiskLevel":"No data","areaKm2":2.291185,"centerLat":15.774524,"centerLng":120.642704,"geometrySource":"all_barangay-2.csv detailed WKT","geometryMatchMethod":"unique_official_admin_names","boundaryPointCount":9},"geometry":{"type":"MultiPolygon","coordinates":[[[[120.641693,15.77981],[120.65313,15.77493],[120.653137,15.7686],[120.642227,15.76865],[120.641724,15.77024],[120.639717,15.77223],[120.637581,15.77407],[120.634422,15.7754],[120.641693,15.77981]]]]}},{"type":"Feature","properties":{"ID_0":177,"ISO":"PHL","NAME_0":"Philippines","ID_1":3049,"NAME_1":"Nueva Ecija","ID_2":304906,"NAME_2":"Cuyapo","ID_3":304906029,"NAME_3":"Luna","NL_NAME_3":null,"VARNAME_3":null,"TYPE_3":"Barangay","ENGTYPE_3":"Village","PROVINCE":"Nueva Ecija","REGION":"Region III (Central Luzon)","id":"barangay-0304906029","name":"Luna","barangayCode":"0304906029","population":null,"formattedPop":null,"densityCategory":"No data","vulnerabilityRating":"No data","healthRiskLevel":"No data","areaKm2":1.454652,"centerLat":15.81741,"centerLng":120.643766,"geometrySource":"all_barangay-2.csv detailed WKT","geometryMatchMethod":"unique_official_admin_names","boundaryPointCount":15},"geometry":{"type":"MultiPolygon","coordinates":[[[[120.660896,15.82373],[120.66066,15.82324],[120.661552,15.82195],[120.66246,15.82049],[120.663071,15.81965],[120.664497,15.8182],[120.666153,15.81738],[120.666733,15.81695],[120.658882,15.81641],[120.644913,15.81626],[120.6362,15.81635],[120.635941,15.82348],[120.643417,15.82338],[120.652687,15.82342],[120.660896,15.82373]]]]}},{"type":"Feature","properties":{"ID_0":177,"ISO":"PHL","NAME_0":"Philippines","ID_1":3049,"NAME_1":"Nueva Ecija","ID_2":304906,"NAME_2":"Cuyapo","ID_3":304906030,"NAME_3":"Malbeg-Patalan","NL_NAME_3":null,"VARNAME_3":null,"TYPE_3":"Barangay","ENGTYPE_3":"Village","PROVINCE":"Nueva Ecija","REGION":"Region III (Central Luzon)","id":"barangay-0304906030","name":"Malbeg-Patalan","barangayCode":"0304906030","population":null,"formattedPop":null,"densityCategory":"No data","vulnerabilityRating":"No data","healthRiskLevel":"No data","areaKm2":2.544499,"centerLat":15.765178,"centerLng":120.636314,"geometrySource":"all_barangay-2.csv detailed WKT","geometryMatchMethod":"unique_official_admin_names","boundaryPointCount":13},"geometry":{"type":"MultiPolygon","coordinates":[[[[120.620621,15.78828],[120.628616,15.78864],[120.635033,15.78864],[120.641762,15.78828],[120.641693,15.77981],[120.634422,15.7754],[120.632713,15.77613],[120.629837,15.77676],[120.627136,15.77705],[120.62149,15.77762],[120.62207,15.77883],[120.62114,15.7845],[120.620621,15.78828]]]]}},{"type":"Feature","properties":{"ID_0":177,"ISO":"PHL","NAME_0":"Philippines","ID_1":3049,"NAME_1":"Nueva Ecija","ID_2":304906,"NAME_2":"Cuyapo","ID_3":304906031,"NAME_3":"Malineng","NL_NAME_3":null,"VARNAME_3":null,"TYPE_3":"Barangay","ENGTYPE_3":"Village","PROVINCE":"Nueva Ecija","REGION":"Region III (Central Luzon)","id":"barangay-0304906031","name":"Malineng","barangayCode":"0304906031","population":null,"formattedPop":null,"densityCategory":"No data","vulnerabilityRating":"No data","healthRiskLevel":"No data","areaKm2":5.496822,"centerLat":15.798421,"centerLng":120.685756,"geometrySource":"all_barangay-2.csv detailed WKT","geometryMatchMethod":"unique_official_admin_names","boundaryPointCount":26},"geometry":{"type":"MultiPolygon","coordinates":[[[[120.679573,15.80143],[120.679443,15.79913],[120.681931,15.79909],[120.682442,15.79645],[120.681808,15.79569],[120.681267,15.795],[120.680901,15.79419],[120.68074,15.7932],[120.680939,15.79205],[120.68116,15.79044],[120.681374,15.78853],[120.676514,15.78826],[120.672737,15.78834],[120.668961,15.78827],[120.670128,15.79104],[120.67086,15.79224],[120.6716,15.79374],[120.671928,15.79479],[120.672371,15.79571],[120.67263,15.797],[120.672478,15.79794],[120.671982,15.79869],[120.671516,15.79912],[120.670753,15.7996],[120.669617,15.80024],[120.679573,15.80143]]]]}},{"type":"Feature","properties":{"ID_0":177,"ISO":"PHL","NAME_0":"Philippines","ID_1":3049,"NAME_1":"Nueva Ecija","ID_2":304906,"NAME_2":"Cuyapo","ID_3":304906032,"NAME_3":"Matindeg","NL_NAME_3":null,"VARNAME_3":null,"TYPE_3":"Barangay","ENGTYPE_3":"Village","PROVINCE":"Nueva Ecija","REGION":"Region III (Central Luzon)","id":"barangay-0304906032","name":"Matindeg","barangayCode":"0304906032","population":null,"formattedPop":null,"densityCategory":"No data","vulnerabilityRating":"No data","healthRiskLevel":"No data","areaKm2":1.698007,"centerLat":15.776241,"centerLng":120.693271,"geometrySource":"all_barangay-2.csv detailed WKT","geometryMatchMethod":"unique_official_admin_names","boundaryPointCount":24},"geometry":{"type":"MultiPolygon","coordinates":[[[[120.695503,15.78586],[120.695129,15.78161],[120.693703,15.78144],[120.688164,15.78091],[120.680588,15.77973],[120.680443,15.78075],[120.680641,15.78135],[120.680717,15.78247],[120.680847,15.78309],[120.681541,15.78399],[120.682137,15.78442],[120.682648,15.78469],[120.684097,15.78493],[120.684792,15.7851],[120.686234,15.78506],[120.687088,15.78514],[120.687927,15.78503],[120.688797,15.78497],[120.689583,15.78477],[120.690659,15.78526],[120.691383,15.78553],[120.692268,15.78579],[120.692543,15.78605],[120.695503,15.78586]]]]}},{"type":"Feature","properties":{"ID_0":177,"ISO":"PHL","NAME_0":"Philippines","ID_1":3049,"NAME_1":"Nueva Ecija","ID_2":304906,"NAME_2":"Cuyapo","ID_3":304906033,"NAME_3":"Maycaban","NL_NAME_3":null,"VARNAME_3":null,"TYPE_3":"Barangay","ENGTYPE_3":"Village","PROVINCE":"Nueva Ecija","REGION":"Region III (Central Luzon)","id":"barangay-0304906033","name":"Maycaban","barangayCode":"0304906033","population":null,"formattedPop":null,"densityCategory":"No data","vulnerabilityRating":"No data","healthRiskLevel":"No data","areaKm2":6.117522,"centerLat":15.807622,"centerLng":120.659969,"geometrySource":"all_barangay-2.csv detailed WKT","geometryMatchMethod":"unique_official_admin_names","boundaryPointCount":29},"geometry":{"type":"MultiPolygon","coordinates":[[[[120.666733,15.81695],[120.667297,15.81587],[120.667992,15.81526],[120.668533,15.8149],[120.669411,15.81428],[120.669762,15.81376],[120.670143,15.81296],[120.670052,15.81224],[120.667938,15.81025],[120.666054,15.80849],[120.664078,15.80662],[120.653267,15.8063],[120.642143,15.80641],[120.629707,15.8066],[120.629646,15.80735],[120.629578,15.80891],[120.629799,15.81042],[120.630531,15.8118],[120.631157,15.81261],[120.631699,15.8133],[120.631538,15.81363],[120.632301,15.8135],[120.63446,15.81351],[120.636047,15.81425],[120.636368,15.81462],[120.6362,15.81635],[120.644913,15.81626],[120.658882,15.81641],[120.666733,15.81695]]]]}},{"type":"Feature","properties":{"ID_0":177,"ISO":"PHL","NAME_0":"Philippines","ID_1":3049,"NAME_1":"Nueva Ecija","ID_2":304906,"NAME_2":"Cuyapo","ID_3":304906034,"NAME_3":"Nagcuralan","NL_NAME_3":null,"VARNAME_3":null,"TYPE_3":"Barangay","ENGTYPE_3":"Village","PROVINCE":"Nueva Ecija","REGION":"Region III (Central Luzon)","id":"barangay-0304906034","name":"Nagcuralan","barangayCode":"0304906034","population":null,"formattedPop":null,"densityCategory":"No data","vulnerabilityRating":"No data","healthRiskLevel":"No data","areaKm2":4.466019,"centerLat":15.838622,"centerLng":120.722247,"geometrySource":"barangays.geojson simplified fallback","geometryMatchMethod":"simplified_fallback","boundaryPointCount":5},"geometry":{"type":"Polygon","coordinates":[[[120.73012034600004,15.851341904000037],[120.73373651800011,15.833145881000064],[120.72068649300002,15.825834919000044],[120.70915027400008,15.841186060000041],[120.73012034600004,15.851341904000037]]]}},{"type":"Feature","properties":{"ID_0":177,"ISO":"PHL","NAME_0":"Philippines","ID_1":3049,"NAME_1":"Nueva Ecija","ID_2":304906,"NAME_2":"Cuyapo","ID_3":304906035,"NAME_3":"Nagmisahan","NL_NAME_3":null,"VARNAME_3":null,"TYPE_3":"Barangay","ENGTYPE_3":"Village","PROVINCE":"Nueva Ecija","REGION":"Region III (Central Luzon)","id":"barangay-0304906035","name":"Nagmisahan","barangayCode":"0304906035","population":null,"formattedPop":null,"densityCategory":"No data","vulnerabilityRating":"No data","healthRiskLevel":"No data","areaKm2":4.454797,"centerLat":15.738493,"centerLng":120.699083,"geometrySource":"all_barangay-2.csv detailed WKT","geometryMatchMethod":"unique_official_admin_names","boundaryPointCount":8},"geometry":{"type":"MultiPolygon","coordinates":[[[[120.705994,15.75305],[120.710983,15.74146],[120.676201,15.74119],[120.668007,15.74515],[120.661057,15.74871],[120.659843,15.74948],[120.661201,15.75423],[120.705994,15.75305]]]]}},{"type":"Feature","properties":{"ID_0":177,"ISO":"PHL","NAME_0":"Philippines","ID_1":3049,"NAME_1":"Nueva Ecija","ID_2":304906,"NAME_2":"Cuyapo","ID_3":304906036,"NAME_3":"Paitan Norte","NL_NAME_3":null,"VARNAME_3":null,"TYPE_3":"Barangay","ENGTYPE_3":"Village","PROVINCE":"Nueva Ecija","REGION":"Region III (Central Luzon)","id":"barangay-0304906036","name":"Paitan Norte","barangayCode":"0304906036","population":null,"formattedPop":null,"densityCategory":"No data","vulnerabilityRating":"No data","healthRiskLevel":"No data","areaKm2":6.310779,"centerLat":15.837568,"centerLng":120.743671,"geometrySource":"all_barangay-2.csv detailed WKT","geometryMatchMethod":"unique_official_admin_names","boundaryPointCount":26},"geometry":{"type":"MultiPolygon","coordinates":[[[[120.743637,15.8526],[120.747627,15.85059],[120.74778,15.85065],[120.754547,15.84998],[120.754402,15.84374],[120.754311,15.83765],[120.753853,15.83163],[120.753647,15.83085],[120.753227,15.83008],[120.752823,15.82944],[120.751862,15.82832],[120.75135,15.82749],[120.751053,15.82554],[120.75058,15.82574],[120.748756,15.82621],[120.74678,15.82683],[120.74514,15.82706],[120.742683,15.82729],[120.741882,15.82738],[120.740334,15.82743],[120.738319,15.82739],[120.738564,15.8343],[120.735657,15.85044],[120.738213,15.85193],[120.741409,15.85247],[120.743637,15.8526]]]]}},{"type":"Feature","properties":{"ID_0":177,"ISO":"PHL","NAME_0":"Philippines","ID_1":3049,"NAME_1":"Nueva Ecija","ID_2":304906,"NAME_2":"Cuyapo","ID_3":304906037,"NAME_3":"Paitan Sur","NL_NAME_3":null,"VARNAME_3":null,"TYPE_3":"Barangay","ENGTYPE_3":"Village","PROVINCE":"Nueva Ecija","REGION":"Region III (Central Luzon)","id":"barangay-0304906037","name":"Paitan Sur","barangayCode":"0304906037","population":null,"formattedPop":null,"densityCategory":"No data","vulnerabilityRating":"No data","healthRiskLevel":"No data","areaKm2":4.107427,"centerLat":15.821896,"centerLng":120.736363,"geometrySource":"all_barangay-2.csv detailed WKT","geometryMatchMethod":"unique_official_admin_names","boundaryPointCount":13},"geometry":{"type":"MultiPolygon","coordinates":[[[[120.729012,15.82978],[120.738564,15.8343],[120.738319,15.82739],[120.739807,15.8054],[120.737862,15.80395],[120.737068,15.80334],[120.733788,15.80013],[120.733322,15.79947],[120.732132,15.79816],[120.730766,15.79709],[120.729584,15.81049],[120.730339,15.81027],[120.729012,15.82978]]]]}},{"type":"Feature","properties":{"ID_0":177,"ISO":"PHL","NAME_0":"Philippines","ID_1":3049,"NAME_1":"Nueva Ecija","ID_2":304906,"NAME_2":"Cuyapo","ID_3":304906038,"NAME_3":"Piglisan","NL_NAME_3":null,"VARNAME_3":null,"TYPE_3":"Barangay","ENGTYPE_3":"Village","PROVINCE":"Nueva Ecija","REGION":"Region III (Central Luzon)","id":"barangay-0304906038","name":"Piglisan","barangayCode":"0304906038","population":null,"formattedPop":null,"densityCategory":"No data","vulnerabilityRating":"No data","healthRiskLevel":"No data","areaKm2":1.397149,"centerLat":15.774025,"centerLng":120.627026,"geometrySource":"all_barangay-2.csv detailed WKT","geometryMatchMethod":"unique_official_admin_names","boundaryPointCount":20},"geometry":{"type":"MultiPolygon","coordinates":[[[[120.634422,15.7754],[120.637581,15.77407],[120.639717,15.77223],[120.641724,15.77024],[120.642227,15.76865],[120.642464,15.76825],[120.642738,15.76752],[120.64267,15.76618],[120.642097,15.76483],[120.640877,15.76336],[120.639214,15.76162],[120.63855,15.76052],[120.63327,15.76317],[120.623947,15.76789],[120.622231,15.77135],[120.62149,15.77762],[120.627136,15.77705],[120.629837,15.77676],[120.632713,15.77613],[120.634422,15.7754]]]]}},{"type":"Feature","properties":{"ID_0":177,"ISO":"PHL","NAME_0":"Philippines","ID_1":3049,"NAME_1":"Nueva Ecija","ID_2":304906,"NAME_2":"Cuyapo","ID_3":304906039,"NAME_3":"Pugo","NL_NAME_3":null,"VARNAME_3":null,"TYPE_3":"Barangay","ENGTYPE_3":"Village","PROVINCE":"Nueva Ecija","REGION":"Region III (Central Luzon)","id":"barangay-0304906039","name":"Pugo","barangayCode":"0304906039","population":null,"formattedPop":null,"densityCategory":"No data","vulnerabilityRating":"No data","healthRiskLevel":"No data","areaKm2":0.821898,"centerLat":15.778307,"centerLng":120.676856,"geometrySource":"all_barangay-2.csv detailed WKT","geometryMatchMethod":"unique_official_admin_names","boundaryPointCount":18},"geometry":{"type":"MultiPolygon","coordinates":[[[[120.680641,15.78135],[120.680443,15.78075],[120.680588,15.77973],[120.680687,15.7783],[120.680656,15.77747],[120.68029,15.77691],[120.679848,15.77648],[120.67849,15.77641],[120.676224,15.77644],[120.673347,15.77612],[120.671509,15.77729],[120.67083,15.778],[120.670143,15.77929],[120.669258,15.78049],[120.67318,15.78054],[120.675171,15.78081],[120.678757,15.78094],[120.680641,15.78135]]]]}},{"type":"Feature","properties":{"ID_0":177,"ISO":"PHL","NAME_0":"Philippines","ID_1":3049,"NAME_1":"Nueva Ecija","ID_2":304906,"NAME_2":"Cuyapo","ID_3":304906040,"NAME_3":"Rizal","NL_NAME_3":null,"VARNAME_3":null,"TYPE_3":"Barangay","ENGTYPE_3":"Village","PROVINCE":"Nueva Ecija","REGION":"Region III (Central Luzon)","id":"barangay-0304906040","name":"Rizal","barangayCode":"0304906040","population":null,"formattedPop":null,"densityCategory":"No data","vulnerabilityRating":"No data","healthRiskLevel":"No data","areaKm2":5.553581,"centerLat":15.730679,"centerLng":120.746018,"geometrySource":"all_barangay-2.csv detailed WKT","geometryMatchMethod":"unique_official_admin_names","boundaryPointCount":26},"geometry":{"type":"MultiPolygon","coordinates":[[[[120.725998,15.75291],[120.729797,15.75778],[120.732826,15.76114],[120.735771,15.76477],[120.740448,15.76988],[120.746513,15.77747],[120.749268,15.77926],[120.756599,15.76149],[120.760513,15.75269],[120.754272,15.74817],[120.750549,15.74934],[120.749847,15.74952],[120.748138,15.74973],[120.746674,15.74925],[120.745491,15.74855],[120.743683,15.74788],[120.74263,15.74797],[120.740868,15.74885],[120.739777,15.7495],[120.738609,15.74996],[120.738136,15.75064],[120.737419,15.75116],[120.736061,15.75205],[120.73439,15.75249],[120.733803,15.75253],[120.725998,15.75291]]]]}},{"type":"Feature","properties":{"ID_0":177,"ISO":"PHL","NAME_0":"Philippines","ID_1":3049,"NAME_1":"Nueva Ecija","ID_2":304906,"NAME_2":"Cuyapo","ID_3":304906041,"NAME_3":"Sabit","NL_NAME_3":null,"VARNAME_3":null,"TYPE_3":"Barangay","ENGTYPE_3":"Village","PROVINCE":"Nueva Ecija","REGION":"Region III (Central Luzon)","id":"barangay-0304906041","name":"Sabit","barangayCode":"0304906041","population":null,"formattedPop":null,"densityCategory":"No data","vulnerabilityRating":"No data","healthRiskLevel":"No data","areaKm2":5.233321,"centerLat":15.820887,"centerLng":120.678831,"geometrySource":"all_barangay-2.csv detailed WKT","geometryMatchMethod":"unique_official_admin_names","boundaryPointCount":45},"geometry":{"type":"MultiPolygon","coordinates":[[[[120.680717,15.84573],[120.68338,15.8296],[120.68354,15.82895],[120.683739,15.82638],[120.683884,15.82398],[120.684036,15.82065],[120.683899,15.81779],[120.683434,15.81656],[120.682114,15.81461],[120.680939,15.81328],[120.679863,15.81199],[120.679367,15.8103],[120.678673,15.81022],[120.676582,15.81016],[120.675293,15.81023],[120.673897,15.81013],[120.671051,15.80997],[120.669983,15.81027],[120.670052,15.81224],[120.670143,15.81296],[120.669762,15.81376],[120.669411,15.81428],[120.668533,15.8149],[120.667992,15.81526],[120.667297,15.81587],[120.666733,15.81695],[120.666153,15.81738],[120.664497,15.8182],[120.663071,15.81965],[120.66246,15.82049],[120.661552,15.82195],[120.66066,15.82324],[120.660896,15.82373],[120.659843,15.82507],[120.65892,15.82584],[120.657333,15.82665],[120.656616,15.82683],[120.654907,15.82718],[120.653709,15.82766],[120.652428,15.82873],[120.651939,15.82993],[120.656914,15.83977],[120.666832,15.84103],[120.668411,15.84145],[120.680717,15.84573]]]]}},{"type":"Feature","properties":{"ID_0":177,"ISO":"PHL","NAME_0":"Philippines","ID_1":3049,"NAME_1":"Nueva Ecija","ID_2":304906,"NAME_2":"Cuyapo","ID_3":304906042,"NAME_3":"Salagusog","NL_NAME_3":null,"VARNAME_3":null,"TYPE_3":"Barangay","ENGTYPE_3":"Village","PROVINCE":"Nueva Ecija","REGION":"Region III (Central Luzon)","id":"barangay-0304906042","name":"Salagusog","barangayCode":"0304906042","population":null,"formattedPop":null,"densityCategory":"No data","vulnerabilityRating":"No data","healthRiskLevel":"No data","areaKm2":4.49438,"centerLat":15.808762,"centerLng":120.704846,"geometrySource":"all_barangay-2.csv detailed WKT","geometryMatchMethod":"unique_official_admin_names","boundaryPointCount":18},"geometry":{"type":"MultiPolygon","coordinates":[[[[120.705276,15.81088],[120.705406,15.80708],[120.705589,15.8021],[120.705383,15.79691],[120.702332,15.79636],[120.697227,15.79597],[120.692711,15.79617],[120.688881,15.79644],[120.681808,15.79569],[120.682442,15.79645],[120.681931,15.79909],[120.679443,15.79913],[120.679573,15.80143],[120.679367,15.8103],[120.687363,15.81031],[120.694313,15.80994],[120.700272,15.81035],[120.705276,15.81088]]]]}},{"type":"Feature","properties":{"ID_0":177,"ISO":"PHL","NAME_0":"Philippines","ID_1":3049,"NAME_1":"Nueva Ecija","ID_2":304906,"NAME_2":"Cuyapo","ID_3":304906043,"NAME_3":"San Antonio","NL_NAME_3":null,"VARNAME_3":null,"TYPE_3":"Barangay","ENGTYPE_3":"Village","PROVINCE":"Nueva Ecija","REGION":"Region III (Central Luzon)","id":"barangay-0304906043","name":"San Antonio","barangayCode":"0304906043","population":null,"formattedPop":null,"densityCategory":"No data","vulnerabilityRating":"No data","healthRiskLevel":"No data","areaKm2":3.927897,"centerLat":15.719805,"centerLng":120.708805,"geometrySource":"all_barangay-2.csv detailed WKT","geometryMatchMethod":"unique_official_admin_names","boundaryPointCount":11},"geometry":{"type":"MultiPolygon","coordinates":[[[[120.717087,15.72851],[120.711906,15.7245],[120.711227,15.72395],[120.707161,15.72185],[120.7043,15.72076],[120.702316,15.71993],[120.70002,15.71851],[120.696854,15.72301],[120.69426,15.72631],[120.715607,15.73213],[120.717087,15.72851]]]]}},{"type":"Feature","properties":{"ID_0":177,"ISO":"PHL","NAME_0":"Philippines","ID_1":3049,"NAME_1":"Nueva Ecija","ID_2":304906,"NAME_2":"Cuyapo","ID_3":304906044,"NAME_3":"San Jose","NL_NAME_3":null,"VARNAME_3":null,"TYPE_3":"Barangay","ENGTYPE_3":"Village","PROVINCE":"Nueva Ecija","REGION":"Region III (Central Luzon)","id":"barangay-0304906044","name":"San Jose","barangayCode":"0304906044","population":null,"formattedPop":null,"densityCategory":"No data","vulnerabilityRating":"No data","healthRiskLevel":"No data","areaKm2":0.318659,"centerLat":15.779171,"centerLng":120.671847,"geometrySource":"all_barangay-2.csv detailed WKT","geometryMatchMethod":"unique_official_admin_names","boundaryPointCount":23},"geometry":{"type":"MultiPolygon","coordinates":[[[[120.668961,15.78827],[120.672737,15.78834],[120.676514,15.78826],[120.681374,15.78853],[120.682373,15.78842],[120.68261,15.78825],[120.683006,15.78702],[120.683281,15.78533],[120.682648,15.78469],[120.682137,15.78442],[120.681541,15.78399],[120.680847,15.78309],[120.680717,15.78247],[120.680641,15.78135],[120.678757,15.78094],[120.675171,15.78081],[120.67318,15.78054],[120.669258,15.78049],[120.669281,15.78153],[120.669189,15.78299],[120.66877,15.78531],[120.668419,15.7873],[120.668961,15.78827]]]]}},{"type":"Feature","properties":{"ID_0":177,"ISO":"PHL","NAME_0":"Philippines","ID_1":3049,"NAME_1":"Nueva Ecija","ID_2":304906,"NAME_2":"Cuyapo","ID_3":304906045,"NAME_3":"San Juan","NL_NAME_3":null,"VARNAME_3":null,"TYPE_3":"Barangay","ENGTYPE_3":"Village","PROVINCE":"Nueva Ecija","REGION":"Region III (Central Luzon)","id":"barangay-0304906045","name":"San Juan","barangayCode":"0304906045","population":null,"formattedPop":null,"densityCategory":"No data","vulnerabilityRating":"No data","healthRiskLevel":"No data","areaKm2":3.988853,"centerLat":15.827075,"centerLng":120.762279,"geometrySource":"all_barangay-2.csv detailed WKT","geometryMatchMethod":"unique_official_admin_names","boundaryPointCount":49},"geometry":{"type":"MultiPolygon","coordinates":[[[[120.762169,15.84558],[120.763878,15.84368],[120.767227,15.84081],[120.769096,15.83865],[120.771912,15.83597],[120.775124,15.83325],[120.777168,15.83213],[120.780319,15.83007],[120.785271,15.82687],[120.788544,15.82469],[120.791656,15.82312],[120.791649,15.82194],[120.792,15.82061],[120.791573,15.81928],[120.791267,15.81845],[120.790077,15.81817],[120.788628,15.81785],[120.787354,15.8177],[120.786407,15.81761],[120.784927,15.81695],[120.782784,15.81645],[120.780678,15.81609],[120.779152,15.81509],[120.777946,15.81381],[120.777298,15.81228],[120.777298,15.81038],[120.777603,15.80839],[120.778267,15.80653],[120.778297,15.806],[120.776611,15.80426],[120.774529,15.80741],[120.772507,15.80954],[120.766953,15.81477],[120.760521,15.81951],[120.753342,15.8249],[120.75177,15.82539],[120.751053,15.82554],[120.75135,15.82749],[120.751862,15.82832],[120.752823,15.82944],[120.753227,15.83008],[120.753647,15.83085],[120.753853,15.83163],[120.754311,15.83765],[120.754402,15.84374],[120.754547,15.84998],[120.757462,15.84964],[120.759209,15.84802],[120.762169,15.84558]]]]}},{"type":"Feature","properties":{"ID_0":177,"ISO":"PHL","NAME_0":"Philippines","ID_1":3049,"NAME_1":"Nueva Ecija","ID_2":304906,"NAME_2":"Cuyapo","ID_3":304906046,"NAME_3":"Santa Clara","NL_NAME_3":null,"VARNAME_3":null,"TYPE_3":"Barangay","ENGTYPE_3":"Village","PROVINCE":"Nueva Ecija","REGION":"Region III (Central Luzon)","id":"barangay-0304906046","name":"Santa Clara","barangayCode":"0304906046","population":null,"formattedPop":null,"densityCategory":"No data","vulnerabilityRating":"No data","healthRiskLevel":"No data","areaKm2":1.976144,"centerLat":15.710624,"centerLng":120.719572,"geometrySource":"all_barangay-2.csv detailed WKT","geometryMatchMethod":"unique_official_admin_names","boundaryPointCount":14},"geometry":{"type":"MultiPolygon","coordinates":[[[[120.721619,15.72152],[120.718689,15.71872],[120.712257,15.71394],[120.708519,15.71092],[120.707573,15.71021],[120.706757,15.70989],[120.70002,15.71851],[120.702316,15.71993],[120.7043,15.72076],[120.707161,15.72185],[120.711227,15.72395],[120.711906,15.7245],[120.717087,15.72851],[120.721619,15.72152]]]]}},{"type":"Feature","properties":{"ID_0":177,"ISO":"PHL","NAME_0":"Philippines","ID_1":3049,"NAME_1":"Nueva Ecija","ID_2":304906,"NAME_2":"Cuyapo","ID_3":304906047,"NAME_3":"Santa Cruz","NL_NAME_3":null,"VARNAME_3":null,"TYPE_3":"Barangay","ENGTYPE_3":"Village","PROVINCE":"Nueva Ecija","REGION":"Region III (Central Luzon)","id":"barangay-0304906047","name":"Santa Cruz","barangayCode":"0304906047","population":null,"formattedPop":null,"densityCategory":"No data","vulnerabilityRating":"No data","healthRiskLevel":"No data","areaKm2":6.043342,"centerLat":15.75594,"centerLng":120.745226,"geometrySource":"all_barangay-2.csv detailed WKT","geometryMatchMethod":"unique_official_admin_names","boundaryPointCount":18},"geometry":{"type":"MultiPolygon","coordinates":[[[[120.752403,15.78189],[120.749268,15.77926],[120.746513,15.77747],[120.740448,15.76988],[120.735771,15.76477],[120.732826,15.76114],[120.729797,15.75778],[120.725998,15.75291],[120.712669,15.75317],[120.705994,15.75305],[120.705551,15.75561],[120.704529,15.75826],[120.703529,15.76035],[120.702888,15.7618],[120.701637,15.7654],[120.699768,15.76941],[120.75676,15.78562],[120.752403,15.78189]]]]}},{"type":"Feature","properties":{"ID_0":177,"ISO":"PHL","NAME_0":"Philippines","ID_1":3049,"NAME_1":"Nueva Ecija","ID_2":304906,"NAME_2":"Cuyapo","ID_3":304906048,"NAME_3":"Simimbaan","NL_NAME_3":null,"VARNAME_3":null,"TYPE_3":"Barangay","ENGTYPE_3":"Village","PROVINCE":"Nueva Ecija","REGION":"Region III (Central Luzon)","id":"barangay-0304906048","name":"Simimbaan","barangayCode":"0304906048","population":null,"formattedPop":null,"densityCategory":"No data","vulnerabilityRating":"No data","healthRiskLevel":"No data","areaKm2":5.446245,"centerLat":15.825239,"centerLng":120.700231,"geometrySource":"barangays.geojson simplified fallback","geometryMatchMethod":"simplified_fallback","boundaryPointCount":5},"geometry":{"type":"Polygon","coordinates":[[[120.71032335100006,15.83620488300005],[120.70379575900006,15.813319140000033],[120.69199841800003,15.809012928000072],[120.689192649,15.830926316000046],[120.71032335100006,15.83620488300005]]]}},{"type":"Feature","properties":{"ID_0":177,"ISO":"PHL","NAME_0":"Philippines","ID_1":3049,"NAME_1":"Nueva Ecija","ID_2":304906,"NAME_2":"Cuyapo","ID_3":304906049,"NAME_3":"Tagtagumbao","NL_NAME_3":null,"VARNAME_3":null,"TYPE_3":"Barangay","ENGTYPE_3":"Village","PROVINCE":"Nueva Ecija","REGION":"Region III (Central Luzon)","id":"barangay-0304906049","name":"Tagtagumbao","barangayCode":"0304906049","population":null,"formattedPop":null,"densityCategory":"No data","vulnerabilityRating":"No data","healthRiskLevel":"No data","areaKm2":1.080708,"centerLat":15.731988,"centerLng":120.708047,"geometrySource":"all_barangay-2.csv detailed WKT","geometryMatchMethod":"unique_official_admin_names","boundaryPointCount":10},"geometry":{"type":"MultiPolygon","coordinates":[[[[120.676201,15.74119],[120.710983,15.74146],[120.714104,15.73504],[120.715607,15.73213],[120.69426,15.72631],[120.691162,15.73033],[120.687431,15.73508],[120.684021,15.73706],[120.677322,15.74052],[120.676201,15.74119]]]]}},{"type":"Feature","properties":{"ID_0":177,"ISO":"PHL","NAME_0":"Philippines","ID_1":3049,"NAME_1":"Nueva Ecija","ID_2":304906,"NAME_2":"Cuyapo","ID_3":304906050,"NAME_3":"Tutuloy","NL_NAME_3":null,"VARNAME_3":null,"TYPE_3":"Barangay","ENGTYPE_3":"Village","PROVINCE":"Nueva Ecija","REGION":"Region III (Central Luzon)","id":"barangay-0304906050","name":"Tutuloy","barangayCode":"0304906050","population":null,"formattedPop":null,"densityCategory":"No data","vulnerabilityRating":"No data","healthRiskLevel":"No data","areaKm2":1.555958,"centerLat":15.780154,"centerLng":120.650656,"geometrySource":"all_barangay-2.csv detailed WKT","geometryMatchMethod":"unique_official_admin_names","boundaryPointCount":10},"geometry":{"type":"MultiPolygon","coordinates":[[[[120.641762,15.78828],[120.646698,15.78827],[120.650574,15.78837],[120.65345,15.78847],[120.654167,15.78859],[120.653458,15.78009],[120.653358,15.77893],[120.65313,15.77493],[120.641693,15.77981],[120.641762,15.78828]]]]}},{"type":"Feature","properties":{"ID_0":177,"ISO":"PHL","NAME_0":"Philippines","ID_1":3049,"NAME_1":"Nueva Ecija","ID_2":304906,"NAME_2":"Cuyapo","ID_3":304906051,"NAME_3":"Ungab","NL_NAME_3":null,"VARNAME_3":null,"TYPE_3":"Barangay","ENGTYPE_3":"Village","PROVINCE":"Nueva Ecija","REGION":"Region III (Central Luzon)","id":"barangay-0304906051","name":"Ungab","barangayCode":"0304906051","population":null,"formattedPop":null,"densityCategory":"No data","vulnerabilityRating":"No data","healthRiskLevel":"No data","areaKm2":3.156472,"centerLat":15.800141,"centerLng":120.627025,"geometrySource":"all_barangay-2.csv detailed WKT","geometryMatchMethod":"unique_official_admin_names","boundaryPointCount":38},"geometry":{"type":"MultiPolygon","coordinates":[[[[120.631538,15.81363],[120.631699,15.8133],[120.631157,15.81261],[120.630531,15.8118],[120.629799,15.81042],[120.629578,15.80891],[120.629646,15.80735],[120.629707,15.8066],[120.630417,15.80587],[120.630981,15.80472],[120.631844,15.80307],[120.63224,15.80218],[120.632729,15.80104],[120.632843,15.80048],[120.631897,15.79991],[120.629753,15.79887],[120.627968,15.79834],[120.625473,15.79731],[120.622093,15.79594],[120.620598,15.79552],[120.61937,15.79454],[120.618843,15.79764],[120.617943,15.80133],[120.617683,15.80332],[120.61705,15.80746],[120.616997,15.8078],[120.616417,15.81165],[120.618469,15.81246],[120.619713,15.81304],[120.621193,15.8132],[120.621834,15.81317],[120.623093,15.81257],[120.623863,15.81242],[120.625557,15.81216],[120.627983,15.81291],[120.628616,15.81353],[120.629578,15.81389],[120.631538,15.81363]]]]}},{"type":"Feature","properties":{"ID_0":177,"ISO":"PHL","NAME_0":"Philippines","ID_1":3049,"NAME_1":"Nueva Ecija","ID_2":304906,"NAME_2":"Cuyapo","ID_3":304906052,"NAME_3":"Villaflores","NL_NAME_3":null,"VARNAME_3":null,"TYPE_3":"Barangay","ENGTYPE_3":"Village","PROVINCE":"Nueva Ecija","REGION":"Region III (Central Luzon)","id":"barangay-0304906052","name":"Villaflores","barangayCode":"0304906052","population":null,"formattedPop":null,"densityCategory":"No data","vulnerabilityRating":"No data","healthRiskLevel":"No data","areaKm2":2.798587,"centerLat":15.81323,"centerLng":120.626695,"geometrySource":"all_barangay-2.csv detailed WKT","geometryMatchMethod":"unique_official_admin_names","boundaryPointCount":33},"geometry":{"type":"MultiPolygon","coordinates":[[[[120.635811,15.83079],[120.635941,15.82348],[120.6362,15.81635],[120.636368,15.81462],[120.636047,15.81425],[120.63446,15.81351],[120.632301,15.8135],[120.631538,15.81363],[120.629578,15.81389],[120.628616,15.81353],[120.627983,15.81291],[120.625557,15.81216],[120.623863,15.81242],[120.623093,15.81257],[120.621834,15.81317],[120.621193,15.8132],[120.619713,15.81304],[120.618469,15.81246],[120.616417,15.81165],[120.615921,15.81455],[120.615189,15.8217],[120.613953,15.82514],[120.612808,15.8321],[120.615799,15.83147],[120.617348,15.83119],[120.61972,15.83095],[120.621651,15.8308],[120.624458,15.83057],[120.626167,15.83054],[120.628906,15.83078],[120.632462,15.83094],[120.634644,15.83104],[120.635811,15.83079]]]]}}]}
