{"type":"FeatureCollection","features":[{"type":"Feature","properties":{"ID_0":177,"ISO":"PHL","NAME_0":"Philippines","ID_1":10043,"NAME_1":"Misamis Oriental","ID_2":1004310,"NAME_2":"Initao","ID_3":1004310001,"NAME_3":"Aluna","NL_NAME_3":null,"VARNAME_3":null,"TYPE_3":"Barangay","ENGTYPE_3":"Village","PROVINCE":"Misamis Oriental","REGION":"Region X (Northern Mindanao)","id":"barangay-1004310001","name":"Aluna","barangayCode":"1004310001","population":null,"formattedPop":null,"densityCategory":"No data","vulnerabilityRating":"No data","healthRiskLevel":"No data","areaKm2":11.149284,"centerLat":8.455461,"centerLng":124.339304,"geometrySource":"all_barangay-2.csv detailed WKT","geometryMatchMethod":"unique_official_admin_names","boundaryPointCount":7},"geometry":{"type":"MultiPolygon","coordinates":[[[[124.344337,8.47104],[124.345367,8.46072],[124.324318,8.45844],[124.313812,8.45732],[124.313103,8.46308],[124.317223,8.47471],[124.344337,8.47104]]]]}},{"type":"Feature","properties":{"ID_0":177,"ISO":"PHL","NAME_0":"Philippines","ID_1":10043,"NAME_1":"Misamis Oriental","ID_2":1004310,"NAME_2":"Initao","ID_3":1004310002,"NAME_3":"Andales","NL_NAME_3":null,"VARNAME_3":null,"TYPE_3":"Barangay","ENGTYPE_3":"Village","PROVINCE":"Misamis Oriental","REGION":"Region X (Northern Mindanao)","id":"barangay-1004310002","name":"Andales","barangayCode":"1004310002","population":null,"formattedPop":null,"densityCategory":"No data","vulnerabilityRating":"No data","healthRiskLevel":"No data","areaKm2":4.696027,"centerLat":8.520811,"centerLng":124.343539,"geometrySource":"all_barangay-2.csv detailed WKT","geometryMatchMethod":"unique_official_admin_names","boundaryPointCount":32},"geometry":{"type":"MultiPolygon","coordinates":[[[[124.328194,8.53316],[124.332939,8.53117],[124.333214,8.53106],[124.336151,8.52983],[124.345787,8.52581],[124.350433,8.52381],[124.349358,8.52225],[124.349037,8.52132],[124.349098,8.52095],[124.349319,8.52012],[124.349777,8.51906],[124.350037,8.51863],[124.350143,8.51807],[124.350029,8.51754],[124.350014,8.51694],[124.350143,8.51664],[124.350021,8.51604],[124.349663,8.51548],[124.344833,8.51218],[124.343201,8.51367],[124.342796,8.51413],[124.34227,8.51438],[124.341263,8.51432],[124.340797,8.51441],[124.339073,8.51439],[124.338547,8.51461],[124.337784,8.51486],[124.337387,8.51499],[124.33654,8.51487],[124.324593,8.52103],[124.323174,8.52591],[124.328194,8.53316]]]]}},{"type":"Feature","properties":{"ID_0":177,"ISO":"PHL","NAME_0":"Philippines","ID_1":10043,"NAME_1":"Misamis Oriental","ID_2":1004310,"NAME_2":"Initao","ID_3":1004310003,"NAME_3":"Apas","NL_NAME_3":null,"VARNAME_3":null,"TYPE_3":"Barangay","ENGTYPE_3":"Village","PROVINCE":"Misamis Oriental","REGION":"Region X (Northern Mindanao)","id":"barangay-1004310003","name":"Apas","barangayCode":"1004310003","population":null,"formattedPop":null,"densityCategory":"No data","vulnerabilityRating":"No data","healthRiskLevel":"No data","areaKm2":4.626465,"centerLat":8.494861,"centerLng":124.320064,"geometrySource":"all_barangay-2.csv detailed WKT","geometryMatchMethod":"unique_official_admin_names","boundaryPointCount":20},"geometry":{"type":"MultiPolygon","coordinates":[[[[124.318192,8.50509],[124.319832,8.50538],[124.32061,8.50594],[124.322166,8.50575],[124.323097,8.5053],[124.324158,8.50479],[124.32476,8.50448],[124.324997,8.50365],[124.324753,8.50257],[124.324409,8.5015],[124.324493,8.50092],[124.325691,8.49915],[124.326363,8.49744],[124.324951,8.48094],[124.311798,8.4886],[124.311974,8.48911],[124.312233,8.49813],[124.312721,8.50112],[124.31971,8.50165],[124.318192,8.50509]]]]}},{"type":"Feature","properties":{"ID_0":177,"ISO":"PHL","NAME_0":"Philippines","ID_1":10043,"NAME_1":"Misamis Oriental","ID_2":1004310,"NAME_2":"Initao","ID_3":1004310004,"NAME_3":"Calacapan","NL_NAME_3":null,"VARNAME_3":null,"TYPE_3":"Barangay","ENGTYPE_3":"Village","PROVINCE":"Misamis Oriental","REGION":"Region X (Northern Mindanao)","id":"barangay-1004310004","name":"Calacapan","barangayCode":"1004310004","population":null,"formattedPop":null,"densityCategory":"No data","vulnerabilityRating":"No data","healthRiskLevel":"No data","areaKm2":6.114053,"centerLat":8.485521,"centerLng":124.373685,"geometrySource":"all_barangay-2.csv detailed WKT","geometryMatchMethod":"unique_official_admin_names","boundaryPointCount":5},"geometry":{"type":"MultiPolygon","coordinates":[[[[124.379356,8.50026],[124.388603,8.48557],[124.359047,8.48392],[124.357773,8.49879],[124.379356,8.50026]]]]}},{"type":"Feature","properties":{"ID_0":177,"ISO":"PHL","NAME_0":"Philippines","ID_1":10043,"NAME_1":"Misamis Oriental","ID_2":1004310,"NAME_2":"Initao","ID_3":1004310005,"NAME_3":"Gimangpang","NL_NAME_3":null,"VARNAME_3":null,"TYPE_3":"Barangay","ENGTYPE_3":"Village","PROVINCE":"Misamis Oriental","REGION":"Region X (Northern Mindanao)","id":"barangay-1004310005","name":"Gimangpang","barangayCode":"1004310005","population":null,"formattedPop":null,"densityCategory":"No data","vulnerabilityRating":"No data","healthRiskLevel":"No data","areaKm2":4.978301,"centerLat":8.471921,"centerLng":124.303715,"geometrySource":"all_barangay-2.csv detailed WKT","geometryMatchMethod":"unique_official_admin_names","boundaryPointCount":49},"geometry":{"type":"MultiPolygon","coordinates":[[[[124.293327,8.48443],[124.311729,8.47841],[124.314171,8.47655],[124.317223,8.47471],[124.313103,8.46308],[124.308022,8.46308],[124.307823,8.46364],[124.307663,8.46418],[124.307037,8.4652],[124.297562,8.46254],[124.291786,8.46849],[124.291656,8.46861],[124.292221,8.46917],[124.292503,8.46917],[124.292778,8.46944],[124.29306,8.46944],[124.294724,8.47111],[124.294724,8.47139],[124.294998,8.47167],[124.294998,8.47194],[124.29528,8.47222],[124.29528,8.4725],[124.295547,8.47278],[124.295547,8.47316],[124.295547,8.47361],[124.29528,8.47389],[124.29528,8.47444],[124.294724,8.475],[124.294724,8.47528],[124.294563,8.47545],[124.294441,8.47556],[124.294441,8.47583],[124.294167,8.47611],[124.294167,8.47667],[124.294228,8.47673],[124.294441,8.47694],[124.294441,8.4775],[124.294167,8.47778],[124.294167,8.47861],[124.2939,8.47888],[124.293892,8.47972],[124.29361,8.48],[124.29361,8.48111],[124.293327,8.48139],[124.293327,8.48232],[124.293327,8.48333],[124.293053,8.48361],[124.293327,8.48389],[124.293327,8.48443]]]]}},{"type":"Feature","properties":{"ID_0":177,"ISO":"PHL","NAME_0":"Philippines","ID_1":10043,"NAME_1":"Misamis Oriental","ID_2":1004310,"NAME_2":"Initao","ID_3":1004310006,"NAME_3":"Jampason","NL_NAME_3":null,"VARNAME_3":null,"TYPE_3":"Barangay","ENGTYPE_3":"Village","PROVINCE":"Misamis Oriental","REGION":"Region X (Northern Mindanao)","id":"barangay-1004310006","name":"Jampason","barangayCode":"1004310006","population":null,"formattedPop":null,"densityCategory":"No data","vulnerabilityRating":"No data","healthRiskLevel":"No data","areaKm2":2.08894,"centerLat":8.511239,"centerLng":124.312602,"geometrySource":"all_barangay-2.csv detailed WKT","geometryMatchMethod":"unique_official_admin_names","boundaryPointCount":52},"geometry":{"type":"MultiPolygon","coordinates":[[[[124.324593,8.52103],[124.315033,8.51707],[124.311653,8.51139],[124.318192,8.50509],[124.31971,8.50165],[124.312721,8.50112],[124.312233,8.49813],[124.310143,8.49699],[124.308861,8.49698],[124.308319,8.49735],[124.308022,8.49764],[124.306953,8.4992],[124.306747,8.50086],[124.306992,8.50195],[124.306999,8.50267],[124.306717,8.50413],[124.306671,8.50482],[124.306664,8.50528],[124.306664,8.50547],[124.306664,8.5075],[124.306877,8.50793],[124.306877,8.50863],[124.306808,8.50918],[124.306808,8.5098],[124.306877,8.51022],[124.306877,8.51077],[124.307007,8.5114],[124.307007,8.51258],[124.306953,8.51334],[124.306953,8.5141],[124.306877,8.51472],[124.30674,8.51521],[124.306534,8.5157],[124.306534,8.51611],[124.306389,8.51639],[124.306389,8.51695],[124.306664,8.51722],[124.306664,8.51861],[124.30722,8.51917],[124.30722,8.52],[124.307503,8.52028],[124.307503,8.52167],[124.307777,8.52194],[124.307777,8.52222],[124.308052,8.5225],[124.308052,8.52306],[124.308327,8.52333],[124.308327,8.52417],[124.308609,8.52444],[124.308609,8.525],[124.309853,8.52624],[124.324593,8.52103]]]]}},{"type":"Feature","properties":{"ID_0":177,"ISO":"PHL","NAME_0":"Philippines","ID_1":10043,"NAME_1":"Misamis Oriental","ID_2":1004310,"NAME_2":"Initao","ID_3":1004310007,"NAME_3":"Kamelon","NL_NAME_3":null,"VARNAME_3":null,"TYPE_3":"Barangay","ENGTYPE_3":"Village","PROVINCE":"Misamis Oriental","REGION":"Region X (Northern Mindanao)","id":"barangay-1004310007","name":"Kamelon","barangayCode":"1004310007","population":null,"formattedPop":null,"densityCategory":"No data","vulnerabilityRating":"No data","healthRiskLevel":"No data","areaKm2":5.237137,"centerLat":8.487784,"centerLng":124.344849,"geometrySource":"all_barangay-2.csv detailed WKT","geometryMatchMethod":"unique_official_admin_names","boundaryPointCount":9},"geometry":{"type":"MultiPolygon","coordinates":[[[[124.357773,8.49879],[124.359047,8.48392],[124.351044,8.48332],[124.348618,8.47854],[124.329353,8.47817],[124.324951,8.48094],[124.326363,8.49744],[124.337593,8.49778],[124.357773,8.49879]]]]}},{"type":"Feature","properties":{"ID_0":177,"ISO":"PHL","NAME_0":"Philippines","ID_1":10043,"NAME_1":"Misamis Oriental","ID_2":1004310,"NAME_2":"Initao","ID_3":1004310008,"NAME_3":"Kanitoan","NL_NAME_3":null,"VARNAME_3":null,"TYPE_3":"Barangay","ENGTYPE_3":"Village","PROVINCE":"Misamis Oriental","REGION":"Region X (Northern Mindanao)","id":"barangay-1004310008","name":"Kanitoan","barangayCode":"1004310008","population":null,"formattedPop":null,"densityCategory":"No data","vulnerabilityRating":"No data","healthRiskLevel":"No data","areaKm2":4.243974,"centerLat":8.51356,"centerLng":124.328582,"geometrySource":"all_barangay-2.csv detailed WKT","geometryMatchMethod":"unique_official_admin_names","boundaryPointCount":19},"geometry":{"type":"MultiPolygon","coordinates":[[[[124.33654,8.51487],[124.337593,8.49778],[124.326363,8.49744],[124.325691,8.49915],[124.324493,8.50092],[124.324409,8.5015],[124.324753,8.50257],[124.324997,8.50365],[124.32476,8.50448],[124.324158,8.50479],[124.323097,8.5053],[124.322166,8.50575],[124.32061,8.50594],[124.319832,8.50538],[124.318192,8.50509],[124.311653,8.51139],[124.315033,8.51707],[124.324593,8.52103],[124.33654,8.51487]]]]}},{"type":"Feature","properties":{"ID_0":177,"ISO":"PHL","NAME_0":"Philippines","ID_1":10043,"NAME_1":"Misamis Oriental","ID_2":1004310,"NAME_2":"Initao","ID_3":1004310009,"NAME_3":"Oguis","NL_NAME_3":null,"VARNAME_3":null,"TYPE_3":"Barangay","ENGTYPE_3":"Village","PROVINCE":"Misamis Oriental","REGION":"Region X (Northern Mindanao)","id":"barangay-1004310009","name":"Oguis","barangayCode":"1004310009","population":null,"formattedPop":null,"densityCategory":"No data","vulnerabilityRating":"No data","healthRiskLevel":"No data","areaKm2":10.943426,"centerLat":8.499899,"centerLng":124.362921,"geometrySource":"all_barangay-2.csv detailed WKT","geometryMatchMethod":"unique_official_admin_names","boundaryPointCount":30},"geometry":{"type":"MultiPolygon","coordinates":[[[[124.350433,8.52381],[124.36573,8.51657],[124.369698,8.51486],[124.379356,8.50026],[124.357773,8.49879],[124.337593,8.49778],[124.33654,8.51487],[124.337387,8.51499],[124.337784,8.51486],[124.338547,8.51461],[124.339073,8.51439],[124.340797,8.51441],[124.341263,8.51432],[124.34227,8.51438],[124.342796,8.51413],[124.343201,8.51367],[124.344833,8.51218],[124.349663,8.51548],[124.350021,8.51604],[124.350143,8.51664],[124.350014,8.51694],[124.350029,8.51754],[124.350143,8.51807],[124.350037,8.51863],[124.349777,8.51906],[124.349319,8.52012],[124.349098,8.52095],[124.349037,8.52132],[124.349358,8.52225],[124.350433,8.52381]]]]}},{"type":"Feature","properties":{"ID_0":177,"ISO":"PHL","NAME_0":"Philippines","ID_1":10043,"NAME_1":"Misamis Oriental","ID_2":1004310,"NAME_2":"Initao","ID_3":1004310010,"NAME_3":"Pagahan","NL_NAME_3":null,"VARNAME_3":null,"TYPE_3":"Barangay","ENGTYPE_3":"Village","PROVINCE":"Misamis Oriental","REGION":"Region X (Northern Mindanao)","id":"barangay-1004310010","name":"Pagahan","barangayCode":"1004310010","population":null,"formattedPop":null,"densityCategory":"No data","vulnerabilityRating":"No data","healthRiskLevel":"No data","areaKm2":2.051904,"centerLat":8.459385,"centerLng":124.292543,"geometrySource":"all_barangay-2.csv detailed WKT","geometryMatchMethod":"unique_official_admin_names","boundaryPointCount":34},"geometry":{"type":"MultiPolygon","coordinates":[[[[124.297562,8.46254],[124.29847,8.45538],[124.29734,8.45517],[124.292702,8.45472],[124.283562,8.45382],[124.283333,8.45379],[124.283333,8.4548],[124.283333,8.45497],[124.283333,8.45611],[124.283607,8.45639],[124.283607,8.45722],[124.283333,8.4575],[124.283333,8.45914],[124.283333,8.46083],[124.283607,8.46111],[124.283607,8.46222],[124.28389,8.4625],[124.28389,8.46333],[124.286392,8.46583],[124.286667,8.46583],[124.287216,8.46639],[124.287781,8.46639],[124.288063,8.46667],[124.28833,8.46667],[124.288887,8.46722],[124.289169,8.46722],[124.289436,8.4675],[124.290001,8.4675],[124.290283,8.46778],[124.290558,8.46778],[124.291389,8.46861],[124.291656,8.46861],[124.291786,8.46849],[124.297562,8.46254]]]]}},{"type":"Feature","properties":{"ID_0":177,"ISO":"PHL","NAME_0":"Philippines","ID_1":10043,"NAME_1":"Misamis Oriental","ID_2":1004310,"NAME_2":"Initao","ID_3":1004310011,"NAME_3":"Poblacion","NL_NAME_3":null,"VARNAME_3":null,"TYPE_3":"Barangay","ENGTYPE_3":"Village","PROVINCE":"Misamis Oriental","REGION":"Region X (Northern Mindanao)","id":"barangay-1004310011","name":"Poblacion","barangayCode":"1004310011","population":null,"formattedPop":null,"densityCategory":"No data","vulnerabilityRating":"No data","healthRiskLevel":"No data","areaKm2":0.714243,"centerLat":8.499147,"centerLng":124.306357,"geometrySource":"all_barangay-2.csv detailed WKT","geometryMatchMethod":"unique_official_admin_names","boundaryPointCount":47},"geometry":{"type":"MultiPolygon","coordinates":[[[[124.312233,8.49813],[124.311974,8.48911],[124.296623,8.48953],[124.296143,8.4892],[124.296944,8.49],[124.297043,8.49],[124.297234,8.49],[124.297783,8.49056],[124.297783,8.49085],[124.297783,8.49111],[124.298126,8.49147],[124.299278,8.49261],[124.299873,8.4932],[124.301392,8.49472],[124.301392,8.495],[124.301666,8.49528],[124.301666,8.49583],[124.301941,8.49611],[124.301941,8.49667],[124.302223,8.49694],[124.302223,8.4975],[124.302498,8.49778],[124.302498,8.49806],[124.30278,8.49833],[124.30278,8.49861],[124.303047,8.49889],[124.303047,8.49917],[124.305,8.50111],[124.305,8.50222],[124.305267,8.5025],[124.305267,8.50333],[124.305557,8.50361],[124.305557,8.50389],[124.305832,8.50417],[124.305832,8.50444],[124.306664,8.50528],[124.306671,8.50482],[124.306717,8.50413],[124.306999,8.50267],[124.306992,8.50195],[124.306747,8.50086],[124.306953,8.4992],[124.308022,8.49764],[124.308319,8.49735],[124.308861,8.49698],[124.310143,8.49699],[124.312233,8.49813]]]]}},{"type":"Feature","properties":{"ID_0":177,"ISO":"PHL","NAME_0":"Philippines","ID_1":10043,"NAME_1":"Misamis Oriental","ID_2":1004310,"NAME_2":"Initao","ID_3":1004310012,"NAME_3":"Pontacon","NL_NAME_3":null,"VARNAME_3":null,"TYPE_3":"Barangay","ENGTYPE_3":"Village","PROVINCE":"Misamis Oriental","REGION":"Region X (Northern Mindanao)","id":"barangay-1004310012","name":"Pontacon","barangayCode":"1004310012","population":null,"formattedPop":null,"densityCategory":"No data","vulnerabilityRating":"No data","healthRiskLevel":"No data","areaKm2":1.565246,"centerLat":8.458508,"centerLng":124.307917,"geometrySource":"all_barangay-2.csv detailed WKT","geometryMatchMethod":"unique_official_admin_names","boundaryPointCount":10},"geometry":{"type":"MultiPolygon","coordinates":[[[[124.313103,8.46308],[124.313812,8.45732],[124.30928,8.45673],[124.29847,8.45538],[124.297562,8.46254],[124.307037,8.4652],[124.307663,8.46418],[124.307823,8.46364],[124.308022,8.46308],[124.313103,8.46308]]]]}},{"type":"Feature","properties":{"ID_0":177,"ISO":"PHL","NAME_0":"Philippines","ID_1":10043,"NAME_1":"Misamis Oriental","ID_2":1004310,"NAME_2":"Initao","ID_3":1004310013,"NAME_3":"San Pedro","NL_NAME_3":null,"VARNAME_3":null,"TYPE_3":"Barangay","ENGTYPE_3":"Village","PROVINCE":"Misamis Oriental","REGION":"Region X (Northern Mindanao)","id":"barangay-1004310013","name":"San Pedro","barangayCode":"1004310013","population":null,"formattedPop":null,"densityCategory":"No data","vulnerabilityRating":"No data","healthRiskLevel":"No data","areaKm2":2.160428,"centerLat":8.486761,"centerLng":124.304625,"geometrySource":"all_barangay-2.csv detailed WKT","geometryMatchMethod":"unique_official_admin_names","boundaryPointCount":21},"geometry":{"type":"MultiPolygon","coordinates":[[[[124.311974,8.48911],[124.311798,8.4886],[124.314171,8.47655],[124.311729,8.47841],[124.293327,8.48443],[124.293327,8.48472],[124.29361,8.485],[124.29361,8.4858],[124.29361,8.48611],[124.293831,8.48633],[124.293892,8.48639],[124.294167,8.48639],[124.294724,8.48694],[124.294724,8.48722],[124.29528,8.48778],[124.29528,8.48806],[124.295547,8.48833],[124.295547,8.48861],[124.296143,8.4892],[124.296623,8.48953],[124.311974,8.48911]]]]}},{"type":"Feature","properties":{"ID_0":177,"ISO":"PHL","NAME_0":"Philippines","ID_1":10043,"NAME_1":"Misamis Oriental","ID_2":1004310,"NAME_2":"Initao","ID_3":1004310014,"NAME_3":"Sinalac","NL_NAME_3":null,"VARNAME_3":null,"TYPE_3":"Barangay","ENGTYPE_3":"Village","PROVINCE":"Misamis Oriental","REGION":"Region X (Northern Mindanao)","id":"barangay-1004310014","name":"Sinalac","barangayCode":"1004310014","population":null,"formattedPop":null,"densityCategory":"No data","vulnerabilityRating":"No data","healthRiskLevel":"No data","areaKm2":17.248078,"centerLat":8.456694,"centerLng":124.373828,"geometrySource":"all_barangay-2.csv detailed WKT","geometryMatchMethod":"unique_official_admin_names","boundaryPointCount":14},"geometry":{"type":"MultiPolygon","coordinates":[[[[124.359047,8.48392],[124.388603,8.48557],[124.393028,8.47806],[124.390984,8.47402],[124.389488,8.46971],[124.387299,8.46542],[124.377876,8.46447],[124.368942,8.46365],[124.365211,8.46336],[124.345367,8.46072],[124.344337,8.47104],[124.348618,8.47854],[124.351044,8.48332],[124.359047,8.48392]]]]}},{"type":"Feature","properties":{"ID_0":177,"ISO":"PHL","NAME_0":"Philippines","ID_1":10043,"NAME_1":"Misamis Oriental","ID_2":1004310,"NAME_2":"Initao","ID_3":1004310015,"NAME_3":"Tawantawan","NL_NAME_3":null,"VARNAME_3":null,"TYPE_3":"Barangay","ENGTYPE_3":"Village","PROVINCE":"Misamis Oriental","REGION":"Region X (Northern Mindanao)","id":"barangay-1004310015","name":"Tawantawan","barangayCode":"1004310015","population":null,"formattedPop":null,"densityCategory":"No data","vulnerabilityRating":"No data","healthRiskLevel":"No data","areaKm2":7.911344,"centerLat":8.47486,"centerLng":124.336586,"geometrySource":"all_barangay-2.csv detailed WKT","geometryMatchMethod":"unique_official_admin_names","boundaryPointCount":8},"geometry":{"type":"MultiPolygon","coordinates":[[[[124.311798,8.4886],[124.324951,8.48094],[124.329353,8.47817],[124.348618,8.47854],[124.344337,8.47104],[124.317223,8.47471],[124.314171,8.47655],[124.311798,8.4886]]]]}},{"type":"Feature","properties":{"ID_0":177,"ISO":"PHL","NAME_0":"Philippines","ID_1":10043,"NAME_1":"Misamis Oriental","ID_2":1004310,"NAME_2":"Initao","ID_3":1004310016,"NAME_3":"Tubigan","NL_NAME_3":null,"VARNAME_3":null,"TYPE_3":"Barangay","ENGTYPE_3":"Village","PROVINCE":"Misamis Oriental","REGION":"Region X (Northern Mindanao)","id":"barangay-1004310016","name":"Tubigan","barangayCode":"1004310016","population":null,"formattedPop":null,"densityCategory":"No data","vulnerabilityRating":"No data","healthRiskLevel":"No data","areaKm2":5.34523,"centerLat":8.532558,"centerLng":124.319885,"geometrySource":"all_barangay-2.csv detailed WKT","geometryMatchMethod":"unique_official_admin_names","boundaryPointCount":34},"geometry":{"type":"MultiPolygon","coordinates":[[[[124.328194,8.53316],[124.323174,8.52591],[124.324593,8.52103],[124.309853,8.52624],[124.309998,8.52639],[124.309998,8.52667],[124.31028,8.52694],[124.31028,8.5275],[124.310547,8.52778],[124.310547,8.52806],[124.310837,8.52833],[124.310837,8.52861],[124.311111,8.52889],[124.311111,8.53167],[124.311394,8.53194],[124.311394,8.5325],[124.311668,8.53278],[124.311668,8.53389],[124.311943,8.53417],[124.311668,8.53444],[124.311668,8.53586],[124.311668,8.53611],[124.311951,8.53639],[124.313057,8.5375],[124.313057,8.53778],[124.313332,8.53806],[124.313332,8.53833],[124.313606,8.53861],[124.313606,8.53889],[124.313744,8.53901],[124.324944,8.5345],[124.326233,8.53397],[124.326317,8.53393],[124.328194,8.53316]]]]}}]}
