{"type":"FeatureCollection","features":[{"type":"Feature","properties":{"ID_0":177,"ISO":"PHL","NAME_0":"Philippines","ID_1":12063,"NAME_1":"South Cotabato","ID_2":1206303,"NAME_2":"General Santos City (Dadiangas)","ID_3":1206306004,"NAME_3":"Caloocan","NL_NAME_3":null,"VARNAME_3":null,"TYPE_3":"Barangay","ENGTYPE_3":"Village","PROVINCE":"South Cotabato","REGION":"Region XII (Soccsksargen)","id":"barangay-1206306004","name":"Caloocan","barangayCode":"1206306004","population":null,"formattedPop":null,"densityCategory":"No data","vulnerabilityRating":"No data","healthRiskLevel":"No data","areaKm2":26.113085,"centerLat":6.523804,"centerLng":124.839789,"geometrySource":"all_barangay-2.csv detailed WKT","geometryMatchMethod":"psgc_coordinate_bridge","boundaryPointCount":10},"geometry":{"type":"MultiPolygon","coordinates":[[[[124.845001,6.51644],[124.851158,6.51038],[124.852959,6.50625],[124.855629,6.50592],[124.856728,6.50373],[124.845543,6.48943],[124.842552,6.49202],[124.825996,6.50619],[124.829132,6.50872],[124.845001,6.51644]]]]}},{"type":"Feature","properties":{"ID_0":177,"ISO":"PHL","NAME_0":"Philippines","ID_1":12063,"NAME_1":"South Cotabato","ID_2":1206303,"NAME_2":"General Santos City (Dadiangas)","ID_3":1206306011,"NAME_3":"Mambucal","NL_NAME_3":null,"VARNAME_3":null,"TYPE_3":"Barangay","ENGTYPE_3":"Village","PROVINCE":"South Cotabato","REGION":"Region XII (Soccsksargen)","id":"barangay-1206306011","name":"Mambucal","barangayCode":"1206306011","population":null,"formattedPop":null,"densityCategory":"No data","vulnerabilityRating":"No data","healthRiskLevel":"No data","areaKm2":50.467401,"centerLat":6.462499,"centerLng":124.828242,"geometrySource":"all_barangay-2.csv detailed WKT","geometryMatchMethod":"psgc_coordinate_bridge","boundaryPointCount":25},"geometry":{"type":"MultiPolygon","coordinates":[[[[124.842941,6.44929],[124.844612,6.44579],[124.846207,6.44382],[124.848579,6.43643],[124.849747,6.42812],[124.846359,6.42402],[124.845543,6.42107],[124.846832,6.41978],[124.843987,6.4189],[124.837486,6.42122],[124.8358,6.42315],[124.833893,6.42571],[124.83239,6.42773],[124.829674,6.43072],[124.82843,6.43237],[124.827393,6.43532],[124.828087,6.43894],[124.828568,6.44253],[124.831123,6.44805],[124.829849,6.45096],[124.82991,6.45689],[124.833199,6.45542],[124.834541,6.45656],[124.840347,6.45124],[124.842941,6.44929]]]]}},{"type":"Feature","properties":{"ID_0":177,"ISO":"PHL","NAME_0":"Philippines","ID_1":12063,"NAME_1":"South Cotabato","ID_2":1206303,"NAME_2":"General Santos City (Dadiangas)","ID_3":1206306021,"NAME_3":"San Isidro","NL_NAME_3":null,"VARNAME_3":null,"TYPE_3":"Barangay","ENGTYPE_3":"Village","PROVINCE":"South Cotabato","REGION":"Region XII (Soccsksargen)","id":"barangay-1206306021","name":"San Isidro","barangayCode":"1206306021","population":null,"formattedPop":null,"densityCategory":"No data","vulnerabilityRating":"No data","healthRiskLevel":"No data","areaKm2":21.22267,"centerLat":6.467667,"centerLng":124.854413,"geometrySource":"all_barangay-2.csv detailed WKT","geometryMatchMethod":"psgc_coordinate_bridge","boundaryPointCount":24},"geometry":{"type":"MultiPolygon","coordinates":[[[[124.872276,6.45143],[124.859131,6.4346],[124.863922,6.43052],[124.861099,6.4278],[124.860168,6.42382],[124.859558,6.42298],[124.858208,6.42085],[124.855423,6.4202],[124.854134,6.41857],[124.852203,6.41771],[124.850014,6.41754],[124.848862,6.41901],[124.846832,6.41978],[124.845543,6.42107],[124.846359,6.42402],[124.849747,6.42812],[124.848579,6.43643],[124.846207,6.44382],[124.844612,6.44579],[124.842941,6.44929],[124.850258,6.4569],[124.848473,6.45901],[124.855637,6.46577],[124.872276,6.45143]]]]}},{"type":"Feature","properties":{"ID_0":177,"ISO":"PHL","NAME_0":"Philippines","ID_1":12063,"NAME_1":"South Cotabato","ID_2":1206303,"NAME_2":"General Santos City (Dadiangas)","ID_3":1206311017,"NAME_3":"San Miguel","NL_NAME_3":null,"VARNAME_3":null,"TYPE_3":"Barangay","ENGTYPE_3":"Village","PROVINCE":"South Cotabato","REGION":"Region XII (Soccsksargen)","id":"barangay-1206311017","name":"San Miguel","barangayCode":"1206311017","population":null,"formattedPop":null,"densityCategory":"No data","vulnerabilityRating":"No data","healthRiskLevel":"No data","areaKm2":48.785115,"centerLat":6.495079,"centerLng":124.715528,"geometrySource":"all_barangay-2.csv detailed WKT","geometryMatchMethod":"psgc_coordinate_bridge","boundaryPointCount":18},"geometry":{"type":"MultiPolygon","coordinates":[[[[124.73954,6.48572],[124.730232,6.46725],[124.72802,6.46378],[124.70266,6.46377],[124.703667,6.49439],[124.705299,6.49377],[124.707024,6.49355],[124.708298,6.49154],[124.709282,6.49084],[124.71286,6.49039],[124.71553,6.49055],[124.717743,6.4892],[124.725304,6.4865],[124.72924,6.48892],[124.733353,6.48783],[124.735107,6.48523],[124.737457,6.48719],[124.73954,6.48572]]]]}},{"type":"Feature","properties":{"ID_0":177,"ISO":"PHL","NAME_0":"Philippines","ID_1":12063,"NAME_1":"South Cotabato","ID_2":1206303,"NAME_2":"General Santos City (Dadiangas)","ID_3":1206311021,"NAME_3":"Tinago","NL_NAME_3":null,"VARNAME_3":null,"TYPE_3":"Barangay","ENGTYPE_3":"Village","PROVINCE":"South Cotabato","REGION":"Region XII (Soccsksargen)","id":"barangay-1206311021","name":"Tinago","barangayCode":"1206311021","population":null,"formattedPop":null,"densityCategory":"No data","vulnerabilityRating":"No data","healthRiskLevel":"No data","areaKm2":43.208207,"centerLat":6.557965,"centerLng":124.707185,"geometrySource":"all_barangay-2.csv detailed WKT","geometryMatchMethod":"psgc_coordinate_bridge","boundaryPointCount":58},"geometry":{"type":"MultiPolygon","coordinates":[[[[124.731483,6.534],[124.731491,6.53184],[124.73291,6.52987],[124.736076,6.52751],[124.736183,6.5249],[124.736298,6.52478],[124.738274,6.52278],[124.738777,6.52089],[124.73925,6.51917],[124.740303,6.51456],[124.742561,6.51387],[124.739571,6.51411],[124.736526,6.51679],[124.733627,6.51946],[124.730873,6.52034],[124.727928,6.52274],[124.726303,6.52076],[124.725533,6.51773],[124.72345,6.51809],[124.721199,6.51635],[124.718857,6.51735],[124.717056,6.51541],[124.715424,6.51532],[124.709068,6.51471],[124.705544,6.51776],[124.700203,6.51811],[124.697937,6.52122],[124.695457,6.52204],[124.69487,6.52466],[124.695793,6.52495],[124.697159,6.52847],[124.698647,6.52861],[124.700729,6.53059],[124.699997,6.5329],[124.698463,6.53513],[124.69017,6.54607],[124.690407,6.54953],[124.688683,6.5519],[124.687447,6.55696],[124.688171,6.56655],[124.69445,6.5709],[124.696899,6.57133],[124.706841,6.57258],[124.708549,6.57497],[124.710876,6.57604],[124.715347,6.57198],[124.718193,6.56037],[124.717117,6.55887],[124.719887,6.55058],[124.722282,6.54742],[124.721786,6.54308],[124.722649,6.54238],[124.725693,6.5429],[124.727242,6.54079],[124.727371,6.53755],[124.729317,6.53805],[124.729843,6.53606],[124.731483,6.534]]]]}},{"type":"Feature","properties":{"ID_0":177,"ISO":"PHL","NAME_0":"Philippines","ID_1":12063,"NAME_1":"South Cotabato","ID_2":1206303,"NAME_2":"General Santos City (Dadiangas)","ID_3":1206312015,"NAME_3":"Polo","NL_NAME_3":null,"VARNAME_3":null,"TYPE_3":"Barangay","ENGTYPE_3":"Village","PROVINCE":"South Cotabato","REGION":"Region XII (Soccsksargen)","id":"barangay-1206312015","name":"Polo","barangayCode":"1206312015","population":null,"formattedPop":null,"densityCategory":"No data","vulnerabilityRating":"No data","healthRiskLevel":"No data","areaKm2":32.961449,"centerLat":6.279626,"centerLng":125.105008,"geometrySource":"all_barangay-2.csv detailed WKT","geometryMatchMethod":"psgc_coordinate_bridge","boundaryPointCount":29},"geometry":{"type":"MultiPolygon","coordinates":[[[[125.101357,6.29973],[125.106819,6.30097],[125.107658,6.29662],[125.118477,6.29865],[125.118011,6.30118],[125.120193,6.30131],[125.12394,6.26637],[125.119461,6.26082],[125.119164,6.25924],[125.120087,6.2572],[125.121002,6.25484],[125.119781,6.25426],[125.117813,6.25608],[125.111313,6.25529],[125.111221,6.25379],[125.094231,6.23791],[125.083038,6.25048],[125.07975,6.25082],[125.072647,6.25879],[125.088432,6.27188],[125.089333,6.27432],[125.095886,6.27447],[125.096237,6.27786],[125.095093,6.27968],[125.096024,6.28352],[125.100243,6.28558],[125.099358,6.28993],[125.103493,6.29153],[125.101357,6.29973]]]]}},{"type":"Feature","properties":{"ID_0":177,"ISO":"PHL","NAME_0":"Philippines","ID_1":12063,"NAME_1":"South Cotabato","ID_2":1206303,"NAME_2":"General Santos City (Dadiangas)","ID_3":1206312024,"NAME_3":"Cannery Site","NL_NAME_3":null,"VARNAME_3":null,"TYPE_3":"Barangay","ENGTYPE_3":"Village","PROVINCE":"South Cotabato","REGION":"Region XII (Soccsksargen)","id":"barangay-1206312024","name":"Cannery Site","barangayCode":"1206312024","population":null,"formattedPop":null,"densityCategory":"No data","vulnerabilityRating":"No data","healthRiskLevel":"No data","areaKm2":18.088816,"centerLat":6.242442,"centerLng":125.08683,"geometrySource":"all_barangay-2.csv detailed WKT","geometryMatchMethod":"psgc_coordinate_bridge","boundaryPointCount":10},"geometry":{"type":"MultiPolygon","coordinates":[[[[125.072647,6.25879],[125.07975,6.25082],[125.083038,6.25048],[125.094231,6.23791],[125.100479,6.23026],[125.093079,6.2238],[125.07325,6.24503],[125.071472,6.24513],[125.065086,6.25189],[125.072647,6.25879]]]]}},{"type":"Feature","properties":{"ID_0":177,"ISO":"PHL","NAME_0":"Philippines","ID_1":12063,"NAME_1":"South Cotabato","ID_2":1206303,"NAME_2":"General Santos City (Dadiangas)","ID_3":1206313004,"NAME_3":"Colongulo","NL_NAME_3":null,"VARNAME_3":null,"TYPE_3":"Barangay","ENGTYPE_3":"Village","PROVINCE":"South Cotabato","REGION":"Region XII (Soccsksargen)","id":"barangay-1206313004","name":"Colongulo","barangayCode":"1206313004","population":null,"formattedPop":null,"densityCategory":"No data","vulnerabilityRating":"No data","healthRiskLevel":"No data","areaKm2":77.553775,"centerLat":6.319346,"centerLng":124.706324,"geometrySource":"all_barangay-2.csv detailed WKT","geometryMatchMethod":"psgc_coordinate_bridge","boundaryPointCount":81},"geometry":{"type":"MultiPolygon","coordinates":[[[[124.691223,6.36326],[124.690933,6.35272],[124.695091,6.34807],[124.692093,6.34396],[124.694847,6.34264],[124.702377,6.31267],[124.720909,6.32903],[124.721191,6.33019],[124.720917,6.33271],[124.719467,6.33433],[124.717987,6.33591],[124.718941,6.3377],[124.720657,6.3402],[124.720306,6.3441],[124.736008,6.33352],[124.738274,6.33207],[124.732269,6.3209],[124.734077,6.31967],[124.736938,6.31938],[124.741508,6.31701],[124.744537,6.3151],[124.734482,6.29603],[124.734337,6.29729],[124.732529,6.29789],[124.731216,6.29803],[124.730003,6.30217],[124.703987,6.26192],[124.698471,6.2664],[124.693764,6.26703],[124.690514,6.26907],[124.690292,6.2714],[124.680237,6.27561],[124.676979,6.27474],[124.677048,6.27944],[124.672798,6.28324],[124.672684,6.28803],[124.669647,6.29012],[124.67157,6.29284],[124.669083,6.29523],[124.668694,6.29819],[124.665428,6.29835],[124.665253,6.30041],[124.662857,6.30231],[124.661011,6.30345],[124.659157,6.30682],[124.659073,6.30893],[124.658089,6.31149],[124.655907,6.31007],[124.65461,6.31142],[124.654877,6.31501],[124.655128,6.31729],[124.65332,6.31842],[124.654716,6.32083],[124.651611,6.32453],[124.652168,6.32605],[124.653969,6.32729],[124.652573,6.32945],[124.653259,6.33071],[124.654572,6.33096],[124.656029,6.33324],[124.655991,6.3345],[124.653053,6.3355],[124.653687,6.33953],[124.649887,6.33902],[124.650528,6.34059],[124.649223,6.34113],[124.650497,6.34408],[124.649277,6.34611],[124.654427,6.34693],[124.656708,6.35216],[124.668427,6.35001],[124.669273,6.36153],[124.671707,6.36187],[124.670769,6.36327],[124.671227,6.36502],[124.672493,6.36671],[124.674667,6.36786],[124.675171,6.36759],[124.676208,6.3666],[124.676826,6.36381],[124.691223,6.36326]]]]}},{"type":"Feature","properties":{"ID_0":177,"ISO":"PHL","NAME_0":"Philippines","ID_1":12063,"NAME_1":"South Cotabato","ID_2":1206303,"NAME_2":"General Santos City (Dadiangas)","ID_3":1206313006,"NAME_3":"Duengas","NL_NAME_3":null,"VARNAME_3":null,"TYPE_3":"Barangay","ENGTYPE_3":"Village","PROVINCE":"South Cotabato","REGION":"Region XII (Soccsksargen)","id":"barangay-1206313006","name":"Duengas","barangayCode":"1206313006","population":null,"formattedPop":null,"densityCategory":"No data","vulnerabilityRating":"No data","healthRiskLevel":"No data","areaKm2":4.59333,"centerLat":6.369286,"centerLng":124.693995,"geometrySource":"all_barangay-2.csv detailed WKT","geometryMatchMethod":"psgc_coordinate_bridge","boundaryPointCount":18},"geometry":{"type":"MultiPolygon","coordinates":[[[[124.701378,6.36718],[124.702744,6.36524],[124.704407,6.36469],[124.705673,6.36113],[124.706444,6.36261],[124.707169,6.36283],[124.708527,6.36282],[124.709244,6.36088],[124.710602,6.35858],[124.711456,6.35561],[124.694847,6.34264],[124.692093,6.34396],[124.695091,6.34807],[124.690933,6.35272],[124.691223,6.36326],[124.694397,6.36333],[124.694267,6.36642],[124.701378,6.36718]]]]}},{"type":"Feature","properties":{"ID_0":177,"ISO":"PHL","NAME_0":"Philippines","ID_1":12063,"NAME_1":"South Cotabato","ID_2":1206303,"NAME_2":"General Santos City (Dadiangas)","ID_3":1206314007,"NAME_3":"Tablu","NL_NAME_3":null,"VARNAME_3":null,"TYPE_3":"Barangay","ENGTYPE_3":"Village","PROVINCE":"South Cotabato","REGION":"Region XII (Soccsksargen)","id":"barangay-1206314007","name":"Tablu","barangayCode":"1206314007","population":null,"formattedPop":null,"densityCategory":"No data","vulnerabilityRating":"No data","healthRiskLevel":"No data","areaKm2":111.885287,"centerLat":6.482381,"centerLng":125.084648,"geometrySource":"all_barangay-2.csv detailed WKT","geometryMatchMethod":"psgc_coordinate_bridge","boundaryPointCount":63},"geometry":{"type":"MultiPolygon","coordinates":[[[[125.113136,6.53333],[125.117607,6.53347],[125.187469,6.53582],[125.19677,6.53614],[125.197189,6.52604],[125.198708,6.51024],[125.192207,6.49347],[125.18927,6.48575],[125.171722,6.46952],[125.156998,6.46368],[125.153481,6.4542],[125.150291,6.44475],[125.149246,6.43728],[125.142128,6.42226],[125.135971,6.42039],[125.114532,6.42225],[125.112007,6.4169],[125.039581,6.39744],[125.036697,6.40124],[125.035553,6.40381],[125.034767,6.40719],[125.034042,6.41084],[125.033852,6.41493],[125.034927,6.41835],[125.036057,6.42077],[125.034523,6.42226],[125.032471,6.42268],[125.027344,6.42441],[125.025887,6.42321],[125.02153,6.42085],[125.018677,6.42077],[125.017319,6.42082],[125.014771,6.42205],[125.012909,6.42237],[125.00946,6.42244],[125.004646,6.42377],[125.002693,6.42342],[124.999924,6.42343],[124.995796,6.42103],[124.994476,6.42238],[124.995377,6.42395],[124.99752,6.4279],[124.997177,6.43213],[125.000641,6.43261],[125.004402,6.43425],[125.008667,6.43441],[125.011162,6.43529],[125.01265,6.4387],[125.017647,6.43791],[125.02182,6.43807],[125.025352,6.44399],[125.028526,6.44411],[125.029617,6.44523],[125.029877,6.44779],[125.031326,6.44949],[125.035049,6.45006],[125.036377,6.44951],[125.039963,6.44918],[125.042358,6.44948],[125.045937,6.45081],[125.047073,6.45207],[125.048431,6.45431],[125.113136,6.53333]]]]}},{"type":"Feature","properties":{"ID_0":177,"ISO":"PHL","NAME_0":"Philippines","ID_1":12063,"NAME_1":"South Cotabato","ID_2":1206303,"NAME_2":"General Santos City (Dadiangas)","ID_3":1206316011,"NAME_3":"New Dumangas","NL_NAME_3":null,"VARNAME_3":null,"TYPE_3":"Barangay","ENGTYPE_3":"Village","PROVINCE":"South Cotabato","REGION":"Region XII (Soccsksargen)","id":"barangay-1206316011","name":"New Dumangas","barangayCode":"1206316011","population":null,"formattedPop":null,"densityCategory":"No data","vulnerabilityRating":"No data","healthRiskLevel":"No data","areaKm2":20.949059,"centerLat":6.180514,"centerLng":124.804029,"geometrySource":"all_barangay-2.csv detailed WKT","geometryMatchMethod":"psgc_coordinate_bridge","boundaryPointCount":29},"geometry":{"type":"MultiPolygon","coordinates":[[[[124.819572,6.17869],[124.82254,6.17645],[124.822952,6.16436],[124.827827,6.16123],[124.831078,6.15795],[124.831261,6.15534],[124.832809,6.15194],[124.802567,6.14408],[124.802353,6.1461],[124.792084,6.15528],[124.789207,6.15406],[124.787109,6.15422],[124.784866,6.15479],[124.78141,6.15716],[124.781097,6.16112],[124.781189,6.16264],[124.78334,6.16741],[124.783524,6.16979],[124.786774,6.17688],[124.789139,6.17954],[124.791733,6.18121],[124.792969,6.18335],[124.793556,6.1881],[124.8004,6.18502],[124.803459,6.18381],[124.808456,6.18163],[124.812622,6.18065],[124.814583,6.1785],[124.819572,6.17869]]]]}},{"type":"Feature","properties":{"ID_0":177,"ISO":"PHL","NAME_0":"Philippines","ID_1":12063,"NAME_1":"South Cotabato","ID_2":1206303,"NAME_2":"General Santos City (Dadiangas)","ID_3":1206316012,"NAME_3":"Sinolon","NL_NAME_3":null,"VARNAME_3":null,"TYPE_3":"Barangay","ENGTYPE_3":"Village","PROVINCE":"South Cotabato","REGION":"Region XII (Soccsksargen)","id":"barangay-1206316012","name":"Sinolon","barangayCode":"1206316012","population":null,"formattedPop":null,"densityCategory":"No data","vulnerabilityRating":"No data","healthRiskLevel":"No data","areaKm2":95.047946,"centerLat":6.267142,"centerLng":124.822753,"geometrySource":"all_barangay-2.csv detailed WKT","geometryMatchMethod":"psgc_coordinate_bridge","boundaryPointCount":21},"geometry":{"type":"MultiPolygon","coordinates":[[[[124.856781,6.26027],[124.83934,6.25531],[124.840981,6.25336],[124.839981,6.24675],[124.839478,6.24627],[124.836647,6.24454],[124.834152,6.24421],[124.832687,6.24256],[124.829224,6.23895],[124.826897,6.23659],[124.82444,6.23572],[124.81916,6.23551],[124.793739,6.23009],[124.793159,6.238],[124.794479,6.24109],[124.824516,6.2598],[124.840622,6.26849],[124.849403,6.27048],[124.851402,6.2665],[124.854874,6.26191],[124.856781,6.26027]]]]}},{"type":"Feature","properties":{"ID_0":177,"ISO":"PHL","NAME_0":"Philippines","ID_1":12063,"NAME_1":"South Cotabato","ID_2":1206303,"NAME_2":"General Santos City (Dadiangas)","ID_3":1206317003,"NAME_3":"Bunao","NL_NAME_3":null,"VARNAME_3":null,"TYPE_3":"Barangay","ENGTYPE_3":"Village","PROVINCE":"South Cotabato","REGION":"Region XII (Soccsksargen)","id":"barangay-1206317003","name":"Bunao","barangayCode":"1206317003","population":null,"formattedPop":null,"densityCategory":"No data","vulnerabilityRating":"No data","healthRiskLevel":"No data","areaKm2":19.699537,"centerLat":6.310361,"centerLng":124.933034,"geometrySource":"all_barangay-2.csv detailed WKT","geometryMatchMethod":"psgc_coordinate_bridge","boundaryPointCount":18},"geometry":{"type":"MultiPolygon","coordinates":[[[[124.959709,6.30914],[124.955711,6.30574],[124.955994,6.3024],[124.945137,6.29331],[124.943779,6.29016],[124.940468,6.28486],[124.935226,6.27966],[124.929031,6.28661],[124.935722,6.29067],[124.936493,6.29328],[124.93557,6.29821],[124.935753,6.29965],[124.937103,6.30808],[124.935654,6.30962],[124.935043,6.31467],[124.945671,6.32385],[124.950844,6.31891],[124.959709,6.30914]]]]}},{"type":"Feature","properties":{"ID_0":177,"ISO":"PHL","NAME_0":"Philippines","ID_1":12063,"NAME_1":"South Cotabato","ID_2":1206303,"NAME_2":"General Santos City (Dadiangas)","ID_3":1206319001,"NAME_3":"Bacdulong","NL_NAME_3":null,"VARNAME_3":null,"TYPE_3":"Barangay","ENGTYPE_3":"Village","PROVINCE":"South Cotabato","REGION":"Region XII (Soccsksargen)","id":"barangay-1206319001","name":"Bacdulong","barangayCode":"1206319001","population":null,"formattedPop":null,"densityCategory":"No data","vulnerabilityRating":"No data","healthRiskLevel":"No data","areaKm2":9.413818,"centerLat":6.237262,"centerLng":124.693159,"geometrySource":"all_barangay-2.csv detailed WKT","geometryMatchMethod":"psgc_coordinate_bridge","boundaryPointCount":18},"geometry":{"type":"MultiPolygon","coordinates":[[[[124.706017,6.23592],[124.706383,6.23345],[124.706123,6.22677],[124.703217,6.22505],[124.699852,6.22397],[124.696663,6.22194],[124.693787,6.21865],[124.674088,6.21816],[124.674469,6.22098],[124.674843,6.22259],[124.674072,6.22506],[124.674507,6.22886],[124.677147,6.23287],[124.677299,6.23555],[124.683968,6.23348],[124.692589,6.23532],[124.695534,6.2344],[124.706017,6.23592]]]]}},{"type":"Feature","properties":{"ID_0":177,"ISO":"PHL","NAME_0":"Philippines","ID_1":12063,"NAME_1":"South Cotabato","ID_2":1206303,"NAME_2":"General Santos City (Dadiangas)","ID_3":1230800035,"NAME_3":"Dadiangas North","NL_NAME_3":null,"VARNAME_3":null,"TYPE_3":"Barangay","ENGTYPE_3":"Village","PROVINCE":"South Cotabato","REGION":"Region XII (Soccsksargen)","id":"barangay-1230800035","name":"Dadiangas North","barangayCode":"1230800035","population":null,"formattedPop":null,"densityCategory":"No data","vulnerabilityRating":"No data","healthRiskLevel":"No data","areaKm2":0.962938,"centerLat":6.116081,"centerLng":125.164969,"geometrySource":"all_barangay-2.csv detailed WKT","geometryMatchMethod":"psgc_coordinate_bridge","boundaryPointCount":11},"geometry":{"type":"MultiPolygon","coordinates":[[[[125.175812,6.11085],[125.165512,6.107613],[125.164703,6.107358],[125.15374,6.103914],[125.152298,6.10545],[125.151329,6.107943],[125.15049,6.110121],[125.162643,6.112147],[125.164177,6.110613],[125.175743,6.113018],[125.175812,6.11085]]]]}},{"type":"Feature","properties":{"ID_0":177,"ISO":"PHL","NAME_0":"Philippines","ID_1":12063,"NAME_1":"South Cotabato","ID_2":1206303,"NAME_2":"General Santos City (Dadiangas)","ID_3":1230800036,"NAME_3":"Dadiangas South","NL_NAME_3":null,"VARNAME_3":null,"TYPE_3":"Barangay","ENGTYPE_3":"Village","PROVINCE":"South Cotabato","REGION":"Region XII (Soccsksargen)","id":"barangay-1230800036","name":"Dadiangas South","barangayCode":"1230800036","population":null,"formattedPop":null,"densityCategory":"No data","vulnerabilityRating":"No data","healthRiskLevel":"No data","areaKm2":11.94769,"centerLat":6.109525,"centerLng":125.175833,"geometrySource":"all_barangay-2.csv detailed WKT","geometryMatchMethod":"psgc_coordinate_bridge","boundaryPointCount":36},"geometry":{"type":"MultiPolygon","coordinates":[[[[125.16375,6.104897],[125.163872,6.104404],[125.16436,6.103293],[125.164078,6.102112],[125.1632,6.101472],[125.162811,6.101308],[125.162689,6.101209],[125.162247,6.100729],[125.160767,6.099494],[125.1604,6.099334],[125.159149,6.098292],[125.158531,6.097111],[125.158875,6.096624],[125.159294,6.095582],[125.160095,6.095299],[125.160393,6.094906],[125.160645,6.094554],[125.160553,6.094476],[125.159584,6.094059],[125.159081,6.093863],[125.159012,6.094402],[125.159012,6.094443],[125.158966,6.094784],[125.158958,6.094861],[125.158859,6.09569],[125.158646,6.096052],[125.158463,6.096363],[125.158424,6.096434],[125.157051,6.098761],[125.157021,6.098817],[125.156647,6.099457],[125.156197,6.10021],[125.156105,6.100669],[125.155991,6.101206],[125.155968,6.101317],[125.16375,6.104897]]]]}}]}
