{"type":"FeatureCollection","features":[{"type":"Feature","properties":{"ID_0":177,"ISO":"PHL","NAME_0":"Philippines","ID_1":1055,"NAME_1":"Pangasinan","ID_2":105515,"NAME_2":"Bugallon","ID_3":105515001,"NAME_3":"Angarian","NL_NAME_3":null,"VARNAME_3":null,"TYPE_3":"Barangay","ENGTYPE_3":"Village","PROVINCE":"Pangasinan","REGION":"Region I (Ilocos Region)","id":"barangay-0105515001","name":"Angarian","barangayCode":"0105515001","population":null,"formattedPop":null,"densityCategory":"No data","vulnerabilityRating":"No data","healthRiskLevel":"No data","areaKm2":1.785698,"centerLat":15.978132,"centerLng":120.243394,"geometrySource":"all_barangay-2.csv detailed WKT","geometryMatchMethod":"unique_official_admin_names","boundaryPointCount":29},"geometry":{"type":"MultiPolygon","coordinates":[[[[120.243507,15.9746],[120.242981,15.97374],[120.240921,15.9713],[120.239441,15.96876],[120.239166,15.96844],[120.237633,15.96833],[120.237137,15.96842],[120.236,15.96911],[120.234871,15.96968],[120.233276,15.97109],[120.23175,15.97338],[120.232201,15.97459],[120.233368,15.97584],[120.234062,15.97827],[120.233887,15.98065],[120.233711,15.98289],[120.234367,15.98388],[120.236053,15.98503],[120.23716,15.98513],[120.238289,15.98401],[120.239532,15.9819],[120.241478,15.98125],[120.242378,15.98143],[120.243553,15.98149],[120.24469,15.98223],[120.244873,15.98114],[120.244377,15.97814],[120.243942,15.97625],[120.243507,15.9746]]]]}},{"type":"Feature","properties":{"ID_0":177,"ISO":"PHL","NAME_0":"Philippines","ID_1":1055,"NAME_1":"Pangasinan","ID_2":105515,"NAME_2":"Bugallon","ID_3":105515002,"NAME_3":"Asinan","NL_NAME_3":null,"VARNAME_3":null,"TYPE_3":"Barangay","ENGTYPE_3":"Village","PROVINCE":"Pangasinan","REGION":"Region I (Ilocos Region)","id":"barangay-0105515002","name":"Asinan","barangayCode":"0105515002","population":null,"formattedPop":null,"densityCategory":"No data","vulnerabilityRating":"No data","healthRiskLevel":"No data","areaKm2":0.954663,"centerLat":15.987148,"centerLng":120.199413,"geometrySource":"all_barangay-2.csv detailed WKT","geometryMatchMethod":"unique_official_admin_names","boundaryPointCount":24},"geometry":{"type":"MultiPolygon","coordinates":[[[[120.199463,16.00246],[120.200363,16.00156],[120.201393,15.9994],[120.202637,15.99694],[120.203407,15.99537],[120.204643,15.99403],[120.208977,15.98713],[120.208611,15.98698],[120.208389,15.98669],[120.207443,15.98611],[120.205963,15.98619],[120.204803,15.98591],[120.203522,15.98512],[120.202377,15.98456],[120.201462,15.98463],[120.199623,15.98541],[120.199158,15.98534],[120.198158,15.98596],[120.19725,15.98701],[120.195869,15.98801],[120.194633,15.98843],[120.193626,15.9896],[120.192711,15.9921],[120.199463,16.00246]]]]}},{"type":"Feature","properties":{"ID_0":177,"ISO":"PHL","NAME_0":"Philippines","ID_1":1055,"NAME_1":"Pangasinan","ID_2":105515,"NAME_2":"Bugallon","ID_3":105515003,"NAME_3":"Banaga","NL_NAME_3":null,"VARNAME_3":null,"TYPE_3":"Barangay","ENGTYPE_3":"Village","PROVINCE":"Pangasinan","REGION":"Region I (Ilocos Region)","id":"barangay-0105515003","name":"Banaga","barangayCode":"0105515003","population":null,"formattedPop":null,"densityCategory":"No data","vulnerabilityRating":"No data","healthRiskLevel":"No data","areaKm2":1.41785,"centerLat":15.989158,"centerLng":120.225583,"geometrySource":"all_barangay-2.csv detailed WKT","geometryMatchMethod":"unique_official_admin_names","boundaryPointCount":45},"geometry":{"type":"MultiPolygon","coordinates":[[[[120.228149,15.99341],[120.230659,15.99456],[120.231323,15.99456],[120.232986,15.99439],[120.233612,15.99413],[120.234917,15.99398],[120.237587,15.99313],[120.238747,15.99267],[120.239464,15.99192],[120.23996,15.99131],[120.242378,15.98862],[120.243919,15.98489],[120.24469,15.98223],[120.243553,15.98149],[120.242378,15.98143],[120.241478,15.98125],[120.239532,15.9819],[120.238289,15.98401],[120.23716,15.98513],[120.236053,15.98503],[120.234367,15.98388],[120.233711,15.98289],[120.233887,15.98065],[120.234062,15.97827],[120.233368,15.97584],[120.232201,15.97459],[120.23175,15.97338],[120.23008,15.9732],[120.22731,15.97269],[120.224838,15.97221],[120.223373,15.97196],[120.22245,15.97185],[120.221313,15.97256],[120.21907,15.97501],[120.221771,15.97485],[120.223,15.97498],[120.22451,15.97623],[120.226189,15.97872],[120.226547,15.9802],[120.22673,15.98164],[120.226547,15.98368],[120.226303,15.98812],[120.226479,15.99033],[120.227409,15.99255],[120.228149,15.99341]]]]}},{"type":"Feature","properties":{"ID_0":177,"ISO":"PHL","NAME_0":"Philippines","ID_1":1055,"NAME_1":"Pangasinan","ID_2":105515,"NAME_2":"Bugallon","ID_3":105515004,"NAME_3":"Bacabac","NL_NAME_3":null,"VARNAME_3":null,"TYPE_3":"Barangay","ENGTYPE_3":"Village","PROVINCE":"Pangasinan","REGION":"Region I (Ilocos Region)","id":"barangay-0105515004","name":"Bacabac","barangayCode":"0105515004","population":null,"formattedPop":null,"densityCategory":"No data","vulnerabilityRating":"No data","healthRiskLevel":"No data","areaKm2":1.737879,"centerLat":15.970019,"centerLng":120.207587,"geometrySource":"all_barangay-2.csv detailed WKT","geometryMatchMethod":"unique_official_admin_names","boundaryPointCount":40},"geometry":{"type":"MultiPolygon","coordinates":[[[[120.23175,15.97338],[120.233276,15.97109],[120.234871,15.96968],[120.236,15.96911],[120.235817,15.96888],[120.235199,15.96789],[120.234863,15.96727],[120.234108,15.96642],[120.231979,15.96541],[120.231453,15.96533],[120.228149,15.96454],[120.22744,15.96426],[120.22599,15.96377],[120.224823,15.96335],[120.22332,15.962],[120.222511,15.96105],[120.221359,15.96002],[120.22023,15.95873],[120.219856,15.95822],[120.218712,15.95825],[120.217644,15.95851],[120.216537,15.95805],[120.215767,15.95735],[120.215179,15.95629],[120.214401,15.95443],[120.213997,15.96255],[120.213943,15.97014],[120.214783,15.97023],[120.216057,15.97049],[120.2183,15.97158],[120.219543,15.97319],[120.219727,15.97419],[120.21907,15.97501],[120.221313,15.97256],[120.22245,15.97185],[120.223373,15.97196],[120.224838,15.97221],[120.22731,15.97269],[120.23008,15.9732],[120.23175,15.97338]]]]}},{"type":"Feature","properties":{"ID_0":177,"ISO":"PHL","NAME_0":"Philippines","ID_1":1055,"NAME_1":"Pangasinan","ID_2":105515,"NAME_2":"Bugallon","ID_3":105515005,"NAME_3":"Bolaoen","NL_NAME_3":null,"VARNAME_3":null,"TYPE_3":"Barangay","ENGTYPE_3":"Village","PROVINCE":"Pangasinan","REGION":"Region I (Ilocos Region)","id":"barangay-0105515005","name":"Bolaoen","barangayCode":"0105515005","population":null,"formattedPop":null,"densityCategory":"No data","vulnerabilityRating":"No data","healthRiskLevel":"No data","areaKm2":3.064662,"centerLat":15.933006,"centerLng":120.232365,"geometrySource":"all_barangay-2.csv detailed WKT","geometryMatchMethod":"unique_official_admin_names","boundaryPointCount":37},"geometry":{"type":"MultiPolygon","coordinates":[[[[120.249573,15.9372],[120.249649,15.9367],[120.250099,15.93551],[120.248581,15.93163],[120.248978,15.92755],[120.249702,15.92409],[120.250214,15.92144],[120.249992,15.92186],[120.248596,15.92143],[120.24688,15.9208],[120.244522,15.92],[120.242058,15.91875],[120.23983,15.91726],[120.239166,15.9167],[120.229874,15.92763],[120.230453,15.92844],[120.231644,15.92899],[120.232948,15.9295],[120.233131,15.92953],[120.234077,15.9293],[120.23452,15.9296],[120.234528,15.93043],[120.234543,15.93112],[120.235527,15.93221],[120.236137,15.93293],[120.236969,15.93291],[120.238029,15.93305],[120.239502,15.93319],[120.240417,15.9336],[120.241158,15.93446],[120.241577,15.93559],[120.242859,15.93578],[120.24411,15.93583],[120.245537,15.93603],[120.247002,15.93671],[120.248283,15.9371],[120.249573,15.9372]]]]}},{"type":"Feature","properties":{"ID_0":177,"ISO":"PHL","NAME_0":"Philippines","ID_1":1055,"NAME_1":"Pangasinan","ID_2":105515,"NAME_2":"Bugallon","ID_3":105515006,"NAME_3":"Buenlag","NL_NAME_3":null,"VARNAME_3":null,"TYPE_3":"Barangay","ENGTYPE_3":"Village","PROVINCE":"Pangasinan","REGION":"Region I (Ilocos Region)","id":"barangay-0105515006","name":"Buenlag","barangayCode":"0105515006","population":null,"formattedPop":null,"densityCategory":"No data","vulnerabilityRating":"No data","healthRiskLevel":"No data","areaKm2":0.700983,"centerLat":15.979991,"centerLng":120.190015,"geometrySource":"all_barangay-2.csv detailed WKT","geometryMatchMethod":"unique_official_admin_names","boundaryPointCount":14},"geometry":{"type":"MultiPolygon","coordinates":[[[[120.198158,15.98596],[120.199158,15.98534],[120.199623,15.98541],[120.201187,15.98275],[120.201897,15.9794],[120.20295,15.97614],[120.196358,15.97437],[120.195312,15.97943],[120.193718,15.98534],[120.195061,15.98582],[120.196114,15.98602],[120.197182,15.98599],[120.197968,15.98596],[120.198158,15.98596]]]]}},{"type":"Feature","properties":{"ID_0":177,"ISO":"PHL","NAME_0":"Philippines","ID_1":1055,"NAME_1":"Pangasinan","ID_2":105515,"NAME_2":"Bugallon","ID_3":105515007,"NAME_3":"Cabayaoasan","NL_NAME_3":null,"VARNAME_3":null,"TYPE_3":"Barangay","ENGTYPE_3":"Village","PROVINCE":"Pangasinan","REGION":"Region I (Ilocos Region)","id":"barangay-0105515007","name":"Cabayaoasan","barangayCode":"0105515007","population":null,"formattedPop":null,"densityCategory":"No data","vulnerabilityRating":"No data","healthRiskLevel":"No data","areaKm2":5.269348,"centerLat":15.9624,"centerLng":120.2364,"geometrySource":"all_barangay-2.csv detailed WKT","geometryMatchMethod":"unique_official_admin_names","boundaryPointCount":57},"geometry":{"type":"MultiPolygon","coordinates":[[[[120.239166,15.96844],[120.239113,15.96838],[120.238777,15.967],[120.239311,15.96451],[120.242393,15.96229],[120.244598,15.9618],[120.246109,15.96174],[120.248909,15.9614],[120.251846,15.96105],[120.254784,15.96035],[120.257973,15.95927],[120.259468,15.95727],[120.259987,15.95641],[120.259819,15.95498],[120.257591,15.95292],[120.255119,15.95148],[120.251183,15.94843],[120.250313,15.94585],[120.249771,15.94231],[120.249367,15.93947],[120.249573,15.9372],[120.248283,15.9371],[120.247002,15.93671],[120.245537,15.93603],[120.24411,15.93583],[120.242859,15.93578],[120.241577,15.93559],[120.241158,15.93446],[120.240417,15.9336],[120.239502,15.93319],[120.238029,15.93305],[120.236969,15.93291],[120.236137,15.93293],[120.235527,15.93221],[120.234543,15.93112],[120.234528,15.93043],[120.23452,15.9296],[120.234077,15.9293],[120.233131,15.92953],[120.231728,15.93343],[120.230728,15.93734],[120.229202,15.94452],[120.228104,15.95404],[120.228127,15.95728],[120.228058,15.95961],[120.22744,15.96426],[120.228149,15.96454],[120.231453,15.96533],[120.231979,15.96541],[120.234108,15.96642],[120.234863,15.96727],[120.235199,15.96789],[120.235817,15.96888],[120.236,15.96911],[120.237137,15.96842],[120.237633,15.96833],[120.239166,15.96844]]]]}},{"type":"Feature","properties":{"ID_0":177,"ISO":"PHL","NAME_0":"Philippines","ID_1":1055,"NAME_1":"Pangasinan","ID_2":105515,"NAME_2":"Bugallon","ID_3":105515008,"NAME_3":"Cayanga","NL_NAME_3":null,"VARNAME_3":null,"TYPE_3":"Barangay","ENGTYPE_3":"Village","PROVINCE":"Pangasinan","REGION":"Region I (Ilocos Region)","id":"barangay-0105515008","name":"Cayanga","barangayCode":"0105515008","population":null,"formattedPop":null,"densityCategory":"No data","vulnerabilityRating":"No data","healthRiskLevel":"No data","areaKm2":11.873939,"centerLat":15.896428,"centerLng":120.167744,"geometrySource":"all_barangay-2.csv detailed WKT","geometryMatchMethod":"unique_official_admin_names","boundaryPointCount":33},"geometry":{"type":"MultiPolygon","coordinates":[[[[120.229874,15.92763],[120.239166,15.9167],[120.237793,15.91589],[120.237259,15.91561],[120.234543,15.91436],[120.232193,15.91329],[120.230949,15.91292],[120.227737,15.91252],[120.22464,15.9121],[120.221733,15.91154],[120.217567,15.91042],[120.214737,15.90889],[120.213608,15.9109],[120.213203,15.91296],[120.214752,15.91445],[120.215889,15.91563],[120.21682,15.91621],[120.218201,15.91598],[120.219673,15.91559],[120.220253,15.91603],[120.22155,15.91688],[120.222313,15.9173],[120.223419,15.91788],[120.224701,15.91855],[120.225327,15.91936],[120.226089,15.92047],[120.226738,15.92131],[120.227737,15.92221],[120.228447,15.92265],[120.229134,15.92316],[120.22921,15.92492],[120.229851,15.92682],[120.229874,15.92763]]]]}},{"type":"Feature","properties":{"ID_0":177,"ISO":"PHL","NAME_0":"Philippines","ID_1":1055,"NAME_1":"Pangasinan","ID_2":105515,"NAME_2":"Bugallon","ID_3":105515009,"NAME_3":"Gueset","NL_NAME_3":null,"VARNAME_3":null,"TYPE_3":"Barangay","ENGTYPE_3":"Village","PROVINCE":"Pangasinan","REGION":"Region I (Ilocos Region)","id":"barangay-0105515009","name":"Gueset","barangayCode":"0105515009","population":null,"formattedPop":null,"densityCategory":"No data","vulnerabilityRating":"No data","healthRiskLevel":"No data","areaKm2":3.483991,"centerLat":15.968947,"centerLng":120.171837,"geometrySource":"all_barangay-2.csv detailed WKT","geometryMatchMethod":"unique_official_admin_names","boundaryPointCount":17},"geometry":{"type":"MultiPolygon","coordinates":[[[[120.196358,15.97437],[120.199142,15.95847],[120.197182,15.95758],[120.182137,15.95396],[120.180557,15.95364],[120.177467,15.95294],[120.174217,15.95257],[120.166107,15.95144],[120.162491,15.95148],[120.16378,15.95786],[120.16449,15.96065],[120.170708,15.96563],[120.175858,15.97008],[120.180077,15.97312],[120.180977,15.97434],[120.195312,15.97943],[120.196358,15.97437]]]]}},{"type":"Feature","properties":{"ID_0":177,"ISO":"PHL","NAME_0":"Philippines","ID_1":1055,"NAME_1":"Pangasinan","ID_2":105515,"NAME_2":"Bugallon","ID_3":105515010,"NAME_3":"Hacienda","NL_NAME_3":null,"VARNAME_3":null,"TYPE_3":"Barangay","ENGTYPE_3":"Village","PROVINCE":"Pangasinan","REGION":"Region I (Ilocos Region)","id":"barangay-0105515010","name":"Hacienda","barangayCode":"0105515010","population":null,"formattedPop":null,"densityCategory":"No data","vulnerabilityRating":"No data","healthRiskLevel":"No data","areaKm2":12.895084,"centerLat":15.914763,"centerLng":120.151545,"geometrySource":"all_barangay-2.csv detailed WKT","geometryMatchMethod":"unique_official_admin_names","boundaryPointCount":58},"geometry":{"type":"MultiPolygon","coordinates":[[[[120.189972,15.92105],[120.189087,15.91567],[120.188728,15.91236],[120.188713,15.9074],[120.188629,15.90265],[120.188904,15.90154],[120.189903,15.89459],[120.188583,15.89378],[120.18737,15.89302],[120.186417,15.89308],[120.185204,15.89389],[120.184143,15.89373],[120.181732,15.89317],[120.18055,15.89273],[120.177979,15.8908],[120.17424,15.88889],[120.169472,15.88756],[120.167053,15.88701],[120.162811,15.88593],[120.159683,15.88486],[120.155762,15.88325],[120.152283,15.88165],[120.148323,15.88025],[120.143227,15.87934],[120.15332,15.91764],[120.154831,15.91701],[120.155533,15.91587],[120.156036,15.91418],[120.157921,15.91297],[120.159828,15.91231],[120.161087,15.91201],[120.162567,15.9108],[120.163467,15.91066],[120.165497,15.91147],[120.165802,15.91178],[120.165962,15.91387],[120.165291,15.91607],[120.165359,15.91775],[120.166687,15.91789],[120.168327,15.91747],[120.169411,15.91853],[120.169678,15.91984],[120.170021,15.92044],[120.171188,15.92062],[120.172318,15.92079],[120.172997,15.92125],[120.174301,15.92139],[120.175217,15.92092],[120.177689,15.92064],[120.179741,15.92145],[120.18145,15.92224],[120.182716,15.92268],[120.184357,15.92263],[120.185547,15.92284],[120.187393,15.92252],[120.188454,15.92252],[120.189827,15.92207],[120.189972,15.92105]]]]}},{"type":"Feature","properties":{"ID_0":177,"ISO":"PHL","NAME_0":"Philippines","ID_1":1055,"NAME_1":"Pangasinan","ID_2":105515,"NAME_2":"Bugallon","ID_3":105515011,"NAME_3":"Laguit Centro","NL_NAME_3":null,"VARNAME_3":null,"TYPE_3":"Barangay","ENGTYPE_3":"Village","PROVINCE":"Pangasinan","REGION":"Region I (Ilocos Region)","id":"barangay-0105515011","name":"Laguit Centro","barangayCode":"0105515011","population":null,"formattedPop":null,"densityCategory":"No data","vulnerabilityRating":"No data","healthRiskLevel":"No data","areaKm2":1.713609,"centerLat":15.950801,"centerLng":120.191581,"geometrySource":"all_barangay-2.csv detailed WKT","geometryMatchMethod":"unique_official_admin_names","boundaryPointCount":50},"geometry":{"type":"MultiPolygon","coordinates":[[[[120.214401,15.95443],[120.214241,15.95327],[120.214638,15.94747],[120.215187,15.94184],[120.214897,15.94049],[120.214027,15.93586],[120.213867,15.93433],[120.213142,15.9319],[120.212143,15.92907],[120.212021,15.92715],[120.211937,15.92646],[120.211563,15.92602],[120.210503,15.92588],[120.210007,15.92657],[120.209862,15.9275],[120.209213,15.92747],[120.207474,15.92673],[120.205963,15.92703],[120.204857,15.92843],[120.204323,15.92912],[120.202858,15.93026],[120.201973,15.92984],[120.200218,15.92926],[120.199806,15.93009],[120.198883,15.93084],[120.198357,15.93151],[120.198082,15.93316],[120.19751,15.93564],[120.196938,15.93704],[120.196716,15.93843],[120.196457,15.93943],[120.195877,15.94038],[120.196152,15.94212],[120.196663,15.94314],[120.196747,15.94389],[120.196289,15.94561],[120.195793,15.94619],[120.19577,15.9473],[120.196426,15.94747],[120.197647,15.94792],[120.197777,15.94848],[120.20063,15.94734],[120.201958,15.94661],[120.204178,15.94601],[120.205467,15.94575],[120.207977,15.94718],[120.209991,15.94878],[120.212517,15.95149],[120.212624,15.95174],[120.214401,15.95443]]]]}},{"type":"Feature","properties":{"ID_0":177,"ISO":"PHL","NAME_0":"Philippines","ID_1":1055,"NAME_1":"Pangasinan","ID_2":105515,"NAME_2":"Bugallon","ID_3":105515012,"NAME_3":"Laguit Padilla","NL_NAME_3":null,"VARNAME_3":null,"TYPE_3":"Barangay","ENGTYPE_3":"Village","PROVINCE":"Pangasinan","REGION":"Region I (Ilocos Region)","id":"barangay-0105515012","name":"Laguit Padilla","barangayCode":"0105515012","population":null,"formattedPop":null,"densityCategory":"No data","vulnerabilityRating":"No data","healthRiskLevel":"No data","areaKm2":40.137583,"centerLat":15.937965,"centerLng":120.143774,"geometrySource":"all_barangay-2.csv detailed WKT","geometryMatchMethod":"unique_official_admin_names","boundaryPointCount":78},"geometry":{"type":"MultiPolygon","coordinates":[[[[120.162491,15.95148],[120.166107,15.95144],[120.174217,15.95257],[120.177467,15.95294],[120.180557,15.95364],[120.182137,15.95396],[120.197182,15.95758],[120.197227,15.95744],[120.197243,15.95574],[120.196739,15.95314],[120.1959,15.95091],[120.195686,15.95],[120.196899,15.94928],[120.197517,15.9489],[120.197777,15.94848],[120.197647,15.94792],[120.196426,15.94747],[120.19577,15.9473],[120.195793,15.94619],[120.196289,15.94561],[120.196747,15.94389],[120.196663,15.94314],[120.196152,15.94212],[120.195877,15.94038],[120.196457,15.93943],[120.196716,15.93843],[120.196938,15.93704],[120.19751,15.93564],[120.198082,15.93316],[120.198357,15.93151],[120.198883,15.93084],[120.199806,15.93009],[120.200218,15.92926],[120.199654,15.9288],[120.197723,15.92824],[120.196053,15.92794],[120.194077,15.92734],[120.193092,15.92595],[120.193443,15.925],[120.193848,15.92349],[120.191887,15.92203],[120.191162,15.92145],[120.190208,15.92071],[120.189972,15.92105],[120.189827,15.92207],[120.188454,15.92252],[120.187393,15.92252],[120.185547,15.92284],[120.184357,15.92263],[120.182716,15.92268],[120.18145,15.92224],[120.179741,15.92145],[120.177689,15.92064],[120.175217,15.92092],[120.174301,15.92139],[120.172997,15.92125],[120.172318,15.92079],[120.171188,15.92062],[120.170021,15.92044],[120.169678,15.91984],[120.169411,15.91853],[120.168327,15.91747],[120.166687,15.91789],[120.165359,15.91775],[120.165291,15.91607],[120.165962,15.91387],[120.165802,15.91178],[120.165497,15.91147],[120.163467,15.91066],[120.162567,15.9108],[120.161087,15.91201],[120.159828,15.91231],[120.157921,15.91297],[120.156036,15.91418],[120.155533,15.91587],[120.154831,15.91701],[120.15332,15.91764],[120.162491,15.95148]]]]}},{"type":"Feature","properties":{"ID_0":177,"ISO":"PHL","NAME_0":"Philippines","ID_1":1055,"NAME_1":"Pangasinan","ID_2":105515,"NAME_2":"Bugallon","ID_3":105515013,"NAME_3":"Magtaking","NL_NAME_3":null,"VARNAME_3":null,"TYPE_3":"Barangay","ENGTYPE_3":"Village","PROVINCE":"Pangasinan","REGION":"Region I (Ilocos Region)","id":"barangay-0105515013","name":"Magtaking","barangayCode":"0105515013","population":null,"formattedPop":null,"densityCategory":"No data","vulnerabilityRating":"No data","healthRiskLevel":"No data","areaKm2":4.174446,"centerLat":15.989231,"centerLng":120.184275,"geometrySource":"all_barangay-2.csv detailed WKT","geometryMatchMethod":"unique_official_admin_names","boundaryPointCount":15},"geometry":{"type":"MultiPolygon","coordinates":[[[[120.198158,15.98596],[120.197968,15.98596],[120.197182,15.98599],[120.196114,15.98602],[120.195061,15.98582],[120.193718,15.98534],[120.195312,15.97943],[120.180977,15.97434],[120.187523,15.98385],[120.192711,15.9921],[120.193626,15.9896],[120.194633,15.98843],[120.195869,15.98801],[120.19725,15.98701],[120.198158,15.98596]]]]}},{"type":"Feature","properties":{"ID_0":177,"ISO":"PHL","NAME_0":"Philippines","ID_1":1055,"NAME_1":"Pangasinan","ID_2":105515,"NAME_2":"Bugallon","ID_3":105515014,"NAME_3":"Pangascasan","NL_NAME_3":null,"VARNAME_3":null,"TYPE_3":"Barangay","ENGTYPE_3":"Village","PROVINCE":"Pangasinan","REGION":"Region I (Ilocos Region)","id":"barangay-0105515014","name":"Pangascasan","barangayCode":"0105515014","population":null,"formattedPop":null,"densityCategory":"No data","vulnerabilityRating":"No data","healthRiskLevel":"No data","areaKm2":5.120857,"centerLat":15.931915,"centerLng":120.253155,"geometrySource":"all_barangay-2.csv detailed WKT","geometryMatchMethod":"unique_official_admin_names","boundaryPointCount":40},"geometry":{"type":"MultiPolygon","coordinates":[[[[120.250099,15.93551],[120.252602,15.93501],[120.25399,15.93492],[120.256798,15.93565],[120.258377,15.93585],[120.26046,15.93585],[120.263634,15.93633],[120.266617,15.93696],[120.26841,15.93695],[120.26947,15.93644],[120.272163,15.93494],[120.273117,15.93473],[120.27462,15.93384],[120.275749,15.93251],[120.276253,15.93136],[120.276619,15.93],[120.276733,15.92842],[120.276672,15.92715],[120.275803,15.92552],[120.274063,15.9229],[120.272377,15.9213],[120.270157,15.91965],[120.268494,15.91839],[120.266663,15.91715],[120.265778,15.91653],[120.26413,15.91477],[120.262672,15.91371],[120.261101,15.91306],[120.260117,15.91292],[120.256767,15.91261],[120.254646,15.91224],[120.253387,15.91144],[120.253113,15.91108],[120.250023,15.91501],[120.250137,15.91748],[120.250214,15.92144],[120.249702,15.92409],[120.248978,15.92755],[120.248581,15.93163],[120.250099,15.93551]]]]}},{"type":"Feature","properties":{"ID_0":177,"ISO":"PHL","NAME_0":"Philippines","ID_1":1055,"NAME_1":"Pangasinan","ID_2":105515,"NAME_2":"Bugallon","ID_3":105515015,"NAME_3":"Pantal","NL_NAME_3":null,"VARNAME_3":null,"TYPE_3":"Barangay","ENGTYPE_3":"Village","PROVINCE":"Pangasinan","REGION":"Region I (Ilocos Region)","id":"barangay-0105515015","name":"Pantal","barangayCode":"0105515015","population":null,"formattedPop":null,"densityCategory":"No data","vulnerabilityRating":"No data","healthRiskLevel":"No data","areaKm2":1.949015,"centerLat":15.994497,"centerLng":120.208899,"geometrySource":"all_barangay-2.csv detailed WKT","geometryMatchMethod":"unique_official_admin_names","boundaryPointCount":30},"geometry":{"type":"MultiPolygon","coordinates":[[[[120.222137,16.004169],[120.222443,16.003241],[120.223686,16.00038],[120.224487,15.99854],[120.224739,15.99722],[120.22435,15.99574],[120.223831,15.99437],[120.221977,15.99272],[120.219833,15.99136],[120.218781,15.99062],[120.216583,15.98813],[120.215118,15.98537],[120.214104,15.98262],[120.214302,15.97999],[120.208977,15.98713],[120.204643,15.99403],[120.205772,15.99378],[120.206749,15.99379],[120.209053,15.99397],[120.210419,15.99433],[120.212097,15.99506],[120.212593,15.99616],[120.212158,15.99854],[120.211807,16.000719],[120.212593,16.00316],[120.21463,16.00547],[120.215637,16.006269],[120.218536,16.00696],[120.219681,16.00639],[120.222137,16.004169]]]]}},{"type":"Feature","properties":{"ID_0":177,"ISO":"PHL","NAME_0":"Philippines","ID_1":1055,"NAME_1":"Pangasinan","ID_2":105515,"NAME_2":"Bugallon","ID_3":105515016,"NAME_3":"Poblacion","NL_NAME_3":null,"VARNAME_3":null,"TYPE_3":"Barangay","ENGTYPE_3":"Village","PROVINCE":"Pangasinan","REGION":"Region I (Ilocos Region)","id":"barangay-0105515016","name":"Poblacion","barangayCode":"0105515016","population":null,"formattedPop":null,"densityCategory":"No data","vulnerabilityRating":"No data","healthRiskLevel":"No data","areaKm2":7.118747,"centerLat":15.953916,"centerLng":120.210659,"geometrySource":"all_barangay-2.csv detailed WKT","geometryMatchMethod":"unique_official_admin_names","boundaryPointCount":14},"geometry":{"type":"MultiPolygon","coordinates":[[[[120.214241,15.95327],[120.228104,15.95404],[120.229202,15.94452],[120.226097,15.94415],[120.225739,15.94413],[120.224518,15.94394],[120.22261,15.94339],[120.221123,15.94278],[120.219482,15.94221],[120.217239,15.94126],[120.214897,15.94049],[120.215187,15.94184],[120.214638,15.94747],[120.214241,15.95327]]]]}},{"type":"Feature","properties":{"ID_0":177,"ISO":"PHL","NAME_0":"Philippines","ID_1":1055,"NAME_1":"Pangasinan","ID_2":105515,"NAME_2":"Bugallon","ID_3":105515017,"NAME_3":"Polong","NL_NAME_3":null,"VARNAME_3":null,"TYPE_3":"Barangay","ENGTYPE_3":"Village","PROVINCE":"Pangasinan","REGION":"Region I (Ilocos Region)","id":"barangay-0105515017","name":"Polong","barangayCode":"0105515017","population":null,"formattedPop":null,"densityCategory":"No data","vulnerabilityRating":"No data","healthRiskLevel":"No data","areaKm2":1.562761,"centerLat":15.975898,"centerLng":120.199598,"geometrySource":"all_barangay-2.csv detailed WKT","geometryMatchMethod":"unique_official_admin_names","boundaryPointCount":15},"geometry":{"type":"MultiPolygon","coordinates":[[[[120.214302,15.97999],[120.215332,15.97778],[120.2174,15.97592],[120.21907,15.97501],[120.219727,15.97419],[120.219543,15.97319],[120.2183,15.97158],[120.216057,15.97049],[120.214783,15.97023],[120.213943,15.97014],[120.213997,15.96255],[120.199142,15.95847],[120.196358,15.97437],[120.20295,15.97614],[120.214302,15.97999]]]]}},{"type":"Feature","properties":{"ID_0":177,"ISO":"PHL","NAME_0":"Philippines","ID_1":1055,"NAME_1":"Pangasinan","ID_2":105515,"NAME_2":"Bugallon","ID_3":105515018,"NAME_3":"Portic","NL_NAME_3":null,"VARNAME_3":null,"TYPE_3":"Barangay","ENGTYPE_3":"Village","PROVINCE":"Pangasinan","REGION":"Region I (Ilocos Region)","id":"barangay-0105515018","name":"Portic","barangayCode":"0105515018","population":null,"formattedPop":null,"densityCategory":"No data","vulnerabilityRating":"No data","healthRiskLevel":"No data","areaKm2":19.660816,"centerLat":15.906758,"centerLng":120.164757,"geometrySource":"all_barangay-2.csv detailed WKT","geometryMatchMethod":"unique_official_admin_names","boundaryPointCount":48},"geometry":{"type":"MultiPolygon","coordinates":[[[[120.211563,15.92602],[120.211937,15.92298],[120.212013,15.92092],[120.212784,15.91979],[120.213097,15.91842],[120.212639,15.91622],[120.212883,15.91359],[120.213203,15.91296],[120.213608,15.9109],[120.214737,15.90889],[120.200432,15.90017],[120.199677,15.89957],[120.198738,15.89841],[120.196762,15.8978],[120.194748,15.89731],[120.193428,15.8965],[120.193138,15.89518],[120.192261,15.89411],[120.190887,15.8945],[120.189903,15.89459],[120.188904,15.90154],[120.188629,15.90265],[120.188713,15.9074],[120.188728,15.91236],[120.189087,15.91567],[120.189972,15.92105],[120.190208,15.92071],[120.191162,15.92145],[120.191887,15.92203],[120.193848,15.92349],[120.193443,15.925],[120.193092,15.92595],[120.194077,15.92734],[120.196053,15.92794],[120.197723,15.92824],[120.199654,15.9288],[120.200218,15.92926],[120.201973,15.92984],[120.202858,15.93026],[120.204323,15.92912],[120.204857,15.92843],[120.205963,15.92703],[120.207474,15.92673],[120.209213,15.92747],[120.209862,15.9275],[120.210007,15.92657],[120.210503,15.92588],[120.211563,15.92602]]]]}},{"type":"Feature","properties":{"ID_0":177,"ISO":"PHL","NAME_0":"Philippines","ID_1":1055,"NAME_1":"Pangasinan","ID_2":105515,"NAME_2":"Bugallon","ID_3":105515019,"NAME_3":"Salasa","NL_NAME_3":null,"VARNAME_3":null,"TYPE_3":"Barangay","ENGTYPE_3":"Village","PROVINCE":"Pangasinan","REGION":"Region I (Ilocos Region)","id":"barangay-0105515019","name":"Salasa","barangayCode":"0105515019","population":null,"formattedPop":null,"densityCategory":"No data","vulnerabilityRating":"No data","healthRiskLevel":"No data","areaKm2":2.189345,"centerLat":15.975072,"centerLng":120.221727,"geometrySource":"all_barangay-2.csv detailed WKT","geometryMatchMethod":"unique_official_admin_names","boundaryPointCount":19},"geometry":{"type":"MultiPolygon","coordinates":[[[[120.22744,15.96426],[120.228058,15.95961],[120.228127,15.95728],[120.228104,15.95404],[120.214241,15.95327],[120.214401,15.95443],[120.215179,15.95629],[120.215767,15.95735],[120.216537,15.95805],[120.217644,15.95851],[120.218712,15.95825],[120.219856,15.95822],[120.22023,15.95873],[120.221359,15.96002],[120.222511,15.96105],[120.22332,15.962],[120.224823,15.96335],[120.22599,15.96377],[120.22744,15.96426]]]]}},{"type":"Feature","properties":{"ID_0":177,"ISO":"PHL","NAME_0":"Philippines","ID_1":1055,"NAME_1":"Pangasinan","ID_2":105515,"NAME_2":"Bugallon","ID_3":105515020,"NAME_3":"Salomague Norte","NL_NAME_3":null,"VARNAME_3":null,"TYPE_3":"Barangay","ENGTYPE_3":"Village","PROVINCE":"Pangasinan","REGION":"Region I (Ilocos Region)","id":"barangay-0105515020","name":"Salomague Norte","barangayCode":"0105515020","population":null,"formattedPop":null,"densityCategory":"No data","vulnerabilityRating":"No data","healthRiskLevel":"No data","areaKm2":11.168627,"centerLat":15.894071,"centerLng":120.180878,"geometrySource":"all_barangay-2.csv detailed WKT","geometryMatchMethod":"unique_official_admin_names","boundaryPointCount":63},"geometry":{"type":"MultiPolygon","coordinates":[[[[120.250214,15.92144],[120.250137,15.91748],[120.250023,15.91501],[120.253113,15.91108],[120.248947,15.91166],[120.245918,15.91108],[120.244957,15.9108],[120.242523,15.91041],[120.241577,15.91062],[120.241158,15.91075],[120.239761,15.91035],[120.239143,15.91065],[120.237579,15.91035],[120.237396,15.91018],[120.236,15.90879],[120.233627,15.9074],[120.135208,15.84868],[120.137711,15.85822],[120.143227,15.87934],[120.148323,15.88025],[120.152283,15.88165],[120.155762,15.88325],[120.159683,15.88486],[120.162811,15.88593],[120.167053,15.88701],[120.169472,15.88756],[120.17424,15.88889],[120.177979,15.8908],[120.18055,15.89273],[120.181732,15.89317],[120.184143,15.89373],[120.185204,15.89389],[120.186417,15.89308],[120.18737,15.89302],[120.188583,15.89378],[120.189903,15.89459],[120.190887,15.8945],[120.192261,15.89411],[120.193138,15.89518],[120.193428,15.8965],[120.194748,15.89731],[120.196762,15.8978],[120.198738,15.89841],[120.199677,15.89957],[120.200432,15.90017],[120.214737,15.90889],[120.217567,15.91042],[120.221733,15.91154],[120.22464,15.9121],[120.227737,15.91252],[120.230949,15.91292],[120.232193,15.91329],[120.234543,15.91436],[120.237259,15.91561],[120.237793,15.91589],[120.239166,15.9167],[120.23983,15.91726],[120.242058,15.91875],[120.244522,15.92],[120.24688,15.9208],[120.248596,15.92143],[120.249992,15.92186],[120.250214,15.92144]]]]}},{"type":"Feature","properties":{"ID_0":177,"ISO":"PHL","NAME_0":"Philippines","ID_1":1055,"NAME_1":"Pangasinan","ID_2":105515,"NAME_2":"Bugallon","ID_3":105515021,"NAME_3":"Salomague Sur","NL_NAME_3":null,"VARNAME_3":null,"TYPE_3":"Barangay","ENGTYPE_3":"Village","PROVINCE":"Pangasinan","REGION":"Region I (Ilocos Region)","id":"barangay-0105515021","name":"Salomague Sur","barangayCode":"0105515021","population":null,"formattedPop":null,"densityCategory":"No data","vulnerabilityRating":"No data","healthRiskLevel":"No data","areaKm2":32.817724,"centerLat":15.872254,"centerLng":120.17032,"geometrySource":"all_barangay-2.csv detailed WKT","geometryMatchMethod":"unique_official_admin_names","boundaryPointCount":139},"geometry":{"type":"MultiPolygon","coordinates":[[[[120.253113,15.91108],[120.253418,15.90911],[120.254257,15.90811],[120.253342,15.90718],[120.2528,15.9066],[120.251587,15.90585],[120.250076,15.90551],[120.249657,15.90579],[120.248451,15.90672],[120.246834,15.9059],[120.246101,15.9052],[120.244781,15.90471],[120.243538,15.9038],[120.242699,15.90294],[120.241432,15.90173],[120.239754,15.90031],[120.238358,15.89984],[120.236572,15.89909],[120.235603,15.89835],[120.234123,15.89747],[120.233063,15.89626],[120.232452,15.89573],[120.230843,15.8957],[120.229027,15.89553],[120.227364,15.89618],[120.226433,15.89608],[120.225372,15.89585],[120.224564,15.89589],[120.223824,15.89485],[120.223282,15.89423],[120.222214,15.89353],[120.221268,15.89258],[120.220306,15.89182],[120.21936,15.89116],[120.217506,15.89058],[120.217079,15.89026],[120.215698,15.88933],[120.214996,15.88857],[120.214317,15.88773],[120.213173,15.88639],[120.212433,15.88539],[120.211647,15.88396],[120.209953,15.88203],[120.209312,15.8812],[120.207298,15.87978],[120.206207,15.87888],[120.204369,15.87785],[120.202911,15.87721],[120.202309,15.87625],[120.201782,15.87491],[120.202026,15.87251],[120.201637,15.87191],[120.20063,15.87116],[120.199783,15.8696],[120.199806,15.86883],[120.198776,15.86748],[120.198151,15.86622],[120.197281,15.86522],[120.197166,15.86452],[120.196373,15.86344],[120.195518,15.86258],[120.195892,15.86221],[120.196457,15.86116],[120.196152,15.86035],[120.195808,15.85972],[120.194717,15.8589],[120.193764,15.85831],[120.193024,15.8582],[120.192284,15.85743],[120.19165,15.8561],[120.191162,15.85468],[120.190987,15.8537],[120.191803,15.85184],[120.191742,15.85123],[120.191811,15.85044],[120.191933,15.84948],[120.19162,15.84892],[120.190063,15.84748],[120.189636,15.84647],[120.18924,15.84536],[120.188408,15.84412],[120.187889,15.84293],[120.186394,15.84162],[120.185257,15.84018],[120.185242,15.83904],[120.185638,15.83715],[120.185966,15.83594],[120.185577,15.8345],[120.185204,15.83307],[120.18576,15.83103],[120.185806,15.83017],[120.185806,15.8273],[120.185913,15.82488],[120.186096,15.82216],[120.186043,15.82023],[120.185638,15.81711],[120.185417,15.81566],[120.184853,15.81296],[120.184067,15.81129],[120.181953,15.80923],[120.179329,15.80766],[120.176628,15.80603],[120.171013,15.80259],[120.169701,15.80126],[120.16507,15.79856],[120.165047,15.79877],[120.164658,15.80187],[120.164223,15.80429],[120.163567,15.80773],[120.162483,15.8114],[120.161949,15.81259],[120.160248,15.81505],[120.158203,15.81723],[120.155128,15.81944],[120.15313,15.82111],[120.151321,15.82234],[120.148743,15.82396],[120.146553,15.82491],[120.142998,15.82623],[120.140404,15.82671],[120.136047,15.82683],[120.134903,15.82699],[120.133049,15.82689],[120.132187,15.82678],[120.131187,15.82663],[120.135208,15.84868],[120.233627,15.9074],[120.236,15.90879],[120.237396,15.91018],[120.237579,15.91035],[120.239143,15.91065],[120.239761,15.91035],[120.241158,15.91075],[120.241577,15.91062],[120.242523,15.91041],[120.244957,15.9108],[120.245918,15.91108],[120.248947,15.91166],[120.253113,15.91108]]]]}},{"type":"Feature","properties":{"ID_0":177,"ISO":"PHL","NAME_0":"Philippines","ID_1":1055,"NAME_1":"Pangasinan","ID_2":105515,"NAME_2":"Bugallon","ID_3":105515022,"NAME_3":"Samat","NL_NAME_3":null,"VARNAME_3":null,"TYPE_3":"Barangay","ENGTYPE_3":"Village","PROVINCE":"Pangasinan","REGION":"Region I (Ilocos Region)","id":"barangay-0105515022","name":"Samat","barangayCode":"0105515022","population":null,"formattedPop":null,"densityCategory":"No data","vulnerabilityRating":"No data","healthRiskLevel":"No data","areaKm2":0.696787,"centerLat":15.983241,"centerLng":120.196207,"geometrySource":"all_barangay-2.csv detailed WKT","geometryMatchMethod":"unique_official_admin_names","boundaryPointCount":15},"geometry":{"type":"MultiPolygon","coordinates":[[[[120.208977,15.98713],[120.214302,15.97999],[120.20295,15.97614],[120.201897,15.9794],[120.201187,15.98275],[120.199623,15.98541],[120.201462,15.98463],[120.202377,15.98456],[120.203522,15.98512],[120.204803,15.98591],[120.205963,15.98619],[120.207443,15.98611],[120.208389,15.98669],[120.208611,15.98698],[120.208977,15.98713]]]]}},{"type":"Feature","properties":{"ID_0":177,"ISO":"PHL","NAME_0":"Philippines","ID_1":1055,"NAME_1":"Pangasinan","ID_2":105515,"NAME_2":"Bugallon","ID_3":105515023,"NAME_3":"San Francisco","NL_NAME_3":null,"VARNAME_3":null,"TYPE_3":"Barangay","ENGTYPE_3":"Village","PROVINCE":"Pangasinan","REGION":"Region I (Ilocos Region)","id":"barangay-0105515023","name":"San Francisco","barangayCode":"0105515023","population":null,"formattedPop":null,"densityCategory":"No data","vulnerabilityRating":"No data","healthRiskLevel":"No data","areaKm2":2.90469,"centerLat":15.96517,"centerLng":120.192103,"geometrySource":"all_barangay-2.csv detailed WKT","geometryMatchMethod":"unique_official_admin_names","boundaryPointCount":21},"geometry":{"type":"MultiPolygon","coordinates":[[[[120.213997,15.96255],[120.214401,15.95443],[120.212624,15.95174],[120.212517,15.95149],[120.209991,15.94878],[120.207977,15.94718],[120.205467,15.94575],[120.204178,15.94601],[120.201958,15.94661],[120.20063,15.94734],[120.197777,15.94848],[120.197517,15.9489],[120.196899,15.94928],[120.195686,15.95],[120.1959,15.95091],[120.196739,15.95314],[120.197243,15.95574],[120.197227,15.95744],[120.197182,15.95758],[120.199142,15.95847],[120.213997,15.96255]]]]}},{"type":"Feature","properties":{"ID_0":177,"ISO":"PHL","NAME_0":"Philippines","ID_1":1055,"NAME_1":"Pangasinan","ID_2":105515,"NAME_2":"Bugallon","ID_3":105515024,"NAME_3":"Umanday","NL_NAME_3":null,"VARNAME_3":null,"TYPE_3":"Barangay","ENGTYPE_3":"Village","PROVINCE":"Pangasinan","REGION":"Region I (Ilocos Region)","id":"barangay-0105515024","name":"Umanday","barangayCode":"0105515024","population":null,"formattedPop":null,"densityCategory":"No data","vulnerabilityRating":"No data","healthRiskLevel":"No data","areaKm2":4.156249,"centerLat":15.944624,"centerLng":120.227616,"geometrySource":"all_barangay-2.csv detailed WKT","geometryMatchMethod":"unique_official_admin_names","boundaryPointCount":49},"geometry":{"type":"MultiPolygon","coordinates":[[[[120.229202,15.94452],[120.230728,15.93734],[120.231728,15.93343],[120.233131,15.92953],[120.232948,15.9295],[120.231644,15.92899],[120.230453,15.92844],[120.229874,15.92763],[120.229851,15.92682],[120.22921,15.92492],[120.229134,15.92316],[120.228447,15.92265],[120.227737,15.92221],[120.226738,15.92131],[120.226089,15.92047],[120.225327,15.91936],[120.224701,15.91855],[120.223419,15.91788],[120.222313,15.9173],[120.22155,15.91688],[120.220253,15.91603],[120.219673,15.91559],[120.218201,15.91598],[120.21682,15.91621],[120.215889,15.91563],[120.214752,15.91445],[120.213203,15.91296],[120.212883,15.91359],[120.212639,15.91622],[120.213097,15.91842],[120.212784,15.91979],[120.212013,15.92092],[120.211937,15.92298],[120.211563,15.92602],[120.211937,15.92646],[120.212021,15.92715],[120.212143,15.92907],[120.213142,15.9319],[120.213867,15.93433],[120.214027,15.93586],[120.214897,15.94049],[120.217239,15.94126],[120.219482,15.94221],[120.221123,15.94278],[120.22261,15.94339],[120.224518,15.94394],[120.225739,15.94413],[120.226097,15.94415],[120.229202,15.94452]]]]}}]}
