{"type":"FeatureCollection","features":[{"type":"Feature","properties":{"ID_0":177,"ISO":"PHL","NAME_0":"Philippines","ID_1":12047,"NAME_1":"Cotabato (North Cotabato)","ID_2":1204704,"NAME_2":"City of Kidapawan (Capital)","ID_3":1204704001,"NAME_3":"Amas","NL_NAME_3":null,"VARNAME_3":null,"TYPE_3":"Barangay","ENGTYPE_3":"Village","PROVINCE":"Cotabato (North Cotabato)","REGION":"Region XII (Soccsksargen)","id":"barangay-1204704001","name":"Amas","barangayCode":"1204704001","population":null,"formattedPop":null,"densityCategory":"No data","vulnerabilityRating":"No data","healthRiskLevel":"No data","areaKm2":14.68752,"centerLat":7.057136,"centerLng":124.973944,"geometrySource":"all_barangay-2.csv detailed WKT","geometryMatchMethod":"psgc_coordinate_bridge","boundaryPointCount":13},"geometry":{"type":"MultiPolygon","coordinates":[[[[125.008842,7.06217],[125.006973,7.0576],[125.004112,7.05099],[125.002213,7.04704],[124.989052,7.04794],[124.977348,7.04921],[124.977608,7.05588],[124.978104,7.05839],[124.981956,7.05502],[124.983971,7.0622],[124.985924,7.06867],[124.993118,7.06791],[125.008842,7.06217]]]]}},{"type":"Feature","properties":{"ID_0":177,"ISO":"PHL","NAME_0":"Philippines","ID_1":12047,"NAME_1":"Cotabato (North Cotabato)","ID_2":1204704,"NAME_2":"City of Kidapawan (Capital)","ID_3":1204704002,"NAME_3":"Amazion","NL_NAME_3":null,"VARNAME_3":null,"TYPE_3":"Barangay","ENGTYPE_3":"Village","PROVINCE":"Cotabato (North Cotabato)","REGION":"Region XII (Soccsksargen)","id":"barangay-1204704002","name":"Amazion","barangayCode":"1204704002","population":null,"formattedPop":null,"densityCategory":"No data","vulnerabilityRating":"No data","healthRiskLevel":"No data","areaKm2":5.848461,"centerLat":7.023356,"centerLng":124.995548,"geometrySource":"all_barangay-2.csv detailed WKT","geometryMatchMethod":"psgc_coordinate_bridge","boundaryPointCount":17},"geometry":{"type":"MultiPolygon","coordinates":[[[[125.021317,7.03824],[125.021881,7.03502],[125.022552,7.03225],[125.022636,7.0296],[125.011787,7.02479],[125.004883,7.0218],[124.997162,7.01855],[124.996948,7.0187],[124.99614,7.02202],[124.99575,7.02393],[124.995399,7.02674],[124.99585,7.03023],[124.996353,7.03328],[124.99823,7.03758],[125.000229,7.03732],[125.009811,7.03756],[125.021317,7.03824]]]]}},{"type":"Feature","properties":{"ID_0":177,"ISO":"PHL","NAME_0":"Philippines","ID_1":12047,"NAME_1":"Cotabato (North Cotabato)","ID_2":1204704,"NAME_2":"City of Kidapawan (Capital)","ID_3":1204704003,"NAME_3":"Balabag","NL_NAME_3":null,"VARNAME_3":null,"TYPE_3":"Barangay","ENGTYPE_3":"Village","PROVINCE":"Cotabato (North Cotabato)","REGION":"Region XII (Soccsksargen)","id":"barangay-1204704003","name":"Balabag","barangayCode":"1204704003","population":null,"formattedPop":null,"densityCategory":"No data","vulnerabilityRating":"No data","healthRiskLevel":"No data","areaKm2":6.679469,"centerLat":7.022592,"centerLng":125.189384,"geometrySource":"all_barangay-2.csv detailed WKT","geometryMatchMethod":"psgc_coordinate_bridge","boundaryPointCount":17},"geometry":{"type":"MultiPolygon","coordinates":[[[[125.176041,7.02624],[125.178673,7.02526],[125.187813,7.02105],[125.193443,7.01996],[125.197983,7.01497],[125.204323,7.01337],[125.211769,7.01039],[125.2229,7.00578],[125.221031,6.99915],[125.210739,6.99908],[125.193779,7.00467],[125.184143,7.00924],[125.171593,7.01203],[125.167824,7.01414],[125.170624,7.01546],[125.173859,7.02122],[125.176041,7.02624]]]]}},{"type":"Feature","properties":{"ID_0":177,"ISO":"PHL","NAME_0":"Philippines","ID_1":12047,"NAME_1":"Cotabato (North Cotabato)","ID_2":1204704,"NAME_2":"City of Kidapawan (Capital)","ID_3":1204704004,"NAME_3":"Balindog","NL_NAME_3":null,"VARNAME_3":null,"TYPE_3":"Barangay","ENGTYPE_3":"Village","PROVINCE":"Cotabato (North Cotabato)","REGION":"Region XII (Soccsksargen)","id":"barangay-1204704004","name":"Balindog","barangayCode":"1204704004","population":null,"formattedPop":null,"densityCategory":"No data","vulnerabilityRating":"No data","healthRiskLevel":"No data","areaKm2":5.392022,"centerLat":7.024514,"centerLng":125.060383,"geometrySource":"all_barangay-2.csv detailed WKT","geometryMatchMethod":"psgc_coordinate_bridge","boundaryPointCount":34},"geometry":{"type":"MultiPolygon","coordinates":[[[[125.048737,7.03995],[125.049889,7.03879],[125.05246,7.03853],[125.053543,7.0382],[125.055557,7.03902],[125.05629,7.03892],[125.05806,7.03908],[125.060059,7.03898],[125.060753,7.03858],[125.063393,7.04021],[125.064934,7.04045],[125.066803,7.03999],[125.06604,7.03699],[125.064232,7.03125],[125.063828,7.02884],[125.062607,7.02353],[125.062492,7.02004],[125.061188,7.01128],[125.058342,7.0057],[125.056107,7.00439],[125.05336,7.00214],[125.050987,6.99959],[125.048973,6.99747],[125.048737,7.00043],[125.048622,7.00399],[125.048462,7.00764],[125.048332,7.01074],[125.048172,7.01461],[125.048126,7.01942],[125.049004,7.02504],[125.049187,7.03331],[125.049049,7.0333],[125.049187,7.03744],[125.048737,7.03995]]]]}},{"type":"Feature","properties":{"ID_0":177,"ISO":"PHL","NAME_0":"Philippines","ID_1":12047,"NAME_1":"Cotabato (North Cotabato)","ID_2":1204704,"NAME_2":"City of Kidapawan (Capital)","ID_3":1204704005,"NAME_3":"Benoligan","NL_NAME_3":null,"VARNAME_3":null,"TYPE_3":"Barangay","ENGTYPE_3":"Village","PROVINCE":"Cotabato (North Cotabato)","REGION":"Region XII (Soccsksargen)","id":"barangay-1204704005","name":"Benoligan","barangayCode":"1204704005","population":null,"formattedPop":null,"densityCategory":"No data","vulnerabilityRating":"No data","healthRiskLevel":"No data","areaKm2":9.625688,"centerLat":7.03866,"centerLng":125.011241,"geometrySource":"all_barangay-2.csv detailed WKT","geometryMatchMethod":"psgc_coordinate_bridge","boundaryPointCount":21},"geometry":{"type":"MultiPolygon","coordinates":[[[[125.029007,7.05474],[125.029427,7.0537],[125.028748,7.05204],[125.027138,7.05082],[125.025108,7.04919],[125.025223,7.04781],[125.022408,7.0467],[125.021271,7.04399],[125.021828,7.04052],[125.021317,7.03824],[125.009811,7.03756],[125.000229,7.03732],[124.99823,7.03758],[125.000893,7.04431],[125.002213,7.04704],[125.004112,7.05099],[125.006973,7.0576],[125.008842,7.06217],[125.011551,7.06113],[125.018173,7.05841],[125.029007,7.05474]]]]}},{"type":"Feature","properties":{"ID_0":177,"ISO":"PHL","NAME_0":"Philippines","ID_1":12047,"NAME_1":"Cotabato (North Cotabato)","ID_2":1204704,"NAME_2":"City of Kidapawan (Capital)","ID_3":1204704006,"NAME_3":"Berada","NL_NAME_3":null,"VARNAME_3":null,"TYPE_3":"Barangay","ENGTYPE_3":"Village","PROVINCE":"Cotabato (North Cotabato)","REGION":"Region XII (Soccsksargen)","id":"barangay-1204704006","name":"Berada","barangayCode":"1204704006","population":null,"formattedPop":null,"densityCategory":"No data","vulnerabilityRating":"No data","healthRiskLevel":"No data","areaKm2":5.905188,"centerLat":7.036213,"centerLng":125.134481,"geometrySource":"all_barangay-2.csv detailed WKT","geometryMatchMethod":"psgc_coordinate_bridge","boundaryPointCount":29},"geometry":{"type":"MultiPolygon","coordinates":[[[[125.149399,7.04106],[125.145638,7.03263],[125.143913,7.02708],[125.139351,7.02837],[125.135002,7.02956],[125.13179,7.03048],[125.129097,7.02992],[125.125687,7.03052],[125.123352,7.03077],[125.121552,7.03176],[125.118622,7.03127],[125.115707,7.03166],[125.113533,7.03434],[125.112511,7.03459],[125.114967,7.04136],[125.117882,7.04607],[125.119431,7.05126],[125.11985,7.05163],[125.12397,7.05201],[125.125183,7.05097],[125.129959,7.04946],[125.130112,7.04859],[125.133873,7.04878],[125.136139,7.04655],[125.136703,7.0443],[125.139343,7.04431],[125.143013,7.04308],[125.145767,7.0426],[125.149399,7.04106]]]]}},{"type":"Feature","properties":{"ID_0":177,"ISO":"PHL","NAME_0":"Philippines","ID_1":12047,"NAME_1":"Cotabato (North Cotabato)","ID_2":1204704,"NAME_2":"City of Kidapawan (Capital)","ID_3":1204704007,"NAME_3":"Gayola","NL_NAME_3":null,"VARNAME_3":null,"TYPE_3":"Barangay","ENGTYPE_3":"Village","PROVINCE":"Cotabato (North Cotabato)","REGION":"Region XII (Soccsksargen)","id":"barangay-1204704007","name":"Gayola","barangayCode":"1204704007","population":null,"formattedPop":null,"densityCategory":"No data","vulnerabilityRating":"No data","healthRiskLevel":"No data","areaKm2":4.82919,"centerLat":7.090003,"centerLng":125.006952,"geometrySource":"all_barangay-2.csv detailed WKT","geometryMatchMethod":"psgc_coordinate_bridge","boundaryPointCount":14},"geometry":{"type":"MultiPolygon","coordinates":[[[[125.017036,7.10355],[125.019508,7.10274],[125.024063,7.1019],[125.028877,7.10034],[125.020943,7.09184],[125.012123,7.08274],[125.00473,7.08482],[125.000458,7.08574],[125.0,7.08618],[125.000488,7.09634],[125.001427,7.10362],[125.001556,7.10545],[125.008163,7.10554],[125.017036,7.10355]]]]}},{"type":"Feature","properties":{"ID_0":177,"ISO":"PHL","NAME_0":"Philippines","ID_1":12047,"NAME_1":"Cotabato (North Cotabato)","ID_2":1204704,"NAME_2":"City of Kidapawan (Capital)","ID_3":1204704008,"NAME_3":"Ginatilan","NL_NAME_3":null,"VARNAME_3":null,"TYPE_3":"Barangay","ENGTYPE_3":"Village","PROVINCE":"Cotabato (North Cotabato)","REGION":"Region XII (Soccsksargen)","id":"barangay-1204704008","name":"Ginatilan","barangayCode":"1204704008","population":null,"formattedPop":null,"densityCategory":"No data","vulnerabilityRating":"No data","healthRiskLevel":"No data","areaKm2":4.460009,"centerLat":7.049902,"centerLng":125.175246,"geometrySource":"all_barangay-2.csv detailed WKT","geometryMatchMethod":"psgc_coordinate_bridge","boundaryPointCount":28},"geometry":{"type":"MultiPolygon","coordinates":[[[[125.156357,7.05616],[125.157799,7.05537],[125.162308,7.05409],[125.167221,7.05362],[125.172256,7.0513],[125.176758,7.04975],[125.180428,7.04928],[125.184937,7.0499],[125.19384,7.05076],[125.199631,7.04881],[125.203789,7.04626],[125.208511,7.0436],[125.213676,7.04093],[125.217949,7.0362],[125.220497,7.03123],[125.223,7.02533],[125.23069,7.01828],[125.22789,7.01492],[125.205681,7.0242],[125.198837,7.02611],[125.192833,7.02946],[125.189087,7.03265],[125.181442,7.03693],[125.17643,7.04113],[125.169434,7.04407],[125.165932,7.05031],[125.159599,7.05272],[125.156357,7.05616]]]]}},{"type":"Feature","properties":{"ID_0":177,"ISO":"PHL","NAME_0":"Philippines","ID_1":12047,"NAME_1":"Cotabato (North Cotabato)","ID_2":1204704,"NAME_2":"City of Kidapawan (Capital)","ID_3":1204704009,"NAME_3":"Ilomavis","NL_NAME_3":null,"VARNAME_3":null,"TYPE_3":"Barangay","ENGTYPE_3":"Village","PROVINCE":"Cotabato (North Cotabato)","REGION":"Region XII (Soccsksargen)","id":"barangay-1204704009","name":"Ilomavis","barangayCode":"1204704009","population":null,"formattedPop":null,"densityCategory":"No data","vulnerabilityRating":"No data","healthRiskLevel":"No data","areaKm2":10.19303,"centerLat":7.033799,"centerLng":125.20453,"geometrySource":"all_barangay-2.csv detailed WKT","geometryMatchMethod":"psgc_coordinate_bridge","boundaryPointCount":17},"geometry":{"type":"MultiPolygon","coordinates":[[[[125.181442,7.03693],[125.189087,7.03265],[125.192833,7.02946],[125.198837,7.02611],[125.205681,7.0242],[125.22789,7.01492],[125.2229,7.00578],[125.211769,7.01039],[125.204323,7.01337],[125.197983,7.01497],[125.193443,7.01996],[125.187813,7.02105],[125.178673,7.02526],[125.176041,7.02624],[125.177391,7.02837],[125.179153,7.03215],[125.181442,7.03693]]]]}},{"type":"Feature","properties":{"ID_0":177,"ISO":"PHL","NAME_0":"Philippines","ID_1":12047,"NAME_1":"Cotabato (North Cotabato)","ID_2":1204704,"NAME_2":"City of Kidapawan (Capital)","ID_3":1204704010,"NAME_3":"Indangan","NL_NAME_3":null,"VARNAME_3":null,"TYPE_3":"Barangay","ENGTYPE_3":"Village","PROVINCE":"Cotabato (North Cotabato)","REGION":"Region XII (Soccsksargen)","id":"barangay-1204704010","name":"Indangan","barangayCode":"1204704010","population":null,"formattedPop":null,"densityCategory":"No data","vulnerabilityRating":"No data","healthRiskLevel":"No data","areaKm2":6.40493,"centerLat":7.007519,"centerLng":125.13937,"geometrySource":"all_barangay-2.csv detailed WKT","geometryMatchMethod":"psgc_coordinate_bridge","boundaryPointCount":20},"geometry":{"type":"MultiPolygon","coordinates":[[[[125.15184,7.00073],[125.149193,7.00072],[125.14711,7.0008],[125.143837,7.0029],[125.137466,7.00578],[125.136108,7.00617],[125.133163,7.00284],[125.130524,7.002],[125.124634,7.00019],[125.122299,6.99877],[125.118591,6.9995],[125.115494,6.9993],[125.117149,7.00881],[125.120621,7.01505],[125.124481,7.02117],[125.130409,7.01851],[125.13929,7.01401],[125.147072,7.00811],[125.151367,7.00255],[125.15184,7.00073]]]]}},{"type":"Feature","properties":{"ID_0":177,"ISO":"PHL","NAME_0":"Philippines","ID_1":12047,"NAME_1":"Cotabato (North Cotabato)","ID_2":1204704,"NAME_2":"City of Kidapawan (Capital)","ID_3":1204704011,"NAME_3":"Junction","NL_NAME_3":null,"VARNAME_3":null,"TYPE_3":"Barangay","ENGTYPE_3":"Village","PROVINCE":"Cotabato (North Cotabato)","REGION":"Region XII (Soccsksargen)","id":"barangay-1204704011","name":"Junction","barangayCode":"1204704011","population":null,"formattedPop":null,"densityCategory":"No data","vulnerabilityRating":"No data","healthRiskLevel":"No data","areaKm2":9.225139,"centerLat":6.98769,"centerLng":124.997637,"geometrySource":"all_barangay-2.csv detailed WKT","geometryMatchMethod":"psgc_coordinate_bridge","boundaryPointCount":26},"geometry":{"type":"MultiPolygon","coordinates":[[[[125.002937,7.00411],[125.003868,7.00386],[125.015503,7.00523],[125.024879,7.00677],[125.025452,6.99955],[125.029732,6.98743],[125.027977,6.98793],[125.024841,6.9873],[125.022453,6.98888],[125.021744,6.98757],[125.020409,6.98644],[125.018059,6.98612],[125.014954,6.98549],[125.012543,6.98304],[125.010117,6.9826],[125.007462,6.98035],[125.00589,6.9793],[125.004257,6.97757],[125.001617,6.97677],[124.995789,6.97532],[124.994637,6.98657],[124.991013,6.99629],[124.989014,6.99937],[124.99395,7.00063],[125.000481,7.0035],[125.002937,7.00411]]]]}},{"type":"Feature","properties":{"ID_0":177,"ISO":"PHL","NAME_0":"Philippines","ID_1":12047,"NAME_1":"Cotabato (North Cotabato)","ID_2":1204704,"NAME_2":"City of Kidapawan (Capital)","ID_3":1204704012,"NAME_3":"Kalaisan","NL_NAME_3":null,"VARNAME_3":null,"TYPE_3":"Barangay","ENGTYPE_3":"Village","PROVINCE":"Cotabato (North Cotabato)","REGION":"Region XII (Soccsksargen)","id":"barangay-1204704012","name":"Kalaisan","barangayCode":"1204704012","population":null,"formattedPop":null,"densityCategory":"No data","vulnerabilityRating":"No data","healthRiskLevel":"No data","areaKm2":8.710209,"centerLat":7.005549,"centerLng":125.031801,"geometrySource":"all_barangay-2.csv detailed WKT","geometryMatchMethod":"psgc_coordinate_bridge","boundaryPointCount":27},"geometry":{"type":"MultiPolygon","coordinates":[[[[125.049049,7.0333],[125.049187,7.03331],[125.049004,7.02504],[125.048126,7.01942],[125.048172,7.01461],[125.048332,7.01074],[125.048462,7.00764],[125.048622,7.00399],[125.048737,7.00043],[125.048973,6.99747],[125.049057,6.99459],[125.0495,6.99183],[125.04998,6.98839],[125.044167,6.98934],[125.03904,6.98785],[125.036407,6.98828],[125.03318,6.98794],[125.029732,6.98743],[125.025452,6.99955],[125.024879,7.00677],[125.024223,7.01089],[125.023933,7.01697],[125.023064,7.02757],[125.03566,7.03002],[125.0438,7.03168],[125.047043,7.03235],[125.049049,7.0333]]]]}},{"type":"Feature","properties":{"ID_0":177,"ISO":"PHL","NAME_0":"Philippines","ID_1":12047,"NAME_1":"Cotabato (North Cotabato)","ID_2":1204704,"NAME_2":"City of Kidapawan (Capital)","ID_3":1204704013,"NAME_3":"Kalasuyan","NL_NAME_3":null,"VARNAME_3":null,"TYPE_3":"Barangay","ENGTYPE_3":"Village","PROVINCE":"Cotabato (North Cotabato)","REGION":"Region XII (Soccsksargen)","id":"barangay-1204704013","name":"Kalasuyan","barangayCode":"1204704013","population":null,"formattedPop":null,"densityCategory":"No data","vulnerabilityRating":"No data","healthRiskLevel":"No data","areaKm2":4.637931,"centerLat":7.040786,"centerLng":125.084603,"geometrySource":"all_barangay-2.csv detailed WKT","geometryMatchMethod":"psgc_coordinate_bridge","boundaryPointCount":18},"geometry":{"type":"MultiPolygon","coordinates":[[[[125.080299,7.05503],[125.086693,7.05237],[125.088966,7.0514],[125.091408,7.05044],[125.094307,7.04722],[125.092323,7.04308],[125.088898,7.03574],[125.066803,7.03999],[125.067673,7.04287],[125.068817,7.04594],[125.069344,7.04867],[125.069618,7.05226],[125.070648,7.05596],[125.073387,7.05629],[125.075401,7.05558],[125.076447,7.05547],[125.07869,7.0557],[125.080299,7.05503]]]]}},{"type":"Feature","properties":{"ID_0":177,"ISO":"PHL","NAME_0":"Philippines","ID_1":12047,"NAME_1":"Cotabato (North Cotabato)","ID_2":1204704,"NAME_2":"City of Kidapawan (Capital)","ID_3":1204704014,"NAME_3":"Katipunan","NL_NAME_3":null,"VARNAME_3":null,"TYPE_3":"Barangay","ENGTYPE_3":"Village","PROVINCE":"Cotabato (North Cotabato)","REGION":"Region XII (Soccsksargen)","id":"barangay-1204704014","name":"Katipunan","barangayCode":"1204704014","population":null,"formattedPop":null,"densityCategory":"No data","vulnerabilityRating":"No data","healthRiskLevel":"No data","areaKm2":11.248078,"centerLat":7.064142,"centerLng":125.010439,"geometrySource":"all_barangay-2.csv detailed WKT","geometryMatchMethod":"psgc_coordinate_bridge","boundaryPointCount":22},"geometry":{"type":"MultiPolygon","coordinates":[[[[125.032677,7.07059],[125.032654,7.07032],[125.032043,7.06695],[125.031593,7.06521],[125.029877,7.06275],[125.029388,7.06102],[125.029007,7.05474],[125.018173,7.05841],[125.011551,7.06113],[125.008842,7.06217],[125.011627,7.06784],[125.014893,7.07398],[125.014839,7.07335],[125.016571,7.07259],[125.018677,7.07333],[125.022423,7.07267],[125.023933,7.07125],[125.025429,7.06986],[125.026894,7.06996],[125.028847,7.0693],[125.030113,7.07057],[125.032677,7.07059]]]]}},{"type":"Feature","properties":{"ID_0":177,"ISO":"PHL","NAME_0":"Philippines","ID_1":12047,"NAME_1":"Cotabato (North Cotabato)","ID_2":1204704,"NAME_2":"City of Kidapawan (Capital)","ID_3":1204704015,"NAME_3":"Lanao","NL_NAME_3":null,"VARNAME_3":null,"TYPE_3":"Barangay","ENGTYPE_3":"Village","PROVINCE":"Cotabato (North Cotabato)","REGION":"Region XII (Soccsksargen)","id":"barangay-1204704015","name":"Lanao","barangayCode":"1204704015","population":null,"formattedPop":null,"densityCategory":"No data","vulnerabilityRating":"No data","healthRiskLevel":"No data","areaKm2":3.523721,"centerLat":7.025683,"centerLng":125.079429,"geometrySource":"all_barangay-2.csv detailed WKT","geometryMatchMethod":"psgc_coordinate_bridge","boundaryPointCount":9},"geometry":{"type":"MultiPolygon","coordinates":[[[[125.066803,7.03999],[125.088898,7.03574],[125.084702,7.02501],[125.082878,7.02084],[125.062607,7.02353],[125.063828,7.02884],[125.064232,7.03125],[125.06604,7.03699],[125.066803,7.03999]]]]}},{"type":"Feature","properties":{"ID_0":177,"ISO":"PHL","NAME_0":"Philippines","ID_1":12047,"NAME_1":"Cotabato (North Cotabato)","ID_2":1204704,"NAME_2":"City of Kidapawan (Capital)","ID_3":1204704016,"NAME_3":"Linangcob","NL_NAME_3":null,"VARNAME_3":null,"TYPE_3":"Barangay","ENGTYPE_3":"Village","PROVINCE":"Cotabato (North Cotabato)","REGION":"Region XII (Soccsksargen)","id":"barangay-1204704016","name":"Linangcob","barangayCode":"1204704016","population":null,"formattedPop":null,"densityCategory":"No data","vulnerabilityRating":"No data","healthRiskLevel":"No data","areaKm2":14.185677,"centerLat":7.067328,"centerLng":125.066942,"geometrySource":"all_barangay-2.csv detailed WKT","geometryMatchMethod":"psgc_coordinate_bridge","boundaryPointCount":25},"geometry":{"type":"MultiPolygon","coordinates":[[[[125.073128,7.08985],[125.079758,7.08741],[125.082947,7.08692],[125.085342,7.08614],[125.083977,7.07485],[125.082573,7.06621],[125.080299,7.05503],[125.07869,7.0557],[125.076447,7.05547],[125.075401,7.05558],[125.073387,7.05629],[125.070648,7.05596],[125.066917,7.05623],[125.064659,7.05544],[125.065819,7.05631],[125.065849,7.05782],[125.067017,7.06057],[125.068604,7.06596],[125.069077,7.06876],[125.070557,7.072],[125.07209,7.07488],[125.072983,7.07795],[125.075211,7.08174],[125.073997,7.08553],[125.073128,7.08985]]]]}},{"type":"Feature","properties":{"ID_0":177,"ISO":"PHL","NAME_0":"Philippines","ID_1":12047,"NAME_1":"Cotabato (North Cotabato)","ID_2":1204704,"NAME_2":"City of Kidapawan (Capital)","ID_3":1204704017,"NAME_3":"Luvimin","NL_NAME_3":null,"VARNAME_3":null,"TYPE_3":"Barangay","ENGTYPE_3":"Village","PROVINCE":"Cotabato (North Cotabato)","REGION":"Region XII (Soccsksargen)","id":"barangay-1204704017","name":"Luvimin","barangayCode":"1204704017","population":null,"formattedPop":null,"densityCategory":"No data","vulnerabilityRating":"No data","healthRiskLevel":"No data","areaKm2":4.107208,"centerLat":7.044648,"centerLng":125.112734,"geometrySource":"all_barangay-2.csv detailed WKT","geometryMatchMethod":"psgc_coordinate_bridge","boundaryPointCount":27},"geometry":{"type":"MultiPolygon","coordinates":[[[[125.11998,7.05174],[125.11985,7.05163],[125.119431,7.05126],[125.117882,7.04607],[125.114967,7.04136],[125.112511,7.03459],[125.111671,7.03477],[125.109573,7.03529],[125.108818,7.03758],[125.105988,7.04151],[125.104683,7.04103],[125.104156,7.04154],[125.103233,7.04203],[125.101517,7.04414],[125.099083,7.04828],[125.101967,7.05637],[125.103882,7.05575],[125.105873,7.05613],[125.108452,7.05708],[125.1091,7.05571],[125.110786,7.05546],[125.111542,7.05507],[125.113312,7.05551],[125.115379,7.05406],[125.117523,7.05469],[125.11837,7.05345],[125.11998,7.05174]]]]}},{"type":"Feature","properties":{"ID_0":177,"ISO":"PHL","NAME_0":"Philippines","ID_1":12047,"NAME_1":"Cotabato (North Cotabato)","ID_2":1204704,"NAME_2":"City of Kidapawan (Capital)","ID_3":1204704018,"NAME_3":"Macabolig","NL_NAME_3":null,"VARNAME_3":null,"TYPE_3":"Barangay","ENGTYPE_3":"Village","PROVINCE":"Cotabato (North Cotabato)","REGION":"Region XII (Soccsksargen)","id":"barangay-1204704018","name":"Macabolig","barangayCode":"1204704018","population":null,"formattedPop":null,"densityCategory":"No data","vulnerabilityRating":"No data","healthRiskLevel":"No data","areaKm2":7.176894,"centerLat":7.011233,"centerLng":124.972521,"geometrySource":"all_barangay-2.csv detailed WKT","geometryMatchMethod":"psgc_coordinate_bridge","boundaryPointCount":22},"geometry":{"type":"MultiPolygon","coordinates":[[[[124.996353,7.03328],[124.99585,7.03023],[124.995399,7.02674],[124.99575,7.02393],[124.99614,7.02202],[124.996948,7.0187],[124.997162,7.01855],[124.997223,7.0173],[124.999184,7.01262],[125.001343,7.0074],[125.002937,7.00411],[125.000481,7.0035],[124.99395,7.00063],[124.989014,6.99937],[124.98597,7.00769],[124.982491,7.01582],[124.981216,7.01835],[124.980026,7.0225],[124.978729,7.02606],[124.97718,7.03067],[124.988167,7.02742],[124.996353,7.03328]]]]}},{"type":"Feature","properties":{"ID_0":177,"ISO":"PHL","NAME_0":"Philippines","ID_1":12047,"NAME_1":"Cotabato (North Cotabato)","ID_2":1204704,"NAME_2":"City of Kidapawan (Capital)","ID_3":1204704020,"NAME_3":"Malinan","NL_NAME_3":null,"VARNAME_3":null,"TYPE_3":"Barangay","ENGTYPE_3":"Village","PROVINCE":"Cotabato (North Cotabato)","REGION":"Region XII (Soccsksargen)","id":"barangay-1204704020","name":"Malinan","barangayCode":"1204704020","population":null,"formattedPop":null,"densityCategory":"No data","vulnerabilityRating":"No data","healthRiskLevel":"No data","areaKm2":8.634442,"centerLat":7.084021,"centerLng":124.980407,"geometrySource":"all_barangay-2.csv detailed WKT","geometryMatchMethod":"psgc_coordinate_bridge","boundaryPointCount":16},"geometry":{"type":"MultiPolygon","coordinates":[[[[124.981537,7.09044],[125.0,7.08618],[125.000458,7.08574],[125.00473,7.08482],[125.012123,7.08274],[125.011688,7.08188],[125.014603,7.07602],[125.014893,7.07398],[125.011627,7.06784],[125.008842,7.06217],[124.993118,7.06791],[124.985924,7.06867],[124.979286,7.06966],[124.980423,7.07797],[124.981483,7.08571],[124.981537,7.09044]]]]}},{"type":"Feature","properties":{"ID_0":177,"ISO":"PHL","NAME_0":"Philippines","ID_1":12047,"NAME_1":"Cotabato (North Cotabato)","ID_2":1204704,"NAME_2":"City of Kidapawan (Capital)","ID_3":1204704021,"NAME_3":"Manongol","NL_NAME_3":null,"VARNAME_3":null,"TYPE_3":"Barangay","ENGTYPE_3":"Village","PROVINCE":"Cotabato (North Cotabato)","REGION":"Region XII (Soccsksargen)","id":"barangay-1204704021","name":"Manongol","barangayCode":"1204704021","population":null,"formattedPop":null,"densityCategory":"No data","vulnerabilityRating":"No data","healthRiskLevel":"No data","areaKm2":6.703668,"centerLat":7.020265,"centerLng":125.12226,"geometrySource":"all_barangay-2.csv detailed WKT","geometryMatchMethod":"psgc_coordinate_bridge","boundaryPointCount":18},"geometry":{"type":"MultiPolygon","coordinates":[[[[125.105988,7.04151],[125.108818,7.03758],[125.109573,7.03529],[125.111671,7.03477],[125.112511,7.03459],[125.113533,7.03434],[125.115707,7.03166],[125.118622,7.03127],[125.121552,7.03176],[125.123352,7.03077],[125.125687,7.03052],[125.129097,7.02992],[125.124649,7.02143],[125.122787,7.02195],[125.111557,7.02376],[125.102493,7.02504],[125.102829,7.0347],[125.105988,7.04151]]]]}},{"type":"Feature","properties":{"ID_0":177,"ISO":"PHL","NAME_0":"Philippines","ID_1":12047,"NAME_1":"Cotabato (North Cotabato)","ID_2":1204704,"NAME_2":"City of Kidapawan (Capital)","ID_3":1204704022,"NAME_3":"Marbel","NL_NAME_3":null,"VARNAME_3":null,"TYPE_3":"Barangay","ENGTYPE_3":"Village","PROVINCE":"Cotabato (North Cotabato)","REGION":"Region XII (Soccsksargen)","id":"barangay-1204704022","name":"Marbel","barangayCode":"1204704022","population":null,"formattedPop":null,"densityCategory":"No data","vulnerabilityRating":"No data","healthRiskLevel":"No data","areaKm2":5.747131,"centerLat":7.077254,"centerLng":125.092298,"geometrySource":"all_barangay-2.csv detailed WKT","geometryMatchMethod":"psgc_coordinate_bridge","boundaryPointCount":15},"geometry":{"type":"MultiPolygon","coordinates":[[[[125.095284,7.07951],[125.094254,7.07645],[125.093651,7.07363],[125.09256,7.0673],[125.089813,7.05675],[125.088966,7.0514],[125.086693,7.05237],[125.080299,7.05503],[125.082573,7.06621],[125.083977,7.07485],[125.085342,7.08614],[125.086288,7.08482],[125.089157,7.08268],[125.092857,7.08191],[125.095284,7.07951]]]]}},{"type":"Feature","properties":{"ID_0":177,"ISO":"PHL","NAME_0":"Philippines","ID_1":12047,"NAME_1":"Cotabato (North Cotabato)","ID_2":1204704,"NAME_2":"City of Kidapawan (Capital)","ID_3":1204704023,"NAME_3":"Mateo","NL_NAME_3":null,"VARNAME_3":null,"TYPE_3":"Barangay","ENGTYPE_3":"Village","PROVINCE":"Cotabato (North Cotabato)","REGION":"Region XII (Soccsksargen)","id":"barangay-1204704023","name":"Mateo","barangayCode":"1204704023","population":null,"formattedPop":null,"densityCategory":"No data","vulnerabilityRating":"No data","healthRiskLevel":"No data","areaKm2":5.613368,"centerLat":7.058162,"centerLng":125.096809,"geometrySource":"all_barangay-2.csv detailed WKT","geometryMatchMethod":"psgc_coordinate_bridge","boundaryPointCount":21},"geometry":{"type":"MultiPolygon","coordinates":[[[[125.111008,7.07581],[125.111382,7.07513],[125.109329,7.07057],[125.106956,7.06553],[125.101967,7.05637],[125.099083,7.04828],[125.097878,7.04836],[125.096779,7.0482],[125.094307,7.04722],[125.091408,7.05044],[125.088966,7.0514],[125.089813,7.05675],[125.09256,7.0673],[125.093651,7.07363],[125.094254,7.07645],[125.095284,7.07951],[125.099152,7.07992],[125.10247,7.07864],[125.105103,7.07707],[125.107826,7.07736],[125.111008,7.07581]]]]}},{"type":"Feature","properties":{"ID_0":177,"ISO":"PHL","NAME_0":"Philippines","ID_1":12047,"NAME_1":"Cotabato (North Cotabato)","ID_2":1204704,"NAME_2":"City of Kidapawan (Capital)","ID_3":1204704024,"NAME_3":"Meochao","NL_NAME_3":null,"VARNAME_3":null,"TYPE_3":"Barangay","ENGTYPE_3":"Village","PROVINCE":"Cotabato (North Cotabato)","REGION":"Region XII (Soccsksargen)","id":"barangay-1204704024","name":"Meochao","barangayCode":"1204704024","population":null,"formattedPop":null,"densityCategory":"No data","vulnerabilityRating":"No data","healthRiskLevel":"No data","areaKm2":4.733183,"centerLat":7.035838,"centerLng":125.166257,"geometrySource":"all_barangay-2.csv detailed WKT","geometryMatchMethod":"psgc_coordinate_bridge","boundaryPointCount":24},"geometry":{"type":"MultiPolygon","coordinates":[[[[125.156357,7.05616],[125.159599,7.05272],[125.165932,7.05031],[125.169434,7.04407],[125.17643,7.04113],[125.181442,7.03693],[125.179153,7.03215],[125.177391,7.02837],[125.176041,7.02624],[125.173859,7.02122],[125.170624,7.01546],[125.167824,7.01414],[125.164948,7.01662],[125.158287,7.02221],[125.15638,7.02406],[125.152817,7.0233],[125.149513,7.02431],[125.145393,7.02542],[125.143913,7.02708],[125.145638,7.03263],[125.149399,7.04106],[125.151543,7.04466],[125.156616,7.05206],[125.156357,7.05616]]]]}},{"type":"Feature","properties":{"ID_0":177,"ISO":"PHL","NAME_0":"Philippines","ID_1":12047,"NAME_1":"Cotabato (North Cotabato)","ID_2":1204704,"NAME_2":"City of Kidapawan (Capital)","ID_3":1204704025,"NAME_3":"Mua-an","NL_NAME_3":null,"VARNAME_3":null,"TYPE_3":"Barangay","ENGTYPE_3":"Village","PROVINCE":"Cotabato (North Cotabato)","REGION":"Region XII (Soccsksargen)","id":"barangay-1204704025","name":"Mua-an","barangayCode":"1204704025","population":null,"formattedPop":null,"densityCategory":"No data","vulnerabilityRating":"No data","healthRiskLevel":"No data","areaKm2":6.30657,"centerLat":7.050576,"centerLng":125.147752,"geometrySource":"all_barangay-2.csv detailed WKT","geometryMatchMethod":"psgc_coordinate_bridge","boundaryPointCount":27},"geometry":{"type":"MultiPolygon","coordinates":[[[[125.145813,7.05934],[125.151207,7.05808],[125.154961,7.05651],[125.156357,7.05616],[125.156616,7.05206],[125.151543,7.04466],[125.149399,7.04106],[125.145767,7.0426],[125.143013,7.04308],[125.139343,7.04431],[125.136703,7.0443],[125.136139,7.04655],[125.133873,7.04878],[125.130112,7.04859],[125.129959,7.04946],[125.125183,7.05097],[125.12397,7.05201],[125.11985,7.05163],[125.11998,7.05174],[125.124458,7.06026],[125.127296,7.07065],[125.132538,7.06868],[125.13726,7.06666],[125.139236,7.06389],[125.140923,7.06155],[125.14502,7.06029],[125.145813,7.05934]]]]}},{"type":"Feature","properties":{"ID_0":177,"ISO":"PHL","NAME_0":"Philippines","ID_1":12047,"NAME_1":"Cotabato (North Cotabato)","ID_2":1204704,"NAME_2":"City of Kidapawan (Capital)","ID_3":1204704026,"NAME_3":"New Bohol","NL_NAME_3":null,"VARNAME_3":null,"TYPE_3":"Barangay","ENGTYPE_3":"Village","PROVINCE":"Cotabato (North Cotabato)","REGION":"Region XII (Soccsksargen)","id":"barangay-1204704026","name":"New Bohol","barangayCode":"1204704026","population":null,"formattedPop":null,"densityCategory":"No data","vulnerabilityRating":"No data","healthRiskLevel":"No data","areaKm2":5.259626,"centerLat":7.04464,"centerLng":125.060981,"geometrySource":"all_barangay-2.csv detailed WKT","geometryMatchMethod":"psgc_coordinate_bridge","boundaryPointCount":31},"geometry":{"type":"MultiPolygon","coordinates":[[[[125.070648,7.05596],[125.069618,7.05226],[125.069344,7.04867],[125.068817,7.04594],[125.067673,7.04287],[125.066803,7.03999],[125.064934,7.04045],[125.063393,7.04021],[125.060753,7.03858],[125.060059,7.03898],[125.05806,7.03908],[125.05629,7.03892],[125.055557,7.03902],[125.053543,7.0382],[125.05246,7.03853],[125.049889,7.03879],[125.048737,7.03995],[125.048286,7.04036],[125.048317,7.04403],[125.047638,7.04756],[125.047523,7.05096],[125.050667,7.05148],[125.052177,7.05213],[125.054291,7.05442],[125.056747,7.05356],[125.060089,7.05449],[125.06118,7.05391],[125.062363,7.05321],[125.064659,7.05544],[125.066917,7.05623],[125.070648,7.05596]]]]}},{"type":"Feature","properties":{"ID_0":177,"ISO":"PHL","NAME_0":"Philippines","ID_1":12047,"NAME_1":"Cotabato (North Cotabato)","ID_2":1204704,"NAME_2":"City of Kidapawan (Capital)","ID_3":1204704027,"NAME_3":"Nuangan","NL_NAME_3":null,"VARNAME_3":null,"TYPE_3":"Barangay","ENGTYPE_3":"Village","PROVINCE":"Cotabato (North Cotabato)","REGION":"Region XII (Soccsksargen)","id":"barangay-1204704027","name":"Nuangan","barangayCode":"1204704027","population":null,"formattedPop":null,"densityCategory":"No data","vulnerabilityRating":"No data","healthRiskLevel":"No data","areaKm2":4.447929,"centerLat":7.004709,"centerLng":125.10706,"geometrySource":"all_barangay-2.csv detailed WKT","geometryMatchMethod":"psgc_coordinate_bridge","boundaryPointCount":22},"geometry":{"type":"MultiPolygon","coordinates":[[[[125.102493,7.02504],[125.111557,7.02376],[125.122787,7.02195],[125.124649,7.02143],[125.124443,7.02119],[125.124481,7.02117],[125.120621,7.01505],[125.117149,7.00881],[125.115494,6.9993],[125.113586,6.99909],[125.111099,6.99894],[125.109467,6.99829],[125.103569,6.99891],[125.10215,6.99938],[125.099823,6.99829],[125.09716,6.99841],[125.095497,6.99732],[125.095238,7.0115],[125.09584,7.02194],[125.098083,7.02375],[125.100456,7.02536],[125.102493,7.02504]]]]}},{"type":"Feature","properties":{"ID_0":177,"ISO":"PHL","NAME_0":"Philippines","ID_1":12047,"NAME_1":"Cotabato (North Cotabato)","ID_2":1204704,"NAME_2":"City of Kidapawan (Capital)","ID_3":1204704028,"NAME_3":"Onica","NL_NAME_3":null,"VARNAME_3":null,"TYPE_3":"Barangay","ENGTYPE_3":"Village","PROVINCE":"Cotabato (North Cotabato)","REGION":"Region XII (Soccsksargen)","id":"barangay-1204704028","name":"Onica","barangayCode":"1204704028","population":null,"formattedPop":null,"densityCategory":"No data","vulnerabilityRating":"No data","healthRiskLevel":"No data","areaKm2":15.774887,"centerLat":7.03547,"centerLng":124.958684,"geometrySource":"all_barangay-2.csv detailed WKT","geometryMatchMethod":"psgc_coordinate_bridge","boundaryPointCount":11},"geometry":{"type":"MultiPolygon","coordinates":[[[[125.002213,7.04704],[125.000893,7.04431],[124.99823,7.03758],[124.996353,7.03328],[124.988167,7.02742],[124.97718,7.03067],[124.975121,7.03545],[124.97567,7.04457],[124.977348,7.04921],[124.989052,7.04794],[125.002213,7.04704]]]]}},{"type":"Feature","properties":{"ID_0":177,"ISO":"PHL","NAME_0":"Philippines","ID_1":12047,"NAME_1":"Cotabato (North Cotabato)","ID_2":1204704,"NAME_2":"City of Kidapawan (Capital)","ID_3":1204704029,"NAME_3":"Paco","NL_NAME_3":null,"VARNAME_3":null,"TYPE_3":"Barangay","ENGTYPE_3":"Village","PROVINCE":"Cotabato (North Cotabato)","REGION":"Region XII (Soccsksargen)","id":"barangay-1204704029","name":"Paco","barangayCode":"1204704029","population":null,"formattedPop":null,"densityCategory":"No data","vulnerabilityRating":"No data","healthRiskLevel":"No data","areaKm2":9.954989,"centerLat":7.031126,"centerLng":125.037466,"geometrySource":"all_barangay-2.csv detailed WKT","geometryMatchMethod":"psgc_coordinate_bridge","boundaryPointCount":28},"geometry":{"type":"MultiPolygon","coordinates":[[[[125.047523,7.05096],[125.047638,7.04756],[125.048317,7.04403],[125.048286,7.04036],[125.048737,7.03995],[125.049187,7.03744],[125.049049,7.0333],[125.047043,7.03235],[125.0438,7.03168],[125.03566,7.03002],[125.023064,7.02757],[125.022636,7.0296],[125.022552,7.03225],[125.021881,7.03502],[125.021317,7.03824],[125.021828,7.04052],[125.021271,7.04399],[125.022408,7.0467],[125.025223,7.04781],[125.025108,7.04919],[125.028648,7.04945],[125.035393,7.05153],[125.037071,7.05022],[125.038582,7.04813],[125.040817,7.04835],[125.044899,7.04946],[125.047813,7.05119],[125.047523,7.05096]]]]}},{"type":"Feature","properties":{"ID_0":177,"ISO":"PHL","NAME_0":"Philippines","ID_1":12047,"NAME_1":"Cotabato (North Cotabato)","ID_2":1204704,"NAME_2":"City of Kidapawan (Capital)","ID_3":1204704030,"NAME_3":"Patadon","NL_NAME_3":null,"VARNAME_3":null,"TYPE_3":"Barangay","ENGTYPE_3":"Village","PROVINCE":"Cotabato (North Cotabato)","REGION":"Region XII (Soccsksargen)","id":"barangay-1204704030","name":"Patadon","barangayCode":"1204704030","population":null,"formattedPop":null,"densityCategory":"No data","vulnerabilityRating":"No data","healthRiskLevel":"No data","areaKm2":4.20718,"centerLat":7.073417,"centerLng":124.953367,"geometrySource":"all_barangay-2.csv detailed WKT","geometryMatchMethod":"psgc_coordinate_bridge","boundaryPointCount":6},"geometry":{"type":"MultiPolygon","coordinates":[[[[124.985924,7.06867],[124.983971,7.0622],[124.981956,7.05502],[124.978104,7.05839],[124.979286,7.06966],[124.985924,7.06867]]]]}},{"type":"Feature","properties":{"ID_0":177,"ISO":"PHL","NAME_0":"Philippines","ID_1":12047,"NAME_1":"Cotabato (North Cotabato)","ID_2":1204704,"NAME_2":"City of Kidapawan (Capital)","ID_3":1204704031,"NAME_3":"Perez","NL_NAME_3":null,"VARNAME_3":null,"TYPE_3":"Barangay","ENGTYPE_3":"Village","PROVINCE":"Cotabato (North Cotabato)","REGION":"Region XII (Soccsksargen)","id":"barangay-1204704031","name":"Perez","barangayCode":"1204704031","population":null,"formattedPop":null,"densityCategory":"No data","vulnerabilityRating":"No data","healthRiskLevel":"No data","areaKm2":10.434857,"centerLat":7.015972,"centerLng":125.165906,"geometrySource":"all_barangay-2.csv detailed WKT","geometryMatchMethod":"psgc_coordinate_bridge","boundaryPointCount":29},"geometry":{"type":"MultiPolygon","coordinates":[[[[125.129097,7.02992],[125.13179,7.03048],[125.135002,7.02956],[125.139351,7.02837],[125.143913,7.02708],[125.145393,7.02542],[125.149513,7.02431],[125.152817,7.0233],[125.15638,7.02406],[125.158287,7.02221],[125.164948,7.01662],[125.167824,7.01414],[125.171593,7.01203],[125.184143,7.00924],[125.193779,7.00467],[125.210739,6.99908],[125.174202,7.00007],[125.168571,7.00198],[125.163361,7.00159],[125.15654,7.00133],[125.15184,7.00073],[125.151367,7.00255],[125.147072,7.00811],[125.13929,7.01401],[125.130409,7.01851],[125.124481,7.02117],[125.124443,7.02119],[125.124649,7.02143],[125.129097,7.02992]]]]}},{"type":"Feature","properties":{"ID_0":177,"ISO":"PHL","NAME_0":"Philippines","ID_1":12047,"NAME_1":"Cotabato (North Cotabato)","ID_2":1204704,"NAME_2":"City of Kidapawan (Capital)","ID_3":1204704032,"NAME_3":"Poblacion","NL_NAME_3":null,"VARNAME_3":null,"TYPE_3":"Barangay","ENGTYPE_3":"Village","PROVINCE":"Cotabato (North Cotabato)","REGION":"Region XII (Soccsksargen)","id":"barangay-1204704032","name":"Poblacion","barangayCode":"1204704032","population":null,"formattedPop":null,"densityCategory":"No data","vulnerabilityRating":"No data","healthRiskLevel":"No data","areaKm2":5.578456,"centerLat":7.005835,"centerLng":125.086485,"geometrySource":"all_barangay-2.csv detailed WKT","geometryMatchMethod":"psgc_coordinate_bridge","boundaryPointCount":19},"geometry":{"type":"MultiPolygon","coordinates":[[[[125.084702,7.02501],[125.087128,7.0229],[125.088799,7.02066],[125.089073,7.0185],[125.092773,7.01983],[125.09584,7.02194],[125.095238,7.0115],[125.095497,6.99732],[125.092941,6.99729],[125.09095,6.99726],[125.089157,6.99654],[125.087189,6.9961],[125.084557,6.99565],[125.081581,6.99517],[125.081642,7.00488],[125.077744,7.00707],[125.079521,7.01228],[125.082878,7.02084],[125.084702,7.02501]]]]}},{"type":"Feature","properties":{"ID_0":177,"ISO":"PHL","NAME_0":"Philippines","ID_1":12047,"NAME_1":"Cotabato (North Cotabato)","ID_2":1204704,"NAME_2":"City of Kidapawan (Capital)","ID_3":1204704033,"NAME_3":"San Isidro","NL_NAME_3":null,"VARNAME_3":null,"TYPE_3":"Barangay","ENGTYPE_3":"Village","PROVINCE":"Cotabato (North Cotabato)","REGION":"Region XII (Soccsksargen)","id":"barangay-1204704033","name":"San Isidro","barangayCode":"1204704033","population":null,"formattedPop":null,"densityCategory":"No data","vulnerabilityRating":"No data","healthRiskLevel":"No data","areaKm2":4.651041,"centerLat":7.079242,"centerLng":125.024076,"geometrySource":"all_barangay-2.csv detailed WKT","geometryMatchMethod":"psgc_coordinate_bridge","boundaryPointCount":28},"geometry":{"type":"MultiPolygon","coordinates":[[[[125.03994,7.0958],[125.040176,7.09224],[125.039207,7.08941],[125.037903,7.08676],[125.038094,7.08407],[125.036263,7.08165],[125.036217,7.07989],[125.035278,7.07764],[125.033287,7.07222],[125.032677,7.07059],[125.030113,7.07057],[125.028847,7.0693],[125.026894,7.06996],[125.025429,7.06986],[125.023933,7.07125],[125.022423,7.07267],[125.018677,7.07333],[125.016571,7.07259],[125.014839,7.07335],[125.014893,7.07398],[125.014603,7.07602],[125.011688,7.08188],[125.012123,7.08274],[125.020943,7.09184],[125.028877,7.10034],[125.031258,7.09951],[125.035133,7.09712],[125.03994,7.0958]]]]}},{"type":"Feature","properties":{"ID_0":177,"ISO":"PHL","NAME_0":"Philippines","ID_1":12047,"NAME_1":"Cotabato (North Cotabato)","ID_2":1204704,"NAME_2":"City of Kidapawan (Capital)","ID_3":1204704034,"NAME_3":"San Roque","NL_NAME_3":null,"VARNAME_3":null,"TYPE_3":"Barangay","ENGTYPE_3":"Village","PROVINCE":"Cotabato (North Cotabato)","REGION":"Region XII (Soccsksargen)","id":"barangay-1204704034","name":"San Roque","barangayCode":"1204704034","population":null,"formattedPop":null,"densityCategory":"No data","vulnerabilityRating":"No data","healthRiskLevel":"No data","areaKm2":4.32674,"centerLat":7.100662,"centerLng":124.990799,"geometrySource":"all_barangay-2.csv detailed WKT","geometryMatchMethod":"psgc_coordinate_bridge","boundaryPointCount":11},"geometry":{"type":"MultiPolygon","coordinates":[[[[125.001556,7.10545],[125.001427,7.10362],[125.000488,7.09634],[125.0,7.08618],[124.981537,7.09044],[124.98262,7.10166],[124.984787,7.11089],[124.985741,7.10967],[124.992218,7.10763],[124.998756,7.10569],[125.001556,7.10545]]]]}},{"type":"Feature","properties":{"ID_0":177,"ISO":"PHL","NAME_0":"Philippines","ID_1":12047,"NAME_1":"Cotabato (North Cotabato)","ID_2":1204704,"NAME_2":"City of Kidapawan (Capital)","ID_3":1204704035,"NAME_3":"Santo Niño","NL_NAME_3":null,"VARNAME_3":"Santo Nino","TYPE_3":"Barangay","ENGTYPE_3":"Village","PROVINCE":"Cotabato (North Cotabato)","REGION":"Region XII (Soccsksargen)","id":"barangay-1204704035","name":"Santo Niño","barangayCode":"1204704035","population":null,"formattedPop":null,"densityCategory":"No data","vulnerabilityRating":"No data","healthRiskLevel":"No data","areaKm2":4.523698,"centerLat":7.074046,"centerLng":125.045557,"geometrySource":"all_barangay-2.csv detailed WKT","geometryMatchMethod":"psgc_coordinate_bridge","boundaryPointCount":32},"geometry":{"type":"MultiPolygon","coordinates":[[[[125.070587,7.09074],[125.073128,7.08985],[125.073997,7.08553],[125.075211,7.08174],[125.072983,7.07795],[125.07209,7.07488],[125.070557,7.072],[125.069077,7.06876],[125.068604,7.06596],[125.067017,7.06057],[125.065849,7.05782],[125.065819,7.05631],[125.064659,7.05544],[125.062363,7.05321],[125.06118,7.05391],[125.060089,7.05449],[125.056747,7.05356],[125.054291,7.05442],[125.052177,7.05213],[125.050667,7.05148],[125.047523,7.05096],[125.047813,7.05119],[125.049606,7.05685],[125.050217,7.06473],[125.051048,7.07015],[125.05204,7.07663],[125.053596,7.08583],[125.061523,7.07923],[125.06665,7.07879],[125.067017,7.08022],[125.065041,7.08933],[125.070587,7.09074]]]]}},{"type":"Feature","properties":{"ID_0":177,"ISO":"PHL","NAME_0":"Philippines","ID_1":12047,"NAME_1":"Cotabato (North Cotabato)","ID_2":1204704,"NAME_2":"City of Kidapawan (Capital)","ID_3":1204704036,"NAME_3":"Sibawan","NL_NAME_3":null,"VARNAME_3":null,"TYPE_3":"Barangay","ENGTYPE_3":"Village","PROVINCE":"Cotabato (North Cotabato)","REGION":"Region XII (Soccsksargen)","id":"barangay-1204704036","name":"Sibawan","barangayCode":"1204704036","population":null,"formattedPop":null,"densityCategory":"No data","vulnerabilityRating":"No data","healthRiskLevel":"No data","areaKm2":7.297187,"centerLat":7.061991,"centerLng":125.123286,"geometrySource":"all_barangay-2.csv detailed WKT","geometryMatchMethod":"psgc_coordinate_bridge","boundaryPointCount":22},"geometry":{"type":"MultiPolygon","coordinates":[[[[125.116058,7.0749],[125.119331,7.07476],[125.123756,7.0744],[125.127296,7.07065],[125.124458,7.06026],[125.11998,7.05174],[125.11837,7.05345],[125.117523,7.05469],[125.115379,7.05406],[125.113312,7.05551],[125.111542,7.05507],[125.110786,7.05546],[125.1091,7.05571],[125.108452,7.05708],[125.105873,7.05613],[125.103882,7.05575],[125.101967,7.05637],[125.106956,7.06553],[125.109329,7.07057],[125.111382,7.07513],[125.111008,7.07581],[125.116058,7.0749]]]]}},{"type":"Feature","properties":{"ID_0":177,"ISO":"PHL","NAME_0":"Philippines","ID_1":12047,"NAME_1":"Cotabato (North Cotabato)","ID_2":1204704,"NAME_2":"City of Kidapawan (Capital)","ID_3":1204704037,"NAME_3":"Sikitan","NL_NAME_3":null,"VARNAME_3":null,"TYPE_3":"Barangay","ENGTYPE_3":"Village","PROVINCE":"Cotabato (North Cotabato)","REGION":"Region XII (Soccsksargen)","id":"barangay-1204704037","name":"Sikitan","barangayCode":"1204704037","population":null,"formattedPop":null,"densityCategory":"No data","vulnerabilityRating":"No data","healthRiskLevel":"No data","areaKm2":2.906784,"centerLat":7.058994,"centerLng":125.037823,"geometrySource":"all_barangay-2.csv detailed WKT","geometryMatchMethod":"psgc_coordinate_bridge","boundaryPointCount":36},"geometry":{"type":"MultiPolygon","coordinates":[[[[125.03994,7.0958],[125.040543,7.09288],[125.044884,7.08895],[125.049553,7.08706],[125.053596,7.08583],[125.05204,7.07663],[125.051048,7.07015],[125.050217,7.06473],[125.049606,7.05685],[125.047813,7.05119],[125.044899,7.04946],[125.040817,7.04835],[125.038582,7.04813],[125.037071,7.05022],[125.035393,7.05153],[125.028648,7.04945],[125.025108,7.04919],[125.027138,7.05082],[125.028748,7.05204],[125.029427,7.0537],[125.029007,7.05474],[125.029388,7.06102],[125.029877,7.06275],[125.031593,7.06521],[125.032043,7.06695],[125.032654,7.07032],[125.032677,7.07059],[125.033287,7.07222],[125.035278,7.07764],[125.036217,7.07989],[125.036263,7.08165],[125.038094,7.08407],[125.037903,7.08676],[125.039207,7.08941],[125.040176,7.09224],[125.03994,7.0958]]]]}},{"type":"Feature","properties":{"ID_0":177,"ISO":"PHL","NAME_0":"Philippines","ID_1":12047,"NAME_1":"Cotabato (North Cotabato)","ID_2":1204704,"NAME_2":"City of Kidapawan (Capital)","ID_3":1204704038,"NAME_3":"Singao","NL_NAME_3":null,"VARNAME_3":null,"TYPE_3":"Barangay","ENGTYPE_3":"Village","PROVINCE":"Cotabato (North Cotabato)","REGION":"Region XII (Soccsksargen)","id":"barangay-1204704038","name":"Singao","barangayCode":"1204704038","population":null,"formattedPop":null,"densityCategory":"No data","vulnerabilityRating":"No data","healthRiskLevel":"No data","areaKm2":10.517079,"centerLat":6.995932,"centerLng":125.050076,"geometrySource":"all_barangay-2.csv detailed WKT","geometryMatchMethod":"psgc_coordinate_bridge","boundaryPointCount":24},"geometry":{"type":"MultiPolygon","coordinates":[[[[125.058342,7.0057],[125.061119,7.00658],[125.071381,7.00808],[125.077744,7.00707],[125.081642,7.00488],[125.081581,6.99517],[125.078323,6.99443],[125.076523,6.99405],[125.074364,6.99477],[125.07309,6.99428],[125.070091,6.99429],[125.067719,6.99327],[125.066422,6.99239],[125.063057,6.99054],[125.059052,6.98898],[125.054131,6.98783],[125.04998,6.98839],[125.0495,6.99183],[125.049057,6.99459],[125.048973,6.99747],[125.050987,6.99959],[125.05336,7.00214],[125.056107,7.00439],[125.058342,7.0057]]]]}},{"type":"Feature","properties":{"ID_0":177,"ISO":"PHL","NAME_0":"Philippines","ID_1":12047,"NAME_1":"Cotabato (North Cotabato)","ID_2":1204704,"NAME_2":"City of Kidapawan (Capital)","ID_3":1204704039,"NAME_3":"Sudapin","NL_NAME_3":null,"VARNAME_3":null,"TYPE_3":"Barangay","ENGTYPE_3":"Village","PROVINCE":"Cotabato (North Cotabato)","REGION":"Region XII (Soccsksargen)","id":"barangay-1204704039","name":"Sudapin","barangayCode":"1204704039","population":null,"formattedPop":null,"densityCategory":"No data","vulnerabilityRating":"No data","healthRiskLevel":"No data","areaKm2":5.566312,"centerLat":7.028734,"centerLng":125.101245,"geometrySource":"all_barangay-2.csv detailed WKT","geometryMatchMethod":"psgc_coordinate_bridge","boundaryPointCount":22},"geometry":{"type":"MultiPolygon","coordinates":[[[[125.099083,7.04828],[125.101517,7.04414],[125.103233,7.04203],[125.104156,7.04154],[125.104683,7.04103],[125.105988,7.04151],[125.102829,7.0347],[125.102493,7.02504],[125.100456,7.02536],[125.098083,7.02375],[125.09584,7.02194],[125.092773,7.01983],[125.089073,7.0185],[125.088799,7.02066],[125.087128,7.0229],[125.084702,7.02501],[125.088898,7.03574],[125.092323,7.04308],[125.094307,7.04722],[125.096779,7.0482],[125.097878,7.04836],[125.099083,7.04828]]]]}},{"type":"Feature","properties":{"ID_0":177,"ISO":"PHL","NAME_0":"Philippines","ID_1":12047,"NAME_1":"Cotabato (North Cotabato)","ID_2":1204704,"NAME_2":"City of Kidapawan (Capital)","ID_3":1204704040,"NAME_3":"Sumbao","NL_NAME_3":null,"VARNAME_3":null,"TYPE_3":"Barangay","ENGTYPE_3":"Village","PROVINCE":"Cotabato (North Cotabato)","REGION":"Region XII (Soccsksargen)","id":"barangay-1204704040","name":"Sumbao","barangayCode":"1204704040","population":null,"formattedPop":null,"densityCategory":"No data","vulnerabilityRating":"No data","healthRiskLevel":"No data","areaKm2":7.496142,"centerLat":7.007425,"centerLng":125.000137,"geometrySource":"all_barangay-2.csv detailed WKT","geometryMatchMethod":"psgc_coordinate_bridge","boundaryPointCount":15},"geometry":{"type":"MultiPolygon","coordinates":[[[[125.023064,7.02757],[125.023933,7.01697],[125.024223,7.01089],[125.024879,7.00677],[125.015503,7.00523],[125.003868,7.00386],[125.002937,7.00411],[125.001343,7.0074],[124.999184,7.01262],[124.997223,7.0173],[124.997162,7.01855],[125.004883,7.0218],[125.011787,7.02479],[125.022636,7.0296],[125.023064,7.02757]]]]}},{"type":"Feature","properties":{"ID_0":177,"ISO":"PHL","NAME_0":"Philippines","ID_1":12047,"NAME_1":"Cotabato (North Cotabato)","ID_2":1204704,"NAME_2":"City of Kidapawan (Capital)","ID_3":1204704041,"NAME_3":"Magsaysay","NL_NAME_3":null,"VARNAME_3":null,"TYPE_3":"Barangay","ENGTYPE_3":"Village","PROVINCE":"Cotabato (North Cotabato)","REGION":"Region XII (Soccsksargen)","id":"barangay-1204704041","name":"Magsaysay","barangayCode":"1204704041","population":null,"formattedPop":null,"densityCategory":"No data","vulnerabilityRating":"No data","healthRiskLevel":"No data","areaKm2":1.924433,"centerLat":7.013268,"centerLng":125.074226,"geometrySource":"all_barangay-2.csv detailed WKT","geometryMatchMethod":"psgc_coordinate_bridge","boundaryPointCount":10},"geometry":{"type":"MultiPolygon","coordinates":[[[[125.082878,7.02084],[125.079521,7.01228],[125.077744,7.00707],[125.071381,7.00808],[125.061119,7.00658],[125.058342,7.0057],[125.061188,7.01128],[125.062492,7.02004],[125.062607,7.02353],[125.082878,7.02084]]]]}}]}
