{"type":"FeatureCollection","features":[{"type":"Feature","properties":{"ID_0":177,"ISO":"PHL","NAME_0":"Philippines","ID_1":8026,"NAME_1":"Eastern Samar","ID_2":802610,"NAME_2":"Hernani","ID_3":802610001,"NAME_3":"Batang","NL_NAME_3":null,"VARNAME_3":null,"TYPE_3":"Barangay","ENGTYPE_3":"Village","PROVINCE":"Eastern Samar","REGION":"Region VIII (Eastern Visayas)","id":"barangay-0802610001","name":"Batang","barangayCode":"0802610001","population":null,"formattedPop":null,"densityCategory":"No data","vulnerabilityRating":"No data","healthRiskLevel":"No data","areaKm2":1.268322,"centerLat":11.302357,"centerLng":125.602481,"geometrySource":"all_barangay-2.csv detailed WKT","geometryMatchMethod":"unique_official_admin_names","boundaryPointCount":46},"geometry":{"type":"MultiPolygon","coordinates":[[[[125.596153,11.31969],[125.598518,11.31746],[125.609818,11.30871],[125.609734,11.30861],[125.609734,11.30778],[125.609444,11.3075],[125.610283,11.30667],[125.610558,11.30667],[125.611107,11.30611],[125.611107,11.30583],[125.611389,11.30556],[125.611389,11.30528],[125.611954,11.30471],[125.612221,11.30444],[125.612503,11.30444],[125.613052,11.30389],[125.613052,11.30361],[125.613327,11.30333],[125.613327,11.30278],[125.613747,11.30238],[125.614166,11.30167],[125.613892,11.30167],[125.613052,11.30083],[125.612778,11.30111],[125.611954,11.30111],[125.611107,11.30194],[125.610283,11.30194],[125.610001,11.30167],[125.607483,11.30167],[125.607224,11.30167],[125.606941,11.30139],[125.606392,11.30139],[125.60611,11.30111],[125.605827,11.30111],[125.605553,11.30083],[125.605278,11.30083],[125.605003,11.30056],[125.605003,11.3],[125.604446,11.29944],[125.604156,11.29944],[125.603889,11.29917],[125.603607,11.29917],[125.602539,11.2981],[125.601967,11.29762],[125.587646,11.31255],[125.596153,11.31969]]]]}},{"type":"Feature","properties":{"ID_0":177,"ISO":"PHL","NAME_0":"Philippines","ID_1":8026,"NAME_1":"Eastern Samar","ID_2":802610,"NAME_2":"Hernani","ID_3":802610002,"NAME_3":"Cacatmonan","NL_NAME_3":null,"VARNAME_3":null,"TYPE_3":"Barangay","ENGTYPE_3":"Village","PROVINCE":"Eastern Samar","REGION":"Region VIII (Eastern Visayas)","id":"barangay-0802610002","name":"Cacatmonan","barangayCode":"0802610002","population":null,"formattedPop":null,"densityCategory":"No data","vulnerabilityRating":"No data","healthRiskLevel":"No data","areaKm2":17.550491,"centerLat":11.316613,"centerLng":125.567828,"geometrySource":"all_barangay-2.csv detailed WKT","geometryMatchMethod":"unique_official_admin_names","boundaryPointCount":5},"geometry":{"type":"MultiPolygon","coordinates":[[[[125.577003,11.34013],[125.596153,11.31969],[125.587646,11.31255],[125.566971,11.33721],[125.577003,11.34013]]]]}},{"type":"Feature","properties":{"ID_0":177,"ISO":"PHL","NAME_0":"Philippines","ID_1":8026,"NAME_1":"Eastern Samar","ID_2":802610,"NAME_2":"Hernani","ID_3":802610003,"NAME_3":"Garawon","NL_NAME_3":null,"VARNAME_3":null,"TYPE_3":"Barangay","ENGTYPE_3":"Village","PROVINCE":"Eastern Samar","REGION":"Region VIII (Eastern Visayas)","id":"barangay-0802610003","name":"Garawon","barangayCode":"0802610003","population":null,"formattedPop":null,"densityCategory":"No data","vulnerabilityRating":"No data","healthRiskLevel":"No data","areaKm2":1.542564,"centerLat":11.297721,"centerLng":125.590887,"geometrySource":"all_barangay-2.csv detailed WKT","geometryMatchMethod":"unique_official_admin_names","boundaryPointCount":29},"geometry":{"type":"MultiPolygon","coordinates":[[[[125.555023,11.33394],[125.561813,11.33583],[125.566971,11.33721],[125.587646,11.31255],[125.601967,11.29762],[125.602539,11.2981],[125.601387,11.29694],[125.601173,11.29694],[125.601112,11.29694],[125.600838,11.29667],[125.60083,11.29639],[125.600281,11.29583],[125.599998,11.29583],[125.599716,11.29556],[125.599442,11.29556],[125.598892,11.295],[125.59861,11.295],[125.597504,11.29389],[125.597221,11.29389],[125.596947,11.29361],[125.596107,11.29361],[125.595833,11.29333],[125.595558,11.29333],[125.595284,11.29306],[125.594543,11.29306],[125.593384,11.29357],[125.593239,11.29363],[125.592003,11.29367],[125.555023,11.33394]]]]}},{"type":"Feature","properties":{"ID_0":177,"ISO":"PHL","NAME_0":"Philippines","ID_1":8026,"NAME_1":"Eastern Samar","ID_2":802610,"NAME_2":"Hernani","ID_3":802610004,"NAME_3":"Canciledes","NL_NAME_3":null,"VARNAME_3":null,"TYPE_3":"Barangay","ENGTYPE_3":"Village","PROVINCE":"Eastern Samar","REGION":"Region VIII (Eastern Visayas)","id":"barangay-0802610004","name":"Canciledes","barangayCode":"0802610004","population":null,"formattedPop":null,"densityCategory":"No data","vulnerabilityRating":"No data","healthRiskLevel":"No data","areaKm2":7.346311,"centerLat":11.352407,"centerLng":125.617006,"geometrySource":"all_barangay-2.csv detailed WKT","geometryMatchMethod":"unique_official_admin_names","boundaryPointCount":49},"geometry":{"type":"MultiPolygon","coordinates":[[[[125.608093,11.36809],[125.60833,11.36833],[125.609169,11.36833],[125.609734,11.36889],[125.610001,11.36889],[125.610283,11.36917],[125.611954,11.36917],[125.612221,11.36945],[125.613609,11.36945],[125.613892,11.36972],[125.616669,11.36972],[125.617233,11.36917],[125.617767,11.36917],[125.618057,11.36889],[125.619453,11.36889],[125.620277,11.36972],[125.620552,11.36945],[125.621109,11.36945],[125.621948,11.36861],[125.622223,11.36861],[125.623894,11.36694],[125.623894,11.36667],[125.624733,11.36583],[125.624733,11.36556],[125.626389,11.36389],[125.626663,11.36389],[125.628609,11.36194],[125.628609,11.36167],[125.629448,11.36083],[125.629448,11.36028],[125.63028,11.35944],[125.630836,11.35944],[125.631111,11.35972],[125.631393,11.35944],[125.631393,11.35917],[125.631668,11.35889],[125.631668,11.35861],[125.632767,11.3575],[125.632767,11.35722],[125.633057,11.35694],[125.632767,11.35667],[125.632767,11.35595],[125.627068,11.35466],[125.589767,11.34661],[125.595192,11.3502],[125.601707,11.35576],[125.606369,11.36068],[125.607986,11.36493],[125.608093,11.36809]]]]}},{"type":"Feature","properties":{"ID_0":177,"ISO":"PHL","NAME_0":"Philippines","ID_1":8026,"NAME_1":"Eastern Samar","ID_2":802610,"NAME_2":"Hernani","ID_3":802610005,"NAME_3":"Carmen","NL_NAME_3":null,"VARNAME_3":null,"TYPE_3":"Barangay","ENGTYPE_3":"Village","PROVINCE":"Eastern Samar","REGION":"Region VIII (Eastern Visayas)","id":"barangay-0802610005","name":"Carmen","barangayCode":"0802610005","population":null,"formattedPop":null,"densityCategory":"No data","vulnerabilityRating":"No data","healthRiskLevel":"No data","areaKm2":4.642822,"centerLat":11.31404,"centerLng":125.599587,"geometrySource":"all_barangay-2.csv detailed WKT","geometryMatchMethod":"unique_official_admin_names","boundaryPointCount":31},"geometry":{"type":"MultiPolygon","coordinates":[[[[125.612511,11.32001],[125.613861,11.31985],[125.615463,11.31954],[125.616432,11.31908],[125.615677,11.31823],[125.614014,11.31602],[125.61261,11.31533],[125.611633,11.31326],[125.610558,11.31139],[125.610558,11.30972],[125.610283,11.30944],[125.610283,11.30917],[125.609818,11.30871],[125.598518,11.31746],[125.599098,11.3183],[125.599716,11.31931],[125.600639,11.32064],[125.601547,11.32082],[125.602547,11.32074],[125.603439,11.32159],[125.603943,11.32154],[125.604736,11.32133],[125.605797,11.32192],[125.606613,11.32194],[125.607338,11.32134],[125.607788,11.3209],[125.608688,11.32099],[125.609688,11.32103],[125.610229,11.32048],[125.611237,11.31999],[125.612511,11.32001]]]]}},{"type":"Feature","properties":{"ID_0":177,"ISO":"PHL","NAME_0":"Philippines","ID_1":8026,"NAME_1":"Eastern Samar","ID_2":802610,"NAME_2":"Hernani","ID_3":802610006,"NAME_3":"Nagaja","NL_NAME_3":null,"VARNAME_3":null,"TYPE_3":"Barangay","ENGTYPE_3":"Village","PROVINCE":"Eastern Samar","REGION":"Region VIII (Eastern Visayas)","id":"barangay-0802610006","name":"Nagaja","barangayCode":"0802610006","population":null,"formattedPop":null,"densityCategory":"No data","vulnerabilityRating":"No data","healthRiskLevel":"No data","areaKm2":1.562795,"centerLat":11.339974,"centerLng":125.625707,"geometrySource":"all_barangay-2.csv detailed WKT","geometryMatchMethod":"unique_official_admin_names","boundaryPointCount":57},"geometry":{"type":"MultiPolygon","coordinates":[[[[125.632767,11.35595],[125.632767,11.35556],[125.6325,11.35528],[125.632217,11.35528],[125.632217,11.355],[125.631943,11.35472],[125.631668,11.35472],[125.631668,11.35444],[125.631393,11.35417],[125.630547,11.35417],[125.63028,11.35389],[125.63028,11.35361],[125.630547,11.35333],[125.631264,11.35232],[125.631813,11.35163],[125.632767,11.35083],[125.633057,11.35056],[125.633057,11.34667],[125.6325,11.34324],[125.632736,11.33982],[125.632767,11.33938],[125.632767,11.33745],[125.631943,11.33611],[125.631393,11.33556],[125.631111,11.33556],[125.630836,11.33583],[125.630836,11.33639],[125.629723,11.3375],[125.629173,11.3375],[125.628891,11.33778],[125.628723,11.33778],[125.626663,11.33778],[125.626389,11.33806],[125.626106,11.33778],[125.626106,11.3375],[125.626007,11.33739],[125.625832,11.33722],[125.625832,11.33667],[125.626389,11.33611],[125.626389,11.33583],[125.626106,11.33556],[125.626106,11.33528],[125.625832,11.335],[125.625832,11.33472],[125.625427,11.33432],[125.625267,11.33417],[125.624168,11.33528],[125.623894,11.33528],[125.623611,11.335],[125.623337,11.335],[125.62278,11.33444],[125.62278,11.33361],[125.622498,11.33333],[125.618652,11.33242],[125.617912,11.33226],[125.627068,11.35466],[125.632767,11.35595]]]]}},{"type":"Feature","properties":{"ID_0":177,"ISO":"PHL","NAME_0":"Philippines","ID_1":8026,"NAME_1":"Eastern Samar","ID_2":802610,"NAME_2":"Hernani","ID_3":802610007,"NAME_3":"Padang","NL_NAME_3":null,"VARNAME_3":null,"TYPE_3":"Barangay","ENGTYPE_3":"Village","PROVINCE":"Eastern Samar","REGION":"Region VIII (Eastern Visayas)","id":"barangay-0802610007","name":"Padang","barangayCode":"0802610007","population":null,"formattedPop":null,"densityCategory":"No data","vulnerabilityRating":"No data","healthRiskLevel":"No data","areaKm2":2.220537,"centerLat":11.33275,"centerLng":125.613267,"geometrySource":"all_barangay-2.csv detailed WKT","geometryMatchMethod":"unique_official_admin_names","boundaryPointCount":7},"geometry":{"type":"MultiPolygon","coordinates":[[[[125.627068,11.35466],[125.617912,11.33226],[125.610817,11.33367],[125.580902,11.3422],[125.587708,11.34523],[125.589767,11.34661],[125.627068,11.35466]]]]}},{"type":"Feature","properties":{"ID_0":177,"ISO":"PHL","NAME_0":"Philippines","ID_1":8026,"NAME_1":"Eastern Samar","ID_2":802610,"NAME_2":"Hernani","ID_3":802610008,"NAME_3":"Barangay 1","NL_NAME_3":null,"VARNAME_3":null,"TYPE_3":"Barangay","ENGTYPE_3":"Village","PROVINCE":"Eastern Samar","REGION":"Region VIII (Eastern Visayas)","id":"barangay-0802610008","name":"Barangay 1","barangayCode":"0802610008","population":null,"formattedPop":null,"densityCategory":"No data","vulnerabilityRating":"No data","healthRiskLevel":"No data","areaKm2":0.102736,"centerLat":11.326399,"centerLng":125.618459,"geometrySource":"all_barangay-2.csv detailed WKT","geometryMatchMethod":"unique_official_admin_names","boundaryPointCount":8},"geometry":{"type":"MultiPolygon","coordinates":[[[[125.618652,11.33242],[125.619766,11.32969],[125.616791,11.32575],[125.613243,11.32726],[125.608978,11.32902],[125.610817,11.33367],[125.617912,11.33226],[125.618652,11.33242]]]]}},{"type":"Feature","properties":{"ID_0":177,"ISO":"PHL","NAME_0":"Philippines","ID_1":8026,"NAME_1":"Eastern Samar","ID_2":802610,"NAME_2":"Hernani","ID_3":802610009,"NAME_3":"Barangay 2","NL_NAME_3":null,"VARNAME_3":null,"TYPE_3":"Barangay","ENGTYPE_3":"Village","PROVINCE":"Eastern Samar","REGION":"Region VIII (Eastern Visayas)","id":"barangay-0802610009","name":"Barangay 2","barangayCode":"0802610009","population":null,"formattedPop":null,"densityCategory":"No data","vulnerabilityRating":"No data","healthRiskLevel":"No data","areaKm2":0.384238,"centerLat":11.326203,"centerLng":125.622688,"geometrySource":"all_barangay-2.csv detailed WKT","geometryMatchMethod":"unique_official_admin_names","boundaryPointCount":38},"geometry":{"type":"MultiPolygon","coordinates":[[[[125.622498,11.33333],[125.622498,11.33222],[125.62278,11.33194],[125.62278,11.33056],[125.623337,11.33],[125.623337,11.32889],[125.624168,11.32889],[125.624443,11.32861],[125.624733,11.32889],[125.625,11.32889],[125.626389,11.3275],[125.626663,11.3275],[125.626953,11.32722],[125.626953,11.3266],[125.626953,11.32611],[125.626663,11.32583],[125.626663,11.32556],[125.626106,11.325],[125.626106,11.32472],[125.625557,11.32417],[125.625557,11.32361],[125.625267,11.32333],[125.624733,11.32333],[125.624168,11.32278],[125.623894,11.32306],[125.623611,11.32306],[125.623047,11.32361],[125.623047,11.32389],[125.62278,11.32389],[125.622498,11.32417],[125.622253,11.32417],[125.621674,11.32417],[125.620987,11.32349],[125.618347,11.32494],[125.616791,11.32575],[125.619766,11.32969],[125.618652,11.33242],[125.622498,11.33333]]]]}},{"type":"Feature","properties":{"ID_0":177,"ISO":"PHL","NAME_0":"Philippines","ID_1":8026,"NAME_1":"Eastern Samar","ID_2":802610,"NAME_2":"Hernani","ID_3":802610010,"NAME_3":"Barangay 3","NL_NAME_3":null,"VARNAME_3":null,"TYPE_3":"Barangay","ENGTYPE_3":"Village","PROVINCE":"Eastern Samar","REGION":"Region VIII (Eastern Visayas)","id":"barangay-0802610010","name":"Barangay 3","barangayCode":"0802610010","population":null,"formattedPop":null,"densityCategory":"No data","vulnerabilityRating":"No data","healthRiskLevel":"No data","areaKm2":0.476791,"centerLat":11.323117,"centerLng":125.613552,"geometrySource":"all_barangay-2.csv detailed WKT","geometryMatchMethod":"unique_official_admin_names","boundaryPointCount":13},"geometry":{"type":"MultiPolygon","coordinates":[[[[125.616791,11.32575],[125.612511,11.32001],[125.611237,11.31999],[125.610229,11.32048],[125.609688,11.32103],[125.608688,11.32099],[125.607788,11.3209],[125.607338,11.32134],[125.606613,11.32194],[125.605797,11.32192],[125.608978,11.32902],[125.613243,11.32726],[125.616791,11.32575]]]]}},{"type":"Feature","properties":{"ID_0":177,"ISO":"PHL","NAME_0":"Philippines","ID_1":8026,"NAME_1":"Eastern Samar","ID_2":802610,"NAME_2":"Hernani","ID_3":802610011,"NAME_3":"Barangay 4","NL_NAME_3":null,"VARNAME_3":null,"TYPE_3":"Barangay","ENGTYPE_3":"Village","PROVINCE":"Eastern Samar","REGION":"Region VIII (Eastern Visayas)","id":"barangay-0802610011","name":"Barangay 4","barangayCode":"0802610011","population":null,"formattedPop":null,"densityCategory":"No data","vulnerabilityRating":"No data","healthRiskLevel":"No data","areaKm2":0.20374,"centerLat":11.320265,"centerLng":125.615795,"geometrySource":"all_barangay-2.csv detailed WKT","geometryMatchMethod":"unique_official_admin_names","boundaryPointCount":11},"geometry":{"type":"MultiPolygon","coordinates":[[[[125.616791,11.32575],[125.618347,11.32494],[125.620987,11.32349],[125.620277,11.32278],[125.620003,11.32278],[125.6175,11.32028],[125.616432,11.31908],[125.615463,11.31954],[125.613861,11.31985],[125.612511,11.32001],[125.616791,11.32575]]]]}},{"type":"Feature","properties":{"ID_0":177,"ISO":"PHL","NAME_0":"Philippines","ID_1":8026,"NAME_1":"Eastern Samar","ID_2":802610,"NAME_2":"Hernani","ID_3":802610012,"NAME_3":"San Isidro","NL_NAME_3":null,"VARNAME_3":null,"TYPE_3":"Barangay","ENGTYPE_3":"Village","PROVINCE":"Eastern Samar","REGION":"Region VIII (Eastern Visayas)","id":"barangay-0802610012","name":"San Isidro","barangayCode":"0802610012","population":null,"formattedPop":null,"densityCategory":"No data","vulnerabilityRating":"No data","healthRiskLevel":"No data","areaKm2":7.674977,"centerLat":11.33456,"centerLng":125.593691,"geometrySource":"all_barangay-2.csv detailed WKT","geometryMatchMethod":"unique_official_admin_names","boundaryPointCount":16},"geometry":{"type":"MultiPolygon","coordinates":[[[[125.580902,11.3422],[125.610817,11.33367],[125.608978,11.32902],[125.605797,11.32192],[125.604736,11.32133],[125.603943,11.32154],[125.603439,11.32159],[125.602547,11.32074],[125.601547,11.32082],[125.600639,11.32064],[125.599716,11.31931],[125.599098,11.3183],[125.598518,11.31746],[125.596153,11.31969],[125.577003,11.34013],[125.580902,11.3422]]]]}},{"type":"Feature","properties":{"ID_0":177,"ISO":"PHL","NAME_0":"Philippines","ID_1":8026,"NAME_1":"Eastern Samar","ID_2":802610,"NAME_2":"Hernani","ID_3":802610013,"NAME_3":"San Miguel","NL_NAME_3":null,"VARNAME_3":null,"TYPE_3":"Barangay","ENGTYPE_3":"Village","PROVINCE":"Eastern Samar","REGION":"Region VIII (Eastern Visayas)","id":"barangay-0802610013","name":"San Miguel","barangayCode":"0802610013","population":null,"formattedPop":null,"densityCategory":"No data","vulnerabilityRating":"No data","healthRiskLevel":"No data","areaKm2":4.494815,"centerLat":11.289303,"centerLng":125.57116,"geometrySource":"all_barangay-2.csv detailed WKT","geometryMatchMethod":"unique_official_admin_names","boundaryPointCount":53},"geometry":{"type":"MultiPolygon","coordinates":[[[[125.555023,11.33394],[125.592003,11.29367],[125.593239,11.29363],[125.593384,11.29357],[125.594543,11.29306],[125.594437,11.29306],[125.593887,11.2925],[125.593613,11.2925],[125.592781,11.29167],[125.591667,11.29167],[125.591393,11.29194],[125.590553,11.29111],[125.58889,11.29111],[125.588608,11.29083],[125.587784,11.29083],[125.587288,11.29132],[125.587219,11.29139],[125.586891,11.29106],[125.586113,11.29028],[125.585701,11.29028],[125.585564,11.29028],[125.585518,11.29024],[125.583893,11.28861],[125.583893,11.28833],[125.583611,11.28806],[125.583611,11.28778],[125.582779,11.28694],[125.582497,11.28694],[125.582352,11.2868],[125.582222,11.28667],[125.581947,11.28667],[125.581657,11.28639],[125.581108,11.28694],[125.580833,11.28694],[125.580727,11.28704],[125.580559,11.28722],[125.580276,11.28722],[125.580002,11.2875],[125.57972,11.2875],[125.579437,11.28722],[125.578712,11.28722],[125.578598,11.28724],[125.578331,11.28694],[125.578293,11.28699],[125.578056,11.28722],[125.577499,11.28722],[125.577217,11.28694],[125.57679,11.28694],[125.57637,11.28693],[125.558029,11.30725],[125.540451,11.32962],[125.543861,11.33086],[125.555023,11.33394]]]]}}]}
