{"type":"FeatureCollection","features":[{"type":"Feature","properties":{"ID_0":177,"ISO":"PHL","NAME_0":"Philippines","ID_1":12063,"NAME_1":"South Cotabato","ID_2":1206314,"NAME_2":"Tampakan","ID_3":1206314001,"NAME_3":"Albagan","NL_NAME_3":null,"VARNAME_3":null,"TYPE_3":"Barangay","ENGTYPE_3":"Village","PROVINCE":"South Cotabato","REGION":"Region XII (Soccsksargen)","id":"barangay-1206314001","name":"Albagan","barangayCode":"1206314001","population":null,"formattedPop":null,"densityCategory":"No data","vulnerabilityRating":"No data","healthRiskLevel":"No data","areaKm2":11.030629,"centerLat":6.426423,"centerLng":125.031534,"geometrySource":"all_barangay-2.csv detailed WKT","geometryMatchMethod":"unique_official_admin_names","boundaryPointCount":35},"geometry":{"type":"MultiPolygon","coordinates":[[[[125.039581,6.39744],[125.026947,6.39336],[125.0224,6.39605],[125.018311,6.39863],[125.016296,6.40261],[125.016296,6.40531],[125.014473,6.409],[125.010696,6.41154],[125.007301,6.41075],[125.003754,6.41266],[125.000717,6.41218],[125.001389,6.41767],[124.99984,6.41916],[124.995796,6.42103],[124.999924,6.42343],[125.002693,6.42342],[125.004646,6.42377],[125.00946,6.42244],[125.012909,6.42237],[125.014771,6.42205],[125.017319,6.42082],[125.018677,6.42077],[125.02153,6.42085],[125.025887,6.42321],[125.027344,6.42441],[125.032471,6.42268],[125.034523,6.42226],[125.036057,6.42077],[125.034927,6.41835],[125.033852,6.41493],[125.034042,6.41084],[125.034767,6.40719],[125.035553,6.40381],[125.036697,6.40124],[125.039581,6.39744]]]]}},{"type":"Feature","properties":{"ID_0":177,"ISO":"PHL","NAME_0":"Philippines","ID_1":12063,"NAME_1":"South Cotabato","ID_2":1206314,"NAME_2":"Tampakan","ID_3":1206314002,"NAME_3":"Kipalbig","NL_NAME_3":null,"VARNAME_3":null,"TYPE_3":"Barangay","ENGTYPE_3":"Village","PROVINCE":"South Cotabato","REGION":"Region XII (Soccsksargen)","id":"barangay-1206314002","name":"Kipalbig","barangayCode":"1206314002","population":null,"formattedPop":null,"densityCategory":"No data","vulnerabilityRating":"No data","healthRiskLevel":"No data","areaKm2":22.547622,"centerLat":6.412609,"centerLng":124.937769,"geometrySource":"all_barangay-2.csv detailed WKT","geometryMatchMethod":"unique_official_admin_names","boundaryPointCount":73},"geometry":{"type":"MultiPolygon","coordinates":[[[[124.913361,6.4179],[124.918221,6.40851],[124.921989,6.41016],[124.927528,6.39865],[124.933746,6.40374],[124.94101,6.3979],[124.949539,6.40315],[124.95076,6.40216],[124.959824,6.3846],[124.962807,6.38719],[124.964119,6.38939],[124.962929,6.39844],[124.965057,6.39883],[124.968933,6.39778],[124.970047,6.39804],[124.974312,6.40256],[124.975449,6.40188],[124.976219,6.40035],[124.9804,6.40104],[124.982483,6.40085],[124.983757,6.39747],[124.986633,6.39426],[124.988167,6.39358],[124.99189,6.39225],[124.994339,6.39021],[124.993118,6.38738],[124.991043,6.38446],[124.98867,6.38335],[124.984627,6.38243],[124.981499,6.38334],[124.977814,6.38377],[124.975319,6.38261],[124.973053,6.38371],[124.972229,6.38268],[124.970963,6.38403],[124.967918,6.38356],[124.965233,6.38226],[124.960159,6.38211],[124.958702,6.37965],[124.956787,6.37822],[124.954849,6.38043],[124.951752,6.38225],[124.946533,6.38003],[124.943207,6.38019],[124.939041,6.37967],[124.931824,6.38237],[124.930908,6.38161],[124.927963,6.37961],[124.926231,6.37998],[124.924507,6.3776],[124.922783,6.37757],[124.922188,6.3805],[124.920647,6.38105],[124.919006,6.38272],[124.917961,6.3834],[124.916962,6.38458],[124.91433,6.38595],[124.91188,6.38619],[124.911789,6.38889],[124.908363,6.39035],[124.908722,6.393],[124.906937,6.39511],[124.904778,6.39611],[124.903023,6.39773],[124.903687,6.39897],[124.902542,6.40139],[124.900162,6.40311],[124.900177,6.40437],[124.897583,6.40618],[124.89724,6.40763],[124.898033,6.40865],[124.89846,6.41233],[124.913361,6.4179]]]]}},{"type":"Feature","properties":{"ID_0":177,"ISO":"PHL","NAME_0":"Philippines","ID_1":12063,"NAME_1":"South Cotabato","ID_2":1206314,"NAME_2":"Tampakan","ID_3":1206314003,"NAME_3":"Lambayong","NL_NAME_3":null,"VARNAME_3":null,"TYPE_3":"Barangay","ENGTYPE_3":"Village","PROVINCE":"South Cotabato","REGION":"Region XII (Soccsksargen)","id":"barangay-1206314003","name":"Lambayong","barangayCode":"1206314003","population":null,"formattedPop":null,"densityCategory":"No data","vulnerabilityRating":"No data","healthRiskLevel":"No data","areaKm2":9.497518,"centerLat":6.431559,"centerLng":124.969022,"geometrySource":"all_barangay-2.csv detailed WKT","geometryMatchMethod":"unique_official_admin_names","boundaryPointCount":27},"geometry":{"type":"MultiPolygon","coordinates":[[[[124.986526,6.42526],[124.986771,6.42049],[124.985863,6.41789],[124.982826,6.41385],[124.98243,6.41197],[124.984467,6.40741],[124.983749,6.40395],[124.982758,6.40243],[124.9804,6.40104],[124.976219,6.40035],[124.975449,6.40188],[124.974312,6.40256],[124.970047,6.39804],[124.968933,6.39778],[124.965057,6.39883],[124.962929,6.39844],[124.964119,6.38939],[124.962807,6.38719],[124.959824,6.3846],[124.95076,6.40216],[124.954887,6.40578],[124.949432,6.41503],[124.972137,6.42754],[124.974792,6.42213],[124.980537,6.42547],[124.982307,6.42402],[124.986526,6.42526]]]]}},{"type":"Feature","properties":{"ID_0":177,"ISO":"PHL","NAME_0":"Philippines","ID_1":12063,"NAME_1":"South Cotabato","ID_2":1206314,"NAME_2":"Tampakan","ID_3":1206314004,"NAME_3":"Liberty","NL_NAME_3":null,"VARNAME_3":null,"TYPE_3":"Barangay","ENGTYPE_3":"Village","PROVINCE":"South Cotabato","REGION":"Region XII (Soccsksargen)","id":"barangay-1206314004","name":"Liberty","barangayCode":"1206314004","population":null,"formattedPop":null,"densityCategory":"No data","vulnerabilityRating":"No data","healthRiskLevel":"No data","areaKm2":12.265068,"centerLat":6.457946,"centerLng":124.988638,"geometrySource":"all_barangay-2.csv detailed WKT","geometryMatchMethod":"unique_official_admin_names","boundaryPointCount":39},"geometry":{"type":"MultiPolygon","coordinates":[[[[124.997917,6.45803],[124.997887,6.45502],[125.001457,6.4532],[125.004013,6.45098],[125.00647,6.44895],[125.009789,6.44448],[125.011597,6.44253],[125.01265,6.4387],[125.011162,6.43529],[125.008667,6.43441],[125.004402,6.43425],[125.000641,6.43261],[124.997177,6.43213],[124.99752,6.4279],[124.995377,6.42395],[124.994476,6.42238],[124.992393,6.42244],[124.99157,6.42487],[124.986526,6.42526],[124.982307,6.42402],[124.980537,6.42547],[124.974792,6.42213],[124.972137,6.42754],[124.969673,6.43135],[124.966614,6.43589],[124.970268,6.4373],[124.96714,6.4421],[124.964149,6.44072],[124.962646,6.44358],[124.965553,6.44485],[124.970863,6.44671],[124.970718,6.44846],[124.97879,6.45107],[124.986542,6.45265],[124.988907,6.45358],[124.990494,6.45429],[124.990807,6.45595],[124.994843,6.45746],[124.997917,6.45803]]]]}},{"type":"Feature","properties":{"ID_0":177,"ISO":"PHL","NAME_0":"Philippines","ID_1":12063,"NAME_1":"South Cotabato","ID_2":1206314,"NAME_2":"Tampakan","ID_3":1206314005,"NAME_3":"Maltana","NL_NAME_3":null,"VARNAME_3":null,"TYPE_3":"Barangay","ENGTYPE_3":"Village","PROVINCE":"South Cotabato","REGION":"Region XII (Soccsksargen)","id":"barangay-1206314005","name":"Maltana","barangayCode":"1206314005","population":null,"formattedPop":null,"densityCategory":"No data","vulnerabilityRating":"No data","healthRiskLevel":"No data","areaKm2":8.299811,"centerLat":6.433904,"centerLng":124.944535,"geometrySource":"all_barangay-2.csv detailed WKT","geometryMatchMethod":"unique_official_admin_names","boundaryPointCount":14},"geometry":{"type":"MultiPolygon","coordinates":[[[[124.969673,6.43135],[124.972137,6.42754],[124.949432,6.41503],[124.954887,6.40578],[124.95076,6.40216],[124.949539,6.40315],[124.94101,6.3979],[124.933746,6.40374],[124.927528,6.39865],[124.921989,6.41016],[124.955803,6.4296],[124.963287,6.4338],[124.966019,6.4289],[124.969673,6.43135]]]]}},{"type":"Feature","properties":{"ID_0":177,"ISO":"PHL","NAME_0":"Philippines","ID_1":12063,"NAME_1":"South Cotabato","ID_2":1206314,"NAME_2":"Tampakan","ID_3":1206314006,"NAME_3":"Poblacion","NL_NAME_3":null,"VARNAME_3":null,"TYPE_3":"Barangay","ENGTYPE_3":"Village","PROVINCE":"South Cotabato","REGION":"Region XII (Soccsksargen)","id":"barangay-1206314006","name":"Poblacion","barangayCode":"1206314006","population":null,"formattedPop":null,"densityCategory":"No data","vulnerabilityRating":"No data","healthRiskLevel":"No data","areaKm2":6.824822,"centerLat":6.444491,"centerLng":124.931636,"geometrySource":"all_barangay-2.csv detailed WKT","geometryMatchMethod":"unique_official_admin_names","boundaryPointCount":25},"geometry":{"type":"MultiPolygon","coordinates":[[[[124.947006,6.45089],[124.950531,6.44772],[124.946907,6.44419],[124.949181,6.44017],[124.955803,6.4296],[124.921989,6.41016],[124.918221,6.40851],[124.913361,6.4179],[124.925331,6.42313],[124.924217,6.42522],[124.922371,6.42563],[124.919182,6.43061],[124.920464,6.43143],[124.918503,6.43652],[124.928032,6.44107],[124.921638,6.45499],[124.92524,6.45562],[124.927071,6.45414],[124.929626,6.45476],[124.931107,6.45333],[124.932678,6.45221],[124.93869,6.45288],[124.940231,6.45266],[124.944099,6.45329],[124.947006,6.45089]]]]}},{"type":"Feature","properties":{"ID_0":177,"ISO":"PHL","NAME_0":"Philippines","ID_1":12063,"NAME_1":"South Cotabato","ID_2":1206314,"NAME_2":"Tampakan","ID_3":1206314008,"NAME_3":"Buto","NL_NAME_3":null,"VARNAME_3":null,"TYPE_3":"Barangay","ENGTYPE_3":"Village","PROVINCE":"South Cotabato","REGION":"Region XII (Soccsksargen)","id":"barangay-1206314008","name":"Buto","barangayCode":"1206314008","population":null,"formattedPop":null,"densityCategory":"No data","vulnerabilityRating":"No data","healthRiskLevel":"No data","areaKm2":17.012992,"centerLat":6.488483,"centerLng":124.974278,"geometrySource":"all_barangay-2.csv detailed WKT","geometryMatchMethod":"unique_official_admin_names","boundaryPointCount":35},"geometry":{"type":"MultiPolygon","coordinates":[[[[124.989029,6.47413],[124.988342,6.47031],[124.989754,6.46841],[124.991432,6.46661],[124.991562,6.46499],[124.990517,6.46252],[124.989807,6.46064],[124.989807,6.45821],[124.990257,6.45623],[124.990807,6.45595],[124.990494,6.45429],[124.988907,6.45358],[124.986542,6.45265],[124.97879,6.45107],[124.970718,6.44846],[124.970863,6.44671],[124.965553,6.44485],[124.962646,6.44358],[124.955078,6.44028],[124.953903,6.44271],[124.949181,6.44017],[124.946907,6.44419],[124.950531,6.44772],[124.947006,6.45089],[124.953613,6.45159],[124.960693,6.45908],[124.965851,6.4604],[124.969429,6.46248],[124.970451,6.46407],[124.971474,6.46733],[124.976044,6.47191],[124.979309,6.47462],[124.98349,6.47502],[124.986801,6.47441],[124.989029,6.47413]]]]}},{"type":"Feature","properties":{"ID_0":177,"ISO":"PHL","NAME_0":"Philippines","ID_1":12063,"NAME_1":"South Cotabato","ID_2":1206314,"NAME_2":"Tampakan","ID_3":1206314009,"NAME_3":"Lampitak","NL_NAME_3":null,"VARNAME_3":null,"TYPE_3":"Barangay","ENGTYPE_3":"Village","PROVINCE":"South Cotabato","REGION":"Region XII (Soccsksargen)","id":"barangay-1206314009","name":"Lampitak","barangayCode":"1206314009","population":null,"formattedPop":null,"densityCategory":"No data","vulnerabilityRating":"No data","healthRiskLevel":"No data","areaKm2":16.321986,"centerLat":6.42817,"centerLng":125.004501,"geometrySource":"all_barangay-2.csv detailed WKT","geometryMatchMethod":"unique_official_admin_names","boundaryPointCount":39},"geometry":{"type":"MultiPolygon","coordinates":[[[[124.994476,6.42238],[124.995796,6.42103],[124.99984,6.41916],[125.001389,6.41767],[125.000717,6.41218],[125.003754,6.41266],[125.007301,6.41075],[125.010696,6.41154],[125.014473,6.409],[125.016296,6.40531],[125.016296,6.40261],[125.018311,6.39863],[125.0224,6.39605],[125.026947,6.39336],[125.018127,6.3949],[125.015373,6.39374],[125.010696,6.39268],[125.005287,6.38934],[125.002968,6.39142],[125.001648,6.39237],[124.996979,6.39222],[124.994339,6.39021],[124.99189,6.39225],[124.988167,6.39358],[124.986633,6.39426],[124.983757,6.39747],[124.982483,6.40085],[124.9804,6.40104],[124.982758,6.40243],[124.983749,6.40395],[124.984467,6.40741],[124.98243,6.41197],[124.982826,6.41385],[124.985863,6.41789],[124.986771,6.42049],[124.986526,6.42526],[124.99157,6.42487],[124.992393,6.42244],[124.994476,6.42238]]]]}},{"type":"Feature","properties":{"ID_0":177,"ISO":"PHL","NAME_0":"Philippines","ID_1":12063,"NAME_1":"South Cotabato","ID_2":1206314,"NAME_2":"Tampakan","ID_3":1206314010,"NAME_3":"Palo","NL_NAME_3":null,"VARNAME_3":null,"TYPE_3":"Barangay","ENGTYPE_3":"Village","PROVINCE":"South Cotabato","REGION":"Region XII (Soccsksargen)","id":"barangay-1206314010","name":"Palo","barangayCode":"1206314010","population":null,"formattedPop":null,"densityCategory":"No data","vulnerabilityRating":"No data","healthRiskLevel":"No data","areaKm2":15.566528,"centerLat":6.522351,"centerLng":125.01128,"geometrySource":"all_barangay-2.csv detailed WKT","geometryMatchMethod":"unique_official_admin_names","boundaryPointCount":16},"geometry":{"type":"MultiPolygon","coordinates":[[[[125.019783,6.5354],[125.019974,6.53572],[125.050873,6.53492],[125.052383,6.53488],[125.073936,6.53432],[125.113136,6.53333],[125.048431,6.45431],[125.047073,6.45207],[125.045937,6.45081],[125.015823,6.47922],[124.994942,6.48025],[124.996536,6.48377],[124.996643,6.48691],[124.995583,6.48923],[124.994667,6.49322],[125.019783,6.5354]]]]}},{"type":"Feature","properties":{"ID_0":177,"ISO":"PHL","NAME_0":"Philippines","ID_1":12063,"NAME_1":"South Cotabato","ID_2":1206314,"NAME_2":"Tampakan","ID_3":1206314011,"NAME_3":"Pula-bato","NL_NAME_3":null,"VARNAME_3":null,"TYPE_3":"Barangay","ENGTYPE_3":"Village","PROVINCE":"South Cotabato","REGION":"Region XII (Soccsksargen)","id":"barangay-1206314011","name":"Pula-bato","barangayCode":"1206314011","population":null,"formattedPop":null,"densityCategory":"No data","vulnerabilityRating":"No data","healthRiskLevel":"No data","areaKm2":15.519841,"centerLat":6.471591,"centerLng":125.019342,"geometrySource":"all_barangay-2.csv detailed WKT","geometryMatchMethod":"unique_official_admin_names","boundaryPointCount":21},"geometry":{"type":"MultiPolygon","coordinates":[[[[124.997917,6.45803],[124.997787,6.46028],[124.997421,6.46235],[124.997513,6.46415],[125.002037,6.46947],[125.008659,6.46998],[125.031326,6.44949],[125.029877,6.44779],[125.029617,6.44523],[125.028526,6.44411],[125.025352,6.44399],[125.02182,6.43807],[125.017647,6.43791],[125.01265,6.4387],[125.011597,6.44253],[125.009789,6.44448],[125.00647,6.44895],[125.004013,6.45098],[125.001457,6.4532],[124.997887,6.45502],[124.997917,6.45803]]]]}},{"type":"Feature","properties":{"ID_0":177,"ISO":"PHL","NAME_0":"Philippines","ID_1":12063,"NAME_1":"South Cotabato","ID_2":1206314,"NAME_2":"Tampakan","ID_3":1206314012,"NAME_3":"Danlag","NL_NAME_3":null,"VARNAME_3":null,"TYPE_3":"Barangay","ENGTYPE_3":"Village","PROVINCE":"South Cotabato","REGION":"Region XII (Soccsksargen)","id":"barangay-1206314012","name":"Danlag","barangayCode":"1206314012","population":null,"formattedPop":null,"densityCategory":"No data","vulnerabilityRating":"No data","healthRiskLevel":"No data","areaKm2":42.972478,"centerLat":6.504017,"centerLng":125.044966,"geometrySource":"all_barangay-2.csv detailed WKT","geometryMatchMethod":"unique_official_admin_names","boundaryPointCount":26},"geometry":{"type":"MultiPolygon","coordinates":[[[[124.994942,6.48025],[125.015823,6.47922],[125.045937,6.45081],[125.042358,6.44948],[125.039963,6.44918],[125.036377,6.44951],[125.035049,6.45006],[125.031326,6.44949],[125.008659,6.46998],[125.002037,6.46947],[124.997513,6.46415],[124.997421,6.46235],[124.997787,6.46028],[124.997917,6.45803],[124.994843,6.45746],[124.990807,6.45595],[124.990257,6.45623],[124.989807,6.45821],[124.989807,6.46064],[124.990517,6.46252],[124.991562,6.46499],[124.991432,6.46661],[124.989754,6.46841],[124.988342,6.47031],[124.989029,6.47413],[124.994942,6.48025]]]]}},{"type":"Feature","properties":{"ID_0":177,"ISO":"PHL","NAME_0":"Philippines","ID_1":12063,"NAME_1":"South Cotabato","ID_2":1206314,"NAME_2":"Tampakan","ID_3":1206314013,"NAME_3":"San Isidro","NL_NAME_3":null,"VARNAME_3":null,"TYPE_3":"Barangay","ENGTYPE_3":"Village","PROVINCE":"South Cotabato","REGION":"Region XII (Soccsksargen)","id":"barangay-1206314013","name":"San Isidro","barangayCode":"1206314013","population":null,"formattedPop":null,"densityCategory":"No data","vulnerabilityRating":"No data","healthRiskLevel":"No data","areaKm2":3.328351,"centerLat":6.453668,"centerLng":124.95722,"geometrySource":"all_barangay-2.csv detailed WKT","geometryMatchMethod":"unique_official_admin_names","boundaryPointCount":13},"geometry":{"type":"MultiPolygon","coordinates":[[[[124.949181,6.44017],[124.953903,6.44271],[124.955078,6.44028],[124.962646,6.44358],[124.964149,6.44072],[124.96714,6.4421],[124.970268,6.4373],[124.966614,6.43589],[124.969673,6.43135],[124.966019,6.4289],[124.963287,6.4338],[124.955803,6.4296],[124.949181,6.44017]]]]}},{"type":"Feature","properties":{"ID_0":177,"ISO":"PHL","NAME_0":"Philippines","ID_1":12063,"NAME_1":"South Cotabato","ID_2":1206314,"NAME_2":"Tampakan","ID_3":1206314014,"NAME_3":"Santa Cruz","NL_NAME_3":null,"VARNAME_3":null,"TYPE_3":"Barangay","ENGTYPE_3":"Village","PROVINCE":"South Cotabato","REGION":"Region XII (Soccsksargen)","id":"barangay-1206314014","name":"Santa Cruz","barangayCode":"1206314014","population":null,"formattedPop":null,"densityCategory":"No data","vulnerabilityRating":"No data","healthRiskLevel":"No data","areaKm2":4.592867,"centerLat":6.46498,"centerLng":124.935413,"geometrySource":"barangays.geojson simplified fallback","geometryMatchMethod":"simplified_fallback","boundaryPointCount":6},"geometry":{"type":"Polygon","coordinates":[[[124.9207853900001,6.474152221000054],[124.94350227200005,6.472786259000031],[124.9508905450001,6.464683690000072],[124.9249012470001,6.45235124200002],[124.92917974000011,6.45847006300005],[124.9207853900001,6.474152221000054]]]}}]}
