{"type":"FeatureCollection","features":[{"type":"Feature","properties":{"ID_0":177,"ISO":"PHL","NAME_0":"Philippines","ID_1":7046,"NAME_1":"Negros Oriental","ID_2":704603,"NAME_2":"Bacong","ID_3":704603001,"NAME_3":"Balayagmanok","NL_NAME_3":null,"VARNAME_3":null,"TYPE_3":"Barangay","ENGTYPE_3":"Village","PROVINCE":"Negros Oriental","REGION":"Region VII (Central Visayas)","id":"barangay-0704603001","name":"Balayagmanok","barangayCode":"0704603001","population":null,"formattedPop":null,"densityCategory":"No data","vulnerabilityRating":"No data","healthRiskLevel":"No data","areaKm2":1.985133,"centerLat":9.261959,"centerLng":123.259065,"geometrySource":"all_barangay-2.csv detailed WKT","geometryMatchMethod":"unique_official_admin_names","boundaryPointCount":18},"geometry":{"type":"MultiPolygon","coordinates":[[[[123.274658,9.2615],[123.277672,9.25774],[123.275223,9.25597],[123.274017,9.25512],[123.272247,9.25456],[123.271118,9.25444],[123.269974,9.25457],[123.268631,9.25446],[123.266983,9.25451],[123.265984,9.25489],[123.263428,9.2553],[123.263077,9.25691],[123.263168,9.2579],[123.262741,9.25863],[123.263206,9.26032],[123.264076,9.26048],[123.264122,9.26277],[123.274658,9.2615]]]]}},{"type":"Feature","properties":{"ID_0":177,"ISO":"PHL","NAME_0":"Philippines","ID_1":7046,"NAME_1":"Negros Oriental","ID_2":704603,"NAME_2":"Bacong","ID_3":704603002,"NAME_3":"Banilad","NL_NAME_3":null,"VARNAME_3":null,"TYPE_3":"Barangay","ENGTYPE_3":"Village","PROVINCE":"Negros Oriental","REGION":"Region VII (Central Visayas)","id":"barangay-0704603002","name":"Banilad","barangayCode":"0704603002","population":null,"formattedPop":null,"densityCategory":"No data","vulnerabilityRating":"No data","healthRiskLevel":"No data","areaKm2":2.259235,"centerLat":9.268358,"centerLng":123.29254,"geometrySource":"all_barangay-2.csv detailed WKT","geometryMatchMethod":"unique_official_admin_names","boundaryPointCount":38},"geometry":{"type":"MultiPolygon","coordinates":[[[[123.300041,9.27226],[123.300034,9.27221],[123.300003,9.27184],[123.300003,9.27143],[123.300041,9.27096],[123.300217,9.27041],[123.300171,9.26984],[123.300034,9.26931],[123.300003,9.2688],[123.300003,9.26831],[123.300003,9.26784],[123.300003,9.26738],[123.300003,9.26689],[123.300034,9.26637],[123.30014,9.26581],[123.300217,9.26521],[123.30011,9.26463],[123.300247,9.26413],[123.300278,9.2636],[123.30024,9.26309],[123.300003,9.26264],[123.299728,9.26218],[123.299599,9.2619],[123.299507,9.2617],[123.299438,9.26115],[123.299347,9.26061],[123.299202,9.26007],[123.299171,9.25946],[123.299156,9.25897],[123.290337,9.25472],[123.290062,9.25533],[123.290199,9.259],[123.290909,9.27031],[123.291817,9.27033],[123.29937,9.27228],[123.299377,9.27232],[123.299713,9.27229],[123.300041,9.27226]]]]}},{"type":"Feature","properties":{"ID_0":177,"ISO":"PHL","NAME_0":"Philippines","ID_1":7046,"NAME_1":"Negros Oriental","ID_2":704603,"NAME_2":"Bacong","ID_3":704603003,"NAME_3":"Buntis","NL_NAME_3":null,"VARNAME_3":null,"TYPE_3":"Barangay","ENGTYPE_3":"Village","PROVINCE":"Negros Oriental","REGION":"Region VII (Central Visayas)","id":"barangay-0704603003","name":"Buntis","barangayCode":"0704603003","population":null,"formattedPop":null,"densityCategory":"No data","vulnerabilityRating":"No data","healthRiskLevel":"No data","areaKm2":2.238819,"centerLat":9.238355,"centerLng":123.284791,"geometrySource":"all_barangay-2.csv detailed WKT","geometryMatchMethod":"unique_official_admin_names","boundaryPointCount":27},"geometry":{"type":"MultiPolygon","coordinates":[[[[123.291008,9.2392],[123.292953,9.23831],[123.294571,9.23818],[123.294456,9.23776],[123.294441,9.23728],[123.294456,9.23675],[123.294563,9.23618],[123.29451,9.23549],[123.294243,9.23484],[123.29406,9.23426],[123.293739,9.23391],[123.293373,9.23362],[123.293037,9.2333],[123.292801,9.23288],[123.292664,9.23238],[123.292526,9.23185],[123.292473,9.23136],[123.292267,9.23096],[123.291862,9.23065],[123.291527,9.23009],[123.291077,9.22971],[123.290619,9.22929],[123.290359,9.22885],[123.282784,9.23168],[123.283234,9.2341],[123.284218,9.24111],[123.291008,9.2392]]]]}},{"type":"Feature","properties":{"ID_0":177,"ISO":"PHL","NAME_0":"Philippines","ID_1":7046,"NAME_1":"Negros Oriental","ID_2":704603,"NAME_2":"Bacong","ID_3":704603004,"NAME_3":"Buntod","NL_NAME_3":null,"VARNAME_3":null,"TYPE_3":"Barangay","ENGTYPE_3":"Village","PROVINCE":"Negros Oriental","REGION":"Region VII (Central Visayas)","id":"barangay-0704603004","name":"Buntod","barangayCode":"0704603004","population":null,"formattedPop":null,"densityCategory":"No data","vulnerabilityRating":"No data","healthRiskLevel":"No data","areaKm2":3.096608,"centerLat":9.236083,"centerLng":123.256882,"geometrySource":"all_barangay-2.csv detailed WKT","geometryMatchMethod":"unique_official_admin_names","boundaryPointCount":11},"geometry":{"type":"MultiPolygon","coordinates":[[[[123.260841,9.24407],[123.263153,9.24442],[123.269669,9.23979],[123.266289,9.22526],[123.265488,9.22527],[123.258057,9.22814],[123.25692,9.229],[123.256523,9.24282],[123.257797,9.24354],[123.259499,9.24388],[123.260841,9.24407]]]]}},{"type":"Feature","properties":{"ID_0":177,"ISO":"PHL","NAME_0":"Philippines","ID_1":7046,"NAME_1":"Negros Oriental","ID_2":704603,"NAME_2":"Bacong","ID_3":704603005,"NAME_3":"Calangag","NL_NAME_3":null,"VARNAME_3":null,"TYPE_3":"Barangay","ENGTYPE_3":"Village","PROVINCE":"Negros Oriental","REGION":"Region VII (Central Visayas)","id":"barangay-0704603005","name":"Calangag","barangayCode":"0704603005","population":null,"formattedPop":null,"densityCategory":"No data","vulnerabilityRating":"No data","healthRiskLevel":"No data","areaKm2":1.423118,"centerLat":9.241446,"centerLng":123.270612,"geometrySource":"all_barangay-2.csv detailed WKT","geometryMatchMethod":"unique_official_admin_names","boundaryPointCount":13},"geometry":{"type":"MultiPolygon","coordinates":[[[[123.272957,9.24543],[123.274544,9.24502],[123.275703,9.2441],[123.276932,9.24333],[123.278938,9.24243],[123.281059,9.2417],[123.282883,9.24127],[123.284218,9.24111],[123.283234,9.2341],[123.278427,9.23321],[123.269669,9.23979],[123.263153,9.24442],[123.272957,9.24543]]]]}},{"type":"Feature","properties":{"ID_0":177,"ISO":"PHL","NAME_0":"Philippines","ID_1":7046,"NAME_1":"Negros Oriental","ID_2":704603,"NAME_2":"Bacong","ID_3":704603006,"NAME_3":"Combado","NL_NAME_3":null,"VARNAME_3":null,"TYPE_3":"Barangay","ENGTYPE_3":"Village","PROVINCE":"Negros Oriental","REGION":"Region VII (Central Visayas)","id":"barangay-0704603006","name":"Combado","barangayCode":"0704603006","population":null,"formattedPop":null,"densityCategory":"No data","vulnerabilityRating":"No data","healthRiskLevel":"No data","areaKm2":1.917641,"centerLat":9.25349,"centerLng":123.284234,"geometrySource":"all_barangay-2.csv detailed WKT","geometryMatchMethod":"unique_official_admin_names","boundaryPointCount":11},"geometry":{"type":"MultiPolygon","coordinates":[[[[123.290199,9.259],[123.290062,9.25533],[123.290337,9.25472],[123.293243,9.24818],[123.293022,9.24711],[123.292763,9.24645],[123.287971,9.25006],[123.28743,9.24942],[123.281143,9.25483],[123.279579,9.25628],[123.290199,9.259]]]]}},{"type":"Feature","properties":{"ID_0":177,"ISO":"PHL","NAME_0":"Philippines","ID_1":7046,"NAME_1":"Negros Oriental","ID_2":704603,"NAME_2":"Bacong","ID_3":704603007,"NAME_3":"Doldol","NL_NAME_3":null,"VARNAME_3":null,"TYPE_3":"Barangay","ENGTYPE_3":"Village","PROVINCE":"Negros Oriental","REGION":"Region VII (Central Visayas)","id":"barangay-0704603007","name":"Doldol","barangayCode":"0704603007","population":null,"formattedPop":null,"densityCategory":"No data","vulnerabilityRating":"No data","healthRiskLevel":"No data","areaKm2":1.833773,"centerLat":9.229932,"centerLng":123.268057,"geometrySource":"all_barangay-2.csv detailed WKT","geometryMatchMethod":"unique_official_admin_names","boundaryPointCount":8},"geometry":{"type":"MultiPolygon","coordinates":[[[[123.283234,9.2341],[123.282784,9.23168],[123.282402,9.2319],[123.277557,9.22017],[123.266289,9.22526],[123.269669,9.23979],[123.278427,9.23321],[123.283234,9.2341]]]]}},{"type":"Feature","properties":{"ID_0":177,"ISO":"PHL","NAME_0":"Philippines","ID_1":7046,"NAME_1":"Negros Oriental","ID_2":704603,"NAME_2":"Bacong","ID_3":704603008,"NAME_3":"Isugan","NL_NAME_3":null,"VARNAME_3":null,"TYPE_3":"Barangay","ENGTYPE_3":"Village","PROVINCE":"Negros Oriental","REGION":"Region VII (Central Visayas)","id":"barangay-0704603008","name":"Isugan","barangayCode":"0704603008","population":null,"formattedPop":null,"densityCategory":"No data","vulnerabilityRating":"No data","healthRiskLevel":"No data","areaKm2":2.645061,"centerLat":9.261541,"centerLng":123.270261,"geometrySource":"all_barangay-2.csv detailed WKT","geometryMatchMethod":"unique_official_admin_names","boundaryPointCount":8},"geometry":{"type":"MultiPolygon","coordinates":[[[[123.27417,9.26783],[123.278343,9.26841],[123.272713,9.26349],[123.274658,9.2615],[123.264122,9.26277],[123.264214,9.2662],[123.267487,9.26648],[123.27417,9.26783]]]]}},{"type":"Feature","properties":{"ID_0":177,"ISO":"PHL","NAME_0":"Philippines","ID_1":7046,"NAME_1":"Negros Oriental","ID_2":704603,"NAME_2":"Bacong","ID_3":704603009,"NAME_3":"Liptong","NL_NAME_3":null,"VARNAME_3":null,"TYPE_3":"Barangay","ENGTYPE_3":"Village","PROVINCE":"Negros Oriental","REGION":"Region VII (Central Visayas)","id":"barangay-0704603009","name":"Liptong","barangayCode":"0704603009","population":null,"formattedPop":null,"densityCategory":"No data","vulnerabilityRating":"No data","healthRiskLevel":"No data","areaKm2":2.332556,"centerLat":9.260104,"centerLng":123.243279,"geometrySource":"all_barangay-2.csv detailed WKT","geometryMatchMethod":"unique_official_admin_names","boundaryPointCount":11},"geometry":{"type":"MultiPolygon","coordinates":[[[[123.25956,9.25248],[123.259956,9.24924],[123.258423,9.24892],[123.256653,9.24829],[123.255112,9.248],[123.252823,9.24738],[123.242851,9.25237],[123.251007,9.25538],[123.25457,9.25438],[123.257072,9.25346],[123.25956,9.25248]]]]}},{"type":"Feature","properties":{"ID_0":177,"ISO":"PHL","NAME_0":"Philippines","ID_1":7046,"NAME_1":"Negros Oriental","ID_2":704603,"NAME_2":"Bacong","ID_3":704603010,"NAME_3":"Lutao","NL_NAME_3":null,"VARNAME_3":null,"TYPE_3":"Barangay","ENGTYPE_3":"Village","PROVINCE":"Negros Oriental","REGION":"Region VII (Central Visayas)","id":"barangay-0704603010","name":"Lutao","barangayCode":"0704603010","population":null,"formattedPop":null,"densityCategory":"No data","vulnerabilityRating":"No data","healthRiskLevel":"No data","areaKm2":0.854572,"centerLat":9.246086,"centerLng":123.284296,"geometrySource":"all_barangay-2.csv detailed WKT","geometryMatchMethod":"unique_official_admin_names","boundaryPointCount":6},"geometry":{"type":"MultiPolygon","coordinates":[[[[123.28743,9.24942],[123.287971,9.25006],[123.292763,9.24645],[123.291008,9.2392],[123.284218,9.24111],[123.28743,9.24942]]]]}},{"type":"Feature","properties":{"ID_0":177,"ISO":"PHL","NAME_0":"Philippines","ID_1":7046,"NAME_1":"Negros Oriental","ID_2":704603,"NAME_2":"Bacong","ID_3":704603011,"NAME_3":"Magsuhot","NL_NAME_3":null,"VARNAME_3":null,"TYPE_3":"Barangay","ENGTYPE_3":"Village","PROVINCE":"Negros Oriental","REGION":"Region VII (Central Visayas)","id":"barangay-0704603011","name":"Magsuhot","barangayCode":"0704603011","population":null,"formattedPop":null,"densityCategory":"No data","vulnerabilityRating":"No data","healthRiskLevel":"No data","areaKm2":1.176773,"centerLat":9.254119,"centerLng":123.243333,"geometrySource":"all_barangay-2.csv detailed WKT","geometryMatchMethod":"unique_official_admin_names","boundaryPointCount":12},"geometry":{"type":"MultiPolygon","coordinates":[[[[123.259956,9.24924],[123.260841,9.24407],[123.259499,9.24388],[123.257797,9.24354],[123.256523,9.24282],[123.254707,9.24231],[123.25296,9.24187],[123.252823,9.24738],[123.255112,9.248],[123.256653,9.24829],[123.258423,9.24892],[123.259956,9.24924]]]]}},{"type":"Feature","properties":{"ID_0":177,"ISO":"PHL","NAME_0":"Philippines","ID_1":7046,"NAME_1":"Negros Oriental","ID_2":704603,"NAME_2":"Bacong","ID_3":704603012,"NAME_3":"Malabago","NL_NAME_3":null,"VARNAME_3":null,"TYPE_3":"Barangay","ENGTYPE_3":"Village","PROVINCE":"Negros Oriental","REGION":"Region VII (Central Visayas)","id":"barangay-0704603012","name":"Malabago","barangayCode":"0704603012","population":null,"formattedPop":null,"densityCategory":"No data","vulnerabilityRating":"No data","healthRiskLevel":"No data","areaKm2":2.326771,"centerLat":9.247983,"centerLng":123.243249,"geometrySource":"all_barangay-2.csv detailed WKT","geometryMatchMethod":"unique_official_admin_names","boundaryPointCount":16},"geometry":{"type":"MultiPolygon","coordinates":[[[[123.272247,9.25456],[123.272957,9.24543],[123.263153,9.24442],[123.260841,9.24407],[123.259956,9.24924],[123.25956,9.25248],[123.262169,9.25174],[123.263229,9.25209],[123.263496,9.25448],[123.263428,9.2553],[123.265984,9.25489],[123.266983,9.25451],[123.268631,9.25446],[123.269974,9.25457],[123.271118,9.25444],[123.272247,9.25456]]]]}},{"type":"Feature","properties":{"ID_0":177,"ISO":"PHL","NAME_0":"Philippines","ID_1":7046,"NAME_1":"Negros Oriental","ID_2":704603,"NAME_2":"Bacong","ID_3":704603013,"NAME_3":"Mampas","NL_NAME_3":null,"VARNAME_3":null,"TYPE_3":"Barangay","ENGTYPE_3":"Village","PROVINCE":"Negros Oriental","REGION":"Region VII (Central Visayas)","id":"barangay-0704603013","name":"Mampas","barangayCode":"0704603013","population":null,"formattedPop":null,"densityCategory":"No data","vulnerabilityRating":"No data","healthRiskLevel":"No data","areaKm2":1.712583,"centerLat":9.258249,"centerLng":123.218615,"geometrySource":"all_barangay-2.csv detailed WKT","geometryMatchMethod":"unique_official_admin_names","boundaryPointCount":12},"geometry":{"type":"MultiPolygon","coordinates":[[[[123.252823,9.24738],[123.251778,9.24707],[123.250977,9.24718],[123.241302,9.24445],[123.2388,9.24418],[123.237053,9.24409],[123.234703,9.24449],[123.232826,9.24471],[123.229523,9.24496],[123.228271,9.24574],[123.242851,9.25237],[123.252823,9.24738]]]]}},{"type":"Feature","properties":{"ID_0":177,"ISO":"PHL","NAME_0":"Philippines","ID_1":7046,"NAME_1":"Negros Oriental","ID_2":704603,"NAME_2":"Bacong","ID_3":704603014,"NAME_3":"North Poblacion","NL_NAME_3":null,"VARNAME_3":null,"TYPE_3":"Barangay","ENGTYPE_3":"Village","PROVINCE":"Negros Oriental","REGION":"Region VII (Central Visayas)","id":"barangay-0704603014","name":"North Poblacion","barangayCode":"0704603014","population":null,"formattedPop":null,"densityCategory":"No data","vulnerabilityRating":"No data","healthRiskLevel":"No data","areaKm2":0.28946,"centerLat":9.25017,"centerLng":123.295295,"geometrySource":"all_barangay-2.csv detailed WKT","geometryMatchMethod":"unique_official_admin_names","boundaryPointCount":15},"geometry":{"type":"MultiPolygon","coordinates":[[[[123.297523,9.24831],[123.297501,9.24764],[123.297501,9.24695],[123.297493,9.24628],[123.297432,9.2457],[123.297234,9.24526],[123.296997,9.24489],[123.296959,9.24478],[123.296913,9.24478],[123.29554,9.24495],[123.294868,9.24517],[123.293869,9.2461],[123.293022,9.24711],[123.293243,9.24818],[123.297523,9.24831]]]]}},{"type":"Feature","properties":{"ID_0":177,"ISO":"PHL","NAME_0":"Philippines","ID_1":7046,"NAME_1":"Negros Oriental","ID_2":704603,"NAME_2":"Bacong","ID_3":704603015,"NAME_3":"Sacsac","NL_NAME_3":null,"VARNAME_3":null,"TYPE_3":"Barangay","ENGTYPE_3":"Village","PROVINCE":"Negros Oriental","REGION":"Region VII (Central Visayas)","id":"barangay-0704603015","name":"Sacsac","barangayCode":"0704603015","population":null,"formattedPop":null,"densityCategory":"No data","vulnerabilityRating":"No data","healthRiskLevel":"No data","areaKm2":1.073083,"centerLat":9.257694,"centerLng":123.294633,"geometrySource":"all_barangay-2.csv detailed WKT","geometryMatchMethod":"unique_official_admin_names","boundaryPointCount":23},"geometry":{"type":"MultiPolygon","coordinates":[[[[123.299156,9.25897],[123.299156,9.25882],[123.299149,9.2582],[123.299026,9.25766],[123.298882,9.2572],[123.298721,9.25676],[123.298607,9.25623],[123.298523,9.25561],[123.29837,9.25494],[123.298347,9.25426],[123.29834,9.25363],[123.298317,9.25308],[123.298264,9.25259],[123.29805,9.25213],[123.297821,9.25161],[123.297783,9.25092],[123.297768,9.25019],[123.297707,9.24951],[123.297607,9.2489],[123.297523,9.24831],[123.293243,9.24818],[123.290337,9.25472],[123.299156,9.25897]]]]}},{"type":"Feature","properties":{"ID_0":177,"ISO":"PHL","NAME_0":"Philippines","ID_1":7046,"NAME_1":"Negros Oriental","ID_2":704603,"NAME_2":"Bacong","ID_3":704603016,"NAME_3":"San Miguel","NL_NAME_3":null,"VARNAME_3":null,"TYPE_3":"Barangay","ENGTYPE_3":"Village","PROVINCE":"Negros Oriental","REGION":"Region VII (Central Visayas)","id":"barangay-0704603016","name":"San Miguel","barangayCode":"0704603016","population":null,"formattedPop":null,"densityCategory":"No data","vulnerabilityRating":"No data","healthRiskLevel":"No data","areaKm2":3.107421,"centerLat":9.225827,"centerLng":123.281216,"geometrySource":"all_barangay-2.csv detailed WKT","geometryMatchMethod":"unique_official_admin_names","boundaryPointCount":35},"geometry":{"type":"MultiPolygon","coordinates":[[[[123.282784,9.23168],[123.290359,9.22885],[123.290298,9.22875],[123.290092,9.22814],[123.28997,9.22752],[123.289772,9.22701],[123.28968,9.2265],[123.289482,9.2261],[123.289421,9.22567],[123.289284,9.22523],[123.289139,9.22471],[123.288933,9.22417],[123.288887,9.22348],[123.288902,9.22276],[123.288948,9.22204],[123.288902,9.22133],[123.288803,9.22072],[123.288383,9.2203],[123.287903,9.22],[123.287521,9.21973],[123.28727,9.21938],[123.287216,9.21887],[123.287193,9.21836],[123.287064,9.21791],[123.286888,9.21756],[123.286728,9.21725],[123.286682,9.2169],[123.286667,9.21649],[123.286659,9.21601],[123.286598,9.21549],[123.286537,9.21527],[123.278374,9.2193],[123.277557,9.22017],[123.282402,9.2319],[123.282784,9.23168]]]]}},{"type":"Feature","properties":{"ID_0":177,"ISO":"PHL","NAME_0":"Philippines","ID_1":7046,"NAME_1":"Negros Oriental","ID_2":704603,"NAME_2":"Bacong","ID_3":704603017,"NAME_3":"South Poblacion","NL_NAME_3":null,"VARNAME_3":null,"TYPE_3":"Barangay","ENGTYPE_3":"Village","PROVINCE":"Negros Oriental","REGION":"Region VII (Central Visayas)","id":"barangay-0704603017","name":"South Poblacion","barangayCode":"0704603017","population":null,"formattedPop":null,"densityCategory":"No data","vulnerabilityRating":"No data","healthRiskLevel":"No data","areaKm2":0.214109,"centerLat":9.243067,"centerLng":123.29351,"geometrySource":"all_barangay-2.csv detailed WKT","geometryMatchMethod":"unique_official_admin_names","boundaryPointCount":14},"geometry":{"type":"MultiPolygon","coordinates":[[[[123.29554,9.24113],[123.295532,9.24097],[123.295418,9.24042],[123.295273,9.23998],[123.295067,9.23962],[123.294983,9.23924],[123.294853,9.23888],[123.294724,9.23852],[123.294571,9.23818],[123.292953,9.23831],[123.293327,9.24011],[123.293716,9.24127],[123.294411,9.24116],[123.29554,9.24113]]]]}},{"type":"Feature","properties":{"ID_0":177,"ISO":"PHL","NAME_0":"Philippines","ID_1":7046,"NAME_1":"Negros Oriental","ID_2":704603,"NAME_2":"Bacong","ID_3":704603018,"NAME_3":"Sulodpan","NL_NAME_3":null,"VARNAME_3":null,"TYPE_3":"Barangay","ENGTYPE_3":"Village","PROVINCE":"Negros Oriental","REGION":"Region VII (Central Visayas)","id":"barangay-0704603018","name":"Sulodpan","barangayCode":"0704603018","population":null,"formattedPop":null,"densityCategory":"No data","vulnerabilityRating":"No data","healthRiskLevel":"No data","areaKm2":1.66143,"centerLat":9.26547,"centerLng":123.280614,"geometrySource":"all_barangay-2.csv detailed WKT","geometryMatchMethod":"unique_official_admin_names","boundaryPointCount":10},"geometry":{"type":"MultiPolygon","coordinates":[[[[123.290909,9.27031],[123.290199,9.259],[123.279579,9.25628],[123.278603,9.25705],[123.277672,9.25774],[123.274658,9.2615],[123.272713,9.26349],[123.278343,9.26841],[123.284157,9.26895],[123.290909,9.27031]]]]}},{"type":"Feature","properties":{"ID_0":177,"ISO":"PHL","NAME_0":"Philippines","ID_1":7046,"NAME_1":"Negros Oriental","ID_2":704603,"NAME_2":"Bacong","ID_3":704603019,"NAME_3":"Timbanga","NL_NAME_3":null,"VARNAME_3":null,"TYPE_3":"Barangay","ENGTYPE_3":"Village","PROVINCE":"Negros Oriental","REGION":"Region VII (Central Visayas)","id":"barangay-0704603019","name":"Timbanga","barangayCode":"0704603019","population":null,"formattedPop":null,"densityCategory":"No data","vulnerabilityRating":"No data","healthRiskLevel":"No data","areaKm2":2.357482,"centerLat":9.239005,"centerLng":123.240845,"geometrySource":"all_barangay-2.csv detailed WKT","geometryMatchMethod":"unique_official_admin_names","boundaryPointCount":20},"geometry":{"type":"MultiPolygon","coordinates":[[[[123.241302,9.24445],[123.242287,9.24356],[123.243263,9.24298],[123.244034,9.2422],[123.244987,9.24144],[123.246307,9.24113],[123.247971,9.24105],[123.249817,9.24111],[123.251244,9.2413],[123.25296,9.24187],[123.254707,9.24231],[123.256523,9.24282],[123.25692,9.229],[123.245811,9.23336],[123.229523,9.24496],[123.232826,9.24471],[123.234703,9.24449],[123.237053,9.24409],[123.2388,9.24418],[123.241302,9.24445]]]]}},{"type":"Feature","properties":{"ID_0":177,"ISO":"PHL","NAME_0":"Philippines","ID_1":7046,"NAME_1":"Negros Oriental","ID_2":704603,"NAME_2":"Bacong","ID_3":704603020,"NAME_3":"Timbao","NL_NAME_3":null,"VARNAME_3":null,"TYPE_3":"Barangay","ENGTYPE_3":"Village","PROVINCE":"Negros Oriental","REGION":"Region VII (Central Visayas)","id":"barangay-0704603020","name":"Timbao","barangayCode":"0704603020","population":null,"formattedPop":null,"densityCategory":"No data","vulnerabilityRating":"No data","healthRiskLevel":"No data","areaKm2":3.939213,"centerLat":9.249573,"centerLng":123.218276,"geometrySource":"all_barangay-2.csv detailed WKT","geometryMatchMethod":"unique_official_admin_names","boundaryPointCount":14},"geometry":{"type":"MultiPolygon","coordinates":[[[[123.252823,9.24738],[123.25296,9.24187],[123.251244,9.2413],[123.249817,9.24111],[123.247971,9.24105],[123.246307,9.24113],[123.244987,9.24144],[123.244034,9.2422],[123.243263,9.24298],[123.242287,9.24356],[123.241302,9.24445],[123.250977,9.24718],[123.251778,9.24707],[123.252823,9.24738]]]]}},{"type":"Feature","properties":{"ID_0":177,"ISO":"PHL","NAME_0":"Philippines","ID_1":7046,"NAME_1":"Negros Oriental","ID_2":704603,"NAME_2":"Bacong","ID_3":704603021,"NAME_3":"Tubod","NL_NAME_3":null,"VARNAME_3":null,"TYPE_3":"Barangay","ENGTYPE_3":"Village","PROVINCE":"Negros Oriental","REGION":"Region VII (Central Visayas)","id":"barangay-0704603021","name":"Tubod","barangayCode":"0704603021","population":null,"formattedPop":null,"densityCategory":"No data","vulnerabilityRating":"No data","healthRiskLevel":"No data","areaKm2":1.790696,"centerLat":9.249746,"centerLng":123.264358,"geometrySource":"all_barangay-2.csv detailed WKT","geometryMatchMethod":"unique_official_admin_names","boundaryPointCount":17},"geometry":{"type":"MultiPolygon","coordinates":[[[[123.279579,9.25628],[123.281143,9.25483],[123.28743,9.24942],[123.284218,9.24111],[123.282883,9.24127],[123.281059,9.2417],[123.278938,9.24243],[123.276932,9.24333],[123.275703,9.2441],[123.274544,9.24502],[123.272957,9.24543],[123.272247,9.25456],[123.274017,9.25512],[123.275223,9.25597],[123.277672,9.25774],[123.278603,9.25705],[123.279579,9.25628]]]]}},{"type":"Feature","properties":{"ID_0":177,"ISO":"PHL","NAME_0":"Philippines","ID_1":7046,"NAME_1":"Negros Oriental","ID_2":704603,"NAME_2":"Bacong","ID_3":704603022,"NAME_3":"West Poblacion","NL_NAME_3":null,"VARNAME_3":null,"TYPE_3":"Barangay","ENGTYPE_3":"Village","PROVINCE":"Negros Oriental","REGION":"Region VII (Central Visayas)","id":"barangay-0704603022","name":"West Poblacion","barangayCode":"0704603022","population":null,"formattedPop":null,"densityCategory":"No data","vulnerabilityRating":"No data","healthRiskLevel":"No data","areaKm2":0.187412,"centerLat":9.246332,"centerLng":123.294682,"geometrySource":"all_barangay-2.csv detailed WKT","geometryMatchMethod":"unique_official_admin_names","boundaryPointCount":22},"geometry":{"type":"MultiPolygon","coordinates":[[[[123.293022,9.24711],[123.293869,9.2461],[123.294868,9.24517],[123.29554,9.24495],[123.296913,9.24478],[123.296959,9.24478],[123.296852,9.24451],[123.296638,9.24421],[123.296387,9.24394],[123.296158,9.24365],[123.295952,9.24328],[123.295807,9.24279],[123.295601,9.24224],[123.295547,9.2416],[123.29554,9.24113],[123.294411,9.24116],[123.293716,9.24127],[123.293327,9.24011],[123.292953,9.23831],[123.291008,9.2392],[123.292763,9.24645],[123.293022,9.24711]]]]}}]}
