{"type":"FeatureCollection","features":[{"type":"Feature","properties":{"ID_0":177,"ISO":"PHL","NAME_0":"Philippines","ID_1":10013,"NAME_1":"Bukidnon","ID_2":1001302,"NAME_2":"Damulog","ID_3":1001302001,"NAME_3":"Aludas","NL_NAME_3":null,"VARNAME_3":null,"TYPE_3":"Barangay","ENGTYPE_3":"Village","PROVINCE":"Bukidnon","REGION":"Region X (Northern Mindanao)","id":"barangay-1001302001","name":"Aludas","barangayCode":"1001302001","population":null,"formattedPop":null,"densityCategory":"No data","vulnerabilityRating":"No data","healthRiskLevel":"No data","areaKm2":2.294011,"centerLat":7.457311,"centerLng":124.954226,"geometrySource":"all_barangay-2.csv detailed WKT","geometryMatchMethod":"unique_official_admin_names","boundaryPointCount":43},"geometry":{"type":"MultiPolygon","coordinates":[[[[124.975021,7.46022],[124.973999,7.44765],[124.973541,7.44795],[124.972397,7.44814],[124.970482,7.44753],[124.969551,7.44771],[124.967537,7.44917],[124.966057,7.44949],[124.964127,7.44925],[124.962418,7.44889],[124.960587,7.44939],[124.958557,7.45004],[124.953888,7.4496],[124.952049,7.45034],[124.94989,7.45215],[124.948647,7.45249],[124.947182,7.45283],[124.945442,7.45502],[124.943588,7.45882],[124.945152,7.45914],[124.946007,7.45941],[124.94706,7.45987],[124.947701,7.46023],[124.949661,7.46142],[124.951508,7.46222],[124.95211,7.46268],[124.953484,7.46259],[124.954483,7.46362],[124.955948,7.46406],[124.95697,7.46443],[124.957909,7.46443],[124.959862,7.46418],[124.9618,7.46412],[124.963531,7.46462],[124.96492,7.4646],[124.965897,7.4643],[124.967056,7.46332],[124.969116,7.46123],[124.969971,7.46068],[124.971153,7.46037],[124.972153,7.46038],[124.973618,7.46017],[124.975021,7.46022]]]]}},{"type":"Feature","properties":{"ID_0":177,"ISO":"PHL","NAME_0":"Philippines","ID_1":10013,"NAME_1":"Bukidnon","ID_2":1001302,"NAME_2":"Damulog","ID_3":1001302002,"NAME_3":"Angga-an","NL_NAME_3":null,"VARNAME_3":null,"TYPE_3":"Barangay","ENGTYPE_3":"Village","PROVINCE":"Bukidnon","REGION":"Region X (Northern Mindanao)","id":"barangay-1001302002","name":"Angga-an","barangayCode":"1001302002","population":null,"formattedPop":null,"densityCategory":"No data","vulnerabilityRating":"No data","healthRiskLevel":"No data","areaKm2":8.896401,"centerLat":7.42386,"centerLng":124.953754,"geometrySource":"all_barangay-2.csv detailed WKT","geometryMatchMethod":"unique_official_admin_names","boundaryPointCount":116},"geometry":{"type":"MultiPolygon","coordinates":[[[[124.933746,7.44038],[124.934143,7.44006],[124.935066,7.43874],[124.936661,7.4376],[124.938187,7.43735],[124.939217,7.43733],[124.940407,7.43767],[124.940987,7.43743],[124.941978,7.43757],[124.943443,7.43732],[124.94455,7.43704],[124.946037,7.43653],[124.947487,7.43602],[124.948593,7.43541],[124.94957,7.43442],[124.952591,7.43208],[124.954842,7.43005],[124.955742,7.42931],[124.957909,7.42778],[124.959213,7.42698],[124.960617,7.4258],[124.962639,7.423],[124.9636,7.421],[124.964767,7.4193],[124.966583,7.41867],[124.967941,7.41844],[124.969963,7.41735],[124.97187,7.4168],[124.97261,7.41619],[124.974541,7.41638],[124.976318,7.41591],[124.978622,7.41422],[124.981522,7.41263],[124.984489,7.41115],[124.98568,7.41096],[124.987778,7.41093],[124.990417,7.41037],[124.992317,7.41006],[124.994133,7.40942],[124.995842,7.40818],[124.997017,7.40695],[124.999481,7.40598],[125.001137,7.40497],[125.001732,7.40173],[124.999512,7.40185],[124.998177,7.40177],[124.997429,7.40139],[124.995857,7.40046],[124.994347,7.40048],[124.992653,7.40012],[124.991272,7.40037],[124.989677,7.40002],[124.988113,7.39988],[124.986748,7.40034],[124.985718,7.40124],[124.984711,7.40213],[124.984039,7.40331],[124.982903,7.40499],[124.981941,7.40584],[124.980919,7.4061],[124.979797,7.40522],[124.978699,7.40337],[124.978287,7.40249],[124.977463,7.40143],[124.975777,7.40061],[124.97332,7.40042],[124.971909,7.40071],[124.970833,7.40155],[124.969887,7.40289],[124.968597,7.40401],[124.967667,7.40475],[124.966133,7.40605],[124.964378,7.40673],[124.963074,7.40688],[124.961159,7.40748],[124.96003,7.40776],[124.958847,7.40719],[124.957397,7.40626],[124.956161,7.4068],[124.955147,7.40764],[124.954987,7.4086],[124.954781,7.40916],[124.954407,7.40922],[124.953812,7.40944],[124.953453,7.40957],[124.952568,7.40933],[124.95121,7.40988],[124.950439,7.41096],[124.949898,7.41217],[124.949181,7.41204],[124.949081,7.41176],[124.948257,7.41127],[124.946457,7.4113],[124.945808,7.41191],[124.945183,7.41305],[124.944397,7.41436],[124.943863,7.41515],[124.942337,7.41531],[124.9412,7.4155],[124.940727,7.41636],[124.940643,7.41787],[124.940422,7.41909],[124.94001,7.42029],[124.940117,7.42184],[124.939819,7.42259],[124.938629,7.42316],[124.937813,7.42461],[124.936996,7.42581],[124.935608,7.42696],[124.933662,7.42842],[124.933311,7.42943],[124.933357,7.431],[124.934433,7.4332],[124.933952,7.43487],[124.933723,7.43751],[124.933746,7.44038]]]]}},{"type":"Feature","properties":{"ID_0":177,"ISO":"PHL","NAME_0":"Philippines","ID_1":10013,"NAME_1":"Bukidnon","ID_2":1001302,"NAME_2":"Damulog","ID_3":1001302003,"NAME_3":"Tangkulan","NL_NAME_3":null,"VARNAME_3":null,"TYPE_3":"Barangay","ENGTYPE_3":"Village","PROVINCE":"Bukidnon","REGION":"Region X (Northern Mindanao)","id":"barangay-1001302003","name":"Tangkulan","barangayCode":"1001302003","population":null,"formattedPop":null,"densityCategory":"No data","vulnerabilityRating":"No data","healthRiskLevel":"No data","areaKm2":29.664613,"centerLat":7.420112,"centerLng":125.007788,"geometrySource":"all_barangay-2.csv detailed WKT","geometryMatchMethod":"unique_official_admin_names","boundaryPointCount":115},"geometry":{"type":"MultiPolygon","coordinates":[[[[124.973183,7.43133],[124.973938,7.43146],[124.974579,7.43157],[124.97599,7.43136],[124.977333,7.43103],[124.978127,7.43115],[124.980003,7.43135],[124.980659,7.43106],[124.982079,7.43035],[124.983627,7.43025],[124.98568,7.43074],[124.986618,7.43091],[124.988037,7.43131],[124.988998,7.43175],[124.990288,7.43227],[124.992653,7.43309],[124.994537,7.43368],[124.997017,7.43405],[124.998779,7.43409],[125.000458,7.43392],[125.002563,7.43373],[125.003883,7.4334],[125.005447,7.43323],[125.007401,7.43289],[125.009041,7.43281],[125.011681,7.43269],[125.013908,7.43238],[125.016579,7.43194],[125.018082,7.43152],[125.020348,7.43107],[125.021393,7.43075],[125.023109,7.43053],[125.025337,7.43038],[125.025932,7.43036],[125.028107,7.42998],[125.029442,7.42983],[125.032028,7.42971],[125.033829,7.42961],[125.035294,7.42933],[125.037086,7.42911],[125.062157,7.42457],[125.060829,7.42192],[125.059967,7.41957],[125.057983,7.41602],[125.05632,7.41417],[125.055611,7.41343],[125.052887,7.41042],[125.051804,7.40927],[125.050941,7.40796],[125.049103,7.40556],[125.046204,7.40458],[125.042709,7.4037],[125.040077,7.40319],[125.037613,7.4027],[125.035973,7.40222],[125.033882,7.4015],[125.030457,7.40151],[125.028503,7.40151],[125.025307,7.40112],[125.022751,7.40124],[125.021347,7.40151],[125.017838,7.40232],[125.016693,7.40225],[125.014259,7.40176],[125.012192,7.4022],[125.010498,7.40253],[125.008614,7.40308],[125.006859,7.40319],[125.005333,7.40316],[125.003517,7.40201],[125.001732,7.40173],[125.001137,7.40497],[124.999481,7.40598],[124.997017,7.40695],[124.995842,7.40818],[124.994133,7.40942],[124.992317,7.41006],[124.990417,7.41037],[124.987778,7.41093],[124.98568,7.41096],[124.984489,7.41115],[124.981522,7.41263],[124.978622,7.41422],[124.976318,7.41591],[124.974541,7.41638],[124.97261,7.41619],[124.97187,7.4168],[124.969963,7.41735],[124.967941,7.41844],[124.966583,7.41867],[124.964767,7.4193],[124.9636,7.421],[124.962639,7.423],[124.960617,7.4258],[124.959213,7.42698],[124.957909,7.42778],[124.955742,7.42931],[124.954842,7.43005],[124.952591,7.43208],[124.953468,7.43188],[124.954773,7.43203],[124.956177,7.43171],[124.957069,7.43227],[124.957909,7.43221],[124.959457,7.4317],[124.960899,7.4321],[124.961906,7.43217],[124.963219,7.43204],[124.964188,7.43171],[124.96611,7.43225],[124.967613,7.43235],[124.968803,7.43227],[124.970917,7.43185],[124.972252,7.43156],[124.973183,7.43133]]]]}},{"type":"Feature","properties":{"ID_0":177,"ISO":"PHL","NAME_0":"Philippines","ID_1":10013,"NAME_1":"Bukidnon","ID_2":1001302,"NAME_2":"Damulog","ID_3":1001302004,"NAME_3":"Kinapat","NL_NAME_3":null,"VARNAME_3":null,"TYPE_3":"Barangay","ENGTYPE_3":"Village","PROVINCE":"Bukidnon","REGION":"Region X (Northern Mindanao)","id":"barangay-1001302004","name":"Kinapat","barangayCode":"1001302004","population":null,"formattedPop":null,"densityCategory":"No data","vulnerabilityRating":"No data","healthRiskLevel":"No data","areaKm2":4.874623,"centerLat":7.472551,"centerLng":124.957481,"geometrySource":"all_barangay-2.csv detailed WKT","geometryMatchMethod":"unique_official_admin_names","boundaryPointCount":59},"geometry":{"type":"MultiPolygon","coordinates":[[[[124.980476,7.47982],[124.979919,7.4729],[124.98008,7.47088],[124.980614,7.47009],[124.981194,7.46864],[124.981087,7.46756],[124.981003,7.46615],[124.980003,7.46473],[124.979538,7.46368],[124.979263,7.46279],[124.979218,7.4618],[124.978928,7.46058],[124.978409,7.46014],[124.977814,7.45998],[124.976517,7.46027],[124.975632,7.46029],[124.975021,7.46022],[124.973618,7.46017],[124.972153,7.46038],[124.971153,7.46037],[124.969971,7.46068],[124.969116,7.46123],[124.967056,7.46332],[124.965897,7.4643],[124.96492,7.4646],[124.963531,7.46462],[124.9618,7.46412],[124.959862,7.46418],[124.957909,7.46443],[124.95697,7.46443],[124.955948,7.46406],[124.954483,7.46362],[124.953484,7.46259],[124.95211,7.46268],[124.949387,7.47803],[124.950462,7.47844],[124.95285,7.47847],[124.955017,7.47844],[124.957024,7.47856],[124.958656,7.47972],[124.959152,7.48009],[124.961037,7.48021],[124.963837,7.47978],[124.964561,7.47852],[124.965714,7.47807],[124.967407,7.47763],[124.968964,7.47709],[124.969719,7.47685],[124.970993,7.47742],[124.972572,7.47832],[124.973869,7.47889],[124.974968,7.47888],[124.975662,7.47874],[124.977028,7.47851],[124.978058,7.4786],[124.979103,7.47865],[124.979897,7.47896],[124.980148,7.47911],[124.980476,7.47982]]]]}},{"type":"Feature","properties":{"ID_0":177,"ISO":"PHL","NAME_0":"Philippines","ID_1":10013,"NAME_1":"Bukidnon","ID_2":1001302,"NAME_2":"Damulog","ID_3":1001302005,"NAME_3":"Kiraon","NL_NAME_3":null,"VARNAME_3":null,"TYPE_3":"Barangay","ENGTYPE_3":"Village","PROVINCE":"Bukidnon","REGION":"Region X (Northern Mindanao)","id":"barangay-1001302005","name":"Kiraon","barangayCode":"1001302005","population":null,"formattedPop":null,"densityCategory":"No data","vulnerabilityRating":"No data","healthRiskLevel":"No data","areaKm2":4.634666,"centerLat":7.47444,"centerLng":124.978502,"geometrySource":"all_barangay-2.csv detailed WKT","geometryMatchMethod":"unique_official_admin_names","boundaryPointCount":36},"geometry":{"type":"MultiPolygon","coordinates":[[[[124.996353,7.48353],[124.996078,7.48324],[124.996323,7.48209],[124.996696,7.47982],[124.996651,7.47679],[124.996567,7.47412],[124.996109,7.47087],[124.995796,7.46926],[124.995529,7.46512],[124.995529,7.46226],[124.995064,7.45883],[124.994179,7.45508],[124.993202,7.4552],[124.991821,7.45626],[124.99028,7.45774],[124.989212,7.45888],[124.987389,7.45992],[124.986298,7.46057],[124.985283,7.46089],[124.984161,7.46097],[124.98304,7.46055],[124.981293,7.46066],[124.978928,7.46058],[124.979218,7.4618],[124.979263,7.46279],[124.979538,7.46368],[124.980003,7.46473],[124.981003,7.46615],[124.981087,7.46756],[124.981194,7.46864],[124.980614,7.47009],[124.98008,7.47088],[124.979919,7.4729],[124.980476,7.47982],[124.981483,7.48483],[124.996353,7.48353]]]]}},{"type":"Feature","properties":{"ID_0":177,"ISO":"PHL","NAME_0":"Philippines","ID_1":10013,"NAME_1":"Bukidnon","ID_2":1001302,"NAME_2":"Damulog","ID_3":1001302006,"NAME_3":"Kitingting","NL_NAME_3":null,"VARNAME_3":null,"TYPE_3":"Barangay","ENGTYPE_3":"Village","PROVINCE":"Bukidnon","REGION":"Region X (Northern Mindanao)","id":"barangay-1001302006","name":"Kitingting","barangayCode":"1001302006","population":null,"formattedPop":null,"densityCategory":"No data","vulnerabilityRating":"No data","healthRiskLevel":"No data","areaKm2":5.796032,"centerLat":7.447605,"centerLng":124.946022,"geometrySource":"all_barangay-2.csv detailed WKT","geometryMatchMethod":"unique_official_admin_names","boundaryPointCount":67},"geometry":{"type":"MultiPolygon","coordinates":[[[[124.943588,7.45882],[124.945442,7.45502],[124.947182,7.45283],[124.948647,7.45249],[124.94989,7.45215],[124.952049,7.45034],[124.953888,7.4496],[124.958557,7.45004],[124.960587,7.44939],[124.962418,7.44889],[124.964127,7.44925],[124.966057,7.44949],[124.967537,7.44917],[124.969551,7.44771],[124.970482,7.44753],[124.972397,7.44814],[124.973541,7.44795],[124.973999,7.44765],[124.973183,7.43133],[124.972252,7.43156],[124.970917,7.43185],[124.968803,7.43227],[124.967613,7.43235],[124.96611,7.43225],[124.964188,7.43171],[124.963219,7.43204],[124.961906,7.43217],[124.960899,7.4321],[124.959457,7.4317],[124.957909,7.43221],[124.957069,7.43227],[124.956177,7.43171],[124.954773,7.43203],[124.953468,7.43188],[124.952591,7.43208],[124.94957,7.43442],[124.948593,7.43541],[124.947487,7.43602],[124.946037,7.43653],[124.94455,7.43704],[124.943443,7.43732],[124.941978,7.43757],[124.940987,7.43743],[124.940407,7.43767],[124.939217,7.43733],[124.938187,7.43735],[124.936661,7.4376],[124.935066,7.43874],[124.934143,7.44006],[124.933746,7.44038],[124.934013,7.44137],[124.934059,7.44382],[124.933434,7.44638],[124.933189,7.44857],[124.933693,7.45013],[124.93396,7.45132],[124.933372,7.45383],[124.933197,7.45616],[124.932747,7.45729],[124.934227,7.45757],[124.934837,7.45762],[124.935753,7.4579],[124.938057,7.45814],[124.939857,7.4582],[124.942284,7.45842],[124.942993,7.45854],[124.943588,7.45882]]]]}},{"type":"Feature","properties":{"ID_0":177,"ISO":"PHL","NAME_0":"Philippines","ID_1":10013,"NAME_1":"Bukidnon","ID_2":1001302,"NAME_2":"Damulog","ID_3":1001302007,"NAME_3":"Lagandang","NL_NAME_3":null,"VARNAME_3":null,"TYPE_3":"Barangay","ENGTYPE_3":"Village","PROVINCE":"Bukidnon","REGION":"Region X (Northern Mindanao)","id":"barangay-1001302007","name":"Lagandang","barangayCode":"1001302007","population":null,"formattedPop":null,"densityCategory":"No data","vulnerabilityRating":"No data","healthRiskLevel":"No data","areaKm2":21.366688,"centerLat":7.447461,"centerLng":124.993672,"geometrySource":"all_barangay-2.csv detailed WKT","geometryMatchMethod":"unique_official_admin_names","boundaryPointCount":86},"geometry":{"type":"MultiPolygon","coordinates":[[[[124.978928,7.46058],[124.981293,7.46066],[124.98304,7.46055],[124.984161,7.46097],[124.985283,7.46089],[124.986298,7.46057],[124.987389,7.45992],[124.989212,7.45888],[124.99028,7.45774],[124.991821,7.45626],[124.993202,7.4552],[124.994179,7.45508],[124.995308,7.45577],[124.996819,7.45643],[124.998016,7.4566],[124.999809,7.45643],[125.001472,7.45635],[125.00264,7.45632],[125.004807,7.45592],[125.007248,7.45391],[125.009628,7.4523],[125.011047,7.45135],[125.013481,7.44982],[125.016197,7.4484],[125.019211,7.4472],[125.023407,7.44534],[125.026443,7.4439],[125.028282,7.44259],[125.029617,7.44181],[125.032463,7.4411],[125.034477,7.44127],[125.035507,7.44131],[125.06723,7.44401],[125.066261,7.43851],[125.066429,7.43558],[125.065376,7.43282],[125.064117,7.42956],[125.062798,7.42633],[125.062157,7.42457],[125.037086,7.42911],[125.035294,7.42933],[125.033829,7.42961],[125.032028,7.42971],[125.029442,7.42983],[125.028107,7.42998],[125.025932,7.43036],[125.025337,7.43038],[125.023109,7.43053],[125.021393,7.43075],[125.020348,7.43107],[125.018082,7.43152],[125.016579,7.43194],[125.013908,7.43238],[125.011681,7.43269],[125.009041,7.43281],[125.007401,7.43289],[125.005447,7.43323],[125.003883,7.4334],[125.002563,7.43373],[125.000458,7.43392],[124.998779,7.43409],[124.997017,7.43405],[124.994537,7.43368],[124.992653,7.43309],[124.990288,7.43227],[124.988998,7.43175],[124.988037,7.43131],[124.986618,7.43091],[124.98568,7.43074],[124.983627,7.43025],[124.982079,7.43035],[124.980659,7.43106],[124.980003,7.43135],[124.978127,7.43115],[124.977333,7.43103],[124.97599,7.43136],[124.974579,7.43157],[124.973938,7.43146],[124.973183,7.43133],[124.973999,7.44765],[124.975021,7.46022],[124.975632,7.46029],[124.976517,7.46027],[124.977814,7.45998],[124.978409,7.46014],[124.978928,7.46058]]]]}},{"type":"Feature","properties":{"ID_0":177,"ISO":"PHL","NAME_0":"Philippines","ID_1":10013,"NAME_1":"Bukidnon","ID_2":1001302,"NAME_2":"Damulog","ID_3":1001302008,"NAME_3":"Macapari","NL_NAME_3":null,"VARNAME_3":null,"TYPE_3":"Barangay","ENGTYPE_3":"Village","PROVINCE":"Bukidnon","REGION":"Region X (Northern Mindanao)","id":"barangay-1001302008","name":"Macapari","barangayCode":"1001302008","population":null,"formattedPop":null,"densityCategory":"No data","vulnerabilityRating":"No data","healthRiskLevel":"No data","areaKm2":10.04402,"centerLat":7.461805,"centerLng":124.895427,"geometrySource":"all_barangay-2.csv detailed WKT","geometryMatchMethod":"unique_official_admin_names","boundaryPointCount":73},"geometry":{"type":"MultiPolygon","coordinates":[[[[124.887878,7.47183],[124.889038,7.4714],[124.891113,7.47029],[124.891457,7.46971],[124.892387,7.46956],[124.894241,7.47045],[124.895287,7.4713],[124.896698,7.47189],[124.898293,7.47209],[124.899986,7.47225],[124.900848,7.47216],[124.902641,7.47236],[124.90493,7.47281],[124.906113,7.47308],[124.906799,7.47324],[124.908569,7.47353],[124.909271,7.47394],[124.909828,7.47417],[124.917351,7.46138],[124.916801,7.46067],[124.916649,7.45981],[124.916313,7.45763],[124.915817,7.4566],[124.913979,7.45471],[124.912567,7.45369],[124.911118,7.45299],[124.909416,7.45216],[124.907921,7.45186],[124.905128,7.45226],[124.901947,7.45285],[124.900467,7.45152],[124.898117,7.4517],[124.896332,7.45178],[124.895119,7.45059],[124.894432,7.45045],[124.893044,7.45012],[124.891853,7.4495],[124.890617,7.44847],[124.889832,7.44774],[124.889252,7.44693],[124.889061,7.44631],[124.888512,7.44671],[124.88707,7.44643],[124.886887,7.44611],[124.886452,7.44511],[124.885674,7.4451],[124.884506,7.44494],[124.882462,7.44353],[124.880341,7.44242],[124.879089,7.44208],[124.876923,7.44144],[124.874901,7.44134],[124.875,7.4431],[124.875092,7.44531],[124.875557,7.44724],[124.876381,7.45009],[124.877258,7.45161],[124.878242,7.45316],[124.878998,7.4555],[124.879883,7.45714],[124.879677,7.45815],[124.878387,7.46014],[124.878799,7.46153],[124.880234,7.46221],[124.880547,7.46365],[124.880592,7.46491],[124.881599,7.46734],[124.882874,7.46851],[124.883904,7.46945],[124.88501,7.47056],[124.8862,7.47238],[124.886902,7.47193],[124.887878,7.47183]]]]}},{"type":"Feature","properties":{"ID_0":177,"ISO":"PHL","NAME_0":"Philippines","ID_1":10013,"NAME_1":"Bukidnon","ID_2":1001302,"NAME_2":"Damulog","ID_3":1001302009,"NAME_3":"Maican","NL_NAME_3":null,"VARNAME_3":null,"TYPE_3":"Barangay","ENGTYPE_3":"Village","PROVINCE":"Bukidnon","REGION":"Region X (Northern Mindanao)","id":"barangay-1001302009","name":"Maican","barangayCode":"1001302009","population":null,"formattedPop":null,"densityCategory":"No data","vulnerabilityRating":"No data","healthRiskLevel":"No data","areaKm2":5.107922,"centerLat":7.484145,"centerLng":124.914769,"geometrySource":"all_barangay-2.csv detailed WKT","geometryMatchMethod":"unique_official_admin_names","boundaryPointCount":70},"geometry":{"type":"MultiPolygon","coordinates":[[[[124.931671,7.49418],[124.924553,7.47937],[124.923553,7.48053],[124.922028,7.4806],[124.920563,7.48029],[124.919594,7.47997],[124.918266,7.47896],[124.917122,7.47848],[124.916023,7.47832],[124.914581,7.47776],[124.913559,7.47678],[124.91246,7.47544],[124.911697,7.47478],[124.910606,7.47443],[124.909828,7.47417],[124.909271,7.47394],[124.908569,7.47353],[124.906799,7.47324],[124.906113,7.47308],[124.90493,7.47281],[124.902641,7.47236],[124.900848,7.47216],[124.899986,7.47225],[124.898293,7.47209],[124.896698,7.47189],[124.895287,7.4713],[124.894241,7.47045],[124.892387,7.46956],[124.891457,7.46971],[124.891113,7.47029],[124.889038,7.4714],[124.887878,7.47183],[124.889153,7.4737],[124.889977,7.47439],[124.890984,7.47417],[124.891747,7.47442],[124.892418,7.47543],[124.892776,7.47627],[124.893044,7.47687],[124.893333,7.47724],[124.894363,7.47743],[124.895508,7.47733],[124.896942,7.47773],[124.897438,7.47817],[124.898857,7.47964],[124.900497,7.48102],[124.901711,7.48178],[124.902557,7.48135],[124.903168,7.48183],[124.904457,7.48375],[124.905052,7.48523],[124.905602,7.48683],[124.906883,7.4883],[124.90802,7.48862],[124.910301,7.48745],[124.911049,7.48783],[124.913353,7.48889],[124.915222,7.48985],[124.916512,7.49053],[124.918587,7.49136],[124.920372,7.4917],[124.921631,7.49215],[124.923401,7.49293],[124.924919,7.49428],[124.926102,7.49513],[124.928169,7.4961],[124.92981,7.49712],[124.930771,7.49768],[124.931427,7.49828],[124.931671,7.49418]]]]}},{"type":"Feature","properties":{"ID_0":177,"ISO":"PHL","NAME_0":"Philippines","ID_1":10013,"NAME_1":"Bukidnon","ID_2":1001302,"NAME_2":"Damulog","ID_3":1001302010,"NAME_3":"Migcawayan","NL_NAME_3":null,"VARNAME_3":null,"TYPE_3":"Barangay","ENGTYPE_3":"Village","PROVINCE":"Bukidnon","REGION":"Region X (Northern Mindanao)","id":"barangay-1001302010","name":"Migcawayan","barangayCode":"1001302010","population":null,"formattedPop":null,"densityCategory":"No data","vulnerabilityRating":"No data","healthRiskLevel":"No data","areaKm2":18.110149,"centerLat":7.478347,"centerLng":125.004267,"geometrySource":"all_barangay-2.csv detailed WKT","geometryMatchMethod":"unique_official_admin_names","boundaryPointCount":56},"geometry":{"type":"MultiPolygon","coordinates":[[[[124.998558,7.5073],[125.005478,7.5005],[125.002258,7.47651],[125.005043,7.47468],[125.032387,7.4536],[125.034927,7.45281],[125.037483,7.45146],[125.039864,7.45083],[125.041298,7.45142],[125.041893,7.45136],[125.042213,7.45073],[125.067787,7.45176],[125.06723,7.44401],[125.035507,7.44131],[125.034477,7.44127],[125.032463,7.4411],[125.029617,7.44181],[125.028282,7.44259],[125.026443,7.4439],[125.023407,7.44534],[125.019211,7.4472],[125.016197,7.4484],[125.013481,7.44982],[125.011047,7.45135],[125.009628,7.4523],[125.007248,7.45391],[125.004807,7.45592],[125.00264,7.45632],[125.001472,7.45635],[124.999809,7.45643],[124.998016,7.4566],[124.996819,7.45643],[124.995308,7.45577],[124.994179,7.45508],[124.995064,7.45883],[124.995529,7.46226],[124.995529,7.46512],[124.995796,7.46926],[124.996109,7.47087],[124.996567,7.47412],[124.996651,7.47679],[124.996696,7.47982],[124.996323,7.48209],[124.996078,7.48324],[124.996353,7.48353],[124.997276,7.48548],[124.997757,7.48889],[124.99781,7.49112],[124.997726,7.49333],[124.997864,7.49504],[124.997887,7.49678],[124.997726,7.49925],[124.997429,7.50035],[124.996307,7.50191],[124.994873,7.50379],[124.998558,7.5073]]]]}},{"type":"Feature","properties":{"ID_0":177,"ISO":"PHL","NAME_0":"Philippines","ID_1":10013,"NAME_1":"Bukidnon","ID_2":1001302,"NAME_2":"Damulog","ID_3":1001302011,"NAME_3":"New Compostela","NL_NAME_3":null,"VARNAME_3":null,"TYPE_3":"Barangay","ENGTYPE_3":"Village","PROVINCE":"Bukidnon","REGION":"Region X (Northern Mindanao)","id":"barangay-1001302011","name":"New Compostela","barangayCode":"1001302011","population":null,"formattedPop":null,"densityCategory":"No data","vulnerabilityRating":"No data","healthRiskLevel":"No data","areaKm2":6.699851,"centerLat":7.503507,"centerLng":124.925755,"geometrySource":"all_barangay-2.csv detailed WKT","geometryMatchMethod":"unique_official_admin_names","boundaryPointCount":46},"geometry":{"type":"MultiPolygon","coordinates":[[[[124.926872,7.51757],[124.927254,7.51565],[124.927834,7.51384],[124.928612,7.51213],[124.929268,7.51059],[124.930557,7.50735],[124.931107,7.50623],[124.931328,7.50437],[124.931633,7.50136],[124.931633,7.4998],[124.931427,7.49828],[124.930771,7.49768],[124.92981,7.49712],[124.928169,7.4961],[124.926102,7.49513],[124.924919,7.49428],[124.923401,7.49293],[124.921631,7.49215],[124.920372,7.4917],[124.918587,7.49136],[124.916512,7.49053],[124.915222,7.48985],[124.913353,7.48889],[124.911049,7.48783],[124.910301,7.48745],[124.90802,7.48862],[124.909187,7.48893],[124.909866,7.48988],[124.910263,7.49125],[124.911163,7.49249],[124.912376,7.49362],[124.912666,7.49466],[124.913071,7.49673],[124.912712,7.49908],[124.912468,7.50067],[124.912682,7.50279],[124.915627,7.50376],[124.917633,7.50526],[124.918983,7.50632],[124.919884,7.50706],[124.920967,7.50846],[124.921898,7.51082],[124.922447,7.51233],[124.923569,7.51425],[124.924988,7.51581],[124.926872,7.51757]]]]}},{"type":"Feature","properties":{"ID_0":177,"ISO":"PHL","NAME_0":"Philippines","ID_1":10013,"NAME_1":"Bukidnon","ID_2":1001302,"NAME_2":"Damulog","ID_3":1001302013,"NAME_3":"Old Damulog","NL_NAME_3":null,"VARNAME_3":null,"TYPE_3":"Barangay","ENGTYPE_3":"Village","PROVINCE":"Bukidnon","REGION":"Region X (Northern Mindanao)","id":"barangay-1001302013","name":"Old Damulog","barangayCode":"1001302013","population":null,"formattedPop":null,"densityCategory":"No data","vulnerabilityRating":"No data","healthRiskLevel":"No data","areaKm2":9.688004,"centerLat":7.493978,"centerLng":124.963714,"geometrySource":"all_barangay-2.csv detailed WKT","geometryMatchMethod":"unique_official_admin_names","boundaryPointCount":22},"geometry":{"type":"MultiPolygon","coordinates":[[[[124.930557,7.50735],[124.982384,7.49265],[124.994873,7.50379],[124.996307,7.50191],[124.997429,7.50035],[124.997726,7.49925],[124.997887,7.49678],[124.997864,7.49504],[124.997726,7.49333],[124.99781,7.49112],[124.997757,7.48889],[124.997276,7.48548],[124.996353,7.48353],[124.981483,7.48483],[124.980476,7.47982],[124.931671,7.49418],[124.931427,7.49828],[124.931633,7.4998],[124.931633,7.50136],[124.931328,7.50437],[124.931107,7.50623],[124.930557,7.50735]]]]}},{"type":"Feature","properties":{"ID_0":177,"ISO":"PHL","NAME_0":"Philippines","ID_1":10013,"NAME_1":"Bukidnon","ID_2":1001302,"NAME_2":"Damulog","ID_3":1001302014,"NAME_3":"Omonay","NL_NAME_3":null,"VARNAME_3":null,"TYPE_3":"Barangay","ENGTYPE_3":"Village","PROVINCE":"Bukidnon","REGION":"Region X (Northern Mindanao)","id":"barangay-1001302014","name":"Omonay","barangayCode":"1001302014","population":null,"formattedPop":null,"densityCategory":"No data","vulnerabilityRating":"No data","healthRiskLevel":"No data","areaKm2":13.237503,"centerLat":7.433884,"centerLng":124.899056,"geometrySource":"all_barangay-2.csv detailed WKT","geometryMatchMethod":"unique_official_admin_names","boundaryPointCount":117},"geometry":{"type":"MultiPolygon","coordinates":[[[[124.895119,7.45059],[124.895264,7.45014],[124.895844,7.44949],[124.896759,7.44775],[124.89814,7.44588],[124.901321,7.44427],[124.901642,7.44363],[124.902496,7.44213],[124.904137,7.44068],[124.90667,7.44048],[124.908302,7.44087],[124.91188,7.4427],[124.913841,7.44414],[124.915237,7.4448],[124.917831,7.44428],[124.918716,7.44192],[124.920464,7.43867],[124.921677,7.43613],[124.923317,7.4338],[124.924828,7.43206],[124.923828,7.43181],[124.923431,7.43132],[124.922798,7.43051],[124.921967,7.42981],[124.9216,7.42938],[124.921494,7.42806],[124.921013,7.42697],[124.919807,7.42538],[124.91935,7.42498],[124.918617,7.42453],[124.917442,7.4238],[124.915947,7.423],[124.914963,7.42287],[124.913971,7.42265],[124.913269,7.42225],[124.91243,7.4218],[124.911903,7.42147],[124.910767,7.42101],[124.90863,7.42074],[124.907677,7.42048],[124.907303,7.42029],[124.906807,7.41955],[124.90612,7.41872],[124.905022,7.41884],[124.904732,7.41902],[124.903969,7.41877],[124.903442,7.41817],[124.902473,7.41766],[124.901611,7.417],[124.901154,7.41633],[124.90062,7.4154],[124.900162,7.41417],[124.899727,7.41361],[124.898483,7.41385],[124.898697,7.41493],[124.898262,7.41653],[124.89724,7.41618],[124.895592,7.41512],[124.894043,7.41454],[124.892632,7.41451],[124.891243,7.41548],[124.890503,7.41625],[124.889862,7.41665],[124.88884,7.41691],[124.887657,7.41715],[124.88604,7.41704],[124.884377,7.41702],[124.882988,7.41699],[124.881981,7.41648],[124.88018,7.41554],[124.880188,7.4157],[124.880058,7.41682],[124.87957,7.41803],[124.879112,7.41907],[124.879463,7.42088],[124.879753,7.42198],[124.880096,7.42294],[124.880699,7.42382],[124.880821,7.42449],[124.880386,7.42601],[124.880409,7.4275],[124.880463,7.42861],[124.879463,7.43123],[124.879013,7.43195],[124.878357,7.4326],[124.877747,7.43298],[124.876831,7.43293],[124.875717,7.43263],[124.874474,7.43266],[124.874046,7.43276],[124.873863,7.43307],[124.873596,7.43409],[124.874039,7.43502],[124.874977,7.43531],[124.875969,7.4357],[124.876282,7.43644],[124.875557,7.43816],[124.875221,7.43919],[124.874901,7.44134],[124.876923,7.44144],[124.879089,7.44208],[124.880341,7.44242],[124.882462,7.44353],[124.884506,7.44494],[124.885674,7.4451],[124.886452,7.44511],[124.886887,7.44611],[124.88707,7.44643],[124.888512,7.44671],[124.889061,7.44631],[124.889252,7.44693],[124.889832,7.44774],[124.890617,7.44847],[124.891853,7.4495],[124.893044,7.45012],[124.894432,7.45045],[124.895119,7.45059]]]]}},{"type":"Feature","properties":{"ID_0":177,"ISO":"PHL","NAME_0":"Philippines","ID_1":10013,"NAME_1":"Bukidnon","ID_2":1001302,"NAME_2":"Damulog","ID_3":1001302015,"NAME_3":"Poblacion","NL_NAME_3":null,"VARNAME_3":null,"TYPE_3":"Barangay","ENGTYPE_3":"Village","PROVINCE":"Bukidnon","REGION":"Region X (Northern Mindanao)","id":"barangay-1001302015","name":"Poblacion","barangayCode":"1001302015","population":null,"formattedPop":null,"densityCategory":"No data","vulnerabilityRating":"No data","healthRiskLevel":"No data","areaKm2":4.748938,"centerLat":7.483378,"centerLng":124.939597,"geometrySource":"all_barangay-2.csv detailed WKT","geometryMatchMethod":"unique_official_admin_names","boundaryPointCount":44},"geometry":{"type":"MultiPolygon","coordinates":[[[[124.980476,7.47982],[124.980148,7.47911],[124.979897,7.47896],[124.979103,7.47865],[124.978058,7.4786],[124.977028,7.47851],[124.975662,7.47874],[124.974968,7.47888],[124.973869,7.47889],[124.972572,7.47832],[124.970993,7.47742],[124.969719,7.47685],[124.968964,7.47709],[124.967407,7.47763],[124.965714,7.47807],[124.964561,7.47852],[124.963837,7.47978],[124.961037,7.48021],[124.959152,7.48009],[124.958656,7.47972],[124.957024,7.47856],[124.955017,7.47844],[124.95285,7.47847],[124.950462,7.47844],[124.949387,7.47803],[124.948311,7.4771],[124.947128,7.47632],[124.94593,7.47538],[124.943817,7.47141],[124.943466,7.47038],[124.942543,7.46947],[124.940941,7.4695],[124.938187,7.46965],[124.936111,7.47023],[124.934357,7.47098],[124.93232,7.4727],[124.93132,7.47425],[124.929962,7.47613],[124.92923,7.47704],[124.927887,7.4784],[124.92598,7.479],[124.924553,7.47937],[124.931671,7.49418],[124.980476,7.47982]]]]}},{"type":"Feature","properties":{"ID_0":177,"ISO":"PHL","NAME_0":"Philippines","ID_1":10013,"NAME_1":"Bukidnon","ID_2":1001302,"NAME_2":"Damulog","ID_3":1001302016,"NAME_3":"Pocopoco","NL_NAME_3":null,"VARNAME_3":null,"TYPE_3":"Barangay","ENGTYPE_3":"Village","PROVINCE":"Bukidnon","REGION":"Region X (Northern Mindanao)","id":"barangay-1001302016","name":"Pocopoco","barangayCode":"1001302016","population":null,"formattedPop":null,"densityCategory":"No data","vulnerabilityRating":"No data","healthRiskLevel":"No data","areaKm2":6.530794,"centerLat":7.468787,"centerLng":124.928895,"geometrySource":"all_barangay-2.csv detailed WKT","geometryMatchMethod":"unique_official_admin_names","boundaryPointCount":56},"geometry":{"type":"MultiPolygon","coordinates":[[[[124.924553,7.47937],[124.92598,7.479],[124.927887,7.4784],[124.92923,7.47704],[124.929962,7.47613],[124.93132,7.47425],[124.93232,7.4727],[124.934357,7.47098],[124.936111,7.47023],[124.938187,7.46965],[124.940941,7.4695],[124.942543,7.46947],[124.943466,7.47038],[124.943817,7.47141],[124.94593,7.47538],[124.947128,7.47632],[124.948311,7.4771],[124.949387,7.47803],[124.95211,7.46268],[124.951508,7.46222],[124.949661,7.46142],[124.947701,7.46023],[124.94706,7.45987],[124.946007,7.45941],[124.945152,7.45914],[124.943588,7.45882],[124.942993,7.45854],[124.942284,7.45842],[124.939857,7.4582],[124.938057,7.45814],[124.935753,7.4579],[124.934837,7.45762],[124.934227,7.45757],[124.932747,7.45729],[124.930962,7.45714],[124.928673,7.4572],[124.926903,7.45737],[124.924713,7.4594],[124.922127,7.46198],[124.919708,7.46269],[124.91861,7.46228],[124.917351,7.46138],[124.909828,7.47417],[124.910606,7.47443],[124.911697,7.47478],[124.91246,7.47544],[124.913559,7.47678],[124.914581,7.47776],[124.916023,7.47832],[124.917122,7.47848],[124.918266,7.47896],[124.919594,7.47997],[124.920563,7.48029],[124.922028,7.4806],[124.923553,7.48053],[124.924553,7.47937]]]]}},{"type":"Feature","properties":{"ID_0":177,"ISO":"PHL","NAME_0":"Philippines","ID_1":10013,"NAME_1":"Bukidnon","ID_2":1001302,"NAME_2":"Damulog","ID_3":1001302017,"NAME_3":"Sampagar","NL_NAME_3":null,"VARNAME_3":null,"TYPE_3":"Barangay","ENGTYPE_3":"Village","PROVINCE":"Bukidnon","REGION":"Region X (Northern Mindanao)","id":"barangay-1001302017","name":"Sampagar","barangayCode":"1001302017","population":null,"formattedPop":null,"densityCategory":"No data","vulnerabilityRating":"No data","healthRiskLevel":"No data","areaKm2":13.997688,"centerLat":7.514584,"centerLng":124.957975,"geometrySource":"all_barangay-2.csv detailed WKT","geometryMatchMethod":"unique_official_admin_names","boundaryPointCount":27},"geometry":{"type":"MultiPolygon","coordinates":[[[[124.933113,7.52571],[124.934769,7.52579],[124.935928,7.52536],[124.93705,7.52426],[124.937263,7.52395],[124.939987,7.52337],[124.941429,7.52255],[124.94371,7.52215],[124.945137,7.5218],[124.946663,7.52105],[124.948769,7.51922],[124.949806,7.51804],[124.951927,7.51628],[124.969261,7.50288],[124.982384,7.49265],[124.930557,7.50735],[124.929268,7.51059],[124.928612,7.51213],[124.927834,7.51384],[124.927254,7.51565],[124.926872,7.51757],[124.928032,7.51861],[124.929573,7.52053],[124.930351,7.5219],[124.931282,7.52388],[124.931999,7.52478],[124.933113,7.52571]]]]}},{"type":"Feature","properties":{"ID_0":177,"ISO":"PHL","NAME_0":"Philippines","ID_1":10013,"NAME_1":"Bukidnon","ID_2":1001302,"NAME_2":"Damulog","ID_3":1001302019,"NAME_3":"San Isidro","NL_NAME_3":null,"VARNAME_3":null,"TYPE_3":"Barangay","ENGTYPE_3":"Village","PROVINCE":"Bukidnon","REGION":"Region X (Northern Mindanao)","id":"barangay-1001302019","name":"San Isidro","barangayCode":"1001302019","population":null,"formattedPop":null,"densityCategory":"No data","vulnerabilityRating":"No data","healthRiskLevel":"No data","areaKm2":6.811959,"centerLat":7.449237,"centerLng":124.91938,"geometrySource":"all_barangay-2.csv detailed WKT","geometryMatchMethod":"unique_official_admin_names","boundaryPointCount":68},"geometry":{"type":"MultiPolygon","coordinates":[[[[124.932747,7.45729],[124.933197,7.45616],[124.933372,7.45383],[124.93396,7.45132],[124.933693,7.45013],[124.933189,7.44857],[124.933434,7.44638],[124.934059,7.44382],[124.934013,7.44137],[124.933746,7.44038],[124.933723,7.43751],[124.933952,7.43487],[124.934433,7.4332],[124.933357,7.431],[124.933243,7.43129],[124.931419,7.43098],[124.930107,7.4306],[124.929153,7.43034],[124.928619,7.43066],[124.928864,7.43181],[124.928757,7.43205],[124.927643,7.43168],[124.926659,7.43068],[124.925583,7.43055],[124.925262,7.431],[124.924828,7.43206],[124.923317,7.4338],[124.921677,7.43613],[124.920464,7.43867],[124.918716,7.44192],[124.917831,7.44428],[124.915237,7.4448],[124.913841,7.44414],[124.91188,7.4427],[124.908302,7.44087],[124.90667,7.44048],[124.904137,7.44068],[124.902496,7.44213],[124.901642,7.44363],[124.901321,7.44427],[124.89814,7.44588],[124.896759,7.44775],[124.895844,7.44949],[124.895264,7.45014],[124.895119,7.45059],[124.896332,7.45178],[124.898117,7.4517],[124.900467,7.45152],[124.901947,7.45285],[124.905128,7.45226],[124.907921,7.45186],[124.909416,7.45216],[124.911118,7.45299],[124.912567,7.45369],[124.913979,7.45471],[124.915817,7.4566],[124.916313,7.45763],[124.916649,7.45981],[124.916801,7.46067],[124.917351,7.46138],[124.91861,7.46228],[124.919708,7.46269],[124.922127,7.46198],[124.924713,7.4594],[124.926903,7.45737],[124.928673,7.4572],[124.930962,7.45714],[124.932747,7.45729]]]]}}]}
