{"type":"FeatureCollection","features":[{"type":"Feature","properties":{"ID_0":177,"ISO":"PHL","NAME_0":"Philippines","ID_1":8026,"NAME_1":"Eastern Samar","ID_2":802617,"NAME_2":"Oras","ID_3":802617001,"NAME_3":"Agsam","NL_NAME_3":null,"VARNAME_3":null,"TYPE_3":"Barangay","ENGTYPE_3":"Village","PROVINCE":"Eastern Samar","REGION":"Region VIII (Eastern Visayas)","id":"barangay-0802617001","name":"Agsam","barangayCode":"0802617001","population":null,"formattedPop":null,"densityCategory":"No data","vulnerabilityRating":"No data","healthRiskLevel":"No data","areaKm2":9.288702,"centerLat":12.17173,"centerLng":125.397147,"geometrySource":"all_barangay-2.csv detailed WKT","geometryMatchMethod":"unique_official_admin_names","boundaryPointCount":9},"geometry":{"type":"MultiPolygon","coordinates":[[[[125.392807,12.17094],[125.391563,12.16649],[125.392601,12.1649],[125.394203,12.16407],[125.396347,12.16365],[125.39782,12.16257],[125.375717,12.14662],[125.368637,12.1561],[125.392807,12.17094]]]]}},{"type":"Feature","properties":{"ID_0":177,"ISO":"PHL","NAME_0":"Philippines","ID_1":8026,"NAME_1":"Eastern Samar","ID_2":802617,"NAME_2":"Oras","ID_3":802617002,"NAME_3":"Bagacay","NL_NAME_3":null,"VARNAME_3":null,"TYPE_3":"Barangay","ENGTYPE_3":"Village","PROVINCE":"Eastern Samar","REGION":"Region VIII (Eastern Visayas)","id":"barangay-0802617002","name":"Bagacay","barangayCode":"0802617002","population":null,"formattedPop":null,"densityCategory":"No data","vulnerabilityRating":"No data","healthRiskLevel":"No data","areaKm2":3.525903,"centerLat":12.077881,"centerLng":125.436457,"geometrySource":"all_barangay-2.csv detailed WKT","geometryMatchMethod":"unique_official_admin_names","boundaryPointCount":10},"geometry":{"type":"MultiPolygon","coordinates":[[[[125.433273,12.10479],[125.435257,12.10115],[125.440224,12.09688],[125.43692,12.08364],[125.429367,12.08589],[125.422638,12.08787],[125.417992,12.09029],[125.413551,12.09335],[125.424843,12.10017],[125.433273,12.10479]]]]}},{"type":"Feature","properties":{"ID_0":177,"ISO":"PHL","NAME_0":"Philippines","ID_1":8026,"NAME_1":"Eastern Samar","ID_2":802617,"NAME_2":"Oras","ID_3":802617003,"NAME_3":"Balingasag","NL_NAME_3":null,"VARNAME_3":null,"TYPE_3":"Barangay","ENGTYPE_3":"Village","PROVINCE":"Eastern Samar","REGION":"Region VIII (Eastern Visayas)","id":"barangay-0802617003","name":"Balingasag","barangayCode":"0802617003","population":null,"formattedPop":null,"densityCategory":"No data","vulnerabilityRating":"No data","healthRiskLevel":"No data","areaKm2":13.080696,"centerLat":12.208259,"centerLng":125.314475,"geometrySource":"all_barangay-2.csv detailed WKT","geometryMatchMethod":"unique_official_admin_names","boundaryPointCount":11},"geometry":{"type":"MultiPolygon","coordinates":[[[[125.384117,12.19215],[125.382431,12.18973],[125.382462,12.18787],[125.382599,12.18669],[125.383003,12.18463],[125.322708,12.14589],[125.299339,12.15425],[125.258774,12.16769],[125.359703,12.18666],[125.373558,12.18964],[125.384117,12.19215]]]]}},{"type":"Feature","properties":{"ID_0":177,"ISO":"PHL","NAME_0":"Philippines","ID_1":8026,"NAME_1":"Eastern Samar","ID_2":802617,"NAME_2":"Oras","ID_3":802617004,"NAME_3":"Balocawe","NL_NAME_3":null,"VARNAME_3":null,"TYPE_3":"Barangay","ENGTYPE_3":"Village","PROVINCE":"Eastern Samar","REGION":"Region VIII (Eastern Visayas)","id":"barangay-0802617004","name":"Balocawe","barangayCode":"0802617004","population":null,"formattedPop":null,"densityCategory":"No data","vulnerabilityRating":"No data","healthRiskLevel":"No data","areaKm2":0.245104,"centerLat":12.138306,"centerLng":125.445852,"geometrySource":"all_barangay-2.csv detailed WKT","geometryMatchMethod":"unique_official_admin_names","boundaryPointCount":62},"geometry":{"type":"MultiPolygon","coordinates":[[[[125.4375,12.13806],[125.4375,12.13778],[125.437233,12.1375],[125.436943,12.1375],[125.436668,12.13722],[125.43528,12.13722],[125.434792,12.13806],[125.434723,12.13806],[125.434502,12.13903],[125.435463,12.13908],[125.436943,12.13917],[125.437767,12.13833],[125.4375,12.13806]]],[[[125.447739,12.14673],[125.450722,12.14214],[125.45076,12.14215],[125.451782,12.14067],[125.451477,12.14015],[125.450638,12.13946],[125.450279,12.13833],[125.448334,12.13611],[125.448059,12.13611],[125.448059,12.13583],[125.447777,12.13583],[125.446953,12.13667],[125.446663,12.13667],[125.446388,12.13694],[125.446114,12.13694],[125.445831,12.13722],[125.445267,12.13722],[125.444717,12.13667],[125.444168,12.13667],[125.443611,12.13722],[125.44278,12.13722],[125.442497,12.1375],[125.442223,12.1375],[125.441948,12.13722],[125.441711,12.13746],[125.441391,12.13778],[125.440628,12.13812],[125.439453,12.13889],[125.438889,12.13896],[125.438606,12.13917],[125.438553,12.13944],[125.438057,12.13951],[125.438057,12.13972],[125.437767,12.14],[125.4375,12.14],[125.436943,12.14056],[125.436668,12.14028],[125.435837,12.14028],[125.435547,12.14],[125.434448,12.14],[125.434174,12.13972],[125.433968,12.13972],[125.431236,12.13972],[125.431213,12.13989],[125.434319,12.14573],[125.444977,12.14925],[125.44796,12.15059],[125.448036,12.14855],[125.447739,12.14673]]]]}},{"type":"Feature","properties":{"ID_0":177,"ISO":"PHL","NAME_0":"Philippines","ID_1":8026,"NAME_1":"Eastern Samar","ID_2":802617,"NAME_2":"Oras","ID_3":802617005,"NAME_3":"Bantayan","NL_NAME_3":null,"VARNAME_3":null,"TYPE_3":"Barangay","ENGTYPE_3":"Village","PROVINCE":"Eastern Samar","REGION":"Region VIII (Eastern Visayas)","id":"barangay-0802617005","name":"Bantayan","barangayCode":"0802617005","population":null,"formattedPop":null,"densityCategory":"No data","vulnerabilityRating":"No data","healthRiskLevel":"No data","areaKm2":8.261488,"centerLat":12.129045,"centerLng":125.408015,"geometrySource":"all_barangay-2.csv detailed WKT","geometryMatchMethod":"unique_official_admin_names","boundaryPointCount":6},"geometry":{"type":"MultiPolygon","coordinates":[[[[125.418266,12.12053],[125.421173,12.11047],[125.416618,12.1077],[125.406723,12.11613],[125.404343,12.11734],[125.418266,12.12053]]]]}},{"type":"Feature","properties":{"ID_0":177,"ISO":"PHL","NAME_0":"Philippines","ID_1":8026,"NAME_1":"Eastern Samar","ID_2":802617,"NAME_2":"Oras","ID_3":802617006,"NAME_3":"Batang","NL_NAME_3":null,"VARNAME_3":null,"TYPE_3":"Barangay","ENGTYPE_3":"Village","PROVINCE":"Eastern Samar","REGION":"Region VIII (Eastern Visayas)","id":"barangay-0802617006","name":"Batang","barangayCode":"0802617006","population":null,"formattedPop":null,"densityCategory":"No data","vulnerabilityRating":"No data","healthRiskLevel":"No data","areaKm2":8.048251,"centerLat":12.196189,"centerLng":125.344447,"geometrySource":"all_barangay-2.csv detailed WKT","geometryMatchMethod":"unique_official_admin_names","boundaryPointCount":15},"geometry":{"type":"MultiPolygon","coordinates":[[[[125.363373,12.20378],[125.367104,12.20185],[125.370468,12.20191],[125.373802,12.20179],[125.376053,12.20201],[125.381729,12.20236],[125.370293,12.19176],[125.35482,12.19983],[125.35553,12.20063],[125.356087,12.20143],[125.357132,12.20241],[125.358727,12.20366],[125.359367,12.20449],[125.362,12.20536],[125.363373,12.20378]]]]}},{"type":"Feature","properties":{"ID_0":177,"ISO":"PHL","NAME_0":"Philippines","ID_1":8026,"NAME_1":"Eastern Samar","ID_2":802617,"NAME_2":"Oras","ID_3":802617007,"NAME_3":"Bato","NL_NAME_3":null,"VARNAME_3":null,"TYPE_3":"Barangay","ENGTYPE_3":"Village","PROVINCE":"Eastern Samar","REGION":"Region VIII (Eastern Visayas)","id":"barangay-0802617007","name":"Bato","barangayCode":"0802617007","population":null,"formattedPop":null,"densityCategory":"No data","vulnerabilityRating":"No data","healthRiskLevel":"No data","areaKm2":8.506448,"centerLat":12.147978,"centerLng":125.385921,"geometrySource":"all_barangay-2.csv detailed WKT","geometryMatchMethod":"unique_official_admin_names","boundaryPointCount":6},"geometry":{"type":"MultiPolygon","coordinates":[[[[125.404343,12.11734],[125.406723,12.11613],[125.38324,12.10087],[125.372993,12.10658],[125.398628,12.12463],[125.404343,12.11734]]]]}},{"type":"Feature","properties":{"ID_0":177,"ISO":"PHL","NAME_0":"Philippines","ID_1":8026,"NAME_1":"Eastern Samar","ID_2":802617,"NAME_2":"Oras","ID_3":802617008,"NAME_3":"Binalayan","NL_NAME_3":null,"VARNAME_3":null,"TYPE_3":"Barangay","ENGTYPE_3":"Village","PROVINCE":"Eastern Samar","REGION":"Region VIII (Eastern Visayas)","id":"barangay-0802617008","name":"Binalayan","barangayCode":"0802617008","population":null,"formattedPop":null,"densityCategory":"No data","vulnerabilityRating":"No data","healthRiskLevel":"No data","areaKm2":5.142767,"centerLat":12.152446,"centerLng":125.411912,"geometrySource":"all_barangay-2.csv detailed WKT","geometryMatchMethod":"unique_official_admin_names","boundaryPointCount":32},"geometry":{"type":"MultiPolygon","coordinates":[[[[125.420418,12.15301],[125.421951,12.14875],[125.423798,12.14479],[125.424721,12.14371],[125.424721,12.14333],[125.425003,12.14306],[125.425003,12.14222],[125.424721,12.14222],[125.424721,12.14195],[125.425423,12.14124],[125.42363,12.13999],[125.421204,12.13855],[125.420273,12.13848],[125.41935,12.13841],[125.417923,12.13783],[125.416008,12.13707],[125.405823,12.1298],[125.398628,12.12463],[125.375717,12.14662],[125.39782,12.16257],[125.398842,12.16005],[125.400177,12.16025],[125.402512,12.1618],[125.404716,12.16337],[125.407066,12.1636],[125.408684,12.16288],[125.410133,12.16269],[125.412537,12.16169],[125.41481,12.16077],[125.417297,12.15882],[125.419548,12.15536],[125.420418,12.15301]]]]}},{"type":"Feature","properties":{"ID_0":177,"ISO":"PHL","NAME_0":"Philippines","ID_1":8026,"NAME_1":"Eastern Samar","ID_2":802617,"NAME_2":"Oras","ID_3":802617009,"NAME_3":"Buntay","NL_NAME_3":null,"VARNAME_3":null,"TYPE_3":"Barangay","ENGTYPE_3":"Village","PROVINCE":"Eastern Samar","REGION":"Region VIII (Eastern Visayas)","id":"barangay-0802617009","name":"Buntay","barangayCode":"0802617009","population":null,"formattedPop":null,"densityCategory":"No data","vulnerabilityRating":"No data","healthRiskLevel":"No data","areaKm2":4.447099,"centerLat":12.214161,"centerLng":125.356759,"geometrySource":"all_barangay-2.csv detailed WKT","geometryMatchMethod":"unique_official_admin_names","boundaryPointCount":8},"geometry":{"type":"MultiPolygon","coordinates":[[[[125.393463,12.22027],[125.396263,12.21603],[125.376053,12.20201],[125.373802,12.20179],[125.370468,12.20191],[125.367104,12.20185],[125.363373,12.20378],[125.393463,12.22027]]]]}},{"type":"Feature","properties":{"ID_0":177,"ISO":"PHL","NAME_0":"Philippines","ID_1":8026,"NAME_1":"Eastern Samar","ID_2":802617,"NAME_2":"Oras","ID_3":802617010,"NAME_3":"Burak","NL_NAME_3":null,"VARNAME_3":null,"TYPE_3":"Barangay","ENGTYPE_3":"Village","PROVINCE":"Eastern Samar","REGION":"Region VIII (Eastern Visayas)","id":"barangay-0802617010","name":"Burak","barangayCode":"0802617010","population":null,"formattedPop":null,"densityCategory":"No data","vulnerabilityRating":"No data","healthRiskLevel":"No data","areaKm2":2.064678,"centerLat":12.114897,"centerLng":125.432677,"geometrySource":"all_barangay-2.csv detailed WKT","geometryMatchMethod":"unique_official_admin_names","boundaryPointCount":16},"geometry":{"type":"MultiPolygon","coordinates":[[[[125.438492,12.131],[125.438332,12.13083],[125.438057,12.13028],[125.437233,12.12889],[125.437233,12.12861],[125.436943,12.12833],[125.436943,12.12694],[125.436668,12.12667],[125.436668,12.12249],[125.435303,12.123],[125.435333,12.12291],[125.422981,12.1258],[125.405823,12.1298],[125.416008,12.13707],[125.435127,12.13134],[125.438492,12.131]]]]}},{"type":"Feature","properties":{"ID_0":177,"ISO":"PHL","NAME_0":"Philippines","ID_1":8026,"NAME_1":"Eastern Samar","ID_2":802617,"NAME_2":"Oras","ID_3":802617011,"NAME_3":"Butnga","NL_NAME_3":null,"VARNAME_3":null,"TYPE_3":"Barangay","ENGTYPE_3":"Village","PROVINCE":"Eastern Samar","REGION":"Region VIII (Eastern Visayas)","id":"barangay-0802617011","name":"Butnga","barangayCode":"0802617011","population":null,"formattedPop":null,"densityCategory":"No data","vulnerabilityRating":"No data","healthRiskLevel":"No data","areaKm2":0.272697,"centerLat":12.145441,"centerLng":125.442018,"geometrySource":"all_barangay-2.csv detailed WKT","geometryMatchMethod":"unique_official_admin_names","boundaryPointCount":8},"geometry":{"type":"MultiPolygon","coordinates":[[[[125.426132,12.16541],[125.432854,12.16028],[125.436852,12.15971],[125.434067,12.15695],[125.432426,12.15399],[125.423088,12.15946],[125.423637,12.16072],[125.426132,12.16541]]]]}},{"type":"Feature","properties":{"ID_0":177,"ISO":"PHL","NAME_0":"Philippines","ID_1":8026,"NAME_1":"Eastern Samar","ID_2":802617,"NAME_2":"Oras","ID_3":802617012,"NAME_3":"Cadian","NL_NAME_3":null,"VARNAME_3":null,"TYPE_3":"Barangay","ENGTYPE_3":"Village","PROVINCE":"Eastern Samar","REGION":"Region VIII (Eastern Visayas)","id":"barangay-0802617012","name":"Cadian","barangayCode":"0802617012","population":null,"formattedPop":null,"densityCategory":"No data","vulnerabilityRating":"No data","healthRiskLevel":"No data","areaKm2":8.498363,"centerLat":12.215102,"centerLng":125.39042,"geometrySource":"all_barangay-2.csv detailed WKT","geometryMatchMethod":"unique_official_admin_names","boundaryPointCount":17},"geometry":{"type":"MultiPolygon","coordinates":[[[[125.398804,12.21311],[125.403419,12.20724],[125.384117,12.19215],[125.384987,12.19449],[125.385727,12.19579],[125.386864,12.19696],[125.387711,12.19797],[125.388329,12.19984],[125.387527,12.20201],[125.386818,12.20317],[125.385513,12.20358],[125.384079,12.20266],[125.383034,12.20235],[125.381729,12.20236],[125.376053,12.20201],[125.396263,12.21603],[125.398804,12.21311]]]]}},{"type":"Feature","properties":{"ID_0":177,"ISO":"PHL","NAME_0":"Philippines","ID_1":8026,"NAME_1":"Eastern Samar","ID_2":802617,"NAME_2":"Oras","ID_3":802617013,"NAME_3":"Cagdine","NL_NAME_3":null,"VARNAME_3":null,"TYPE_3":"Barangay","ENGTYPE_3":"Village","PROVINCE":"Eastern Samar","REGION":"Region VIII (Eastern Visayas)","id":"barangay-0802617013","name":"Cagdine","barangayCode":"0802617013","population":null,"formattedPop":null,"densityCategory":"No data","vulnerabilityRating":"No data","healthRiskLevel":"No data","areaKm2":3.593541,"centerLat":12.203445,"centerLng":125.37116,"geometrySource":"all_barangay-2.csv detailed WKT","geometryMatchMethod":"unique_official_admin_names","boundaryPointCount":15},"geometry":{"type":"MultiPolygon","coordinates":[[[[125.381729,12.20236],[125.383034,12.20235],[125.384079,12.20266],[125.385513,12.20358],[125.386818,12.20317],[125.387527,12.20201],[125.388329,12.19984],[125.387711,12.19797],[125.386864,12.19696],[125.385727,12.19579],[125.384987,12.19449],[125.384117,12.19215],[125.373558,12.18964],[125.370293,12.19176],[125.381729,12.20236]]]]}},{"type":"Feature","properties":{"ID_0":177,"ISO":"PHL","NAME_0":"Philippines","ID_1":8026,"NAME_1":"Eastern Samar","ID_2":802617,"NAME_2":"Oras","ID_3":802617014,"NAME_3":"Cagpile","NL_NAME_3":null,"VARNAME_3":null,"TYPE_3":"Barangay","ENGTYPE_3":"Village","PROVINCE":"Eastern Samar","REGION":"Region VIII (Eastern Visayas)","id":"barangay-0802617014","name":"Cagpile","barangayCode":"0802617014","population":null,"formattedPop":null,"densityCategory":"No data","vulnerabilityRating":"No data","healthRiskLevel":"No data","areaKm2":3.976868,"centerLat":12.238182,"centerLng":125.325562,"geometrySource":"all_barangay-2.csv detailed WKT","geometryMatchMethod":"unique_official_admin_names","boundaryPointCount":37},"geometry":{"type":"MultiPolygon","coordinates":[[[[125.356812,12.20995],[125.360313,12.20708],[125.362,12.20536],[125.359367,12.20449],[125.358727,12.20366],[125.357132,12.20241],[125.356087,12.20143],[125.35553,12.20063],[125.35482,12.19983],[125.354263,12.19911],[125.352333,12.19768],[125.350754,12.19665],[125.348709,12.19557],[125.347321,12.19426],[125.34481,12.19089],[125.34407,12.19141],[125.342796,12.19189],[125.34166,12.19251],[125.340759,12.19218],[125.339432,12.19344],[125.338608,12.19299],[125.33757,12.19247],[125.335953,12.19205],[125.334122,12.19263],[125.334351,12.19431],[125.333641,12.1953],[125.333,12.19661],[125.33223,12.19716],[125.330612,12.19656],[125.328934,12.19532],[125.328072,12.19469],[125.326271,12.19234],[125.325256,12.19193],[125.323227,12.19235],[125.321983,12.19508],[125.331528,12.19969],[125.356812,12.20995]]]]}},{"type":"Feature","properties":{"ID_0":177,"ISO":"PHL","NAME_0":"Philippines","ID_1":8026,"NAME_1":"Eastern Samar","ID_2":802617,"NAME_2":"Oras","ID_3":802617015,"NAME_3":"Cagtoog","NL_NAME_3":null,"VARNAME_3":null,"TYPE_3":"Barangay","ENGTYPE_3":"Village","PROVINCE":"Eastern Samar","REGION":"Region VIII (Eastern Visayas)","id":"barangay-0802617015","name":"Cagtoog","barangayCode":"0802617015","population":null,"formattedPop":null,"densityCategory":"No data","vulnerabilityRating":"No data","healthRiskLevel":"No data","areaKm2":6.528957,"centerLat":12.22069,"centerLng":125.33451,"geometrySource":"all_barangay-2.csv detailed WKT","geometryMatchMethod":"unique_official_admin_names","boundaryPointCount":8},"geometry":{"type":"MultiPolygon","coordinates":[[[[125.35482,12.19983],[125.370293,12.19176],[125.373558,12.18964],[125.359703,12.18666],[125.350754,12.19665],[125.352333,12.19768],[125.354263,12.19911],[125.35482,12.19983]]]]}},{"type":"Feature","properties":{"ID_0":177,"ISO":"PHL","NAME_0":"Philippines","ID_1":8026,"NAME_1":"Eastern Samar","ID_2":802617,"NAME_2":"Oras","ID_3":802617016,"NAME_3":"Camanga","NL_NAME_3":null,"VARNAME_3":null,"TYPE_3":"Barangay","ENGTYPE_3":"Village","PROVINCE":"Eastern Samar","REGION":"Region VIII (Eastern Visayas)","id":"barangay-0802617016","name":"Camanga","barangayCode":"0802617016","population":null,"formattedPop":null,"densityCategory":"No data","vulnerabilityRating":"No data","healthRiskLevel":"No data","areaKm2":0.293565,"centerLat":12.147475,"centerLng":125.44049,"geometrySource":"all_barangay-2.csv detailed WKT","geometryMatchMethod":"unique_official_admin_names","boundaryPointCount":6},"geometry":{"type":"MultiPolygon","coordinates":[[[[125.42292,12.16857],[125.426132,12.16541],[125.423637,12.16072],[125.419151,12.16278],[125.421677,12.1663],[125.42292,12.16857]]]]}},{"type":"Feature","properties":{"ID_0":177,"ISO":"PHL","NAME_0":"Philippines","ID_1":8026,"NAME_1":"Eastern Samar","ID_2":802617,"NAME_2":"Oras","ID_3":802617018,"NAME_3":"Dalid","NL_NAME_3":null,"VARNAME_3":null,"TYPE_3":"Barangay","ENGTYPE_3":"Village","PROVINCE":"Eastern Samar","REGION":"Region VIII (Eastern Visayas)","id":"barangay-0802617018","name":"Dalid","barangayCode":"0802617018","population":null,"formattedPop":null,"densityCategory":"No data","vulnerabilityRating":"No data","healthRiskLevel":"No data","areaKm2":3.510601,"centerLat":12.083931,"centerLng":125.45373,"geometrySource":"all_barangay-2.csv detailed WKT","geometryMatchMethod":"unique_official_admin_names","boundaryPointCount":41},"geometry":{"type":"MultiPolygon","coordinates":[[[[125.441856,12.10648],[125.441948,12.10639],[125.442223,12.10639],[125.44278,12.10583],[125.44278,12.10556],[125.443336,12.105],[125.443611,12.105],[125.443611,12.10472],[125.443893,12.10444],[125.443893,12.10417],[125.444717,12.10333],[125.445,12.10333],[125.445267,12.10306],[125.445557,12.10306],[125.446114,12.1025],[125.446388,12.1025],[125.446663,12.10222],[125.446953,12.10222],[125.44722,12.10194],[125.447502,12.10194],[125.449448,12.1],[125.449997,12.1],[125.450546,12.09944],[125.450844,12.09944],[125.452766,12.09917],[125.453331,12.09889],[125.45417,12.09833],[125.455276,12.09833],[125.456108,12.09806],[125.456619,12.09806],[125.455063,12.09411],[125.454361,12.09232],[125.454063,12.09088],[125.454102,12.08095],[125.448921,12.08085],[125.445358,12.08179],[125.43692,12.08364],[125.440224,12.09688],[125.435257,12.10115],[125.433273,12.10479],[125.441856,12.10648]]]]}},{"type":"Feature","properties":{"ID_0":177,"ISO":"PHL","NAME_0":"Philippines","ID_1":8026,"NAME_1":"Eastern Samar","ID_2":802617,"NAME_2":"Oras","ID_3":802617019,"NAME_3":"Dao","NL_NAME_3":null,"VARNAME_3":null,"TYPE_3":"Barangay","ENGTYPE_3":"Village","PROVINCE":"Eastern Samar","REGION":"Region VIII (Eastern Visayas)","id":"barangay-0802617019","name":"Dao","barangayCode":"0802617019","population":null,"formattedPop":null,"densityCategory":"No data","vulnerabilityRating":"No data","healthRiskLevel":"No data","areaKm2":8.371404,"centerLat":12.095581,"centerLng":125.432033,"geometrySource":"all_barangay-2.csv detailed WKT","geometryMatchMethod":"unique_official_admin_names","boundaryPointCount":43},"geometry":{"type":"MultiPolygon","coordinates":[[[[125.435333,12.12291],[125.435303,12.123],[125.436668,12.12249],[125.436668,12.12028],[125.436943,12.12],[125.436668,12.11972],[125.436668,12.11945],[125.436943,12.11917],[125.436943,12.11778],[125.437233,12.1175],[125.437233,12.11694],[125.4375,12.11667],[125.4375,12.11528],[125.437767,12.115],[125.437767,12.11444],[125.438057,12.11417],[125.438057,12.11333],[125.438332,12.11306],[125.438332,12.11222],[125.438606,12.11194],[125.438606,12.11139],[125.438889,12.11111],[125.438889,12.11057],[125.438927,12.11051],[125.439453,12.11],[125.439453,12.10981],[125.439453,12.10972],[125.439697,12.10947],[125.440002,12.10917],[125.440002,12.10907],[125.440002,12.10889],[125.440552,12.10833],[125.440552,12.10806],[125.441109,12.1075],[125.441109,12.10722],[125.441856,12.10648],[125.433273,12.10479],[125.424843,12.10017],[125.421173,12.11047],[125.418266,12.12053],[125.427078,12.12176],[125.427277,12.12179],[125.435333,12.12291]]]]}},{"type":"Feature","properties":{"ID_0":177,"ISO":"PHL","NAME_0":"Philippines","ID_1":8026,"NAME_1":"Eastern Samar","ID_2":802617,"NAME_2":"Oras","ID_3":802617020,"NAME_3":"Factoria","NL_NAME_3":null,"VARNAME_3":null,"TYPE_3":"Barangay","ENGTYPE_3":"Village","PROVINCE":"Eastern Samar","REGION":"Region VIII (Eastern Visayas)","id":"barangay-0802617020","name":"Factoria","barangayCode":"0802617020","population":null,"formattedPop":null,"densityCategory":"No data","vulnerabilityRating":"No data","healthRiskLevel":"No data","areaKm2":1.86909,"centerLat":12.085082,"centerLng":125.471013,"geometrySource":"all_barangay-2.csv detailed WKT","geometryMatchMethod":"unique_official_admin_names","boundaryPointCount":43},"geometry":{"type":"MultiPolygon","coordinates":[[[[125.454361,12.09232],[125.464439,12.09204],[125.466042,12.0915],[125.466522,12.09108],[125.466782,12.09076],[125.468277,12.09025],[125.46843,12.09016],[125.46846,12.09014],[125.469009,12.0898],[125.46904,12.08984],[125.469719,12.08917],[125.470001,12.08917],[125.470284,12.08889],[125.470558,12.08917],[125.470833,12.08917],[125.471107,12.08944],[125.47139,12.08944],[125.471657,12.08972],[125.472221,12.08972],[125.472504,12.09],[125.474442,12.09],[125.474716,12.08972],[125.475563,12.08972],[125.476112,12.09028],[125.476387,12.09028],[125.476669,12.09056],[125.476936,12.09056],[125.477219,12.09083],[125.477501,12.09056],[125.478058,12.09056],[125.478333,12.09028],[125.479156,12.09028],[125.47921,12.09032],[125.479263,12.0901],[125.479317,12.08874],[125.479233,12.08749],[125.474648,12.08447],[125.470596,12.08236],[125.466614,12.08075],[125.459831,12.08045],[125.454102,12.08095],[125.454063,12.09088],[125.454361,12.09232]]]]}},{"type":"Feature","properties":{"ID_0":177,"ISO":"PHL","NAME_0":"Philippines","ID_1":8026,"NAME_1":"Eastern Samar","ID_2":802617,"NAME_2":"Oras","ID_3":802617021,"NAME_3":"Gamot","NL_NAME_3":null,"VARNAME_3":null,"TYPE_3":"Barangay","ENGTYPE_3":"Village","PROVINCE":"Eastern Samar","REGION":"Region VIII (Eastern Visayas)","id":"barangay-0802617021","name":"Gamot","barangayCode":"0802617021","population":null,"formattedPop":null,"densityCategory":"No data","vulnerabilityRating":"No data","healthRiskLevel":"No data","areaKm2":3.932382,"centerLat":12.243766,"centerLng":125.311014,"geometrySource":"all_barangay-2.csv detailed WKT","geometryMatchMethod":"unique_official_admin_names","boundaryPointCount":29},"geometry":{"type":"MultiPolygon","coordinates":[[[[125.321983,12.19508],[125.323227,12.19235],[125.325256,12.19193],[125.326271,12.19234],[125.328072,12.19469],[125.328934,12.19532],[125.330612,12.19656],[125.33223,12.19716],[125.333,12.19661],[125.333641,12.1953],[125.334351,12.19431],[125.334122,12.19263],[125.335953,12.19205],[125.33757,12.19247],[125.338608,12.19299],[125.339432,12.19344],[125.340759,12.19218],[125.34166,12.19251],[125.342796,12.19189],[125.34407,12.19141],[125.34481,12.19089],[125.347321,12.19426],[125.348709,12.19557],[125.350754,12.19665],[125.359703,12.18666],[125.258774,12.16769],[125.299919,12.18546],[125.305313,12.18788],[125.321983,12.19508]]]]}},{"type":"Feature","properties":{"ID_0":177,"ISO":"PHL","NAME_0":"Philippines","ID_1":8026,"NAME_1":"Eastern Samar","ID_2":802617,"NAME_2":"Oras","ID_3":802617022,"NAME_3":"Iwayan","NL_NAME_3":null,"VARNAME_3":null,"TYPE_3":"Barangay","ENGTYPE_3":"Village","PROVINCE":"Eastern Samar","REGION":"Region VIII (Eastern Visayas)","id":"barangay-0802617022","name":"Iwayan","barangayCode":"0802617022","population":null,"formattedPop":null,"densityCategory":"No data","vulnerabilityRating":"No data","healthRiskLevel":"No data","areaKm2":7.339509,"centerLat":12.197484,"centerLng":125.409317,"geometrySource":"all_barangay-2.csv detailed WKT","geometryMatchMethod":"unique_official_admin_names","boundaryPointCount":9},"geometry":{"type":"MultiPolygon","coordinates":[[[[125.416672,12.19328],[125.403282,12.17886],[125.402908,12.18128],[125.40258,12.18335],[125.40184,12.18619],[125.40065,12.18799],[125.397163,12.18821],[125.40905,12.20042],[125.416672,12.19328]]]]}},{"type":"Feature","properties":{"ID_0":177,"ISO":"PHL","NAME_0":"Philippines","ID_1":8026,"NAME_1":"Eastern Samar","ID_2":802617,"NAME_2":"Oras","ID_3":802617023,"NAME_3":"Japay","NL_NAME_3":null,"VARNAME_3":null,"TYPE_3":"Barangay","ENGTYPE_3":"Village","PROVINCE":"Eastern Samar","REGION":"Region VIII (Eastern Visayas)","id":"barangay-0802617023","name":"Japay","barangayCode":"0802617023","population":null,"formattedPop":null,"densityCategory":"No data","vulnerabilityRating":"No data","healthRiskLevel":"No data","areaKm2":10.139361,"centerLat":12.087436,"centerLng":125.406426,"geometrySource":"all_barangay-2.csv detailed WKT","geometryMatchMethod":"unique_official_admin_names","boundaryPointCount":8},"geometry":{"type":"MultiPolygon","coordinates":[[[[125.416618,12.1077],[125.421173,12.11047],[125.424843,12.10017],[125.413551,12.09335],[125.410332,12.09519],[125.406662,12.09569],[125.399643,12.09742],[125.416618,12.1077]]]]}},{"type":"Feature","properties":{"ID_0":177,"ISO":"PHL","NAME_0":"Philippines","ID_1":8026,"NAME_1":"Eastern Samar","ID_2":802617,"NAME_2":"Oras","ID_3":802617024,"NAME_3":"Kalaw","NL_NAME_3":null,"VARNAME_3":null,"TYPE_3":"Barangay","ENGTYPE_3":"Village","PROVINCE":"Eastern Samar","REGION":"Region VIII (Eastern Visayas)","id":"barangay-0802617024","name":"Kalaw","barangayCode":"0802617024","population":null,"formattedPop":null,"densityCategory":"No data","vulnerabilityRating":"No data","healthRiskLevel":"No data","areaKm2":9.767804,"centerLat":12.120362,"centerLng":125.379256,"geometrySource":"all_barangay-2.csv detailed WKT","geometryMatchMethod":"unique_official_admin_names","boundaryPointCount":6},"geometry":{"type":"MultiPolygon","coordinates":[[[[125.416618,12.1077],[125.399643,12.09742],[125.392021,12.09824],[125.38324,12.10087],[125.406723,12.11613],[125.416618,12.1077]]]]}},{"type":"Feature","properties":{"ID_0":177,"ISO":"PHL","NAME_0":"Philippines","ID_1":8026,"NAME_1":"Eastern Samar","ID_2":802617,"NAME_2":"Oras","ID_3":802617025,"NAME_3":"Mabuhay","NL_NAME_3":null,"VARNAME_3":null,"TYPE_3":"Barangay","ENGTYPE_3":"Village","PROVINCE":"Eastern Samar","REGION":"Region VIII (Eastern Visayas)","id":"barangay-0802617025","name":"Mabuhay","barangayCode":"0802617025","population":null,"formattedPop":null,"densityCategory":"No data","vulnerabilityRating":"No data","healthRiskLevel":"No data","areaKm2":6.495371,"centerLat":12.11158,"centerLng":125.41009,"geometrySource":"all_barangay-2.csv detailed WKT","geometryMatchMethod":"unique_official_admin_names","boundaryPointCount":9},"geometry":{"type":"MultiPolygon","coordinates":[[[[125.405823,12.1298],[125.422981,12.1258],[125.435333,12.12291],[125.427277,12.12179],[125.427078,12.12176],[125.418266,12.12053],[125.404343,12.11734],[125.398628,12.12463],[125.405823,12.1298]]]]}},{"type":"Feature","properties":{"ID_0":177,"ISO":"PHL","NAME_0":"Philippines","ID_1":8026,"NAME_1":"Eastern Samar","ID_2":802617,"NAME_2":"Oras","ID_3":802617026,"NAME_3":"Malingon","NL_NAME_3":null,"VARNAME_3":null,"TYPE_3":"Barangay","ENGTYPE_3":"Village","PROVINCE":"Eastern Samar","REGION":"Region VIII (Eastern Visayas)","id":"barangay-0802617026","name":"Malingon","barangayCode":"0802617026","population":null,"formattedPop":null,"densityCategory":"No data","vulnerabilityRating":"No data","healthRiskLevel":"No data","areaKm2":2.432863,"centerLat":12.147319,"centerLng":125.464803,"geometrySource":"all_barangay-2.csv detailed WKT","geometryMatchMethod":"unique_official_admin_names","boundaryPointCount":78},"geometry":{"type":"MultiPolygon","coordinates":[[[[125.471588,12.1525],[125.473053,12.1525],[125.473892,12.15167],[125.473892,12.15111],[125.474167,12.15028],[125.474167,12.14833],[125.474442,12.14806],[125.474442,12.14556],[125.47361,12.14472],[125.473343,12.14472],[125.472778,12.14417],[125.472504,12.14417],[125.472221,12.14389],[125.471947,12.14389],[125.471657,12.14361],[125.471107,12.14361],[125.470833,12.14333],[125.469437,12.14333],[125.46917,12.14306],[125.468887,12.14306],[125.46833,12.14361],[125.468063,12.14361],[125.467781,12.14389],[125.467499,12.14389],[125.466942,12.14444],[125.46611,12.14444],[125.465553,12.145],[125.464996,12.145],[125.464722,12.14472],[125.464722,12.14444],[125.464996,12.14417],[125.464722,12.14389],[125.464996,12.14361],[125.465843,12.14361],[125.466393,12.14306],[125.466667,12.14306],[125.467499,12.14222],[125.467499,12.14195],[125.467781,12.14167],[125.467781,12.14083],[125.468063,12.14056],[125.468063,12.13889],[125.466667,12.1375],[125.464996,12.1375],[125.464722,12.13778],[125.464447,12.13778],[125.463333,12.13889],[125.463058,12.13889],[125.462784,12.13917],[125.462784,12.13972],[125.462502,12.14],[125.461388,12.14],[125.461388,12.13917],[125.460564,12.13917],[125.460281,12.13944],[125.459999,12.13944],[125.459442,12.14],[125.459442,12.14056],[125.458817,12.14117],[125.458344,12.14167],[125.458122,12.14208],[125.456917,12.142],[125.456161,12.14194],[125.455048,12.14167],[125.453987,12.1418],[125.452316,12.14153],[125.451973,12.14098],[125.451782,12.14067],[125.45076,12.14215],[125.450722,12.14214],[125.447739,12.14673],[125.448036,12.14855],[125.457939,12.14923],[125.458687,12.14928],[125.47126,12.15013],[125.471657,12.15196],[125.471642,12.15214],[125.471588,12.1525]]]]}},{"type":"Feature","properties":{"ID_0":177,"ISO":"PHL","NAME_0":"Philippines","ID_1":8026,"NAME_1":"Eastern Samar","ID_2":802617,"NAME_2":"Oras","ID_3":802617027,"NAME_3":"Minap-os","NL_NAME_3":null,"VARNAME_3":null,"TYPE_3":"Barangay","ENGTYPE_3":"Village","PROVINCE":"Eastern Samar","REGION":"Region VIII (Eastern Visayas)","id":"barangay-0802617027","name":"Minap-os","barangayCode":"0802617027","population":null,"formattedPop":null,"densityCategory":"No data","vulnerabilityRating":"No data","healthRiskLevel":"No data","areaKm2":5.624335,"centerLat":12.186685,"centerLng":125.37335,"geometrySource":"all_barangay-2.csv detailed WKT","geometryMatchMethod":"unique_official_admin_names","boundaryPointCount":24},"geometry":{"type":"MultiPolygon","coordinates":[[[[125.397163,12.18821],[125.40065,12.18799],[125.40184,12.18619],[125.40258,12.18335],[125.402908,12.18128],[125.403282,12.17886],[125.403137,12.17685],[125.402992,12.17474],[125.40197,12.17344],[125.400253,12.17247],[125.398827,12.17256],[125.396729,12.17262],[125.392807,12.17094],[125.368637,12.1561],[125.337387,12.13712],[125.334137,12.13989],[125.322708,12.14589],[125.383003,12.18463],[125.385117,12.18363],[125.387329,12.1836],[125.390137,12.18447],[125.392143,12.18583],[125.39476,12.18713],[125.397163,12.18821]]]]}},{"type":"Feature","properties":{"ID_0":177,"ISO":"PHL","NAME_0":"Philippines","ID_1":8026,"NAME_1":"Eastern Samar","ID_2":802617,"NAME_2":"Oras","ID_3":802617028,"NAME_3":"Nadacpan","NL_NAME_3":null,"VARNAME_3":null,"TYPE_3":"Barangay","ENGTYPE_3":"Village","PROVINCE":"Eastern Samar","REGION":"Region VIII (Eastern Visayas)","id":"barangay-0802617028","name":"Nadacpan","barangayCode":"0802617028","population":null,"formattedPop":null,"densityCategory":"No data","vulnerabilityRating":"No data","healthRiskLevel":"No data","areaKm2":3.664347,"centerLat":12.184645,"centerLng":125.444878,"geometrySource":"all_barangay-2.csv detailed WKT","geometryMatchMethod":"unique_official_admin_names","boundaryPointCount":19},"geometry":{"type":"MultiPolygon","coordinates":[[[[125.423599,12.18677],[125.412819,12.1761],[125.406593,12.17016],[125.39782,12.16257],[125.396347,12.16365],[125.394203,12.16407],[125.392601,12.1649],[125.391563,12.16649],[125.392807,12.17094],[125.396729,12.17262],[125.398827,12.17256],[125.400253,12.17247],[125.40197,12.17344],[125.402992,12.17474],[125.403137,12.17685],[125.403282,12.17886],[125.416672,12.19328],[125.422218,12.18881],[125.423599,12.18677]]]]}},{"type":"Feature","properties":{"ID_0":177,"ISO":"PHL","NAME_0":"Philippines","ID_1":8026,"NAME_1":"Eastern Samar","ID_2":802617,"NAME_2":"Oras","ID_3":802617029,"NAME_3":"Naga","NL_NAME_3":null,"VARNAME_3":null,"TYPE_3":"Barangay","ENGTYPE_3":"Village","PROVINCE":"Eastern Samar","REGION":"Region VIII (Eastern Visayas)","id":"barangay-0802617029","name":"Naga","barangayCode":"0802617029","population":null,"formattedPop":null,"densityCategory":"No data","vulnerabilityRating":"No data","healthRiskLevel":"No data","areaKm2":6.029046,"centerLat":12.177844,"centerLng":125.356616,"geometrySource":"all_barangay-2.csv detailed WKT","geometryMatchMethod":"unique_official_admin_names","boundaryPointCount":6},"geometry":{"type":"MultiPolygon","coordinates":[[[[125.368637,12.1561],[125.375717,12.14662],[125.349426,12.12705],[125.342903,12.13307],[125.337387,12.13712],[125.368637,12.1561]]]]}},{"type":"Feature","properties":{"ID_0":177,"ISO":"PHL","NAME_0":"Philippines","ID_1":8026,"NAME_1":"Eastern Samar","ID_2":802617,"NAME_2":"Oras","ID_3":802617030,"NAME_3":"Pangudtan","NL_NAME_3":null,"VARNAME_3":null,"TYPE_3":"Barangay","ENGTYPE_3":"Village","PROVINCE":"Eastern Samar","REGION":"Region VIII (Eastern Visayas)","id":"barangay-0802617030","name":"Pangudtan","barangayCode":"0802617030","population":null,"formattedPop":null,"densityCategory":"No data","vulnerabilityRating":"No data","healthRiskLevel":"No data","areaKm2":1.373992,"centerLat":12.146286,"centerLng":125.452095,"geometrySource":"all_barangay-2.csv detailed WKT","geometryMatchMethod":"unique_official_admin_names","boundaryPointCount":45},"geometry":{"type":"MultiPolygon","coordinates":[[[[125.447906,12.15731],[125.453499,12.15659],[125.454353,12.15557],[125.454826,12.15533],[125.455276,12.15543],[125.45639,12.15567],[125.45639,12.15472],[125.457222,12.15389],[125.457497,12.15389],[125.458313,12.1547],[125.458344,12.15472],[125.459167,12.15472],[125.459167,12.15444],[125.459717,12.15444],[125.459999,12.15472],[125.460281,12.15472],[125.461113,12.15444],[125.461357,12.15416],[125.46167,12.15382],[125.462227,12.15326],[125.462578,12.15285],[125.462997,12.15285],[125.463058,12.15333],[125.464447,12.15333],[125.466339,12.15523],[125.466667,12.15556],[125.466942,12.15556],[125.467216,12.15583],[125.46833,12.15583],[125.468613,12.15556],[125.468887,12.15556],[125.470284,12.15417],[125.470284,12.15386],[125.470284,12.15333],[125.471107,12.1525],[125.471588,12.1525],[125.471642,12.15214],[125.471657,12.15196],[125.47126,12.15013],[125.458687,12.14928],[125.457939,12.14923],[125.448036,12.14855],[125.44796,12.15059],[125.447937,12.15393],[125.447906,12.15731]]]]}},{"type":"Feature","properties":{"ID_0":177,"ISO":"PHL","NAME_0":"Philippines","ID_1":8026,"NAME_1":"Eastern Samar","ID_2":802617,"NAME_2":"Oras","ID_3":802617031,"NAME_3":"Paypayon","NL_NAME_3":null,"VARNAME_3":null,"TYPE_3":"Barangay","ENGTYPE_3":"Village","PROVINCE":"Eastern Samar","REGION":"Region VIII (Eastern Visayas)","id":"barangay-0802617031","name":"Paypayon","barangayCode":"0802617031","population":null,"formattedPop":null,"densityCategory":"No data","vulnerabilityRating":"No data","healthRiskLevel":"No data","areaKm2":2.20894,"centerLat":12.139437,"centerLng":125.427444,"geometrySource":"all_barangay-2.csv detailed WKT","geometryMatchMethod":"unique_official_admin_names","boundaryPointCount":19},"geometry":{"type":"MultiPolygon","coordinates":[[[[125.406593,12.17016],[125.41581,12.16459],[125.419151,12.16278],[125.423637,12.16072],[125.423088,12.15946],[125.420418,12.15301],[125.419548,12.15536],[125.417297,12.15882],[125.41481,12.16077],[125.412537,12.16169],[125.410133,12.16269],[125.408684,12.16288],[125.407066,12.1636],[125.404716,12.16337],[125.402512,12.1618],[125.400177,12.16025],[125.398842,12.16005],[125.39782,12.16257],[125.406593,12.17016]]]]}},{"type":"Feature","properties":{"ID_0":177,"ISO":"PHL","NAME_0":"Philippines","ID_1":8026,"NAME_1":"Eastern Samar","ID_2":802617,"NAME_2":"Oras","ID_3":802617033,"NAME_3":"Riverside","NL_NAME_3":null,"VARNAME_3":null,"TYPE_3":"Barangay","ENGTYPE_3":"Village","PROVINCE":"Eastern Samar","REGION":"Region VIII (Eastern Visayas)","id":"barangay-0802617033","name":"Riverside","barangayCode":"0802617033","population":null,"formattedPop":null,"densityCategory":"No data","vulnerabilityRating":"No data","healthRiskLevel":"No data","areaKm2":0.091352,"centerLat":12.139201,"centerLng":125.439648,"geometrySource":"all_barangay-2.csv detailed WKT","geometryMatchMethod":"unique_official_admin_names","boundaryPointCount":26},"geometry":{"type":"MultiPolygon","coordinates":[[[[125.423088,12.15946],[125.432426,12.15399],[125.432404,12.15366],[125.431686,12.15254],[125.430573,12.1507],[125.43026,12.14994],[125.429947,12.14908],[125.429207,12.14764],[125.42907,12.14731],[125.429039,12.14722],[125.428658,12.14634],[125.428284,12.14522],[125.426666,12.14246],[125.426666,12.14278],[125.426109,12.14333],[125.426109,12.14417],[125.425827,12.14444],[125.425827,12.145],[125.425552,12.14528],[125.425003,12.14472],[125.424721,12.14417],[125.424721,12.14371],[125.423798,12.14479],[125.421951,12.14875],[125.420418,12.15301],[125.423088,12.15946]]]]}},{"type":"Feature","properties":{"ID_0":177,"ISO":"PHL","NAME_0":"Philippines","ID_1":8026,"NAME_1":"Eastern Samar","ID_2":802617,"NAME_2":"Oras","ID_3":802617034,"NAME_3":"Rizal","NL_NAME_3":null,"VARNAME_3":null,"TYPE_3":"Barangay","ENGTYPE_3":"Village","PROVINCE":"Eastern Samar","REGION":"Region VIII (Eastern Visayas)","id":"barangay-0802617034","name":"Rizal","barangayCode":"0802617034","population":null,"formattedPop":null,"densityCategory":"No data","vulnerabilityRating":"No data","healthRiskLevel":"No data","areaKm2":11.193473,"centerLat":12.2321,"centerLng":125.358806,"geometrySource":"all_barangay-2.csv detailed WKT","geometryMatchMethod":"unique_official_admin_names","boundaryPointCount":9},"geometry":{"type":"MultiPolygon","coordinates":[[[[125.392014,12.22354],[125.393463,12.22027],[125.363373,12.20378],[125.362,12.20536],[125.360313,12.20708],[125.356812,12.20995],[125.385353,12.22227],[125.389183,12.22337],[125.392014,12.22354]]]]}},{"type":"Feature","properties":{"ID_0":177,"ISO":"PHL","NAME_0":"Philippines","ID_1":8026,"NAME_1":"Eastern Samar","ID_2":802617,"NAME_2":"Oras","ID_3":802617035,"NAME_3":"Sabang","NL_NAME_3":null,"VARNAME_3":null,"TYPE_3":"Barangay","ENGTYPE_3":"Village","PROVINCE":"Eastern Samar","REGION":"Region VIII (Eastern Visayas)","id":"barangay-0802617035","name":"Sabang","barangayCode":"0802617035","population":null,"formattedPop":null,"densityCategory":"No data","vulnerabilityRating":"No data","healthRiskLevel":"No data","areaKm2":3.852,"centerLat":12.180714,"centerLng":125.458985,"geometrySource":"all_barangay-2.csv detailed WKT","geometryMatchMethod":"unique_official_admin_names","boundaryPointCount":23},"geometry":{"type":"MultiPolygon","coordinates":[[[[125.439217,12.17487],[125.442169,12.17297],[125.449219,12.16856],[125.453117,12.16532],[125.454964,12.16462],[125.45472,12.16389],[125.45472,12.16361],[125.454437,12.16333],[125.454437,12.16306],[125.45417,12.16278],[125.45417,12.16167],[125.4543,12.16113],[125.451973,12.16134],[125.451134,12.16151],[125.448067,12.16421],[125.446419,12.16539],[125.444946,12.16669],[125.443222,12.16773],[125.441437,12.16827],[125.439537,12.1688],[125.437973,12.16942],[125.436684,12.16939],[125.439217,12.17487]]]]}},{"type":"Feature","properties":{"ID_0":177,"ISO":"PHL","NAME_0":"Philippines","ID_1":8026,"NAME_1":"Eastern Samar","ID_2":802617,"NAME_2":"Oras","ID_3":802617036,"NAME_3":"San Eduardo","NL_NAME_3":null,"VARNAME_3":null,"TYPE_3":"Barangay","ENGTYPE_3":"Village","PROVINCE":"Eastern Samar","REGION":"Region VIII (Eastern Visayas)","id":"barangay-0802617036","name":"San Eduardo","barangayCode":"0802617036","population":null,"formattedPop":null,"densityCategory":"No data","vulnerabilityRating":"No data","healthRiskLevel":"No data","areaKm2":5.068198,"centerLat":12.163203,"centerLng":125.446283,"geometrySource":"all_barangay-2.csv detailed WKT","geometryMatchMethod":"unique_official_admin_names","boundaryPointCount":30},"geometry":{"type":"MultiPolygon","coordinates":[[[[125.4543,12.16113],[125.454437,12.16056],[125.454437,12.15972],[125.45472,12.15833],[125.455002,12.15806],[125.455002,12.15778],[125.455276,12.1575],[125.455833,12.1575],[125.45639,12.15694],[125.456657,12.15667],[125.45639,12.15639],[125.45639,12.15567],[125.455276,12.15543],[125.454826,12.15533],[125.454353,12.15557],[125.453499,12.15659],[125.447906,12.15731],[125.436852,12.15971],[125.432854,12.16028],[125.436684,12.16939],[125.437973,12.16942],[125.439537,12.1688],[125.441437,12.16827],[125.443222,12.16773],[125.444946,12.16669],[125.446419,12.16539],[125.448067,12.16421],[125.451134,12.16151],[125.451973,12.16134],[125.4543,12.16113]]]]}},{"type":"Feature","properties":{"ID_0":177,"ISO":"PHL","NAME_0":"Philippines","ID_1":8026,"NAME_1":"Eastern Samar","ID_2":802617,"NAME_2":"Oras","ID_3":802617037,"NAME_3":"Santa Monica","NL_NAME_3":null,"VARNAME_3":null,"TYPE_3":"Barangay","ENGTYPE_3":"Village","PROVINCE":"Eastern Samar","REGION":"Region VIII (Eastern Visayas)","id":"barangay-0802617037","name":"Santa Monica","barangayCode":"0802617037","population":null,"formattedPop":null,"densityCategory":"No data","vulnerabilityRating":"No data","healthRiskLevel":"No data","areaKm2":1.698375,"centerLat":12.107891,"centerLng":125.56027,"geometrySource":"all_barangay-2.csv detailed WKT","geometryMatchMethod":"unique_official_admin_names","boundaryPointCount":123},"geometry":{"type":"MultiPolygon","coordinates":[[[[125.564163,12.09417],[125.564453,12.09389],[125.565002,12.09389],[125.565277,12.09361],[125.565277,12.09306],[125.565002,12.09278],[125.565002,12.0925],[125.56472,12.09222],[125.56472,12.09194],[125.564453,12.09167],[125.564453,12.09139],[125.564163,12.09111],[125.5625,12.09111],[125.562233,12.09139],[125.562233,12.09167],[125.561943,12.09194],[125.561943,12.09306],[125.562233,12.09333],[125.562233,12.09361],[125.562767,12.09417],[125.564163,12.09417]]],[[[125.549156,12.12167],[125.549454,12.12139],[125.550003,12.12139],[125.550278,12.12111],[125.550552,12.12111],[125.551666,12.12],[125.551666,12.11972],[125.554443,12.11694],[125.554733,12.11694],[125.555267,12.11639],[125.555832,12.11639],[125.556664,12.11556],[125.556664,12.11528],[125.556953,12.115],[125.556953,12.11472],[125.558052,12.11361],[125.558327,12.11361],[125.558609,12.11333],[125.558891,12.11333],[125.560547,12.11167],[125.560837,12.11167],[125.561111,12.11194],[125.561394,12.11194],[125.561943,12.1125],[125.562233,12.1125],[125.5625,12.11222],[125.562767,12.11222],[125.565277,12.10972],[125.565277,12.10944],[125.565552,12.10944],[125.565826,12.10917],[125.566109,12.10917],[125.566391,12.10889],[125.566948,12.10889],[125.567223,12.10861],[125.567223,12.10778],[125.567482,12.10752],[125.56778,12.10722],[125.56778,12.10667],[125.568336,12.10611],[125.568336,12.10583],[125.568611,12.10556],[125.568611,12.105],[125.569717,12.10389],[125.569717,12.10333],[125.569443,12.10306],[125.57,12.1025],[125.569443,12.10194],[125.569443,12.10167],[125.570267,12.10083],[125.569717,12.10083],[125.568336,12.09944],[125.568336,12.09917],[125.567497,12.09833],[125.567223,12.09861],[125.566948,12.09861],[125.566673,12.09889],[125.565826,12.09889],[125.565552,12.09861],[125.563057,12.09861],[125.561943,12.09972],[125.561943,12.10028],[125.561668,12.10056],[125.561668,12.10167],[125.561394,12.10194],[125.561394,12.10278],[125.561111,12.10306],[125.561111,12.10333],[125.560837,12.10361],[125.560837,12.10389],[125.560547,12.10417],[125.560547,12.10444],[125.56028,12.10472],[125.56028,12.10528],[125.559998,12.10556],[125.559998,12.10583],[125.557777,12.10806],[125.557777,12.10778],[125.555267,12.11028],[125.553047,12.1125],[125.553047,12.11306],[125.55278,12.11333],[125.55278,12.11361],[125.550278,12.11611],[125.550003,12.11611],[125.549454,12.11667],[125.549156,12.11667],[125.548058,12.11778],[125.547783,12.11778],[125.546669,12.11889],[125.546669,12.11917],[125.54583,12.12],[125.54583,12.12028],[125.54528,12.12083],[125.54583,12.12139],[125.546112,12.12139],[125.546333,12.12161],[125.546387,12.12167],[125.546669,12.12167],[125.547234,12.12111],[125.547783,12.12167],[125.549156,12.12167]]]]}},{"type":"Feature","properties":{"ID_0":177,"ISO":"PHL","NAME_0":"Philippines","ID_1":8026,"NAME_1":"Eastern Samar","ID_2":802617,"NAME_2":"Oras","ID_3":802617038,"NAME_3":"Saugan","NL_NAME_3":null,"VARNAME_3":null,"TYPE_3":"Barangay","ENGTYPE_3":"Village","PROVINCE":"Eastern Samar","REGION":"Region VIII (Eastern Visayas)","id":"barangay-0802617038","name":"Saugan","barangayCode":"0802617038","population":null,"formattedPop":null,"densityCategory":"No data","vulnerabilityRating":"No data","healthRiskLevel":"No data","areaKm2":3.850061,"centerLat":12.097931,"centerLng":125.471818,"geometrySource":"all_barangay-2.csv detailed WKT","geometryMatchMethod":"unique_official_admin_names","boundaryPointCount":172},"geometry":{"type":"MultiPolygon","coordinates":[[[[125.488892,12.10528],[125.488609,12.105],[125.487503,12.105],[125.487221,12.10528],[125.486954,12.10528],[125.486656,12.10556],[125.486954,12.10583],[125.486954,12.10639],[125.487503,12.10694],[125.487503,12.10722],[125.488052,12.10778],[125.489166,12.10778],[125.489441,12.1075],[125.489441,12.10694],[125.489723,12.10667],[125.489723,12.10583],[125.489166,12.10528],[125.488892,12.10528]]],[[[125.474167,12.10861],[125.476112,12.10806],[125.476669,12.10806],[125.476936,12.10778],[125.476936,12.1075],[125.477783,12.10667],[125.478058,12.10667],[125.479446,12.10639],[125.479721,12.10611],[125.480553,12.10583],[125.480827,12.10556],[125.48111,12.10556],[125.481667,12.105],[125.481941,12.105],[125.48278,12.10417],[125.483047,12.10417],[125.483612,12.10361],[125.483887,12.10361],[125.4841,12.1034],[125.484169,12.10333],[125.484444,12.10333],[125.484734,12.10306],[125.485001,12.10306],[125.485283,12.10278],[125.486107,12.1025],[125.486313,12.10158],[125.486732,12.10021],[125.486954,12.09938],[125.487221,12.09861],[125.487221,12.09833],[125.489441,12.09611],[125.489441,12.09528],[125.489723,12.095],[125.489723,12.09444],[125.489441,12.09417],[125.489166,12.09417],[125.488892,12.09389],[125.488327,12.09389],[125.488052,12.09417],[125.487221,12.09417],[125.486954,12.09389],[125.486389,12.09389],[125.486107,12.09361],[125.485832,12.09361],[125.485558,12.09333],[125.485283,12.09333],[125.485001,12.09306],[125.484734,12.09333],[125.484169,12.09333],[125.483887,12.09361],[125.48333,12.09361],[125.483047,12.09389],[125.482224,12.09389],[125.481941,12.09361],[125.480827,12.09361],[125.480553,12.09389],[125.480553,12.09417],[125.480003,12.09472],[125.480003,12.09556],[125.480278,12.09583],[125.480003,12.09611],[125.479721,12.09611],[125.479446,12.09639],[125.479156,12.09639],[125.478889,12.09611],[125.478607,12.09611],[125.478333,12.09528],[125.477783,12.09472],[125.477501,12.09444],[125.477219,12.09444],[125.476936,12.09417],[125.476669,12.09417],[125.476669,12.09444],[125.476112,12.09444],[125.47583,12.09472],[125.475563,12.09472],[125.475281,12.095],[125.474998,12.095],[125.474716,12.09528],[125.47361,12.09528],[125.473343,12.095],[125.472778,12.095],[125.472221,12.09444],[125.471947,12.09472],[125.47139,12.09417],[125.47139,12.09389],[125.471107,12.09361],[125.471107,12.09306],[125.46917,12.09111],[125.468887,12.09056],[125.468887,12.09],[125.46904,12.08984],[125.469009,12.0898],[125.46846,12.09014],[125.46843,12.09016],[125.468277,12.09025],[125.466782,12.09076],[125.466522,12.09108],[125.466042,12.0915],[125.464439,12.09204],[125.454361,12.09232],[125.455063,12.09411],[125.456619,12.09806],[125.458344,12.09806],[125.458611,12.09833],[125.459999,12.09833],[125.460281,12.09861],[125.461113,12.09861],[125.461388,12.09889],[125.461937,12.09889],[125.462219,12.09917],[125.462219,12.09944],[125.462502,12.09944],[125.462502,12.09972],[125.462784,12.1],[125.462982,12.10034],[125.463127,12.10055],[125.463676,12.10049],[125.46389,12.10056],[125.464859,12.10083],[125.465279,12.10083],[125.465553,12.10083],[125.465843,12.10111],[125.46611,12.10111],[125.466393,12.10139],[125.466942,12.10139],[125.467216,12.10167],[125.467499,12.10167],[125.467781,12.10194],[125.468063,12.10194],[125.46833,12.10222],[125.46833,12.1025],[125.468613,12.10278],[125.468887,12.1025],[125.468887,12.10278],[125.46917,12.10306],[125.46917,12.10333],[125.469437,12.10361],[125.46917,12.10389],[125.46917,12.10417],[125.469437,12.10444],[125.469437,12.10472],[125.469719,12.105],[125.469719,12.10556],[125.470001,12.10583],[125.470001,12.10611],[125.470284,12.10639],[125.470558,12.10639],[125.470833,12.10667],[125.471107,12.10667],[125.472778,12.1075],[125.473053,12.10778],[125.473343,12.10778],[125.474167,12.10861]]]]}},{"type":"Feature","properties":{"ID_0":177,"ISO":"PHL","NAME_0":"Philippines","ID_1":8026,"NAME_1":"Eastern Samar","ID_2":802617,"NAME_2":"Oras","ID_3":802617039,"NAME_3":"Saurong","NL_NAME_3":null,"VARNAME_3":null,"TYPE_3":"Barangay","ENGTYPE_3":"Village","PROVINCE":"Eastern Samar","REGION":"Region VIII (Eastern Visayas)","id":"barangay-0802617039","name":"Saurong","barangayCode":"0802617039","population":null,"formattedPop":null,"densityCategory":"No data","vulnerabilityRating":"No data","healthRiskLevel":"No data","areaKm2":8.634517,"centerLat":12.180888,"centerLng":125.427165,"geometrySource":"all_barangay-2.csv detailed WKT","geometryMatchMethod":"unique_official_admin_names","boundaryPointCount":11},"geometry":{"type":"MultiPolygon","coordinates":[[[[125.428268,12.18305],[125.432999,12.17986],[125.436073,12.17774],[125.439217,12.17487],[125.436684,12.16939],[125.432854,12.16028],[125.426132,12.16541],[125.42292,12.16857],[125.412819,12.1761],[125.423599,12.18677],[125.428268,12.18305]]]]}},{"type":"Feature","properties":{"ID_0":177,"ISO":"PHL","NAME_0":"Philippines","ID_1":8026,"NAME_1":"Eastern Samar","ID_2":802617,"NAME_2":"Oras","ID_3":802617041,"NAME_3":"Tawagan","NL_NAME_3":null,"VARNAME_3":null,"TYPE_3":"Barangay","ENGTYPE_3":"Village","PROVINCE":"Eastern Samar","REGION":"Region VIII (Eastern Visayas)","id":"barangay-0802617041","name":"Tawagan","barangayCode":"0802617041","population":null,"formattedPop":null,"densityCategory":"No data","vulnerabilityRating":"No data","healthRiskLevel":"No data","areaKm2":1.662181,"centerLat":12.13031,"centerLng":125.433757,"geometrySource":"all_barangay-2.csv detailed WKT","geometryMatchMethod":"unique_official_admin_names","boundaryPointCount":55},"geometry":{"type":"MultiPolygon","coordinates":[[[[125.425423,12.14124],[125.425552,12.14111],[125.425552,12.14083],[125.425827,12.14056],[125.425827,12.14028],[125.426666,12.13944],[125.426941,12.13944],[125.427498,12.13889],[125.42778,12.13889],[125.428337,12.13833],[125.428612,12.13833],[125.428886,12.13806],[125.429169,12.13806],[125.429443,12.13778],[125.43,12.13778],[125.430267,12.1375],[125.431107,12.1375],[125.432503,12.13611],[125.433052,12.13611],[125.433327,12.13583],[125.434448,12.13583],[125.434998,12.13563],[125.435547,12.13583],[125.436867,12.13542],[125.437233,12.13556],[125.4375,12.13556],[125.437767,12.13583],[125.438332,12.13583],[125.438606,12.13611],[125.439453,12.13611],[125.439949,12.13625],[125.440453,12.13629],[125.441948,12.13639],[125.444183,12.1361],[125.442497,12.135],[125.442223,12.13472],[125.441948,12.13444],[125.441391,12.13444],[125.440826,12.13389],[125.440552,12.13389],[125.439453,12.13278],[125.439453,12.1325],[125.439163,12.13222],[125.439163,12.13194],[125.438889,12.13167],[125.438889,12.13139],[125.438492,12.131],[125.435127,12.13134],[125.416008,12.13707],[125.417923,12.13783],[125.41935,12.13841],[125.420273,12.13848],[125.421204,12.13855],[125.42363,12.13999],[125.425423,12.14124]]]]}},{"type":"Feature","properties":{"ID_0":177,"ISO":"PHL","NAME_0":"Philippines","ID_1":8026,"NAME_1":"Eastern Samar","ID_2":802617,"NAME_2":"Oras","ID_3":802617043,"NAME_3":"Tiguib","NL_NAME_3":null,"VARNAME_3":null,"TYPE_3":"Barangay","ENGTYPE_3":"Village","PROVINCE":"Eastern Samar","REGION":"Region VIII (Eastern Visayas)","id":"barangay-0802617043","name":"Tiguib","barangayCode":"0802617043","population":null,"formattedPop":null,"densityCategory":"No data","vulnerabilityRating":"No data","healthRiskLevel":"No data","areaKm2":0.711385,"centerLat":12.146087,"centerLng":125.445261,"geometrySource":"all_barangay-2.csv detailed WKT","geometryMatchMethod":"unique_official_admin_names","boundaryPointCount":35},"geometry":{"type":"MultiPolygon","coordinates":[[[[125.436852,12.15971],[125.447906,12.15731],[125.447937,12.15393],[125.44796,12.15059],[125.444977,12.14925],[125.434319,12.14573],[125.431213,12.13989],[125.431236,12.13972],[125.430557,12.13972],[125.430267,12.13986],[125.429733,12.14002],[125.429443,12.14],[125.42939,12.14005],[125.429169,12.14028],[125.428886,12.14028],[125.428612,12.14056],[125.428337,12.14056],[125.42778,12.14111],[125.42778,12.14139],[125.427498,12.14139],[125.426666,12.14222],[125.426666,12.14246],[125.428284,12.14522],[125.428658,12.14634],[125.429039,12.14722],[125.42907,12.14731],[125.429207,12.14764],[125.429947,12.14908],[125.43026,12.14994],[125.430573,12.1507],[125.431686,12.15254],[125.432404,12.15366],[125.432426,12.15399],[125.434067,12.15695],[125.436852,12.15971]]]]}},{"type":"Feature","properties":{"ID_0":177,"ISO":"PHL","NAME_0":"Philippines","ID_1":8026,"NAME_1":"Eastern Samar","ID_2":802617,"NAME_2":"Oras","ID_3":802617044,"NAME_3":"Trinidad","NL_NAME_3":null,"VARNAME_3":null,"TYPE_3":"Barangay","ENGTYPE_3":"Village","PROVINCE":"Eastern Samar","REGION":"Region VIII (Eastern Visayas)","id":"barangay-0802617044","name":"Trinidad","barangayCode":"0802617044","population":null,"formattedPop":null,"densityCategory":"No data","vulnerabilityRating":"No data","healthRiskLevel":"No data","areaKm2":35.366861,"centerLat":12.153519,"centerLng":125.342371,"geometrySource":"all_barangay-2.csv detailed WKT","geometryMatchMethod":"unique_official_admin_names","boundaryPointCount":7},"geometry":{"type":"MultiPolygon","coordinates":[[[[125.375717,12.14662],[125.398628,12.12463],[125.372993,12.10658],[125.363586,12.11373],[125.358673,12.11795],[125.349426,12.12705],[125.375717,12.14662]]]]}},{"type":"Feature","properties":{"ID_0":177,"ISO":"PHL","NAME_0":"Philippines","ID_1":8026,"NAME_1":"Eastern Samar","ID_2":802617,"NAME_2":"Oras","ID_3":802617045,"NAME_3":"Alang-alang","NL_NAME_3":null,"VARNAME_3":null,"TYPE_3":"Barangay","ENGTYPE_3":"Village","PROVINCE":"Eastern Samar","REGION":"Region VIII (Eastern Visayas)","id":"barangay-0802617045","name":"Alang-alang","barangayCode":"0802617045","population":null,"formattedPop":null,"densityCategory":"No data","vulnerabilityRating":"No data","healthRiskLevel":"No data","areaKm2":2.235475,"centerLat":12.194608,"centerLng":125.389426,"geometrySource":"all_barangay-2.csv detailed WKT","geometryMatchMethod":"unique_official_admin_names","boundaryPointCount":14},"geometry":{"type":"MultiPolygon","coordinates":[[[[125.40905,12.20042],[125.397163,12.18821],[125.39476,12.18713],[125.392143,12.18583],[125.390137,12.18447],[125.387329,12.1836],[125.385117,12.18363],[125.383003,12.18463],[125.382599,12.18669],[125.382462,12.18787],[125.382431,12.18973],[125.384117,12.19215],[125.403419,12.20724],[125.40905,12.20042]]]]}},{"type":"Feature","properties":{"ID_0":177,"ISO":"PHL","NAME_0":"Philippines","ID_1":8026,"NAME_1":"Eastern Samar","ID_2":802617,"NAME_2":"Oras","ID_3":802617046,"NAME_3":"San Roque","NL_NAME_3":null,"VARNAME_3":null,"TYPE_3":"Barangay","ENGTYPE_3":"Village","PROVINCE":"Eastern Samar","REGION":"Region VIII (Eastern Visayas)","id":"barangay-0802617046","name":"San Roque","barangayCode":"0802617046","population":null,"formattedPop":null,"densityCategory":"No data","vulnerabilityRating":"No data","healthRiskLevel":"No data","areaKm2":4.137781,"centerLat":12.154799,"centerLng":125.428846,"geometrySource":"all_barangay-2.csv detailed WKT","geometryMatchMethod":"unique_official_admin_names","boundaryPointCount":7},"geometry":{"type":"MultiPolygon","coordinates":[[[[125.412819,12.1761],[125.42292,12.16857],[125.421677,12.1663],[125.419151,12.16278],[125.41581,12.16459],[125.406593,12.17016],[125.412819,12.1761]]]]}}]}
