{"type":"FeatureCollection","features":[{"type":"Feature","properties":{"ID_0":177,"ISO":"PHL","NAME_0":"Philippines","ID_1":4021,"NAME_1":"Cavite","ID_2":402112,"NAME_2":"Magallanes","ID_3":402112001,"NAME_3":"Baliwag","NL_NAME_3":null,"VARNAME_3":null,"TYPE_3":"Barangay","ENGTYPE_3":"Village","PROVINCE":"Cavite","REGION":"Region IV-A (Calabarzon)","id":"barangay-0402112001","name":"Baliwag","barangayCode":"0402112001","population":null,"formattedPop":null,"densityCategory":"No data","vulnerabilityRating":"No data","healthRiskLevel":"No data","areaKm2":2.251081,"centerLat":14.147348,"centerLng":120.790967,"geometrySource":"all_barangay-2.csv detailed WKT","geometryMatchMethod":"unique_official_admin_names","boundaryPointCount":32},"geometry":{"type":"MultiPolygon","coordinates":[[[[120.776604,14.16479],[120.784889,14.16635],[120.784607,14.16363],[120.784767,14.16168],[120.785393,14.15998],[120.786278,14.15739],[120.78743,14.15596],[120.78878,14.15556],[120.789497,14.15472],[120.789673,14.15189],[120.790047,14.15006],[120.792717,14.14749],[120.796204,14.14638],[120.794823,14.14637],[120.793671,14.14563],[120.793289,14.14503],[120.79261,14.14427],[120.79084,14.14429],[120.789307,14.14588],[120.787872,14.14694],[120.786407,14.14874],[120.785728,14.15088],[120.785667,14.15206],[120.78463,14.15409],[120.783997,14.15647],[120.782433,14.15845],[120.781403,14.15981],[120.78067,14.16041],[120.77919,14.16089],[120.778061,14.16225],[120.776917,14.16435],[120.776604,14.16479]]]]}},{"type":"Feature","properties":{"ID_0":177,"ISO":"PHL","NAME_0":"Philippines","ID_1":4021,"NAME_1":"Cavite","ID_2":402112,"NAME_2":"Magallanes","ID_3":402112002,"NAME_3":"Bendita I","NL_NAME_3":null,"VARNAME_3":null,"TYPE_3":"Barangay","ENGTYPE_3":"Village","PROVINCE":"Cavite","REGION":"Region IV-A (Calabarzon)","id":"barangay-0402112002","name":"Bendita I","barangayCode":"0402112002","population":null,"formattedPop":null,"densityCategory":"No data","vulnerabilityRating":"No data","healthRiskLevel":"No data","areaKm2":3.693808,"centerLat":14.161292,"centerLng":120.745684,"geometrySource":"all_barangay-2.csv detailed WKT","geometryMatchMethod":"unique_official_admin_names","boundaryPointCount":5},"geometry":{"type":"MultiPolygon","coordinates":[[[[120.757637,14.15919],[120.768173,14.1557],[120.759644,14.14702],[120.751953,14.1543],[120.757637,14.15919]]]]}},{"type":"Feature","properties":{"ID_0":177,"ISO":"PHL","NAME_0":"Philippines","ID_1":4021,"NAME_1":"Cavite","ID_2":402112,"NAME_2":"Magallanes","ID_3":402112003,"NAME_3":"Caluangan","NL_NAME_3":null,"VARNAME_3":null,"TYPE_3":"Barangay","ENGTYPE_3":"Village","PROVINCE":"Cavite","REGION":"Region IV-A (Calabarzon)","id":"barangay-0402112003","name":"Caluangan","barangayCode":"0402112003","population":null,"formattedPop":null,"densityCategory":"No data","vulnerabilityRating":"No data","healthRiskLevel":"No data","areaKm2":9.054133,"centerLat":14.163905,"centerLng":120.764832,"geometrySource":"all_barangay-2.csv detailed WKT","geometryMatchMethod":"unique_official_admin_names","boundaryPointCount":69},"geometry":{"type":"MultiPolygon","coordinates":[[[[120.764633,14.1968],[120.764923,14.19578],[120.765533,14.1941],[120.766037,14.19223],[120.766281,14.18951],[120.766922,14.188],[120.768333,14.18431],[120.769867,14.17988],[120.771019,14.17607],[120.771339,14.17268],[120.772476,14.17065],[120.773422,14.16986],[120.774567,14.1686],[120.775414,14.16747],[120.775749,14.16664],[120.775909,14.16562],[120.776604,14.16479],[120.776917,14.16435],[120.778061,14.16225],[120.77919,14.16089],[120.78067,14.16041],[120.781403,14.15981],[120.782433,14.15845],[120.783997,14.15647],[120.78463,14.15409],[120.785667,14.15206],[120.785728,14.15088],[120.786407,14.14874],[120.787872,14.14694],[120.789307,14.14588],[120.79084,14.14429],[120.791786,14.14323],[120.79319,14.14263],[120.793716,14.14238],[120.787247,14.13915],[120.778,14.14745],[120.768173,14.1557],[120.757637,14.15919],[120.756187,14.16376],[120.75106,14.1695],[120.751427,14.1708],[120.75148,14.17149],[120.751244,14.17204],[120.751961,14.17313],[120.752182,14.1747],[120.752228,14.17583],[120.752472,14.17653],[120.753754,14.17761],[120.754333,14.17805],[120.754173,14.17902],[120.754128,14.17988],[120.75473,14.18087],[120.755363,14.18224],[120.755402,14.18325],[120.755653,14.18399],[120.755638,14.18425],[120.756851,14.18519],[120.757927,14.18577],[120.759079,14.18659],[120.76001,14.18719],[120.761223,14.1885],[120.762077,14.18971],[120.762459,14.19098],[120.763588,14.19246],[120.763763,14.1929],[120.764038,14.19511],[120.764053,14.19569],[120.76429,14.19634],[120.764633,14.1968]]]]}},{"type":"Feature","properties":{"ID_0":177,"ISO":"PHL","NAME_0":"Philippines","ID_1":4021,"NAME_1":"Cavite","ID_2":402112,"NAME_2":"Magallanes","ID_3":402112004,"NAME_3":"Medina","NL_NAME_3":null,"VARNAME_3":null,"TYPE_3":"Barangay","ENGTYPE_3":"Village","PROVINCE":"Cavite","REGION":"Region IV-A (Calabarzon)","id":"barangay-0402112004","name":"Medina","barangayCode":"0402112004","population":null,"formattedPop":null,"densityCategory":"No data","vulnerabilityRating":"No data","healthRiskLevel":"No data","areaKm2":6.713537,"centerLat":14.138979,"centerLng":120.779341,"geometrySource":"all_barangay-2.csv detailed WKT","geometryMatchMethod":"unique_official_admin_names","boundaryPointCount":48},"geometry":{"type":"MultiPolygon","coordinates":[[[[120.796204,14.14638],[120.797089,14.14497],[120.797943,14.14423],[120.799294,14.14341],[120.800697,14.14325],[120.802589,14.14222],[120.803261,14.14046],[120.803459,14.13917],[120.804161,14.13813],[120.805977,14.13676],[120.807251,14.13489],[120.808167,14.13411],[120.809128,14.13351],[120.810532,14.13234],[120.811897,14.13076],[120.813171,14.12949],[120.81385,14.12868],[120.81295,14.12591],[120.813026,14.12445],[120.812119,14.12176],[120.811523,14.11961],[120.811256,14.11809],[120.811043,14.11648],[120.810806,14.115],[120.8106,14.11373],[120.810532,14.11287],[120.810837,14.11201],[120.810471,14.11056],[120.810417,14.10843],[120.80706,14.10951],[120.804863,14.10959],[120.802078,14.1078],[120.797974,14.10718],[120.770927,14.12614],[120.769638,14.13355],[120.767754,14.13548],[120.766121,14.13733],[120.778,14.14745],[120.787247,14.13915],[120.793716,14.14238],[120.79319,14.14263],[120.791786,14.14323],[120.79084,14.14429],[120.79261,14.14427],[120.793289,14.14503],[120.793671,14.14563],[120.794823,14.14637],[120.796204,14.14638]]]]}},{"type":"Feature","properties":{"ID_0":177,"ISO":"PHL","NAME_0":"Philippines","ID_1":4021,"NAME_1":"Cavite","ID_2":402112,"NAME_2":"Magallanes","ID_3":402112005,"NAME_3":"Pacheco","NL_NAME_3":null,"VARNAME_3":null,"TYPE_3":"Barangay","ENGTYPE_3":"Village","PROVINCE":"Cavite","REGION":"Region IV-A (Calabarzon)","id":"barangay-0402112005","name":"Pacheco","barangayCode":"0402112005","population":null,"formattedPop":null,"densityCategory":"No data","vulnerabilityRating":"No data","healthRiskLevel":"No data","areaKm2":4.251006,"centerLat":14.183144,"centerLng":120.773689,"geometrySource":"all_barangay-2.csv detailed WKT","geometryMatchMethod":"unique_official_admin_names","boundaryPointCount":62},"geometry":{"type":"MultiPolygon","coordinates":[[[[120.773582,14.20328],[120.77359,14.20175],[120.773804,14.20048],[120.773521,14.19963],[120.773682,14.19786],[120.774246,14.19677],[120.774193,14.19518],[120.7742,14.19346],[120.774559,14.19226],[120.775436,14.19137],[120.776161,14.19141],[120.776901,14.19031],[120.776749,14.18895],[120.776718,14.1868],[120.777153,14.18582],[120.77771,14.18484],[120.778259,14.18378],[120.778587,14.18266],[120.778473,14.18079],[120.778,14.17959],[120.778923,14.1771],[120.779671,14.17678],[120.780052,14.17549],[120.779892,14.17422],[120.77977,14.17332],[120.780197,14.17205],[120.781776,14.17166],[120.78331,14.17028],[120.784103,14.16838],[120.784889,14.16635],[120.776604,14.16479],[120.775909,14.16562],[120.775749,14.16664],[120.775414,14.16747],[120.774567,14.1686],[120.773422,14.16986],[120.772476,14.17065],[120.771339,14.17268],[120.771019,14.17607],[120.769867,14.17988],[120.768333,14.18431],[120.766922,14.188],[120.766281,14.18951],[120.766037,14.19223],[120.765533,14.1941],[120.764923,14.19578],[120.764633,14.1968],[120.764954,14.19791],[120.765373,14.19823],[120.766289,14.199],[120.766899,14.2005],[120.767143,14.20124],[120.767761,14.20281],[120.768257,14.20353],[120.769211,14.20558],[120.77066,14.20663],[120.771637,14.20725],[120.771942,14.20753],[120.773087,14.20617],[120.773651,14.20511],[120.773689,14.20402],[120.773582,14.20328]]]]}},{"type":"Feature","properties":{"ID_0":177,"ISO":"PHL","NAME_0":"Philippines","ID_1":4021,"NAME_1":"Cavite","ID_2":402112,"NAME_2":"Magallanes","ID_3":402112006,"NAME_3":"Barangay 1","NL_NAME_3":null,"VARNAME_3":null,"TYPE_3":"Barangay","ENGTYPE_3":"Village","PROVINCE":"Cavite","REGION":"Region IV-A (Calabarzon)","id":"barangay-0402112006","name":"Barangay 1","barangayCode":"0402112006","population":null,"formattedPop":null,"densityCategory":"No data","vulnerabilityRating":"No data","healthRiskLevel":"No data","areaKm2":0.438116,"centerLat":14.193134,"centerLng":120.760451,"geometrySource":"all_barangay-2.csv detailed WKT","geometryMatchMethod":"unique_official_admin_names","boundaryPointCount":17},"geometry":{"type":"MultiPolygon","coordinates":[[[[120.755699,14.19425],[120.75666,14.19467],[120.75824,14.19423],[120.75985,14.19398],[120.762444,14.1946],[120.763153,14.19518],[120.76429,14.19634],[120.764053,14.19569],[120.764038,14.19511],[120.763763,14.1929],[120.763588,14.19246],[120.762459,14.19098],[120.762077,14.18971],[120.761223,14.1885],[120.760757,14.18881],[120.757378,14.19137],[120.755699,14.19425]]]]}},{"type":"Feature","properties":{"ID_0":177,"ISO":"PHL","NAME_0":"Philippines","ID_1":4021,"NAME_1":"Cavite","ID_2":402112,"NAME_2":"Magallanes","ID_3":402112007,"NAME_3":"Barangay 2","NL_NAME_3":null,"VARNAME_3":null,"TYPE_3":"Barangay","ENGTYPE_3":"Village","PROVINCE":"Cavite","REGION":"Region IV-A (Calabarzon)","id":"barangay-0402112007","name":"Barangay 2","barangayCode":"0402112007","population":null,"formattedPop":null,"densityCategory":"No data","vulnerabilityRating":"No data","healthRiskLevel":"No data","areaKm2":0.032696,"centerLat":14.188468,"centerLng":120.757215,"geometrySource":"all_barangay-2.csv detailed WKT","geometryMatchMethod":"unique_official_admin_names","boundaryPointCount":11},"geometry":{"type":"MultiPolygon","coordinates":[[[[120.755699,14.19425],[120.757378,14.19137],[120.760757,14.18881],[120.761223,14.1885],[120.76001,14.18719],[120.759529,14.18756],[120.758781,14.18813],[120.757011,14.18943],[120.754593,14.19188],[120.755219,14.19295],[120.755699,14.19425]]]]}},{"type":"Feature","properties":{"ID_0":177,"ISO":"PHL","NAME_0":"Philippines","ID_1":4021,"NAME_1":"Cavite","ID_2":402112,"NAME_2":"Magallanes","ID_3":402112008,"NAME_3":"Barangay 3","NL_NAME_3":null,"VARNAME_3":null,"TYPE_3":"Barangay","ENGTYPE_3":"Village","PROVINCE":"Cavite","REGION":"Region IV-A (Calabarzon)","id":"barangay-0402112008","name":"Barangay 3","barangayCode":"0402112008","population":null,"formattedPop":null,"densityCategory":"No data","vulnerabilityRating":"No data","healthRiskLevel":"No data","areaKm2":0.255096,"centerLat":14.186418,"centerLng":120.756488,"geometrySource":"all_barangay-2.csv detailed WKT","geometryMatchMethod":"unique_official_admin_names","boundaryPointCount":13},"geometry":{"type":"MultiPolygon","coordinates":[[[[120.76001,14.18719],[120.759079,14.18659],[120.757927,14.18577],[120.756851,14.18519],[120.755638,14.18425],[120.75499,14.18394],[120.754341,14.1839],[120.7537,14.18426],[120.754639,14.18497],[120.755814,14.18575],[120.758781,14.18813],[120.759529,14.18756],[120.76001,14.18719]]]]}},{"type":"Feature","properties":{"ID_0":177,"ISO":"PHL","NAME_0":"Philippines","ID_1":4021,"NAME_1":"Cavite","ID_2":402112,"NAME_2":"Magallanes","ID_3":402112009,"NAME_3":"Barangay 4","NL_NAME_3":null,"VARNAME_3":null,"TYPE_3":"Barangay","ENGTYPE_3":"Village","PROVINCE":"Cavite","REGION":"Region IV-A (Calabarzon)","id":"barangay-0402112009","name":"Barangay 4","barangayCode":"0402112009","population":null,"formattedPop":null,"densityCategory":"No data","vulnerabilityRating":"No data","healthRiskLevel":"No data","areaKm2":0.095498,"centerLat":14.186681,"centerLng":120.753332,"geometrySource":"all_barangay-2.csv detailed WKT","geometryMatchMethod":"unique_official_admin_names","boundaryPointCount":10},"geometry":{"type":"MultiPolygon","coordinates":[[[[120.758781,14.18813],[120.755814,14.18575],[120.754639,14.18497],[120.7537,14.18426],[120.752739,14.18484],[120.75264,14.18482],[120.752792,14.18579],[120.753609,14.18641],[120.757011,14.18943],[120.758781,14.18813]]]]}},{"type":"Feature","properties":{"ID_0":177,"ISO":"PHL","NAME_0":"Philippines","ID_1":4021,"NAME_1":"Cavite","ID_2":402112,"NAME_2":"Magallanes","ID_3":402112010,"NAME_3":"Barangay 5","NL_NAME_3":null,"VARNAME_3":null,"TYPE_3":"Barangay","ENGTYPE_3":"Village","PROVINCE":"Cavite","REGION":"Region IV-A (Calabarzon)","id":"barangay-0402112010","name":"Barangay 5","barangayCode":"0402112010","population":null,"formattedPop":null,"densityCategory":"No data","vulnerabilityRating":"No data","healthRiskLevel":"No data","areaKm2":0.334237,"centerLat":14.189483,"centerLng":120.753835,"geometrySource":"all_barangay-2.csv detailed WKT","geometryMatchMethod":"unique_official_admin_names","boundaryPointCount":9},"geometry":{"type":"MultiPolygon","coordinates":[[[[120.757011,14.18943],[120.753609,14.18641],[120.752792,14.18579],[120.75293,14.18671],[120.753487,14.18745],[120.753387,14.18907],[120.753471,14.19064],[120.754593,14.19188],[120.757011,14.18943]]]]}},{"type":"Feature","properties":{"ID_0":177,"ISO":"PHL","NAME_0":"Philippines","ID_1":4021,"NAME_1":"Cavite","ID_2":402112,"NAME_2":"Magallanes","ID_3":402112011,"NAME_3":"Ramirez","NL_NAME_3":null,"VARNAME_3":null,"TYPE_3":"Barangay","ENGTYPE_3":"Village","PROVINCE":"Cavite","REGION":"Region IV-A (Calabarzon)","id":"barangay-0402112011","name":"Ramirez","barangayCode":"0402112011","population":null,"formattedPop":null,"densityCategory":"No data","vulnerabilityRating":"No data","healthRiskLevel":"No data","areaKm2":21.086626,"centerLat":14.170584,"centerLng":120.725645,"geometrySource":"all_barangay-2.csv detailed WKT","geometryMatchMethod":"unique_official_admin_names","boundaryPointCount":118},"geometry":{"type":"MultiPolygon","coordinates":[[[[120.771942,14.20753],[120.771637,14.20725],[120.77066,14.20663],[120.769211,14.20558],[120.768257,14.20353],[120.767761,14.20281],[120.767143,14.20124],[120.766899,14.2005],[120.766289,14.199],[120.765373,14.19823],[120.764954,14.19791],[120.764633,14.1968],[120.76429,14.19634],[120.763153,14.19518],[120.762444,14.1946],[120.75985,14.19398],[120.75824,14.19423],[120.75666,14.19467],[120.755699,14.19425],[120.755219,14.19295],[120.754593,14.19188],[120.753471,14.19064],[120.753387,14.18907],[120.753487,14.18745],[120.75293,14.18671],[120.752792,14.18579],[120.75264,14.18482],[120.752518,14.18431],[120.752029,14.18299],[120.751457,14.18221],[120.750969,14.18225],[120.750343,14.18151],[120.750313,14.18059],[120.75016,14.1792],[120.748787,14.17758],[120.747093,14.17638],[120.741966,14.1726],[120.738647,14.17012],[120.702713,14.14517],[120.700607,14.14735],[120.697922,14.15021],[120.693398,14.15583],[120.709534,14.16485],[120.710808,14.1649],[120.712151,14.16465],[120.713417,14.16529],[120.714027,14.1667],[120.714233,14.16839],[120.71508,14.16911],[120.716637,14.17047],[120.716743,14.17106],[120.716942,14.17186],[120.717216,14.17252],[120.717522,14.17329],[120.717819,14.17364],[120.718117,14.17482],[120.717972,14.17574],[120.717819,14.17729],[120.71817,14.1792],[120.718742,14.18077],[120.719193,14.18167],[120.720329,14.18329],[120.720528,14.18412],[120.719887,14.18555],[120.720444,14.18623],[120.721764,14.18736],[120.722473,14.18815],[120.723953,14.18914],[120.7248,14.18956],[120.725967,14.1915],[120.726952,14.19287],[120.728416,14.19428],[120.729088,14.1943],[120.730324,14.19472],[120.731789,14.19584],[120.732437,14.19586],[120.733612,14.19621],[120.734413,14.19685],[120.735336,14.19737],[120.735947,14.19738],[120.738083,14.19775],[120.739273,14.19736],[120.740707,14.19619],[120.742279,14.19618],[120.743759,14.19719],[120.74514,14.19812],[120.745949,14.19926],[120.747253,14.20059],[120.747864,14.20182],[120.748734,14.20242],[120.749969,14.20228],[120.751083,14.20232],[120.752892,14.20475],[120.753571,14.20556],[120.755096,14.2065],[120.754883,14.20796],[120.756371,14.20734],[120.758324,14.20753],[120.759499,14.20824],[120.761002,14.20832],[120.762398,14.20997],[120.76255,14.21128],[120.764023,14.21112],[120.765747,14.21177],[120.766129,14.21276],[120.767776,14.21341],[120.768921,14.21369],[120.769943,14.21431],[120.771347,14.21452],[120.771896,14.21443],[120.772621,14.21452],[120.773163,14.21455],[120.773979,14.21333],[120.774727,14.2115],[120.77446,14.20961],[120.77317,14.20866],[120.772163,14.20794],[120.771942,14.20753]]]]}},{"type":"Feature","properties":{"ID_0":177,"ISO":"PHL","NAME_0":"Philippines","ID_1":4021,"NAME_1":"Cavite","ID_2":402112,"NAME_2":"Magallanes","ID_3":402112012,"NAME_3":"Tua","NL_NAME_3":null,"VARNAME_3":null,"TYPE_3":"Barangay","ENGTYPE_3":"Village","PROVINCE":"Cavite","REGION":"Region IV-A (Calabarzon)","id":"barangay-0402112012","name":"Tua","barangayCode":"0402112012","population":null,"formattedPop":null,"densityCategory":"No data","vulnerabilityRating":"No data","healthRiskLevel":"No data","areaKm2":5.047797,"centerLat":14.136079,"centerLng":120.762928,"geometrySource":"all_barangay-2.csv detailed WKT","geometryMatchMethod":"unique_official_admin_names","boundaryPointCount":43},"geometry":{"type":"MultiPolygon","coordinates":[[[[120.74498,14.16056],[120.751953,14.1543],[120.759644,14.14702],[120.768173,14.1557],[120.778,14.14745],[120.766121,14.13733],[120.764801,14.1386],[120.762604,14.13904],[120.760193,14.1391],[120.756363,14.13669],[120.750328,14.13452],[120.744537,14.13175],[120.742683,14.1315],[120.740494,14.13221],[120.737663,14.13273],[120.736633,14.13287],[120.733047,14.13346],[120.730423,14.13352],[120.727051,14.13386],[120.729248,14.13677],[120.729469,14.13741],[120.730087,14.13859],[120.730621,14.13942],[120.731133,14.14069],[120.731377,14.1413],[120.732224,14.14204],[120.735199,14.14299],[120.737984,14.14385],[120.739014,14.14477],[120.740082,14.14621],[120.741447,14.14835],[120.74247,14.14928],[120.743317,14.14984],[120.744247,14.15106],[120.744087,14.15196],[120.744217,14.15259],[120.744347,14.15351],[120.743797,14.15406],[120.743439,14.15529],[120.743668,14.15732],[120.743767,14.15829],[120.744499,14.15993],[120.74498,14.16056]]]]}},{"type":"Feature","properties":{"ID_0":177,"ISO":"PHL","NAME_0":"Philippines","ID_1":4021,"NAME_1":"Cavite","ID_2":402112,"NAME_2":"Magallanes","ID_3":402112013,"NAME_3":"Urdaneta","NL_NAME_3":null,"VARNAME_3":null,"TYPE_3":"Barangay","ENGTYPE_3":"Village","PROVINCE":"Cavite","REGION":"Region IV-A (Calabarzon)","id":"barangay-0402112013","name":"Urdaneta","barangayCode":"0402112013","population":null,"formattedPop":null,"densityCategory":"No data","vulnerabilityRating":"No data","healthRiskLevel":"No data","areaKm2":5.889831,"centerLat":14.153832,"centerLng":120.729168,"geometrySource":"all_barangay-2.csv detailed WKT","geometryMatchMethod":"unique_official_admin_names","boundaryPointCount":37},"geometry":{"type":"MultiPolygon","coordinates":[[[[120.745522,14.16141],[120.74498,14.16056],[120.744499,14.15993],[120.743767,14.15829],[120.743668,14.15732],[120.743439,14.15529],[120.743797,14.15406],[120.744347,14.15351],[120.744217,14.15259],[120.744087,14.15196],[120.744247,14.15106],[120.743317,14.14984],[120.74247,14.14928],[120.741447,14.14835],[120.740082,14.14621],[120.739014,14.14477],[120.737984,14.14385],[120.735199,14.14299],[120.732224,14.14204],[120.731377,14.1413],[120.731133,14.14069],[120.730621,14.13942],[120.730087,14.13859],[120.729469,14.13741],[120.729248,14.13677],[120.727051,14.13386],[120.722977,14.13441],[120.718269,14.13509],[120.712631,14.13703],[120.709297,14.13951],[120.705772,14.14181],[120.702713,14.14517],[120.738647,14.17012],[120.740173,14.16932],[120.743347,14.16351],[120.743767,14.16386],[120.745522,14.16141]]]]}},{"type":"Feature","properties":{"ID_0":177,"ISO":"PHL","NAME_0":"Philippines","ID_1":4021,"NAME_1":"Cavite","ID_2":402112,"NAME_2":"Magallanes","ID_3":402112014,"NAME_3":"Kabulusan","NL_NAME_3":null,"VARNAME_3":null,"TYPE_3":"Barangay","ENGTYPE_3":"Village","PROVINCE":"Cavite","REGION":"Region IV-A (Calabarzon)","id":"barangay-0402112014","name":"Kabulusan","barangayCode":"0402112014","population":null,"formattedPop":null,"densityCategory":"No data","vulnerabilityRating":"No data","healthRiskLevel":"No data","areaKm2":2.646108,"centerLat":14.176881,"centerLng":120.744628,"geometrySource":"all_barangay-2.csv detailed WKT","geometryMatchMethod":"unique_official_admin_names","boundaryPointCount":36},"geometry":{"type":"MultiPolygon","coordinates":[[[[120.75264,14.18482],[120.752739,14.18484],[120.7537,14.18426],[120.754341,14.1839],[120.75499,14.18394],[120.755638,14.18425],[120.755653,14.18399],[120.755402,14.18325],[120.755363,14.18224],[120.75473,14.18087],[120.754128,14.17988],[120.754173,14.17902],[120.754333,14.17805],[120.753754,14.17761],[120.752472,14.17653],[120.752228,14.17583],[120.752182,14.1747],[120.751961,14.17313],[120.751244,14.17204],[120.750443,14.17193],[120.748123,14.1713],[120.746513,14.17095],[120.744331,14.17129],[120.743187,14.17212],[120.742538,14.17226],[120.741966,14.1726],[120.747093,14.17638],[120.748787,14.17758],[120.75016,14.1792],[120.750313,14.18059],[120.750343,14.18151],[120.750969,14.18225],[120.751457,14.18221],[120.752029,14.18299],[120.752518,14.18431],[120.75264,14.18482]]]]}},{"type":"Feature","properties":{"ID_0":177,"ISO":"PHL","NAME_0":"Philippines","ID_1":4021,"NAME_1":"Cavite","ID_2":402112,"NAME_2":"Magallanes","ID_3":402112015,"NAME_3":"Bendita II","NL_NAME_3":null,"VARNAME_3":null,"TYPE_3":"Barangay","ENGTYPE_3":"Village","PROVINCE":"Cavite","REGION":"Region IV-A (Calabarzon)","id":"barangay-0402112015","name":"Bendita II","barangayCode":"0402112015","population":null,"formattedPop":null,"densityCategory":"No data","vulnerabilityRating":"No data","healthRiskLevel":"No data","areaKm2":2.420113,"centerLat":14.165134,"centerLng":120.758998,"geometrySource":"all_barangay-2.csv detailed WKT","geometryMatchMethod":"unique_official_admin_names","boundaryPointCount":12},"geometry":{"type":"MultiPolygon","coordinates":[[[[120.75106,14.1695],[120.756187,14.16376],[120.757637,14.15919],[120.751953,14.1543],[120.74498,14.16056],[120.745522,14.16141],[120.745827,14.16257],[120.746964,14.16495],[120.747688,14.16673],[120.749008,14.16835],[120.750366,14.16911],[120.75106,14.1695]]]]}},{"type":"Feature","properties":{"ID_0":177,"ISO":"PHL","NAME_0":"Philippines","ID_1":4021,"NAME_1":"Cavite","ID_2":402112,"NAME_2":"Magallanes","ID_3":402112016,"NAME_3":"San Agustin","NL_NAME_3":null,"VARNAME_3":null,"TYPE_3":"Barangay","ENGTYPE_3":"Village","PROVINCE":"Cavite","REGION":"Region IV-A (Calabarzon)","id":"barangay-0402112016","name":"San Agustin","barangayCode":"0402112016","population":null,"formattedPop":null,"densityCategory":"No data","vulnerabilityRating":"No data","healthRiskLevel":"No data","areaKm2":1.665765,"centerLat":14.173895,"centerLng":120.728369,"geometrySource":"all_barangay-2.csv detailed WKT","geometryMatchMethod":"unique_official_admin_names","boundaryPointCount":22},"geometry":{"type":"MultiPolygon","coordinates":[[[[120.751244,14.17204],[120.75148,14.17149],[120.751427,14.1708],[120.75106,14.1695],[120.750366,14.16911],[120.749008,14.16835],[120.747688,14.16673],[120.746964,14.16495],[120.745827,14.16257],[120.745522,14.16141],[120.743767,14.16386],[120.743347,14.16351],[120.740173,14.16932],[120.738647,14.17012],[120.741966,14.1726],[120.742538,14.17226],[120.743187,14.17212],[120.744331,14.17129],[120.746513,14.17095],[120.748123,14.1713],[120.750443,14.17193],[120.751244,14.17204]]]]}}]}
