{"type":"FeatureCollection","features":[{"type":"Feature","properties":{"ID_0":177,"ISO":"PHL","NAME_0":"Philippines","ID_1":2031,"NAME_1":"Isabela","ID_2":203128,"NAME_2":"San Guillermo","ID_3":203128001,"NAME_3":"Anonang","NL_NAME_3":null,"VARNAME_3":null,"TYPE_3":"Barangay","ENGTYPE_3":"Village","PROVINCE":"Isabela","REGION":"Region II (Cagayan Valley)","id":"barangay-0203128001","name":"Anonang","barangayCode":"0203128001","population":null,"formattedPop":null,"densityCategory":"No data","vulnerabilityRating":"No data","healthRiskLevel":"No data","areaKm2":6.0278,"centerLat":16.738623,"centerLng":121.830864,"geometrySource":"all_barangay-2.csv detailed WKT","geometryMatchMethod":"unique_official_admin_names","boundaryPointCount":5},"geometry":{"type":"MultiPolygon","coordinates":[[[[121.844299,16.754391],[121.846649,16.735661],[121.832947,16.729429],[121.822128,16.75259],[121.844299,16.754391]]]]}},{"type":"Feature","properties":{"ID_0":177,"ISO":"PHL","NAME_0":"Philippines","ID_1":2031,"NAME_1":"Isabela","ID_2":203128,"NAME_2":"San Guillermo","ID_3":203128002,"NAME_3":"Aringay","NL_NAME_3":null,"VARNAME_3":null,"TYPE_3":"Barangay","ENGTYPE_3":"Village","PROVINCE":"Isabela","REGION":"Region II (Cagayan Valley)","id":"barangay-0203128002","name":"Aringay","barangayCode":"0203128002","population":null,"formattedPop":null,"densityCategory":"No data","vulnerabilityRating":"No data","healthRiskLevel":"No data","areaKm2":6.200925,"centerLat":16.666873,"centerLng":121.875964,"geometrySource":"all_barangay-2.csv detailed WKT","geometryMatchMethod":"unique_official_admin_names","boundaryPointCount":12},"geometry":{"type":"MultiPolygon","coordinates":[[[[121.854149,16.690809],[121.877853,16.686529],[121.87587,16.674509],[121.874107,16.665911],[121.872742,16.65416],[121.85775,16.662411],[121.847061,16.66881],[121.840897,16.67227],[121.837189,16.675051],[121.845459,16.689569],[121.845757,16.694811],[121.854149,16.690809]]]]}},{"type":"Feature","properties":{"ID_0":177,"ISO":"PHL","NAME_0":"Philippines","ID_1":2031,"NAME_1":"Isabela","ID_2":203128,"NAME_2":"San Guillermo","ID_3":203128004,"NAME_3":"Centro 1","NL_NAME_3":null,"VARNAME_3":null,"TYPE_3":"Barangay","ENGTYPE_3":"Village","PROVINCE":"Isabela","REGION":"Region II (Cagayan Valley)","id":"barangay-0203128004","name":"Centro 1","barangayCode":"0203128004","population":null,"formattedPop":null,"densityCategory":"No data","vulnerabilityRating":"No data","healthRiskLevel":"No data","areaKm2":6.525014,"centerLat":16.732544,"centerLng":121.812349,"geometrySource":"all_barangay-2.csv detailed WKT","geometryMatchMethod":"unique_official_admin_names","boundaryPointCount":7},"geometry":{"type":"MultiPolygon","coordinates":[[[[121.822128,16.75259],[121.832947,16.729429],[121.832809,16.72278],[121.813408,16.72286],[121.807503,16.728701],[121.799301,16.75065],[121.822128,16.75259]]]]}},{"type":"Feature","properties":{"ID_0":177,"ISO":"PHL","NAME_0":"Philippines","ID_1":2031,"NAME_1":"Isabela","ID_2":203128,"NAME_2":"San Guillermo","ID_3":203128005,"NAME_3":"Centro 2","NL_NAME_3":null,"VARNAME_3":null,"TYPE_3":"Barangay","ENGTYPE_3":"Village","PROVINCE":"Isabela","REGION":"Region II (Cagayan Valley)","id":"barangay-0203128005","name":"Centro 2","barangayCode":"0203128005","population":null,"formattedPop":null,"densityCategory":"No data","vulnerabilityRating":"No data","healthRiskLevel":"No data","areaKm2":3.492982,"centerLat":16.716679,"centerLng":121.813908,"geometrySource":"all_barangay-2.csv detailed WKT","geometryMatchMethod":"unique_official_admin_names","boundaryPointCount":8},"geometry":{"type":"MultiPolygon","coordinates":[[[[121.832809,16.72278],[121.83316,16.702],[121.804787,16.707439],[121.800003,16.71027],[121.799713,16.710699],[121.807503,16.728701],[121.813408,16.72286],[121.832809,16.72278]]]]}},{"type":"Feature","properties":{"ID_0":177,"ISO":"PHL","NAME_0":"Philippines","ID_1":2031,"NAME_1":"Isabela","ID_2":203128,"NAME_2":"San Guillermo","ID_3":203128006,"NAME_3":"Colorado","NL_NAME_3":null,"VARNAME_3":null,"TYPE_3":"Barangay","ENGTYPE_3":"Village","PROVINCE":"Isabela","REGION":"Region II (Cagayan Valley)","id":"barangay-0203128006","name":"Colorado","barangayCode":"0203128006","population":null,"formattedPop":null,"densityCategory":"No data","vulnerabilityRating":"No data","healthRiskLevel":"No data","areaKm2":5.343197,"centerLat":16.742783,"centerLng":121.852211,"geometrySource":"all_barangay-2.csv detailed WKT","geometryMatchMethod":"unique_official_admin_names","boundaryPointCount":10},"geometry":{"type":"MultiPolygon","coordinates":[[[[121.869614,16.76166],[121.867371,16.750879],[121.872459,16.7397],[121.866753,16.7372],[121.852341,16.73168],[121.850647,16.73019],[121.846649,16.735661],[121.844299,16.754391],[121.848198,16.754709],[121.869614,16.76166]]]]}},{"type":"Feature","properties":{"ID_0":177,"ISO":"PHL","NAME_0":"Philippines","ID_1":2031,"NAME_1":"Isabela","ID_2":203128,"NAME_2":"San Guillermo","ID_3":203128007,"NAME_3":"Dietban","NL_NAME_3":null,"VARNAME_3":null,"TYPE_3":"Barangay","ENGTYPE_3":"Village","PROVINCE":"Isabela","REGION":"Region II (Cagayan Valley)","id":"barangay-0203128007","name":"Dietban","barangayCode":"0203128007","population":null,"formattedPop":null,"densityCategory":"No data","vulnerabilityRating":"No data","healthRiskLevel":"No data","areaKm2":10.090149,"centerLat":16.741207,"centerLng":121.93212,"geometrySource":"all_barangay-2.csv detailed WKT","geometryMatchMethod":"unique_official_admin_names","boundaryPointCount":25},"geometry":{"type":"MultiPolygon","coordinates":[[[[121.987823,16.74555],[121.987907,16.745211],[121.98806,16.74472],[121.990646,16.74407],[121.992912,16.74243],[121.993156,16.74111],[121.992844,16.73888],[121.992363,16.737061],[121.993172,16.735741],[121.994377,16.733509],[121.994377,16.732109],[121.993736,16.730539],[121.991814,16.7293],[121.989868,16.72896],[121.988892,16.72789],[121.989029,16.727369],[121.94352,16.73366],[121.94384,16.733879],[121.946404,16.74765],[121.947723,16.750019],[121.973824,16.74419],[121.97641,16.74568],[121.984062,16.745689],[121.987572,16.745569],[121.987823,16.74555]]]]}},{"type":"Feature","properties":{"ID_0":177,"ISO":"PHL","NAME_0":"Philippines","ID_1":2031,"NAME_1":"Isabela","ID_2":203128,"NAME_2":"San Guillermo","ID_3":203128008,"NAME_3":"Dingading","NL_NAME_3":null,"VARNAME_3":null,"TYPE_3":"Barangay","ENGTYPE_3":"Village","PROVINCE":"Isabela","REGION":"Region II (Cagayan Valley)","id":"barangay-0203128008","name":"Dingading","barangayCode":"0203128008","population":null,"formattedPop":null,"densityCategory":"No data","vulnerabilityRating":"No data","healthRiskLevel":"No data","areaKm2":15.536657,"centerLat":16.689143,"centerLng":121.899987,"geometrySource":"all_barangay-2.csv detailed WKT","geometryMatchMethod":"unique_official_admin_names","boundaryPointCount":8},"geometry":{"type":"MultiPolygon","coordinates":[[[[121.93438,16.698351],[121.92186,16.671921],[121.87587,16.674509],[121.877853,16.686529],[121.877121,16.70409],[121.881088,16.71373],[121.90358,16.700701],[121.93438,16.698351]]]]}},{"type":"Feature","properties":{"ID_0":177,"ISO":"PHL","NAME_0":"Philippines","ID_1":2031,"NAME_1":"Isabela","ID_2":203128,"NAME_2":"San Guillermo","ID_3":203128009,"NAME_3":"Dipacamo","NL_NAME_3":null,"VARNAME_3":null,"TYPE_3":"Barangay","ENGTYPE_3":"Village","PROVINCE":"Isabela","REGION":"Region II (Cagayan Valley)","id":"barangay-0203128009","name":"Dipacamo","barangayCode":"0203128009","population":null,"formattedPop":null,"densityCategory":"No data","vulnerabilityRating":"No data","healthRiskLevel":"No data","areaKm2":6.685332,"centerLat":16.71687,"centerLng":121.841156,"geometrySource":"all_barangay-2.csv detailed WKT","geometryMatchMethod":"unique_official_admin_names","boundaryPointCount":9},"geometry":{"type":"MultiPolygon","coordinates":[[[[121.852341,16.73168],[121.859207,16.72426],[121.845093,16.70063],[121.83316,16.702],[121.832809,16.72278],[121.832947,16.729429],[121.846649,16.735661],[121.850647,16.73019],[121.852341,16.73168]]]]}},{"type":"Feature","properties":{"ID_0":177,"ISO":"PHL","NAME_0":"Philippines","ID_1":2031,"NAME_1":"Isabela","ID_2":203128,"NAME_2":"San Guillermo","ID_3":203128010,"NAME_3":"Estrella","NL_NAME_3":null,"VARNAME_3":null,"TYPE_3":"Barangay","ENGTYPE_3":"Village","PROVINCE":"Isabela","REGION":"Region II (Cagayan Valley)","id":"barangay-0203128010","name":"Estrella","barangayCode":"0203128010","population":null,"formattedPop":null,"densityCategory":"No data","vulnerabilityRating":"No data","healthRiskLevel":"No data","areaKm2":8.520089,"centerLat":16.705128,"centerLng":121.806827,"geometrySource":"all_barangay-2.csv detailed WKT","geometryMatchMethod":"unique_official_admin_names","boundaryPointCount":10},"geometry":{"type":"MultiPolygon","coordinates":[[[[121.790939,16.71582],[121.799713,16.710699],[121.800003,16.71027],[121.804787,16.707439],[121.83316,16.702],[121.81974,16.685249],[121.818268,16.686069],[121.807068,16.69232],[121.791397,16.702],[121.790939,16.71582]]]]}},{"type":"Feature","properties":{"ID_0":177,"ISO":"PHL","NAME_0":"Philippines","ID_1":2031,"NAME_1":"Isabela","ID_2":203128,"NAME_2":"San Guillermo","ID_3":203128011,"NAME_3":"Guam","NL_NAME_3":null,"VARNAME_3":null,"TYPE_3":"Barangay","ENGTYPE_3":"Village","PROVINCE":"Isabela","REGION":"Region II (Cagayan Valley)","id":"barangay-0203128011","name":"Guam","barangayCode":"0203128011","population":null,"formattedPop":null,"densityCategory":"No data","vulnerabilityRating":"No data","healthRiskLevel":"No data","areaKm2":12.505277,"centerLat":16.71149,"centerLng":121.904544,"geometrySource":"all_barangay-2.csv detailed WKT","geometryMatchMethod":"unique_official_admin_names","boundaryPointCount":8},"geometry":{"type":"MultiPolygon","coordinates":[[[[121.902451,16.72604],[121.934448,16.72554],[121.942032,16.708191],[121.93438,16.698351],[121.90358,16.700701],[121.881088,16.71373],[121.884567,16.72559],[121.902451,16.72604]]]]}},{"type":"Feature","properties":{"ID_0":177,"ISO":"PHL","NAME_0":"Philippines","ID_1":2031,"NAME_1":"Isabela","ID_2":203128,"NAME_2":"San Guillermo","ID_3":203128013,"NAME_3":"Nakar","NL_NAME_3":null,"VARNAME_3":null,"TYPE_3":"Barangay","ENGTYPE_3":"Village","PROVINCE":"Isabela","REGION":"Region II (Cagayan Valley)","id":"barangay-0203128013","name":"Nakar","barangayCode":"0203128013","population":null,"formattedPop":null,"densityCategory":"No data","vulnerabilityRating":"No data","healthRiskLevel":"No data","areaKm2":5.19989,"centerLat":16.732287,"centerLng":121.792739,"geometrySource":"all_barangay-2.csv detailed WKT","geometryMatchMethod":"unique_official_admin_names","boundaryPointCount":9},"geometry":{"type":"MultiPolygon","coordinates":[[[[121.799301,16.75065],[121.807503,16.728701],[121.799713,16.710699],[121.790939,16.71582],[121.78804,16.739281],[121.79213,16.745159],[121.794029,16.74778],[121.796463,16.750811],[121.799301,16.75065]]]]}},{"type":"Feature","properties":{"ID_0":177,"ISO":"PHL","NAME_0":"Philippines","ID_1":2031,"NAME_1":"Isabela","ID_2":203128,"NAME_2":"San Guillermo","ID_3":203128014,"NAME_3":"Palawan","NL_NAME_3":null,"VARNAME_3":null,"TYPE_3":"Barangay","ENGTYPE_3":"Village","PROVINCE":"Isabela","REGION":"Region II (Cagayan Valley)","id":"barangay-0203128014","name":"Palawan","barangayCode":"0203128014","population":null,"formattedPop":null,"densityCategory":"No data","vulnerabilityRating":"No data","healthRiskLevel":"No data","areaKm2":3.357827,"centerLat":16.705331,"centerLng":121.853813,"geometrySource":"all_barangay-2.csv detailed WKT","geometryMatchMethod":"unique_official_admin_names","boundaryPointCount":8},"geometry":{"type":"MultiPolygon","coordinates":[[[[121.865173,16.717091],[121.866318,16.715771],[121.86467,16.70188],[121.854149,16.690809],[121.845757,16.694811],[121.845093,16.70063],[121.859207,16.72426],[121.865173,16.717091]]]]}},{"type":"Feature","properties":{"ID_0":177,"ISO":"PHL","NAME_0":"Philippines","ID_1":2031,"NAME_1":"Isabela","ID_2":203128,"NAME_2":"San Guillermo","ID_3":203128015,"NAME_3":"Progreso","NL_NAME_3":null,"VARNAME_3":null,"TYPE_3":"Barangay","ENGTYPE_3":"Village","PROVINCE":"Isabela","REGION":"Region II (Cagayan Valley)","id":"barangay-0203128015","name":"Progreso","barangayCode":"0203128015","population":null,"formattedPop":null,"densityCategory":"No data","vulnerabilityRating":"No data","healthRiskLevel":"No data","areaKm2":7.964651,"centerLat":16.767549,"centerLng":121.929199,"geometrySource":"all_barangay-2.csv detailed WKT","geometryMatchMethod":"unique_official_admin_names","boundaryPointCount":9},"geometry":{"type":"MultiPolygon","coordinates":[[[[121.929337,16.7609],[121.935516,16.7654],[121.978668,16.753901],[121.984062,16.745689],[121.97641,16.74568],[121.973824,16.74419],[121.947723,16.750019],[121.946404,16.74765],[121.929337,16.7609]]]]}},{"type":"Feature","properties":{"ID_0":177,"ISO":"PHL","NAME_0":"Philippines","ID_1":2031,"NAME_1":"Isabela","ID_2":203128,"NAME_2":"San Guillermo","ID_3":203128016,"NAME_3":"Rizal","NL_NAME_3":null,"VARNAME_3":null,"TYPE_3":"Barangay","ENGTYPE_3":"Village","PROVINCE":"Isabela","REGION":"Region II (Cagayan Valley)","id":"barangay-0203128016","name":"Rizal","barangayCode":"0203128016","population":null,"formattedPop":null,"densityCategory":"No data","vulnerabilityRating":"No data","healthRiskLevel":"No data","areaKm2":188.852333,"centerLat":16.631706,"centerLng":122.023064,"geometrySource":"all_barangay-2.csv detailed WKT","geometryMatchMethod":"unique_official_admin_names","boundaryPointCount":194},"geometry":{"type":"MultiPolygon","coordinates":[[[[122.174332,16.675619],[122.17524,16.675529],[122.174683,16.675501],[122.174332,16.675619]]],[[[122.174332,16.675619],[122.174454,16.674231],[122.171333,16.667891],[122.168518,16.661209],[122.166351,16.65571],[122.1605,16.64171],[122.160309,16.64155],[122.156319,16.63833],[122.145287,16.629049],[122.145027,16.628839],[122.139076,16.62397],[122.118896,16.61883],[122.106468,16.615601],[122.046158,16.60001],[122.045967,16.59996],[122.040047,16.6052],[122.019943,16.62644],[122.000282,16.62591],[121.981667,16.62538],[121.979797,16.626711],[121.980431,16.63168],[121.980438,16.631729],[121.978157,16.634291],[121.979134,16.63776],[121.978317,16.63941],[121.977669,16.6385],[121.974831,16.64032],[121.972649,16.64123],[121.972961,16.642719],[121.974907,16.64403],[121.976044,16.645599],[121.97538,16.647579],[121.973999,16.649731],[121.973427,16.651621],[121.974152,16.652861],[121.973747,16.654181],[121.97213,16.655251],[121.970657,16.65872],[121.969276,16.65831],[121.967827,16.65435],[121.965157,16.65584],[121.965157,16.65938],[121.965797,16.66251],[121.963287,16.66276],[121.95932,16.663509],[121.956573,16.66433],[121.952667,16.66781],[121.938637,16.661751],[121.930588,16.65687],[121.92186,16.671921],[121.93438,16.698351],[121.942032,16.708191],[121.97422,16.702471],[121.974541,16.70277],[121.976639,16.70261],[121.978897,16.70212],[121.980614,16.70171],[121.981422,16.70262],[121.981903,16.704929],[121.981888,16.709629],[121.980911,16.714001],[121.980179,16.71648],[121.980659,16.71854],[121.981712,16.71945],[121.982918,16.71945],[121.983887,16.71863],[121.984863,16.71756],[121.986076,16.71748],[121.988503,16.718889],[121.990692,16.720869],[121.990761,16.722851],[121.989304,16.72632],[121.989029,16.727369],[121.988892,16.72789],[121.989868,16.72896],[121.991814,16.7293],[121.993736,16.730539],[121.994377,16.732109],[121.994377,16.733509],[121.993172,16.735741],[121.992363,16.737061],[121.992844,16.73888],[121.993156,16.74111],[121.992912,16.74243],[121.990646,16.74407],[121.98806,16.74472],[121.987907,16.745211],[121.987823,16.74555],[122.010361,16.741171],[122.022621,16.74127],[122.024384,16.741301],[122.024727,16.741301],[122.032623,16.74164],[122.046761,16.74194],[122.047012,16.74194],[122.054604,16.74238],[122.059128,16.743891],[122.066231,16.74872],[122.06646,16.74865],[122.066917,16.748501],[122.070183,16.74749],[122.073662,16.746099],[122.078018,16.74744],[122.079674,16.748079],[122.079811,16.748131],[122.07988,16.74815],[122.081497,16.748779],[122.083923,16.748791],[122.085289,16.748381],[122.088287,16.74507],[122.087646,16.740999],[122.086853,16.73893],[122.087578,16.736271],[122.088951,16.735359],[122.091537,16.73579],[122.093803,16.73654],[122.095169,16.73671],[122.096947,16.73539],[122.097862,16.72912],[122.097939,16.728661],[122.098503,16.726089],[122.100517,16.723261],[122.101913,16.721861],[122.10247,16.721939],[122.1036,16.722771],[122.105537,16.72427],[122.105614,16.726351],[122.106331,16.72876],[122.108177,16.729271],[122.11142,16.728439],[122.116417,16.727539],[122.119339,16.726709],[122.12104,16.72505],[122.123787,16.722561],[122.123871,16.72114],[122.123894,16.720671],[122.123947,16.719311],[122.126137,16.71673],[122.127113,16.714899],[122.126083,16.710569],[122.127213,16.71007],[122.128662,16.70948],[122.130043,16.70565],[122.130852,16.704069],[122.131737,16.702311],[122.13401,16.701981],[122.137558,16.702721],[122.140457,16.701469],[122.142174,16.700211],[122.142731,16.698629],[122.143387,16.696791],[122.1446,16.696119],[122.146378,16.695869],[122.147186,16.69536],[122.147667,16.693859],[122.148239,16.6931],[122.149132,16.69227],[122.149544,16.691099],[122.14994,16.68968],[122.151161,16.688499],[122.153664,16.68741],[122.155281,16.687481],[122.156174,16.687481],[122.157219,16.6863],[122.158112,16.68572],[122.159157,16.685459],[122.159973,16.6842],[122.160782,16.68244],[122.161758,16.681259],[122.162971,16.68059],[122.163292,16.68017],[122.162971,16.67942],[122.162979,16.678249],[122.163223,16.67724],[122.164032,16.676979],[122.165077,16.676979],[122.16597,16.67697],[122.166779,16.67646],[122.167107,16.675711],[122.167511,16.673611],[122.167679,16.672359],[122.167519,16.67144],[122.168327,16.671101],[122.169937,16.672171],[122.169853,16.673349],[122.169693,16.674431],[122.17041,16.67502],[122.17202,16.67584],[122.174294,16.67625],[122.174332,16.675619]]]]}},{"type":"Feature","properties":{"ID_0":177,"ISO":"PHL","NAME_0":"Philippines","ID_1":2031,"NAME_1":"Isabela","ID_2":203128,"NAME_2":"San Guillermo","ID_3":203128017,"NAME_3":"San Francisco Sur","NL_NAME_3":null,"VARNAME_3":null,"TYPE_3":"Barangay","ENGTYPE_3":"Village","PROVINCE":"Isabela","REGION":"Region II (Cagayan Valley)","id":"barangay-0203128017","name":"San Francisco Sur","barangayCode":"0203128017","population":null,"formattedPop":null,"densityCategory":"No data","vulnerabilityRating":"No data","healthRiskLevel":"No data","areaKm2":7.232601,"centerLat":16.668513,"centerLng":121.899902,"geometrySource":"all_barangay-2.csv detailed WKT","geometryMatchMethod":"unique_official_admin_names","boundaryPointCount":9},"geometry":{"type":"MultiPolygon","coordinates":[[[[121.87587,16.674509],[121.92186,16.671921],[121.930588,16.65687],[121.926628,16.65472],[121.905487,16.653111],[121.884148,16.65172],[121.872742,16.65416],[121.874107,16.665911],[121.87587,16.674509]]]]}},{"type":"Feature","properties":{"ID_0":177,"ISO":"PHL","NAME_0":"Philippines","ID_1":2031,"NAME_1":"Isabela","ID_2":203128,"NAME_2":"San Guillermo","ID_3":203128018,"NAME_3":"San Mariano Norte","NL_NAME_3":null,"VARNAME_3":null,"TYPE_3":"Barangay","ENGTYPE_3":"Village","PROVINCE":"Isabela","REGION":"Region II (Cagayan Valley)","id":"barangay-0203128018","name":"San Mariano Norte","barangayCode":"0203128018","population":null,"formattedPop":null,"densityCategory":"No data","vulnerabilityRating":"No data","healthRiskLevel":"No data","areaKm2":3.223731,"centerLat":16.732384,"centerLng":121.872731,"geometrySource":"all_barangay-2.csv detailed WKT","geometryMatchMethod":"unique_official_admin_names","boundaryPointCount":11},"geometry":{"type":"MultiPolygon","coordinates":[[[[121.875008,16.74198],[121.882309,16.73394],[121.899323,16.73811],[121.903999,16.72941],[121.902451,16.72604],[121.884567,16.72559],[121.87252,16.726],[121.870903,16.729349],[121.866753,16.7372],[121.872459,16.7397],[121.875008,16.74198]]]]}},{"type":"Feature","properties":{"ID_0":177,"ISO":"PHL","NAME_0":"Philippines","ID_1":2031,"NAME_1":"Isabela","ID_2":203128,"NAME_2":"San Guillermo","ID_3":203128019,"NAME_3":"San Mariano Sur","NL_NAME_3":null,"VARNAME_3":null,"TYPE_3":"Barangay","ENGTYPE_3":"Village","PROVINCE":"Isabela","REGION":"Region II (Cagayan Valley)","id":"barangay-0203128019","name":"San Mariano Sur","barangayCode":"0203128019","population":null,"formattedPop":null,"densityCategory":"No data","vulnerabilityRating":"No data","healthRiskLevel":"No data","areaKm2":4.444491,"centerLat":16.720551,"centerLng":121.865552,"geometrySource":"all_barangay-2.csv detailed WKT","geometryMatchMethod":"unique_official_admin_names","boundaryPointCount":9},"geometry":{"type":"MultiPolygon","coordinates":[[[[121.866753,16.7372],[121.870903,16.729349],[121.87252,16.726],[121.884567,16.72559],[121.881088,16.71373],[121.865173,16.717091],[121.859207,16.72426],[121.852341,16.73168],[121.866753,16.7372]]]]}},{"type":"Feature","properties":{"ID_0":177,"ISO":"PHL","NAME_0":"Philippines","ID_1":2031,"NAME_1":"Isabela","ID_2":203128,"NAME_2":"San Guillermo","ID_3":203128020,"NAME_3":"Sinalugan","NL_NAME_3":null,"VARNAME_3":null,"TYPE_3":"Barangay","ENGTYPE_3":"Village","PROVINCE":"Isabela","REGION":"Region II (Cagayan Valley)","id":"barangay-0203128020","name":"Sinalugan","barangayCode":"0203128020","population":null,"formattedPop":null,"densityCategory":"No data","vulnerabilityRating":"No data","healthRiskLevel":"No data","areaKm2":5.380912,"centerLat":16.696315,"centerLng":121.86596,"geometrySource":"all_barangay-2.csv detailed WKT","geometryMatchMethod":"unique_official_admin_names","boundaryPointCount":8},"geometry":{"type":"MultiPolygon","coordinates":[[[[121.881088,16.71373],[121.877121,16.70409],[121.877853,16.686529],[121.854149,16.690809],[121.86467,16.70188],[121.866318,16.715771],[121.865173,16.717091],[121.881088,16.71373]]]]}},{"type":"Feature","properties":{"ID_0":177,"ISO":"PHL","NAME_0":"Philippines","ID_1":2031,"NAME_1":"Isabela","ID_2":203128,"NAME_2":"San Guillermo","ID_3":203128021,"NAME_3":"Villa Remedios","NL_NAME_3":null,"VARNAME_3":null,"TYPE_3":"Barangay","ENGTYPE_3":"Village","PROVINCE":"Isabela","REGION":"Region II (Cagayan Valley)","id":"barangay-0203128021","name":"Villa Remedios","barangayCode":"0203128021","population":null,"formattedPop":null,"densityCategory":"No data","vulnerabilityRating":"No data","healthRiskLevel":"No data","areaKm2":3.057988,"centerLat":16.69464,"centerLng":121.838548,"geometrySource":"all_barangay-2.csv detailed WKT","geometryMatchMethod":"unique_official_admin_names","boundaryPointCount":7},"geometry":{"type":"MultiPolygon","coordinates":[[[[121.845093,16.70063],[121.845757,16.694811],[121.845459,16.689569],[121.837189,16.675051],[121.81974,16.685249],[121.83316,16.702],[121.845093,16.70063]]]]}},{"type":"Feature","properties":{"ID_0":177,"ISO":"PHL","NAME_0":"Philippines","ID_1":2031,"NAME_1":"Isabela","ID_2":203128,"NAME_2":"San Guillermo","ID_3":203128022,"NAME_3":"Villa Rose","NL_NAME_3":null,"VARNAME_3":null,"TYPE_3":"Barangay","ENGTYPE_3":"Village","PROVINCE":"Isabela","REGION":"Region II (Cagayan Valley)","id":"barangay-0203128022","name":"Villa Rose","barangayCode":"0203128022","population":null,"formattedPop":null,"densityCategory":"No data","vulnerabilityRating":"No data","healthRiskLevel":"No data","areaKm2":4.538479,"centerLat":16.75974,"centerLng":121.909855,"geometrySource":"all_barangay-2.csv detailed WKT","geometryMatchMethod":"unique_official_admin_names","boundaryPointCount":7},"geometry":{"type":"MultiPolygon","coordinates":[[[[121.929337,16.7609],[121.946404,16.74765],[121.94384,16.733879],[121.94352,16.73366],[121.91864,16.742941],[121.91996,16.75111],[121.929337,16.7609]]]]}},{"type":"Feature","properties":{"ID_0":177,"ISO":"PHL","NAME_0":"Philippines","ID_1":2031,"NAME_1":"Isabela","ID_2":203128,"NAME_2":"San Guillermo","ID_3":203128023,"NAME_3":"Villa Sanchez","NL_NAME_3":null,"VARNAME_3":null,"TYPE_3":"Barangay","ENGTYPE_3":"Village","PROVINCE":"Isabela","REGION":"Region II (Cagayan Valley)","id":"barangay-0203128023","name":"Villa Sanchez","barangayCode":"0203128023","population":null,"formattedPop":null,"densityCategory":"No data","vulnerabilityRating":"No data","healthRiskLevel":"No data","areaKm2":5.429954,"centerLat":16.751017,"centerLng":121.872683,"geometrySource":"all_barangay-2.csv detailed WKT","geometryMatchMethod":"unique_official_admin_names","boundaryPointCount":7},"geometry":{"type":"MultiPolygon","coordinates":[[[[121.898979,16.76368],[121.907417,16.76001],[121.907784,16.75168],[121.899323,16.73811],[121.882309,16.73394],[121.875008,16.74198],[121.898979,16.76368]]]]}},{"type":"Feature","properties":{"ID_0":177,"ISO":"PHL","NAME_0":"Philippines","ID_1":2031,"NAME_1":"Isabela","ID_2":203128,"NAME_2":"San Guillermo","ID_3":203128024,"NAME_3":"Villa Teresita","NL_NAME_3":null,"VARNAME_3":null,"TYPE_3":"Barangay","ENGTYPE_3":"Village","PROVINCE":"Isabela","REGION":"Region II (Cagayan Valley)","id":"barangay-0203128024","name":"Villa Teresita","barangayCode":"0203128024","population":null,"formattedPop":null,"densityCategory":"No data","vulnerabilityRating":"No data","healthRiskLevel":"No data","areaKm2":1.878568,"centerLat":16.759481,"centerLng":121.860449,"geometrySource":"all_barangay-2.csv detailed WKT","geometryMatchMethod":"unique_official_admin_names","boundaryPointCount":9},"geometry":{"type":"MultiPolygon","coordinates":[[[[121.87323,16.764601],[121.888496,16.768629],[121.889137,16.76832],[121.898979,16.76368],[121.875008,16.74198],[121.872459,16.7397],[121.867371,16.750879],[121.869614,16.76166],[121.87323,16.764601]]]]}},{"type":"Feature","properties":{"ID_0":177,"ISO":"PHL","NAME_0":"Philippines","ID_1":2031,"NAME_1":"Isabela","ID_2":203128,"NAME_2":"San Guillermo","ID_3":203128025,"NAME_3":"Burgos","NL_NAME_3":null,"VARNAME_3":null,"TYPE_3":"Barangay","ENGTYPE_3":"Village","PROVINCE":"Isabela","REGION":"Region II (Cagayan Valley)","id":"barangay-0203128025","name":"Burgos","barangayCode":"0203128025","population":null,"formattedPop":null,"densityCategory":"No data","vulnerabilityRating":"No data","healthRiskLevel":"No data","areaKm2":45.979974,"centerLat":16.70489,"centerLng":121.985786,"geometrySource":"all_barangay-2.csv detailed WKT","geometryMatchMethod":"unique_official_admin_names","boundaryPointCount":25},"geometry":{"type":"MultiPolygon","coordinates":[[[[121.989029,16.727369],[121.989304,16.72632],[121.990761,16.722851],[121.990692,16.720869],[121.988503,16.718889],[121.986076,16.71748],[121.984863,16.71756],[121.983887,16.71863],[121.982918,16.71945],[121.981712,16.71945],[121.980659,16.71854],[121.980179,16.71648],[121.980911,16.714001],[121.981888,16.709629],[121.981903,16.704929],[121.981422,16.70262],[121.980614,16.70171],[121.978897,16.70212],[121.976639,16.70261],[121.974541,16.70277],[121.97422,16.702471],[121.942032,16.708191],[121.934448,16.72554],[121.94352,16.73366],[121.989029,16.727369]]]]}},{"type":"Feature","properties":{"ID_0":177,"ISO":"PHL","NAME_0":"Philippines","ID_1":2031,"NAME_1":"Isabela","ID_2":203128,"NAME_2":"San Guillermo","ID_3":203128026,"NAME_3":"San Francisco Norte","NL_NAME_3":null,"VARNAME_3":null,"TYPE_3":"Barangay","ENGTYPE_3":"Village","PROVINCE":"Isabela","REGION":"Region II (Cagayan Valley)","id":"barangay-0203128026","name":"San Francisco Norte","barangayCode":"0203128026","population":null,"formattedPop":null,"densityCategory":"No data","vulnerabilityRating":"No data","healthRiskLevel":"No data","areaKm2":11.56851,"centerLat":16.736639,"centerLng":121.898635,"geometrySource":"all_barangay-2.csv detailed WKT","geometryMatchMethod":"unique_official_admin_names","boundaryPointCount":9},"geometry":{"type":"MultiPolygon","coordinates":[[[[121.91996,16.75111],[121.91864,16.742941],[121.94352,16.73366],[121.934448,16.72554],[121.902451,16.72604],[121.903999,16.72941],[121.899323,16.73811],[121.907784,16.75168],[121.91996,16.75111]]]]}},{"type":"Feature","properties":{"ID_0":177,"ISO":"PHL","NAME_0":"Philippines","ID_1":2031,"NAME_1":"Isabela","ID_2":203128,"NAME_2":"San Guillermo","ID_3":203128027,"NAME_3":"Calaoagan","NL_NAME_3":null,"VARNAME_3":null,"TYPE_3":"Barangay","ENGTYPE_3":"Village","PROVINCE":"Isabela","REGION":"Region II (Cagayan Valley)","id":"barangay-0203128027","name":"Calaoagan","barangayCode":"0203128027","population":null,"formattedPop":null,"densityCategory":"No data","vulnerabilityRating":"No data","healthRiskLevel":"No data","areaKm2":4.379548,"centerLat":16.778412,"centerLng":121.939498,"geometrySource":"all_barangay-2.csv detailed WKT","geometryMatchMethod":"unique_official_admin_names","boundaryPointCount":6},"geometry":{"type":"MultiPolygon","coordinates":[[[[121.965881,16.76885],[121.978668,16.753901],[121.935516,16.7654],[121.933342,16.776569],[121.949333,16.78787],[121.965881,16.76885]]]]}},{"type":"Feature","properties":{"ID_0":177,"ISO":"PHL","NAME_0":"Philippines","ID_1":2031,"NAME_1":"Isabela","ID_2":203128,"NAME_2":"San Guillermo","ID_3":203128028,"NAME_3":"San Rafael","NL_NAME_3":null,"VARNAME_3":null,"TYPE_3":"Barangay","ENGTYPE_3":"Village","PROVINCE":"Isabela","REGION":"Region II (Cagayan Valley)","id":"barangay-0203128028","name":"San Rafael","barangayCode":"0203128028","population":null,"formattedPop":null,"densityCategory":"No data","vulnerabilityRating":"No data","healthRiskLevel":"No data","areaKm2":3.181267,"centerLat":16.766976,"centerLng":121.89816,"geometrySource":"all_barangay-2.csv detailed WKT","geometryMatchMethod":"unique_official_admin_names","boundaryPointCount":7},"geometry":{"type":"MultiPolygon","coordinates":[[[[121.935516,16.7654],[121.929337,16.7609],[121.91996,16.75111],[121.907784,16.75168],[121.907417,16.76001],[121.933342,16.776569],[121.935516,16.7654]]]]}}]}
