{"type":"FeatureCollection","features":[{"type":"Feature","properties":{"ID_0":177,"ISO":"PHL","NAME_0":"Philippines","ID_1":7022,"NAME_1":"Cebu","ID_2":702223,"NAME_2":"Danao City","ID_3":702223001,"NAME_3":"Baliang","NL_NAME_3":null,"VARNAME_3":null,"TYPE_3":"Barangay","ENGTYPE_3":"Village","PROVINCE":"Cebu","REGION":"Region VII (Central Visayas)","id":"barangay-0702223001","name":"Baliang","barangayCode":"0702223001","population":null,"formattedPop":null,"densityCategory":"No data","vulnerabilityRating":"No data","healthRiskLevel":"No data","areaKm2":5.546654,"centerLat":10.507684,"centerLng":123.956703,"geometrySource":"all_barangay-2.csv detailed WKT","geometryMatchMethod":"unique_official_admin_names","boundaryPointCount":64},"geometry":{"type":"MultiPolygon","coordinates":[[[[123.9534,10.52162],[123.953423,10.52053],[123.953857,10.51916],[123.954987,10.51843],[123.956757,10.51808],[123.958832,10.51791],[123.96151,10.51822],[123.963867,10.51866],[123.964928,10.51919],[123.966667,10.51986],[123.968132,10.52033],[123.969711,10.5202],[123.970581,10.52002],[123.972,10.5201],[123.971191,10.51937],[123.971138,10.51896],[123.971603,10.51813],[123.972221,10.5172],[123.97245,10.51631],[123.972221,10.51554],[123.972008,10.51524],[123.97155,10.51469],[123.971443,10.51433],[123.97142,10.51353],[123.970703,10.51307],[123.969994,10.51272],[123.969597,10.51219],[123.969276,10.51126],[123.969116,10.51116],[123.968628,10.51096],[123.967918,10.51116],[123.967346,10.51061],[123.96727,10.51005],[123.966782,10.50948],[123.965958,10.50966],[123.96563,10.50936],[123.965523,10.50884],[123.964996,10.50846],[123.964706,10.50777],[123.964447,10.50791],[123.964111,10.50706],[123.963783,10.50638],[123.963127,10.5059],[123.962914,10.50529],[123.962311,10.50493],[123.961838,10.50457],[123.960793,10.50339],[123.948753,10.5024],[123.93647,10.50177],[123.94352,10.51398],[123.943848,10.51421],[123.944527,10.51475],[123.945702,10.51517],[123.946922,10.51601],[123.947403,10.51745],[123.948486,10.51851],[123.949318,10.51887],[123.949883,10.51962],[123.950394,10.52],[123.951111,10.52012],[123.951729,10.52012],[123.952316,10.52049],[123.953148,10.52126],[123.9534,10.52162]]]]}},{"type":"Feature","properties":{"ID_0":177,"ISO":"PHL","NAME_0":"Philippines","ID_1":7022,"NAME_1":"Cebu","ID_2":702223,"NAME_2":"Danao City","ID_3":702223002,"NAME_3":"Bayabas","NL_NAME_3":null,"VARNAME_3":null,"TYPE_3":"Barangay","ENGTYPE_3":"Village","PROVINCE":"Cebu","REGION":"Region VII (Central Visayas)","id":"barangay-0702223002","name":"Bayabas","barangayCode":"0702223002","population":null,"formattedPop":null,"densityCategory":"No data","vulnerabilityRating":"No data","healthRiskLevel":"No data","areaKm2":14.424197,"centerLat":10.585523,"centerLng":123.865498,"geometrySource":"all_barangay-2.csv detailed WKT","geometryMatchMethod":"unique_official_admin_names","boundaryPointCount":49},"geometry":{"type":"MultiPolygon","coordinates":[[[[123.937828,10.59198],[123.940041,10.59143],[123.941399,10.5909],[123.944077,10.59023],[123.946877,10.5893],[123.948402,10.58878],[123.948029,10.58832],[123.947617,10.58762],[123.94725,10.58735],[123.94693,10.58685],[123.946922,10.58603],[123.946426,10.58529],[123.946564,10.58435],[123.946289,10.58366],[123.945992,10.58318],[123.945763,10.58202],[123.94529,10.58114],[123.943398,10.57841],[123.942818,10.57752],[123.942039,10.57646],[123.941544,10.57561],[123.941307,10.57485],[123.941063,10.57414],[123.93998,10.57333],[123.938789,10.57356],[123.937088,10.57329],[123.935768,10.57312],[123.934837,10.57263],[123.933968,10.57197],[123.932663,10.57176],[123.93132,10.57186],[123.930389,10.57203],[123.930344,10.57305],[123.929977,10.57458],[123.929382,10.57565],[123.927849,10.57659],[123.926521,10.57696],[123.925323,10.57794],[123.924988,10.57875],[123.924713,10.57963],[123.923782,10.5807],[123.922684,10.58159],[123.920113,10.58335],[123.923691,10.59108],[123.926353,10.59177],[123.928886,10.59257],[123.93145,10.59266],[123.934677,10.59249],[123.937828,10.59198]]]]}},{"type":"Feature","properties":{"ID_0":177,"ISO":"PHL","NAME_0":"Philippines","ID_1":7022,"NAME_1":"Cebu","ID_2":702223,"NAME_2":"Danao City","ID_3":702223004,"NAME_3":"Binaliw","NL_NAME_3":null,"VARNAME_3":null,"TYPE_3":"Barangay","ENGTYPE_3":"Village","PROVINCE":"Cebu","REGION":"Region VII (Central Visayas)","id":"barangay-0702223004","name":"Binaliw","barangayCode":"0702223004","population":null,"formattedPop":null,"densityCategory":"No data","vulnerabilityRating":"No data","healthRiskLevel":"No data","areaKm2":3.904283,"centerLat":10.546765,"centerLng":123.984237,"geometrySource":"all_barangay-2.csv detailed WKT","geometryMatchMethod":"unique_official_admin_names","boundaryPointCount":47},"geometry":{"type":"MultiPolygon","coordinates":[[[[123.999359,10.54487],[123.999527,10.54362],[123.999443,10.54321],[123.999207,10.54245],[123.998947,10.54203],[123.998596,10.54163],[123.998039,10.54068],[123.997818,10.53989],[123.997658,10.53866],[123.997757,10.5378],[123.997963,10.53668],[123.9981,10.53585],[123.997887,10.5347],[123.997276,10.53481],[123.996361,10.53606],[123.995827,10.53736],[123.995483,10.53828],[123.995087,10.53874],[123.994217,10.5396],[123.993294,10.53983],[123.993217,10.54031],[123.991943,10.54004],[123.990936,10.53973],[123.989853,10.53955],[123.988342,10.53949],[123.987259,10.5395],[123.985733,10.53965],[123.984848,10.54],[123.984062,10.54032],[123.982948,10.54106],[123.983162,10.54267],[123.983521,10.54396],[123.984451,10.54532],[123.985359,10.54634],[123.986229,10.54689],[123.987793,10.54768],[123.988693,10.54775],[123.99015,10.54762],[123.991432,10.54759],[123.99308,10.54767],[123.994873,10.5474],[123.995628,10.54698],[123.99617,10.54616],[123.996933,10.54632],[123.99736,10.54617],[123.998543,10.54515],[123.999359,10.54487]]]]}},{"type":"Feature","properties":{"ID_0":177,"ISO":"PHL","NAME_0":"Philippines","ID_1":7022,"NAME_1":"Cebu","ID_2":702223,"NAME_2":"Danao City","ID_3":702223006,"NAME_3":"Cabungahan","NL_NAME_3":null,"VARNAME_3":null,"TYPE_3":"Barangay","ENGTYPE_3":"Village","PROVINCE":"Cebu","REGION":"Region VII (Central Visayas)","id":"barangay-0702223006","name":"Cabungahan","barangayCode":"0702223006","population":null,"formattedPop":null,"densityCategory":"No data","vulnerabilityRating":"No data","healthRiskLevel":"No data","areaKm2":3.731467,"centerLat":10.518,"centerLng":123.983437,"geometrySource":"all_barangay-2.csv detailed WKT","geometryMatchMethod":"unique_official_admin_names","boundaryPointCount":99},"geometry":{"type":"MultiPolygon","coordinates":[[[[123.988113,10.52613],[123.987823,10.52574],[123.988228,10.52475],[123.987679,10.52346],[123.987671,10.52273],[123.987663,10.52187],[123.987556,10.52161],[123.987183,10.52028],[123.986702,10.51928],[123.986366,10.51839],[123.987473,10.51809],[123.988503,10.51807],[123.989883,10.51766],[123.990387,10.51769],[123.991257,10.51775],[123.992012,10.51788],[123.993446,10.51837],[123.994614,10.5188],[123.995407,10.51923],[123.993942,10.50967],[123.993591,10.50967],[123.992813,10.51001],[123.992554,10.50947],[123.992104,10.50974],[123.992157,10.51028],[123.991959,10.51064],[123.991043,10.51104],[123.991051,10.51169],[123.990517,10.51301],[123.990417,10.51327],[123.990158,10.51318],[123.989861,10.51245],[123.989471,10.51229],[123.989014,10.51244],[123.988289,10.51226],[123.987839,10.51181],[123.986748,10.51072],[123.986137,10.51018],[123.985283,10.5095],[123.984917,10.50926],[123.984306,10.50912],[123.983704,10.50954],[123.98233,10.51074],[123.981918,10.51072],[123.981567,10.5107],[123.980583,10.51069],[123.979118,10.51011],[123.97831,10.50928],[123.977402,10.50859],[123.976646,10.50838],[123.975937,10.50854],[123.975128,10.50795],[123.97377,10.50767],[123.972923,10.50794],[123.972031,10.50889],[123.971764,10.50923],[123.971184,10.5103],[123.970451,10.51112],[123.969597,10.51219],[123.969994,10.51272],[123.970703,10.51307],[123.97142,10.51353],[123.971443,10.51433],[123.97155,10.51469],[123.972008,10.51524],[123.972221,10.51554],[123.97245,10.51631],[123.972221,10.5172],[123.971603,10.51813],[123.971138,10.51896],[123.971191,10.51937],[123.972,10.5201],[123.97229,10.52069],[123.972954,10.52258],[123.973244,10.52316],[123.973907,10.52413],[123.974701,10.52484],[123.975708,10.5255],[123.97628,10.52652],[123.977829,10.52674],[123.978104,10.52709],[123.977997,10.52731],[123.978256,10.52781],[123.97921,10.52762],[123.979134,10.52672],[123.980057,10.52744],[123.980553,10.52809],[123.981201,10.52835],[123.982437,10.52838],[123.983192,10.52801],[123.984222,10.52851],[123.985023,10.52948],[123.986107,10.52933],[123.986473,10.52881],[123.985909,10.52771],[123.985924,10.52708],[123.986656,10.52722],[123.98774,10.52635],[123.988113,10.52613]]]]}},{"type":"Feature","properties":{"ID_0":177,"ISO":"PHL","NAME_0":"Philippines","ID_1":7022,"NAME_1":"Cebu","ID_2":702223,"NAME_2":"Danao City","ID_3":702223007,"NAME_3":"Cagat-Lamac","NL_NAME_3":null,"VARNAME_3":null,"TYPE_3":"Barangay","ENGTYPE_3":"Village","PROVINCE":"Cebu","REGION":"Region VII (Central Visayas)","id":"barangay-0702223007","name":"Cagat-Lamac","barangayCode":"0702223007","population":null,"formattedPop":null,"densityCategory":"No data","vulnerabilityRating":"No data","healthRiskLevel":"No data","areaKm2":1.539722,"centerLat":10.552806,"centerLng":123.999901,"geometrySource":"all_barangay-2.csv detailed WKT","geometryMatchMethod":"unique_official_admin_names","boundaryPointCount":37},"geometry":{"type":"MultiPolygon","coordinates":[[[[124.003281,10.55803],[124.003387,10.55758],[124.003387,10.55754],[124.003471,10.55723],[124.003571,10.55618],[124.004356,10.55496],[124.004707,10.55404],[124.005013,10.55329],[124.004982,10.55256],[124.004967,10.55215],[124.005096,10.55129],[124.005081,10.55089],[124.006409,10.54988],[124.006477,10.54947],[124.006973,10.54902],[124.007446,10.54857],[124.008682,10.54798],[124.008598,10.54755],[123.999359,10.54487],[123.998543,10.54515],[123.99736,10.54617],[123.996933,10.54632],[123.99617,10.54616],[123.995628,10.54698],[123.994873,10.5474],[123.99308,10.54767],[123.993668,10.54926],[123.993011,10.55383],[123.992996,10.55449],[123.992867,10.55528],[123.993317,10.55593],[123.99472,10.55737],[123.995033,10.5584],[123.995537,10.55896],[123.995903,10.5591],[123.996063,10.55938],[124.003281,10.55803]]]]}},{"type":"Feature","properties":{"ID_0":177,"ISO":"PHL","NAME_0":"Philippines","ID_1":7022,"NAME_1":"Cebu","ID_2":702223,"NAME_2":"Danao City","ID_3":702223008,"NAME_3":"Cahumayan","NL_NAME_3":null,"VARNAME_3":null,"TYPE_3":"Barangay","ENGTYPE_3":"Village","PROVINCE":"Cebu","REGION":"Region VII (Central Visayas)","id":"barangay-0702223008","name":"Cahumayan","barangayCode":"0702223008","population":null,"formattedPop":null,"densityCategory":"No data","vulnerabilityRating":"No data","healthRiskLevel":"No data","areaKm2":4.619554,"centerLat":10.563969,"centerLng":123.950399,"geometrySource":"all_barangay-2.csv detailed WKT","geometryMatchMethod":"unique_official_admin_names","boundaryPointCount":58},"geometry":{"type":"MultiPolygon","coordinates":[[[[123.987663,10.57275],[123.993446,10.57003],[123.996582,10.56844],[123.9944,10.55963],[123.996063,10.55938],[123.995903,10.5591],[123.995537,10.55896],[123.995033,10.5584],[123.99472,10.55737],[123.993317,10.55593],[123.992867,10.55528],[123.992996,10.55449],[123.993011,10.55383],[123.993668,10.54926],[123.99308,10.54767],[123.991432,10.54759],[123.99015,10.54762],[123.988693,10.54775],[123.987793,10.54768],[123.986229,10.54689],[123.985359,10.54634],[123.984451,10.54532],[123.983521,10.54396],[123.983162,10.54267],[123.982948,10.54106],[123.980957,10.54201],[123.978661,10.54333],[123.978333,10.54386],[123.978287,10.54391],[123.978073,10.54443],[123.977379,10.54529],[123.976753,10.54576],[123.97596,10.54665],[123.975693,10.54712],[123.975883,10.54868],[123.976212,10.54918],[123.976753,10.54986],[123.976997,10.55038],[123.977707,10.55148],[123.978523,10.5525],[123.979362,10.55338],[123.979172,10.55419],[123.978943,10.55471],[123.978683,10.55585],[123.978737,10.55688],[123.979118,10.55817],[123.979156,10.55928],[123.97953,10.56043],[123.980553,10.56186],[123.981033,10.56269],[123.98185,10.56355],[123.982819,10.56653],[123.983727,10.569],[123.985474,10.5713],[123.985771,10.57208],[123.986099,10.57292],[123.986412,10.57332],[123.987663,10.57275]]]]}},{"type":"Feature","properties":{"ID_0":177,"ISO":"PHL","NAME_0":"Philippines","ID_1":7022,"NAME_1":"Cebu","ID_2":702223,"NAME_2":"Danao City","ID_3":702223009,"NAME_3":"Cambanay","NL_NAME_3":null,"VARNAME_3":null,"TYPE_3":"Barangay","ENGTYPE_3":"Village","PROVINCE":"Cebu","REGION":"Region VII (Central Visayas)","id":"barangay-0702223009","name":"Cambanay","barangayCode":"0702223009","population":null,"formattedPop":null,"densityCategory":"No data","vulnerabilityRating":"No data","healthRiskLevel":"No data","areaKm2":2.138667,"centerLat":10.540506,"centerLng":124.007251,"geometrySource":"all_barangay-2.csv detailed WKT","geometryMatchMethod":"unique_official_admin_names","boundaryPointCount":28},"geometry":{"type":"MultiPolygon","coordinates":[[[[124.011917,10.54535],[124.012863,10.54467],[124.013077,10.54362],[124.013298,10.54312],[124.013367,10.54268],[124.012917,10.54229],[124.012657,10.54173],[124.01255,10.54146],[124.014168,10.54002],[124.016022,10.53898],[124.013939,10.53698],[123.9981,10.53585],[123.997963,10.53668],[123.997757,10.5378],[123.997658,10.53866],[123.997818,10.53989],[123.998039,10.54068],[123.998596,10.54163],[123.998947,10.54203],[123.999207,10.54245],[123.999443,10.54321],[123.999527,10.54362],[123.999359,10.54487],[124.008598,10.54755],[124.009148,10.54741],[124.009804,10.54724],[124.010696,10.54625],[124.011917,10.54535]]]]}},{"type":"Feature","properties":{"ID_0":177,"ISO":"PHL","NAME_0":"Philippines","ID_1":7022,"NAME_1":"Cebu","ID_2":702223,"NAME_2":"Danao City","ID_3":702223010,"NAME_3":"Cambubho","NL_NAME_3":null,"VARNAME_3":null,"TYPE_3":"Barangay","ENGTYPE_3":"Village","PROVINCE":"Cebu","REGION":"Region VII (Central Visayas)","id":"barangay-0702223010","name":"Cambubho","barangayCode":"0702223010","population":null,"formattedPop":null,"densityCategory":"No data","vulnerabilityRating":"No data","healthRiskLevel":"No data","areaKm2":4.967422,"centerLat":10.543466,"centerLng":123.881993,"geometrySource":"all_barangay-2.csv detailed WKT","geometryMatchMethod":"unique_official_admin_names","boundaryPointCount":214},"geometry":{"type":"MultiPolygon","coordinates":[[[[123.922157,10.55279],[123.921944,10.55246],[123.921806,10.55129],[123.921577,10.5502],[123.92205,10.54837],[123.922287,10.54711],[123.92218,10.54644],[123.921623,10.54539],[123.920929,10.54424],[123.915863,10.53597],[123.912697,10.52817],[123.902107,10.50093],[123.890839,10.50029],[123.890541,10.50116],[123.890266,10.50158],[123.889076,10.50171],[123.888031,10.50186],[123.886467,10.50203],[123.884933,10.50294],[123.884323,10.50382],[123.885063,10.50455],[123.886581,10.50446],[123.887466,10.50425],[123.887993,10.50477],[123.887733,10.50532],[123.886787,10.50594],[123.885384,10.50602],[123.884903,10.50598],[123.884323,10.50677],[123.884178,10.50768],[123.884407,10.50905],[123.885063,10.51034],[123.886177,10.51027],[123.88662,10.51109],[123.886467,10.51193],[123.885887,10.51275],[123.884621,10.51276],[123.88356,10.51334],[123.88131,10.51332],[123.881233,10.51384],[123.882172,10.51482],[123.883034,10.51615],[123.882492,10.51724],[123.882027,10.51738],[123.881241,10.51737],[123.88015,10.51715],[123.879311,10.51758],[123.878502,10.51764],[123.878288,10.51859],[123.877167,10.51945],[123.875397,10.51959],[123.874542,10.51892],[123.873718,10.51832],[123.873093,10.51828],[123.872459,10.51895],[123.871292,10.51843],[123.870506,10.5171],[123.869377,10.51683],[123.868103,10.51624],[123.867477,10.51491],[123.86644,10.5153],[123.866257,10.51673],[123.866158,10.51779],[123.866127,10.51811],[123.865646,10.51929],[123.864807,10.52028],[123.864243,10.52215],[123.864143,10.52268],[123.863647,10.52326],[123.861603,10.52423],[123.860031,10.52447],[123.858963,10.52321],[123.858208,10.52407],[123.859062,10.52581],[123.859688,10.52639],[123.860733,10.52648],[123.861633,10.5277],[123.861473,10.52816],[123.862221,10.52926],[123.861794,10.52978],[123.861481,10.53023],[123.86245,10.53095],[123.863136,10.53246],[123.862053,10.53313],[123.860748,10.53322],[123.860626,10.53447],[123.85955,10.53431],[123.858543,10.53434],[123.857857,10.53577],[123.857933,10.53648],[123.857307,10.53802],[123.857437,10.53924],[123.857307,10.54052],[123.856956,10.54143],[123.85704,10.54195],[123.857422,10.5421],[123.858292,10.54218],[123.858467,10.54192],[123.858543,10.5414],[123.858803,10.54067],[123.859306,10.54045],[123.859528,10.54093],[123.859398,10.54133],[123.859871,10.54159],[123.860298,10.54109],[123.860657,10.54088],[123.861107,10.54127],[123.861267,10.54197],[123.861992,10.5421],[123.86248,10.5416],[123.863136,10.54201],[123.862923,10.54247],[123.86335,10.54326],[123.863564,10.54336],[123.863991,10.54371],[123.864143,10.54414],[123.864761,10.54442],[123.865211,10.54399],[123.865387,10.54351],[123.865356,10.54285],[123.865547,10.54225],[123.86628,10.54209],[123.866577,10.54276],[123.866898,10.54297],[123.867661,10.54283],[123.868179,10.5426],[123.868782,10.54211],[123.868919,10.54145],[123.868729,10.54121],[123.868347,10.54161],[123.867691,10.54141],[123.867661,10.54074],[123.867859,10.54023],[123.867401,10.53982],[123.867363,10.53877],[123.868027,10.53879],[123.868553,10.53848],[123.869247,10.53747],[123.869873,10.53707],[123.870941,10.5361],[123.870842,10.53587],[123.86985,10.5357],[123.869926,10.53518],[123.869583,10.53444],[123.869827,10.53373],[123.87059,10.5342],[123.871773,10.53263],[123.872643,10.53278],[123.873367,10.53338],[123.874237,10.53321],[123.874779,10.53311],[123.875717,10.53335],[123.876343,10.53275],[123.877213,10.5316],[123.877739,10.53162],[123.877922,10.53195],[123.877609,10.53229],[123.877876,10.53257],[123.878799,10.53291],[123.879173,10.53274],[123.879517,10.53243],[123.880379,10.53272],[123.880859,10.53262],[123.881477,10.53245],[123.881889,10.53205],[123.881523,10.53144],[123.881973,10.53059],[123.882469,10.5305],[123.883133,10.53059],[123.883171,10.52978],[123.883141,10.52942],[123.883926,10.52906],[123.884521,10.52966],[123.884933,10.52851],[123.885429,10.52817],[123.885834,10.52855],[123.88588,10.52907],[123.886337,10.52935],[123.886803,10.52888],[123.887253,10.5281],[123.887627,10.5279],[123.88829,10.52895],[123.889137,10.52988],[123.88945,10.53067],[123.890213,10.53098],[123.890831,10.5314],[123.890877,10.53209],[123.891403,10.53278],[123.892036,10.53302],[123.896271,10.53302],[123.896843,10.53335],[123.898499,10.5345],[123.898514,10.5354],[123.898453,10.53634],[123.898987,10.5372],[123.899429,10.53788],[123.899467,10.53881],[123.900398,10.53935],[123.901413,10.53973],[123.901871,10.5403],[123.901962,10.54096],[123.901871,10.54265],[123.902237,10.54408],[123.902191,10.54593],[123.902283,10.54711],[123.902443,10.54736],[123.903397,10.54882],[123.904556,10.55067],[123.90551,10.55158],[123.906677,10.55249],[123.907532,10.55346],[123.908234,10.55497],[123.908836,10.55575],[123.922157,10.55279]]]]}},{"type":"Feature","properties":{"ID_0":177,"ISO":"PHL","NAME_0":"Philippines","ID_1":7022,"NAME_1":"Cebu","ID_2":702223,"NAME_2":"Danao City","ID_3":702223011,"NAME_3":"Cogon-Cruz","NL_NAME_3":null,"VARNAME_3":null,"TYPE_3":"Barangay","ENGTYPE_3":"Village","PROVINCE":"Cebu","REGION":"Region VII (Central Visayas)","id":"barangay-0702223011","name":"Cogon-Cruz","barangayCode":"0702223011","population":null,"formattedPop":null,"densityCategory":"No data","vulnerabilityRating":"No data","healthRiskLevel":"No data","areaKm2":2.977538,"centerLat":10.514564,"centerLng":124.001516,"geometrySource":"all_barangay-2.csv detailed WKT","geometryMatchMethod":"unique_official_admin_names","boundaryPointCount":56},"geometry":{"type":"MultiPolygon","coordinates":[[[[124.004913,10.52993],[124.004997,10.53037],[124.00486,10.53074],[124.004936,10.53125],[124.005592,10.53126],[124.005951,10.53077],[124.006554,10.53099],[124.006828,10.53097],[124.007317,10.5306],[124.008293,10.53064],[124.008888,10.53081],[124.00975,10.53159],[124.010193,10.53191],[124.011337,10.53168],[124.012192,10.53138],[124.013107,10.53099],[124.013351,10.53089],[124.013878,10.53027],[124.013901,10.53],[124.013786,10.52886],[124.012917,10.52798],[124.013329,10.52701],[124.01403,10.52675],[124.014572,10.52691],[124.015732,10.52634],[124.016289,10.52555],[124.015991,10.52541],[124.015747,10.52529],[124.015152,10.52478],[124.014359,10.52444],[124.013977,10.52438],[124.013863,10.52409],[124.013763,10.5238],[124.014267,10.52301],[124.014763,10.52263],[124.015251,10.52202],[124.015427,10.52151],[124.015572,10.52112],[124.015503,10.5208],[124.015503,10.52052],[124.01516,10.52011],[124.014702,10.52007],[124.014427,10.52014],[124.013474,10.51985],[124.012611,10.51932],[124.002243,10.52231],[124.002518,10.5272],[124.003143,10.52739],[124.003693,10.52763],[124.004173,10.52774],[124.004677,10.52775],[124.005402,10.52786],[124.005867,10.52827],[124.005959,10.52895],[124.005737,10.52936],[124.004913,10.52993]]]]}},{"type":"Feature","properties":{"ID_0":177,"ISO":"PHL","NAME_0":"Philippines","ID_1":7022,"NAME_1":"Cebu","ID_2":702223,"NAME_2":"Danao City","ID_3":702223012,"NAME_3":"Danasan","NL_NAME_3":null,"VARNAME_3":null,"TYPE_3":"Barangay","ENGTYPE_3":"Village","PROVINCE":"Cebu","REGION":"Region VII (Central Visayas)","id":"barangay-0702223012","name":"Danasan","barangayCode":"0702223012","population":null,"formattedPop":null,"densityCategory":"No data","vulnerabilityRating":"No data","healthRiskLevel":"No data","areaKm2":9.1384,"centerLat":10.560966,"centerLng":123.858101,"geometrySource":"all_barangay-2.csv detailed WKT","geometryMatchMethod":"unique_official_admin_names","boundaryPointCount":50},"geometry":{"type":"MultiPolygon","coordinates":[[[[123.93998,10.57333],[123.940826,10.57317],[123.941772,10.57316],[123.942253,10.57276],[123.941978,10.57198],[123.940392,10.57108],[123.940018,10.57077],[123.939323,10.56974],[123.939217,10.56939],[123.93914,10.568],[123.939362,10.56725],[123.940361,10.56633],[123.941269,10.56532],[123.941856,10.56434],[123.941978,10.56341],[123.941177,10.56261],[123.940193,10.5617],[123.939087,10.56095],[123.938187,10.5606],[123.936821,10.56022],[123.93573,10.55964],[123.933601,10.55818],[123.932854,10.55744],[123.932198,10.55675],[123.931351,10.55605],[123.930496,10.55562],[123.922157,10.55279],[123.908836,10.55575],[123.917313,10.5766],[123.918457,10.57969],[123.920113,10.58335],[123.922684,10.58159],[123.923782,10.5807],[123.924713,10.57963],[123.924988,10.57875],[123.925323,10.57794],[123.926521,10.57696],[123.927849,10.57659],[123.929382,10.57565],[123.929977,10.57458],[123.930344,10.57305],[123.930389,10.57203],[123.93132,10.57186],[123.932663,10.57176],[123.933968,10.57197],[123.934837,10.57263],[123.935768,10.57312],[123.937088,10.57329],[123.938789,10.57356],[123.93998,10.57333]]]]}},{"type":"Feature","properties":{"ID_0":177,"ISO":"PHL","NAME_0":"Philippines","ID_1":7022,"NAME_1":"Cebu","ID_2":702223,"NAME_2":"Danao City","ID_3":702223013,"NAME_3":"Dungga","NL_NAME_3":null,"VARNAME_3":null,"TYPE_3":"Barangay","ENGTYPE_3":"Village","PROVINCE":"Cebu","REGION":"Region VII (Central Visayas)","id":"barangay-0702223013","name":"Dungga","barangayCode":"0702223013","population":null,"formattedPop":null,"densityCategory":"No data","vulnerabilityRating":"No data","healthRiskLevel":"No data","areaKm2":3.444012,"centerLat":10.547766,"centerLng":123.942372,"geometrySource":"all_barangay-2.csv detailed WKT","geometryMatchMethod":"unique_official_admin_names","boundaryPointCount":49},"geometry":{"type":"MultiPolygon","coordinates":[[[[123.981033,10.56269],[123.980553,10.56186],[123.97953,10.56043],[123.979156,10.55928],[123.979118,10.55817],[123.978737,10.55688],[123.978683,10.55585],[123.978943,10.55471],[123.979172,10.55419],[123.979362,10.55338],[123.978523,10.5525],[123.977707,10.55148],[123.976997,10.55038],[123.976753,10.54986],[123.976212,10.54918],[123.975883,10.54868],[123.975761,10.54904],[123.975853,10.54967],[123.975372,10.55036],[123.97477,10.55037],[123.973824,10.55064],[123.973083,10.55139],[123.972816,10.5524],[123.973038,10.55304],[123.972382,10.55389],[123.972054,10.55495],[123.971764,10.55587],[123.971024,10.55599],[123.969994,10.55559],[123.969261,10.55549],[123.968338,10.55561],[123.967522,10.55551],[123.966202,10.55534],[123.964989,10.55518],[123.965973,10.55622],[123.966431,10.55665],[123.966904,10.55734],[123.967087,10.55804],[123.966858,10.55908],[123.966667,10.56018],[123.966049,10.56121],[123.967033,10.56128],[123.968964,10.56243],[123.970497,10.56268],[123.972687,10.5629],[123.975311,10.56262],[123.977898,10.56304],[123.979233,10.56302],[123.981033,10.56269]]]]}},{"type":"Feature","properties":{"ID_0":177,"ISO":"PHL","NAME_0":"Philippines","ID_1":7022,"NAME_1":"Cebu","ID_2":702223,"NAME_2":"Danao City","ID_3":702223014,"NAME_3":"Dunggoan","NL_NAME_3":null,"VARNAME_3":null,"TYPE_3":"Barangay","ENGTYPE_3":"Village","PROVINCE":"Cebu","REGION":"Region VII (Central Visayas)","id":"barangay-0702223014","name":"Dunggoan","barangayCode":"0702223014","population":null,"formattedPop":null,"densityCategory":"No data","vulnerabilityRating":"No data","healthRiskLevel":"No data","areaKm2":3.241357,"centerLat":10.557979,"centerLng":124.015638,"geometrySource":"all_barangay-2.csv detailed WKT","geometryMatchMethod":"unique_official_admin_names","boundaryPointCount":38},"geometry":{"type":"MultiPolygon","coordinates":[[[[124.003281,10.55803],[124.002693,10.56022],[124.0028,10.56066],[124.002831,10.56077],[124.003029,10.56154],[124.003662,10.56255],[124.004173,10.56397],[124.00695,10.56202],[124.012642,10.55841],[124.022369,10.55404],[124.025459,10.55328],[124.025787,10.55336],[124.025833,10.55312],[124.025833,10.55284],[124.026176,10.55262],[124.025864,10.55235],[124.011917,10.54535],[124.010696,10.54625],[124.009804,10.54724],[124.009148,10.54741],[124.008598,10.54755],[124.008682,10.54798],[124.007446,10.54857],[124.006973,10.54902],[124.006477,10.54947],[124.006409,10.54988],[124.005081,10.55089],[124.005096,10.55129],[124.004967,10.55215],[124.004982,10.55256],[124.005013,10.55329],[124.004707,10.55404],[124.004356,10.55496],[124.003571,10.55618],[124.003471,10.55723],[124.003387,10.55754],[124.003387,10.55758],[124.003281,10.55803]]]]}},{"type":"Feature","properties":{"ID_0":177,"ISO":"PHL","NAME_0":"Philippines","ID_1":7022,"NAME_1":"Cebu","ID_2":702223,"NAME_2":"Danao City","ID_3":702223015,"NAME_3":"Guinacot","NL_NAME_3":null,"VARNAME_3":null,"TYPE_3":"Barangay","ENGTYPE_3":"Village","PROVINCE":"Cebu","REGION":"Region VII (Central Visayas)","id":"barangay-0702223015","name":"Guinacot","barangayCode":"0702223015","population":null,"formattedPop":null,"densityCategory":"No data","vulnerabilityRating":"No data","healthRiskLevel":"No data","areaKm2":2.571307,"centerLat":10.526394,"centerLng":124.001003,"geometrySource":"all_barangay-2.csv detailed WKT","geometryMatchMethod":"unique_official_admin_names","boundaryPointCount":64},"geometry":{"type":"MultiPolygon","coordinates":[[[[123.997253,10.53127],[123.997597,10.53114],[123.999603,10.53116],[124.000397,10.53112],[124.001244,10.53076],[124.002136,10.53075],[124.003281,10.53113],[124.004059,10.53063],[124.004417,10.53003],[124.004913,10.52993],[124.005737,10.52936],[124.005959,10.52895],[124.005867,10.52827],[124.005402,10.52786],[124.004677,10.52775],[124.004173,10.52774],[124.003693,10.52763],[124.003143,10.52739],[124.002518,10.5272],[124.002243,10.52231],[124.001518,10.5227],[124.000458,10.52254],[123.999443,10.52226],[123.998573,10.52182],[123.997803,10.5212],[123.996964,10.52051],[123.996178,10.51989],[123.995773,10.51955],[123.995407,10.51923],[123.994614,10.5188],[123.993446,10.51837],[123.992012,10.51788],[123.991257,10.51775],[123.990387,10.51769],[123.989883,10.51766],[123.988503,10.51807],[123.987473,10.51809],[123.986366,10.51839],[123.986702,10.51928],[123.987183,10.52028],[123.987556,10.52161],[123.987663,10.52187],[123.987671,10.52273],[123.987679,10.52346],[123.988228,10.52475],[123.987823,10.52574],[123.988113,10.52613],[123.988548,10.52645],[123.988907,10.52648],[123.989059,10.52661],[123.989357,10.52688],[123.989487,10.5273],[123.989464,10.52792],[123.989777,10.52875],[123.990067,10.52954],[123.990044,10.52998],[123.990387,10.53068],[123.990517,10.53081],[123.991127,10.53097],[123.991737,10.53155],[123.99192,10.53177],[123.992043,10.53214],[123.992279,10.53256],[123.997253,10.53127]]]]}},{"type":"Feature","properties":{"ID_0":177,"ISO":"PHL","NAME_0":"Philippines","ID_1":7022,"NAME_1":"Cebu","ID_2":702223,"NAME_2":"Danao City","ID_3":702223016,"NAME_3":"Guinsay","NL_NAME_3":null,"VARNAME_3":null,"TYPE_3":"Barangay","ENGTYPE_3":"Village","PROVINCE":"Cebu","REGION":"Region VII (Central Visayas)","id":"barangay-0702223016","name":"Guinsay","barangayCode":"0702223016","population":null,"formattedPop":null,"densityCategory":"No data","vulnerabilityRating":"No data","healthRiskLevel":"No data","areaKm2":4.021962,"centerLat":10.545241,"centerLng":124.023076,"geometrySource":"all_barangay-2.csv detailed WKT","geometryMatchMethod":"unique_official_admin_names","boundaryPointCount":78},"geometry":{"type":"MultiPolygon","coordinates":[[[[124.026176,10.55262],[124.026672,10.55231],[124.028633,10.55203],[124.029671,10.5519],[124.030357,10.55259],[124.030647,10.55342],[124.030731,10.55363],[124.030792,10.55377],[124.030922,10.55411],[124.031616,10.55473],[124.032318,10.5548],[124.032738,10.55466],[124.033577,10.55432],[124.03434,10.55411],[124.03476,10.55487],[124.034828,10.55591],[124.03476,10.55736],[124.034027,10.55813],[124.03392,10.55826],[124.033577,10.55915],[124.033432,10.55985],[124.033432,10.56095],[124.033653,10.56143],[124.034203,10.56185],[124.035042,10.56137],[124.035454,10.56012],[124.035797,10.5577],[124.035667,10.55674],[124.035942,10.55549],[124.036499,10.55459],[124.036621,10.55398],[124.037132,10.55134],[124.036774,10.54936],[124.036636,10.54872],[124.036812,10.5481],[124.037064,10.5472],[124.036919,10.5463],[124.035744,10.54575],[124.034691,10.54519],[124.034241,10.54471],[124.033577,10.54402],[124.033417,10.54356],[124.033287,10.5432],[124.033257,10.54316],[124.033073,10.54258],[124.032928,10.54219],[124.033073,10.5422],[124.032898,10.54183],[124.032784,10.54142],[124.032661,10.54096],[124.032471,10.54048],[124.032303,10.53994],[124.032173,10.53935],[124.031937,10.53887],[124.03167,10.53843],[124.031349,10.53801],[124.030991,10.53765],[124.030144,10.53801],[124.029083,10.53811],[124.028969,10.53808],[124.025398,10.53788],[124.025467,10.5356],[124.019867,10.53774],[124.017967,10.53788],[124.017616,10.53815],[124.017212,10.53846],[124.016022,10.53898],[124.014168,10.54002],[124.01255,10.54146],[124.012657,10.54173],[124.012917,10.54229],[124.013367,10.54268],[124.013298,10.54312],[124.013077,10.54362],[124.012863,10.54467],[124.011917,10.54535],[124.025864,10.55235],[124.026176,10.55262]]]]}},{"type":"Feature","properties":{"ID_0":177,"ISO":"PHL","NAME_0":"Philippines","ID_1":7022,"NAME_1":"Cebu","ID_2":702223,"NAME_2":"Danao City","ID_3":702223017,"NAME_3":"Ibo","NL_NAME_3":null,"VARNAME_3":null,"TYPE_3":"Barangay","ENGTYPE_3":"Village","PROVINCE":"Cebu","REGION":"Region VII (Central Visayas)","id":"barangay-0702223017","name":"Ibo","barangayCode":"0702223017","population":null,"formattedPop":null,"densityCategory":"No data","vulnerabilityRating":"No data","healthRiskLevel":"No data","areaKm2":2.939016,"centerLat":10.52306,"centerLng":123.958454,"geometrySource":"all_barangay-2.csv detailed WKT","geometryMatchMethod":"unique_official_admin_names","boundaryPointCount":56},"geometry":{"type":"MultiPolygon","coordinates":[[[[123.96154,10.54064],[123.962143,10.53933],[123.961967,10.53903],[123.962044,10.53885],[123.962067,10.53796],[123.9618,10.53661],[123.962044,10.5363],[123.962883,10.53543],[123.963371,10.53356],[123.963737,10.53281],[123.964607,10.53233],[123.964912,10.53125],[123.96521,10.52989],[123.966133,10.52903],[123.966141,10.5286],[123.966888,10.52721],[123.967567,10.52667],[123.967644,10.52594],[123.968422,10.52643],[123.969238,10.52657],[123.969994,10.52648],[123.971062,10.52658],[123.971603,10.52684],[123.972481,10.52755],[123.97332,10.52825],[123.974358,10.52876],[123.975143,10.52889],[123.976097,10.52869],[123.976357,10.52819],[123.977493,10.52719],[123.977997,10.52731],[123.978104,10.52709],[123.977829,10.52674],[123.97628,10.52652],[123.975708,10.5255],[123.974701,10.52484],[123.973907,10.52413],[123.973244,10.52316],[123.972954,10.52258],[123.97229,10.52069],[123.972,10.5201],[123.970581,10.52002],[123.969711,10.5202],[123.968132,10.52033],[123.966667,10.51986],[123.964928,10.51919],[123.963867,10.51866],[123.96151,10.51822],[123.958832,10.51791],[123.956757,10.51808],[123.954987,10.51843],[123.953857,10.51916],[123.953423,10.52053],[123.9534,10.52162],[123.953331,10.53455],[123.96154,10.54064]]]]}},{"type":"Feature","properties":{"ID_0":177,"ISO":"PHL","NAME_0":"Philippines","ID_1":7022,"NAME_1":"Cebu","ID_2":702223,"NAME_2":"Danao City","ID_3":702223018,"NAME_3":"Langosig","NL_NAME_3":null,"VARNAME_3":null,"TYPE_3":"Barangay","ENGTYPE_3":"Village","PROVINCE":"Cebu","REGION":"Region VII (Central Visayas)","id":"barangay-0702223018","name":"Langosig","barangayCode":"0702223018","population":null,"formattedPop":null,"densityCategory":"No data","vulnerabilityRating":"No data","healthRiskLevel":"No data","areaKm2":4.955748,"centerLat":10.518265,"centerLng":123.90642,"geometrySource":"all_barangay-2.csv detailed WKT","geometryMatchMethod":"unique_official_admin_names","boundaryPointCount":7},"geometry":{"type":"MultiPolygon","coordinates":[[[[123.934837,10.53475],[123.918091,10.50114],[123.902107,10.50093],[123.912697,10.52817],[123.915863,10.53597],[123.920929,10.54424],[123.934837,10.53475]]]]}},{"type":"Feature","properties":{"ID_0":177,"ISO":"PHL","NAME_0":"Philippines","ID_1":7022,"NAME_1":"Cebu","ID_2":702223,"NAME_2":"Danao City","ID_3":702223019,"NAME_3":"Lawaan","NL_NAME_3":null,"VARNAME_3":null,"TYPE_3":"Barangay","ENGTYPE_3":"Village","PROVINCE":"Cebu","REGION":"Region VII (Central Visayas)","id":"barangay-0702223019","name":"Lawaan","barangayCode":"0702223019","population":null,"formattedPop":null,"densityCategory":"No data","vulnerabilityRating":"No data","healthRiskLevel":"No data","areaKm2":5.92358,"centerLat":10.546227,"centerLng":123.903686,"geometrySource":"all_barangay-2.csv detailed WKT","geometryMatchMethod":"unique_official_admin_names","boundaryPointCount":50},"geometry":{"type":"MultiPolygon","coordinates":[[[[123.941978,10.56341],[123.944221,10.56154],[123.944794,10.56173],[123.945351,10.56173],[123.946053,10.56154],[123.946732,10.56289],[123.946312,10.5634],[123.94622,10.56366],[123.946388,10.56394],[123.946617,10.56392],[123.947304,10.56348],[123.947723,10.56264],[123.948242,10.56256],[123.948387,10.5616],[123.94899,10.56158],[123.949829,10.56037],[123.949417,10.55896],[123.950493,10.55328],[123.949867,10.55341],[123.949089,10.55338],[123.947723,10.5531],[123.946632,10.55267],[123.945824,10.55221],[123.944107,10.55097],[123.943558,10.55073],[123.942574,10.55056],[123.941147,10.55066],[123.94046,10.55093],[123.939789,10.55108],[123.939034,10.55156],[123.937698,10.55221],[123.936287,10.55285],[123.935364,10.55313],[123.934151,10.5533],[123.932632,10.55342],[123.931732,10.55419],[123.93071,10.55415],[123.930298,10.55487],[123.930496,10.55562],[123.931351,10.55605],[123.932198,10.55675],[123.932854,10.55744],[123.933601,10.55818],[123.93573,10.55964],[123.936821,10.56022],[123.938187,10.5606],[123.939087,10.56095],[123.940193,10.5617],[123.941177,10.56261],[123.941978,10.56341]]]]}},{"type":"Feature","properties":{"ID_0":177,"ISO":"PHL","NAME_0":"Philippines","ID_1":7022,"NAME_1":"Cebu","ID_2":702223,"NAME_2":"Danao City","ID_3":702223020,"NAME_3":"Licos","NL_NAME_3":null,"VARNAME_3":null,"TYPE_3":"Barangay","ENGTYPE_3":"Village","PROVINCE":"Cebu","REGION":"Region VII (Central Visayas)","id":"barangay-0702223020","name":"Licos","barangayCode":"0702223020","population":null,"formattedPop":null,"densityCategory":"No data","vulnerabilityRating":"No data","healthRiskLevel":"No data","areaKm2":7.600453,"centerLat":10.502026,"centerLng":123.916063,"geometrySource":"all_barangay-2.csv detailed WKT","geometryMatchMethod":"unique_official_admin_names","boundaryPointCount":6},"geometry":{"type":"MultiPolygon","coordinates":[[[[123.944489,10.53955],[123.953331,10.53455],[123.9534,10.52162],[123.934837,10.53475],[123.938828,10.53721],[123.944489,10.53955]]]]}},{"type":"Feature","properties":{"ID_0":177,"ISO":"PHL","NAME_0":"Philippines","ID_1":7022,"NAME_1":"Cebu","ID_2":702223,"NAME_2":"Danao City","ID_3":702223021,"NAME_3":"Looc","NL_NAME_3":null,"VARNAME_3":null,"TYPE_3":"Barangay","ENGTYPE_3":"Village","PROVINCE":"Cebu","REGION":"Region VII (Central Visayas)","id":"barangay-0702223021","name":"Looc","barangayCode":"0702223021","population":null,"formattedPop":null,"densityCategory":"No data","vulnerabilityRating":"No data","healthRiskLevel":"No data","areaKm2":1.495471,"centerLat":10.5087,"centerLng":124.022113,"geometrySource":"all_barangay-2.csv detailed WKT","geometryMatchMethod":"unique_official_admin_names","boundaryPointCount":33},"geometry":{"type":"MultiPolygon","coordinates":[[[[124.028877,10.51686],[124.028839,10.51629],[124.028687,10.51573],[124.028664,10.51561],[124.028526,10.51488],[124.028374,10.51435],[124.028297,10.51413],[124.028091,10.51341],[124.028053,10.51267],[124.028084,10.51198],[124.028214,10.51138],[124.028313,10.51085],[124.028374,10.51034],[124.028557,10.50991],[124.028717,10.50947],[124.028908,10.50906],[124.029167,10.50871],[124.029449,10.50838],[124.029747,10.50806],[124.018257,10.50782],[124.018478,10.50958],[124.018707,10.51088],[124.01918,10.51232],[124.018959,10.51397],[124.019814,10.51982],[124.022377,10.519],[124.022614,10.51889],[124.023453,10.51851],[124.026413,10.51756],[124.027924,10.51708],[124.028633,10.517],[124.028664,10.51698],[124.028877,10.51686]]]]}},{"type":"Feature","properties":{"ID_0":177,"ISO":"PHL","NAME_0":"Philippines","ID_1":7022,"NAME_1":"Cebu","ID_2":702223,"NAME_2":"Danao City","ID_3":702223022,"NAME_3":"Magtagobtob","NL_NAME_3":null,"VARNAME_3":null,"TYPE_3":"Barangay","ENGTYPE_3":"Village","PROVINCE":"Cebu","REGION":"Region VII (Central Visayas)","id":"barangay-0702223022","name":"Magtagobtob","barangayCode":"0702223022","population":null,"formattedPop":null,"densityCategory":"No data","vulnerabilityRating":"No data","healthRiskLevel":"No data","areaKm2":7.839984,"centerLat":10.564853,"centerLng":123.895695,"geometrySource":"all_barangay-2.csv detailed WKT","geometryMatchMethod":"unique_official_admin_names","boundaryPointCount":84},"geometry":{"type":"MultiPolygon","coordinates":[[[[123.961533,10.5838],[123.964417,10.58254],[123.964363,10.58244],[123.963966,10.58171],[123.963379,10.58088],[123.96302,10.58027],[123.963043,10.5794],[123.962883,10.57884],[123.96209,10.57806],[123.961533,10.57774],[123.96138,10.57671],[123.961632,10.57617],[123.962082,10.57534],[123.961853,10.57448],[123.961548,10.5738],[123.961937,10.57224],[123.962387,10.57156],[123.962112,10.57092],[123.962547,10.57053],[123.962288,10.56932],[123.962677,10.56805],[123.96199,10.56754],[123.958542,10.56629],[123.957077,10.56548],[123.956619,10.56483],[123.955276,10.56499],[123.95462,10.56408],[123.953903,10.56317],[123.953117,10.5628],[123.952362,10.56224],[123.951424,10.56103],[123.950882,10.56046],[123.950203,10.56009],[123.949829,10.56037],[123.94899,10.56158],[123.948387,10.5616],[123.948242,10.56256],[123.947723,10.56264],[123.947304,10.56348],[123.946617,10.56392],[123.946388,10.56394],[123.94622,10.56366],[123.946312,10.5634],[123.946732,10.56289],[123.946053,10.56154],[123.945351,10.56173],[123.944794,10.56173],[123.944221,10.56154],[123.941978,10.56341],[123.941856,10.56434],[123.941269,10.56532],[123.940361,10.56633],[123.939362,10.56725],[123.93914,10.568],[123.939217,10.56939],[123.939323,10.56974],[123.940018,10.57077],[123.940392,10.57108],[123.941978,10.57198],[123.942253,10.57276],[123.941772,10.57316],[123.940826,10.57317],[123.93998,10.57333],[123.941063,10.57414],[123.941307,10.57485],[123.941544,10.57561],[123.942039,10.57646],[123.942818,10.57752],[123.943398,10.57841],[123.94529,10.58114],[123.945763,10.58202],[123.945992,10.58318],[123.946289,10.58366],[123.946564,10.58435],[123.946426,10.58529],[123.946922,10.58603],[123.94693,10.58685],[123.94725,10.58735],[123.947617,10.58762],[123.948029,10.58832],[123.948402,10.58878],[123.951103,10.5876],[123.956512,10.58577],[123.961533,10.5838]]]]}},{"type":"Feature","properties":{"ID_0":177,"ISO":"PHL","NAME_0":"Philippines","ID_1":7022,"NAME_1":"Cebu","ID_2":702223,"NAME_2":"Danao City","ID_3":702223023,"NAME_3":"Malapoc","NL_NAME_3":null,"VARNAME_3":null,"TYPE_3":"Barangay","ENGTYPE_3":"Village","PROVINCE":"Cebu","REGION":"Region VII (Central Visayas)","id":"barangay-0702223023","name":"Malapoc","barangayCode":"0702223023","population":null,"formattedPop":null,"densityCategory":"No data","vulnerabilityRating":"No data","healthRiskLevel":"No data","areaKm2":1.735823,"centerLat":10.533592,"centerLng":123.999163,"geometrySource":"all_barangay-2.csv detailed WKT","geometryMatchMethod":"unique_official_admin_names","boundaryPointCount":31},"geometry":{"type":"MultiPolygon","coordinates":[[[[124.013939,10.53698],[124.013351,10.53089],[124.013107,10.53099],[124.012192,10.53138],[124.011337,10.53168],[124.010193,10.53191],[124.00975,10.53159],[124.008888,10.53081],[124.008293,10.53064],[124.007317,10.5306],[124.006828,10.53097],[124.006554,10.53099],[124.005951,10.53077],[124.005592,10.53126],[124.004936,10.53125],[124.00486,10.53074],[124.004997,10.53037],[124.004913,10.52993],[124.004417,10.53003],[124.004059,10.53063],[124.003281,10.53113],[124.002136,10.53075],[124.001244,10.53076],[124.000397,10.53112],[123.999603,10.53116],[123.997597,10.53114],[123.997253,10.53127],[123.998268,10.53413],[123.997887,10.5347],[123.9981,10.53585],[124.013939,10.53698]]]]}},{"type":"Feature","properties":{"ID_0":177,"ISO":"PHL","NAME_0":"Philippines","ID_1":7022,"NAME_1":"Cebu","ID_2":702223,"NAME_2":"Danao City","ID_3":702223024,"NAME_3":"Manlayag","NL_NAME_3":null,"VARNAME_3":null,"TYPE_3":"Barangay","ENGTYPE_3":"Village","PROVINCE":"Cebu","REGION":"Region VII (Central Visayas)","id":"barangay-0702223024","name":"Manlayag","barangayCode":"0702223024","population":null,"formattedPop":null,"densityCategory":"No data","vulnerabilityRating":"No data","healthRiskLevel":"No data","areaKm2":4.412422,"centerLat":10.503725,"centerLng":123.977081,"geometrySource":"all_barangay-2.csv detailed WKT","geometryMatchMethod":"unique_official_admin_names","boundaryPointCount":73},"geometry":{"type":"MultiPolygon","coordinates":[[[[123.969597,10.51219],[123.970451,10.51112],[123.971184,10.5103],[123.971764,10.50923],[123.972031,10.50889],[123.972923,10.50794],[123.97377,10.50767],[123.975128,10.50795],[123.975937,10.50854],[123.976646,10.50838],[123.977402,10.50859],[123.97831,10.50928],[123.979118,10.51011],[123.980583,10.51069],[123.981567,10.5107],[123.981918,10.51072],[123.98233,10.51074],[123.983704,10.50954],[123.984306,10.50912],[123.984917,10.50926],[123.985283,10.5095],[123.986137,10.51018],[123.986748,10.51072],[123.987839,10.51181],[123.988289,10.51226],[123.989014,10.51244],[123.989471,10.51229],[123.989861,10.51245],[123.990158,10.51318],[123.990417,10.51327],[123.990517,10.51301],[123.991051,10.51169],[123.991043,10.51104],[123.991959,10.51064],[123.992157,10.51028],[123.992104,10.50974],[123.992554,10.50947],[123.992813,10.51001],[123.993591,10.50967],[123.993477,10.50789],[123.993294,10.50633],[123.992859,10.50473],[123.992393,10.50336],[123.992043,10.50185],[123.991531,10.5],[123.990837,10.49807],[123.990257,10.49613],[123.989464,10.49385],[123.9879,10.49191],[123.980408,10.49459],[123.970169,10.4992],[123.967491,10.50044],[123.960793,10.50339],[123.961838,10.50457],[123.962311,10.50493],[123.962914,10.50529],[123.963127,10.5059],[123.963783,10.50638],[123.964111,10.50706],[123.964447,10.50791],[123.964706,10.50777],[123.964996,10.50846],[123.965523,10.50884],[123.96563,10.50936],[123.965958,10.50966],[123.966782,10.50948],[123.96727,10.51005],[123.967346,10.51061],[123.967918,10.51116],[123.968628,10.51096],[123.969116,10.51116],[123.969276,10.51126],[123.969597,10.51219]]]]}},{"type":"Feature","properties":{"ID_0":177,"ISO":"PHL","NAME_0":"Philippines","ID_1":7022,"NAME_1":"Cebu","ID_2":702223,"NAME_2":"Danao City","ID_3":702223025,"NAME_3":"Mantija","NL_NAME_3":null,"VARNAME_3":null,"TYPE_3":"Barangay","ENGTYPE_3":"Village","PROVINCE":"Cebu","REGION":"Region VII (Central Visayas)","id":"barangay-0702223025","name":"Mantija","barangayCode":"0702223025","population":null,"formattedPop":null,"densityCategory":"No data","vulnerabilityRating":"No data","healthRiskLevel":"No data","areaKm2":4.322027,"centerLat":10.540566,"centerLng":123.954463,"geometrySource":"all_barangay-2.csv detailed WKT","geometryMatchMethod":"unique_official_admin_names","boundaryPointCount":13},"geometry":{"type":"MultiPolygon","coordinates":[[[[123.950493,10.55328],[123.953621,10.5532],[123.956238,10.55325],[123.957932,10.55367],[123.961693,10.55516],[123.964989,10.55518],[123.95871,10.54849],[123.957039,10.54643],[123.951797,10.54222],[123.944489,10.53955],[123.945839,10.54438],[123.947487,10.54817],[123.950493,10.55328]]]]}},{"type":"Feature","properties":{"ID_0":177,"ISO":"PHL","NAME_0":"Philippines","ID_1":7022,"NAME_1":"Cebu","ID_2":702223,"NAME_2":"Danao City","ID_3":702223026,"NAME_3":"Masaba","NL_NAME_3":null,"VARNAME_3":null,"TYPE_3":"Barangay","ENGTYPE_3":"Village","PROVINCE":"Cebu","REGION":"Region VII (Central Visayas)","id":"barangay-0702223026","name":"Masaba","barangayCode":"0702223026","population":null,"formattedPop":null,"densityCategory":"No data","vulnerabilityRating":"No data","healthRiskLevel":"No data","areaKm2":4.127064,"centerLat":10.550501,"centerLng":123.967957,"geometrySource":"all_barangay-2.csv detailed WKT","geometryMatchMethod":"unique_official_admin_names","boundaryPointCount":50},"geometry":{"type":"MultiPolygon","coordinates":[[[[123.975883,10.54868],[123.975693,10.54712],[123.97596,10.54665],[123.976753,10.54576],[123.977379,10.54529],[123.978073,10.54443],[123.978287,10.54391],[123.978333,10.54386],[123.976418,10.53886],[123.975807,10.5401],[123.975121,10.54046],[123.974113,10.54141],[123.97332,10.54137],[123.971481,10.54139],[123.970573,10.54149],[123.969612,10.54213],[123.96904,10.54223],[123.968613,10.54174],[123.967911,10.54165],[123.96727,10.54123],[123.966713,10.54112],[123.965767,10.54125],[123.964523,10.54179],[123.963829,10.54198],[123.963333,10.54231],[123.962631,10.54294],[123.962151,10.54391],[123.961151,10.54544],[123.960327,10.5464],[123.957039,10.54643],[123.95871,10.54849],[123.964989,10.55518],[123.966202,10.55534],[123.967522,10.55551],[123.968338,10.55561],[123.969261,10.55549],[123.969994,10.55559],[123.971024,10.55599],[123.971764,10.55587],[123.972054,10.55495],[123.972382,10.55389],[123.973038,10.55304],[123.972816,10.5524],[123.973083,10.55139],[123.973824,10.55064],[123.97477,10.55037],[123.975372,10.55036],[123.975853,10.54967],[123.975761,10.54904],[123.975883,10.54868]]]]}},{"type":"Feature","properties":{"ID_0":177,"ISO":"PHL","NAME_0":"Philippines","ID_1":7022,"NAME_1":"Cebu","ID_2":702223,"NAME_2":"Danao City","ID_3":702223027,"NAME_3":"Maslog","NL_NAME_3":null,"VARNAME_3":null,"TYPE_3":"Barangay","ENGTYPE_3":"Village","PROVINCE":"Cebu","REGION":"Region VII (Central Visayas)","id":"barangay-0702223027","name":"Maslog","barangayCode":"0702223027","population":null,"formattedPop":null,"densityCategory":"No data","vulnerabilityRating":"No data","healthRiskLevel":"No data","areaKm2":1.768676,"centerLat":10.482502,"centerLng":124.018323,"geometrySource":"all_barangay-2.csv detailed WKT","geometryMatchMethod":"unique_official_admin_names","boundaryPointCount":88},"geometry":{"type":"MultiPolygon","coordinates":[[[[124.027161,10.48734],[124.027122,10.48724],[124.026917,10.48682],[124.026657,10.48636],[124.02639,10.48586],[124.026108,10.48529],[124.025833,10.4847],[124.025513,10.48413],[124.025162,10.48362],[124.024834,10.48317],[124.024483,10.48276],[124.024162,10.48236],[124.023827,10.48199],[124.023491,10.48168],[124.023178,10.48139],[124.022919,10.48111],[124.022697,10.48086],[124.022507,10.48062],[124.022331,10.48038],[124.022209,10.48008],[124.022041,10.47981],[124.021927,10.47952],[124.021767,10.47925],[124.021683,10.47895],[124.021637,10.4786],[124.021492,10.47829],[124.021378,10.47796],[124.021217,10.47762],[124.021156,10.47736],[124.021133,10.47724],[124.021111,10.47682],[124.02108,10.47638],[124.020958,10.47595],[124.020851,10.47551],[124.020844,10.47505],[124.020844,10.47461],[124.020844,10.47418],[124.020844,10.47376],[124.020828,10.47333],[124.020844,10.47288],[124.020859,10.4724],[124.020973,10.4719],[124.020988,10.47178],[124.021057,10.47137],[124.021133,10.47082],[124.021187,10.47029],[124.021042,10.47002],[124.020798,10.47022],[124.018219,10.47228],[124.016769,10.47365],[124.015121,10.47476],[124.011978,10.47603],[124.012917,10.47758],[124.013046,10.47779],[124.013237,10.47811],[124.013992,10.47914],[124.014061,10.47923],[124.014053,10.47936],[124.013657,10.48028],[124.013893,10.48086],[124.014053,10.48115],[124.014191,10.4814],[124.013367,10.48223],[124.013092,10.48347],[124.013062,10.48395],[124.013023,10.48477],[124.013542,10.48549],[124.013657,10.48567],[124.013481,10.48614],[124.013313,10.48663],[124.012749,10.48699],[124.012703,10.48728],[124.012642,10.48761],[124.012703,10.48791],[124.013924,10.48768],[124.015404,10.48764],[124.01609,10.48771],[124.01709,10.48782],[124.018646,10.48787],[124.021202,10.48773],[124.023354,10.48796],[124.024513,10.48794],[124.026047,10.48771],[124.026207,10.48765],[124.026947,10.48738],[124.027046,10.48733],[124.0271,10.48733],[124.027161,10.48734]]]]}},{"type":"Feature","properties":{"ID_0":177,"ISO":"PHL","NAME_0":"Philippines","ID_1":7022,"NAME_1":"Cebu","ID_2":702223,"NAME_2":"Danao City","ID_3":702223028,"NAME_3":"Nangka","NL_NAME_3":null,"VARNAME_3":null,"TYPE_3":"Barangay","ENGTYPE_3":"Village","PROVINCE":"Cebu","REGION":"Region VII (Central Visayas)","id":"barangay-0702223028","name":"Nangka","barangayCode":"0702223028","population":null,"formattedPop":null,"densityCategory":"No data","vulnerabilityRating":"No data","healthRiskLevel":"No data","areaKm2":2.306266,"centerLat":10.528153,"centerLng":123.941228,"geometrySource":"all_barangay-2.csv detailed WKT","geometryMatchMethod":"unique_official_admin_names","boundaryPointCount":12},"geometry":{"type":"MultiPolygon","coordinates":[[[[123.963829,10.54198],[123.96154,10.54064],[123.953331,10.53455],[123.944489,10.53955],[123.951797,10.54222],[123.957039,10.54643],[123.960327,10.5464],[123.961151,10.54544],[123.962151,10.54391],[123.962631,10.54294],[123.963333,10.54231],[123.963829,10.54198]]]]}},{"type":"Feature","properties":{"ID_0":177,"ISO":"PHL","NAME_0":"Philippines","ID_1":7022,"NAME_1":"Cebu","ID_2":702223,"NAME_2":"Danao City","ID_3":702223029,"NAME_3":"Oguis","NL_NAME_3":null,"VARNAME_3":null,"TYPE_3":"Barangay","ENGTYPE_3":"Village","PROVINCE":"Cebu","REGION":"Region VII (Central Visayas)","id":"barangay-0702223029","name":"Oguis","barangayCode":"0702223029","population":null,"formattedPop":null,"densityCategory":"No data","vulnerabilityRating":"No data","healthRiskLevel":"No data","areaKm2":5.010259,"centerLat":10.547311,"centerLng":123.924717,"geometrySource":"all_barangay-2.csv detailed WKT","geometryMatchMethod":"unique_official_admin_names","boundaryPointCount":40},"geometry":{"type":"MultiPolygon","coordinates":[[[[123.956619,10.56483],[123.957069,10.56482],[123.957542,10.56483],[123.958397,10.5646],[123.959106,10.56432],[123.96006,10.56394],[123.960564,10.56326],[123.960777,10.56298],[123.961563,10.56217],[123.961807,10.56177],[123.963173,10.56274],[123.963951,10.56222],[123.964043,10.56133],[123.964493,10.56164],[123.964981,10.56164],[123.965523,10.56146],[123.966049,10.56121],[123.966667,10.56018],[123.966858,10.55908],[123.967087,10.55804],[123.966904,10.55734],[123.966431,10.55665],[123.965973,10.55622],[123.964989,10.55518],[123.961693,10.55516],[123.957932,10.55367],[123.956238,10.55325],[123.953621,10.5532],[123.950493,10.55328],[123.949417,10.55896],[123.949829,10.56037],[123.950203,10.56009],[123.950882,10.56046],[123.951424,10.56103],[123.952362,10.56224],[123.953117,10.5628],[123.953903,10.56317],[123.95462,10.56408],[123.955276,10.56499],[123.956619,10.56483]]]]}},{"type":"Feature","properties":{"ID_0":177,"ISO":"PHL","NAME_0":"Philippines","ID_1":7022,"NAME_1":"Cebu","ID_2":702223,"NAME_2":"Danao City","ID_3":702223030,"NAME_3":"Pili","NL_NAME_3":null,"VARNAME_3":null,"TYPE_3":"Barangay","ENGTYPE_3":"Village","PROVINCE":"Cebu","REGION":"Region VII (Central Visayas)","id":"barangay-0702223030","name":"Pili","barangayCode":"0702223030","population":null,"formattedPop":null,"densityCategory":"No data","vulnerabilityRating":"No data","healthRiskLevel":"No data","areaKm2":6.043769,"centerLat":10.585863,"centerLng":123.898044,"geometrySource":"all_barangay-2.csv detailed WKT","geometryMatchMethod":"unique_official_admin_names","boundaryPointCount":36},"geometry":{"type":"MultiPolygon","coordinates":[[[[123.967651,10.58123],[123.970482,10.58046],[123.981712,10.57542],[123.986412,10.57332],[123.986099,10.57292],[123.985771,10.57208],[123.985474,10.5713],[123.98484,10.57115],[123.984367,10.57103],[123.983063,10.5706],[123.982048,10.57034],[123.981277,10.56992],[123.980972,10.56958],[123.979912,10.56893],[123.979233,10.56826],[123.978249,10.56772],[123.977661,10.56744],[123.975929,10.56749],[123.971237,10.56922],[123.966164,10.57115],[123.961937,10.57224],[123.961548,10.5738],[123.961853,10.57448],[123.962082,10.57534],[123.961632,10.57617],[123.96138,10.57671],[123.961533,10.57774],[123.96209,10.57806],[123.962883,10.57884],[123.963043,10.5794],[123.96302,10.58027],[123.963379,10.58088],[123.963966,10.58171],[123.964363,10.58244],[123.964417,10.58254],[123.967651,10.58123]]]]}},{"type":"Feature","properties":{"ID_0":177,"ISO":"PHL","NAME_0":"Philippines","ID_1":7022,"NAME_1":"Cebu","ID_2":702223,"NAME_2":"Danao City","ID_3":702223031,"NAME_3":"Poblacion","NL_NAME_3":null,"VARNAME_3":null,"TYPE_3":"Barangay","ENGTYPE_3":"Village","PROVINCE":"Cebu","REGION":"Region VII (Central Visayas)","id":"barangay-0702223031","name":"Poblacion","barangayCode":"0702223031","population":null,"formattedPop":null,"densityCategory":"No data","vulnerabilityRating":"No data","healthRiskLevel":"No data","areaKm2":0.722464,"centerLat":10.520555,"centerLng":124.024781,"geometrySource":"all_barangay-2.csv detailed WKT","geometryMatchMethod":"unique_official_admin_names","boundaryPointCount":60},"geometry":{"type":"MultiPolygon","coordinates":[[[[124.022781,10.5277],[124.024681,10.52643],[124.027992,10.52397],[124.029709,10.52269],[124.030243,10.52238],[124.030869,10.52232],[124.030777,10.52204],[124.030563,10.52157],[124.030319,10.52112],[124.030159,10.52066],[124.029877,10.52029],[124.029572,10.51997],[124.029343,10.51961],[124.029152,10.51925],[124.028961,10.51894],[124.028893,10.51863],[124.028877,10.51831],[124.028893,10.51795],[124.028893,10.51791],[124.028893,10.5175],[124.028877,10.51694],[124.028877,10.51686],[124.028664,10.51698],[124.028633,10.517],[124.027924,10.51708],[124.026413,10.51756],[124.023453,10.51851],[124.022614,10.51889],[124.022377,10.519],[124.019814,10.51982],[124.015503,10.52052],[124.015503,10.5208],[124.015572,10.52112],[124.015427,10.52151],[124.015251,10.52202],[124.014763,10.52263],[124.014267,10.52301],[124.013763,10.5238],[124.013863,10.52409],[124.013977,10.52438],[124.014359,10.52444],[124.015152,10.52478],[124.015747,10.52529],[124.015991,10.52541],[124.016289,10.52555],[124.016899,10.52515],[124.017189,10.52507],[124.018517,10.52454],[124.019691,10.52421],[124.020721,10.524],[124.021667,10.52453],[124.021927,10.52468],[124.022537,10.5252],[124.022957,10.52583],[124.023018,10.52625],[124.022911,10.52686],[124.022903,10.52694],[124.02282,10.52737],[124.022797,10.52753],[124.022781,10.5277]]]]}},{"type":"Feature","properties":{"ID_0":177,"ISO":"PHL","NAME_0":"Philippines","ID_1":7022,"NAME_1":"Cebu","ID_2":702223,"NAME_2":"Danao City","ID_3":702223032,"NAME_3":"Quisol","NL_NAME_3":null,"VARNAME_3":null,"TYPE_3":"Barangay","ENGTYPE_3":"Village","PROVINCE":"Cebu","REGION":"Region VII (Central Visayas)","id":"barangay-0702223032","name":"Quisol","barangayCode":"0702223032","population":null,"formattedPop":null,"densityCategory":"No data","vulnerabilityRating":"No data","healthRiskLevel":"No data","areaKm2":2.50491,"centerLat":10.53243,"centerLng":123.979873,"geometrySource":"all_barangay-2.csv detailed WKT","geometryMatchMethod":"unique_official_admin_names","boundaryPointCount":47},"geometry":{"type":"MultiPolygon","coordinates":[[[[123.978333,10.54386],[123.978661,10.54333],[123.980957,10.54201],[123.982948,10.54106],[123.984062,10.54032],[123.984848,10.54],[123.985733,10.53965],[123.987259,10.5395],[123.988342,10.53949],[123.989853,10.53955],[123.990936,10.53973],[123.991943,10.54004],[123.993217,10.54031],[123.993294,10.53983],[123.994217,10.5396],[123.995087,10.53874],[123.995483,10.53828],[123.995827,10.53736],[123.996361,10.53606],[123.997276,10.53481],[123.997887,10.5347],[123.998268,10.53413],[123.997253,10.53127],[123.992279,10.53256],[123.992043,10.53214],[123.99192,10.53177],[123.991699,10.53191],[123.990288,10.53166],[123.989227,10.53135],[123.988647,10.53092],[123.987846,10.53057],[123.986473,10.53056],[123.986122,10.53129],[123.984993,10.5319],[123.983482,10.53263],[123.983109,10.53321],[123.982162,10.53366],[123.981697,10.53448],[123.981644,10.53522],[123.980827,10.53502],[123.979828,10.53492],[123.978058,10.53529],[123.977074,10.53598],[123.976357,10.53715],[123.976349,10.53832],[123.976418,10.53886],[123.978333,10.54386]]]]}},{"type":"Feature","properties":{"ID_0":177,"ISO":"PHL","NAME_0":"Philippines","ID_1":7022,"NAME_1":"Cebu","ID_2":702223,"NAME_2":"Danao City","ID_3":702223033,"NAME_3":"Sabang","NL_NAME_3":null,"VARNAME_3":null,"TYPE_3":"Barangay","ENGTYPE_3":"Village","PROVINCE":"Cebu","REGION":"Region VII (Central Visayas)","id":"barangay-0702223033","name":"Sabang","barangayCode":"0702223033","population":null,"formattedPop":null,"densityCategory":"No data","vulnerabilityRating":"No data","healthRiskLevel":"No data","areaKm2":5.883336,"centerLat":10.497446,"centerLng":124.016647,"geometrySource":"all_barangay-2.csv detailed WKT","geometryMatchMethod":"unique_official_admin_names","boundaryPointCount":72},"geometry":{"type":"MultiPolygon","coordinates":[[[[124.029747,10.50806],[124.030098,10.50773],[124.030411,10.50734],[124.030739,10.50693],[124.031067,10.5065],[124.031372,10.50602],[124.031639,10.50553],[124.031929,10.50507],[124.032333,10.50471],[124.032707,10.50411],[124.032898,10.50255],[124.03299,10.50183],[124.033058,10.50024],[124.032967,10.49839],[124.032799,10.49778],[124.032631,10.49713],[124.03228,10.49656],[124.031952,10.49595],[124.031616,10.49533],[124.031303,10.49474],[124.030968,10.49419],[124.030647,10.49369],[124.030403,10.49319],[124.030144,10.49275],[124.029953,10.49233],[124.029747,10.49195],[124.029602,10.49155],[124.029442,10.49116],[124.029259,10.49076],[124.029099,10.48968],[124.028748,10.48892],[124.027733,10.48835],[124.027496,10.48792],[124.027267,10.48764],[124.027161,10.48734],[124.0271,10.48733],[124.027046,10.48733],[124.026947,10.48738],[124.026207,10.48765],[124.026047,10.48771],[124.024513,10.48794],[124.023354,10.48796],[124.021202,10.48773],[124.018646,10.48787],[124.01709,10.48782],[124.01609,10.48771],[124.015404,10.48764],[124.013924,10.48768],[124.012703,10.48791],[124.01284,10.48826],[124.012802,10.48896],[124.012848,10.4902],[124.012131,10.49051],[124.01075,10.49086],[124.010117,10.49105],[124.008942,10.49016],[124.007729,10.49096],[124.00695,10.49198],[124.005997,10.49284],[124.005318,10.49299],[124.004356,10.49317],[124.003113,10.4937],[124.001549,10.49306],[124.002007,10.50013],[124.001938,10.50122],[124.001877,10.50185],[124.001961,10.5034],[124.002213,10.50438],[124.001823,10.50568],[124.002419,10.5075],[124.018257,10.50782],[124.029747,10.50806]]]]}},{"type":"Feature","properties":{"ID_0":177,"ISO":"PHL","NAME_0":"Philippines","ID_1":7022,"NAME_1":"Cebu","ID_2":702223,"NAME_2":"Danao City","ID_3":702223034,"NAME_3":"Sacsac","NL_NAME_3":null,"VARNAME_3":null,"TYPE_3":"Barangay","ENGTYPE_3":"Village","PROVINCE":"Cebu","REGION":"Region VII (Central Visayas)","id":"barangay-0702223034","name":"Sacsac","barangayCode":"0702223034","population":null,"formattedPop":null,"densityCategory":"No data","vulnerabilityRating":"No data","healthRiskLevel":"No data","areaKm2":3.357651,"centerLat":10.529973,"centerLng":123.894576,"geometrySource":"all_barangay-2.csv detailed WKT","geometryMatchMethod":"unique_official_admin_names","boundaryPointCount":29},"geometry":{"type":"MultiPolygon","coordinates":[[[[123.922157,10.55279],[123.930496,10.55562],[123.930298,10.55487],[123.93071,10.55415],[123.931732,10.55419],[123.932632,10.55342],[123.934151,10.5533],[123.935364,10.55313],[123.936287,10.55285],[123.937698,10.55221],[123.939034,10.55156],[123.939789,10.55108],[123.94046,10.55093],[123.939857,10.54951],[123.939613,10.5485],[123.939957,10.54292],[123.939911,10.54228],[123.939484,10.54087],[123.938828,10.53721],[123.934837,10.53475],[123.920929,10.54424],[123.921623,10.54539],[123.92218,10.54644],[123.922287,10.54711],[123.92205,10.54837],[123.921577,10.5502],[123.921806,10.55129],[123.921944,10.55246],[123.922157,10.55279]]]]}},{"type":"Feature","properties":{"ID_0":177,"ISO":"PHL","NAME_0":"Philippines","ID_1":7022,"NAME_1":"Cebu","ID_2":702223,"NAME_2":"Danao City","ID_3":702223035,"NAME_3":"Sandayong Norte","NL_NAME_3":null,"VARNAME_3":null,"TYPE_3":"Barangay","ENGTYPE_3":"Village","PROVINCE":"Cebu","REGION":"Region VII (Central Visayas)","id":"barangay-0702223035","name":"Sandayong Norte","barangayCode":"0702223035","population":null,"formattedPop":null,"densityCategory":"No data","vulnerabilityRating":"No data","healthRiskLevel":"No data","areaKm2":1.665438,"centerLat":10.552824,"centerLng":123.990021,"geometrySource":"all_barangay-2.csv detailed WKT","geometryMatchMethod":"unique_official_admin_names","boundaryPointCount":13},"geometry":{"type":"MultiPolygon","coordinates":[[[[124.002579,10.5648],[124.004173,10.56397],[124.003662,10.56255],[124.003029,10.56154],[124.002831,10.56077],[124.0028,10.56066],[124.002693,10.56022],[124.003281,10.55803],[123.996063,10.55938],[123.9944,10.55963],[123.996582,10.56844],[123.99781,10.56771],[124.002579,10.5648]]]]}},{"type":"Feature","properties":{"ID_0":177,"ISO":"PHL","NAME_0":"Philippines","ID_1":7022,"NAME_1":"Cebu","ID_2":702223,"NAME_2":"Danao City","ID_3":702223036,"NAME_3":"Sandayong Sur","NL_NAME_3":null,"VARNAME_3":null,"TYPE_3":"Barangay","ENGTYPE_3":"Village","PROVINCE":"Cebu","REGION":"Region VII (Central Visayas)","id":"barangay-0702223036","name":"Sandayong Sur","barangayCode":"0702223036","population":null,"formattedPop":null,"densityCategory":"No data","vulnerabilityRating":"No data","healthRiskLevel":"No data","areaKm2":4.462741,"centerLat":10.493862,"centerLng":123.997335,"geometrySource":"all_barangay-2.csv detailed WKT","geometryMatchMethod":"unique_official_admin_names","boundaryPointCount":72},"geometry":{"type":"MultiPolygon","coordinates":[[[[124.002419,10.5075],[124.001823,10.50568],[124.002213,10.50438],[124.001961,10.5034],[124.001877,10.50185],[124.001938,10.50122],[124.002007,10.50013],[124.001549,10.49306],[124.003113,10.4937],[124.004356,10.49317],[124.005318,10.49299],[124.005997,10.49284],[124.00695,10.49198],[124.007729,10.49096],[124.008942,10.49016],[124.010117,10.49105],[124.01075,10.49086],[124.012131,10.49051],[124.012848,10.4902],[124.012802,10.48896],[124.01284,10.48826],[124.012703,10.48791],[124.012642,10.48761],[124.012703,10.48728],[124.012749,10.48699],[124.013313,10.48663],[124.013481,10.48614],[124.013657,10.48567],[124.013542,10.48549],[124.013023,10.48477],[124.013062,10.48395],[124.013092,10.48347],[124.013367,10.48223],[124.014191,10.4814],[124.014053,10.48115],[124.013893,10.48086],[124.013657,10.48028],[124.014053,10.47936],[124.014061,10.47923],[124.013992,10.47914],[124.013237,10.47811],[124.013046,10.47779],[124.012917,10.47758],[124.011978,10.47603],[124.011253,10.47629],[124.010292,10.47694],[124.009567,10.47762],[124.008293,10.47851],[124.006523,10.47898],[124.004623,10.48111],[124.001762,10.48269],[124.000938,10.48348],[123.998062,10.48489],[123.996559,10.48585],[123.995117,10.48681],[123.991493,10.49003],[123.9879,10.49191],[123.989464,10.49385],[123.990257,10.49613],[123.990837,10.49807],[123.991531,10.5],[123.992043,10.50185],[123.992393,10.50336],[123.992859,10.50473],[123.997017,10.50436],[123.997566,10.50456],[123.99823,10.50482],[123.999031,10.50562],[123.999634,10.50622],[124.000778,10.5075],[124.00119,10.50822],[124.002419,10.5075]]]]}},{"type":"Feature","properties":{"ID_0":177,"ISO":"PHL","NAME_0":"Philippines","ID_1":7022,"NAME_1":"Cebu","ID_2":702223,"NAME_2":"Danao City","ID_3":702223037,"NAME_3":"Santa Rosa","NL_NAME_3":null,"VARNAME_3":null,"TYPE_3":"Barangay","ENGTYPE_3":"Village","PROVINCE":"Cebu","REGION":"Region VII (Central Visayas)","id":"barangay-0702223037","name":"Santa Rosa","barangayCode":"0702223037","population":null,"formattedPop":null,"densityCategory":"No data","vulnerabilityRating":"No data","healthRiskLevel":"No data","areaKm2":1.53972,"centerLat":10.532233,"centerLng":123.967763,"geometrySource":"all_barangay-2.csv detailed WKT","geometryMatchMethod":"unique_official_admin_names","boundaryPointCount":98},"geometry":{"type":"MultiPolygon","coordinates":[[[[123.963829,10.54198],[123.964523,10.54179],[123.965767,10.54125],[123.966713,10.54112],[123.96727,10.54123],[123.967911,10.54165],[123.968613,10.54174],[123.96904,10.54223],[123.969612,10.54213],[123.970573,10.54149],[123.971481,10.54139],[123.97332,10.54137],[123.974113,10.54141],[123.975121,10.54046],[123.975807,10.5401],[123.976418,10.53886],[123.976349,10.53832],[123.976357,10.53715],[123.977074,10.53598],[123.978058,10.53529],[123.979828,10.53492],[123.980827,10.53502],[123.981644,10.53522],[123.981697,10.53448],[123.982162,10.53366],[123.983109,10.53321],[123.983482,10.53263],[123.984993,10.5319],[123.986122,10.53129],[123.986473,10.53056],[123.987846,10.53057],[123.988647,10.53092],[123.989227,10.53135],[123.990288,10.53166],[123.991699,10.53191],[123.99192,10.53177],[123.991737,10.53155],[123.991127,10.53097],[123.990517,10.53081],[123.990387,10.53068],[123.990044,10.52998],[123.990067,10.52954],[123.989777,10.52875],[123.989464,10.52792],[123.989487,10.5273],[123.989357,10.52688],[123.989059,10.52661],[123.988907,10.52648],[123.988548,10.52645],[123.988113,10.52613],[123.98774,10.52635],[123.986656,10.52722],[123.985924,10.52708],[123.985909,10.52771],[123.986473,10.52881],[123.986107,10.52933],[123.985023,10.52948],[123.984222,10.52851],[123.983192,10.52801],[123.982437,10.52838],[123.981201,10.52835],[123.980553,10.52809],[123.980057,10.52744],[123.979134,10.52672],[123.97921,10.52762],[123.978256,10.52781],[123.977997,10.52731],[123.977493,10.52719],[123.976357,10.52819],[123.976097,10.52869],[123.975143,10.52889],[123.974358,10.52876],[123.97332,10.52825],[123.972481,10.52755],[123.971603,10.52684],[123.971062,10.52658],[123.969994,10.52648],[123.969238,10.52657],[123.968422,10.52643],[123.967644,10.52594],[123.967567,10.52667],[123.966888,10.52721],[123.966141,10.5286],[123.966133,10.52903],[123.96521,10.52989],[123.964912,10.53125],[123.964607,10.53233],[123.963737,10.53281],[123.963371,10.53356],[123.962883,10.53543],[123.962044,10.5363],[123.9618,10.53661],[123.962067,10.53796],[123.962044,10.53885],[123.961967,10.53903],[123.962143,10.53933],[123.96154,10.54064],[123.963829,10.54198]]]]}},{"type":"Feature","properties":{"ID_0":177,"ISO":"PHL","NAME_0":"Philippines","ID_1":7022,"NAME_1":"Cebu","ID_2":702223,"NAME_2":"Danao City","ID_3":702223038,"NAME_3":"Santican","NL_NAME_3":null,"VARNAME_3":null,"TYPE_3":"Barangay","ENGTYPE_3":"Village","PROVINCE":"Cebu","REGION":"Region VII (Central Visayas)","id":"barangay-0702223038","name":"Santican","barangayCode":"0702223038","population":null,"formattedPop":null,"densityCategory":"No data","vulnerabilityRating":"No data","healthRiskLevel":"No data","areaKm2":7.327091,"centerLat":10.570718,"centerLng":123.925391,"geometrySource":"all_barangay-2.csv detailed WKT","geometryMatchMethod":"unique_official_admin_names","boundaryPointCount":52},"geometry":{"type":"MultiPolygon","coordinates":[[[[123.985474,10.5713],[123.983727,10.569],[123.982819,10.56653],[123.98185,10.56355],[123.981033,10.56269],[123.979233,10.56302],[123.977898,10.56304],[123.975311,10.56262],[123.972687,10.5629],[123.970497,10.56268],[123.968964,10.56243],[123.967033,10.56128],[123.966049,10.56121],[123.965523,10.56146],[123.964981,10.56164],[123.964493,10.56164],[123.964043,10.56133],[123.963951,10.56222],[123.963173,10.56274],[123.961807,10.56177],[123.961563,10.56217],[123.960777,10.56298],[123.960564,10.56326],[123.96006,10.56394],[123.959106,10.56432],[123.958397,10.5646],[123.957542,10.56483],[123.957069,10.56482],[123.956619,10.56483],[123.957077,10.56548],[123.958542,10.56629],[123.96199,10.56754],[123.962677,10.56805],[123.962288,10.56932],[123.962547,10.57053],[123.962112,10.57092],[123.962387,10.57156],[123.961937,10.57224],[123.966164,10.57115],[123.971237,10.56922],[123.975929,10.56749],[123.977661,10.56744],[123.978249,10.56772],[123.979233,10.56826],[123.979912,10.56893],[123.980972,10.56958],[123.981277,10.56992],[123.982048,10.57034],[123.983063,10.5706],[123.984367,10.57103],[123.98484,10.57115],[123.985474,10.5713]]]]}},{"type":"Feature","properties":{"ID_0":177,"ISO":"PHL","NAME_0":"Philippines","ID_1":7022,"NAME_1":"Cebu","ID_2":702223,"NAME_2":"Danao City","ID_3":702223039,"NAME_3":"Sibacan","NL_NAME_3":null,"VARNAME_3":null,"TYPE_3":"Barangay","ENGTYPE_3":"Village","PROVINCE":"Cebu","REGION":"Region VII (Central Visayas)","id":"barangay-0702223039","name":"Sibacan","barangayCode":"0702223039","population":null,"formattedPop":null,"densityCategory":"No data","vulnerabilityRating":"No data","healthRiskLevel":"No data","areaKm2":4.816802,"centerLat":10.528921,"centerLng":123.923304,"geometrySource":"all_barangay-2.csv detailed WKT","geometryMatchMethod":"unique_official_admin_names","boundaryPointCount":21},"geometry":{"type":"MultiPolygon","coordinates":[[[[123.94046,10.55093],[123.941147,10.55066],[123.942574,10.55056],[123.943558,10.55073],[123.944107,10.55097],[123.945824,10.55221],[123.946632,10.55267],[123.947723,10.5531],[123.949089,10.55338],[123.949867,10.55341],[123.950493,10.55328],[123.947487,10.54817],[123.945839,10.54438],[123.944489,10.53955],[123.938828,10.53721],[123.939484,10.54087],[123.939911,10.54228],[123.939957,10.54292],[123.939613,10.5485],[123.939857,10.54951],[123.94046,10.55093]]]]}},{"type":"Feature","properties":{"ID_0":177,"ISO":"PHL","NAME_0":"Philippines","ID_1":7022,"NAME_1":"Cebu","ID_2":702223,"NAME_2":"Danao City","ID_3":702223040,"NAME_3":"Suba","NL_NAME_3":null,"VARNAME_3":null,"TYPE_3":"Barangay","ENGTYPE_3":"Village","PROVINCE":"Cebu","REGION":"Region VII (Central Visayas)","id":"barangay-0702223040","name":"Suba","barangayCode":"0702223040","population":null,"formattedPop":null,"densityCategory":"No data","vulnerabilityRating":"No data","healthRiskLevel":"No data","areaKm2":0.580004,"centerLat":10.525853,"centerLng":124.028222,"geometrySource":"all_barangay-2.csv detailed WKT","geometryMatchMethod":"unique_official_admin_names","boundaryPointCount":42},"geometry":{"type":"MultiPolygon","coordinates":[[[[124.022781,10.5277],[124.022873,10.52814],[124.022881,10.52818],[124.023117,10.52853],[124.023621,10.52882],[124.024048,10.52909],[124.024193,10.52912],[124.024338,10.52917],[124.024612,10.52922],[124.024651,10.52922],[124.024971,10.52928],[124.026077,10.52943],[124.026817,10.52947],[124.027557,10.52951],[124.028526,10.52978],[124.029243,10.52998],[124.029503,10.53005],[124.029831,10.53014],[124.030533,10.52996],[124.031258,10.52945],[124.032043,10.52853],[124.032631,10.52794],[124.032722,10.52791],[124.033257,10.52776],[124.033257,10.52747],[124.032921,10.52694],[124.032692,10.52663],[124.032654,10.52659],[124.032532,10.52642],[124.032227,10.52586],[124.031937,10.52534],[124.03167,10.52484],[124.031433,10.52433],[124.031258,10.52376],[124.031113,10.52317],[124.030952,10.52259],[124.030869,10.52232],[124.030243,10.52238],[124.029709,10.52269],[124.027992,10.52397],[124.024681,10.52643],[124.022781,10.5277]]]]}},{"type":"Feature","properties":{"ID_0":177,"ISO":"PHL","NAME_0":"Philippines","ID_1":7022,"NAME_1":"Cebu","ID_2":702223,"NAME_2":"Danao City","ID_3":702223041,"NAME_3":"Taboc","NL_NAME_3":null,"VARNAME_3":null,"TYPE_3":"Barangay","ENGTYPE_3":"Village","PROVINCE":"Cebu","REGION":"Region VII (Central Visayas)","id":"barangay-0702223041","name":"Taboc","barangayCode":"0702223041","population":null,"formattedPop":null,"densityCategory":"No data","vulnerabilityRating":"No data","healthRiskLevel":"No data","areaKm2":1.867025,"centerLat":10.529638,"centerLng":124.01791,"geometrySource":"all_barangay-2.csv detailed WKT","geometryMatchMethod":"unique_official_admin_names","boundaryPointCount":37},"geometry":{"type":"MultiPolygon","coordinates":[[[[124.016022,10.53898],[124.017212,10.53846],[124.017616,10.53815],[124.017967,10.53788],[124.019867,10.53774],[124.025467,10.5356],[124.025749,10.53357],[124.023804,10.53131],[124.021744,10.52893],[124.022057,10.52855],[124.022781,10.5277],[124.022797,10.52753],[124.02282,10.52737],[124.022903,10.52694],[124.022911,10.52686],[124.023018,10.52625],[124.022957,10.52583],[124.022537,10.5252],[124.021927,10.52468],[124.021667,10.52453],[124.020721,10.524],[124.019691,10.52421],[124.018517,10.52454],[124.017189,10.52507],[124.016899,10.52515],[124.016289,10.52555],[124.015732,10.52634],[124.014572,10.52691],[124.01403,10.52675],[124.013329,10.52701],[124.012917,10.52798],[124.013786,10.52886],[124.013901,10.53],[124.013878,10.53027],[124.013351,10.53089],[124.013939,10.53698],[124.016022,10.53898]]]]}},{"type":"Feature","properties":{"ID_0":177,"ISO":"PHL","NAME_0":"Philippines","ID_1":7022,"NAME_1":"Cebu","ID_2":702223,"NAME_2":"Danao City","ID_3":702223042,"NAME_3":"Taytay","NL_NAME_3":null,"VARNAME_3":null,"TYPE_3":"Barangay","ENGTYPE_3":"Village","PROVINCE":"Cebu","REGION":"Region VII (Central Visayas)","id":"barangay-0702223042","name":"Taytay","barangayCode":"0702223042","population":null,"formattedPop":null,"densityCategory":"No data","vulnerabilityRating":"No data","healthRiskLevel":"No data","areaKm2":0.467073,"centerLat":10.530582,"centerLng":124.026711,"geometrySource":"all_barangay-2.csv detailed WKT","geometryMatchMethod":"unique_official_admin_names","boundaryPointCount":60},"geometry":{"type":"MultiPolygon","coordinates":[[[[124.030991,10.53765],[124.030968,10.53762],[124.030457,10.53732],[124.030296,10.5369],[124.030243,10.53644],[124.030067,10.53604],[124.02993,10.53562],[124.029762,10.53524],[124.029716,10.53483],[124.029716,10.53443],[124.029716,10.53413],[124.029716,10.53407],[124.029716,10.53373],[124.029747,10.53338],[124.029877,10.53302],[124.030022,10.53258],[124.030273,10.53215],[124.030533,10.53171],[124.030792,10.53131],[124.031029,10.53092],[124.031303,10.53062],[124.031647,10.53],[124.032211,10.52948],[124.032768,10.52904],[124.033058,10.52864],[124.033279,10.52811],[124.033257,10.52776],[124.032722,10.52791],[124.032631,10.52794],[124.032043,10.52853],[124.031258,10.52945],[124.030533,10.52996],[124.029831,10.53014],[124.029503,10.53005],[124.029243,10.52998],[124.028526,10.52978],[124.027557,10.52951],[124.026817,10.52947],[124.026077,10.52943],[124.024971,10.52928],[124.024651,10.52922],[124.024612,10.52922],[124.024338,10.52917],[124.024193,10.52912],[124.024048,10.52909],[124.023621,10.52882],[124.023117,10.52853],[124.022881,10.52818],[124.022873,10.52814],[124.022781,10.5277],[124.022057,10.52855],[124.021744,10.52893],[124.023804,10.53131],[124.025749,10.53357],[124.025467,10.5356],[124.025398,10.53788],[124.028969,10.53808],[124.029083,10.53811],[124.030144,10.53801],[124.030991,10.53765]]]]}},{"type":"Feature","properties":{"ID_0":177,"ISO":"PHL","NAME_0":"Philippines","ID_1":7022,"NAME_1":"Cebu","ID_2":702223,"NAME_2":"Danao City","ID_3":702223043,"NAME_3":"Togonon","NL_NAME_3":null,"VARNAME_3":null,"TYPE_3":"Barangay","ENGTYPE_3":"Village","PROVINCE":"Cebu","REGION":"Region VII (Central Visayas)","id":"barangay-0702223043","name":"Togonon","barangayCode":"0702223043","population":null,"formattedPop":null,"densityCategory":"No data","vulnerabilityRating":"No data","healthRiskLevel":"No data","areaKm2":4.519401,"centerLat":10.514042,"centerLng":123.932803,"geometrySource":"all_barangay-2.csv detailed WKT","geometryMatchMethod":"unique_official_admin_names","boundaryPointCount":20},"geometry":{"type":"MultiPolygon","coordinates":[[[[123.9534,10.52162],[123.953148,10.52126],[123.952316,10.52049],[123.951729,10.52012],[123.951111,10.52012],[123.950394,10.52],[123.949883,10.51962],[123.949318,10.51887],[123.948486,10.51851],[123.947403,10.51745],[123.946922,10.51601],[123.945702,10.51517],[123.944527,10.51475],[123.943848,10.51421],[123.94352,10.51398],[123.93647,10.50177],[123.925873,10.5014],[123.918091,10.50114],[123.934837,10.53475],[123.9534,10.52162]]]]}},{"type":"Feature","properties":{"ID_0":177,"ISO":"PHL","NAME_0":"Philippines","ID_1":7022,"NAME_1":"Cebu","ID_2":702223,"NAME_2":"Danao City","ID_3":702223044,"NAME_3":"Tuburan Sur","NL_NAME_3":null,"VARNAME_3":null,"TYPE_3":"Barangay","ENGTYPE_3":"Village","PROVINCE":"Cebu","REGION":"Region VII (Central Visayas)","id":"barangay-0702223044","name":"Tuburan Sur","barangayCode":"0702223044","population":null,"formattedPop":null,"densityCategory":"No data","vulnerabilityRating":"No data","healthRiskLevel":"No data","areaKm2":2.019874,"centerLat":10.512811,"centerLng":124.014072,"geometrySource":"all_barangay-2.csv detailed WKT","geometryMatchMethod":"unique_official_admin_names","boundaryPointCount":36},"geometry":{"type":"MultiPolygon","coordinates":[[[[124.015503,10.52052],[124.019814,10.51982],[124.018959,10.51397],[124.01918,10.51232],[124.018707,10.51088],[124.018478,10.50958],[124.018257,10.50782],[124.002419,10.5075],[124.00119,10.50822],[124.000778,10.5075],[123.999634,10.50622],[123.999031,10.50562],[123.99823,10.50482],[123.997566,10.50456],[123.997017,10.50436],[123.992859,10.50473],[123.993294,10.50633],[123.993477,10.50789],[123.993591,10.50967],[123.993942,10.50967],[123.995407,10.51923],[123.995773,10.51955],[123.996178,10.51989],[123.996964,10.52051],[123.997803,10.5212],[123.998573,10.52182],[123.999443,10.52226],[124.000458,10.52254],[124.001518,10.5227],[124.002243,10.52231],[124.012611,10.51932],[124.013474,10.51985],[124.014427,10.52014],[124.014702,10.52007],[124.01516,10.52011],[124.015503,10.52052]]]]}}]}
