{"type":"FeatureCollection","features":[{"type":"Feature","properties":{"ID_0":177,"ISO":"PHL","NAME_0":"Philippines","ID_1":1028,"NAME_1":"Ilocos Norte","ID_2":102818,"NAME_2":"Piddig","ID_3":102818001,"NAME_3":"Ab-abut","NL_NAME_3":null,"VARNAME_3":null,"TYPE_3":"Barangay","ENGTYPE_3":"Village","PROVINCE":"Ilocos Norte","REGION":"Region I (Ilocos Region)","id":"barangay-0102818001","name":"Ab-abut","barangayCode":"0102818001","population":null,"formattedPop":null,"densityCategory":"No data","vulnerabilityRating":"No data","healthRiskLevel":"No data","areaKm2":0.917277,"centerLat":18.169943,"centerLng":120.699415,"geometrySource":"all_barangay-2.csv detailed WKT","geometryMatchMethod":"unique_official_admin_names","boundaryPointCount":19},"geometry":{"type":"MultiPolygon","coordinates":[[[[120.695976,18.18108],[120.698837,18.179029],[120.700638,18.176889],[120.702263,18.175011],[120.703857,18.173109],[120.704628,18.170891],[120.704437,18.169081],[120.704117,18.167761],[120.703583,18.166731],[120.703293,18.16564],[120.701553,18.16136],[120.699142,18.162001],[120.6978,18.16168],[120.696251,18.17119],[120.696152,18.17277],[120.695297,18.17428],[120.694443,18.17522],[120.693123,18.17602],[120.695976,18.18108]]]]}},{"type":"Feature","properties":{"ID_0":177,"ISO":"PHL","NAME_0":"Philippines","ID_1":1028,"NAME_1":"Ilocos Norte","ID_2":102818,"NAME_2":"Piddig","ID_3":102818002,"NAME_3":"Abucay","NL_NAME_3":null,"VARNAME_3":null,"TYPE_3":"Barangay","ENGTYPE_3":"Village","PROVINCE":"Ilocos Norte","REGION":"Region I (Ilocos Region)","id":"barangay-0102818002","name":"Abucay","barangayCode":"0102818002","population":null,"formattedPop":null,"densityCategory":"No data","vulnerabilityRating":"No data","healthRiskLevel":"No data","areaKm2":8.453877,"centerLat":18.150321,"centerLng":120.749243,"geometrySource":"all_barangay-2.csv detailed WKT","geometryMatchMethod":"unique_official_admin_names","boundaryPointCount":54},"geometry":{"type":"MultiPolygon","coordinates":[[[[120.768967,18.15708],[120.770752,18.15563],[120.772926,18.15481],[120.777657,18.154591],[120.780098,18.15387],[120.783051,18.155649],[120.785507,18.1532],[120.788628,18.153061],[120.79274,18.152929],[120.796356,18.15279],[120.79525,18.14913],[120.792519,18.147141],[120.790558,18.14485],[120.78891,18.144979],[120.787354,18.144409],[120.786743,18.143311],[120.786263,18.143169],[120.784737,18.143591],[120.783707,18.14385],[120.783112,18.142851],[120.782722,18.141211],[120.782143,18.1404],[120.780762,18.14006],[120.778809,18.139919],[120.778839,18.13895],[120.77935,18.138639],[120.779602,18.137621],[120.778351,18.13636],[120.777451,18.136999],[120.776352,18.13814],[120.775513,18.13706],[120.775162,18.135981],[120.770691,18.13662],[120.765388,18.13685],[120.757027,18.136841],[120.754646,18.136881],[120.748672,18.13706],[120.742859,18.13776],[120.740807,18.13789],[120.734848,18.149031],[120.735283,18.152031],[120.737587,18.1544],[120.742554,18.15509],[120.745621,18.15691],[120.746277,18.15855],[120.748413,18.15719],[120.752243,18.155769],[120.754219,18.156401],[120.75618,18.15744],[120.758133,18.15863],[120.761757,18.15901],[120.763443,18.158649],[120.767014,18.156931],[120.768967,18.15708]]]]}},{"type":"Feature","properties":{"ID_0":177,"ISO":"PHL","NAME_0":"Philippines","ID_1":1028,"NAME_1":"Ilocos Norte","ID_2":102818,"NAME_2":"Piddig","ID_3":102818003,"NAME_3":"Anao","NL_NAME_3":null,"VARNAME_3":null,"TYPE_3":"Barangay","ENGTYPE_3":"Village","PROVINCE":"Ilocos Norte","REGION":"Region I (Ilocos Region)","id":"barangay-0102818003","name":"Anao","barangayCode":"0102818003","population":null,"formattedPop":null,"densityCategory":"No data","vulnerabilityRating":"No data","healthRiskLevel":"No data","areaKm2":0.324388,"centerLat":18.165547,"centerLng":120.719523,"geometrySource":"all_barangay-2.csv detailed WKT","geometryMatchMethod":"unique_official_admin_names","boundaryPointCount":28},"geometry":{"type":"MultiPolygon","coordinates":[[[[120.710167,18.167191],[120.710907,18.167049],[120.71154,18.16725],[120.712334,18.16737],[120.713707,18.16741],[120.71431,18.167761],[120.715012,18.16626],[120.715569,18.166229],[120.716743,18.16585],[120.716347,18.165131],[120.716827,18.16493],[120.716972,18.16531],[120.717171,18.165831],[120.717598,18.165689],[120.717697,18.166109],[120.719704,18.166491],[120.720154,18.16663],[120.721786,18.167089],[120.723213,18.167601],[120.722794,18.164431],[120.721313,18.164579],[120.719788,18.163691],[120.719437,18.163071],[120.719048,18.162411],[120.712891,18.163811],[120.712433,18.164009],[120.710609,18.16567],[120.710167,18.167191]]]]}},{"type":"Feature","properties":{"ID_0":177,"ISO":"PHL","NAME_0":"Philippines","ID_1":1028,"NAME_1":"Ilocos Norte","ID_2":102818,"NAME_2":"Piddig","ID_3":102818004,"NAME_3":"Arua-ay","NL_NAME_3":null,"VARNAME_3":null,"TYPE_3":"Barangay","ENGTYPE_3":"Village","PROVINCE":"Ilocos Norte","REGION":"Region I (Ilocos Region)","id":"barangay-0102818004","name":"Arua-ay","barangayCode":"0102818004","population":null,"formattedPop":null,"densityCategory":"No data","vulnerabilityRating":"No data","healthRiskLevel":"No data","areaKm2":1.227538,"centerLat":18.170879,"centerLng":120.707295,"geometrySource":"all_barangay-2.csv detailed WKT","geometryMatchMethod":"unique_official_admin_names","boundaryPointCount":46},"geometry":{"type":"MultiPolygon","coordinates":[[[[120.697227,18.182341],[120.697701,18.18148],[120.698936,18.18037],[120.700363,18.18005],[120.701233,18.181],[120.702927,18.180849],[120.704277,18.180849],[120.706459,18.180611],[120.707893,18.179581],[120.709221,18.17934],[120.710564,18.17927],[120.712547,18.17911],[120.713799,18.178869],[120.714943,18.177999],[120.715889,18.17721],[120.717133,18.17638],[120.717453,18.17487],[120.715134,18.17437],[120.714546,18.173771],[120.714043,18.172791],[120.714493,18.1719],[120.714706,18.171789],[120.715622,18.171249],[120.716408,18.170469],[120.716263,18.16934],[120.71431,18.167761],[120.713707,18.16741],[120.712334,18.16737],[120.71154,18.16725],[120.710907,18.167049],[120.710167,18.167191],[120.708603,18.16724],[120.706757,18.167259],[120.705322,18.166491],[120.704712,18.165541],[120.703293,18.16564],[120.703583,18.166731],[120.704117,18.167761],[120.704437,18.169081],[120.704628,18.170891],[120.703857,18.173109],[120.702263,18.175011],[120.700638,18.176889],[120.698837,18.179029],[120.695976,18.18108],[120.697227,18.182341]]]]}},{"type":"Feature","properties":{"ID_0":177,"ISO":"PHL","NAME_0":"Philippines","ID_1":1028,"NAME_1":"Ilocos Norte","ID_2":102818,"NAME_2":"Piddig","ID_3":102818005,"NAME_3":"Bimmanga","NL_NAME_3":null,"VARNAME_3":null,"TYPE_3":"Barangay","ENGTYPE_3":"Village","PROVINCE":"Ilocos Norte","REGION":"Region I (Ilocos Region)","id":"barangay-0102818005","name":"Bimmanga","barangayCode":"0102818005","population":null,"formattedPop":null,"densityCategory":"No data","vulnerabilityRating":"No data","healthRiskLevel":"No data","areaKm2":1.429426,"centerLat":18.154206,"centerLng":120.712213,"geometrySource":"all_barangay-2.csv detailed WKT","geometryMatchMethod":"unique_official_admin_names","boundaryPointCount":25},"geometry":{"type":"MultiPolygon","coordinates":[[[[120.719048,18.162411],[120.718239,18.1604],[120.7145,18.150391],[120.706207,18.150721],[120.706284,18.150921],[120.706711,18.15206],[120.706306,18.154221],[120.705063,18.15625],[120.704857,18.156429],[120.704239,18.157591],[120.705193,18.158131],[120.706497,18.15876],[120.707603,18.15962],[120.708687,18.1605],[120.709618,18.16127],[120.711372,18.16238],[120.712288,18.16288],[120.713249,18.1623],[120.714081,18.161671],[120.715263,18.161381],[120.716057,18.161169],[120.716522,18.161091],[120.71769,18.161209],[120.718628,18.161869],[120.719048,18.162411]]]]}},{"type":"Feature","properties":{"ID_0":177,"ISO":"PHL","NAME_0":"Philippines","ID_1":1028,"NAME_1":"Ilocos Norte","ID_2":102818,"NAME_2":"Piddig","ID_3":102818006,"NAME_3":"Boyboy","NL_NAME_3":null,"VARNAME_3":null,"TYPE_3":"Barangay","ENGTYPE_3":"Village","PROVINCE":"Ilocos Norte","REGION":"Region I (Ilocos Region)","id":"barangay-0102818006","name":"Boyboy","barangayCode":"0102818006","population":null,"formattedPop":null,"densityCategory":"No data","vulnerabilityRating":"No data","healthRiskLevel":"No data","areaKm2":4.830277,"centerLat":18.140803,"centerLng":120.725877,"geometrySource":"all_barangay-2.csv detailed WKT","geometryMatchMethod":"unique_official_admin_names","boundaryPointCount":49},"geometry":{"type":"MultiPolygon","coordinates":[[[[120.73053,18.163919],[120.731819,18.164391],[120.733543,18.1647],[120.735649,18.16522],[120.738487,18.16646],[120.740303,18.16748],[120.742943,18.168421],[120.742989,18.16835],[120.743813,18.163719],[120.745018,18.16044],[120.746277,18.15855],[120.745621,18.15691],[120.742554,18.15509],[120.737587,18.1544],[120.735283,18.152031],[120.734848,18.149031],[120.740807,18.13789],[120.73497,18.136971],[120.729233,18.136789],[120.72522,18.13765],[120.721672,18.13756],[120.720047,18.13756],[120.718597,18.137581],[120.716789,18.13752],[120.715187,18.13727],[120.712997,18.1371],[120.710922,18.136589],[120.709167,18.136391],[120.707916,18.136459],[120.707497,18.13648],[120.705879,18.13648],[120.703217,18.136881],[120.701927,18.137369],[120.70005,18.138861],[120.697517,18.140221],[120.696693,18.140659],[120.698418,18.141809],[120.699921,18.1423],[120.701637,18.14325],[120.701912,18.144171],[120.703148,18.1465],[120.703934,18.14727],[120.704521,18.14785],[120.70565,18.149281],[120.706207,18.150721],[120.7145,18.150391],[120.729668,18.14921],[120.730492,18.1597],[120.73053,18.163919]]]]}},{"type":"Feature","properties":{"ID_0":177,"ISO":"PHL","NAME_0":"Philippines","ID_1":1028,"NAME_1":"Ilocos Norte","ID_2":102818,"NAME_2":"Piddig","ID_3":102818007,"NAME_3":"Cabaroan","NL_NAME_3":null,"VARNAME_3":null,"TYPE_3":"Barangay","ENGTYPE_3":"Village","PROVINCE":"Ilocos Norte","REGION":"Region I (Ilocos Region)","id":"barangay-0102818007","name":"Cabaroan","barangayCode":"0102818007","population":null,"formattedPop":null,"densityCategory":"No data","vulnerabilityRating":"No data","healthRiskLevel":"No data","areaKm2":0.674248,"centerLat":18.170306,"centerLng":120.719921,"geometrySource":"all_barangay-2.csv detailed WKT","geometryMatchMethod":"unique_official_admin_names","boundaryPointCount":29},"geometry":{"type":"MultiPolygon","coordinates":[[[[120.724449,18.174391],[120.723213,18.167601],[120.721786,18.167089],[120.720154,18.16663],[120.719704,18.166491],[120.717697,18.166109],[120.717598,18.165689],[120.717171,18.165831],[120.716972,18.16531],[120.716827,18.16493],[120.716347,18.165131],[120.716743,18.16585],[120.715569,18.166229],[120.715012,18.16626],[120.71431,18.167761],[120.716263,18.16934],[120.716408,18.170469],[120.715622,18.171249],[120.714706,18.171789],[120.714493,18.1719],[120.714043,18.172791],[120.714546,18.173771],[120.715134,18.17437],[120.717453,18.17487],[120.718582,18.17437],[120.719597,18.174009],[120.722878,18.17399],[120.723709,18.174141],[120.724449,18.174391]]]]}},{"type":"Feature","properties":{"ID_0":177,"ISO":"PHL","NAME_0":"Philippines","ID_1":1028,"NAME_1":"Ilocos Norte","ID_2":102818,"NAME_2":"Piddig","ID_3":102818008,"NAME_3":"Calambeg","NL_NAME_3":null,"VARNAME_3":null,"TYPE_3":"Barangay","ENGTYPE_3":"Village","PROVINCE":"Ilocos Norte","REGION":"Region I (Ilocos Region)","id":"barangay-0102818008","name":"Calambeg","barangayCode":"0102818008","population":null,"formattedPop":null,"densityCategory":"No data","vulnerabilityRating":"No data","healthRiskLevel":"No data","areaKm2":4.955785,"centerLat":18.192177,"centerLng":120.72773,"geometrySource":"all_barangay-2.csv detailed WKT","geometryMatchMethod":"unique_official_admin_names","boundaryPointCount":32},"geometry":{"type":"MultiPolygon","coordinates":[[[[120.729584,18.20035],[120.7285,18.19688],[120.728378,18.194],[120.729683,18.190371],[120.729553,18.186729],[120.729424,18.183371],[120.727753,18.17907],[120.727043,18.174999],[120.724449,18.174391],[120.723709,18.174141],[120.722878,18.17399],[120.723534,18.1758],[120.722366,18.176979],[120.721512,18.17795],[120.721947,18.17992],[120.72216,18.18117],[120.718773,18.18512],[120.718857,18.18701],[120.718239,18.18861],[120.717506,18.19076],[120.716164,18.19272],[120.715637,18.19393],[120.718498,18.200661],[120.719193,18.20122],[120.720238,18.202],[120.722168,18.20249],[120.723389,18.20356],[120.723518,18.204929],[120.723808,18.20644],[120.725792,18.20512],[120.727089,18.203051],[120.729584,18.20035]]]]}},{"type":"Feature","properties":{"ID_0":177,"ISO":"PHL","NAME_0":"Philippines","ID_1":1028,"NAME_1":"Ilocos Norte","ID_2":102818,"NAME_2":"Piddig","ID_3":102818009,"NAME_3":"Callusa","NL_NAME_3":null,"VARNAME_3":null,"TYPE_3":"Barangay","ENGTYPE_3":"Village","PROVINCE":"Ilocos Norte","REGION":"Region I (Ilocos Region)","id":"barangay-0102818009","name":"Callusa","barangayCode":"0102818009","population":null,"formattedPop":null,"densityCategory":"No data","vulnerabilityRating":"No data","healthRiskLevel":"No data","areaKm2":2.515129,"centerLat":18.154385,"centerLng":120.721961,"geometrySource":"all_barangay-2.csv detailed WKT","geometryMatchMethod":"unique_official_admin_names","boundaryPointCount":14},"geometry":{"type":"MultiPolygon","coordinates":[[[[120.722794,18.164431],[120.724487,18.163271],[120.725571,18.162729],[120.728043,18.163111],[120.73053,18.163919],[120.730492,18.1597],[120.729668,18.14921],[120.7145,18.150391],[120.718239,18.1604],[120.719048,18.162411],[120.719437,18.163071],[120.719788,18.163691],[120.721313,18.164579],[120.722794,18.164431]]]]}},{"type":"Feature","properties":{"ID_0":177,"ISO":"PHL","NAME_0":"Philippines","ID_1":1028,"NAME_1":"Ilocos Norte","ID_2":102818,"NAME_2":"Piddig","ID_3":102818010,"NAME_3":"Dupitac","NL_NAME_3":null,"VARNAME_3":null,"TYPE_3":"Barangay","ENGTYPE_3":"Village","PROVINCE":"Ilocos Norte","REGION":"Region I (Ilocos Region)","id":"barangay-0102818010","name":"Dupitac","barangayCode":"0102818010","population":null,"formattedPop":null,"densityCategory":"No data","vulnerabilityRating":"No data","healthRiskLevel":"No data","areaKm2":19.867903,"centerLat":18.19923,"centerLng":120.779918,"geometrySource":"all_barangay-2.csv detailed WKT","geometryMatchMethod":"unique_official_admin_names","boundaryPointCount":38},"geometry":{"type":"MultiPolygon","coordinates":[[[[120.743523,18.19132],[120.746834,18.189779],[120.749092,18.18807],[120.753838,18.186541],[120.758987,18.18294],[120.763329,18.178829],[120.767448,18.174561],[120.773033,18.172199],[120.777359,18.16963],[120.779831,18.166889],[120.775902,18.16552],[120.772598,18.163639],[120.771561,18.16124],[120.771561,18.160379],[120.768967,18.15708],[120.767014,18.156931],[120.763443,18.158649],[120.761757,18.15901],[120.758133,18.15863],[120.75618,18.15744],[120.754219,18.156401],[120.752243,18.155769],[120.748413,18.15719],[120.746277,18.15855],[120.745018,18.16044],[120.743813,18.163719],[120.742989,18.16835],[120.742943,18.168421],[120.743347,18.17005],[120.742851,18.17103],[120.741661,18.171881],[120.740982,18.17272],[120.739792,18.17371],[120.742416,18.178471],[120.741226,18.182011],[120.7416,18.18594],[120.742554,18.18878],[120.743523,18.19132]]]]}},{"type":"Feature","properties":{"ID_0":177,"ISO":"PHL","NAME_0":"Philippines","ID_1":1028,"NAME_1":"Ilocos Norte","ID_2":102818,"NAME_2":"Piddig","ID_3":102818011,"NAME_3":"Estancia","NL_NAME_3":null,"VARNAME_3":null,"TYPE_3":"Barangay","ENGTYPE_3":"Village","PROVINCE":"Ilocos Norte","REGION":"Region I (Ilocos Region)","id":"barangay-0102818011","name":"Estancia","barangayCode":"0102818011","population":null,"formattedPop":null,"densityCategory":"No data","vulnerabilityRating":"No data","healthRiskLevel":"No data","areaKm2":16.115748,"centerLat":18.174975,"centerLng":120.779713,"geometrySource":"all_barangay-2.csv detailed WKT","geometryMatchMethod":"unique_official_admin_names","boundaryPointCount":53},"geometry":{"type":"MultiPolygon","coordinates":[[[[120.809479,18.25034],[120.813477,18.2467],[120.815392,18.24415],[120.820251,18.238319],[120.835373,18.22142],[120.790207,18.171009],[120.783524,18.16342],[120.790443,18.1623],[120.796867,18.16081],[120.800758,18.16021],[120.81292,18.157949],[120.80484,18.157],[120.802971,18.1556],[120.800613,18.1549],[120.798233,18.153919],[120.796356,18.15279],[120.79274,18.152929],[120.788628,18.153061],[120.785507,18.1532],[120.783051,18.155649],[120.780098,18.15387],[120.777657,18.154591],[120.772926,18.15481],[120.770752,18.15563],[120.768967,18.15708],[120.771561,18.160379],[120.771561,18.16124],[120.772598,18.163639],[120.775902,18.16552],[120.779831,18.166889],[120.777359,18.16963],[120.773033,18.172199],[120.767448,18.174561],[120.763329,18.178829],[120.758987,18.18294],[120.753838,18.186541],[120.749092,18.18807],[120.746834,18.189779],[120.743523,18.19132],[120.740334,18.192699],[120.735023,18.196911],[120.731819,18.19838],[120.729584,18.20035],[120.727089,18.203051],[120.725792,18.20512],[120.723808,18.20644],[120.73893,18.211679],[120.745712,18.213131],[120.753357,18.21666],[120.759483,18.22051],[120.798279,18.23844],[120.806023,18.247181],[120.809479,18.25034]]]]}},{"type":"Feature","properties":{"ID_0":177,"ISO":"PHL","NAME_0":"Philippines","ID_1":1028,"NAME_1":"Ilocos Norte","ID_2":102818,"NAME_2":"Piddig","ID_3":102818012,"NAME_3":"Gayamat","NL_NAME_3":null,"VARNAME_3":null,"TYPE_3":"Barangay","ENGTYPE_3":"Village","PROVINCE":"Ilocos Norte","REGION":"Region I (Ilocos Region)","id":"barangay-0102818012","name":"Gayamat","barangayCode":"0102818012","population":null,"formattedPop":null,"densityCategory":"No data","vulnerabilityRating":"No data","healthRiskLevel":"No data","areaKm2":1.123091,"centerLat":18.165628,"centerLng":120.730945,"geometrySource":"all_barangay-2.csv detailed WKT","geometryMatchMethod":"unique_official_admin_names","boundaryPointCount":24},"geometry":{"type":"MultiPolygon","coordinates":[[[[120.727043,18.174999],[120.731949,18.174891],[120.733681,18.17428],[120.736557,18.174561],[120.738091,18.173861],[120.739792,18.17371],[120.740982,18.17272],[120.741661,18.171881],[120.742851,18.17103],[120.743347,18.17005],[120.742943,18.168421],[120.740303,18.16748],[120.738487,18.16646],[120.735649,18.16522],[120.733543,18.1647],[120.731819,18.164391],[120.73053,18.163919],[120.728043,18.163111],[120.725571,18.162729],[120.724487,18.163271],[120.722794,18.164431],[120.723213,18.167601],[120.724449,18.174391],[120.727043,18.174999]]]]}},{"type":"Feature","properties":{"ID_0":177,"ISO":"PHL","NAME_0":"Philippines","ID_1":1028,"NAME_1":"Ilocos Norte","ID_2":102818,"NAME_2":"Piddig","ID_3":102818013,"NAME_3":"Lagandit","NL_NAME_3":null,"VARNAME_3":null,"TYPE_3":"Barangay","ENGTYPE_3":"Village","PROVINCE":"Ilocos Norte","REGION":"Region I (Ilocos Region)","id":"barangay-0102818013","name":"Lagandit","barangayCode":"0102818013","population":null,"formattedPop":null,"densityCategory":"No data","vulnerabilityRating":"No data","healthRiskLevel":"No data","areaKm2":2.264276,"centerLat":18.194655,"centerLng":120.705711,"geometrySource":"all_barangay-2.csv detailed WKT","geometryMatchMethod":"unique_official_admin_names","boundaryPointCount":32},"geometry":{"type":"MultiPolygon","coordinates":[[[[120.694893,18.21072],[120.702499,18.211161],[120.702843,18.207861],[120.703407,18.20517],[120.703796,18.203239],[120.703873,18.20096],[120.704247,18.20001],[120.70369,18.197411],[120.703773,18.19599],[120.703209,18.19536],[120.702316,18.195259],[120.701981,18.196289],[120.70179,18.19706],[120.701286,18.19738],[120.700562,18.19725],[120.699944,18.19635],[120.699783,18.195459],[120.699959,18.194401],[120.700462,18.19315],[120.700958,18.19235],[120.701286,18.1917],[120.701286,18.19084],[120.698807,18.19076],[120.698227,18.189251],[120.695457,18.189329],[120.695053,18.18996],[120.694191,18.19668],[120.693916,18.20096],[120.693649,18.203329],[120.694412,18.20499],[120.694603,18.206421],[120.694893,18.21072]]]]}},{"type":"Feature","properties":{"ID_0":177,"ISO":"PHL","NAME_0":"Philippines","ID_1":1028,"NAME_1":"Ilocos Norte","ID_2":102818,"NAME_2":"Piddig","ID_3":102818014,"NAME_3":"Libnaoan","NL_NAME_3":null,"VARNAME_3":null,"TYPE_3":"Barangay","ENGTYPE_3":"Village","PROVINCE":"Ilocos Norte","REGION":"Region I (Ilocos Region)","id":"barangay-0102818014","name":"Libnaoan","barangayCode":"0102818014","population":null,"formattedPop":null,"densityCategory":"No data","vulnerabilityRating":"No data","healthRiskLevel":"No data","areaKm2":2.558919,"centerLat":18.189478,"centerLng":120.717076,"geometrySource":"all_barangay-2.csv detailed WKT","geometryMatchMethod":"unique_official_admin_names","boundaryPointCount":29},"geometry":{"type":"MultiPolygon","coordinates":[[[[120.702499,18.211161],[120.706902,18.210991],[120.711998,18.20974],[120.718117,18.20772],[120.721184,18.206881],[120.723808,18.20644],[120.723518,18.204929],[120.723389,18.20356],[120.722168,18.20249],[120.720238,18.202],[120.719193,18.20122],[120.718498,18.200661],[120.715637,18.19393],[120.716164,18.19272],[120.717506,18.19076],[120.718239,18.18861],[120.718857,18.18701],[120.718773,18.18512],[120.716019,18.188231],[120.71344,18.19005],[120.711273,18.191311],[120.709763,18.193911],[120.70797,18.19636],[120.707397,18.199369],[120.705803,18.202761],[120.703796,18.203239],[120.703407,18.20517],[120.702843,18.207861],[120.702499,18.211161]]]]}},{"type":"Feature","properties":{"ID_0":177,"ISO":"PHL","NAME_0":"Philippines","ID_1":1028,"NAME_1":"Ilocos Norte","ID_2":102818,"NAME_2":"Piddig","ID_3":102818015,"NAME_3":"Loing","NL_NAME_3":null,"VARNAME_3":null,"TYPE_3":"Barangay","ENGTYPE_3":"Village","PROVINCE":"Ilocos Norte","REGION":"Region I (Ilocos Region)","id":"barangay-0102818015","name":"Loing","barangayCode":"0102818015","population":null,"formattedPop":null,"densityCategory":"No data","vulnerabilityRating":"No data","healthRiskLevel":"No data","areaKm2":0.614957,"centerLat":18.163372,"centerLng":120.712215,"geometrySource":"all_barangay-2.csv detailed WKT","geometryMatchMethod":"unique_official_admin_names","boundaryPointCount":30},"geometry":{"type":"MultiPolygon","coordinates":[[[[120.704712,18.165541],[120.705322,18.166491],[120.706757,18.167259],[120.708603,18.16724],[120.710167,18.167191],[120.710609,18.16567],[120.712433,18.164009],[120.712891,18.163811],[120.719048,18.162411],[120.718628,18.161869],[120.71769,18.161209],[120.716522,18.161091],[120.716057,18.161169],[120.715263,18.161381],[120.714081,18.161671],[120.713249,18.1623],[120.712288,18.16288],[120.711372,18.16238],[120.709618,18.16127],[120.708687,18.1605],[120.707603,18.15962],[120.706497,18.15876],[120.705193,18.158131],[120.704239,18.157591],[120.701111,18.15687],[120.701233,18.158609],[120.70179,18.160089],[120.702377,18.161209],[120.702988,18.16247],[120.704712,18.165541]]]]}},{"type":"Feature","properties":{"ID_0":177,"ISO":"PHL","NAME_0":"Philippines","ID_1":1028,"NAME_1":"Ilocos Norte","ID_2":102818,"NAME_2":"Piddig","ID_3":102818016,"NAME_3":"Maab-abaca","NL_NAME_3":null,"VARNAME_3":null,"TYPE_3":"Barangay","ENGTYPE_3":"Village","PROVINCE":"Ilocos Norte","REGION":"Region I (Ilocos Region)","id":"barangay-0102818016","name":"Maab-abaca","barangayCode":"0102818016","population":null,"formattedPop":null,"densityCategory":"No data","vulnerabilityRating":"No data","healthRiskLevel":"No data","areaKm2":2.430072,"centerLat":18.180314,"centerLng":120.707303,"geometrySource":"all_barangay-2.csv detailed WKT","geometryMatchMethod":"unique_official_admin_names","boundaryPointCount":60},"geometry":{"type":"MultiPolygon","coordinates":[[[[120.703796,18.203239],[120.705803,18.202761],[120.707397,18.199369],[120.70797,18.19636],[120.709763,18.193911],[120.711273,18.191311],[120.71344,18.19005],[120.716019,18.188231],[120.718773,18.18512],[120.72216,18.18117],[120.721947,18.17992],[120.721512,18.17795],[120.722366,18.176979],[120.723534,18.1758],[120.722878,18.17399],[120.719597,18.174009],[120.718582,18.17437],[120.717453,18.17487],[120.717133,18.17638],[120.715889,18.17721],[120.714943,18.177999],[120.713799,18.178869],[120.712547,18.17911],[120.710564,18.17927],[120.709221,18.17934],[120.707893,18.179581],[120.706459,18.180611],[120.704277,18.180849],[120.702927,18.180849],[120.701233,18.181],[120.700363,18.18005],[120.698936,18.18037],[120.697701,18.18148],[120.697227,18.182341],[120.694931,18.18433],[120.694267,18.185209],[120.693703,18.187111],[120.694183,18.18861],[120.695053,18.18996],[120.695457,18.189329],[120.698227,18.189251],[120.698807,18.19076],[120.701286,18.19084],[120.701286,18.1917],[120.700958,18.19235],[120.700462,18.19315],[120.699959,18.194401],[120.699783,18.195459],[120.699944,18.19635],[120.700562,18.19725],[120.701286,18.19738],[120.70179,18.19706],[120.701981,18.196289],[120.702316,18.195259],[120.703209,18.19536],[120.703773,18.19599],[120.70369,18.197411],[120.704247,18.20001],[120.703873,18.20096],[120.703796,18.203239]]]]}},{"type":"Feature","properties":{"ID_0":177,"ISO":"PHL","NAME_0":"Philippines","ID_1":1028,"NAME_1":"Ilocos Norte","ID_2":102818,"NAME_2":"Piddig","ID_3":102818017,"NAME_3":"Mangitayag","NL_NAME_3":null,"VARNAME_3":null,"TYPE_3":"Barangay","ENGTYPE_3":"Village","PROVINCE":"Ilocos Norte","REGION":"Region I (Ilocos Region)","id":"barangay-0102818017","name":"Mangitayag","barangayCode":"0102818017","population":null,"formattedPop":null,"densityCategory":"No data","vulnerabilityRating":"No data","healthRiskLevel":"No data","areaKm2":2.640619,"centerLat":18.149972,"centerLng":120.701695,"geometrySource":"all_barangay-2.csv detailed WKT","geometryMatchMethod":"unique_official_admin_names","boundaryPointCount":40},"geometry":{"type":"MultiPolygon","coordinates":[[[[120.704712,18.165541],[120.702988,18.16247],[120.702377,18.161209],[120.70179,18.160089],[120.701233,18.158609],[120.701111,18.15687],[120.704239,18.157591],[120.704857,18.156429],[120.705063,18.15625],[120.706306,18.154221],[120.706711,18.15206],[120.706284,18.150921],[120.706207,18.150721],[120.70565,18.149281],[120.704521,18.14785],[120.703934,18.14727],[120.703148,18.1465],[120.701912,18.144171],[120.701637,18.14325],[120.699921,18.1423],[120.698418,18.141809],[120.696693,18.140659],[120.696274,18.14163],[120.69532,18.142851],[120.694443,18.14403],[120.694107,18.144489],[120.693237,18.146879],[120.694183,18.14814],[120.695137,18.14917],[120.6959,18.150591],[120.696564,18.151541],[120.697327,18.15274],[120.698189,18.153049],[120.698761,18.154881],[120.69944,18.15733],[120.700302,18.158831],[120.700684,18.159781],[120.701553,18.16136],[120.703293,18.16564],[120.704712,18.165541]]]]}},{"type":"Feature","properties":{"ID_0":177,"ISO":"PHL","NAME_0":"Philippines","ID_1":1028,"NAME_1":"Ilocos Norte","ID_2":102818,"NAME_2":"Piddig","ID_3":102818018,"NAME_3":"Maruaya","NL_NAME_3":null,"VARNAME_3":null,"TYPE_3":"Barangay","ENGTYPE_3":"Village","PROVINCE":"Ilocos Norte","REGION":"Region I (Ilocos Region)","id":"barangay-0102818018","name":"Maruaya","barangayCode":"0102818018","population":null,"formattedPop":null,"densityCategory":"No data","vulnerabilityRating":"No data","healthRiskLevel":"No data","areaKm2":24.348836,"centerLat":18.212146,"centerLng":120.767805,"geometrySource":"all_barangay-2.csv detailed WKT","geometryMatchMethod":"unique_official_admin_names","boundaryPointCount":22},"geometry":{"type":"MultiPolygon","coordinates":[[[[120.743523,18.19132],[120.742554,18.18878],[120.7416,18.18594],[120.741226,18.182011],[120.742416,18.178471],[120.739792,18.17371],[120.738091,18.173861],[120.736557,18.174561],[120.733681,18.17428],[120.731949,18.174891],[120.727043,18.174999],[120.727753,18.17907],[120.729424,18.183371],[120.729553,18.186729],[120.729683,18.190371],[120.728378,18.194],[120.7285,18.19688],[120.729584,18.20035],[120.731819,18.19838],[120.735023,18.196911],[120.740334,18.192699],[120.743523,18.19132]]]]}},{"type":"Feature","properties":{"ID_0":177,"ISO":"PHL","NAME_0":"Philippines","ID_1":1028,"NAME_1":"Ilocos Norte","ID_2":102818,"NAME_2":"Piddig","ID_3":102818019,"NAME_3":"San Antonio","NL_NAME_3":null,"VARNAME_3":null,"TYPE_3":"Barangay","ENGTYPE_3":"Village","PROVINCE":"Ilocos Norte","REGION":"Region I (Ilocos Region)","id":"barangay-0102818019","name":"San Antonio","barangayCode":"0102818019","population":null,"formattedPop":null,"densityCategory":"No data","vulnerabilityRating":"No data","healthRiskLevel":"No data","areaKm2":3.28388,"centerLat":18.138291,"centerLng":120.802336,"geometrySource":"all_barangay-2.csv detailed WKT","geometryMatchMethod":"unique_official_admin_names","boundaryPointCount":26},"geometry":{"type":"MultiPolygon","coordinates":[[[[120.854637,18.16028],[120.845016,18.15645],[120.841301,18.15522],[120.840797,18.15411],[120.836853,18.15333],[120.831657,18.150801],[120.826187,18.148781],[120.821541,18.14735],[120.819702,18.146811],[120.818207,18.146231],[120.810127,18.141939],[120.80851,18.1408],[120.807854,18.142321],[120.806686,18.147341],[120.806328,18.148991],[120.80114,18.151979],[120.796356,18.15279],[120.798233,18.153919],[120.800613,18.1549],[120.802971,18.1556],[120.80484,18.157],[120.81292,18.157949],[120.82048,18.158039],[120.831139,18.158791],[120.849037,18.159929],[120.854637,18.16028]]]]}},{"type":"Feature","properties":{"ID_0":177,"ISO":"PHL","NAME_0":"Philippines","ID_1":1028,"NAME_1":"Ilocos Norte","ID_2":102818,"NAME_2":"Piddig","ID_3":102818020,"NAME_3":"Santa Maria","NL_NAME_3":null,"VARNAME_3":null,"TYPE_3":"Barangay","ENGTYPE_3":"Village","PROVINCE":"Ilocos Norte","REGION":"Region I (Ilocos Region)","id":"barangay-0102818020","name":"Santa Maria","barangayCode":"0102818020","population":null,"formattedPop":null,"densityCategory":"No data","vulnerabilityRating":"No data","healthRiskLevel":"No data","areaKm2":8.270817,"centerLat":18.139064,"centerLng":120.780231,"geometrySource":"all_barangay-2.csv detailed WKT","geometryMatchMethod":"unique_official_admin_names","boundaryPointCount":36},"geometry":{"type":"MultiPolygon","coordinates":[[[[120.796356,18.15279],[120.80114,18.151979],[120.806328,18.148991],[120.806686,18.147341],[120.807854,18.142321],[120.80851,18.1408],[120.802109,18.13834],[120.795021,18.13632],[120.792351,18.13575],[120.790642,18.13603],[120.787727,18.13582],[120.78334,18.13525],[120.781197,18.134911],[120.775162,18.135981],[120.775513,18.13706],[120.776352,18.13814],[120.777451,18.136999],[120.778351,18.13636],[120.779602,18.137621],[120.77935,18.138639],[120.778839,18.13895],[120.778809,18.139919],[120.780762,18.14006],[120.782143,18.1404],[120.782722,18.141211],[120.783112,18.142851],[120.783707,18.14385],[120.784737,18.143591],[120.786263,18.143169],[120.786743,18.143311],[120.787354,18.144409],[120.78891,18.144979],[120.790558,18.14485],[120.792519,18.147141],[120.79525,18.14913],[120.796356,18.15279]]]]}},{"type":"Feature","properties":{"ID_0":177,"ISO":"PHL","NAME_0":"Philippines","ID_1":1028,"NAME_1":"Ilocos Norte","ID_2":102818,"NAME_2":"Piddig","ID_3":102818021,"NAME_3":"Sucsuquen","NL_NAME_3":null,"VARNAME_3":null,"TYPE_3":"Barangay","ENGTYPE_3":"Village","PROVINCE":"Ilocos Norte","REGION":"Region I (Ilocos Region)","id":"barangay-0102818021","name":"Sucsuquen","barangayCode":"0102818021","population":null,"formattedPop":null,"densityCategory":"No data","vulnerabilityRating":"No data","healthRiskLevel":"No data","areaKm2":2.417316,"centerLat":18.167195,"centerLng":120.691624,"geometrySource":"all_barangay-2.csv detailed WKT","geometryMatchMethod":"unique_official_admin_names","boundaryPointCount":23},"geometry":{"type":"MultiPolygon","coordinates":[[[[120.693123,18.17602],[120.694443,18.17522],[120.695297,18.17428],[120.696152,18.17277],[120.696251,18.17119],[120.6978,18.16168],[120.695328,18.16176],[120.694366,18.16176],[120.693802,18.16223],[120.692467,18.16263],[120.691887,18.16223],[120.690842,18.161989],[120.689117,18.16223],[120.685547,18.16254],[120.685188,18.16416],[120.684097,18.169189],[120.682716,18.172899],[120.681778,18.17585],[120.684258,18.17569],[120.686256,18.175699],[120.688454,18.17601],[120.690933,18.17601],[120.693123,18.17602]]]]}},{"type":"Feature","properties":{"ID_0":177,"ISO":"PHL","NAME_0":"Philippines","ID_1":1028,"NAME_1":"Ilocos Norte","ID_2":102818,"NAME_2":"Piddig","ID_3":102818022,"NAME_3":"Tangaoan","NL_NAME_3":null,"VARNAME_3":null,"TYPE_3":"Barangay","ENGTYPE_3":"Village","PROVINCE":"Ilocos Norte","REGION":"Region I (Ilocos Region)","id":"barangay-0102818022","name":"Tangaoan","barangayCode":"0102818022","population":null,"formattedPop":null,"densityCategory":"No data","vulnerabilityRating":"No data","healthRiskLevel":"No data","areaKm2":9.601258,"centerLat":18.191607,"centerLng":120.681462,"geometrySource":"all_barangay-2.csv detailed WKT","geometryMatchMethod":"unique_official_admin_names","boundaryPointCount":34},"geometry":{"type":"MultiPolygon","coordinates":[[[[120.681129,18.20508],[120.683983,18.2076],[120.688438,18.2096],[120.690536,18.210291],[120.691353,18.210421],[120.694893,18.21072],[120.694603,18.206421],[120.694412,18.20499],[120.693649,18.203329],[120.693916,18.20096],[120.694191,18.19668],[120.695053,18.18996],[120.694183,18.18861],[120.693703,18.187111],[120.694267,18.185209],[120.694931,18.18433],[120.697227,18.182341],[120.695976,18.18108],[120.693123,18.17602],[120.690933,18.17601],[120.688454,18.17601],[120.686256,18.175699],[120.684258,18.17569],[120.681778,18.17585],[120.680717,18.179979],[120.680191,18.18301],[120.679604,18.185921],[120.679382,18.188],[120.678322,18.191759],[120.678078,18.193781],[120.677727,18.196791],[120.6782,18.198509],[120.678497,18.200871],[120.681129,18.20508]]]]}},{"type":"Feature","properties":{"ID_0":177,"ISO":"PHL","NAME_0":"Philippines","ID_1":1028,"NAME_1":"Ilocos Norte","ID_2":102818,"NAME_2":"Piddig","ID_3":102818023,"NAME_3":"Tonoton","NL_NAME_3":null,"VARNAME_3":null,"TYPE_3":"Barangay","ENGTYPE_3":"Village","PROVINCE":"Ilocos Norte","REGION":"Region I (Ilocos Region)","id":"barangay-0102818023","name":"Tonoton","barangayCode":"0102818023","population":null,"formattedPop":null,"densityCategory":"No data","vulnerabilityRating":"No data","healthRiskLevel":"No data","areaKm2":2.716545,"centerLat":18.15317,"centerLng":120.691489,"geometrySource":"all_barangay-2.csv detailed WKT","geometryMatchMethod":"unique_official_admin_names","boundaryPointCount":26},"geometry":{"type":"MultiPolygon","coordinates":[[[[120.685547,18.16254],[120.689117,18.16223],[120.690842,18.161989],[120.691887,18.16223],[120.692467,18.16263],[120.693802,18.16223],[120.694366,18.16176],[120.695328,18.16176],[120.6978,18.16168],[120.699142,18.162001],[120.701553,18.16136],[120.700684,18.159781],[120.700302,18.158831],[120.69944,18.15733],[120.698761,18.154881],[120.698189,18.153049],[120.697327,18.15274],[120.696564,18.151541],[120.6959,18.150591],[120.695137,18.14917],[120.694183,18.14814],[120.693237,18.146879],[120.692207,18.14934],[120.689613,18.153669],[120.687798,18.15732],[120.685547,18.16254]]]]}}]}
