{"type":"FeatureCollection","features":[{"type":"Feature","properties":{"ID_0":177,"ISO":"PHL","NAME_0":"Philippines","ID_1":6030,"NAME_1":"Iloilo","ID_2":603028,"NAME_2":"Leon","ID_3":603028001,"NAME_3":"Agboy Norte","NL_NAME_3":null,"VARNAME_3":null,"TYPE_3":"Barangay","ENGTYPE_3":"Village","PROVINCE":"Iloilo","REGION":"Region VI (Western Visayas)","id":"barangay-0603028001","name":"Agboy Norte","barangayCode":"0603028001","population":null,"formattedPop":null,"densityCategory":"No data","vulnerabilityRating":"No data","healthRiskLevel":"No data","areaKm2":1.111807,"centerLat":10.775292,"centerLng":122.416379,"geometrySource":"all_barangay-2.csv detailed WKT","geometryMatchMethod":"unique_official_admin_names","boundaryPointCount":26},"geometry":{"type":"MultiPolygon","coordinates":[[[[122.414062,10.77788],[122.419548,10.78196],[122.420624,10.78158],[122.42186,10.78073],[122.422531,10.78037],[122.42337,10.78029],[122.423973,10.77979],[122.424026,10.77882],[122.423943,10.7782],[122.42382,10.77718],[122.424362,10.77574],[122.424072,10.77497],[122.423119,10.77412],[122.421921,10.77165],[122.421539,10.77101],[122.419884,10.76978],[122.419296,10.76933],[122.418549,10.76898],[122.41806,10.76875],[122.416893,10.76757],[122.415787,10.76681],[122.415009,10.76619],[122.414948,10.76434],[122.413528,10.76484],[122.405899,10.77143],[122.414062,10.77788]]]]}},{"type":"Feature","properties":{"ID_0":177,"ISO":"PHL","NAME_0":"Philippines","ID_1":6030,"NAME_1":"Iloilo","ID_2":603028,"NAME_2":"Leon","ID_3":603028002,"NAME_3":"Agboy Sur","NL_NAME_3":null,"VARNAME_3":null,"TYPE_3":"Barangay","ENGTYPE_3":"Village","PROVINCE":"Iloilo","REGION":"Region VI (Western Visayas)","id":"barangay-0603028002","name":"Agboy Sur","barangayCode":"0603028002","population":null,"formattedPop":null,"densityCategory":"No data","vulnerabilityRating":"No data","healthRiskLevel":"No data","areaKm2":1.231703,"centerLat":10.766556,"centerLng":122.409066,"geometrySource":"all_barangay-2.csv detailed WKT","geometryMatchMethod":"unique_official_admin_names","boundaryPointCount":6},"geometry":{"type":"MultiPolygon","coordinates":[[[[122.405296,10.76567],[122.405899,10.77143],[122.413528,10.76484],[122.414948,10.76434],[122.405449,10.75759],[122.405296,10.76567]]]]}},{"type":"Feature","properties":{"ID_0":177,"ISO":"PHL","NAME_0":"Philippines","ID_1":6030,"NAME_1":"Iloilo","ID_2":603028,"NAME_2":"Leon","ID_3":603028003,"NAME_3":"Agta","NL_NAME_3":null,"VARNAME_3":null,"TYPE_3":"Barangay","ENGTYPE_3":"Village","PROVINCE":"Iloilo","REGION":"Region VI (Western Visayas)","id":"barangay-0603028003","name":"Agta","barangayCode":"0603028003","population":null,"formattedPop":null,"densityCategory":"No data","vulnerabilityRating":"No data","healthRiskLevel":"No data","areaKm2":1.163522,"centerLat":10.829003,"centerLng":122.33941,"geometrySource":"all_barangay-2.csv detailed WKT","geometryMatchMethod":"unique_official_admin_names","boundaryPointCount":9},"geometry":{"type":"MultiPolygon","coordinates":[[[[122.342812,10.83527],[122.343613,10.82909],[122.344254,10.82378],[122.339493,10.82149],[122.337921,10.82433],[122.334129,10.82575],[122.33741,10.83338],[122.339127,10.83721],[122.342812,10.83527]]]]}},{"type":"Feature","properties":{"ID_0":177,"ISO":"PHL","NAME_0":"Philippines","ID_1":6030,"NAME_1":"Iloilo","ID_2":603028,"NAME_2":"Leon","ID_3":603028004,"NAME_3":"Ambulong","NL_NAME_3":null,"VARNAME_3":null,"TYPE_3":"Barangay","ENGTYPE_3":"Village","PROVINCE":"Iloilo","REGION":"Region VI (Western Visayas)","id":"barangay-0603028004","name":"Ambulong","barangayCode":"0603028004","population":null,"formattedPop":null,"densityCategory":"No data","vulnerabilityRating":"No data","healthRiskLevel":"No data","areaKm2":0.442718,"centerLat":10.777001,"centerLng":122.341743,"geometrySource":"all_barangay-2.csv detailed WKT","geometryMatchMethod":"unique_official_admin_names","boundaryPointCount":10},"geometry":{"type":"MultiPolygon","coordinates":[[[[122.344963,10.78012],[122.341667,10.77368],[122.339058,10.77602],[122.335854,10.77814],[122.341537,10.78075],[122.34201,10.78101],[122.342697,10.78107],[122.343079,10.78092],[122.343491,10.78074],[122.344963,10.78012]]]]}},{"type":"Feature","properties":{"ID_0":177,"ISO":"PHL","NAME_0":"Philippines","ID_1":6030,"NAME_1":"Iloilo","ID_2":603028,"NAME_2":"Leon","ID_3":603028005,"NAME_3":"Anonang","NL_NAME_3":null,"VARNAME_3":null,"TYPE_3":"Barangay","ENGTYPE_3":"Village","PROVINCE":"Iloilo","REGION":"Region VI (Western Visayas)","id":"barangay-0603028005","name":"Anonang","barangayCode":"0603028005","population":null,"formattedPop":null,"densityCategory":"No data","vulnerabilityRating":"No data","healthRiskLevel":"No data","areaKm2":2.000751,"centerLat":10.769363,"centerLng":122.398979,"geometrySource":"all_barangay-2.csv detailed WKT","geometryMatchMethod":"unique_official_admin_names","boundaryPointCount":8},"geometry":{"type":"MultiPolygon","coordinates":[[[[122.40345,10.77766],[122.405899,10.77143],[122.405296,10.76567],[122.397491,10.75901],[122.392929,10.76551],[122.394867,10.77392],[122.396744,10.777],[122.40345,10.77766]]]]}},{"type":"Feature","properties":{"ID_0":177,"ISO":"PHL","NAME_0":"Philippines","ID_1":6030,"NAME_1":"Iloilo","ID_2":603028,"NAME_2":"Leon","ID_3":603028006,"NAME_3":"Apian","NL_NAME_3":null,"VARNAME_3":null,"TYPE_3":"Barangay","ENGTYPE_3":"Village","PROVINCE":"Iloilo","REGION":"Region VI (Western Visayas)","id":"barangay-0603028006","name":"Apian","barangayCode":"0603028006","population":null,"formattedPop":null,"densityCategory":"No data","vulnerabilityRating":"No data","healthRiskLevel":"No data","areaKm2":0.767435,"centerLat":10.821177,"centerLng":122.347224,"geometrySource":"all_barangay-2.csv detailed WKT","geometryMatchMethod":"unique_official_admin_names","boundaryPointCount":6},"geometry":{"type":"MultiPolygon","coordinates":[[[[122.344254,10.82378],[122.359207,10.82066],[122.351639,10.81945],[122.346992,10.81718],[122.339493,10.82149],[122.344254,10.82378]]]]}},{"type":"Feature","properties":{"ID_0":177,"ISO":"PHL","NAME_0":"Philippines","ID_1":6030,"NAME_1":"Iloilo","ID_2":603028,"NAME_2":"Leon","ID_3":603028007,"NAME_3":"Avanzada","NL_NAME_3":null,"VARNAME_3":null,"TYPE_3":"Barangay","ENGTYPE_3":"Village","PROVINCE":"Iloilo","REGION":"Region VI (Western Visayas)","id":"barangay-0603028007","name":"Avanzada","barangayCode":"0603028007","population":null,"formattedPop":null,"densityCategory":"No data","vulnerabilityRating":"No data","healthRiskLevel":"No data","areaKm2":0.930043,"centerLat":10.776637,"centerLng":122.349328,"geometrySource":"all_barangay-2.csv detailed WKT","geometryMatchMethod":"unique_official_admin_names","boundaryPointCount":7},"geometry":{"type":"MultiPolygon","coordinates":[[[[122.34639,10.78232],[122.35511,10.77932],[122.35733,10.77608],[122.348808,10.7713],[122.341667,10.77368],[122.344963,10.78012],[122.34639,10.78232]]]]}},{"type":"Feature","properties":{"ID_0":177,"ISO":"PHL","NAME_0":"Philippines","ID_1":6030,"NAME_1":"Iloilo","ID_2":603028,"NAME_2":"Leon","ID_3":603028008,"NAME_3":"Awis","NL_NAME_3":null,"VARNAME_3":null,"TYPE_3":"Barangay","ENGTYPE_3":"Village","PROVINCE":"Iloilo","REGION":"Region VI (Western Visayas)","id":"barangay-0603028008","name":"Awis","barangayCode":"0603028008","population":null,"formattedPop":null,"densityCategory":"No data","vulnerabilityRating":"No data","healthRiskLevel":"No data","areaKm2":0.499753,"centerLat":10.812407,"centerLng":122.372195,"geometrySource":"all_barangay-2.csv detailed WKT","geometryMatchMethod":"unique_official_admin_names","boundaryPointCount":6},"geometry":{"type":"MultiPolygon","coordinates":[[[[122.37944,10.81051],[122.382103,10.80552],[122.374153,10.80381],[122.370743,10.80711],[122.374542,10.81047],[122.37944,10.81051]]]]}},{"type":"Feature","properties":{"ID_0":177,"ISO":"PHL","NAME_0":"Philippines","ID_1":6030,"NAME_1":"Iloilo","ID_2":603028,"NAME_2":"Leon","ID_3":603028009,"NAME_3":"Ayabang","NL_NAME_3":null,"VARNAME_3":null,"TYPE_3":"Barangay","ENGTYPE_3":"Village","PROVINCE":"Iloilo","REGION":"Region VI (Western Visayas)","id":"barangay-0603028009","name":"Ayabang","barangayCode":"0603028009","population":null,"formattedPop":null,"densityCategory":"No data","vulnerabilityRating":"No data","healthRiskLevel":"No data","areaKm2":2.673368,"centerLat":10.856548,"centerLng":122.331659,"geometrySource":"all_barangay-2.csv detailed WKT","geometryMatchMethod":"unique_official_admin_names","boundaryPointCount":12},"geometry":{"type":"MultiPolygon","coordinates":[[[[122.34182,10.86454],[122.338242,10.85487],[122.335373,10.854],[122.332382,10.85401],[122.329224,10.85645],[122.328293,10.85877],[122.328117,10.8593],[122.326523,10.86094],[122.325684,10.8629],[122.331383,10.86367],[122.333611,10.86835],[122.34182,10.86454]]]]}},{"type":"Feature","properties":{"ID_0":177,"ISO":"PHL","NAME_0":"Philippines","ID_1":6030,"NAME_1":"Iloilo","ID_2":603028,"NAME_2":"Leon","ID_3":603028010,"NAME_3":"Ayubo","NL_NAME_3":null,"VARNAME_3":null,"TYPE_3":"Barangay","ENGTYPE_3":"Village","PROVINCE":"Iloilo","REGION":"Region VI (Western Visayas)","id":"barangay-0603028010","name":"Ayubo","barangayCode":"0603028010","population":null,"formattedPop":null,"densityCategory":"No data","vulnerabilityRating":"No data","healthRiskLevel":"No data","areaKm2":0.754859,"centerLat":10.790817,"centerLng":122.331688,"geometrySource":"all_barangay-2.csv detailed WKT","geometryMatchMethod":"unique_official_admin_names","boundaryPointCount":14},"geometry":{"type":"MultiPolygon","coordinates":[[[[122.326103,10.79243],[122.328697,10.79415],[122.33017,10.79271],[122.331383,10.79229],[122.334251,10.79199],[122.336258,10.79169],[122.338928,10.79118],[122.340523,10.78929],[122.336594,10.78799],[122.331596,10.78616],[122.330933,10.78825],[122.327988,10.79157],[122.326897,10.79201],[122.326103,10.79243]]]]}},{"type":"Feature","properties":{"ID_0":177,"ISO":"PHL","NAME_0":"Philippines","ID_1":6030,"NAME_1":"Iloilo","ID_2":603028,"NAME_2":"Leon","ID_3":603028011,"NAME_3":"Bacolod","NL_NAME_3":null,"VARNAME_3":null,"TYPE_3":"Barangay","ENGTYPE_3":"Village","PROVINCE":"Iloilo","REGION":"Region VI (Western Visayas)","id":"barangay-0603028011","name":"Bacolod","barangayCode":"0603028011","population":null,"formattedPop":null,"densityCategory":"No data","vulnerabilityRating":"No data","healthRiskLevel":"No data","areaKm2":0.869439,"centerLat":10.873523,"centerLng":122.305625,"geometrySource":"all_barangay-2.csv detailed WKT","geometryMatchMethod":"unique_official_admin_names","boundaryPointCount":15},"geometry":{"type":"MultiPolygon","coordinates":[[[[122.289192,10.88062],[122.294067,10.88149],[122.299088,10.88098],[122.302032,10.87883],[122.305412,10.87719],[122.30954,10.87605],[122.310997,10.87339],[122.30983,10.87187],[122.31028,10.86958],[122.309349,10.86765],[122.307953,10.86891],[122.304848,10.86898],[122.299332,10.86977],[122.285797,10.8791],[122.289192,10.88062]]]]}},{"type":"Feature","properties":{"ID_0":177,"ISO":"PHL","NAME_0":"Philippines","ID_1":6030,"NAME_1":"Iloilo","ID_2":603028,"NAME_2":"Leon","ID_3":603028012,"NAME_3":"Baje","NL_NAME_3":null,"VARNAME_3":null,"TYPE_3":"Barangay","ENGTYPE_3":"Village","PROVINCE":"Iloilo","REGION":"Region VI (Western Visayas)","id":"barangay-0603028012","name":"Baje","barangayCode":"0603028012","population":null,"formattedPop":null,"densityCategory":"No data","vulnerabilityRating":"No data","healthRiskLevel":"No data","areaKm2":1.138364,"centerLat":10.798176,"centerLng":122.342262,"geometrySource":"all_barangay-2.csv detailed WKT","geometryMatchMethod":"unique_official_admin_names","boundaryPointCount":16},"geometry":{"type":"MultiPolygon","coordinates":[[[[122.344398,10.80292],[122.349251,10.79205],[122.346367,10.791],[122.34359,10.79166],[122.342949,10.7921],[122.342644,10.79307],[122.341621,10.79384],[122.340431,10.79422],[122.339417,10.79467],[122.338783,10.79587],[122.338226,10.79637],[122.337914,10.79764],[122.337372,10.7986],[122.336212,10.79926],[122.338013,10.80227],[122.344398,10.80292]]]]}},{"type":"Feature","properties":{"ID_0":177,"ISO":"PHL","NAME_0":"Philippines","ID_1":6030,"NAME_1":"Iloilo","ID_2":603028,"NAME_2":"Leon","ID_3":603028013,"NAME_3":"Banagan","NL_NAME_3":null,"VARNAME_3":null,"TYPE_3":"Barangay","ENGTYPE_3":"Village","PROVINCE":"Iloilo","REGION":"Region VI (Western Visayas)","id":"barangay-0603028013","name":"Banagan","barangayCode":"0603028013","population":null,"formattedPop":null,"densityCategory":"No data","vulnerabilityRating":"No data","healthRiskLevel":"No data","areaKm2":1.849194,"centerLat":10.872091,"centerLng":122.344555,"geometrySource":"all_barangay-2.csv detailed WKT","geometryMatchMethod":"unique_official_admin_names","boundaryPointCount":13},"geometry":{"type":"MultiPolygon","coordinates":[[[[122.326042,10.87949],[122.331627,10.87806],[122.334793,10.87725],[122.338058,10.87652],[122.341309,10.87425],[122.346313,10.87243],[122.348061,10.87145],[122.350212,10.86952],[122.347717,10.86874],[122.337517,10.87079],[122.330597,10.8733],[122.32531,10.87598],[122.326042,10.87949]]]]}},{"type":"Feature","properties":{"ID_0":177,"ISO":"PHL","NAME_0":"Philippines","ID_1":6030,"NAME_1":"Iloilo","ID_2":603028,"NAME_2":"Leon","ID_3":603028014,"NAME_3":"Barangbang","NL_NAME_3":null,"VARNAME_3":null,"TYPE_3":"Barangay","ENGTYPE_3":"Village","PROVINCE":"Iloilo","REGION":"Region VI (Western Visayas)","id":"barangay-0603028014","name":"Barangbang","barangayCode":"0603028014","population":null,"formattedPop":null,"densityCategory":"No data","vulnerabilityRating":"No data","healthRiskLevel":"No data","areaKm2":0.709865,"centerLat":10.815341,"centerLng":122.330024,"geometrySource":"all_barangay-2.csv detailed WKT","geometryMatchMethod":"unique_official_admin_names","boundaryPointCount":6},"geometry":{"type":"MultiPolygon","coordinates":[[[[122.335373,10.81415],[122.333992,10.81131],[122.324966,10.81214],[122.328232,10.8196],[122.334747,10.81872],[122.335373,10.81415]]]]}},{"type":"Feature","properties":{"ID_0":177,"ISO":"PHL","NAME_0":"Philippines","ID_1":6030,"NAME_1":"Iloilo","ID_2":603028,"NAME_2":"Leon","ID_3":603028015,"NAME_3":"Barasan","NL_NAME_3":null,"VARNAME_3":null,"TYPE_3":"Barangay","ENGTYPE_3":"Village","PROVINCE":"Iloilo","REGION":"Region VI (Western Visayas)","id":"barangay-0603028015","name":"Barasan","barangayCode":"0603028015","population":null,"formattedPop":null,"densityCategory":"No data","vulnerabilityRating":"No data","healthRiskLevel":"No data","areaKm2":1.13062,"centerLat":10.78796,"centerLng":122.371815,"geometrySource":"all_barangay-2.csv detailed WKT","geometryMatchMethod":"unique_official_admin_names","boundaryPointCount":4},"geometry":{"type":"MultiPolygon","coordinates":[[[[122.362869,10.78883],[122.37207,10.79449],[122.380447,10.78041],[122.362869,10.78883]]]]}},{"type":"Feature","properties":{"ID_0":177,"ISO":"PHL","NAME_0":"Philippines","ID_1":6030,"NAME_1":"Iloilo","ID_2":603028,"NAME_2":"Leon","ID_3":603028016,"NAME_3":"Bayag Norte","NL_NAME_3":null,"VARNAME_3":null,"TYPE_3":"Barangay","ENGTYPE_3":"Village","PROVINCE":"Iloilo","REGION":"Region VI (Western Visayas)","id":"barangay-0603028016","name":"Bayag Norte","barangayCode":"0603028016","population":null,"formattedPop":null,"densityCategory":"No data","vulnerabilityRating":"No data","healthRiskLevel":"No data","areaKm2":0.386258,"centerLat":10.771791,"centerLng":122.352566,"geometrySource":"all_barangay-2.csv detailed WKT","geometryMatchMethod":"unique_official_admin_names","boundaryPointCount":4},"geometry":{"type":"MultiPolygon","coordinates":[[[[122.348808,10.7713],[122.35733,10.77608],[122.354309,10.76837],[122.348808,10.7713]]]]}},{"type":"Feature","properties":{"ID_0":177,"ISO":"PHL","NAME_0":"Philippines","ID_1":6030,"NAME_1":"Iloilo","ID_2":603028,"NAME_2":"Leon","ID_3":603028017,"NAME_3":"Bayag Sur","NL_NAME_3":null,"VARNAME_3":null,"TYPE_3":"Barangay","ENGTYPE_3":"Village","PROVINCE":"Iloilo","REGION":"Region VI (Western Visayas)","id":"barangay-0603028017","name":"Bayag Sur","barangayCode":"0603028017","population":null,"formattedPop":null,"densityCategory":"No data","vulnerabilityRating":"No data","healthRiskLevel":"No data","areaKm2":0.73054,"centerLat":10.766825,"centerLng":122.347611,"geometrySource":"all_barangay-2.csv detailed WKT","geometryMatchMethod":"unique_official_admin_names","boundaryPointCount":5},"geometry":{"type":"MultiPolygon","coordinates":[[[[122.348808,10.7713],[122.354309,10.76837],[122.352654,10.7647],[122.340347,10.76582],[122.348808,10.7713]]]]}},{"type":"Feature","properties":{"ID_0":177,"ISO":"PHL","NAME_0":"Philippines","ID_1":6030,"NAME_1":"Iloilo","ID_2":603028,"NAME_2":"Leon","ID_3":603028018,"NAME_3":"Binolbog","NL_NAME_3":null,"VARNAME_3":null,"TYPE_3":"Barangay","ENGTYPE_3":"Village","PROVINCE":"Iloilo","REGION":"Region VI (Western Visayas)","id":"barangay-0603028018","name":"Binolbog","barangayCode":"0603028018","population":null,"formattedPop":null,"densityCategory":"No data","vulnerabilityRating":"No data","healthRiskLevel":"No data","areaKm2":0.594363,"centerLat":10.783006,"centerLng":122.335582,"geometrySource":"all_barangay-2.csv detailed WKT","geometryMatchMethod":"unique_official_admin_names","boundaryPointCount":13},"geometry":{"type":"MultiPolygon","coordinates":[[[[122.336594,10.78799],[122.33831,10.78552],[122.339172,10.78484],[122.339638,10.78446],[122.338966,10.78282],[122.339462,10.78249],[122.340149,10.78214],[122.340553,10.78134],[122.341537,10.78075],[122.335854,10.77814],[122.334129,10.78075],[122.331596,10.78616],[122.336594,10.78799]]]]}},{"type":"Feature","properties":{"ID_0":177,"ISO":"PHL","NAME_0":"Philippines","ID_1":6030,"NAME_1":"Iloilo","ID_2":603028,"NAME_2":"Leon","ID_3":603028019,"NAME_3":"Biri Norte","NL_NAME_3":null,"VARNAME_3":null,"TYPE_3":"Barangay","ENGTYPE_3":"Village","PROVINCE":"Iloilo","REGION":"Region VI (Western Visayas)","id":"barangay-0603028019","name":"Biri Norte","barangayCode":"0603028019","population":null,"formattedPop":null,"densityCategory":"No data","vulnerabilityRating":"No data","healthRiskLevel":"No data","areaKm2":2.632824,"centerLat":10.760729,"centerLng":122.379694,"geometrySource":"all_barangay-2.csv detailed WKT","geometryMatchMethod":"unique_official_admin_names","boundaryPointCount":8},"geometry":{"type":"MultiPolygon","coordinates":[[[[122.392929,10.76551],[122.385429,10.75371],[122.375809,10.75402],[122.374496,10.75404],[122.367058,10.76183],[122.365936,10.76312],[122.379723,10.76643],[122.392929,10.76551]]]]}},{"type":"Feature","properties":{"ID_0":177,"ISO":"PHL","NAME_0":"Philippines","ID_1":6030,"NAME_1":"Iloilo","ID_2":603028,"NAME_2":"Leon","ID_3":603028020,"NAME_3":"Biri Sur","NL_NAME_3":null,"VARNAME_3":null,"TYPE_3":"Barangay","ENGTYPE_3":"Village","PROVINCE":"Iloilo","REGION":"Region VI (Western Visayas)","id":"barangay-0603028020","name":"Biri Sur","barangayCode":"0603028020","population":null,"formattedPop":null,"densityCategory":"No data","vulnerabilityRating":"No data","healthRiskLevel":"No data","areaKm2":0.618204,"centerLat":10.759686,"centerLng":122.391476,"geometrySource":"all_barangay-2.csv detailed WKT","geometryMatchMethod":"unique_official_admin_names","boundaryPointCount":4},"geometry":{"type":"MultiPolygon","coordinates":[[[[122.397491,10.75901],[122.385429,10.75371],[122.392929,10.76551],[122.397491,10.75901]]]]}},{"type":"Feature","properties":{"ID_0":177,"ISO":"PHL","NAME_0":"Philippines","ID_1":6030,"NAME_1":"Iloilo","ID_2":603028,"NAME_2":"Leon","ID_3":603028021,"NAME_3":"Bobon","NL_NAME_3":null,"VARNAME_3":null,"TYPE_3":"Barangay","ENGTYPE_3":"Village","PROVINCE":"Iloilo","REGION":"Region VI (Western Visayas)","id":"barangay-0603028021","name":"Bobon","barangayCode":"0603028021","population":null,"formattedPop":null,"densityCategory":"No data","vulnerabilityRating":"No data","healthRiskLevel":"No data","areaKm2":2.131638,"centerLat":10.895887,"centerLng":122.289913,"geometrySource":"all_barangay-2.csv detailed WKT","geometryMatchMethod":"unique_official_admin_names","boundaryPointCount":15},"geometry":{"type":"MultiPolygon","coordinates":[[[[122.295967,10.89064],[122.28669,10.88696],[122.282867,10.88937],[122.283752,10.89065],[122.285217,10.89179],[122.286697,10.8928],[122.287582,10.89406],[122.288612,10.89545],[122.290077,10.89647],[122.29229,10.89672],[122.293312,10.89533],[122.294777,10.89469],[122.295967,10.89368],[122.29612,10.89216],[122.295967,10.89064]]]]}},{"type":"Feature","properties":{"ID_0":177,"ISO":"PHL","NAME_0":"Philippines","ID_1":6030,"NAME_1":"Iloilo","ID_2":603028,"NAME_2":"Leon","ID_3":603028022,"NAME_3":"Bucari","NL_NAME_3":null,"VARNAME_3":null,"TYPE_3":"Barangay","ENGTYPE_3":"Village","PROVINCE":"Iloilo","REGION":"Region VI (Western Visayas)","id":"barangay-0603028022","name":"Bucari","barangayCode":"0603028022","population":null,"formattedPop":null,"densityCategory":"No data","vulnerabilityRating":"No data","healthRiskLevel":"No data","areaKm2":11.4627,"centerLat":10.865376,"centerLng":122.294999,"geometrySource":"all_barangay-2.csv detailed WKT","geometryMatchMethod":"unique_official_admin_names","boundaryPointCount":30},"geometry":{"type":"MultiPolygon","coordinates":[[[[122.250793,10.88205],[122.261307,10.89543],[122.271248,10.88123],[122.285797,10.8791],[122.299332,10.86977],[122.304848,10.86898],[122.307953,10.86891],[122.309349,10.86765],[122.31176,10.86387],[122.312363,10.86179],[122.313293,10.85619],[122.313004,10.85338],[122.309433,10.85211],[122.307571,10.85267],[122.305023,10.85368],[122.30426,10.85491],[122.302116,10.8558],[122.300179,10.85651],[122.295181,10.85679],[122.291763,10.85821],[122.290398,10.85933],[122.289528,10.86112],[122.288307,10.86235],[122.284683,10.86389],[122.282127,10.86393],[122.281487,10.86481],[122.275597,10.86869],[122.263123,10.87547],[122.255547,10.87869],[122.250793,10.88205]]]]}},{"type":"Feature","properties":{"ID_0":177,"ISO":"PHL","NAME_0":"Philippines","ID_1":6030,"NAME_1":"Iloilo","ID_2":603028,"NAME_2":"Leon","ID_3":603028023,"NAME_3":"Buenavista","NL_NAME_3":null,"VARNAME_3":null,"TYPE_3":"Barangay","ENGTYPE_3":"Village","PROVINCE":"Iloilo","REGION":"Region VI (Western Visayas)","id":"barangay-0603028023","name":"Buenavista","barangayCode":"0603028023","population":null,"formattedPop":null,"densityCategory":"No data","vulnerabilityRating":"No data","healthRiskLevel":"No data","areaKm2":1.111944,"centerLat":10.758015,"centerLng":122.410597,"geometrySource":"all_barangay-2.csv detailed WKT","geometryMatchMethod":"unique_official_admin_names","boundaryPointCount":14},"geometry":{"type":"MultiPolygon","coordinates":[[[[122.420647,10.75876],[122.418892,10.7585],[122.416039,10.75673],[122.414864,10.75578],[122.413948,10.75547],[122.4133,10.75452],[122.412132,10.75447],[122.41169,10.75401],[122.40863,10.7545],[122.402039,10.75006],[122.405449,10.75759],[122.414948,10.76434],[122.41848,10.76188],[122.420647,10.75876]]]]}},{"type":"Feature","properties":{"ID_0":177,"ISO":"PHL","NAME_0":"Philippines","ID_1":6030,"NAME_1":"Iloilo","ID_2":603028,"NAME_2":"Leon","ID_3":603028024,"NAME_3":"Buga","NL_NAME_3":null,"VARNAME_3":null,"TYPE_3":"Barangay","ENGTYPE_3":"Village","PROVINCE":"Iloilo","REGION":"Region VI (Western Visayas)","id":"barangay-0603028024","name":"Buga","barangayCode":"0603028024","population":null,"formattedPop":null,"densityCategory":"No data","vulnerabilityRating":"No data","healthRiskLevel":"No data","areaKm2":6.1387,"centerLat":10.814532,"centerLng":122.390196,"geometrySource":"all_barangay-2.csv detailed WKT","geometryMatchMethod":"unique_official_admin_names","boundaryPointCount":11},"geometry":{"type":"MultiPolygon","coordinates":[[[[122.38974,10.82874],[122.390511,10.82589],[122.396667,10.82179],[122.404907,10.81256],[122.395119,10.80347],[122.386002,10.79941],[122.382103,10.80552],[122.37944,10.81051],[122.375679,10.81615],[122.379471,10.82616],[122.38974,10.82874]]]]}},{"type":"Feature","properties":{"ID_0":177,"ISO":"PHL","NAME_0":"Philippines","ID_1":6030,"NAME_1":"Iloilo","ID_2":603028,"NAME_2":"Leon","ID_3":603028025,"NAME_3":"Bulad","NL_NAME_3":null,"VARNAME_3":null,"TYPE_3":"Barangay","ENGTYPE_3":"Village","PROVINCE":"Iloilo","REGION":"Region VI (Western Visayas)","id":"barangay-0603028025","name":"Bulad","barangayCode":"0603028025","population":null,"formattedPop":null,"densityCategory":"No data","vulnerabilityRating":"No data","healthRiskLevel":"No data","areaKm2":1.027327,"centerLat":10.813435,"centerLng":122.365894,"geometrySource":"all_barangay-2.csv detailed WKT","geometryMatchMethod":"unique_official_admin_names","boundaryPointCount":6},"geometry":{"type":"MultiPolygon","coordinates":[[[[122.375679,10.81615],[122.37944,10.81051],[122.374542,10.81047],[122.370743,10.80711],[122.366707,10.81055],[122.375679,10.81615]]]]}},{"type":"Feature","properties":{"ID_0":177,"ISO":"PHL","NAME_0":"Philippines","ID_1":6030,"NAME_1":"Iloilo","ID_2":603028,"NAME_2":"Leon","ID_3":603028026,"NAME_3":"Bulwang","NL_NAME_3":null,"VARNAME_3":null,"TYPE_3":"Barangay","ENGTYPE_3":"Village","PROVINCE":"Iloilo","REGION":"Region VI (Western Visayas)","id":"barangay-0603028026","name":"Bulwang","barangayCode":"0603028026","population":null,"formattedPop":null,"densityCategory":"No data","vulnerabilityRating":"No data","healthRiskLevel":"No data","areaKm2":1.607314,"centerLat":10.884089,"centerLng":122.300561,"geometrySource":"all_barangay-2.csv detailed WKT","geometryMatchMethod":"unique_official_admin_names","boundaryPointCount":14},"geometry":{"type":"MultiPolygon","coordinates":[[[[122.295967,10.89064],[122.298622,10.89151],[122.300392,10.89075],[122.302299,10.89012],[122.30407,10.88949],[122.304672,10.8886],[122.304817,10.88809],[122.304993,10.88659],[122.299088,10.88098],[122.294067,10.88149],[122.289192,10.88062],[122.289627,10.88429],[122.28669,10.88696],[122.295967,10.89064]]]]}},{"type":"Feature","properties":{"ID_0":177,"ISO":"PHL","NAME_0":"Philippines","ID_1":6030,"NAME_1":"Iloilo","ID_2":603028,"NAME_2":"Leon","ID_3":603028027,"NAME_3":"Cabolo-an","NL_NAME_3":null,"VARNAME_3":null,"TYPE_3":"Barangay","ENGTYPE_3":"Village","PROVINCE":"Iloilo","REGION":"Region VI (Western Visayas)","id":"barangay-0603028027","name":"Cabolo-an","barangayCode":"0603028027","population":null,"formattedPop":null,"densityCategory":"No data","vulnerabilityRating":"No data","healthRiskLevel":"No data","areaKm2":1.754477,"centerLat":10.883899,"centerLng":122.319693,"geometrySource":"all_barangay-2.csv detailed WKT","geometryMatchMethod":"unique_official_admin_names","boundaryPointCount":18},"geometry":{"type":"MultiPolygon","coordinates":[[[[122.3144,10.88191],[122.326042,10.87949],[122.32531,10.87598],[122.32296,10.87509],[122.322517,10.8755],[122.3218,10.87521],[122.32122,10.87436],[122.3209,10.87357],[122.320671,10.87252],[122.32061,10.87135],[122.317299,10.86949],[122.31263,10.87159],[122.30983,10.87187],[122.310997,10.87339],[122.30954,10.87605],[122.31102,10.87772],[122.312477,10.87962],[122.3144,10.88191]]]]}},{"type":"Feature","properties":{"ID_0":177,"ISO":"PHL","NAME_0":"Philippines","ID_1":6030,"NAME_1":"Iloilo","ID_2":603028,"NAME_2":"Leon","ID_3":603028028,"NAME_3":"Cabunga-an","NL_NAME_3":null,"VARNAME_3":null,"TYPE_3":"Barangay","ENGTYPE_3":"Village","PROVINCE":"Iloilo","REGION":"Region VI (Western Visayas)","id":"barangay-0603028028","name":"Cabunga-an","barangayCode":"0603028028","population":null,"formattedPop":null,"densityCategory":"No data","vulnerabilityRating":"No data","healthRiskLevel":"No data","areaKm2":0.8353,"centerLat":10.88036,"centerLng":122.310319,"geometrySource":"all_barangay-2.csv detailed WKT","geometryMatchMethod":"unique_official_admin_names","boundaryPointCount":12},"geometry":{"type":"MultiPolygon","coordinates":[[[[122.307037,10.88773],[122.308952,10.8852],[122.311752,10.88368],[122.3144,10.88191],[122.312477,10.87962],[122.31102,10.87772],[122.30954,10.87605],[122.305412,10.87719],[122.302032,10.87883],[122.299088,10.88098],[122.304993,10.88659],[122.307037,10.88773]]]]}},{"type":"Feature","properties":{"ID_0":177,"ISO":"PHL","NAME_0":"Philippines","ID_1":6030,"NAME_1":"Iloilo","ID_2":603028,"NAME_2":"Leon","ID_3":603028029,"NAME_3":"Cabutongan","NL_NAME_3":null,"VARNAME_3":null,"TYPE_3":"Barangay","ENGTYPE_3":"Village","PROVINCE":"Iloilo","REGION":"Region VI (Western Visayas)","id":"barangay-0603028029","name":"Cabutongan","barangayCode":"0603028029","population":null,"formattedPop":null,"densityCategory":"No data","vulnerabilityRating":"No data","healthRiskLevel":"No data","areaKm2":0.405487,"centerLat":10.782254,"centerLng":122.350517,"geometrySource":"all_barangay-2.csv detailed WKT","geometryMatchMethod":"unique_official_admin_names","boundaryPointCount":8},"geometry":{"type":"MultiPolygon","coordinates":[[[[122.355698,10.78457],[122.35511,10.77932],[122.34639,10.78232],[122.346649,10.78437],[122.347687,10.78445],[122.351318,10.78406],[122.35405,10.78446],[122.355698,10.78457]]]]}},{"type":"Feature","properties":{"ID_0":177,"ISO":"PHL","NAME_0":"Philippines","ID_1":6030,"NAME_1":"Iloilo","ID_2":603028,"NAME_2":"Leon","ID_3":603028030,"NAME_3":"Cagay","NL_NAME_3":null,"VARNAME_3":null,"TYPE_3":"Barangay","ENGTYPE_3":"Village","PROVINCE":"Iloilo","REGION":"Region VI (Western Visayas)","id":"barangay-0603028030","name":"Cagay","barangayCode":"0603028030","population":null,"formattedPop":null,"densityCategory":"No data","vulnerabilityRating":"No data","healthRiskLevel":"No data","areaKm2":0.704302,"centerLat":10.858476,"centerLng":122.290384,"geometrySource":"all_barangay-2.csv detailed WKT","geometryMatchMethod":"unique_official_admin_names","boundaryPointCount":30},"geometry":{"type":"MultiPolygon","coordinates":[[[[122.244324,10.87424],[122.250793,10.88205],[122.255547,10.87869],[122.263123,10.87547],[122.275597,10.86869],[122.281487,10.86481],[122.282127,10.86393],[122.284683,10.86389],[122.288307,10.86235],[122.289528,10.86112],[122.290398,10.85933],[122.291763,10.85821],[122.295181,10.85679],[122.300179,10.85651],[122.302116,10.8558],[122.30426,10.85491],[122.305023,10.85368],[122.30423,10.85155],[122.303886,10.84967],[122.303101,10.8478],[122.301826,10.8452],[122.29985,10.84243],[122.297653,10.84461],[122.29689,10.84575],[122.294228,10.8467],[122.293388,10.84822],[122.289436,10.84827],[122.253464,10.86393],[122.241707,10.87065],[122.244324,10.87424]]]]}},{"type":"Feature","properties":{"ID_0":177,"ISO":"PHL","NAME_0":"Philippines","ID_1":6030,"NAME_1":"Iloilo","ID_2":603028,"NAME_2":"Leon","ID_3":603028031,"NAME_3":"Camandag","NL_NAME_3":null,"VARNAME_3":null,"TYPE_3":"Barangay","ENGTYPE_3":"Village","PROVINCE":"Iloilo","REGION":"Region VI (Western Visayas)","id":"barangay-0603028031","name":"Camandag","barangayCode":"0603028031","population":null,"formattedPop":null,"densityCategory":"No data","vulnerabilityRating":"No data","healthRiskLevel":"No data","areaKm2":6.897017,"centerLat":10.881847,"centerLng":122.273865,"geometrySource":"all_barangay-2.csv detailed WKT","geometryMatchMethod":"unique_official_admin_names","boundaryPointCount":12},"geometry":{"type":"MultiPolygon","coordinates":[[[[122.261307,10.89543],[122.273933,10.89354],[122.274384,10.89347],[122.279327,10.89273],[122.282623,10.892],[122.282867,10.88937],[122.28669,10.88696],[122.289627,10.88429],[122.289192,10.88062],[122.285797,10.8791],[122.271248,10.88123],[122.261307,10.89543]]]]}},{"type":"Feature","properties":{"ID_0":177,"ISO":"PHL","NAME_0":"Philippines","ID_1":6030,"NAME_1":"Iloilo","ID_2":603028,"NAME_2":"Leon","ID_3":603028032,"NAME_3":"Camando","NL_NAME_3":null,"VARNAME_3":null,"TYPE_3":"Barangay","ENGTYPE_3":"Village","PROVINCE":"Iloilo","REGION":"Region VI (Western Visayas)","id":"barangay-0603028032","name":"Camando","barangayCode":"0603028032","population":null,"formattedPop":null,"densityCategory":"No data","vulnerabilityRating":"No data","healthRiskLevel":"No data","areaKm2":0.687588,"centerLat":10.803312,"centerLng":122.380054,"geometrySource":"all_barangay-2.csv detailed WKT","geometryMatchMethod":"unique_official_admin_names","boundaryPointCount":5},"geometry":{"type":"MultiPolygon","coordinates":[[[[122.386002,10.79941],[122.39167,10.79391],[122.37207,10.79449],[122.378868,10.79943],[122.386002,10.79941]]]]}},{"type":"Feature","properties":{"ID_0":177,"ISO":"PHL","NAME_0":"Philippines","ID_1":6030,"NAME_1":"Iloilo","ID_2":603028,"NAME_2":"Leon","ID_3":603028033,"NAME_3":"Cananaman","NL_NAME_3":null,"VARNAME_3":null,"TYPE_3":"Barangay","ENGTYPE_3":"Village","PROVINCE":"Iloilo","REGION":"Region VI (Western Visayas)","id":"barangay-0603028033","name":"Cananaman","barangayCode":"0603028033","population":null,"formattedPop":null,"densityCategory":"No data","vulnerabilityRating":"No data","healthRiskLevel":"No data","areaKm2":0.791298,"centerLat":10.794288,"centerLng":122.335972,"geometrySource":"all_barangay-2.csv detailed WKT","geometryMatchMethod":"unique_official_admin_names","boundaryPointCount":24},"geometry":{"type":"MultiPolygon","coordinates":[[[[122.338226,10.79637],[122.338783,10.79587],[122.339417,10.79467],[122.340431,10.79422],[122.341621,10.79384],[122.342644,10.79307],[122.342949,10.7921],[122.34359,10.79166],[122.346367,10.791],[122.340523,10.78929],[122.338928,10.79118],[122.336258,10.79169],[122.334251,10.79199],[122.331383,10.79229],[122.33017,10.79271],[122.328697,10.79415],[122.333572,10.79771],[122.335007,10.79636],[122.335617,10.79615],[122.336288,10.79606],[122.33667,10.79609],[122.337303,10.79623],[122.337753,10.79632],[122.338226,10.79637]]]]}},{"type":"Feature","properties":{"ID_0":177,"ISO":"PHL","NAME_0":"Philippines","ID_1":6030,"NAME_1":"Iloilo","ID_2":603028,"NAME_2":"Leon","ID_3":603028034,"NAME_3":"Capt. Fernando","NL_NAME_3":null,"VARNAME_3":null,"TYPE_3":"Barangay","ENGTYPE_3":"Village","PROVINCE":"Iloilo","REGION":"Region VI (Western Visayas)","id":"barangay-0603028034","name":"Capt. Fernando","barangayCode":"0603028034","population":null,"formattedPop":null,"densityCategory":"No data","vulnerabilityRating":"No data","healthRiskLevel":"No data","areaKm2":1.485272,"centerLat":10.802547,"centerLng":122.369429,"geometrySource":"all_barangay-2.csv detailed WKT","geometryMatchMethod":"unique_official_admin_names","boundaryPointCount":7},"geometry":{"type":"MultiPolygon","coordinates":[[[[122.370743,10.80711],[122.374153,10.80381],[122.378868,10.79943],[122.37207,10.79449],[122.360489,10.80371],[122.366707,10.81055],[122.370743,10.80711]]]]}},{"type":"Feature","properties":{"ID_0":177,"ISO":"PHL","NAME_0":"Philippines","ID_1":6030,"NAME_1":"Iloilo","ID_2":603028,"NAME_2":"Leon","ID_3":603028035,"NAME_3":"Carara-an","NL_NAME_3":null,"VARNAME_3":null,"TYPE_3":"Barangay","ENGTYPE_3":"Village","PROVINCE":"Iloilo","REGION":"Region VI (Western Visayas)","id":"barangay-0603028035","name":"Carara-an","barangayCode":"0603028035","population":null,"formattedPop":null,"densityCategory":"No data","vulnerabilityRating":"No data","healthRiskLevel":"No data","areaKm2":2.336111,"centerLat":10.842527,"centerLng":122.345648,"geometrySource":"all_barangay-2.csv detailed WKT","geometryMatchMethod":"unique_official_admin_names","boundaryPointCount":12},"geometry":{"type":"MultiPolygon","coordinates":[[[[122.349037,10.85436],[122.359177,10.84165],[122.356041,10.83909],[122.355812,10.83985],[122.354538,10.84056],[122.354187,10.8407],[122.350853,10.84048],[122.346817,10.84398],[122.344887,10.84621],[122.343231,10.84777],[122.3479,10.8481],[122.349037,10.85436]]]]}},{"type":"Feature","properties":{"ID_0":177,"ISO":"PHL","NAME_0":"Philippines","ID_1":6030,"NAME_1":"Iloilo","ID_2":603028,"NAME_2":"Leon","ID_3":603028036,"NAME_3":"Carolina","NL_NAME_3":null,"VARNAME_3":null,"TYPE_3":"Barangay","ENGTYPE_3":"Village","PROVINCE":"Iloilo","REGION":"Region VI (Western Visayas)","id":"barangay-0603028036","name":"Carolina","barangayCode":"0603028036","population":null,"formattedPop":null,"densityCategory":"No data","vulnerabilityRating":"No data","healthRiskLevel":"No data","areaKm2":0.37728,"centerLat":10.795534,"centerLng":122.353985,"geometrySource":"all_barangay-2.csv detailed WKT","geometryMatchMethod":"unique_official_admin_names","boundaryPointCount":14},"geometry":{"type":"MultiPolygon","coordinates":[[[[122.355972,10.78641],[122.355698,10.78457],[122.35405,10.78446],[122.351318,10.78406],[122.347687,10.78445],[122.346649,10.78437],[122.347473,10.7871],[122.349937,10.78806],[122.35041,10.78783],[122.351822,10.7876],[122.352997,10.78737],[122.354187,10.78714],[122.355133,10.78667],[122.355972,10.78641]]]]}},{"type":"Feature","properties":{"ID_0":177,"ISO":"PHL","NAME_0":"Philippines","ID_1":6030,"NAME_1":"Iloilo","ID_2":603028,"NAME_2":"Leon","ID_3":603028037,"NAME_3":"Cawilihan","NL_NAME_3":null,"VARNAME_3":null,"TYPE_3":"Barangay","ENGTYPE_3":"Village","PROVINCE":"Iloilo","REGION":"Region VI (Western Visayas)","id":"barangay-0603028037","name":"Cawilihan","barangayCode":"0603028037","population":null,"formattedPop":null,"densityCategory":"No data","vulnerabilityRating":"No data","healthRiskLevel":"No data","areaKm2":5.81273,"centerLat":10.841338,"centerLng":122.3119,"geometrySource":"all_barangay-2.csv detailed WKT","geometryMatchMethod":"unique_official_admin_names","boundaryPointCount":27},"geometry":{"type":"MultiPolygon","coordinates":[[[[122.313004,10.85338],[122.314331,10.85189],[122.314941,10.85024],[122.314987,10.84975],[122.315781,10.84913],[122.316727,10.84787],[122.3172,10.84743],[122.31781,10.84672],[122.317413,10.84511],[122.317123,10.84412],[122.31723,10.84081],[122.316841,10.83938],[122.318352,10.83243],[122.315971,10.83048],[122.315361,10.82463],[122.313148,10.82955],[122.304222,10.83489],[122.296532,10.83464],[122.29985,10.84243],[122.301826,10.8452],[122.303101,10.8478],[122.303886,10.84967],[122.30423,10.85155],[122.305023,10.85368],[122.307571,10.85267],[122.309433,10.85211],[122.313004,10.85338]]]]}},{"type":"Feature","properties":{"ID_0":177,"ISO":"PHL","NAME_0":"Philippines","ID_1":6030,"NAME_1":"Iloilo","ID_2":603028,"NAME_2":"Leon","ID_3":603028038,"NAME_3":"Coyugan Norte","NL_NAME_3":null,"VARNAME_3":null,"TYPE_3":"Barangay","ENGTYPE_3":"Village","PROVINCE":"Iloilo","REGION":"Region VI (Western Visayas)","id":"barangay-0603028038","name":"Coyugan Norte","barangayCode":"0603028038","population":null,"formattedPop":null,"densityCategory":"No data","vulnerabilityRating":"No data","healthRiskLevel":"No data","areaKm2":0.940619,"centerLat":10.825028,"centerLng":122.352015,"geometrySource":"all_barangay-2.csv detailed WKT","geometryMatchMethod":"unique_official_admin_names","boundaryPointCount":12},"geometry":{"type":"MultiPolygon","coordinates":[[[[122.356812,10.82728],[122.357857,10.82737],[122.361237,10.82583],[122.359207,10.82066],[122.344254,10.82378],[122.343613,10.82909],[122.344978,10.82885],[122.348137,10.82881],[122.350517,10.82789],[122.353271,10.82826],[122.355011,10.8279],[122.356812,10.82728]]]]}},{"type":"Feature","properties":{"ID_0":177,"ISO":"PHL","NAME_0":"Philippines","ID_1":6030,"NAME_1":"Iloilo","ID_2":603028,"NAME_2":"Leon","ID_3":603028039,"NAME_3":"Coyugan Sur","NL_NAME_3":null,"VARNAME_3":null,"TYPE_3":"Barangay","ENGTYPE_3":"Village","PROVINCE":"Iloilo","REGION":"Region VI (Western Visayas)","id":"barangay-0603028039","name":"Coyugan Sur","barangayCode":"0603028039","population":null,"formattedPop":null,"densityCategory":"No data","vulnerabilityRating":"No data","healthRiskLevel":"No data","areaKm2":1.218665,"centerLat":10.814446,"centerLng":122.339862,"geometrySource":"all_barangay-2.csv detailed WKT","geometryMatchMethod":"unique_official_admin_names","boundaryPointCount":7},"geometry":{"type":"MultiPolygon","coordinates":[[[[122.346992,10.81718],[122.341057,10.80636],[122.337273,10.81007],[122.333992,10.81131],[122.335373,10.81415],[122.339493,10.82149],[122.346992,10.81718]]]]}},{"type":"Feature","properties":{"ID_0":177,"ISO":"PHL","NAME_0":"Philippines","ID_1":6030,"NAME_1":"Iloilo","ID_2":603028,"NAME_2":"Leon","ID_3":603028040,"NAME_3":"Danao","NL_NAME_3":null,"VARNAME_3":null,"TYPE_3":"Barangay","ENGTYPE_3":"Village","PROVINCE":"Iloilo","REGION":"Region VI (Western Visayas)","id":"barangay-0603028040","name":"Danao","barangayCode":"0603028040","population":null,"formattedPop":null,"densityCategory":"No data","vulnerabilityRating":"No data","healthRiskLevel":"No data","areaKm2":2.498252,"centerLat":10.855647,"centerLng":122.279767,"geometrySource":"all_barangay-2.csv detailed WKT","geometryMatchMethod":"unique_official_admin_names","boundaryPointCount":7},"geometry":{"type":"MultiPolygon","coordinates":[[[[122.241707,10.87065],[122.253464,10.86393],[122.289436,10.84827],[122.284927,10.84053],[122.226273,10.85174],[122.233124,10.86677],[122.241707,10.87065]]]]}},{"type":"Feature","properties":{"ID_0":177,"ISO":"PHL","NAME_0":"Philippines","ID_1":6030,"NAME_1":"Iloilo","ID_2":603028,"NAME_2":"Leon","ID_3":603028041,"NAME_3":"Dorog","NL_NAME_3":null,"VARNAME_3":null,"TYPE_3":"Barangay","ENGTYPE_3":"Village","PROVINCE":"Iloilo","REGION":"Region VI (Western Visayas)","id":"barangay-0603028041","name":"Dorog","barangayCode":"0603028041","population":null,"formattedPop":null,"densityCategory":"No data","vulnerabilityRating":"No data","healthRiskLevel":"No data","areaKm2":1.765351,"centerLat":10.83472,"centerLng":122.331387,"geometrySource":"all_barangay-2.csv detailed WKT","geometryMatchMethod":"unique_official_admin_names","boundaryPointCount":16},"geometry":{"type":"MultiPolygon","coordinates":[[[[122.328903,10.85166],[122.335373,10.84502],[122.339127,10.83721],[122.33741,10.83338],[122.334129,10.82575],[122.328407,10.82841],[122.320457,10.83193],[122.318352,10.83243],[122.316841,10.83938],[122.31723,10.84081],[122.320053,10.84209],[122.321487,10.84355],[122.322281,10.84571],[122.323357,10.84749],[122.323837,10.84898],[122.328903,10.85166]]]]}},{"type":"Feature","properties":{"ID_0":177,"ISO":"PHL","NAME_0":"Philippines","ID_1":6030,"NAME_1":"Iloilo","ID_2":603028,"NAME_2":"Leon","ID_3":603028042,"NAME_3":"Dusacan","NL_NAME_3":null,"VARNAME_3":null,"TYPE_3":"Barangay","ENGTYPE_3":"Village","PROVINCE":"Iloilo","REGION":"Region VI (Western Visayas)","id":"barangay-0603028042","name":"Dusacan","barangayCode":"0603028042","population":null,"formattedPop":null,"densityCategory":"No data","vulnerabilityRating":"No data","healthRiskLevel":"No data","areaKm2":1.78018,"centerLat":10.833118,"centerLng":122.350657,"geometrySource":"all_barangay-2.csv detailed WKT","geometryMatchMethod":"unique_official_admin_names","boundaryPointCount":23},"geometry":{"type":"MultiPolygon","coordinates":[[[[122.356041,10.83909],[122.358253,10.83235],[122.356812,10.82728],[122.355011,10.8279],[122.353271,10.82826],[122.350517,10.82789],[122.348137,10.82881],[122.344978,10.82885],[122.343613,10.82909],[122.342812,10.83527],[122.344597,10.83523],[122.346611,10.83558],[122.34774,10.83598],[122.348846,10.83674],[122.350121,10.83776],[122.350533,10.83835],[122.350792,10.83908],[122.350883,10.83969],[122.350853,10.84048],[122.354187,10.8407],[122.354538,10.84056],[122.355812,10.83985],[122.356041,10.83909]]]]}},{"type":"Feature","properties":{"ID_0":177,"ISO":"PHL","NAME_0":"Philippines","ID_1":6030,"NAME_1":"Iloilo","ID_2":603028,"NAME_2":"Leon","ID_3":603028043,"NAME_3":"Gines","NL_NAME_3":null,"VARNAME_3":null,"TYPE_3":"Barangay","ENGTYPE_3":"Village","PROVINCE":"Iloilo","REGION":"Region VI (Western Visayas)","id":"barangay-0603028043","name":"Gines","barangayCode":"0603028043","population":null,"formattedPop":null,"densityCategory":"No data","vulnerabilityRating":"No data","healthRiskLevel":"No data","areaKm2":0.600057,"centerLat":10.859146,"centerLng":122.341128,"geometrySource":"all_barangay-2.csv detailed WKT","geometryMatchMethod":"unique_official_admin_names","boundaryPointCount":10},"geometry":{"type":"MultiPolygon","coordinates":[[[[122.3442,10.86556],[122.346519,10.85718],[122.348083,10.8575],[122.348373,10.8563],[122.349037,10.85436],[122.3479,10.8481],[122.343231,10.84777],[122.338242,10.85487],[122.34182,10.86454],[122.3442,10.86556]]]]}},{"type":"Feature","properties":{"ID_0":177,"ISO":"PHL","NAME_0":"Philippines","ID_1":6030,"NAME_1":"Iloilo","ID_2":603028,"NAME_2":"Leon","ID_3":603028044,"NAME_3":"Gumboc","NL_NAME_3":null,"VARNAME_3":null,"TYPE_3":"Barangay","ENGTYPE_3":"Village","PROVINCE":"Iloilo","REGION":"Region VI (Western Visayas)","id":"barangay-0603028044","name":"Gumboc","barangayCode":"0603028044","population":null,"formattedPop":null,"densityCategory":"No data","vulnerabilityRating":"No data","healthRiskLevel":"No data","areaKm2":0.839648,"centerLat":10.801582,"centerLng":122.357682,"geometrySource":"all_barangay-2.csv detailed WKT","geometryMatchMethod":"unique_official_admin_names","boundaryPointCount":6},"geometry":{"type":"MultiPolygon","coordinates":[[[[122.360489,10.80371],[122.35675,10.79105],[122.349251,10.79205],[122.351059,10.79908],[122.350349,10.808],[122.360489,10.80371]]]]}},{"type":"Feature","properties":{"ID_0":177,"ISO":"PHL","NAME_0":"Philippines","ID_1":6030,"NAME_1":"Iloilo","ID_2":603028,"NAME_2":"Leon","ID_3":603028045,"NAME_3":"Igcadios","NL_NAME_3":null,"VARNAME_3":null,"TYPE_3":"Barangay","ENGTYPE_3":"Village","PROVINCE":"Iloilo","REGION":"Region VI (Western Visayas)","id":"barangay-0603028045","name":"Igcadios","barangayCode":"0603028045","population":null,"formattedPop":null,"densityCategory":"No data","vulnerabilityRating":"No data","healthRiskLevel":"No data","areaKm2":0.807957,"centerLat":10.848448,"centerLng":122.338855,"geometrySource":"all_barangay-2.csv detailed WKT","geometryMatchMethod":"unique_official_admin_names","boundaryPointCount":21},"geometry":{"type":"MultiPolygon","coordinates":[[[[122.329224,10.85645],[122.332382,10.85401],[122.335373,10.854],[122.338242,10.85487],[122.343231,10.84777],[122.344887,10.84621],[122.346817,10.84398],[122.350853,10.84048],[122.350883,10.83969],[122.350792,10.83908],[122.350533,10.83835],[122.350121,10.83776],[122.348846,10.83674],[122.34774,10.83598],[122.346611,10.83558],[122.344597,10.83523],[122.342812,10.83527],[122.339127,10.83721],[122.335373,10.84502],[122.328903,10.85166],[122.329224,10.85645]]]]}},{"type":"Feature","properties":{"ID_0":177,"ISO":"PHL","NAME_0":"Philippines","ID_1":6030,"NAME_1":"Iloilo","ID_2":603028,"NAME_2":"Leon","ID_3":603028046,"NAME_3":"Ingay","NL_NAME_3":null,"VARNAME_3":null,"TYPE_3":"Barangay","ENGTYPE_3":"Village","PROVINCE":"Iloilo","REGION":"Region VI (Western Visayas)","id":"barangay-0603028046","name":"Ingay","barangayCode":"0603028046","population":null,"formattedPop":null,"densityCategory":"No data","vulnerabilityRating":"No data","healthRiskLevel":"No data","areaKm2":3.70705,"centerLat":10.84741,"centerLng":122.287891,"geometrySource":"all_barangay-2.csv detailed WKT","geometryMatchMethod":"unique_official_admin_names","boundaryPointCount":12},"geometry":{"type":"MultiPolygon","coordinates":[[[[122.29985,10.84243],[122.296532,10.83464],[122.295853,10.83659],[122.293442,10.83825],[122.290314,10.8395],[122.284927,10.84053],[122.289436,10.84827],[122.293388,10.84822],[122.294228,10.8467],[122.29689,10.84575],[122.297653,10.84461],[122.29985,10.84243]]]]}},{"type":"Feature","properties":{"ID_0":177,"ISO":"PHL","NAME_0":"Philippines","ID_1":6030,"NAME_1":"Iloilo","ID_2":603028,"NAME_2":"Leon","ID_3":603028047,"NAME_3":"Isian Norte","NL_NAME_3":null,"VARNAME_3":null,"TYPE_3":"Barangay","ENGTYPE_3":"Village","PROVINCE":"Iloilo","REGION":"Region VI (Western Visayas)","id":"barangay-0603028047","name":"Isian Norte","barangayCode":"0603028047","population":null,"formattedPop":null,"densityCategory":"No data","vulnerabilityRating":"No data","healthRiskLevel":"No data","areaKm2":1.251001,"centerLat":10.767592,"centerLng":122.369041,"geometrySource":"all_barangay-2.csv detailed WKT","geometryMatchMethod":"unique_official_admin_names","boundaryPointCount":5},"geometry":{"type":"MultiPolygon","coordinates":[[[[122.362328,10.76719],[122.367416,10.77314],[122.379723,10.76643],[122.365936,10.76312],[122.362328,10.76719]]]]}},{"type":"Feature","properties":{"ID_0":177,"ISO":"PHL","NAME_0":"Philippines","ID_1":6030,"NAME_1":"Iloilo","ID_2":603028,"NAME_2":"Leon","ID_3":603028048,"NAME_3":"Isian Victoria","NL_NAME_3":null,"VARNAME_3":null,"TYPE_3":"Barangay","ENGTYPE_3":"Village","PROVINCE":"Iloilo","REGION":"Region VI (Western Visayas)","id":"barangay-0603028048","name":"Isian Victoria","barangayCode":"0603028048","population":null,"formattedPop":null,"densityCategory":"No data","vulnerabilityRating":"No data","healthRiskLevel":"No data","areaKm2":0.978183,"centerLat":10.784078,"centerLng":122.359038,"geometrySource":"all_barangay-2.csv detailed WKT","geometryMatchMethod":"unique_official_admin_names","boundaryPointCount":15},"geometry":{"type":"MultiPolygon","coordinates":[[[[122.35994,10.79024],[122.362869,10.78883],[122.363907,10.78451],[122.35733,10.77608],[122.35511,10.77932],[122.355698,10.78457],[122.355972,10.78641],[122.356537,10.78621],[122.357933,10.78636],[122.358139,10.78615],[122.359268,10.78697],[122.358948,10.78808],[122.359848,10.78866],[122.359894,10.79016],[122.35994,10.79024]]]]}},{"type":"Feature","properties":{"ID_0":177,"ISO":"PHL","NAME_0":"Philippines","ID_1":6030,"NAME_1":"Iloilo","ID_2":603028,"NAME_2":"Leon","ID_3":603028049,"NAME_3":"Jamog Gines","NL_NAME_3":null,"VARNAME_3":null,"TYPE_3":"Barangay","ENGTYPE_3":"Village","PROVINCE":"Iloilo","REGION":"Region VI (Western Visayas)","id":"barangay-0603028049","name":"Jamog Gines","barangayCode":"0603028049","population":null,"formattedPop":null,"densityCategory":"No data","vulnerabilityRating":"No data","healthRiskLevel":"No data","areaKm2":1.082909,"centerLat":10.767291,"centerLng":122.358082,"geometrySource":"all_barangay-2.csv detailed WKT","geometryMatchMethod":"unique_official_admin_names","boundaryPointCount":6},"geometry":{"type":"MultiPolygon","coordinates":[[[[122.35733,10.77608],[122.362328,10.76719],[122.365936,10.76312],[122.352654,10.7647],[122.354309,10.76837],[122.35733,10.77608]]]]}},{"type":"Feature","properties":{"ID_0":177,"ISO":"PHL","NAME_0":"Philippines","ID_1":6030,"NAME_1":"Iloilo","ID_2":603028,"NAME_2":"Leon","ID_3":603028050,"NAME_3":"Lanag","NL_NAME_3":null,"VARNAME_3":null,"TYPE_3":"Barangay","ENGTYPE_3":"Village","PROVINCE":"Iloilo","REGION":"Region VI (Western Visayas)","id":"barangay-0603028050","name":"Lanag","barangayCode":"0603028050","population":null,"formattedPop":null,"densityCategory":"No data","vulnerabilityRating":"No data","healthRiskLevel":"No data","areaKm2":4.059966,"centerLat":10.800192,"centerLng":122.40071,"geometrySource":"all_barangay-2.csv detailed WKT","geometryMatchMethod":"unique_official_admin_names","boundaryPointCount":20},"geometry":{"type":"MultiPolygon","coordinates":[[[[122.406883,10.80937],[122.408463,10.8086],[122.409447,10.80813],[122.4104,10.80678],[122.41127,10.80596],[122.412323,10.80493],[122.412857,10.80294],[122.412682,10.80226],[122.413063,10.80036],[122.413643,10.80018],[122.414207,10.79675],[122.413803,10.79646],[122.403992,10.79351],[122.386002,10.79941],[122.395119,10.80347],[122.404907,10.81256],[122.405067,10.81145],[122.405128,10.81101],[122.40638,10.81025],[122.406883,10.80937]]]]}},{"type":"Feature","properties":{"ID_0":177,"ISO":"PHL","NAME_0":"Philippines","ID_1":6030,"NAME_1":"Iloilo","ID_2":603028,"NAME_2":"Leon","ID_3":603028051,"NAME_3":"Lang-og","NL_NAME_3":null,"VARNAME_3":null,"TYPE_3":"Barangay","ENGTYPE_3":"Village","PROVINCE":"Iloilo","REGION":"Region VI (Western Visayas)","id":"barangay-0603028051","name":"Lang-og","barangayCode":"0603028051","population":null,"formattedPop":null,"densityCategory":"No data","vulnerabilityRating":"No data","healthRiskLevel":"No data","areaKm2":1.265599,"centerLat":10.794929,"centerLng":122.3636,"geometrySource":"all_barangay-2.csv detailed WKT","geometryMatchMethod":"unique_official_admin_names","boundaryPointCount":7},"geometry":{"type":"MultiPolygon","coordinates":[[[[122.37207,10.79449],[122.362869,10.78883],[122.35994,10.79024],[122.359512,10.7904],[122.35675,10.79105],[122.360489,10.80371],[122.37207,10.79449]]]]}},{"type":"Feature","properties":{"ID_0":177,"ISO":"PHL","NAME_0":"Philippines","ID_1":6030,"NAME_1":"Iloilo","ID_2":603028,"NAME_2":"Leon","ID_3":603028052,"NAME_3":"Ligtos","NL_NAME_3":null,"VARNAME_3":null,"TYPE_3":"Barangay","ENGTYPE_3":"Village","PROVINCE":"Iloilo","REGION":"Region VI (Western Visayas)","id":"barangay-0603028052","name":"Ligtos","barangayCode":"0603028052","population":null,"formattedPop":null,"densityCategory":"No data","vulnerabilityRating":"No data","healthRiskLevel":"No data","areaKm2":1.899146,"centerLat":10.832603,"centerLng":122.361804,"geometrySource":"all_barangay-2.csv detailed WKT","geometryMatchMethod":"unique_official_admin_names","boundaryPointCount":9},"geometry":{"type":"MultiPolygon","coordinates":[[[[122.359177,10.84165],[122.369377,10.83123],[122.362648,10.82791],[122.361237,10.82583],[122.357857,10.82737],[122.356812,10.82728],[122.358253,10.83235],[122.356041,10.83909],[122.359177,10.84165]]]]}},{"type":"Feature","properties":{"ID_0":177,"ISO":"PHL","NAME_0":"Philippines","ID_1":6030,"NAME_1":"Iloilo","ID_2":603028,"NAME_2":"Leon","ID_3":603028053,"NAME_3":"Lonoc","NL_NAME_3":null,"VARNAME_3":null,"TYPE_3":"Barangay","ENGTYPE_3":"Village","PROVINCE":"Iloilo","REGION":"Region VI (Western Visayas)","id":"barangay-0603028053","name":"Lonoc","barangayCode":"0603028053","population":null,"formattedPop":null,"densityCategory":"No data","vulnerabilityRating":"No data","healthRiskLevel":"No data","areaKm2":0.41313,"centerLat":10.783055,"centerLng":122.342945,"geometrySource":"all_barangay-2.csv detailed WKT","geometryMatchMethod":"unique_official_admin_names","boundaryPointCount":16},"geometry":{"type":"MultiPolygon","coordinates":[[[[122.347473,10.7871],[122.346649,10.78437],[122.34639,10.78232],[122.344963,10.78012],[122.343491,10.78074],[122.343079,10.78092],[122.342697,10.78107],[122.34201,10.78101],[122.341537,10.78075],[122.340553,10.78134],[122.340149,10.78214],[122.339462,10.78249],[122.338966,10.78282],[122.339638,10.78446],[122.340622,10.78439],[122.347473,10.7871]]]]}},{"type":"Feature","properties":{"ID_0":177,"ISO":"PHL","NAME_0":"Philippines","ID_1":6030,"NAME_1":"Iloilo","ID_2":603028,"NAME_2":"Leon","ID_3":603028054,"NAME_3":"Lampaya","NL_NAME_3":null,"VARNAME_3":null,"TYPE_3":"Barangay","ENGTYPE_3":"Village","PROVINCE":"Iloilo","REGION":"Region VI (Western Visayas)","id":"barangay-0603028054","name":"Lampaya","barangayCode":"0603028054","population":null,"formattedPop":null,"densityCategory":"No data","vulnerabilityRating":"No data","healthRiskLevel":"No data","areaKm2":0.97244,"centerLat":10.874674,"centerLng":122.32343,"geometrySource":"all_barangay-2.csv detailed WKT","geometryMatchMethod":"unique_official_admin_names","boundaryPointCount":15},"geometry":{"type":"MultiPolygon","coordinates":[[[[122.330597,10.8733],[122.333611,10.86835],[122.331383,10.86367],[122.325684,10.8629],[122.325394,10.86879],[122.322121,10.87187],[122.32061,10.87135],[122.320671,10.87252],[122.3209,10.87357],[122.32122,10.87436],[122.3218,10.87521],[122.322517,10.8755],[122.32296,10.87509],[122.32531,10.87598],[122.330597,10.8733]]]]}},{"type":"Feature","properties":{"ID_0":177,"ISO":"PHL","NAME_0":"Philippines","ID_1":6030,"NAME_1":"Iloilo","ID_2":603028,"NAME_2":"Leon","ID_3":603028055,"NAME_3":"Magcapay","NL_NAME_3":null,"VARNAME_3":null,"TYPE_3":"Barangay","ENGTYPE_3":"Village","PROVINCE":"Iloilo","REGION":"Region VI (Western Visayas)","id":"barangay-0603028055","name":"Magcapay","barangayCode":"0603028055","population":null,"formattedPop":null,"densityCategory":"No data","vulnerabilityRating":"No data","healthRiskLevel":"No data","areaKm2":0.688528,"centerLat":10.817956,"centerLng":122.359389,"geometrySource":"all_barangay-2.csv detailed WKT","geometryMatchMethod":"unique_official_admin_names","boundaryPointCount":5},"geometry":{"type":"MultiPolygon","coordinates":[[[[122.351639,10.81945],[122.359207,10.82066],[122.375679,10.81615],[122.366707,10.81055],[122.351639,10.81945]]]]}},{"type":"Feature","properties":{"ID_0":177,"ISO":"PHL","NAME_0":"Philippines","ID_1":6030,"NAME_1":"Iloilo","ID_2":603028,"NAME_2":"Leon","ID_3":603028056,"NAME_3":"Maliao","NL_NAME_3":null,"VARNAME_3":null,"TYPE_3":"Barangay","ENGTYPE_3":"Village","PROVINCE":"Iloilo","REGION":"Region VI (Western Visayas)","id":"barangay-0603028056","name":"Maliao","barangayCode":"0603028056","population":null,"formattedPop":null,"densityCategory":"No data","vulnerabilityRating":"No data","healthRiskLevel":"No data","areaKm2":1.934654,"centerLat":10.868653,"centerLng":122.319296,"geometrySource":"all_barangay-2.csv detailed WKT","geometryMatchMethod":"unique_official_admin_names","boundaryPointCount":24},"geometry":{"type":"MultiPolygon","coordinates":[[[[122.32061,10.87135],[122.322121,10.87187],[122.325394,10.86879],[122.325684,10.8629],[122.326523,10.86094],[122.328117,10.8593],[122.328293,10.85877],[122.329224,10.85645],[122.327972,10.85582],[122.324921,10.85553],[122.322929,10.85528],[122.320518,10.85491],[122.317993,10.85451],[122.315498,10.85393],[122.313004,10.85338],[122.313293,10.85619],[122.312363,10.86179],[122.31176,10.86387],[122.309349,10.86765],[122.31028,10.86958],[122.30983,10.87187],[122.31263,10.87159],[122.317299,10.86949],[122.32061,10.87135]]]]}},{"type":"Feature","properties":{"ID_0":177,"ISO":"PHL","NAME_0":"Philippines","ID_1":6030,"NAME_1":"Iloilo","ID_2":603028,"NAME_2":"Leon","ID_3":603028057,"NAME_3":"Malublub","NL_NAME_3":null,"VARNAME_3":null,"TYPE_3":"Barangay","ENGTYPE_3":"Village","PROVINCE":"Iloilo","REGION":"Region VI (Western Visayas)","id":"barangay-0603028057","name":"Malublub","barangayCode":"0603028057","population":null,"formattedPop":null,"densityCategory":"No data","vulnerabilityRating":"No data","healthRiskLevel":"No data","areaKm2":3.365596,"centerLat":10.845073,"centerLng":122.365255,"geometrySource":"all_barangay-2.csv detailed WKT","geometryMatchMethod":"unique_official_admin_names","boundaryPointCount":13},"geometry":{"type":"MultiPolygon","coordinates":[[[[122.359413,10.85898],[122.359459,10.85892],[122.365768,10.85156],[122.368561,10.84598],[122.371788,10.84266],[122.375748,10.83941],[122.378433,10.83812],[122.369377,10.83123],[122.359177,10.84165],[122.349037,10.85436],[122.353447,10.85426],[122.356239,10.85926],[122.359413,10.85898]]]]}},{"type":"Feature","properties":{"ID_0":177,"ISO":"PHL","NAME_0":"Philippines","ID_1":6030,"NAME_1":"Iloilo","ID_2":603028,"NAME_2":"Leon","ID_3":603028058,"NAME_3":"Manampunay","NL_NAME_3":null,"VARNAME_3":null,"TYPE_3":"Barangay","ENGTYPE_3":"Village","PROVINCE":"Iloilo","REGION":"Region VI (Western Visayas)","id":"barangay-0603028058","name":"Manampunay","barangayCode":"0603028058","population":null,"formattedPop":null,"densityCategory":"No data","vulnerabilityRating":"No data","healthRiskLevel":"No data","areaKm2":2.010514,"centerLat":10.806703,"centerLng":122.332521,"geometrySource":"all_barangay-2.csv detailed WKT","geometryMatchMethod":"unique_official_admin_names","boundaryPointCount":20},"geometry":{"type":"MultiPolygon","coordinates":[[[[122.324966,10.81214],[122.333992,10.81131],[122.337273,10.81007],[122.341057,10.80636],[122.344398,10.80292],[122.338013,10.80227],[122.336212,10.79926],[122.335602,10.79961],[122.334267,10.79973],[122.33287,10.80023],[122.331543,10.80074],[122.330177,10.80127],[122.329338,10.80142],[122.328117,10.8026],[122.327454,10.80333],[122.326736,10.80378],[122.324654,10.8059],[122.322418,10.80834],[122.322792,10.81203],[122.324966,10.81214]]]]}},{"type":"Feature","properties":{"ID_0":177,"ISO":"PHL","NAME_0":"Philippines","ID_1":6030,"NAME_1":"Iloilo","ID_2":603028,"NAME_2":"Leon","ID_3":603028059,"NAME_3":"Marirong","NL_NAME_3":null,"VARNAME_3":null,"TYPE_3":"Barangay","ENGTYPE_3":"Village","PROVINCE":"Iloilo","REGION":"Region VI (Western Visayas)","id":"barangay-0603028059","name":"Marirong","barangayCode":"0603028059","population":null,"formattedPop":null,"densityCategory":"No data","vulnerabilityRating":"No data","healthRiskLevel":"No data","areaKm2":1.536759,"centerLat":10.827625,"centerLng":122.322538,"geometrySource":"all_barangay-2.csv detailed WKT","geometryMatchMethod":"unique_official_admin_names","boundaryPointCount":9},"geometry":{"type":"MultiPolygon","coordinates":[[[[122.334129,10.82575],[122.327309,10.82244],[122.323914,10.82275],[122.315361,10.82463],[122.315971,10.83048],[122.318352,10.83243],[122.320457,10.83193],[122.328407,10.82841],[122.334129,10.82575]]]]}},{"type":"Feature","properties":{"ID_0":177,"ISO":"PHL","NAME_0":"Philippines","ID_1":6030,"NAME_1":"Iloilo","ID_2":603028,"NAME_2":"Leon","ID_3":603028060,"NAME_3":"Mina","NL_NAME_3":null,"VARNAME_3":null,"TYPE_3":"Barangay","ENGTYPE_3":"Village","PROVINCE":"Iloilo","REGION":"Region VI (Western Visayas)","id":"barangay-0603028060","name":"Mina","barangayCode":"0603028060","population":null,"formattedPop":null,"densityCategory":"No data","vulnerabilityRating":"No data","healthRiskLevel":"No data","areaKm2":0.602745,"centerLat":10.770624,"centerLng":122.34187,"geometrySource":"all_barangay-2.csv detailed WKT","geometryMatchMethod":"unique_official_admin_names","boundaryPointCount":6},"geometry":{"type":"MultiPolygon","coordinates":[[[[122.341667,10.77368],[122.348808,10.7713],[122.340347,10.76582],[122.339058,10.77263],[122.339058,10.77602],[122.341667,10.77368]]]]}},{"type":"Feature","properties":{"ID_0":177,"ISO":"PHL","NAME_0":"Philippines","ID_1":6030,"NAME_1":"Iloilo","ID_2":603028,"NAME_2":"Leon","ID_3":603028061,"NAME_3":"Mocol","NL_NAME_3":null,"VARNAME_3":null,"TYPE_3":"Barangay","ENGTYPE_3":"Village","PROVINCE":"Iloilo","REGION":"Region VI (Western Visayas)","id":"barangay-0603028061","name":"Mocol","barangayCode":"0603028061","population":null,"formattedPop":null,"densityCategory":"No data","vulnerabilityRating":"No data","healthRiskLevel":"No data","areaKm2":0.428182,"centerLat":10.811278,"centerLng":122.346277,"geometrySource":"all_barangay-2.csv detailed WKT","geometryMatchMethod":"unique_official_admin_names","boundaryPointCount":5},"geometry":{"type":"MultiPolygon","coordinates":[[[[122.346992,10.81718],[122.350349,10.808],[122.344398,10.80292],[122.341057,10.80636],[122.346992,10.81718]]]]}},{"type":"Feature","properties":{"ID_0":177,"ISO":"PHL","NAME_0":"Philippines","ID_1":6030,"NAME_1":"Iloilo","ID_2":603028,"NAME_2":"Leon","ID_3":603028062,"NAME_3":"Nagbangi","NL_NAME_3":null,"VARNAME_3":null,"TYPE_3":"Barangay","ENGTYPE_3":"Village","PROVINCE":"Iloilo","REGION":"Region VI (Western Visayas)","id":"barangay-0603028062","name":"Nagbangi","barangayCode":"0603028062","population":null,"formattedPop":null,"densityCategory":"No data","vulnerabilityRating":"No data","healthRiskLevel":"No data","areaKm2":1.395202,"centerLat":10.785918,"centerLng":122.399501,"geometrySource":"all_barangay-2.csv detailed WKT","geometryMatchMethod":"unique_official_admin_names","boundaryPointCount":9},"geometry":{"type":"MultiPolygon","coordinates":[[[[122.386002,10.79941],[122.403992,10.79351],[122.404427,10.78412],[122.404099,10.78083],[122.40345,10.77766],[122.396744,10.777],[122.395149,10.79036],[122.39167,10.79391],[122.386002,10.79941]]]]}},{"type":"Feature","properties":{"ID_0":177,"ISO":"PHL","NAME_0":"Philippines","ID_1":6030,"NAME_1":"Iloilo","ID_2":603028,"NAME_2":"Leon","ID_3":603028063,"NAME_3":"Nalbang","NL_NAME_3":null,"VARNAME_3":null,"TYPE_3":"Barangay","ENGTYPE_3":"Village","PROVINCE":"Iloilo","REGION":"Region VI (Western Visayas)","id":"barangay-0603028063","name":"Nalbang","barangayCode":"0603028063","population":null,"formattedPop":null,"densityCategory":"No data","vulnerabilityRating":"No data","healthRiskLevel":"No data","areaKm2":0.863429,"centerLat":10.821459,"centerLng":122.33293,"geometrySource":"all_barangay-2.csv detailed WKT","geometryMatchMethod":"unique_official_admin_names","boundaryPointCount":8},"geometry":{"type":"MultiPolygon","coordinates":[[[[122.334129,10.82575],[122.337921,10.82433],[122.339493,10.82149],[122.335373,10.81415],[122.334747,10.81872],[122.328232,10.8196],[122.327309,10.82244],[122.334129,10.82575]]]]}},{"type":"Feature","properties":{"ID_0":177,"ISO":"PHL","NAME_0":"Philippines","ID_1":6030,"NAME_1":"Iloilo","ID_2":603028,"NAME_2":"Leon","ID_3":603028064,"NAME_3":"Odong-odong","NL_NAME_3":null,"VARNAME_3":null,"TYPE_3":"Barangay","ENGTYPE_3":"Village","PROVINCE":"Iloilo","REGION":"Region VI (Western Visayas)","id":"barangay-0603028064","name":"Odong-odong","barangayCode":"0603028064","population":null,"formattedPop":null,"densityCategory":"No data","vulnerabilityRating":"No data","healthRiskLevel":"No data","areaKm2":1.15629,"centerLat":10.788571,"centerLng":122.35249,"geometrySource":"all_barangay-2.csv detailed WKT","geometryMatchMethod":"unique_official_admin_names","boundaryPointCount":20},"geometry":{"type":"MultiPolygon","coordinates":[[[[122.349251,10.79205],[122.35675,10.79105],[122.359512,10.7904],[122.35994,10.79024],[122.359894,10.79016],[122.359848,10.78866],[122.358948,10.78808],[122.359268,10.78697],[122.358139,10.78615],[122.357933,10.78636],[122.356537,10.78621],[122.355972,10.78641],[122.355133,10.78667],[122.354187,10.78714],[122.352997,10.78737],[122.351822,10.7876],[122.35041,10.78783],[122.349937,10.78806],[122.347473,10.7871],[122.349251,10.79205]]]]}},{"type":"Feature","properties":{"ID_0":177,"ISO":"PHL","NAME_0":"Philippines","ID_1":6030,"NAME_1":"Iloilo","ID_2":603028,"NAME_2":"Leon","ID_3":603028065,"NAME_3":"Oluangan","NL_NAME_3":null,"VARNAME_3":null,"TYPE_3":"Barangay","ENGTYPE_3":"Village","PROVINCE":"Iloilo","REGION":"Region VI (Western Visayas)","id":"barangay-0603028065","name":"Oluangan","barangayCode":"0603028065","population":null,"formattedPop":null,"densityCategory":"No data","vulnerabilityRating":"No data","healthRiskLevel":"No data","areaKm2":1.737002,"centerLat":10.822439,"centerLng":122.369938,"geometrySource":"all_barangay-2.csv detailed WKT","geometryMatchMethod":"unique_official_admin_names","boundaryPointCount":7},"geometry":{"type":"MultiPolygon","coordinates":[[[[122.379471,10.82616],[122.375679,10.81615],[122.359207,10.82066],[122.361237,10.82583],[122.362648,10.82791],[122.369377,10.83123],[122.379471,10.82616]]]]}},{"type":"Feature","properties":{"ID_0":177,"ISO":"PHL","NAME_0":"Philippines","ID_1":6030,"NAME_1":"Iloilo","ID_2":603028,"NAME_2":"Leon","ID_3":603028066,"NAME_3":"Omambong","NL_NAME_3":null,"VARNAME_3":null,"TYPE_3":"Barangay","ENGTYPE_3":"Village","PROVINCE":"Iloilo","REGION":"Region VI (Western Visayas)","id":"barangay-0603028066","name":"Omambong","barangayCode":"0603028066","population":null,"formattedPop":null,"densityCategory":"No data","vulnerabilityRating":"No data","healthRiskLevel":"No data","areaKm2":1.531656,"centerLat":10.753857,"centerLng":122.396278,"geometrySource":"all_barangay-2.csv detailed WKT","geometryMatchMethod":"unique_official_admin_names","boundaryPointCount":8},"geometry":{"type":"MultiPolygon","coordinates":[[[[122.397491,10.75901],[122.405449,10.75759],[122.402039,10.75006],[122.398308,10.74897],[122.394897,10.74689],[122.389137,10.75278],[122.385429,10.75371],[122.397491,10.75901]]]]}},{"type":"Feature","properties":{"ID_0":177,"ISO":"PHL","NAME_0":"Philippines","ID_1":6030,"NAME_1":"Iloilo","ID_2":603028,"NAME_2":"Leon","ID_3":603028067,"NAME_3":"Paoy","NL_NAME_3":null,"VARNAME_3":null,"TYPE_3":"Barangay","ENGTYPE_3":"Village","PROVINCE":"Iloilo","REGION":"Region VI (Western Visayas)","id":"barangay-0603028067","name":"Paoy","barangayCode":"0603028067","population":null,"formattedPop":null,"densityCategory":"No data","vulnerabilityRating":"No data","healthRiskLevel":"No data","areaKm2":0.792636,"centerLat":10.80862,"centerLng":122.375576,"geometrySource":"all_barangay-2.csv detailed WKT","geometryMatchMethod":"unique_official_admin_names","boundaryPointCount":5},"geometry":{"type":"MultiPolygon","coordinates":[[[[122.382103,10.80552],[122.386002,10.79941],[122.378868,10.79943],[122.374153,10.80381],[122.382103,10.80552]]]]}},{"type":"Feature","properties":{"ID_0":177,"ISO":"PHL","NAME_0":"Philippines","ID_1":6030,"NAME_1":"Iloilo","ID_2":603028,"NAME_2":"Leon","ID_3":603028068,"NAME_3":"Pandan","NL_NAME_3":null,"VARNAME_3":null,"TYPE_3":"Barangay","ENGTYPE_3":"Village","PROVINCE":"Iloilo","REGION":"Region VI (Western Visayas)","id":"barangay-0603028068","name":"Pandan","barangayCode":"0603028068","population":null,"formattedPop":null,"densityCategory":"No data","vulnerabilityRating":"No data","healthRiskLevel":"No data","areaKm2":0.415933,"centerLat":10.760988,"centerLng":122.402293,"geometrySource":"all_barangay-2.csv detailed WKT","geometryMatchMethod":"unique_official_admin_names","boundaryPointCount":4},"geometry":{"type":"MultiPolygon","coordinates":[[[[122.405296,10.76567],[122.405449,10.75759],[122.397491,10.75901],[122.405296,10.76567]]]]}},{"type":"Feature","properties":{"ID_0":177,"ISO":"PHL","NAME_0":"Philippines","ID_1":6030,"NAME_1":"Iloilo","ID_2":603028,"NAME_2":"Leon","ID_3":603028069,"NAME_3":"Panginman","NL_NAME_3":null,"VARNAME_3":null,"TYPE_3":"Barangay","ENGTYPE_3":"Village","PROVINCE":"Iloilo","REGION":"Region VI (Western Visayas)","id":"barangay-0603028069","name":"Panginman","barangayCode":"0603028069","population":null,"formattedPop":null,"densityCategory":"No data","vulnerabilityRating":"No data","healthRiskLevel":"No data","areaKm2":0.516448,"centerLat":10.777892,"centerLng":122.377856,"geometrySource":"all_barangay-2.csv detailed WKT","geometryMatchMethod":"unique_official_admin_names","boundaryPointCount":6},"geometry":{"type":"MultiPolygon","coordinates":[[[[122.384033,10.77582],[122.380287,10.77583],[122.374397,10.77435],[122.373154,10.77979],[122.380447,10.78041],[122.384033,10.77582]]]]}},{"type":"Feature","properties":{"ID_0":177,"ISO":"PHL","NAME_0":"Philippines","ID_1":6030,"NAME_1":"Iloilo","ID_2":603028,"NAME_2":"Leon","ID_3":603028070,"NAME_3":"Pepe","NL_NAME_3":null,"VARNAME_3":null,"TYPE_3":"Barangay","ENGTYPE_3":"Village","PROVINCE":"Iloilo","REGION":"Region VI (Western Visayas)","id":"barangay-0603028070","name":"Pepe","barangayCode":"0603028070","population":null,"formattedPop":null,"densityCategory":"No data","vulnerabilityRating":"No data","healthRiskLevel":"No data","areaKm2":0.751137,"centerLat":10.788027,"centerLng":122.341979,"geometrySource":"all_barangay-2.csv detailed WKT","geometryMatchMethod":"unique_official_admin_names","boundaryPointCount":10},"geometry":{"type":"MultiPolygon","coordinates":[[[[122.346367,10.791],[122.349251,10.79205],[122.347473,10.7871],[122.340622,10.78439],[122.339638,10.78446],[122.339172,10.78484],[122.33831,10.78552],[122.336594,10.78799],[122.340523,10.78929],[122.346367,10.791]]]]}},{"type":"Feature","properties":{"ID_0":177,"ISO":"PHL","NAME_0":"Philippines","ID_1":6030,"NAME_1":"Iloilo","ID_2":603028,"NAME_2":"Leon","ID_3":603028071,"NAME_3":"Poblacion","NL_NAME_3":null,"VARNAME_3":null,"TYPE_3":"Barangay","ENGTYPE_3":"Village","PROVINCE":"Iloilo","REGION":"Region VI (Western Visayas)","id":"barangay-0603028071","name":"Poblacion","barangayCode":"0603028071","population":null,"formattedPop":null,"densityCategory":"No data","vulnerabilityRating":"No data","healthRiskLevel":"No data","areaKm2":4.646316,"centerLat":10.787119,"centerLng":122.385356,"geometrySource":"all_barangay-2.csv detailed WKT","geometryMatchMethod":"unique_official_admin_names","boundaryPointCount":8},"geometry":{"type":"MultiPolygon","coordinates":[[[[122.37207,10.79449],[122.39167,10.79391],[122.395149,10.79036],[122.396744,10.777],[122.394867,10.77392],[122.384033,10.77582],[122.380447,10.78041],[122.37207,10.79449]]]]}},{"type":"Feature","properties":{"ID_0":177,"ISO":"PHL","NAME_0":"Philippines","ID_1":6030,"NAME_1":"Iloilo","ID_2":603028,"NAME_2":"Leon","ID_3":603028072,"NAME_3":"Paga","NL_NAME_3":null,"VARNAME_3":null,"TYPE_3":"Barangay","ENGTYPE_3":"Village","PROVINCE":"Iloilo","REGION":"Region VI (Western Visayas)","id":"barangay-0603028072","name":"Paga","barangayCode":"0603028072","population":null,"formattedPop":null,"densityCategory":"No data","vulnerabilityRating":"No data","healthRiskLevel":"No data","areaKm2":1.155659,"centerLat":10.800243,"centerLng":122.327109,"geometrySource":"all_barangay-2.csv detailed WKT","geometryMatchMethod":"unique_official_admin_names","boundaryPointCount":27},"geometry":{"type":"MultiPolygon","coordinates":[[[[122.336212,10.79926],[122.337372,10.7986],[122.337914,10.79764],[122.338226,10.79637],[122.337753,10.79632],[122.337303,10.79623],[122.33667,10.79609],[122.336288,10.79606],[122.335617,10.79615],[122.335007,10.79636],[122.333572,10.79771],[122.328697,10.79415],[122.326103,10.79243],[122.323311,10.79757],[122.32151,10.80415],[122.322418,10.80834],[122.324654,10.8059],[122.326736,10.80378],[122.327454,10.80333],[122.328117,10.8026],[122.329338,10.80142],[122.330177,10.80127],[122.331543,10.80074],[122.33287,10.80023],[122.334267,10.79973],[122.335602,10.79961],[122.336212,10.79926]]]]}},{"type":"Feature","properties":{"ID_0":177,"ISO":"PHL","NAME_0":"Philippines","ID_1":6030,"NAME_1":"Iloilo","ID_2":603028,"NAME_2":"Leon","ID_3":603028073,"NAME_3":"Salngan","NL_NAME_3":null,"VARNAME_3":null,"TYPE_3":"Barangay","ENGTYPE_3":"Village","PROVINCE":"Iloilo","REGION":"Region VI (Western Visayas)","id":"barangay-0603028073","name":"Salngan","barangayCode":"0603028073","population":null,"formattedPop":null,"densityCategory":"No data","vulnerabilityRating":"No data","healthRiskLevel":"No data","areaKm2":1.30093,"centerLat":10.777186,"centerLng":122.363034,"geometrySource":"all_barangay-2.csv detailed WKT","geometryMatchMethod":"unique_official_admin_names","boundaryPointCount":5},"geometry":{"type":"MultiPolygon","coordinates":[[[[122.363907,10.78451],[122.367416,10.77314],[122.362328,10.76719],[122.35733,10.77608],[122.363907,10.78451]]]]}},{"type":"Feature","properties":{"ID_0":177,"ISO":"PHL","NAME_0":"Philippines","ID_1":6030,"NAME_1":"Iloilo","ID_2":603028,"NAME_2":"Leon","ID_3":603028074,"NAME_3":"Samlague","NL_NAME_3":null,"VARNAME_3":null,"TYPE_3":"Barangay","ENGTYPE_3":"Village","PROVINCE":"Iloilo","REGION":"Region VI (Western Visayas)","id":"barangay-0603028074","name":"Samlague","barangayCode":"0603028074","population":null,"formattedPop":null,"densityCategory":"No data","vulnerabilityRating":"No data","healthRiskLevel":"No data","areaKm2":1.668144,"centerLat":10.8118,"centerLng":122.35415,"geometrySource":"all_barangay-2.csv detailed WKT","geometryMatchMethod":"unique_official_admin_names","boundaryPointCount":6},"geometry":{"type":"MultiPolygon","coordinates":[[[[122.351639,10.81945],[122.366707,10.81055],[122.360489,10.80371],[122.350349,10.808],[122.346992,10.81718],[122.351639,10.81945]]]]}},{"type":"Feature","properties":{"ID_0":177,"ISO":"PHL","NAME_0":"Philippines","ID_1":6030,"NAME_1":"Iloilo","ID_2":603028,"NAME_2":"Leon","ID_3":603028075,"NAME_3":"Siol Norte","NL_NAME_3":null,"VARNAME_3":null,"TYPE_3":"Barangay","ENGTYPE_3":"Village","PROVINCE":"Iloilo","REGION":"Region VI (Western Visayas)","id":"barangay-0603028075","name":"Siol Norte","barangayCode":"0603028075","population":null,"formattedPop":null,"densityCategory":"No data","vulnerabilityRating":"No data","healthRiskLevel":"No data","areaKm2":0.977881,"centerLat":10.782215,"centerLng":122.411877,"geometrySource":"all_barangay-2.csv detailed WKT","geometryMatchMethod":"unique_official_admin_names","boundaryPointCount":8},"geometry":{"type":"MultiPolygon","coordinates":[[[[122.419067,10.78763],[122.419037,10.78495],[122.419167,10.78264],[122.419548,10.78196],[122.414062,10.77788],[122.404099,10.78083],[122.404427,10.78412],[122.419067,10.78763]]]]}},{"type":"Feature","properties":{"ID_0":177,"ISO":"PHL","NAME_0":"Philippines","ID_1":6030,"NAME_1":"Iloilo","ID_2":603028,"NAME_2":"Leon","ID_3":603028076,"NAME_3":"Siol Sur","NL_NAME_3":null,"VARNAME_3":null,"TYPE_3":"Barangay","ENGTYPE_3":"Village","PROVINCE":"Iloilo","REGION":"Region VI (Western Visayas)","id":"barangay-0603028076","name":"Siol Sur","barangayCode":"0603028076","population":null,"formattedPop":null,"densityCategory":"No data","vulnerabilityRating":"No data","healthRiskLevel":"No data","areaKm2":0.610352,"centerLat":10.776768,"centerLng":122.407062,"geometrySource":"all_barangay-2.csv detailed WKT","geometryMatchMethod":"unique_official_admin_names","boundaryPointCount":5},"geometry":{"type":"MultiPolygon","coordinates":[[[[122.414062,10.77788],[122.405899,10.77143],[122.40345,10.77766],[122.404099,10.78083],[122.414062,10.77788]]]]}},{"type":"Feature","properties":{"ID_0":177,"ISO":"PHL","NAME_0":"Philippines","ID_1":6030,"NAME_1":"Iloilo","ID_2":603028,"NAME_2":"Leon","ID_3":603028077,"NAME_3":"Tacuyong Norte","NL_NAME_3":null,"VARNAME_3":null,"TYPE_3":"Barangay","ENGTYPE_3":"Village","PROVINCE":"Iloilo","REGION":"Region VI (Western Visayas)","id":"barangay-0603028077","name":"Tacuyong Norte","barangayCode":"0603028077","population":null,"formattedPop":null,"densityCategory":"No data","vulnerabilityRating":"No data","healthRiskLevel":"No data","areaKm2":1.092754,"centerLat":10.818836,"centerLng":122.321797,"geometrySource":"all_barangay-2.csv detailed WKT","geometryMatchMethod":"unique_official_admin_names","boundaryPointCount":10},"geometry":{"type":"MultiPolygon","coordinates":[[[[122.315361,10.82463],[122.323914,10.82275],[122.327309,10.82244],[122.328232,10.8196],[122.324966,10.81214],[122.322792,10.81203],[122.31855,10.81773],[122.319397,10.8214],[122.318466,10.82322],[122.315361,10.82463]]]]}},{"type":"Feature","properties":{"ID_0":177,"ISO":"PHL","NAME_0":"Philippines","ID_1":6030,"NAME_1":"Iloilo","ID_2":603028,"NAME_2":"Leon","ID_3":603028078,"NAME_3":"Tacuyong Sur","NL_NAME_3":null,"VARNAME_3":null,"TYPE_3":"Barangay","ENGTYPE_3":"Village","PROVINCE":"Iloilo","REGION":"Region VI (Western Visayas)","id":"barangay-0603028078","name":"Tacuyong Sur","barangayCode":"0603028078","population":null,"formattedPop":null,"densityCategory":"No data","vulnerabilityRating":"No data","healthRiskLevel":"No data","areaKm2":1.127184,"centerLat":10.802209,"centerLng":122.348615,"geometrySource":"all_barangay-2.csv detailed WKT","geometryMatchMethod":"unique_official_admin_names","boundaryPointCount":5},"geometry":{"type":"MultiPolygon","coordinates":[[[[122.350349,10.808],[122.351059,10.79908],[122.349251,10.79205],[122.344398,10.80292],[122.350349,10.808]]]]}},{"type":"Feature","properties":{"ID_0":177,"ISO":"PHL","NAME_0":"Philippines","ID_1":6030,"NAME_1":"Iloilo","ID_2":603028,"NAME_2":"Leon","ID_3":603028079,"NAME_3":"Tagsing","NL_NAME_3":null,"VARNAME_3":null,"TYPE_3":"Barangay","ENGTYPE_3":"Village","PROVINCE":"Iloilo","REGION":"Region VI (Western Visayas)","id":"barangay-0603028079","name":"Tagsing","barangayCode":"0603028079","population":null,"formattedPop":null,"densityCategory":"No data","vulnerabilityRating":"No data","healthRiskLevel":"No data","areaKm2":1.050718,"centerLat":10.845247,"centerLng":122.3285,"geometrySource":"all_barangay-2.csv detailed WKT","geometryMatchMethod":"unique_official_admin_names","boundaryPointCount":25},"geometry":{"type":"MultiPolygon","coordinates":[[[[122.313004,10.85338],[122.315498,10.85393],[122.317993,10.85451],[122.320518,10.85491],[122.322929,10.85528],[122.324921,10.85553],[122.327972,10.85582],[122.329224,10.85645],[122.328903,10.85166],[122.323837,10.84898],[122.323357,10.84749],[122.322281,10.84571],[122.321487,10.84355],[122.320053,10.84209],[122.31723,10.84081],[122.317123,10.84412],[122.317413,10.84511],[122.31781,10.84672],[122.3172,10.84743],[122.316727,10.84787],[122.315781,10.84913],[122.314987,10.84975],[122.314941,10.85024],[122.314331,10.85189],[122.313004,10.85338]]]]}},{"type":"Feature","properties":{"ID_0":177,"ISO":"PHL","NAME_0":"Philippines","ID_1":6030,"NAME_1":"Iloilo","ID_2":603028,"NAME_2":"Leon","ID_3":603028080,"NAME_3":"Talacuan","NL_NAME_3":null,"VARNAME_3":null,"TYPE_3":"Barangay","ENGTYPE_3":"Village","PROVINCE":"Iloilo","REGION":"Region VI (Western Visayas)","id":"barangay-0603028080","name":"Talacuan","barangayCode":"0603028080","population":null,"formattedPop":null,"densityCategory":"No data","vulnerabilityRating":"No data","healthRiskLevel":"No data","areaKm2":1.544158,"centerLat":10.770868,"centerLng":122.38634,"geometrySource":"all_barangay-2.csv detailed WKT","geometryMatchMethod":"unique_official_admin_names","boundaryPointCount":6},"geometry":{"type":"MultiPolygon","coordinates":[[[[122.380287,10.77583],[122.384033,10.77582],[122.394867,10.77392],[122.392929,10.76551],[122.379723,10.76643],[122.380287,10.77583]]]]}},{"type":"Feature","properties":{"ID_0":177,"ISO":"PHL","NAME_0":"Philippines","ID_1":6030,"NAME_1":"Iloilo","ID_2":603028,"NAME_2":"Leon","ID_3":603028081,"NAME_3":"Ticuan","NL_NAME_3":null,"VARNAME_3":null,"TYPE_3":"Barangay","ENGTYPE_3":"Village","PROVINCE":"Iloilo","REGION":"Region VI (Western Visayas)","id":"barangay-0603028081","name":"Ticuan","barangayCode":"0603028081","population":null,"formattedPop":null,"densityCategory":"No data","vulnerabilityRating":"No data","healthRiskLevel":"No data","areaKm2":3.836771,"centerLat":10.858844,"centerLng":122.352311,"geometrySource":"all_barangay-2.csv detailed WKT","geometryMatchMethod":"unique_official_admin_names","boundaryPointCount":14},"geometry":{"type":"MultiPolygon","coordinates":[[[[122.350212,10.86952],[122.352074,10.86626],[122.354828,10.86239],[122.359413,10.85898],[122.356239,10.85926],[122.353447,10.85426],[122.349037,10.85436],[122.348373,10.8563],[122.348083,10.8575],[122.346519,10.85718],[122.3442,10.86556],[122.345711,10.86386],[122.347717,10.86874],[122.350212,10.86952]]]]}},{"type":"Feature","properties":{"ID_0":177,"ISO":"PHL","NAME_0":"Philippines","ID_1":6030,"NAME_1":"Iloilo","ID_2":603028,"NAME_2":"Leon","ID_3":603028082,"NAME_3":"Tina-an Norte","NL_NAME_3":null,"VARNAME_3":null,"TYPE_3":"Barangay","ENGTYPE_3":"Village","PROVINCE":"Iloilo","REGION":"Region VI (Western Visayas)","id":"barangay-0603028082","name":"Tina-an Norte","barangayCode":"0603028082","population":null,"formattedPop":null,"densityCategory":"No data","vulnerabilityRating":"No data","healthRiskLevel":"No data","areaKm2":2.003343,"centerLat":10.83086,"centerLng":122.377992,"geometrySource":"all_barangay-2.csv detailed WKT","geometryMatchMethod":"unique_official_admin_names","boundaryPointCount":6},"geometry":{"type":"MultiPolygon","coordinates":[[[[122.378433,10.83812],[122.382011,10.83546],[122.38974,10.82874],[122.379471,10.82616],[122.369377,10.83123],[122.378433,10.83812]]]]}},{"type":"Feature","properties":{"ID_0":177,"ISO":"PHL","NAME_0":"Philippines","ID_1":6030,"NAME_1":"Iloilo","ID_2":603028,"NAME_2":"Leon","ID_3":603028083,"NAME_3":"Tina-an Sur","NL_NAME_3":null,"VARNAME_3":null,"TYPE_3":"Barangay","ENGTYPE_3":"Village","PROVINCE":"Iloilo","REGION":"Region VI (Western Visayas)","id":"barangay-0603028083","name":"Tina-an Sur","barangayCode":"0603028083","population":null,"formattedPop":null,"densityCategory":"No data","vulnerabilityRating":"No data","healthRiskLevel":"No data","areaKm2":1.749551,"centerLat":10.776899,"centerLng":122.372538,"geometrySource":"all_barangay-2.csv detailed WKT","geometryMatchMethod":"unique_official_admin_names","boundaryPointCount":9},"geometry":{"type":"MultiPolygon","coordinates":[[[[122.363907,10.78451],[122.362869,10.78883],[122.380447,10.78041],[122.373154,10.77979],[122.374397,10.77435],[122.380287,10.77583],[122.379723,10.76643],[122.367416,10.77314],[122.363907,10.78451]]]]}},{"type":"Feature","properties":{"ID_0":177,"ISO":"PHL","NAME_0":"Philippines","ID_1":6030,"NAME_1":"Iloilo","ID_2":603028,"NAME_2":"Leon","ID_3":603028084,"NAME_3":"Tunguan","NL_NAME_3":null,"VARNAME_3":null,"TYPE_3":"Barangay","ENGTYPE_3":"Village","PROVINCE":"Iloilo","REGION":"Region VI (Western Visayas)","id":"barangay-0603028084","name":"Tunguan","barangayCode":"0603028084","population":null,"formattedPop":null,"densityCategory":"No data","vulnerabilityRating":"No data","healthRiskLevel":"No data","areaKm2":1.106448,"centerLat":10.868144,"centerLng":122.33381,"geometrySource":"all_barangay-2.csv detailed WKT","geometryMatchMethod":"unique_official_admin_names","boundaryPointCount":8},"geometry":{"type":"MultiPolygon","coordinates":[[[[122.330597,10.8733],[122.337517,10.87079],[122.347717,10.86874],[122.345711,10.86386],[122.3442,10.86556],[122.34182,10.86454],[122.333611,10.86835],[122.330597,10.8733]]]]}},{"type":"Feature","properties":{"ID_0":177,"ISO":"PHL","NAME_0":"Philippines","ID_1":6030,"NAME_1":"Iloilo","ID_2":603028,"NAME_2":"Leon","ID_3":603028085,"NAME_3":"Tu-og","NL_NAME_3":null,"VARNAME_3":null,"TYPE_3":"Barangay","ENGTYPE_3":"Village","PROVINCE":"Iloilo","REGION":"Region VI (Western Visayas)","id":"barangay-0603028085","name":"Tu-og","barangayCode":"0603028085","population":null,"formattedPop":null,"densityCategory":"No data","vulnerabilityRating":"No data","healthRiskLevel":"No data","areaKm2":1.648094,"centerLat":10.789932,"centerLng":122.409824,"geometrySource":"all_barangay-2.csv detailed WKT","geometryMatchMethod":"unique_official_admin_names","boundaryPointCount":9},"geometry":{"type":"MultiPolygon","coordinates":[[[[122.403992,10.79351],[122.413803,10.79646],[122.414192,10.79432],[122.414337,10.79396],[122.414719,10.79317],[122.415779,10.79218],[122.419067,10.78763],[122.404427,10.78412],[122.403992,10.79351]]]]}}]}
