{"type":"FeatureCollection","features":[{"type":"Feature","properties":{"ID_0":177,"ISO":"PHL","NAME_0":"Philippines","ID_1":16002,"NAME_1":"Agusan del Norte","ID_2":1600211,"NAME_2":"Tubay","ID_3":1600211001,"NAME_3":"Binuangan","NL_NAME_3":null,"VARNAME_3":null,"TYPE_3":"Barangay","ENGTYPE_3":"Village","PROVINCE":"Agusan del Norte","REGION":"Region XIII (Caraga)","id":"barangay-1600211001","name":"Binuangan","barangayCode":"1600211001","population":null,"formattedPop":null,"densityCategory":"No data","vulnerabilityRating":"No data","healthRiskLevel":"No data","areaKm2":4.971862,"centerLat":9.215937,"centerLng":125.534421,"geometrySource":"all_barangay-2.csv detailed WKT","geometryMatchMethod":"unique_official_admin_names","boundaryPointCount":81},"geometry":{"type":"MultiPolygon","coordinates":[[[[125.552849,9.21449],[125.554749,9.21226],[125.554848,9.21121],[125.554573,9.20966],[125.554932,9.20724],[125.554939,9.2055],[125.555367,9.20402],[125.555359,9.20342],[125.555344,9.20279],[125.553879,9.20134],[125.553757,9.20109],[125.553741,9.20105],[125.553383,9.20032],[125.554459,9.1992],[125.555229,9.19865],[125.555672,9.19833],[125.556534,9.19659],[125.556343,9.19575],[125.556168,9.19503],[125.554527,9.1935],[125.554138,9.19311],[125.554108,9.19308],[125.553139,9.19212],[125.552467,9.1911],[125.552437,9.19078],[125.552361,9.18975],[125.552422,9.18894],[125.552513,9.18779],[125.530113,9.18943],[125.529762,9.18946],[125.529793,9.18972],[125.529999,9.19],[125.52993,9.19035],[125.530067,9.19073],[125.530113,9.19083],[125.530144,9.19118],[125.53038,9.19269],[125.530281,9.19306],[125.530212,9.1941],[125.530144,9.19419],[125.529716,9.19472],[125.529678,9.19494],[125.529137,9.19547],[125.528893,9.19556],[125.528343,9.19583],[125.527328,9.19621],[125.527046,9.19658],[125.525833,9.19806],[125.523613,9.19917],[125.523399,9.19958],[125.523262,9.19979],[125.522987,9.20007],[125.523064,9.20056],[125.523064,9.2009],[125.523331,9.20111],[125.523262,9.20153],[125.523331,9.20222],[125.523117,9.20278],[125.523117,9.20306],[125.522568,9.20382],[125.522568,9.20417],[125.522217,9.20472],[125.522186,9.20521],[125.52224,9.20657],[125.522301,9.20815],[125.522141,9.20876],[125.52211,9.20887],[125.522079,9.20896],[125.521942,9.20944],[125.521797,9.20972],[125.521744,9.21084],[125.521667,9.21139],[125.521667,9.21167],[125.521393,9.21194],[125.521393,9.21222],[125.521317,9.21257],[125.521477,9.21305],[125.521667,9.21361],[125.522217,9.21417],[125.522217,9.21492],[125.552849,9.21449]]]]}},{"type":"Feature","properties":{"ID_0":177,"ISO":"PHL","NAME_0":"Philippines","ID_1":16002,"NAME_1":"Agusan del Norte","ID_2":1600211,"NAME_2":"Tubay","ID_3":1600211002,"NAME_3":"Cabayawa","NL_NAME_3":null,"VARNAME_3":null,"TYPE_3":"Barangay","ENGTYPE_3":"Village","PROVINCE":"Agusan del Norte","REGION":"Region XIII (Caraga)","id":"barangay-1600211002","name":"Cabayawa","barangayCode":"1600211002","population":null,"formattedPop":null,"densityCategory":"No data","vulnerabilityRating":"No data","healthRiskLevel":"No data","areaKm2":3.054381,"centerLat":9.147584,"centerLng":125.531677,"geometrySource":"all_barangay-2.csv detailed WKT","geometryMatchMethod":"unique_official_admin_names","boundaryPointCount":56},"geometry":{"type":"MultiPolygon","coordinates":[[[[125.52594,9.1574],[125.526108,9.15722],[125.52639,9.15722],[125.526527,9.15737],[125.530853,9.15721],[125.531174,9.15613],[125.531761,9.15454],[125.533073,9.15427],[125.534569,9.1553],[125.535454,9.15607],[125.538757,9.1553],[125.539467,9.15395],[125.541527,9.15308],[125.544472,9.15232],[125.544724,9.15072],[125.545143,9.14941],[125.545776,9.14829],[125.547203,9.14761],[125.548233,9.14698],[125.549187,9.14761],[125.55024,9.14924],[125.551437,9.14909],[125.552406,9.1476],[125.551399,9.14585],[125.548897,9.14396],[125.547783,9.14251],[125.546387,9.1424],[125.543617,9.14372],[125.541779,9.14575],[125.539078,9.14674],[125.537788,9.14571],[125.536987,9.14382],[125.535347,9.14183],[125.519341,9.14449],[125.519363,9.14464],[125.519447,9.14472],[125.519447,9.14523],[125.519447,9.14536],[125.519447,9.14546],[125.519447,9.14611],[125.519722,9.14639],[125.519722,9.14877],[125.519722,9.14927],[125.519722,9.15],[125.519722,9.15028],[125.519867,9.15063],[125.519897,9.1507],[125.519997,9.15167],[125.520027,9.1523],[125.520271,9.15685],[125.520287,9.15696],[125.520523,9.15749],[125.520538,9.15856],[125.523643,9.1582],[125.525208,9.15742],[125.52594,9.1574]]]]}},{"type":"Feature","properties":{"ID_0":177,"ISO":"PHL","NAME_0":"Philippines","ID_1":16002,"NAME_1":"Agusan del Norte","ID_2":1600211,"NAME_2":"Tubay","ID_3":1600211003,"NAME_3":"Doña Rosario","NL_NAME_3":null,"VARNAME_3":"Dona Rosario","TYPE_3":"Barangay","ENGTYPE_3":"Village","PROVINCE":"Agusan del Norte","REGION":"Region XIII (Caraga)","id":"barangay-1600211003","name":"Doña Rosario","barangayCode":"1600211003","population":null,"formattedPop":null,"densityCategory":"No data","vulnerabilityRating":"No data","healthRiskLevel":"No data","areaKm2":4.248449,"centerLat":9.165053,"centerLng":125.559083,"geometrySource":"barangays.geojson simplified fallback","geometryMatchMethod":"simplified_fallback","boundaryPointCount":5},"geometry":{"type":"Polygon","coordinates":[[[125.56542972900002,9.17653249500006],[125.5696683000001,9.153920568000046],[125.5532097790001,9.154680794000058],[125.55081047100009,9.17313750300002],[125.56542972900002,9.17653249500006]]]}},{"type":"Feature","properties":{"ID_0":177,"ISO":"PHL","NAME_0":"Philippines","ID_1":16002,"NAME_1":"Agusan del Norte","ID_2":1600211,"NAME_2":"Tubay","ID_3":1600211004,"NAME_3":"La Fraternidad","NL_NAME_3":null,"VARNAME_3":null,"TYPE_3":"Barangay","ENGTYPE_3":"Village","PROVINCE":"Agusan del Norte","REGION":"Region XIII (Caraga)","id":"barangay-1600211004","name":"La Fraternidad","barangayCode":"1600211004","population":null,"formattedPop":null,"densityCategory":"No data","vulnerabilityRating":"No data","healthRiskLevel":"No data","areaKm2":9.379374,"centerLat":9.19166,"centerLng":125.537984,"geometrySource":"all_barangay-2.csv detailed WKT","geometryMatchMethod":"unique_official_admin_names","boundaryPointCount":64},"geometry":{"type":"MultiPolygon","coordinates":[[[[125.552513,9.18779],[125.553253,9.18567],[125.553177,9.18373],[125.553146,9.18128],[125.553543,9.18025],[125.553932,9.17717],[125.553787,9.1754],[125.553436,9.1729],[125.55365,9.17106],[125.553291,9.17047],[125.551842,9.1704],[125.549393,9.17093],[125.528069,9.17147],[125.526703,9.17092],[125.5252,9.17093],[125.524193,9.1703],[125.523064,9.17011],[125.523064,9.17028],[125.523331,9.17056],[125.523331,9.17083],[125.523613,9.17111],[125.523613,9.17139],[125.523888,9.17167],[125.523888,9.17222],[125.52417,9.1725],[125.52417,9.17278],[125.524437,9.17306],[125.524437,9.17361],[125.525558,9.17472],[125.525558,9.175],[125.525833,9.17528],[125.525833,9.17556],[125.526108,9.17583],[125.526108,9.17611],[125.526657,9.17667],[125.526657,9.17694],[125.528053,9.17833],[125.528053,9.17861],[125.528343,9.17889],[125.528343,9.17917],[125.528893,9.17972],[125.528893,9.18028],[125.529167,9.18056],[125.529167,9.18083],[125.529442,9.18111],[125.529442,9.18195],[125.529716,9.18222],[125.529716,9.18333],[125.529999,9.18361],[125.529999,9.18444],[125.530281,9.18472],[125.530281,9.18528],[125.530563,9.18556],[125.530563,9.18583],[125.530281,9.18611],[125.530281,9.18619],[125.530281,9.1875],[125.529999,9.18778],[125.529999,9.18861],[125.529716,9.18889],[125.529716,9.18917],[125.529762,9.18946],[125.530113,9.18943],[125.552513,9.18779]]]]}},{"type":"Feature","properties":{"ID_0":177,"ISO":"PHL","NAME_0":"Philippines","ID_1":16002,"NAME_1":"Agusan del Norte","ID_2":1600211,"NAME_2":"Tubay","ID_3":1600211005,"NAME_3":"Lawigan","NL_NAME_3":null,"VARNAME_3":null,"TYPE_3":"Barangay","ENGTYPE_3":"Village","PROVINCE":"Agusan del Norte","REGION":"Region XIII (Caraga)","id":"barangay-1600211005","name":"Lawigan","barangayCode":"1600211005","population":null,"formattedPop":null,"densityCategory":"No data","vulnerabilityRating":"No data","healthRiskLevel":"No data","areaKm2":6.841541,"centerLat":9.298783,"centerLng":125.513946,"geometrySource":"all_barangay-2.csv detailed WKT","geometryMatchMethod":"unique_official_admin_names","boundaryPointCount":47},"geometry":{"type":"MultiPolygon","coordinates":[[[[125.513344,9.31708],[125.518967,9.3153],[125.527237,9.29055],[125.50592,9.28907],[125.50592,9.28916],[125.505836,9.28917],[125.505836,9.28944],[125.505913,9.28952],[125.506111,9.28972],[125.506111,9.29056],[125.505692,9.29215],[125.505547,9.29306],[125.505127,9.29447],[125.505211,9.29517],[125.504929,9.29606],[125.504753,9.29639],[125.504623,9.29665],[125.504578,9.29684],[125.504173,9.2975],[125.503937,9.29975],[125.503754,9.30011],[125.503639,9.30035],[125.503609,9.30083],[125.503532,9.30113],[125.50351,9.30157],[125.502953,9.30226],[125.501907,9.30393],[125.501663,9.30417],[125.499443,9.30528],[125.498047,9.30556],[125.497223,9.30639],[125.496986,9.30974],[125.49675,9.31073],[125.496712,9.31115],[125.496712,9.31163],[125.496391,9.31222],[125.495689,9.31403],[125.495483,9.31458],[125.495483,9.315],[125.495003,9.31611],[125.494621,9.31725],[125.494621,9.31788],[125.49469,9.31891],[125.49469,9.32002],[125.494331,9.32115],[125.504356,9.319],[125.513344,9.31708]]]]}},{"type":"Feature","properties":{"ID_0":177,"ISO":"PHL","NAME_0":"Philippines","ID_1":16002,"NAME_1":"Agusan del Norte","ID_2":1600211,"NAME_2":"Tubay","ID_3":1600211006,"NAME_3":"Poblacion 1","NL_NAME_3":null,"VARNAME_3":null,"TYPE_3":"Barangay","ENGTYPE_3":"Village","PROVINCE":"Agusan del Norte","REGION":"Region XIII (Caraga)","id":"barangay-1600211006","name":"Poblacion 1","barangayCode":"1600211006","population":null,"formattedPop":null,"densityCategory":"No data","vulnerabilityRating":"No data","healthRiskLevel":"No data","areaKm2":4.721636,"centerLat":9.158398,"centerLng":125.536239,"geometrySource":"all_barangay-2.csv detailed WKT","geometryMatchMethod":"unique_official_admin_names","boundaryPointCount":67},"geometry":{"type":"MultiPolygon","coordinates":[[[[125.521942,9.16083],[125.522217,9.16056],[125.522499,9.16056],[125.522781,9.16028],[125.522781,9.16],[125.52417,9.15861],[125.524437,9.15861],[125.525558,9.1575],[125.525833,9.1575],[125.52594,9.1574],[125.525208,9.15742],[125.523643,9.1582],[125.520538,9.15856],[125.520554,9.15929],[125.520569,9.15944],[125.520576,9.15956],[125.520653,9.15993],[125.52063,9.16015],[125.520576,9.1608],[125.520699,9.16091],[125.520882,9.16106],[125.521942,9.16083]]],[[[125.549713,9.16335],[125.549873,9.16031],[125.550133,9.1592],[125.551437,9.15797],[125.551758,9.15666],[125.551933,9.15596],[125.551598,9.15452],[125.551392,9.15363],[125.550453,9.15239],[125.549744,9.15148],[125.547997,9.15085],[125.544472,9.15232],[125.541527,9.15308],[125.539467,9.15395],[125.538757,9.1553],[125.535454,9.15607],[125.534569,9.1553],[125.533073,9.15427],[125.531761,9.15454],[125.531174,9.15613],[125.530853,9.15721],[125.526527,9.15737],[125.526657,9.1575],[125.526947,9.1575],[125.527222,9.15778],[125.526947,9.15806],[125.526947,9.15861],[125.525284,9.16028],[125.525002,9.16028],[125.524437,9.16083],[125.52417,9.16083],[125.523064,9.16194],[125.522781,9.16194],[125.522499,9.16222],[125.521942,9.16222],[125.521393,9.16278],[125.521393,9.16306],[125.521317,9.16312],[125.521111,9.16333],[125.521111,9.16361],[125.520844,9.16389],[125.520844,9.16436],[125.521294,9.16433],[125.521843,9.1643],[125.549713,9.16335]]]]}},{"type":"Feature","properties":{"ID_0":177,"ISO":"PHL","NAME_0":"Philippines","ID_1":16002,"NAME_1":"Agusan del Norte","ID_2":1600211,"NAME_2":"Tubay","ID_3":1600211007,"NAME_3":"Poblacion 2","NL_NAME_3":null,"VARNAME_3":null,"TYPE_3":"Barangay","ENGTYPE_3":"Village","PROVINCE":"Agusan del Norte","REGION":"Region XIII (Caraga)","id":"barangay-1600211007","name":"Poblacion 2","barangayCode":"1600211007","population":null,"formattedPop":null,"densityCategory":"No data","vulnerabilityRating":"No data","healthRiskLevel":"No data","areaKm2":2.811372,"centerLat":9.168796,"centerLng":125.535866,"geometrySource":"all_barangay-2.csv detailed WKT","geometryMatchMethod":"unique_official_admin_names","boundaryPointCount":31},"geometry":{"type":"MultiPolygon","coordinates":[[[[125.549393,9.17093],[125.548576,9.16871],[125.548569,9.16753],[125.549347,9.1659],[125.549713,9.16335],[125.521843,9.1643],[125.521294,9.16433],[125.520844,9.16436],[125.520844,9.16472],[125.521111,9.165],[125.521111,9.16556],[125.521393,9.16583],[125.521393,9.16639],[125.521667,9.16667],[125.521667,9.16694],[125.521713,9.16698],[125.521942,9.16722],[125.521942,9.16778],[125.522217,9.16806],[125.522217,9.16861],[125.522499,9.16889],[125.522499,9.16917],[125.522781,9.16944],[125.522781,9.16972],[125.523064,9.17],[125.523064,9.17011],[125.524193,9.1703],[125.5252,9.17093],[125.526703,9.17092],[125.528069,9.17147],[125.549393,9.17093]]]]}},{"type":"Feature","properties":{"ID_0":177,"ISO":"PHL","NAME_0":"Philippines","ID_1":16002,"NAME_1":"Agusan del Norte","ID_2":1600211,"NAME_2":"Tubay","ID_3":1600211008,"NAME_3":"Santa Ana","NL_NAME_3":null,"VARNAME_3":null,"TYPE_3":"Barangay","ENGTYPE_3":"Village","PROVINCE":"Agusan del Norte","REGION":"Region XIII (Caraga)","id":"barangay-1600211008","name":"Santa Ana","barangayCode":"1600211008","population":null,"formattedPop":null,"densityCategory":"No data","vulnerabilityRating":"No data","healthRiskLevel":"No data","areaKm2":6.55797,"centerLat":9.190375,"centerLng":125.558414,"geometrySource":"all_barangay-2.csv detailed WKT","geometryMatchMethod":"unique_official_admin_names","boundaryPointCount":36},"geometry":{"type":"MultiPolygon","coordinates":[[[[125.555344,9.20279],[125.571121,9.20272],[125.571198,9.20174],[125.572617,9.20113],[125.573647,9.20025],[125.573967,9.19807],[125.573486,9.19584],[125.573448,9.1946],[125.57373,9.19303],[125.573418,9.19032],[125.572807,9.18776],[125.573418,9.18487],[125.5746,9.18304],[125.573921,9.18278],[125.553177,9.18373],[125.553253,9.18567],[125.552513,9.18779],[125.552422,9.18894],[125.552361,9.18975],[125.552437,9.19078],[125.552467,9.1911],[125.553139,9.19212],[125.554108,9.19308],[125.554138,9.19311],[125.554527,9.1935],[125.556168,9.19503],[125.556343,9.19575],[125.556534,9.19659],[125.555672,9.19833],[125.555229,9.19865],[125.554459,9.1992],[125.553383,9.20032],[125.553741,9.20105],[125.553757,9.20109],[125.553879,9.20134],[125.555344,9.20279]]]]}},{"type":"Feature","properties":{"ID_0":177,"ISO":"PHL","NAME_0":"Philippines","ID_1":16002,"NAME_1":"Agusan del Norte","ID_2":1600211,"NAME_2":"Tubay","ID_3":1600211009,"NAME_3":"Tagmamarkay","NL_NAME_3":null,"VARNAME_3":null,"TYPE_3":"Barangay","ENGTYPE_3":"Village","PROVINCE":"Agusan del Norte","REGION":"Region XIII (Caraga)","id":"barangay-1600211009","name":"Tagmamarkay","barangayCode":"1600211009","population":null,"formattedPop":null,"densityCategory":"No data","vulnerabilityRating":"No data","healthRiskLevel":"No data","areaKm2":15.968705,"centerLat":9.214064,"centerLng":125.585734,"geometrySource":"all_barangay-2.csv detailed WKT","geometryMatchMethod":"unique_official_admin_names","boundaryPointCount":26},"geometry":{"type":"MultiPolygon","coordinates":[[[[125.626556,9.22132],[125.625763,9.20384],[125.579033,9.20486],[125.578171,9.20376],[125.574944,9.20393],[125.573257,9.20386],[125.571121,9.20272],[125.555344,9.20279],[125.555359,9.20342],[125.555367,9.20402],[125.554939,9.2055],[125.554932,9.20724],[125.554573,9.20966],[125.554848,9.21121],[125.554749,9.21226],[125.552849,9.21449],[125.551781,9.21698],[125.551743,9.21795],[125.551811,9.2195],[125.550827,9.22126],[125.549911,9.22295],[125.549217,9.22565],[125.562149,9.22493],[125.574287,9.22399],[125.599922,9.22264],[125.626556,9.22132]]]]}},{"type":"Feature","properties":{"ID_0":177,"ISO":"PHL","NAME_0":"Philippines","ID_1":16002,"NAME_1":"Agusan del Norte","ID_2":1600211,"NAME_2":"Tubay","ID_3":1600211010,"NAME_3":"Tagpangahoy","NL_NAME_3":null,"VARNAME_3":null,"TYPE_3":"Barangay","ENGTYPE_3":"Village","PROVINCE":"Agusan del Norte","REGION":"Region XIII (Caraga)","id":"barangay-1600211010","name":"Tagpangahoy","barangayCode":"1600211010","population":null,"formattedPop":null,"densityCategory":"No data","vulnerabilityRating":"No data","healthRiskLevel":"No data","areaKm2":15.026762,"centerLat":9.241351,"centerLng":125.526288,"geometrySource":"all_barangay-2.csv detailed WKT","geometryMatchMethod":"unique_official_admin_names","boundaryPointCount":122},"geometry":{"type":"MultiPolygon","coordinates":[[[[125.535591,9.26122],[125.537109,9.25829],[125.542221,9.24081],[125.544518,9.23352],[125.546547,9.22579],[125.549217,9.22565],[125.549911,9.22295],[125.550827,9.22126],[125.551811,9.2195],[125.551743,9.21795],[125.551781,9.21698],[125.552849,9.21449],[125.522217,9.21492],[125.522217,9.21528],[125.522636,9.21625],[125.522636,9.21799],[125.522499,9.21833],[125.522034,9.21857],[125.521942,9.21861],[125.520279,9.21861],[125.520088,9.21841],[125.518852,9.21824],[125.518059,9.21833],[125.51722,9.21917],[125.516457,9.21952],[125.516113,9.22077],[125.515556,9.22111],[125.515533,9.22192],[125.515388,9.22233],[125.515343,9.22245],[125.514977,9.22268],[125.514214,9.22315],[125.513519,9.22338],[125.512779,9.22361],[125.512779,9.22417],[125.511948,9.225],[125.511749,9.22613],[125.511711,9.22636],[125.511703,9.22644],[125.51165,9.22763],[125.51178,9.22817],[125.511848,9.22859],[125.511848,9.22896],[125.511971,9.22967],[125.512093,9.22998],[125.512199,9.23025],[125.512428,9.23056],[125.512733,9.23083],[125.513046,9.23095],[125.513184,9.23108],[125.513443,9.23129],[125.513657,9.23149],[125.51387,9.23176],[125.514297,9.23222],[125.514374,9.23278],[125.514297,9.23292],[125.514236,9.23715],[125.513344,9.23833],[125.512779,9.23889],[125.512497,9.23889],[125.511703,9.23968],[125.510277,9.24111],[125.510002,9.24139],[125.50972,9.24139],[125.509453,9.24167],[125.509163,9.24167],[125.508888,9.24194],[125.508057,9.24194],[125.507767,9.24222],[125.5075,9.24222],[125.507217,9.2425],[125.506943,9.2425],[125.506668,9.24278],[125.506393,9.24278],[125.50528,9.24389],[125.50528,9.24409],[125.50528,9.24417],[125.504723,9.24472],[125.504784,9.24511],[125.504997,9.24542],[125.505287,9.24542],[125.505836,9.24542],[125.506393,9.24542],[125.506668,9.24639],[125.506668,9.24694],[125.506393,9.24722],[125.506393,9.24778],[125.505836,9.24833],[125.505836,9.24861],[125.505547,9.24889],[125.505478,9.24889],[125.504997,9.24889],[125.504448,9.24944],[125.504448,9.25028],[125.504173,9.25056],[125.504402,9.25079],[125.504448,9.25083],[125.504448,9.25111],[125.504356,9.2512],[125.504173,9.25139],[125.504173,9.25167],[125.504448,9.25194],[125.504448,9.25222],[125.504723,9.2525],[125.504723,9.25333],[125.504791,9.2534],[125.504997,9.25361],[125.504997,9.25389],[125.50528,9.25417],[125.50528,9.25444],[125.505836,9.255],[125.505836,9.25528],[125.506111,9.25556],[125.506111,9.25639],[125.506393,9.25667],[125.506393,9.25722],[125.506668,9.2575],[125.506668,9.25806],[125.506943,9.25833],[125.506943,9.25972],[125.507004,9.25978],[125.535591,9.26122]]]]}},{"type":"Feature","properties":{"ID_0":177,"ISO":"PHL","NAME_0":"Philippines","ID_1":16002,"NAME_1":"Agusan del Norte","ID_2":1600211,"NAME_2":"Tubay","ID_3":1600211011,"NAME_3":"Tinigbasan","NL_NAME_3":null,"VARNAME_3":null,"TYPE_3":"Barangay","ENGTYPE_3":"Village","PROVINCE":"Agusan del Norte","REGION":"Region XIII (Caraga)","id":"barangay-1600211011","name":"Tinigbasan","barangayCode":"1600211011","population":null,"formattedPop":null,"densityCategory":"No data","vulnerabilityRating":"No data","healthRiskLevel":"No data","areaKm2":8.249717,"centerLat":9.273041,"centerLng":125.520364,"geometrySource":"all_barangay-2.csv detailed WKT","geometryMatchMethod":"unique_official_admin_names","boundaryPointCount":65},"geometry":{"type":"MultiPolygon","coordinates":[[[[125.527237,9.29055],[125.531319,9.27707],[125.535591,9.26122],[125.507004,9.25978],[125.507217,9.26],[125.507217,9.26083],[125.506943,9.26111],[125.506943,9.26194],[125.507217,9.26222],[125.507217,9.26275],[125.50724,9.2628],[125.5075,9.26306],[125.5075,9.26333],[125.508057,9.26389],[125.508057,9.26417],[125.508331,9.26444],[125.508331,9.26472],[125.508614,9.265],[125.508614,9.26528],[125.508888,9.26556],[125.508888,9.27083],[125.508614,9.27111],[125.508614,9.27139],[125.508331,9.27167],[125.508331,9.27194],[125.508087,9.27219],[125.50808,9.27223],[125.508057,9.27234],[125.508057,9.2725],[125.508011,9.27254],[125.507767,9.27278],[125.507782,9.27362],[125.508057,9.27389],[125.508057,9.27417],[125.507767,9.27444],[125.507767,9.27472],[125.506943,9.27556],[125.506943,9.27583],[125.506172,9.2766],[125.506111,9.27667],[125.506111,9.27673],[125.506111,9.27694],[125.505524,9.27794],[125.505417,9.27812],[125.505417,9.27875],[125.505417,9.27881],[125.505493,9.2795],[125.505699,9.28033],[125.505768,9.28103],[125.50576,9.28139],[125.505836,9.28167],[125.505836,9.2825],[125.505913,9.28299],[125.505836,9.28361],[125.505836,9.28667],[125.506111,9.28694],[125.505913,9.28757],[125.505814,9.28779],[125.505493,9.28792],[125.505211,9.28833],[125.505547,9.28889],[125.505836,9.28917],[125.50592,9.28916],[125.50592,9.28907],[125.527237,9.29055]]]]}},{"type":"Feature","properties":{"ID_0":177,"ISO":"PHL","NAME_0":"Philippines","ID_1":16002,"NAME_1":"Agusan del Norte","ID_2":1600211,"NAME_2":"Tubay","ID_3":1600211012,"NAME_3":"Victory","NL_NAME_3":null,"VARNAME_3":null,"TYPE_3":"Barangay","ENGTYPE_3":"Village","PROVINCE":"Agusan del Norte","REGION":"Region XIII (Caraga)","id":"barangay-1600211012","name":"Victory","barangayCode":"1600211012","population":null,"formattedPop":null,"densityCategory":"No data","vulnerabilityRating":"No data","healthRiskLevel":"No data","areaKm2":2.581002,"centerLat":9.149064,"centerLng":125.558409,"geometrySource":"all_barangay-2.csv detailed WKT","geometryMatchMethod":"unique_official_admin_names","boundaryPointCount":31},"geometry":{"type":"MultiPolygon","coordinates":[[[[125.574333,9.15467],[125.574158,9.14821],[125.574257,9.14179],[125.572189,9.14215],[125.570221,9.14224],[125.567833,9.14197],[125.566223,9.14092],[125.56443,9.14113],[125.563057,9.14049],[125.562569,9.14239],[125.560143,9.14453],[125.558006,9.14493],[125.555298,9.14604],[125.553543,9.14764],[125.552406,9.1476],[125.551437,9.14909],[125.55024,9.14924],[125.549187,9.14761],[125.548233,9.14698],[125.547203,9.14761],[125.545776,9.14829],[125.545143,9.14941],[125.544724,9.15072],[125.544472,9.15232],[125.547997,9.15085],[125.549744,9.15148],[125.550453,9.15239],[125.551392,9.15363],[125.551598,9.15452],[125.551933,9.15596],[125.574333,9.15467]]]]}},{"type":"Feature","properties":{"ID_0":177,"ISO":"PHL","NAME_0":"Philippines","ID_1":16002,"NAME_1":"Agusan del Norte","ID_2":1600211,"NAME_2":"Tubay","ID_3":1600211013,"NAME_3":"Doña Telesfora","NL_NAME_3":null,"VARNAME_3":"Dona Telesfora","TYPE_3":"Barangay","ENGTYPE_3":"Village","PROVINCE":"Agusan del Norte","REGION":"Region XIII (Caraga)","id":"barangay-1600211013","name":"Doña Telesfora","barangayCode":"1600211013","population":null,"formattedPop":null,"densityCategory":"No data","vulnerabilityRating":"No data","healthRiskLevel":"No data","areaKm2":10.308713,"centerLat":9.198877,"centerLng":125.598845,"geometrySource":"barangays.geojson simplified fallback","geometryMatchMethod":"simplified_fallback","boundaryPointCount":5},"geometry":{"type":"Polygon","coordinates":[[[125.62642671300011,9.208554671000059],[125.62603930700004,9.19190394800006],[125.56979568200006,9.190369601000043],[125.56926417500006,9.204008416000022],[125.62642671300011,9.208554671000059]]]}}]}
