{"type":"FeatureCollection","features":[{"type":"Feature","properties":{"ID_0":177,"ISO":"PHL","NAME_0":"Philippines","ID_1":7012,"NAME_1":"Bohol","ID_2":701211,"NAME_2":"Candijay","ID_3":701211001,"NAME_3":"Abihilan","NL_NAME_3":null,"VARNAME_3":null,"TYPE_3":"Barangay","ENGTYPE_3":"Village","PROVINCE":"Bohol","REGION":"Region VII (Central Visayas)","id":"barangay-0701211001","name":"Abihilan","barangayCode":"0701211001","population":null,"formattedPop":null,"densityCategory":"No data","vulnerabilityRating":"No data","healthRiskLevel":"No data","areaKm2":3.515236,"centerLat":9.825871,"centerLng":124.456611,"geometrySource":"all_barangay-2.csv detailed WKT","geometryMatchMethod":"unique_official_admin_names","boundaryPointCount":11},"geometry":{"type":"MultiPolygon","coordinates":[[[[124.461853,9.83963],[124.4618,9.82644],[124.461357,9.82648],[124.460648,9.8261],[124.459877,9.82555],[124.459389,9.82541],[124.458817,9.82453],[124.456703,9.82322],[124.451927,9.82557],[124.447563,9.83513],[124.461853,9.83963]]]]}},{"type":"Feature","properties":{"ID_0":177,"ISO":"PHL","NAME_0":"Philippines","ID_1":7012,"NAME_1":"Bohol","ID_2":701211,"NAME_2":"Candijay","ID_3":701211002,"NAME_3":"Anoling","NL_NAME_3":null,"VARNAME_3":null,"TYPE_3":"Barangay","ENGTYPE_3":"Village","PROVINCE":"Bohol","REGION":"Region VII (Central Visayas)","id":"barangay-0701211002","name":"Anoling","barangayCode":"0701211002","population":null,"formattedPop":null,"densityCategory":"No data","vulnerabilityRating":"No data","healthRiskLevel":"No data","areaKm2":2.996148,"centerLat":9.852733,"centerLng":124.447122,"geometrySource":"all_barangay-2.csv detailed WKT","geometryMatchMethod":"unique_official_admin_names","boundaryPointCount":59},"geometry":{"type":"MultiPolygon","coordinates":[[[[124.461121,9.85068],[124.460564,9.85026],[124.46019,9.84955],[124.459923,9.84891],[124.459824,9.84839],[124.460243,9.84819],[124.46093,9.84859],[124.461472,9.84842],[124.461441,9.84744],[124.460648,9.84655],[124.460022,9.84626],[124.459213,9.84621],[124.458763,9.84671],[124.458443,9.84732],[124.457649,9.84745],[124.457336,9.84686],[124.456863,9.84663],[124.456322,9.84713],[124.455887,9.84693],[124.455429,9.84644],[124.454536,9.8464],[124.453323,9.8462],[124.452026,9.84642],[124.451729,9.84593],[124.452103,9.84525],[124.45137,9.84459],[124.450447,9.84462],[124.449371,9.84481],[124.448776,9.84472],[124.448647,9.8441],[124.448196,9.84392],[124.447647,9.84424],[124.447456,9.84505],[124.446869,9.84455],[124.446777,9.84341],[124.447418,9.84272],[124.44696,9.84192],[124.446564,9.84306],[124.446121,9.84336],[124.445374,9.84281],[124.445213,9.84165],[124.445267,9.84065],[124.444611,9.84063],[124.444031,9.84068],[124.44326,9.84066],[124.442833,9.83981],[124.442322,9.83935],[124.441902,9.83954],[124.441902,9.84041],[124.440697,9.84043],[124.440826,9.83964],[124.440437,9.83831],[124.439728,9.8383],[124.43055,9.84152],[124.431587,9.84513],[124.449654,9.84977],[124.459557,9.85229],[124.459969,9.85142],[124.461121,9.85068]]]]}},{"type":"Feature","properties":{"ID_0":177,"ISO":"PHL","NAME_0":"Philippines","ID_1":7012,"NAME_1":"Bohol","ID_2":701211,"NAME_2":"Candijay","ID_3":701211003,"NAME_3":"Boyo-an","NL_NAME_3":null,"VARNAME_3":null,"TYPE_3":"Barangay","ENGTYPE_3":"Village","PROVINCE":"Bohol","REGION":"Region VII (Central Visayas)","id":"barangay-0701211003","name":"Boyo-an","barangayCode":"0701211003","population":null,"formattedPop":null,"densityCategory":"No data","vulnerabilityRating":"No data","healthRiskLevel":"No data","areaKm2":7.012941,"centerLat":9.831209,"centerLng":124.49615,"geometrySource":"all_barangay-2.csv detailed WKT","geometryMatchMethod":"unique_official_admin_names","boundaryPointCount":111},"geometry":{"type":"MultiPolygon","coordinates":[[[[124.517357,9.84058],[124.516602,9.83195],[124.515587,9.83168],[124.514389,9.83157],[124.513222,9.83135],[124.512589,9.83099],[124.512253,9.8297],[124.512627,9.82897],[124.512604,9.82795],[124.511879,9.82724],[124.511383,9.82672],[124.511124,9.82579],[124.510567,9.82523],[124.509819,9.82494],[124.509468,9.82513],[124.509422,9.82516],[124.509361,9.82548],[124.509132,9.82612],[124.508614,9.82657],[124.507851,9.82639],[124.507332,9.82634],[124.506569,9.82695],[124.506172,9.82767],[124.506462,9.82855],[124.506462,9.82943],[124.505707,9.82998],[124.505119,9.82991],[124.504448,9.82914],[124.504204,9.82839],[124.503281,9.82732],[124.502228,9.82655],[124.501282,9.82594],[124.500023,9.82448],[124.499283,9.82379],[124.498131,9.82312],[124.496803,9.82242],[124.495522,9.82161],[124.49437,9.82068],[124.493279,9.82022],[124.49202,9.8206],[124.491127,9.82189],[124.489418,9.82197],[124.487984,9.82213],[124.486137,9.82138],[124.484192,9.82175],[124.482597,9.82216],[124.481537,9.82114],[124.480438,9.82008],[124.479446,9.81959],[124.474258,9.81786],[124.473587,9.8186],[124.472214,9.8191],[124.471153,9.81947],[124.469841,9.82003],[124.473412,9.82312],[124.473923,9.82319],[124.474747,9.82369],[124.475922,9.82526],[124.476334,9.82631],[124.47686,9.82712],[124.47728,9.82765],[124.478157,9.82801],[124.479111,9.82858],[124.480339,9.82987],[124.48114,9.83097],[124.482353,9.83076],[124.483513,9.83216],[124.484177,9.83306],[124.485291,9.8339],[124.48642,9.83464],[124.487923,9.83436],[124.488548,9.83447],[124.489288,9.83479],[124.49044,9.83478],[124.49147,9.83529],[124.492432,9.8361],[124.493332,9.83711],[124.494431,9.83794],[124.495567,9.83871],[124.495613,9.83875],[124.496078,9.83832],[124.496597,9.8378],[124.496979,9.83746],[124.49781,9.83757],[124.498894,9.83899],[124.499077,9.83994],[124.499718,9.8416],[124.50045,9.84251],[124.501167,9.84272],[124.502197,9.84192],[124.503471,9.8404],[124.504723,9.83933],[124.506149,9.83894],[124.506317,9.83807],[124.505623,9.83692],[124.506279,9.83632],[124.507332,9.83696],[124.50769,9.83734],[124.507668,9.83857],[124.507446,9.83959],[124.507477,9.84062],[124.50782,9.84117],[124.508728,9.84187],[124.510239,9.84229],[124.510384,9.84239],[124.51149,9.84257],[124.512459,9.8428],[124.513786,9.84258],[124.515007,9.84185],[124.516144,9.84124],[124.517357,9.84058]]]]}},{"type":"Feature","properties":{"ID_0":177,"ISO":"PHL","NAME_0":"Philippines","ID_1":7012,"NAME_1":"Bohol","ID_2":701211,"NAME_2":"Candijay","ID_3":701211004,"NAME_3":"Cadapdapan","NL_NAME_3":null,"VARNAME_3":null,"TYPE_3":"Barangay","ENGTYPE_3":"Village","PROVINCE":"Bohol","REGION":"Region VII (Central Visayas)","id":"barangay-0701211004","name":"Cadapdapan","barangayCode":"0701211004","population":null,"formattedPop":null,"densityCategory":"No data","vulnerabilityRating":"No data","healthRiskLevel":"No data","areaKm2":4.353535,"centerLat":9.830407,"centerLng":124.415997,"geometrySource":"all_barangay-2.csv detailed WKT","geometryMatchMethod":"unique_official_admin_names","boundaryPointCount":6},"geometry":{"type":"MultiPolygon","coordinates":[[[[124.436508,9.82972],[124.438301,9.82214],[124.435631,9.81648],[124.405296,9.82778],[124.405441,9.83135],[124.436508,9.82972]]]]}},{"type":"Feature","properties":{"ID_0":177,"ISO":"PHL","NAME_0":"Philippines","ID_1":7012,"NAME_1":"Bohol","ID_2":701211,"NAME_2":"Candijay","ID_3":701211005,"NAME_3":"Cambane","NL_NAME_3":null,"VARNAME_3":null,"TYPE_3":"Barangay","ENGTYPE_3":"Village","PROVINCE":"Bohol","REGION":"Region VII (Central Visayas)","id":"barangay-0701211005","name":"Cambane","barangayCode":"0701211005","population":null,"formattedPop":null,"densityCategory":"No data","vulnerabilityRating":"No data","healthRiskLevel":"No data","areaKm2":4.335836,"centerLat":9.812059,"centerLng":124.462038,"geometrySource":"all_barangay-2.csv detailed WKT","geometryMatchMethod":"unique_official_admin_names","boundaryPointCount":24},"geometry":{"type":"MultiPolygon","coordinates":[[[[124.4618,9.82644],[124.464958,9.82795],[124.465569,9.82775],[124.466087,9.82722],[124.466827,9.8261],[124.467209,9.82522],[124.467682,9.82471],[124.468651,9.82464],[124.46888,9.82366],[124.468826,9.82231],[124.468742,9.82173],[124.469101,9.82094],[124.469559,9.82053],[124.469841,9.82003],[124.467903,9.80371],[124.447517,9.81213],[124.448341,9.81909],[124.456703,9.82322],[124.458817,9.82453],[124.459389,9.82541],[124.459877,9.82555],[124.460648,9.8261],[124.461357,9.82648],[124.4618,9.82644]]]]}},{"type":"Feature","properties":{"ID_0":177,"ISO":"PHL","NAME_0":"Philippines","ID_1":7012,"NAME_1":"Bohol","ID_2":701211,"NAME_2":"Candijay","ID_3":701211006,"NAME_3":"Can-olin","NL_NAME_3":null,"VARNAME_3":null,"TYPE_3":"Barangay","ENGTYPE_3":"Village","PROVINCE":"Bohol","REGION":"Region VII (Central Visayas)","id":"barangay-0701211006","name":"Can-olin","barangayCode":"0701211006","population":null,"formattedPop":null,"densityCategory":"No data","vulnerabilityRating":"No data","healthRiskLevel":"No data","areaKm2":7.337108,"centerLat":9.810561,"centerLng":124.518235,"geometrySource":"all_barangay-2.csv detailed WKT","geometryMatchMethod":"unique_official_admin_names","boundaryPointCount":34},"geometry":{"type":"MultiPolygon","coordinates":[[[[124.516548,9.82895],[124.516258,9.81952],[124.535217,9.81902],[124.530647,9.79285],[124.502739,9.79225],[124.50222,9.81642],[124.502953,9.81691],[124.503326,9.81749],[124.504547,9.81797],[124.504959,9.81876],[124.504387,9.81971],[124.504593,9.8204],[124.504868,9.82063],[124.505913,9.8212],[124.506119,9.82193],[124.506866,9.82254],[124.507271,9.82321],[124.507713,9.82418],[124.508636,9.82483],[124.509468,9.82513],[124.509819,9.82494],[124.510567,9.82523],[124.511124,9.82579],[124.511383,9.82672],[124.511879,9.82724],[124.512604,9.82795],[124.512627,9.82897],[124.512253,9.8297],[124.512589,9.83099],[124.513222,9.83135],[124.514389,9.83157],[124.515587,9.83168],[124.516602,9.83195],[124.516548,9.82895]]]]}},{"type":"Feature","properties":{"ID_0":177,"ISO":"PHL","NAME_0":"Philippines","ID_1":7012,"NAME_1":"Bohol","ID_2":701211,"NAME_2":"Candijay","ID_3":701211007,"NAME_3":"Canawa","NL_NAME_3":null,"VARNAME_3":null,"TYPE_3":"Barangay","ENGTYPE_3":"Village","PROVINCE":"Bohol","REGION":"Region VII (Central Visayas)","id":"barangay-0701211007","name":"Canawa","barangayCode":"0701211007","population":null,"formattedPop":null,"densityCategory":"No data","vulnerabilityRating":"No data","healthRiskLevel":"No data","areaKm2":7.954213,"centerLat":9.843565,"centerLng":124.421858,"geometrySource":"all_barangay-2.csv detailed WKT","geometryMatchMethod":"unique_official_admin_names","boundaryPointCount":8},"geometry":{"type":"MultiPolygon","coordinates":[[[[124.40564,9.84073],[124.431587,9.84513],[124.43055,9.84152],[124.439728,9.8383],[124.441193,9.83369],[124.436508,9.82972],[124.405441,9.83135],[124.40564,9.84073]]]]}},{"type":"Feature","properties":{"ID_0":177,"ISO":"PHL","NAME_0":"Philippines","ID_1":7012,"NAME_1":"Bohol","ID_2":701211,"NAME_2":"Candijay","ID_3":701211008,"NAME_3":"Cogtong","NL_NAME_3":null,"VARNAME_3":null,"TYPE_3":"Barangay","ENGTYPE_3":"Village","PROVINCE":"Bohol","REGION":"Region VII (Central Visayas)","id":"barangay-0701211008","name":"Cogtong","barangayCode":"0701211008","population":null,"formattedPop":null,"densityCategory":"No data","vulnerabilityRating":"No data","healthRiskLevel":"No data","areaKm2":1.814163,"centerLat":9.835191,"centerLng":124.529709,"geometrySource":"all_barangay-2.csv detailed WKT","geometryMatchMethod":"unique_official_admin_names","boundaryPointCount":59},"geometry":{"type":"MultiPolygon","coordinates":[[[[124.517357,9.84058],[124.517822,9.8404],[124.518318,9.84021],[124.519341,9.83985],[124.51976,9.83982],[124.519814,9.83974],[124.519722,9.83972],[124.520279,9.83917],[124.520279,9.83889],[124.519157,9.83778],[124.519447,9.8375],[124.520844,9.8375],[124.521111,9.83722],[124.521393,9.83722],[124.521667,9.8375],[124.522217,9.8375],[124.522499,9.83778],[124.523064,9.83778],[124.523331,9.83806],[124.523468,9.83786],[124.523727,9.83812],[124.524193,9.83828],[124.52475,9.83844],[124.525436,9.83853],[124.525818,9.83863],[124.52607,9.83871],[124.526527,9.83902],[124.52697,9.83936],[124.527397,9.83967],[124.527832,9.83995],[124.528267,9.8402],[124.52874,9.84046],[124.529228,9.84077],[124.529877,9.84098],[124.530357,9.84094],[124.530586,9.84092],[124.531143,9.84065],[124.531631,9.84037],[124.532158,9.84019],[124.532707,9.84003],[124.533287,9.8399],[124.533813,9.83967],[124.534447,9.83944],[124.534721,9.83917],[124.534813,9.83908],[124.535553,9.83833],[124.535843,9.83833],[124.53611,9.83861],[124.537216,9.83861],[124.53756,9.83895],[124.537643,9.83895],[124.537773,9.83895],[124.538162,9.83891],[124.537033,9.8287],[124.523216,9.82887],[124.522758,9.82888],[124.516548,9.82895],[124.516602,9.83195],[124.517357,9.84058]]]]}},{"type":"Feature","properties":{"ID_0":177,"ISO":"PHL","NAME_0":"Philippines","ID_1":7012,"NAME_1":"Bohol","ID_2":701211,"NAME_2":"Candijay","ID_3":701211009,"NAME_3":"La Union","NL_NAME_3":null,"VARNAME_3":null,"TYPE_3":"Barangay","ENGTYPE_3":"Village","PROVINCE":"Bohol","REGION":"Region VII (Central Visayas)","id":"barangay-0701211009","name":"La Union","barangayCode":"0701211009","population":null,"formattedPop":null,"densityCategory":"No data","vulnerabilityRating":"No data","healthRiskLevel":"No data","areaKm2":2.032734,"centerLat":9.852636,"centerLng":124.46953,"geometrySource":"all_barangay-2.csv detailed WKT","geometryMatchMethod":"unique_official_admin_names","boundaryPointCount":28},"geometry":{"type":"MultiPolygon","coordinates":[[[[124.475906,9.85713],[124.475891,9.85613],[124.476143,9.85543],[124.476837,9.85381],[124.478218,9.8523],[124.479019,9.85189],[124.47998,9.85091],[124.481163,9.84945],[124.481842,9.84858],[124.469612,9.84612],[124.469398,9.84674],[124.469261,9.84709],[124.468887,9.8475],[124.468369,9.84795],[124.467506,9.84825],[124.466293,9.84807],[124.464752,9.84853],[124.463791,9.84933],[124.462837,9.84945],[124.461967,9.85016],[124.46151,9.85068],[124.461121,9.85068],[124.459969,9.85142],[124.459557,9.85229],[124.474937,9.85619],[124.475342,9.85646],[124.475502,9.85706],[124.475906,9.85713]]]]}},{"type":"Feature","properties":{"ID_0":177,"ISO":"PHL","NAME_0":"Philippines","ID_1":7012,"NAME_1":"Bohol","ID_2":701211,"NAME_2":"Candijay","ID_3":701211010,"NAME_3":"Luan","NL_NAME_3":null,"VARNAME_3":null,"TYPE_3":"Barangay","ENGTYPE_3":"Village","PROVINCE":"Bohol","REGION":"Region VII (Central Visayas)","id":"barangay-0701211010","name":"Luan","barangayCode":"0701211010","population":null,"formattedPop":null,"densityCategory":"No data","vulnerabilityRating":"No data","healthRiskLevel":"No data","areaKm2":3.100538,"centerLat":9.855342,"centerLng":124.427651,"geometrySource":"all_barangay-2.csv detailed WKT","geometryMatchMethod":"unique_official_admin_names","boundaryPointCount":9},"geometry":{"type":"MultiPolygon","coordinates":[[[[124.448097,9.85698],[124.449654,9.84977],[124.431587,9.84513],[124.40564,9.84073],[124.405807,9.84534],[124.40905,9.84626],[124.4207,9.84945],[124.445869,9.85659],[124.448097,9.85698]]]]}},{"type":"Feature","properties":{"ID_0":177,"ISO":"PHL","NAME_0":"Philippines","ID_1":7012,"NAME_1":"Bohol","ID_2":701211,"NAME_2":"Candijay","ID_3":701211011,"NAME_3":"Lungsoda-an","NL_NAME_3":null,"VARNAME_3":null,"TYPE_3":"Barangay","ENGTYPE_3":"Village","PROVINCE":"Bohol","REGION":"Region VII (Central Visayas)","id":"barangay-0701211011","name":"Lungsoda-an","barangayCode":"0701211011","population":null,"formattedPop":null,"densityCategory":"No data","vulnerabilityRating":"No data","healthRiskLevel":"No data","areaKm2":3.216044,"centerLat":9.84039,"centerLng":124.47295,"geometrySource":"all_barangay-2.csv detailed WKT","geometryMatchMethod":"unique_official_admin_names","boundaryPointCount":16},"geometry":{"type":"MultiPolygon","coordinates":[[[[124.469612,9.84612],[124.481842,9.84858],[124.482567,9.84715],[124.483017,9.84632],[124.483543,9.84544],[124.484009,9.8448],[124.484688,9.84466],[124.485443,9.84501],[124.486954,9.84474],[124.488136,9.8443],[124.489403,9.84413],[124.490547,9.84435],[124.464958,9.82795],[124.4618,9.82644],[124.461853,9.83963],[124.469612,9.84612]]]]}},{"type":"Feature","properties":{"ID_0":177,"ISO":"PHL","NAME_0":"Philippines","ID_1":7012,"NAME_1":"Bohol","ID_2":701211,"NAME_2":"Candijay","ID_3":701211012,"NAME_3":"Mahangin","NL_NAME_3":null,"VARNAME_3":null,"TYPE_3":"Barangay","ENGTYPE_3":"Village","PROVINCE":"Bohol","REGION":"Region VII (Central Visayas)","id":"barangay-0701211012","name":"Mahangin","barangayCode":"0701211012","population":null,"formattedPop":null,"densityCategory":"No data","vulnerabilityRating":"No data","healthRiskLevel":"No data","areaKm2":3.699135,"centerLat":9.797062,"centerLng":124.479547,"geometrySource":"all_barangay-2.csv detailed WKT","geometryMatchMethod":"unique_official_admin_names","boundaryPointCount":38},"geometry":{"type":"MultiPolygon","coordinates":[[[[124.469841,9.82003],[124.471153,9.81947],[124.472214,9.8191],[124.473587,9.8186],[124.474258,9.81786],[124.47435,9.8165],[124.474022,9.81557],[124.473671,9.81461],[124.474342,9.81409],[124.475189,9.81451],[124.476547,9.81452],[124.477051,9.81415],[124.47805,9.81402],[124.479187,9.81376],[124.480873,9.81319],[124.482132,9.81258],[124.482132,9.812],[124.481773,9.81106],[124.482986,9.81089],[124.482567,9.80997],[124.48259,9.80924],[124.483269,9.80865],[124.483231,9.80805],[124.483261,9.8076],[124.483681,9.80722],[124.484337,9.80742],[124.484543,9.80773],[124.484131,9.80838],[124.484306,9.80899],[124.484848,9.80916],[124.485107,9.80891],[124.48539,9.80843],[124.485611,9.80789],[124.485947,9.80744],[124.48616,9.79594],[124.483833,9.79686],[124.467903,9.80371],[124.469841,9.82003]]]]}},{"type":"Feature","properties":{"ID_0":177,"ISO":"PHL","NAME_0":"Philippines","ID_1":7012,"NAME_1":"Bohol","ID_2":701211,"NAME_2":"Candijay","ID_3":701211013,"NAME_3":"Pagahat","NL_NAME_3":null,"VARNAME_3":null,"TYPE_3":"Barangay","ENGTYPE_3":"Village","PROVINCE":"Bohol","REGION":"Region VII (Central Visayas)","id":"barangay-0701211013","name":"Pagahat","barangayCode":"0701211013","population":null,"formattedPop":null,"densityCategory":"No data","vulnerabilityRating":"No data","healthRiskLevel":"No data","areaKm2":0.89833,"centerLat":9.858703,"centerLng":124.460103,"geometrySource":"all_barangay-2.csv detailed WKT","geometryMatchMethod":"unique_official_admin_names","boundaryPointCount":16},"geometry":{"type":"MultiPolygon","coordinates":[[[[124.46859,9.86238],[124.469589,9.85936],[124.469948,9.85866],[124.470398,9.85822],[124.471626,9.8579],[124.473732,9.85844],[124.475037,9.8585],[124.475906,9.85713],[124.475502,9.85706],[124.475342,9.85646],[124.474937,9.85619],[124.459557,9.85229],[124.449654,9.84977],[124.448097,9.85698],[124.453903,9.85835],[124.46859,9.86238]]]]}},{"type":"Feature","properties":{"ID_0":177,"ISO":"PHL","NAME_0":"Philippines","ID_1":7012,"NAME_1":"Bohol","ID_2":701211,"NAME_2":"Candijay","ID_3":701211014,"NAME_3":"Panadtaran","NL_NAME_3":null,"VARNAME_3":null,"TYPE_3":"Barangay","ENGTYPE_3":"Village","PROVINCE":"Bohol","REGION":"Region VII (Central Visayas)","id":"barangay-0701211014","name":"Panadtaran","barangayCode":"0701211014","population":null,"formattedPop":null,"densityCategory":"No data","vulnerabilityRating":"No data","healthRiskLevel":"No data","areaKm2":6.543076,"centerLat":9.849642,"centerLng":124.498454,"geometrySource":"all_barangay-2.csv detailed WKT","geometryMatchMethod":"unique_official_admin_names","boundaryPointCount":134},"geometry":{"type":"MultiPolygon","coordinates":[[[[124.471329,9.86313],[124.505821,9.85591],[124.506523,9.85556],[124.507957,9.85529],[124.508812,9.85523],[124.509712,9.85565],[124.510887,9.85497],[124.511513,9.85422],[124.512444,9.85378],[124.513474,9.85308],[124.514618,9.85203],[124.515953,9.8513],[124.517036,9.85137],[124.517532,9.8516],[124.517502,9.85111],[124.51722,9.85111],[124.516937,9.85083],[124.51667,9.85083],[124.516113,9.85028],[124.515411,9.85007],[124.514793,9.85],[124.513741,9.84986],[124.513741,9.84952],[124.514023,9.84945],[124.514297,9.84924],[124.515266,9.8491],[124.516457,9.84903],[124.517288,9.84896],[124.517982,9.84889],[124.518333,9.84882],[124.518822,9.84841],[124.519157,9.84806],[124.519722,9.84772],[124.520554,9.84694],[124.520554,9.84667],[124.522499,9.84472],[124.522781,9.84472],[124.523064,9.84444],[124.523613,9.845],[124.523888,9.845],[124.524719,9.84417],[124.525002,9.84417],[124.525284,9.84389],[124.525558,9.84389],[124.526108,9.84333],[124.526657,9.84333],[124.527222,9.84278],[124.527222,9.84222],[124.526108,9.84111],[124.525558,9.84111],[124.525284,9.84083],[124.525002,9.84083],[124.524437,9.84028],[124.52417,9.84056],[124.521767,9.84052],[124.519821,9.84052],[124.519447,9.84028],[124.51976,9.83982],[124.519341,9.83985],[124.518318,9.84021],[124.517822,9.8404],[124.517357,9.84058],[124.516144,9.84124],[124.515007,9.84185],[124.513786,9.84258],[124.512459,9.8428],[124.51149,9.84257],[124.510384,9.84239],[124.510239,9.84229],[124.508728,9.84187],[124.50782,9.84117],[124.507477,9.84062],[124.507446,9.83959],[124.507668,9.83857],[124.50769,9.83734],[124.507332,9.83696],[124.506279,9.83632],[124.505623,9.83692],[124.506317,9.83807],[124.506149,9.83894],[124.504723,9.83933],[124.503471,9.8404],[124.502197,9.84192],[124.501167,9.84272],[124.50045,9.84251],[124.499718,9.8416],[124.499077,9.83994],[124.498894,9.83899],[124.49781,9.83757],[124.496979,9.83746],[124.496597,9.8378],[124.496078,9.83832],[124.495613,9.83875],[124.495354,9.83945],[124.495934,9.84042],[124.496941,9.8413],[124.497498,9.84238],[124.498413,9.84408],[124.49868,9.84513],[124.498207,9.84579],[124.496887,9.84594],[124.495682,9.84503],[124.494926,9.84427],[124.494072,9.84368],[124.492943,9.84302],[124.492317,9.84315],[124.491432,9.8439],[124.490547,9.84435],[124.489403,9.84413],[124.488136,9.8443],[124.486954,9.84474],[124.485443,9.84501],[124.484688,9.84466],[124.484009,9.8448],[124.483543,9.84544],[124.483017,9.84632],[124.482567,9.84715],[124.481842,9.84858],[124.481163,9.84945],[124.47998,9.85091],[124.479019,9.85189],[124.478218,9.8523],[124.476837,9.85381],[124.476143,9.85543],[124.475891,9.85613],[124.475906,9.85713],[124.475037,9.8585],[124.473732,9.85844],[124.471626,9.8579],[124.470398,9.85822],[124.469948,9.85866],[124.469589,9.85936],[124.46859,9.86238],[124.471329,9.86313]]]]}},{"type":"Feature","properties":{"ID_0":177,"ISO":"PHL","NAME_0":"Philippines","ID_1":7012,"NAME_1":"Bohol","ID_2":701211,"NAME_2":"Candijay","ID_3":701211015,"NAME_3":"Panas","NL_NAME_3":null,"VARNAME_3":null,"TYPE_3":"Barangay","ENGTYPE_3":"Village","PROVINCE":"Bohol","REGION":"Region VII (Central Visayas)","id":"barangay-0701211015","name":"Panas","barangayCode":"0701211015","population":null,"formattedPop":null,"densityCategory":"No data","vulnerabilityRating":"No data","healthRiskLevel":"No data","areaKm2":9.390791,"centerLat":9.819602,"centerLng":124.553082,"geometrySource":"all_barangay-2.csv detailed WKT","geometryMatchMethod":"unique_official_admin_names","boundaryPointCount":301},"geometry":{"type":"MultiPolygon","coordinates":[[[[124.561111,9.83083],[124.561394,9.83056],[124.561546,9.83056],[124.561668,9.83056],[124.5625,9.82972],[124.5625,9.82917],[124.561668,9.82833],[124.561394,9.82833],[124.561111,9.82861],[124.560547,9.82861],[124.560493,9.82868],[124.56028,9.82889],[124.559723,9.82889],[124.559448,9.82917],[124.559174,9.82917],[124.558891,9.82945],[124.558891,9.83],[124.559174,9.83028],[124.559448,9.83028],[124.559639,9.83047],[124.559723,9.83056],[124.559998,9.83056],[124.56028,9.83083],[124.560364,9.83083],[124.561111,9.83083]]],[[[124.564774,9.83272],[124.564552,9.83261],[124.564407,9.83265],[124.564293,9.83269],[124.564217,9.83272],[124.563797,9.83281],[124.563393,9.83298],[124.562889,9.83309],[124.562828,9.83312],[124.562393,9.83329],[124.562073,9.83336],[124.561836,9.8334],[124.561378,9.83364],[124.561028,9.834],[124.560852,9.83444],[124.560898,9.83489],[124.561363,9.83526],[124.561943,9.83552],[124.562027,9.83555],[124.562752,9.83577],[124.563469,9.83577],[124.564087,9.83545],[124.56459,9.83504],[124.565063,9.83467],[124.565491,9.83427],[124.565773,9.83372],[124.565514,9.83313],[124.565277,9.833],[124.564903,9.83279],[124.564774,9.83272]]],[[[124.538818,9.83896],[124.538887,9.83889],[124.539436,9.83889],[124.539719,9.83861],[124.54052,9.83861],[124.540894,9.83852],[124.541481,9.83829],[124.541809,9.83813],[124.542,9.83803],[124.542519,9.83784],[124.543068,9.83778],[124.54361,9.8378],[124.544121,9.83788],[124.544609,9.83801],[124.545097,9.83809],[124.545593,9.83814],[124.545708,9.83809],[124.546028,9.83795],[124.546288,9.83756],[124.546387,9.83705],[124.546478,9.8365],[124.546677,9.83596],[124.546928,9.83545],[124.547127,9.83496],[124.547211,9.83444],[124.547234,9.83394],[124.547234,9.83389],[124.547234,9.83194],[124.547501,9.83167],[124.547493,9.83137],[124.547783,9.83111],[124.548317,9.83111],[124.548607,9.83083],[124.548889,9.83083],[124.549301,9.83092],[124.549797,9.83094],[124.550262,9.83088],[124.550713,9.83091],[124.551163,9.831],[124.551689,9.83097],[124.552238,9.8309],[124.552788,9.83085],[124.553337,9.83081],[124.553864,9.83072],[124.554207,9.83054],[124.554291,9.83049],[124.554626,9.83021],[124.554779,9.83005],[124.554916,9.82992],[124.555183,9.82962],[124.555511,9.8294],[124.555847,9.82914],[124.556183,9.8288],[124.556534,9.82842],[124.556938,9.82802],[124.557297,9.82758],[124.557404,9.82704],[124.557343,9.82687],[124.55722,9.82655],[124.556953,9.82615],[124.556648,9.82585],[124.556313,9.8256],[124.555962,9.82537],[124.555649,9.82506],[124.555389,9.82471],[124.555183,9.82435],[124.555054,9.82403],[124.555008,9.8237],[124.555031,9.82334],[124.555107,9.82295],[124.555222,9.82253],[124.555267,9.82212],[124.555267,9.82175],[124.555313,9.82142],[124.555397,9.82115],[124.555473,9.82107],[124.555588,9.82092],[124.55584,9.82072],[124.55616,9.82052],[124.556519,9.82029],[124.556923,9.82006],[124.557388,9.81989],[124.5578,9.81969],[124.558189,9.81944],[124.558578,9.81916],[124.558983,9.81887],[124.559196,9.81865],[124.559341,9.81853],[124.559631,9.81812],[124.559837,9.81764],[124.560051,9.81717],[124.560318,9.81683],[124.560364,9.81678],[124.560806,9.81651],[124.561394,9.81647],[124.561989,9.81662],[124.56266,9.81678],[124.563332,9.81674],[124.563797,9.81657],[124.564194,9.81641],[124.56459,9.8163],[124.565002,9.81617],[124.565468,9.8161],[124.565918,9.816],[124.566299,9.81577],[124.566566,9.81552],[124.566597,9.81546],[124.566948,9.81512],[124.567253,9.81475],[124.567574,9.81436],[124.567917,9.81397],[124.568047,9.81387],[124.568123,9.81382],[124.568367,9.81363],[124.568916,9.81333],[124.569542,9.81305],[124.570137,9.81275],[124.570663,9.81241],[124.571037,9.81204],[124.571312,9.81168],[124.57148,9.81135],[124.571709,9.8111],[124.571983,9.81092],[124.572304,9.81083],[124.572632,9.81081],[124.572952,9.81077],[124.573227,9.81067],[124.573547,9.81057],[124.573868,9.81045],[124.574173,9.8103],[124.57444,9.81016],[124.574692,9.81004],[124.574966,9.81],[124.575287,9.80998],[124.575363,9.80998],[124.575638,9.80997],[124.575996,9.80998],[124.576393,9.81001],[124.57679,9.81009],[124.57724,9.81015],[124.577751,9.81005],[124.578339,9.80999],[124.578857,9.80991],[124.578941,9.8099],[124.579514,9.80977],[124.580017,9.80969],[124.58046,9.80959],[124.580818,9.80946],[124.581146,9.80935],[124.581444,9.80918],[124.581818,9.80897],[124.58223,9.80882],[124.582588,9.80867],[124.582909,9.80864],[124.583199,9.80874],[124.583519,9.80887],[124.583633,9.80892],[124.5839,9.80903],[124.584259,9.80925],[124.584312,9.80928],[124.584839,9.80943],[124.58535,9.80958],[124.585777,9.80982],[124.586151,9.81013],[124.586517,9.8105],[124.586937,9.81083],[124.587502,9.81139],[124.587784,9.81139],[124.588058,9.81167],[124.588387,9.81167],[124.589996,9.81167],[124.590279,9.81139],[124.590553,9.81139],[124.59111,9.81083],[124.591393,9.81083],[124.59185,9.81037],[124.592216,9.81],[124.592216,9.80917],[124.591919,9.80887],[124.591667,9.80861],[124.591667,9.80833],[124.591942,9.80806],[124.592499,9.80806],[124.592781,9.80778],[124.593063,9.80778],[124.59333,9.8075],[124.593613,9.8075],[124.594719,9.80639],[124.59491,9.80598],[124.575081,9.79819],[124.563004,9.79338],[124.552132,9.79312],[124.533058,9.79279],[124.530647,9.79285],[124.535217,9.81902],[124.537033,9.8287],[124.538162,9.83891],[124.537773,9.83895],[124.537643,9.83895],[124.53756,9.83895],[124.537781,9.83917],[124.538612,9.83917],[124.538818,9.83896]]],[[[124.554283,9.83314],[124.554024,9.83307],[124.553581,9.83313],[124.552994,9.83353],[124.552513,9.83371],[124.552269,9.8338],[124.551987,9.83418],[124.55217,9.83445],[124.552223,9.83491],[124.552223,9.83546],[124.552223,9.83606],[124.552223,9.83667],[124.552277,9.83724],[124.55246,9.83771],[124.552498,9.83812],[124.552498,9.83848],[124.552498,9.8388],[124.552521,9.8391],[124.552658,9.8394],[124.552887,9.83968],[124.553299,9.8399],[124.553688,9.83985],[124.553917,9.83982],[124.554382,9.8398],[124.554581,9.83977],[124.555023,9.83947],[124.55542,9.83917],[124.555763,9.83888],[124.556038,9.83858],[124.556259,9.83826],[124.556503,9.83795],[124.556679,9.83753],[124.5569,9.83712],[124.556976,9.8366],[124.557037,9.83604],[124.557007,9.83548],[124.556686,9.835],[124.556343,9.83452],[124.555946,9.83411],[124.55558,9.83372],[124.555038,9.83352],[124.554512,9.83331],[124.554283,9.83314]]]]}},{"type":"Feature","properties":{"ID_0":177,"ISO":"PHL","NAME_0":"Philippines","ID_1":7012,"NAME_1":"Bohol","ID_2":701211,"NAME_2":"Candijay","ID_3":701211016,"NAME_3":"Poblacion","NL_NAME_3":null,"VARNAME_3":null,"TYPE_3":"Barangay","ENGTYPE_3":"Village","PROVINCE":"Bohol","REGION":"Region VII (Central Visayas)","id":"barangay-0701211016","name":"Poblacion","barangayCode":"0701211016","population":null,"formattedPop":null,"densityCategory":"No data","vulnerabilityRating":"No data","healthRiskLevel":"No data","areaKm2":5.083858,"centerLat":9.816402,"centerLng":124.493053,"geometrySource":"all_barangay-2.csv detailed WKT","geometryMatchMethod":"unique_official_admin_names","boundaryPointCount":106},"geometry":{"type":"MultiPolygon","coordinates":[[[[124.509468,9.82513],[124.508636,9.82483],[124.507713,9.82418],[124.507271,9.82321],[124.506866,9.82254],[124.506119,9.82193],[124.505913,9.8212],[124.504868,9.82063],[124.504593,9.8204],[124.504387,9.81971],[124.504959,9.81876],[124.504547,9.81797],[124.503326,9.81749],[124.502953,9.81691],[124.50222,9.81642],[124.501907,9.81582],[124.50119,9.81533],[124.50058,9.8146],[124.500221,9.81359],[124.499603,9.81247],[124.498917,9.8122],[124.498161,9.81116],[124.497368,9.81036],[124.497177,9.80964],[124.496857,9.80824],[124.496361,9.80824],[124.496048,9.80755],[124.495567,9.80736],[124.494408,9.80724],[124.493294,9.80661],[124.49263,9.80652],[124.491852,9.80703],[124.491112,9.80784],[124.49015,9.80859],[124.489464,9.80868],[124.488487,9.80866],[124.48748,9.80909],[124.486656,9.80911],[124.48642,9.80855],[124.486954,9.80798],[124.486679,9.80754],[124.485947,9.80744],[124.485611,9.80789],[124.48539,9.80843],[124.485107,9.80891],[124.484848,9.80916],[124.484306,9.80899],[124.484131,9.80838],[124.484543,9.80773],[124.484337,9.80742],[124.483681,9.80722],[124.483261,9.8076],[124.483231,9.80805],[124.483269,9.80865],[124.48259,9.80924],[124.482567,9.80997],[124.482986,9.81089],[124.481773,9.81106],[124.482132,9.812],[124.482132,9.81258],[124.480873,9.81319],[124.479187,9.81376],[124.47805,9.81402],[124.477051,9.81415],[124.476547,9.81452],[124.475189,9.81451],[124.474342,9.81409],[124.473671,9.81461],[124.474022,9.81557],[124.47435,9.8165],[124.474258,9.81786],[124.479446,9.81959],[124.480438,9.82008],[124.481537,9.82114],[124.482597,9.82216],[124.484192,9.82175],[124.486137,9.82138],[124.487984,9.82213],[124.489418,9.82197],[124.491127,9.82189],[124.49202,9.8206],[124.493279,9.82022],[124.49437,9.82068],[124.495522,9.82161],[124.496803,9.82242],[124.498131,9.82312],[124.499283,9.82379],[124.500023,9.82448],[124.501282,9.82594],[124.502228,9.82655],[124.503281,9.82732],[124.504204,9.82839],[124.504448,9.82914],[124.505119,9.82991],[124.505707,9.82998],[124.506462,9.82943],[124.506462,9.82855],[124.506172,9.82767],[124.506569,9.82695],[124.507332,9.82634],[124.507851,9.82639],[124.508614,9.82657],[124.509132,9.82612],[124.509361,9.82548],[124.509422,9.82516],[124.509468,9.82513]]]]}},{"type":"Feature","properties":{"ID_0":177,"ISO":"PHL","NAME_0":"Philippines","ID_1":7012,"NAME_1":"Bohol","ID_2":701211,"NAME_2":"Candijay","ID_3":701211017,"NAME_3":"San Isidro","NL_NAME_3":null,"VARNAME_3":null,"TYPE_3":"Barangay","ENGTYPE_3":"Village","PROVINCE":"Bohol","REGION":"Region VII (Central Visayas)","id":"barangay-0701211017","name":"San Isidro","barangayCode":"0701211017","population":null,"formattedPop":null,"densityCategory":"No data","vulnerabilityRating":"No data","healthRiskLevel":"No data","areaKm2":3.082777,"centerLat":9.834311,"centerLng":124.480534,"geometrySource":"all_barangay-2.csv detailed WKT","geometryMatchMethod":"unique_official_admin_names","boundaryPointCount":55},"geometry":{"type":"MultiPolygon","coordinates":[[[[124.490547,9.84435],[124.491432,9.8439],[124.492317,9.84315],[124.492943,9.84302],[124.494072,9.84368],[124.494926,9.84427],[124.495682,9.84503],[124.496887,9.84594],[124.498207,9.84579],[124.49868,9.84513],[124.498413,9.84408],[124.497498,9.84238],[124.496941,9.8413],[124.495934,9.84042],[124.495354,9.83945],[124.495613,9.83875],[124.495567,9.83871],[124.494431,9.83794],[124.493332,9.83711],[124.492432,9.8361],[124.49147,9.83529],[124.49044,9.83478],[124.489288,9.83479],[124.488548,9.83447],[124.487923,9.83436],[124.48642,9.83464],[124.485291,9.8339],[124.484177,9.83306],[124.483513,9.83216],[124.482353,9.83076],[124.48114,9.83097],[124.480339,9.82987],[124.479111,9.82858],[124.478157,9.82801],[124.47728,9.82765],[124.47686,9.82712],[124.476334,9.82631],[124.475922,9.82526],[124.474747,9.82369],[124.473923,9.82319],[124.473412,9.82312],[124.469841,9.82003],[124.469559,9.82053],[124.469101,9.82094],[124.468742,9.82173],[124.468826,9.82231],[124.46888,9.82366],[124.468651,9.82464],[124.467682,9.82471],[124.467209,9.82522],[124.466827,9.8261],[124.466087,9.82722],[124.465569,9.82775],[124.464958,9.82795],[124.490547,9.84435]]]]}},{"type":"Feature","properties":{"ID_0":177,"ISO":"PHL","NAME_0":"Philippines","ID_1":7012,"NAME_1":"Bohol","ID_2":701211,"NAME_2":"Candijay","ID_3":701211018,"NAME_3":"Tambongan","NL_NAME_3":null,"VARNAME_3":null,"TYPE_3":"Barangay","ENGTYPE_3":"Village","PROVINCE":"Bohol","REGION":"Region VII (Central Visayas)","id":"barangay-0701211018","name":"Tambongan","barangayCode":"0701211018","population":null,"formattedPop":null,"densityCategory":"No data","vulnerabilityRating":"No data","healthRiskLevel":"No data","areaKm2":4.600101,"centerLat":9.825554,"centerLng":124.438787,"geometrySource":"all_barangay-2.csv detailed WKT","geometryMatchMethod":"unique_official_admin_names","boundaryPointCount":12},"geometry":{"type":"MultiPolygon","coordinates":[[[[124.447563,9.83513],[124.451927,9.82557],[124.456703,9.82322],[124.448341,9.81909],[124.447517,9.81213],[124.446312,9.8127],[124.436958,9.81583],[124.435631,9.81648],[124.438301,9.82214],[124.436508,9.82972],[124.441193,9.83369],[124.447563,9.83513]]]]}},{"type":"Feature","properties":{"ID_0":177,"ISO":"PHL","NAME_0":"Philippines","ID_1":7012,"NAME_1":"Bohol","ID_2":701211,"NAME_2":"Candijay","ID_3":701211019,"NAME_3":"Tawid","NL_NAME_3":null,"VARNAME_3":null,"TYPE_3":"Barangay","ENGTYPE_3":"Village","PROVINCE":"Bohol","REGION":"Region VII (Central Visayas)","id":"barangay-0701211019","name":"Tawid","barangayCode":"0701211019","population":null,"formattedPop":null,"densityCategory":"No data","vulnerabilityRating":"No data","healthRiskLevel":"No data","areaKm2":4.71022,"centerLat":9.821663,"centerLng":124.527176,"geometrySource":"all_barangay-2.csv detailed WKT","geometryMatchMethod":"unique_official_admin_names","boundaryPointCount":7},"geometry":{"type":"MultiPolygon","coordinates":[[[[124.516548,9.82895],[124.522758,9.82888],[124.523216,9.82887],[124.537033,9.8287],[124.535217,9.81902],[124.516258,9.81952],[124.516548,9.82895]]]]}},{"type":"Feature","properties":{"ID_0":177,"ISO":"PHL","NAME_0":"Philippines","ID_1":7012,"NAME_1":"Bohol","ID_2":701211,"NAME_2":"Candijay","ID_3":701211021,"NAME_3":"Tugas","NL_NAME_3":null,"VARNAME_3":null,"TYPE_3":"Barangay","ENGTYPE_3":"Village","PROVINCE":"Bohol","REGION":"Region VII (Central Visayas)","id":"barangay-0701211021","name":"Tugas","barangayCode":"0701211021","population":null,"formattedPop":null,"densityCategory":"No data","vulnerabilityRating":"No data","healthRiskLevel":"No data","areaKm2":4.142626,"centerLat":9.801756,"centerLng":124.490069,"geometrySource":"all_barangay-2.csv detailed WKT","geometryMatchMethod":"unique_official_admin_names","boundaryPointCount":32},"geometry":{"type":"MultiPolygon","coordinates":[[[[124.50222,9.81642],[124.502739,9.79225],[124.493607,9.79282],[124.48616,9.79594],[124.485947,9.80744],[124.486679,9.80754],[124.486954,9.80798],[124.48642,9.80855],[124.486656,9.80911],[124.48748,9.80909],[124.488487,9.80866],[124.489464,9.80868],[124.49015,9.80859],[124.491112,9.80784],[124.491852,9.80703],[124.49263,9.80652],[124.493294,9.80661],[124.494408,9.80724],[124.495567,9.80736],[124.496048,9.80755],[124.496361,9.80824],[124.496857,9.80824],[124.497177,9.80964],[124.497368,9.81036],[124.498161,9.81116],[124.498917,9.8122],[124.499603,9.81247],[124.500221,9.81359],[124.50058,9.8146],[124.50119,9.81533],[124.501907,9.81582],[124.50222,9.81642]]]]}},{"type":"Feature","properties":{"ID_0":177,"ISO":"PHL","NAME_0":"Philippines","ID_1":7012,"NAME_1":"Bohol","ID_2":701211,"NAME_2":"Candijay","ID_3":701211022,"NAME_3":"Tubod","NL_NAME_3":null,"VARNAME_3":null,"TYPE_3":"Barangay","ENGTYPE_3":"Village","PROVINCE":"Bohol","REGION":"Region VII (Central Visayas)","id":"barangay-0701211022","name":"Tubod","barangayCode":"0701211022","population":null,"formattedPop":null,"densityCategory":"No data","vulnerabilityRating":"No data","healthRiskLevel":"No data","areaKm2":2.953143,"centerLat":9.843119,"centerLng":124.45643,"geometrySource":"all_barangay-2.csv detailed WKT","geometryMatchMethod":"unique_official_admin_names","boundaryPointCount":69},"geometry":{"type":"MultiPolygon","coordinates":[[[[124.461121,9.85068],[124.46151,9.85068],[124.461967,9.85016],[124.462837,9.84945],[124.463791,9.84933],[124.464752,9.84853],[124.466293,9.84807],[124.467506,9.84825],[124.468369,9.84795],[124.468887,9.8475],[124.469261,9.84709],[124.469398,9.84674],[124.469612,9.84612],[124.461853,9.83963],[124.447563,9.83513],[124.441193,9.83369],[124.439728,9.8383],[124.440437,9.83831],[124.440826,9.83964],[124.440697,9.84043],[124.441902,9.84041],[124.441902,9.83954],[124.442322,9.83935],[124.442833,9.83981],[124.44326,9.84066],[124.444031,9.84068],[124.444611,9.84063],[124.445267,9.84065],[124.445213,9.84165],[124.445374,9.84281],[124.446121,9.84336],[124.446564,9.84306],[124.44696,9.84192],[124.447418,9.84272],[124.446777,9.84341],[124.446869,9.84455],[124.447456,9.84505],[124.447647,9.84424],[124.448196,9.84392],[124.448647,9.8441],[124.448776,9.84472],[124.449371,9.84481],[124.450447,9.84462],[124.45137,9.84459],[124.452103,9.84525],[124.451729,9.84593],[124.452026,9.84642],[124.453323,9.8462],[124.454536,9.8464],[124.455429,9.84644],[124.455887,9.84693],[124.456322,9.84713],[124.456863,9.84663],[124.457336,9.84686],[124.457649,9.84745],[124.458443,9.84732],[124.458763,9.84671],[124.459213,9.84621],[124.460022,9.84626],[124.460648,9.84655],[124.461441,9.84744],[124.461472,9.84842],[124.46093,9.84859],[124.460243,9.84819],[124.459824,9.84839],[124.459923,9.84891],[124.46019,9.84955],[124.460564,9.85026],[124.461121,9.85068]]]]}}]}
