{"type":"FeatureCollection","features":[{"type":"Feature","properties":{"ID_0":177,"ISO":"PHL","NAME_0":"Philippines","ID_1":4021,"NAME_1":"Cavite","ID_2":402110,"NAME_2":"Indang","ID_3":402110001,"NAME_3":"Agus-us","NL_NAME_3":null,"VARNAME_3":null,"TYPE_3":"Barangay","ENGTYPE_3":"Village","PROVINCE":"Cavite","REGION":"Region IV-A (Calabarzon)","id":"barangay-0402110001","name":"Agus-us","barangayCode":"0402110001","population":null,"formattedPop":null,"densityCategory":"No data","vulnerabilityRating":"No data","healthRiskLevel":"No data","areaKm2":2.559483,"centerLat":14.226217,"centerLng":120.861422,"geometrySource":"all_barangay-2.csv detailed WKT","geometryMatchMethod":"unique_official_admin_names","boundaryPointCount":23},"geometry":{"type":"MultiPolygon","coordinates":[[[[120.85025,14.22662],[120.867691,14.23686],[120.867378,14.23603],[120.86747,14.23499],[120.867607,14.23356],[120.86824,14.23278],[120.868553,14.23133],[120.868729,14.23039],[120.869888,14.22915],[120.870728,14.22813],[120.870857,14.22631],[120.871483,14.22429],[120.856613,14.21707],[120.856537,14.2172],[120.855568,14.21895],[120.855011,14.21978],[120.853722,14.22134],[120.852592,14.222],[120.851418,14.22303],[120.850723,14.22416],[120.850327,14.22529],[120.85025,14.22633],[120.85025,14.22662]]]]}},{"type":"Feature","properties":{"ID_0":177,"ISO":"PHL","NAME_0":"Philippines","ID_1":4021,"NAME_1":"Cavite","ID_2":402110,"NAME_2":"Indang","ID_3":402110002,"NAME_3":"Alulod","NL_NAME_3":null,"VARNAME_3":null,"TYPE_3":"Barangay","ENGTYPE_3":"Village","PROVINCE":"Cavite","REGION":"Region IV-A (Calabarzon)","id":"barangay-0402110002","name":"Alulod","barangayCode":"0402110002","population":null,"formattedPop":null,"densityCategory":"No data","vulnerabilityRating":"No data","healthRiskLevel":"No data","areaKm2":4.304851,"centerLat":14.208967,"centerLng":120.888251,"geometrySource":"all_barangay-2.csv detailed WKT","geometryMatchMethod":"unique_official_admin_names","boundaryPointCount":57},"geometry":{"type":"MultiPolygon","coordinates":[[[[120.875153,14.23782],[120.879227,14.23776],[120.88131,14.23768],[120.882843,14.23763],[120.884216,14.23558],[120.885094,14.2342],[120.886124,14.2325],[120.887016,14.23135],[120.887466,14.23066],[120.889023,14.22898],[120.889488,14.2282],[120.890099,14.22728],[120.890404,14.22721],[120.891212,14.22745],[120.891541,14.22752],[120.892387,14.22703],[120.893013,14.22636],[120.892593,14.2251],[120.893494,14.22411],[120.894257,14.22289],[120.894211,14.22201],[120.893997,14.22113],[120.89463,14.21984],[120.8955,14.21918],[120.895813,14.21825],[120.896004,14.21666],[120.896294,14.21549],[120.896683,14.21422],[120.896873,14.21286],[120.897377,14.21108],[120.897453,14.2097],[120.897293,14.20895],[120.881866,14.20389],[120.881287,14.20571],[120.881073,14.20797],[120.880913,14.20889],[120.880997,14.21014],[120.880417,14.21168],[120.879051,14.21276],[120.877899,14.21416],[120.877319,14.21594],[120.877037,14.21794],[120.877403,14.22028],[120.877243,14.22092],[120.877083,14.22198],[120.876518,14.22295],[120.875504,14.22426],[120.874237,14.22725],[120.872932,14.23149],[120.871429,14.23155],[120.869888,14.23161],[120.869453,14.23209],[120.869308,14.23398],[120.868813,14.23541],[120.867691,14.23686],[120.866531,14.23805],[120.875153,14.23782]]]]}},{"type":"Feature","properties":{"ID_0":177,"ISO":"PHL","NAME_0":"Philippines","ID_1":4021,"NAME_1":"Cavite","ID_2":402110,"NAME_2":"Indang","ID_3":402110003,"NAME_3":"Banaba Cerca","NL_NAME_3":null,"VARNAME_3":null,"TYPE_3":"Barangay","ENGTYPE_3":"Village","PROVINCE":"Cavite","REGION":"Region IV-A (Calabarzon)","id":"barangay-0402110003","name":"Banaba Cerca","barangayCode":"0402110003","population":null,"formattedPop":null,"densityCategory":"No data","vulnerabilityRating":"No data","healthRiskLevel":"No data","areaKm2":3.465539,"centerLat":14.209441,"centerLng":120.857668,"geometrySource":"all_barangay-2.csv detailed WKT","geometryMatchMethod":"unique_official_admin_names","boundaryPointCount":33},"geometry":{"type":"MultiPolygon","coordinates":[[[[120.85025,14.22662],[120.85025,14.22633],[120.850327,14.22529],[120.850723,14.22416],[120.851418,14.22303],[120.852592,14.222],[120.853722,14.22134],[120.855011,14.21978],[120.855568,14.21895],[120.856537,14.2172],[120.856613,14.21707],[120.857697,14.21559],[120.859138,14.21422],[120.859467,14.21385],[120.859932,14.21311],[120.858994,14.21226],[120.854462,14.21048],[120.853783,14.21037],[120.852608,14.21105],[120.851471,14.21169],[120.851387,14.21289],[120.851387,14.21377],[120.850647,14.21319],[120.849411,14.21311],[120.847893,14.2156],[120.847069,14.21684],[120.845352,14.2175],[120.843918,14.21696],[120.842651,14.21748],[120.840897,14.21732],[120.839569,14.21759],[120.838348,14.21919],[120.85025,14.22662]]]]}},{"type":"Feature","properties":{"ID_0":177,"ISO":"PHL","NAME_0":"Philippines","ID_1":4021,"NAME_1":"Cavite","ID_2":402110,"NAME_2":"Indang","ID_3":402110004,"NAME_3":"Banaba Lejos","NL_NAME_3":null,"VARNAME_3":null,"TYPE_3":"Barangay","ENGTYPE_3":"Village","PROVINCE":"Cavite","REGION":"Region IV-A (Calabarzon)","id":"barangay-0402110004","name":"Banaba Lejos","barangayCode":"0402110004","population":null,"formattedPop":null,"densityCategory":"No data","vulnerabilityRating":"No data","healthRiskLevel":"No data","areaKm2":6.613086,"centerLat":14.232921,"centerLng":120.831936,"geometrySource":"all_barangay-2.csv detailed WKT","geometryMatchMethod":"unique_official_admin_names","boundaryPointCount":35},"geometry":{"type":"MultiPolygon","coordinates":[[[[120.840408,14.24005],[120.840591,14.23938],[120.840912,14.23754],[120.841637,14.23656],[120.843262,14.23587],[120.844856,14.23517],[120.8461,14.23349],[120.847229,14.23205],[120.848282,14.23021],[120.848389,14.22873],[120.84903,14.22768],[120.85025,14.22662],[120.838348,14.21919],[120.837738,14.2194],[120.837387,14.21977],[120.836929,14.22046],[120.835777,14.22174],[120.835663,14.22193],[120.83371,14.22259],[120.831528,14.22318],[120.829918,14.22428],[120.828033,14.22526],[120.826149,14.22624],[120.823669,14.22697],[120.823143,14.22697],[120.819801,14.22656],[120.819717,14.2278],[120.819061,14.22887],[120.818314,14.23019],[120.817833,14.23103],[120.817619,14.2318],[120.816849,14.23305],[120.81546,14.23471],[120.830116,14.23784],[120.840408,14.24005]]]]}},{"type":"Feature","properties":{"ID_0":177,"ISO":"PHL","NAME_0":"Philippines","ID_1":4021,"NAME_1":"Cavite","ID_2":402110,"NAME_2":"Indang","ID_3":402110006,"NAME_3":"Buna Cerca","NL_NAME_3":null,"VARNAME_3":null,"TYPE_3":"Barangay","ENGTYPE_3":"Village","PROVINCE":"Cavite","REGION":"Region IV-A (Calabarzon)","id":"barangay-0402110006","name":"Buna Cerca","barangayCode":"0402110006","population":null,"formattedPop":null,"densityCategory":"No data","vulnerabilityRating":"No data","healthRiskLevel":"No data","areaKm2":2.559671,"centerLat":14.188589,"centerLng":120.889694,"geometrySource":"all_barangay-2.csv detailed WKT","geometryMatchMethod":"unique_official_admin_names","boundaryPointCount":35},"geometry":{"type":"MultiPolygon","coordinates":[[[[120.891052,14.19649],[120.891548,14.19628],[120.892197,14.19615],[120.892982,14.19511],[120.893417,14.19352],[120.893913,14.19184],[120.894623,14.19061],[120.895081,14.18932],[120.895172,14.18805],[120.895554,14.18667],[120.896057,14.18573],[120.89537,14.18468],[120.894409,14.18431],[120.892578,14.1832],[120.891159,14.18225],[120.890099,14.18157],[120.88826,14.18097],[120.887718,14.18154],[120.885811,14.18285],[120.883812,14.184],[120.881508,14.18598],[120.880188,14.1874],[120.87883,14.18906],[120.877937,14.19072],[120.880562,14.19068],[120.879807,14.19241],[120.879669,14.19326],[120.879646,14.19359],[120.880569,14.19382],[120.882668,14.19436],[120.884132,14.19487],[120.885811,14.19497],[120.88723,14.19539],[120.887932,14.19553],[120.891052,14.19649]]]]}},{"type":"Feature","properties":{"ID_0":177,"ISO":"PHL","NAME_0":"Philippines","ID_1":4021,"NAME_1":"Cavite","ID_2":402110,"NAME_2":"Indang","ID_3":402110007,"NAME_3":"Buna Lejos I","NL_NAME_3":null,"VARNAME_3":null,"TYPE_3":"Barangay","ENGTYPE_3":"Village","PROVINCE":"Cavite","REGION":"Region IV-A (Calabarzon)","id":"barangay-0402110007","name":"Buna Lejos I","barangayCode":"0402110007","population":null,"formattedPop":null,"densityCategory":"No data","vulnerabilityRating":"No data","healthRiskLevel":"No data","areaKm2":1.771763,"centerLat":14.174767,"centerLng":120.906153,"geometrySource":"all_barangay-2.csv detailed WKT","geometryMatchMethod":"unique_official_admin_names","boundaryPointCount":17},"geometry":{"type":"MultiPolygon","coordinates":[[[[120.909157,14.18526],[120.909081,14.18408],[120.90934,14.18297],[120.909729,14.1817],[120.910339,14.18022],[120.911057,14.17909],[120.911667,14.17776],[120.912277,14.17672],[120.9132,14.17559],[120.8992,14.16999],[120.898666,14.17058],[120.897942,14.17192],[120.896896,14.17409],[120.896553,14.17599],[120.896843,14.17603],[120.898003,14.1761],[120.909157,14.18526]]]]}},{"type":"Feature","properties":{"ID_0":177,"ISO":"PHL","NAME_0":"Philippines","ID_1":4021,"NAME_1":"Cavite","ID_2":402110,"NAME_2":"Indang","ID_3":402110008,"NAME_3":"Calumpang Cerca","NL_NAME_3":null,"VARNAME_3":null,"TYPE_3":"Barangay","ENGTYPE_3":"Village","PROVINCE":"Cavite","REGION":"Region IV-A (Calabarzon)","id":"barangay-0402110008","name":"Calumpang Cerca","barangayCode":"0402110008","population":null,"formattedPop":null,"densityCategory":"No data","vulnerabilityRating":"No data","healthRiskLevel":"No data","areaKm2":2.777724,"centerLat":14.213357,"centerLng":120.867786,"geometrySource":"all_barangay-2.csv detailed WKT","geometryMatchMethod":"unique_official_admin_names","boundaryPointCount":40},"geometry":{"type":"MultiPolygon","coordinates":[[[[120.871483,14.22429],[120.87149,14.22313],[120.871803,14.22258],[120.872078,14.22159],[120.871811,14.21967],[120.872276,14.21758],[120.873169,14.21518],[120.873627,14.21433],[120.87413,14.21357],[120.874382,14.21203],[120.874817,14.21034],[120.87574,14.2091],[120.876419,14.20788],[120.87606,14.20714],[120.875069,14.20624],[120.875061,14.20375],[120.875389,14.20299],[120.875359,14.20188],[120.874161,14.20155],[120.868103,14.19991],[120.866821,14.19928],[120.867027,14.20023],[120.866524,14.2018],[120.865791,14.20278],[120.864166,14.20483],[120.864166,14.20619],[120.863762,14.20727],[120.864014,14.20799],[120.86438,14.20866],[120.864052,14.2091],[120.863297,14.20985],[120.861366,14.21049],[120.860329,14.21162],[120.859863,14.21242],[120.859932,14.21311],[120.859467,14.21385],[120.859138,14.21422],[120.857697,14.21559],[120.856613,14.21707],[120.871483,14.22429]]]]}},{"type":"Feature","properties":{"ID_0":177,"ISO":"PHL","NAME_0":"Philippines","ID_1":4021,"NAME_1":"Cavite","ID_2":402110,"NAME_2":"Indang","ID_3":402110009,"NAME_3":"Calumpang Lejos I","NL_NAME_3":null,"VARNAME_3":null,"TYPE_3":"Barangay","ENGTYPE_3":"Village","PROVINCE":"Cavite","REGION":"Region IV-A (Calabarzon)","id":"barangay-0402110009","name":"Calumpang Lejos I","barangayCode":"0402110009","population":null,"formattedPop":null,"densityCategory":"No data","vulnerabilityRating":"No data","healthRiskLevel":"No data","areaKm2":3.425373,"centerLat":14.237022,"centerLng":120.854444,"geometrySource":"all_barangay-2.csv detailed WKT","geometryMatchMethod":"unique_official_admin_names","boundaryPointCount":26},"geometry":{"type":"MultiPolygon","coordinates":[[[[120.86116,14.24634],[120.861839,14.24593],[120.861977,14.24547],[120.862137,14.24457],[120.862747,14.24375],[120.862991,14.24299],[120.863098,14.24163],[120.863457,14.24069],[120.8647,14.23917],[120.86541,14.23828],[120.866531,14.23805],[120.867691,14.23686],[120.85025,14.22662],[120.84903,14.22768],[120.848389,14.22873],[120.848282,14.23021],[120.847229,14.23205],[120.8461,14.23349],[120.844856,14.23517],[120.843262,14.23587],[120.841637,14.23656],[120.840912,14.23754],[120.840591,14.23938],[120.840408,14.24005],[120.841423,14.24068],[120.86116,14.24634]]]]}},{"type":"Feature","properties":{"ID_0":177,"ISO":"PHL","NAME_0":"Philippines","ID_1":4021,"NAME_1":"Cavite","ID_2":402110,"NAME_2":"Indang","ID_3":402110010,"NAME_3":"Carasuchi","NL_NAME_3":null,"VARNAME_3":null,"TYPE_3":"Barangay","ENGTYPE_3":"Village","PROVINCE":"Cavite","REGION":"Region IV-A (Calabarzon)","id":"barangay-0402110010","name":"Carasuchi","barangayCode":"0402110010","population":null,"formattedPop":null,"densityCategory":"No data","vulnerabilityRating":"No data","healthRiskLevel":"No data","areaKm2":2.879872,"centerLat":14.146824,"centerLng":120.881674,"geometrySource":"all_barangay-2.csv detailed WKT","geometryMatchMethod":"unique_official_admin_names","boundaryPointCount":45},"geometry":{"type":"MultiPolygon","coordinates":[[[[120.882729,14.16211],[120.88298,14.16137],[120.883324,14.16015],[120.883423,14.159],[120.883522,14.15812],[120.884567,14.15607],[120.885246,14.15466],[120.885406,14.15413],[120.885941,14.15175],[120.887299,14.15047],[120.887932,14.14991],[120.889053,14.14945],[120.889297,14.14897],[120.890633,14.14747],[120.891129,14.14664],[120.8927,14.14528],[120.894402,14.1448],[120.894463,14.14418],[120.894386,14.14363],[120.894493,14.14263],[120.894371,14.14263],[120.886169,14.14049],[120.880493,14.13943],[120.878304,14.14121],[120.877808,14.14164],[120.87558,14.14351],[120.874519,14.14406],[120.873207,14.14567],[120.873192,14.14708],[120.873192,14.14858],[120.87278,14.14978],[120.871819,14.15086],[120.870102,14.15231],[120.869919,14.15279],[120.86985,14.15376],[120.873703,14.15523],[120.880249,14.15626],[120.881111,14.15767],[120.881233,14.15881],[120.881416,14.15945],[120.881607,14.16086],[120.88134,14.16211],[120.881653,14.16216],[120.882446,14.16223],[120.882729,14.16211]]]]}},{"type":"Feature","properties":{"ID_0":177,"ISO":"PHL","NAME_0":"Philippines","ID_1":4021,"NAME_1":"Cavite","ID_2":402110,"NAME_2":"Indang","ID_3":402110011,"NAME_3":"Kayquit I","NL_NAME_3":null,"VARNAME_3":null,"TYPE_3":"Barangay","ENGTYPE_3":"Village","PROVINCE":"Cavite","REGION":"Region IV-A (Calabarzon)","id":"barangay-0402110011","name":"Kayquit I","barangayCode":"0402110011","population":null,"formattedPop":null,"densityCategory":"No data","vulnerabilityRating":"No data","healthRiskLevel":"No data","areaKm2":0.516532,"centerLat":14.176546,"centerLng":120.885554,"geometrySource":"all_barangay-2.csv detailed WKT","geometryMatchMethod":"unique_official_admin_names","boundaryPointCount":51},"geometry":{"type":"MultiPolygon","coordinates":[[[[120.88826,14.18097],[120.88842,14.18057],[120.888718,14.17956],[120.889816,14.17846],[120.890717,14.17684],[120.890846,14.17615],[120.891861,14.17456],[120.89254,14.17271],[120.893013,14.17059],[120.894707,14.16884],[120.895401,14.16854],[120.895523,14.16847],[120.896767,14.16728],[120.89711,14.16633],[120.897423,14.16488],[120.89743,14.16227],[120.897392,14.16118],[120.898193,14.15966],[120.899818,14.15789],[120.901497,14.15621],[120.900887,14.15579],[120.899544,14.1544],[120.898987,14.15324],[120.898911,14.15289],[120.897614,14.14982],[120.897034,14.14818],[120.896378,14.14525],[120.896622,14.143],[120.896179,14.14222],[120.894493,14.14263],[120.894386,14.14363],[120.894463,14.14418],[120.894402,14.1448],[120.8927,14.14528],[120.891129,14.14664],[120.890633,14.14747],[120.889297,14.14897],[120.889053,14.14945],[120.887932,14.14991],[120.887299,14.15047],[120.885941,14.15175],[120.885406,14.15413],[120.885246,14.15466],[120.884567,14.15607],[120.883522,14.15812],[120.883423,14.159],[120.883324,14.16015],[120.88298,14.16137],[120.882729,14.16211],[120.882118,14.17326],[120.88826,14.18097]]]]}},{"type":"Feature","properties":{"ID_0":177,"ISO":"PHL","NAME_0":"Philippines","ID_1":4021,"NAME_1":"Cavite","ID_2":402110,"NAME_2":"Indang","ID_3":402110012,"NAME_3":"Daine I","NL_NAME_3":null,"VARNAME_3":null,"TYPE_3":"Barangay","ENGTYPE_3":"Village","PROVINCE":"Cavite","REGION":"Region IV-A (Calabarzon)","id":"barangay-0402110012","name":"Daine I","barangayCode":"0402110012","population":null,"formattedPop":null,"densityCategory":"No data","vulnerabilityRating":"No data","healthRiskLevel":"No data","areaKm2":2.96954,"centerLat":14.193047,"centerLng":120.835858,"geometrySource":"all_barangay-2.csv detailed WKT","geometryMatchMethod":"unique_official_admin_names","boundaryPointCount":61},"geometry":{"type":"MultiPolygon","coordinates":[[[[120.819801,14.22656],[120.823143,14.22697],[120.823669,14.22697],[120.826149,14.22624],[120.828033,14.22526],[120.829918,14.22428],[120.831528,14.22318],[120.83371,14.22259],[120.835663,14.22193],[120.835777,14.22174],[120.835747,14.22094],[120.835617,14.21923],[120.835617,14.21702],[120.836327,14.21585],[120.838409,14.21406],[120.839417,14.21261],[120.840111,14.21109],[120.84053,14.20925],[120.84053,14.20906],[120.841164,14.20764],[120.841927,14.20663],[120.842087,14.20531],[120.842163,14.20294],[120.842781,14.20158],[120.843697,14.20043],[120.844307,14.19986],[120.844849,14.19919],[120.829559,14.19002],[120.828613,14.19224],[120.82827,14.19368],[120.82782,14.1941],[120.826889,14.19499],[120.826401,14.19712],[120.826424,14.19855],[120.825981,14.19932],[120.825699,14.20001],[120.825493,14.20057],[120.824699,14.20238],[120.824432,14.20333],[120.824471,14.20404],[120.824677,14.20607],[120.824806,14.20747],[120.825104,14.20864],[120.825821,14.20976],[120.825699,14.21119],[120.824654,14.21245],[120.82373,14.21322],[120.822632,14.21504],[120.822739,14.21644],[120.822853,14.21773],[120.823097,14.21885],[120.822678,14.21946],[120.821548,14.22075],[120.820824,14.22103],[120.820679,14.22127],[120.820488,14.22168],[120.819717,14.22241],[120.819283,14.22334],[120.819298,14.22435],[120.819313,14.225],[120.819801,14.22656]]]]}},{"type":"Feature","properties":{"ID_0":177,"ISO":"PHL","NAME_0":"Philippines","ID_1":4021,"NAME_1":"Cavite","ID_2":402110,"NAME_2":"Indang","ID_3":402110013,"NAME_3":"Guyam Malaki","NL_NAME_3":null,"VARNAME_3":null,"TYPE_3":"Barangay","ENGTYPE_3":"Village","PROVINCE":"Cavite","REGION":"Region IV-A (Calabarzon)","id":"barangay-0402110013","name":"Guyam Malaki","barangayCode":"0402110013","population":null,"formattedPop":null,"densityCategory":"No data","vulnerabilityRating":"No data","healthRiskLevel":"No data","areaKm2":1.932472,"centerLat":14.149071,"centerLng":120.865498,"geometrySource":"all_barangay-2.csv detailed WKT","geometryMatchMethod":"unique_official_admin_names","boundaryPointCount":47},"geometry":{"type":"MultiPolygon","coordinates":[[[[120.867973,14.15678],[120.868141,14.1566],[120.868607,14.15561],[120.869186,14.15492],[120.86985,14.15376],[120.869919,14.15279],[120.870102,14.15231],[120.871819,14.15086],[120.87278,14.14978],[120.873192,14.14858],[120.873192,14.14708],[120.873207,14.14567],[120.874519,14.14406],[120.87558,14.14351],[120.877808,14.14164],[120.878304,14.14121],[120.880493,14.13943],[120.874138,14.13753],[120.871101,14.13581],[120.870216,14.13515],[120.869347,14.13633],[120.868553,14.13696],[120.866821,14.13765],[120.866158,14.13863],[120.865662,14.14006],[120.86441,14.14173],[120.864151,14.14261],[120.863403,14.14363],[120.863297,14.14379],[120.863113,14.14449],[120.86306,14.14567],[120.86216,14.14678],[120.861122,14.14752],[120.860733,14.14801],[120.860252,14.14886],[120.858887,14.14985],[120.857613,14.15078],[120.857399,14.15099],[120.856148,14.1518],[120.853859,14.15261],[120.852943,14.15321],[120.852524,14.1539],[120.86496,14.15726],[120.865669,14.15707],[120.866096,14.1571],[120.867241,14.15696],[120.867973,14.15678]]]]}},{"type":"Feature","properties":{"ID_0":177,"ISO":"PHL","NAME_0":"Philippines","ID_1":4021,"NAME_1":"Cavite","ID_2":402110,"NAME_2":"Indang","ID_3":402110014,"NAME_3":"Guyam Munti","NL_NAME_3":null,"VARNAME_3":null,"TYPE_3":"Barangay","ENGTYPE_3":"Village","PROVINCE":"Cavite","REGION":"Region IV-A (Calabarzon)","id":"barangay-0402110014","name":"Guyam Munti","barangayCode":"0402110014","population":null,"formattedPop":null,"densityCategory":"No data","vulnerabilityRating":"No data","healthRiskLevel":"No data","areaKm2":0.754378,"centerLat":14.139372,"centerLng":120.872423,"geometrySource":"all_barangay-2.csv detailed WKT","geometryMatchMethod":"unique_official_admin_names","boundaryPointCount":11},"geometry":{"type":"MultiPolygon","coordinates":[[[[120.867973,14.15678],[120.870377,14.15755],[120.872704,14.15832],[120.873138,14.15737],[120.873283,14.15677],[120.873703,14.15523],[120.86985,14.15376],[120.869186,14.15492],[120.868607,14.15561],[120.868141,14.1566],[120.867973,14.15678]]]]}},{"type":"Feature","properties":{"ID_0":177,"ISO":"PHL","NAME_0":"Philippines","ID_1":4021,"NAME_1":"Cavite","ID_2":402110,"NAME_2":"Indang","ID_3":402110015,"NAME_3":"Harasan","NL_NAME_3":null,"VARNAME_3":null,"TYPE_3":"Barangay","ENGTYPE_3":"Village","PROVINCE":"Cavite","REGION":"Region IV-A (Calabarzon)","id":"barangay-0402110015","name":"Harasan","barangayCode":"0402110015","population":null,"formattedPop":null,"densityCategory":"No data","vulnerabilityRating":"No data","healthRiskLevel":"No data","areaKm2":1.420402,"centerLat":14.15982,"centerLng":120.870089,"geometrySource":"all_barangay-2.csv detailed WKT","geometryMatchMethod":"unique_official_admin_names","boundaryPointCount":19},"geometry":{"type":"MultiPolygon","coordinates":[[[[120.869087,14.17202],[120.869049,14.17174],[120.869537,14.17114],[120.871094,14.16988],[120.871643,14.16891],[120.872581,14.16626],[120.872818,14.16451],[120.873177,14.16224],[120.873528,14.16012],[120.873627,14.1583],[120.872704,14.15832],[120.870377,14.15755],[120.867973,14.15678],[120.867241,14.15696],[120.866096,14.1571],[120.865669,14.15707],[120.86496,14.15726],[120.862419,14.16969],[120.869087,14.17202]]]]}},{"type":"Feature","properties":{"ID_0":177,"ISO":"PHL","NAME_0":"Philippines","ID_1":4021,"NAME_1":"Cavite","ID_2":402110,"NAME_2":"Indang","ID_3":402110016,"NAME_3":"Kaytambog","NL_NAME_3":null,"VARNAME_3":null,"TYPE_3":"Barangay","ENGTYPE_3":"Village","PROVINCE":"Cavite","REGION":"Region IV-A (Calabarzon)","id":"barangay-0402110016","name":"Kaytambog","barangayCode":"0402110016","population":null,"formattedPop":null,"densityCategory":"No data","vulnerabilityRating":"No data","healthRiskLevel":"No data","areaKm2":2.763918,"centerLat":14.176633,"centerLng":120.874798,"geometrySource":"all_barangay-2.csv detailed WKT","geometryMatchMethod":"unique_official_admin_names","boundaryPointCount":48},"geometry":{"type":"MultiPolygon","coordinates":[[[[120.869942,14.1894],[120.870712,14.18806],[120.871887,14.18622],[120.873222,14.18489],[120.874611,14.18318],[120.875847,14.18081],[120.877037,14.17885],[120.879227,14.17655],[120.881104,14.17492],[120.882118,14.17326],[120.882729,14.16211],[120.88134,14.16296],[120.880753,14.16321],[120.879349,14.16413],[120.877403,14.16544],[120.876312,14.16636],[120.875137,14.16733],[120.873611,14.16899],[120.872787,14.17027],[120.872658,14.17286],[120.870598,14.17592],[120.869308,14.1777],[120.868301,14.17924],[120.867683,14.1811],[120.867477,14.18233],[120.866623,14.18396],[120.866768,14.18574],[120.867104,14.18666],[120.866829,14.18821],[120.866478,14.18878],[120.866203,14.18899],[120.865707,14.19003],[120.865112,14.19088],[120.863564,14.19237],[120.863403,14.19311],[120.863876,14.19401],[120.863983,14.19473],[120.864517,14.19561],[120.864922,14.19641],[120.865143,14.19706],[120.866081,14.19764],[120.86615,14.19727],[120.867188,14.19631],[120.86763,14.19536],[120.868103,14.19382],[120.869057,14.19235],[120.869713,14.19087],[120.869942,14.1894]]]]}},{"type":"Feature","properties":{"ID_0":177,"ISO":"PHL","NAME_0":"Philippines","ID_1":4021,"NAME_1":"Cavite","ID_2":402110,"NAME_2":"Indang","ID_3":402110018,"NAME_3":"Limbon","NL_NAME_3":null,"VARNAME_3":null,"TYPE_3":"Barangay","ENGTYPE_3":"Village","PROVINCE":"Cavite","REGION":"Region IV-A (Calabarzon)","id":"barangay-0402110018","name":"Limbon","barangayCode":"0402110018","population":null,"formattedPop":null,"densityCategory":"No data","vulnerabilityRating":"No data","healthRiskLevel":"No data","areaKm2":1.001706,"centerLat":14.198817,"centerLng":120.901108,"geometrySource":"all_barangay-2.csv detailed WKT","geometryMatchMethod":"unique_official_admin_names","boundaryPointCount":26},"geometry":{"type":"MultiPolygon","coordinates":[[[[120.897888,14.20143],[120.898407,14.20363],[120.898163,14.20478],[120.897377,14.20614],[120.896782,14.20775],[120.896797,14.20842],[120.897293,14.20895],[120.898392,14.20848],[120.899963,14.20749],[120.901123,14.20569],[120.901817,14.20371],[120.902763,14.20189],[120.90287,14.20101],[120.903267,14.19983],[120.903969,14.19833],[120.904373,14.19771],[120.905197,14.197],[120.906082,14.1961],[120.906967,14.19483],[120.898117,14.193],[120.897957,14.19485],[120.897957,14.19536],[120.89785,14.19688],[120.897713,14.19857],[120.89814,14.19947],[120.897888,14.20143]]]]}},{"type":"Feature","properties":{"ID_0":177,"ISO":"PHL","NAME_0":"Philippines","ID_1":4021,"NAME_1":"Cavite","ID_2":402110,"NAME_2":"Indang","ID_3":402110019,"NAME_3":"Lumampong Balagbag","NL_NAME_3":null,"VARNAME_3":null,"TYPE_3":"Barangay","ENGTYPE_3":"Village","PROVINCE":"Cavite","REGION":"Region IV-A (Calabarzon)","id":"barangay-0402110019","name":"Lumampong Balagbag","barangayCode":"0402110019","population":null,"formattedPop":null,"densityCategory":"No data","vulnerabilityRating":"No data","healthRiskLevel":"No data","areaKm2":3.779627,"centerLat":14.176649,"centerLng":120.84436,"geometrySource":"all_barangay-2.csv detailed WKT","geometryMatchMethod":"unique_official_admin_names","boundaryPointCount":27},"geometry":{"type":"MultiPolygon","coordinates":[[[[120.849487,14.18254],[120.850777,14.18116],[120.851677,14.18061],[120.853371,14.17955],[120.85379,14.1796],[120.854279,14.17868],[120.854874,14.17769],[120.855202,14.17716],[120.853287,14.16714],[120.849617,14.16667],[120.845932,14.16677],[120.841988,14.16756],[120.841476,14.16861],[120.839973,14.1702],[120.838257,14.17189],[120.836594,14.17342],[120.835052,14.17483],[120.833817,14.17653],[120.832047,14.17891],[120.831497,14.18046],[120.832024,14.18244],[120.83577,14.18233],[120.837219,14.18219],[120.841591,14.18182],[120.843117,14.1815],[120.847107,14.18181],[120.849487,14.18254]]]]}},{"type":"Feature","properties":{"ID_0":177,"ISO":"PHL","NAME_0":"Philippines","ID_1":4021,"NAME_1":"Cavite","ID_2":402110,"NAME_2":"Indang","ID_3":402110020,"NAME_3":"Lumampong Halayhay","NL_NAME_3":null,"VARNAME_3":null,"TYPE_3":"Barangay","ENGTYPE_3":"Village","PROVINCE":"Cavite","REGION":"Region IV-A (Calabarzon)","id":"barangay-0402110020","name":"Lumampong Halayhay","barangayCode":"0402110020","population":null,"formattedPop":null,"densityCategory":"No data","vulnerabilityRating":"No data","healthRiskLevel":"No data","areaKm2":2.0337,"centerLat":14.161786,"centerLng":120.859014,"geometrySource":"all_barangay-2.csv detailed WKT","geometryMatchMethod":"unique_official_admin_names","boundaryPointCount":31},"geometry":{"type":"MultiPolygon","coordinates":[[[[120.862419,14.16969],[120.86496,14.15726],[120.852524,14.1539],[120.852539,14.15397],[120.852173,14.15492],[120.851883,14.15601],[120.851669,14.15657],[120.851051,14.15754],[120.850533,14.15793],[120.849083,14.15819],[120.847603,14.15814],[120.847168,14.1586],[120.847023,14.15955],[120.847069,14.16041],[120.846947,14.16087],[120.846809,14.16119],[120.846428,14.16284],[120.8452,14.16353],[120.843468,14.16569],[120.841988,14.16756],[120.845932,14.16677],[120.849617,14.16667],[120.853287,14.16714],[120.855202,14.17716],[120.8554,14.17564],[120.855873,14.17435],[120.857231,14.17281],[120.858688,14.17115],[120.859901,14.17028],[120.861198,14.16971],[120.862419,14.16969]]]]}},{"type":"Feature","properties":{"ID_0":177,"ISO":"PHL","NAME_0":"Philippines","ID_1":4021,"NAME_1":"Cavite","ID_2":402110,"NAME_2":"Indang","ID_3":402110021,"NAME_3":"Mahabangkahoy Lejos","NL_NAME_3":null,"VARNAME_3":null,"TYPE_3":"Barangay","ENGTYPE_3":"Village","PROVINCE":"Cavite","REGION":"Region IV-A (Calabarzon)","id":"barangay-0402110021","name":"Mahabangkahoy Lejos","barangayCode":"0402110021","population":null,"formattedPop":null,"densityCategory":"No data","vulnerabilityRating":"No data","healthRiskLevel":"No data","areaKm2":5.594433,"centerLat":14.148343,"centerLng":120.919421,"geometrySource":"all_barangay-2.csv detailed WKT","geometryMatchMethod":"unique_official_admin_names","boundaryPointCount":26},"geometry":{"type":"MultiPolygon","coordinates":[[[[120.896057,14.18573],[120.897774,14.18319],[120.897087,14.18072],[120.896423,14.17702],[120.896553,14.17599],[120.896896,14.17409],[120.897942,14.17192],[120.898666,14.17058],[120.8992,14.16999],[120.895401,14.16854],[120.894707,14.16884],[120.893013,14.17059],[120.89254,14.17271],[120.891861,14.17456],[120.890846,14.17615],[120.890717,14.17684],[120.889816,14.17846],[120.888718,14.17956],[120.88842,14.18057],[120.88826,14.18097],[120.890099,14.18157],[120.891159,14.18225],[120.892578,14.1832],[120.894409,14.18431],[120.89537,14.18468],[120.896057,14.18573]]]]}},{"type":"Feature","properties":{"ID_0":177,"ISO":"PHL","NAME_0":"Philippines","ID_1":4021,"NAME_1":"Cavite","ID_2":402110,"NAME_2":"Indang","ID_3":402110022,"NAME_3":"Mahabangkahoy Cerca","NL_NAME_3":null,"VARNAME_3":null,"TYPE_3":"Barangay","ENGTYPE_3":"Village","PROVINCE":"Cavite","REGION":"Region IV-A (Calabarzon)","id":"barangay-0402110022","name":"Mahabangkahoy Cerca","barangayCode":"0402110022","population":null,"formattedPop":null,"densityCategory":"No data","vulnerabilityRating":"No data","healthRiskLevel":"No data","areaKm2":3.609291,"centerLat":14.159767,"centerLng":120.905645,"geometrySource":"all_barangay-2.csv detailed WKT","geometryMatchMethod":"unique_official_admin_names","boundaryPointCount":79},"geometry":{"type":"MultiPolygon","coordinates":[[[[120.8992,14.16999],[120.9132,14.17559],[120.915123,14.17213],[120.915627,14.17143],[120.916687,14.17044],[120.917351,14.16957],[120.918152,14.16853],[120.919243,14.16749],[120.920502,14.16613],[120.921547,14.16488],[120.922241,14.16361],[120.92308,14.16267],[120.923782,14.16163],[120.924461,14.16006],[120.924622,14.15886],[120.924103,14.15705],[120.923393,14.15483],[120.92247,14.15331],[120.922523,14.1516],[120.923119,14.15014],[120.924339,14.14829],[120.92466,14.14707],[120.924698,14.14534],[120.925377,14.14411],[120.925751,14.1431],[120.925453,14.14145],[120.925987,14.14],[120.926529,14.13836],[120.925819,14.13683],[120.925392,14.13533],[120.926514,14.13304],[120.927132,14.13163],[120.927208,14.13052],[120.927963,14.12823],[120.928543,14.1265],[120.927818,14.12551],[120.928238,14.12172],[120.925957,14.12077],[120.916924,14.11905],[120.916573,14.11988],[120.91642,14.1212],[120.917297,14.12264],[120.917236,14.1243],[120.916557,14.12647],[120.915321,14.12825],[120.914383,14.12973],[120.913658,14.13146],[120.913834,14.13282],[120.913963,14.13393],[120.914139,14.13647],[120.914108,14.13754],[120.913887,14.13884],[120.913696,14.13989],[120.913277,14.1419],[120.911949,14.14373],[120.910896,14.14488],[120.910049,14.14631],[120.908997,14.14832],[120.908508,14.14927],[120.90799,14.14975],[120.907608,14.15056],[120.907021,14.15111],[120.906372,14.1522],[120.90567,14.15305],[120.905113,14.15425],[120.90377,14.15533],[120.902733,14.15618],[120.90184,14.15637],[120.901497,14.15621],[120.899818,14.15789],[120.898193,14.15966],[120.897392,14.16118],[120.89743,14.16227],[120.897423,14.16488],[120.89711,14.16633],[120.896767,14.16728],[120.895523,14.16847],[120.895401,14.16854],[120.8992,14.16999]]]]}},{"type":"Feature","properties":{"ID_0":177,"ISO":"PHL","NAME_0":"Philippines","ID_1":4021,"NAME_1":"Cavite","ID_2":402110,"NAME_2":"Indang","ID_3":402110023,"NAME_3":"Barangay 1","NL_NAME_3":null,"VARNAME_3":null,"TYPE_3":"Barangay","ENGTYPE_3":"Village","PROVINCE":"Cavite","REGION":"Region IV-A (Calabarzon)","id":"barangay-0402110023","name":"Barangay 1","barangayCode":"0402110023","population":null,"formattedPop":null,"densityCategory":"No data","vulnerabilityRating":"No data","healthRiskLevel":"No data","areaKm2":0.137405,"centerLat":14.193547,"centerLng":120.879073,"geometrySource":"all_barangay-2.csv detailed WKT","geometryMatchMethod":"unique_official_admin_names","boundaryPointCount":12},"geometry":{"type":"MultiPolygon","coordinates":[[[[120.87793,14.19643],[120.878387,14.19631],[120.879021,14.1961],[120.879158,14.19541],[120.879433,14.19414],[120.879646,14.19359],[120.879669,14.19326],[120.879807,14.19241],[120.880562,14.19068],[120.877937,14.19072],[120.878082,14.19265],[120.87793,14.19643]]]]}},{"type":"Feature","properties":{"ID_0":177,"ISO":"PHL","NAME_0":"Philippines","ID_1":4021,"NAME_1":"Cavite","ID_2":402110,"NAME_2":"Indang","ID_3":402110024,"NAME_3":"Barangay 2","NL_NAME_3":null,"VARNAME_3":null,"TYPE_3":"Barangay","ENGTYPE_3":"Village","PROVINCE":"Cavite","REGION":"Region IV-A (Calabarzon)","id":"barangay-0402110024","name":"Barangay 2","barangayCode":"0402110024","population":null,"formattedPop":null,"densityCategory":"No data","vulnerabilityRating":"No data","healthRiskLevel":"No data","areaKm2":0.124885,"centerLat":14.193827,"centerLng":120.876652,"geometrySource":"all_barangay-2.csv detailed WKT","geometryMatchMethod":"unique_official_admin_names","boundaryPointCount":10},"geometry":{"type":"MultiPolygon","coordinates":[[[[120.875366,14.19646],[120.877792,14.19642],[120.87793,14.19643],[120.878082,14.19265],[120.877937,14.19072],[120.877037,14.19219],[120.876183,14.19357],[120.875397,14.1943],[120.875381,14.19555],[120.875366,14.19646]]]]}},{"type":"Feature","properties":{"ID_0":177,"ISO":"PHL","NAME_0":"Philippines","ID_1":4021,"NAME_1":"Cavite","ID_2":402110,"NAME_2":"Indang","ID_3":402110025,"NAME_3":"Barangay 3","NL_NAME_3":null,"VARNAME_3":null,"TYPE_3":"Barangay","ENGTYPE_3":"Village","PROVINCE":"Cavite","REGION":"Region IV-A (Calabarzon)","id":"barangay-0402110025","name":"Barangay 3","barangayCode":"0402110025","population":null,"formattedPop":null,"densityCategory":"No data","vulnerabilityRating":"No data","healthRiskLevel":"No data","areaKm2":0.311968,"centerLat":14.200287,"centerLng":120.87604,"geometrySource":"all_barangay-2.csv detailed WKT","geometryMatchMethod":"unique_official_admin_names","boundaryPointCount":13},"geometry":{"type":"MultiPolygon","coordinates":[[[[120.875359,14.20188],[120.87677,14.20034],[120.877213,14.19891],[120.878113,14.1976],[120.878967,14.19658],[120.879021,14.1961],[120.878387,14.19631],[120.87793,14.19643],[120.877792,14.19642],[120.875366,14.19646],[120.87532,14.19712],[120.874161,14.20155],[120.875359,14.20188]]]]}},{"type":"Feature","properties":{"ID_0":177,"ISO":"PHL","NAME_0":"Philippines","ID_1":4021,"NAME_1":"Cavite","ID_2":402110,"NAME_2":"Indang","ID_3":402110026,"NAME_3":"Barangay 4","NL_NAME_3":null,"VARNAME_3":null,"TYPE_3":"Barangay","ENGTYPE_3":"Village","PROVINCE":"Cavite","REGION":"Region IV-A (Calabarzon)","id":"barangay-0402110026","name":"Barangay 4","barangayCode":"0402110026","population":null,"formattedPop":null,"densityCategory":"No data","vulnerabilityRating":"No data","healthRiskLevel":"No data","areaKm2":0.62833,"centerLat":14.20027,"centerLng":120.87136,"geometrySource":"all_barangay-2.csv detailed WKT","geometryMatchMethod":"unique_official_admin_names","boundaryPointCount":12},"geometry":{"type":"MultiPolygon","coordinates":[[[[120.874161,14.20155],[120.87532,14.19712],[120.875366,14.19646],[120.875381,14.19555],[120.875397,14.1943],[120.874229,14.19516],[120.872681,14.1964],[120.870888,14.19711],[120.869377,14.19777],[120.868179,14.19899],[120.868103,14.19991],[120.874161,14.20155]]]]}},{"type":"Feature","properties":{"ID_0":177,"ISO":"PHL","NAME_0":"Philippines","ID_1":4021,"NAME_1":"Cavite","ID_2":402110,"NAME_2":"Indang","ID_3":402110027,"NAME_3":"Pulo","NL_NAME_3":null,"VARNAME_3":null,"TYPE_3":"Barangay","ENGTYPE_3":"Village","PROVINCE":"Cavite","REGION":"Region IV-A (Calabarzon)","id":"barangay-0402110027","name":"Pulo","barangayCode":"0402110027","population":null,"formattedPop":null,"densityCategory":"No data","vulnerabilityRating":"No data","healthRiskLevel":"No data","areaKm2":1.491929,"centerLat":14.163991,"centerLng":120.875203,"geometrySource":"all_barangay-2.csv detailed WKT","geometryMatchMethod":"unique_official_admin_names","boundaryPointCount":33},"geometry":{"type":"MultiPolygon","coordinates":[[[[120.872658,14.17286],[120.872787,14.17027],[120.873611,14.16899],[120.875137,14.16733],[120.876312,14.16636],[120.877403,14.16544],[120.879349,14.16413],[120.880753,14.16321],[120.88134,14.16296],[120.882729,14.16211],[120.882446,14.16223],[120.881653,14.16216],[120.88134,14.16211],[120.881607,14.16086],[120.881416,14.15945],[120.881233,14.15881],[120.881111,14.15767],[120.880249,14.15626],[120.873703,14.15523],[120.873283,14.15677],[120.873138,14.15737],[120.872704,14.15832],[120.873627,14.1583],[120.873528,14.16012],[120.873177,14.16224],[120.872818,14.16451],[120.872581,14.16626],[120.871643,14.16891],[120.871094,14.16988],[120.869537,14.17114],[120.869049,14.17174],[120.869087,14.17202],[120.872658,14.17286]]]]}},{"type":"Feature","properties":{"ID_0":177,"ISO":"PHL","NAME_0":"Philippines","ID_1":4021,"NAME_1":"Cavite","ID_2":402110,"NAME_2":"Indang","ID_3":402110028,"NAME_3":"Tambo Balagbag","NL_NAME_3":null,"VARNAME_3":null,"TYPE_3":"Barangay","ENGTYPE_3":"Village","PROVINCE":"Cavite","REGION":"Region IV-A (Calabarzon)","id":"barangay-0402110028","name":"Tambo Balagbag","barangayCode":"0402110028","population":null,"formattedPop":null,"densityCategory":"No data","vulnerabilityRating":"No data","healthRiskLevel":"No data","areaKm2":2.162609,"centerLat":14.190699,"centerLng":120.851558,"geometrySource":"all_barangay-2.csv detailed WKT","geometryMatchMethod":"unique_official_admin_names","boundaryPointCount":43},"geometry":{"type":"MultiPolygon","coordinates":[[[[120.84053,14.20906],[120.843246,14.20815],[120.843933,14.20703],[120.8451,14.20489],[120.846298,14.20395],[120.847214,14.20331],[120.857567,14.18965],[120.858932,14.18857],[120.860352,14.18823],[120.860199,14.18747],[120.860321,14.18618],[120.861023,14.18505],[120.861557,14.18385],[120.861748,14.18307],[120.86129,14.18276],[120.859154,14.18285],[120.857361,14.18282],[120.855942,14.18208],[120.854782,14.18092],[120.85379,14.1796],[120.853371,14.17955],[120.851677,14.18061],[120.850777,14.18116],[120.849487,14.18254],[120.849289,14.18493],[120.848618,14.18765],[120.84787,14.18899],[120.847427,14.19019],[120.846497,14.19193],[120.846573,14.19343],[120.846901,14.19482],[120.846672,14.19572],[120.845993,14.19659],[120.845177,14.19772],[120.844849,14.19919],[120.844307,14.19986],[120.843697,14.20043],[120.842781,14.20158],[120.842163,14.20294],[120.842087,14.20531],[120.841927,14.20663],[120.841164,14.20764],[120.84053,14.20906]]]]}},{"type":"Feature","properties":{"ID_0":177,"ISO":"PHL","NAME_0":"Philippines","ID_1":4021,"NAME_1":"Cavite","ID_2":402110,"NAME_2":"Indang","ID_3":402110029,"NAME_3":"Tambo Ilaya","NL_NAME_3":null,"VARNAME_3":null,"TYPE_3":"Barangay","ENGTYPE_3":"Village","PROVINCE":"Cavite","REGION":"Region IV-A (Calabarzon)","id":"barangay-0402110029","name":"Tambo Ilaya","barangayCode":"0402110029","population":null,"formattedPop":null,"densityCategory":"No data","vulnerabilityRating":"No data","healthRiskLevel":"No data","areaKm2":0.684036,"centerLat":14.182413,"centerLng":120.865064,"geometrySource":"all_barangay-2.csv detailed WKT","geometryMatchMethod":"unique_official_admin_names","boundaryPointCount":30},"geometry":{"type":"MultiPolygon","coordinates":[[[[120.866203,14.18899],[120.866478,14.18878],[120.866829,14.18821],[120.867104,14.18666],[120.866768,14.18574],[120.866623,14.18396],[120.867477,14.18233],[120.867683,14.1811],[120.868301,14.17924],[120.869308,14.1777],[120.870598,14.17592],[120.872658,14.17286],[120.869087,14.17202],[120.868607,14.17347],[120.867699,14.1746],[120.86676,14.17559],[120.865181,14.17699],[120.863968,14.17848],[120.863083,14.17922],[120.862061,14.18042],[120.861778,14.18122],[120.861641,14.1821],[120.86129,14.18276],[120.861748,14.18307],[120.861557,14.18385],[120.861023,14.18505],[120.860321,14.18618],[120.860199,14.18747],[120.860352,14.18823],[120.866203,14.18899]]]]}},{"type":"Feature","properties":{"ID_0":177,"ISO":"PHL","NAME_0":"Philippines","ID_1":4021,"NAME_1":"Cavite","ID_2":402110,"NAME_2":"Indang","ID_3":402110030,"NAME_3":"Tambo Malaki","NL_NAME_3":null,"VARNAME_3":null,"TYPE_3":"Barangay","ENGTYPE_3":"Village","PROVINCE":"Cavite","REGION":"Region IV-A (Calabarzon)","id":"barangay-0402110030","name":"Tambo Malaki","barangayCode":"0402110030","population":null,"formattedPop":null,"densityCategory":"No data","vulnerabilityRating":"No data","healthRiskLevel":"No data","areaKm2":4.742747,"centerLat":14.202509,"centerLng":120.852917,"geometrySource":"all_barangay-2.csv detailed WKT","geometryMatchMethod":"unique_official_admin_names","boundaryPointCount":66},"geometry":{"type":"MultiPolygon","coordinates":[[[[120.835777,14.22174],[120.836929,14.22046],[120.837387,14.21977],[120.837738,14.2194],[120.838348,14.21919],[120.839569,14.21759],[120.840897,14.21732],[120.842651,14.21748],[120.843918,14.21696],[120.845352,14.2175],[120.847069,14.21684],[120.847893,14.2156],[120.849411,14.21311],[120.850647,14.21319],[120.851387,14.21377],[120.851387,14.21289],[120.851471,14.21169],[120.852608,14.21105],[120.853783,14.21037],[120.854462,14.21048],[120.858994,14.21226],[120.859932,14.21311],[120.859863,14.21242],[120.860329,14.21162],[120.861366,14.21049],[120.863297,14.20985],[120.864052,14.2091],[120.86438,14.20866],[120.864014,14.20799],[120.863762,14.20727],[120.864166,14.20619],[120.864166,14.20483],[120.865791,14.20278],[120.866524,14.2018],[120.867027,14.20023],[120.866821,14.19928],[120.866608,14.19868],[120.866081,14.19764],[120.865143,14.19706],[120.864922,14.19641],[120.864517,14.19561],[120.863983,14.19473],[120.863876,14.19401],[120.863403,14.19311],[120.863564,14.19237],[120.865112,14.19088],[120.865707,14.19003],[120.866203,14.18899],[120.860352,14.18823],[120.858932,14.18857],[120.857567,14.18965],[120.847214,14.20331],[120.846298,14.20395],[120.8451,14.20489],[120.843933,14.20703],[120.843246,14.20815],[120.84053,14.20906],[120.84053,14.20925],[120.840111,14.21109],[120.839417,14.21261],[120.838409,14.21406],[120.836327,14.21585],[120.835617,14.21702],[120.835617,14.21923],[120.835747,14.22094],[120.835777,14.22174]]]]}},{"type":"Feature","properties":{"ID_0":177,"ISO":"PHL","NAME_0":"Philippines","ID_1":4021,"NAME_1":"Cavite","ID_2":402110,"NAME_2":"Indang","ID_3":402110031,"NAME_3":"Tambo Kulit","NL_NAME_3":null,"VARNAME_3":null,"TYPE_3":"Barangay","ENGTYPE_3":"Village","PROVINCE":"Cavite","REGION":"Region IV-A (Calabarzon)","id":"barangay-0402110031","name":"Tambo Kulit","barangayCode":"0402110031","population":null,"formattedPop":null,"densityCategory":"No data","vulnerabilityRating":"No data","healthRiskLevel":"No data","areaKm2":1.524285,"centerLat":14.174217,"centerLng":120.861889,"geometrySource":"all_barangay-2.csv detailed WKT","geometryMatchMethod":"unique_official_admin_names","boundaryPointCount":27},"geometry":{"type":"MultiPolygon","coordinates":[[[[120.85379,14.1796],[120.854782,14.18092],[120.855942,14.18208],[120.857361,14.18282],[120.859154,14.18285],[120.86129,14.18276],[120.861641,14.1821],[120.861778,14.18122],[120.862061,14.18042],[120.863083,14.17922],[120.863968,14.17848],[120.865181,14.17699],[120.86676,14.17559],[120.867699,14.1746],[120.868607,14.17347],[120.869087,14.17202],[120.862419,14.16969],[120.861198,14.16971],[120.859901,14.17028],[120.858688,14.17115],[120.857231,14.17281],[120.855873,14.17435],[120.8554,14.17564],[120.855202,14.17716],[120.854874,14.17769],[120.854279,14.17868],[120.85379,14.1796]]]]}},{"type":"Feature","properties":{"ID_0":177,"ISO":"PHL","NAME_0":"Philippines","ID_1":4021,"NAME_1":"Cavite","ID_2":402110,"NAME_2":"Indang","ID_3":402110032,"NAME_3":"Buna Lejos II","NL_NAME_3":null,"VARNAME_3":null,"TYPE_3":"Barangay","ENGTYPE_3":"Village","PROVINCE":"Cavite","REGION":"Region IV-A (Calabarzon)","id":"barangay-0402110032","name":"Buna Lejos II","barangayCode":"0402110032","population":null,"formattedPop":null,"densityCategory":"No data","vulnerabilityRating":"No data","healthRiskLevel":"No data","areaKm2":2.787036,"centerLat":14.183541,"centerLng":120.901365,"geometrySource":"all_barangay-2.csv detailed WKT","geometryMatchMethod":"unique_official_admin_names","boundaryPointCount":36},"geometry":{"type":"MultiPolygon","coordinates":[[[[120.897888,14.20143],[120.89814,14.19947],[120.897713,14.19857],[120.89785,14.19688],[120.897957,14.19536],[120.897957,14.19485],[120.898117,14.193],[120.906967,14.19483],[120.907753,14.1938],[120.908768,14.19297],[120.909798,14.19184],[120.910172,14.19076],[120.910156,14.18898],[120.910263,14.18831],[120.910057,14.18713],[120.909157,14.18526],[120.898003,14.1761],[120.896843,14.17603],[120.896553,14.17599],[120.896423,14.17702],[120.897087,14.18072],[120.897774,14.18319],[120.896057,14.18573],[120.895554,14.18667],[120.895172,14.18805],[120.895081,14.18932],[120.894623,14.19061],[120.893913,14.19184],[120.893417,14.19352],[120.892982,14.19511],[120.892197,14.19615],[120.891548,14.19628],[120.891052,14.19649],[120.890244,14.19789],[120.897232,14.20217],[120.897888,14.20143]]]]}},{"type":"Feature","properties":{"ID_0":177,"ISO":"PHL","NAME_0":"Philippines","ID_1":4021,"NAME_1":"Cavite","ID_2":402110,"NAME_2":"Indang","ID_3":402110033,"NAME_3":"Daine II","NL_NAME_3":null,"VARNAME_3":null,"TYPE_3":"Barangay","ENGTYPE_3":"Village","PROVINCE":"Cavite","REGION":"Region IV-A (Calabarzon)","id":"barangay-0402110033","name":"Daine II","barangayCode":"0402110033","population":null,"formattedPop":null,"densityCategory":"No data","vulnerabilityRating":"No data","healthRiskLevel":"No data","areaKm2":4.758371,"centerLat":14.208759,"centerLng":120.834444,"geometrySource":"all_barangay-2.csv detailed WKT","geometryMatchMethod":"unique_official_admin_names","boundaryPointCount":24},"geometry":{"type":"MultiPolygon","coordinates":[[[[120.829559,14.19002],[120.844849,14.19919],[120.845177,14.19772],[120.845993,14.19659],[120.846672,14.19572],[120.846901,14.19482],[120.846573,14.19343],[120.846497,14.19193],[120.847427,14.19019],[120.84787,14.18899],[120.848618,14.18765],[120.849289,14.18493],[120.849487,14.18254],[120.847107,14.18181],[120.843117,14.1815],[120.841591,14.18182],[120.837219,14.18219],[120.83577,14.18233],[120.832024,14.18244],[120.831772,14.18332],[120.830521,14.18576],[120.82991,14.18706],[120.829201,14.18899],[120.829559,14.19002]]]]}},{"type":"Feature","properties":{"ID_0":177,"ISO":"PHL","NAME_0":"Philippines","ID_1":4021,"NAME_1":"Cavite","ID_2":402110,"NAME_2":"Indang","ID_3":402110034,"NAME_3":"Kayquit II","NL_NAME_3":null,"VARNAME_3":null,"TYPE_3":"Barangay","ENGTYPE_3":"Village","PROVINCE":"Cavite","REGION":"Region IV-A (Calabarzon)","id":"barangay-0402110034","name":"Kayquit II","barangayCode":"0402110034","population":null,"formattedPop":null,"densityCategory":"No data","vulnerabilityRating":"No data","healthRiskLevel":"No data","areaKm2":1.353639,"centerLat":14.183799,"centerLng":120.879129,"geometrySource":"all_barangay-2.csv detailed WKT","geometryMatchMethod":"unique_official_admin_names","boundaryPointCount":19},"geometry":{"type":"MultiPolygon","coordinates":[[[[120.877937,14.19072],[120.87883,14.18906],[120.880188,14.1874],[120.881508,14.18598],[120.883812,14.184],[120.885811,14.18285],[120.887718,14.18154],[120.88826,14.18097],[120.882118,14.17326],[120.881104,14.17492],[120.879227,14.17655],[120.877037,14.17885],[120.875847,14.18081],[120.874611,14.18318],[120.873222,14.18489],[120.871887,14.18622],[120.870712,14.18806],[120.869942,14.1894],[120.877937,14.19072]]]]}},{"type":"Feature","properties":{"ID_0":177,"ISO":"PHL","NAME_0":"Philippines","ID_1":4021,"NAME_1":"Cavite","ID_2":402110,"NAME_2":"Indang","ID_3":402110035,"NAME_3":"Kayquit III","NL_NAME_3":null,"VARNAME_3":null,"TYPE_3":"Barangay","ENGTYPE_3":"Village","PROVINCE":"Cavite","REGION":"Region IV-A (Calabarzon)","id":"barangay-0402110035","name":"Kayquit III","barangayCode":"0402110035","population":null,"formattedPop":null,"densityCategory":"No data","vulnerabilityRating":"No data","healthRiskLevel":"No data","areaKm2":4.437016,"centerLat":14.15955,"centerLng":120.891012,"geometrySource":"all_barangay-2.csv detailed WKT","geometryMatchMethod":"unique_official_admin_names","boundaryPointCount":21},"geometry":{"type":"MultiPolygon","coordinates":[[[[120.866821,14.19928],[120.868103,14.19991],[120.868179,14.19899],[120.869377,14.19777],[120.870888,14.19711],[120.872681,14.1964],[120.874229,14.19516],[120.875397,14.1943],[120.876183,14.19357],[120.877037,14.19219],[120.877937,14.19072],[120.869942,14.1894],[120.869713,14.19087],[120.869057,14.19235],[120.868103,14.19382],[120.86763,14.19536],[120.867188,14.19631],[120.86615,14.19727],[120.866081,14.19764],[120.866608,14.19868],[120.866821,14.19928]]]]}},{"type":"Feature","properties":{"ID_0":177,"ISO":"PHL","NAME_0":"Philippines","ID_1":4021,"NAME_1":"Cavite","ID_2":402110,"NAME_2":"Indang","ID_3":402110036,"NAME_3":"Kaytapos","NL_NAME_3":null,"VARNAME_3":null,"TYPE_3":"Barangay","ENGTYPE_3":"Village","PROVINCE":"Cavite","REGION":"Region IV-A (Calabarzon)","id":"barangay-0402110036","name":"Kaytapos","barangayCode":"0402110036","population":null,"formattedPop":null,"densityCategory":"No data","vulnerabilityRating":"No data","healthRiskLevel":"No data","areaKm2":0.814672,"centerLat":14.197312,"centerLng":120.8834,"geometrySource":"all_barangay-2.csv detailed WKT","geometryMatchMethod":"unique_official_admin_names","boundaryPointCount":26},"geometry":{"type":"MultiPolygon","coordinates":[[[[120.881866,14.20389],[120.883614,14.20216],[120.884216,14.20166],[120.885948,14.20016],[120.887154,14.19931],[120.888023,14.1987],[120.889648,14.19835],[120.889793,14.19824],[120.890244,14.19789],[120.891052,14.19649],[120.887932,14.19553],[120.88723,14.19539],[120.885811,14.19497],[120.884132,14.19487],[120.882668,14.19436],[120.880569,14.19382],[120.879646,14.19359],[120.879433,14.19414],[120.879158,14.19541],[120.879021,14.1961],[120.878967,14.19658],[120.878113,14.1976],[120.877213,14.19891],[120.87677,14.20034],[120.875359,14.20188],[120.881866,14.20389]]]]}},{"type":"Feature","properties":{"ID_0":177,"ISO":"PHL","NAME_0":"Philippines","ID_1":4021,"NAME_1":"Cavite","ID_2":402110,"NAME_2":"Indang","ID_3":402110037,"NAME_3":"Mataas na Lupa","NL_NAME_3":null,"VARNAME_3":null,"TYPE_3":"Barangay","ENGTYPE_3":"Village","PROVINCE":"Cavite","REGION":"Region IV-A (Calabarzon)","id":"barangay-0402110037","name":"Mataas na Lupa","barangayCode":"0402110037","population":null,"formattedPop":null,"densityCategory":"No data","vulnerabilityRating":"No data","healthRiskLevel":"No data","areaKm2":2.39331,"centerLat":14.225138,"centerLng":120.887035,"geometrySource":"all_barangay-2.csv detailed WKT","geometryMatchMethod":"unique_official_admin_names","boundaryPointCount":18},"geometry":{"type":"MultiPolygon","coordinates":[[[[120.897293,14.20895],[120.896797,14.20842],[120.896782,14.20775],[120.897377,14.20614],[120.898163,14.20478],[120.898407,14.20363],[120.897888,14.20143],[120.897232,14.20217],[120.890244,14.19789],[120.889793,14.19824],[120.889648,14.19835],[120.888023,14.1987],[120.887154,14.19931],[120.885948,14.20016],[120.884216,14.20166],[120.883614,14.20216],[120.881866,14.20389],[120.897293,14.20895]]]]}}]}
