{"type":"FeatureCollection","features":[{"type":"Feature","properties":{"ID_0":177,"ISO":"PHL","NAME_0":"Philippines","ID_1":7012,"NAME_1":"Bohol","ID_2":701232,"NAME_2":"Maribojoc","ID_3":701232001,"NAME_3":"San Roque","NL_NAME_3":null,"VARNAME_3":null,"TYPE_3":"Barangay","ENGTYPE_3":"Village","PROVINCE":"Bohol","REGION":"Region VII (Central Visayas)","id":"barangay-0701232001","name":"San Roque","barangayCode":"0701232001","population":null,"formattedPop":null,"densityCategory":"No data","vulnerabilityRating":"No data","healthRiskLevel":"No data","areaKm2":3.954211,"centerLat":9.760363,"centerLng":123.877022,"geometrySource":"all_barangay-2.csv detailed WKT","geometryMatchMethod":"unique_official_admin_names","boundaryPointCount":8},"geometry":{"type":"MultiPolygon","coordinates":[[[[123.884827,9.77096],[123.884048,9.76136],[123.872276,9.74552],[123.869087,9.74889],[123.862244,9.75401],[123.867332,9.7591],[123.880753,9.77415],[123.884827,9.77096]]]]}},{"type":"Feature","properties":{"ID_0":177,"ISO":"PHL","NAME_0":"Philippines","ID_1":7012,"NAME_1":"Bohol","ID_2":701232,"NAME_2":"Maribojoc","ID_3":701232002,"NAME_3":"Agahay","NL_NAME_3":null,"VARNAME_3":null,"TYPE_3":"Barangay","ENGTYPE_3":"Village","PROVINCE":"Bohol","REGION":"Region VII (Central Visayas)","id":"barangay-0701232002","name":"Agahay","barangayCode":"0701232002","population":null,"formattedPop":null,"densityCategory":"No data","vulnerabilityRating":"No data","healthRiskLevel":"No data","areaKm2":2.189141,"centerLat":9.739212,"centerLng":123.891316,"geometrySource":"all_barangay-2.csv detailed WKT","geometryMatchMethod":"unique_official_admin_names","boundaryPointCount":36},"geometry":{"type":"MultiPolygon","coordinates":[[[[123.898911,9.74101],[123.898003,9.74031],[123.896973,9.73936],[123.895973,9.73838],[123.895607,9.73764],[123.894997,9.73669],[123.89502,9.73656],[123.895287,9.73584],[123.895866,9.73512],[123.896553,9.73456],[123.896858,9.73361],[123.89682,9.733],[123.89563,9.73227],[123.894882,9.73181],[123.894188,9.73123],[123.893639,9.73075],[123.893021,9.73017],[123.892036,9.72943],[123.891273,9.72905],[123.889793,9.72932],[123.887978,9.72972],[123.887497,9.73002],[123.887283,9.73014],[123.887589,9.73047],[123.887703,9.7312],[123.887337,9.73151],[123.887611,9.7321],[123.887177,9.73238],[123.887283,9.73377],[123.886833,9.73509],[123.886543,9.7356],[123.88578,9.73665],[123.885612,9.73735],[123.885551,9.73769],[123.884193,9.74596],[123.898911,9.74101]]]]}},{"type":"Feature","properties":{"ID_0":177,"ISO":"PHL","NAME_0":"Philippines","ID_1":7012,"NAME_1":"Bohol","ID_2":701232,"NAME_2":"Maribojoc","ID_3":701232003,"NAME_3":"Aliguay","NL_NAME_3":null,"VARNAME_3":null,"TYPE_3":"Barangay","ENGTYPE_3":"Village","PROVINCE":"Bohol","REGION":"Region VII (Central Visayas)","id":"barangay-0701232003","name":"Aliguay","barangayCode":"0701232003","population":null,"formattedPop":null,"densityCategory":"No data","vulnerabilityRating":"No data","healthRiskLevel":"No data","areaKm2":2.696021,"centerLat":9.742652,"centerLng":123.870046,"geometrySource":"all_barangay-2.csv detailed WKT","geometryMatchMethod":"unique_official_admin_names","boundaryPointCount":28},"geometry":{"type":"MultiPolygon","coordinates":[[[[123.872276,9.74552],[123.87175,9.7448],[123.871674,9.74346],[123.871719,9.74249],[123.871147,9.7405],[123.870407,9.73926],[123.870018,9.73753],[123.870407,9.73566],[123.870827,9.73457],[123.871384,9.73369],[123.870934,9.73251],[123.871407,9.73122],[123.872032,9.73101],[123.872681,9.73115],[123.873016,9.73121],[123.87262,9.72978],[123.87233,9.72933],[123.872253,9.72914],[123.872543,9.72871],[123.873154,9.72835],[123.87323,9.7282],[123.872871,9.72729],[123.872726,9.7266],[123.872673,9.72606],[123.862122,9.7332],[123.857643,9.7378],[123.869087,9.74889],[123.872276,9.74552]]]]}},{"type":"Feature","properties":{"ID_0":177,"ISO":"PHL","NAME_0":"Philippines","ID_1":7012,"NAME_1":"Bohol","ID_2":701232,"NAME_2":"Maribojoc","ID_3":701232004,"NAME_3":"Anislag","NL_NAME_3":null,"VARNAME_3":null,"TYPE_3":"Barangay","ENGTYPE_3":"Village","PROVINCE":"Bohol","REGION":"Region VII (Central Visayas)","id":"barangay-0701232004","name":"Anislag","barangayCode":"0701232004","population":null,"formattedPop":null,"densityCategory":"No data","vulnerabilityRating":"No data","healthRiskLevel":"No data","areaKm2":0.789131,"centerLat":9.737166,"centerLng":123.849434,"geometrySource":"all_barangay-2.csv detailed WKT","geometryMatchMethod":"unique_official_admin_names","boundaryPointCount":30},"geometry":{"type":"MultiPolygon","coordinates":[[[[123.857643,9.7378],[123.846199,9.7325],[123.846184,9.73262],[123.846161,9.73284],[123.845833,9.73281],[123.845718,9.73281],[123.844788,9.73346],[123.844528,9.73387],[123.84407,9.73458],[123.843262,9.73584],[123.843307,9.73623],[123.843239,9.73651],[123.8433,9.73802],[123.843727,9.73784],[123.84417,9.73778],[123.844566,9.73767],[123.845596,9.73761],[123.846138,9.73776],[123.846581,9.73811],[123.84697,9.73873],[123.847214,9.73886],[123.847794,9.73881],[123.848106,9.73895],[123.848343,9.73966],[123.849159,9.73997],[123.849197,9.73998],[123.84967,9.74016],[123.850288,9.74081],[123.850967,9.74174],[123.857643,9.7378]]]]}},{"type":"Feature","properties":{"ID_0":177,"ISO":"PHL","NAME_0":"Philippines","ID_1":7012,"NAME_1":"Bohol","ID_2":701232,"NAME_2":"Maribojoc","ID_3":701232005,"NAME_3":"Bayacabac","NL_NAME_3":null,"VARNAME_3":null,"TYPE_3":"Barangay","ENGTYPE_3":"Village","PROVINCE":"Bohol","REGION":"Region VII (Central Visayas)","id":"barangay-0701232005","name":"Bayacabac","barangayCode":"0701232005","population":null,"formattedPop":null,"densityCategory":"No data","vulnerabilityRating":"No data","healthRiskLevel":"No data","areaKm2":2.752025,"centerLat":9.751195,"centerLng":123.855645,"geometrySource":"all_barangay-2.csv detailed WKT","geometryMatchMethod":"unique_official_admin_names","boundaryPointCount":30},"geometry":{"type":"MultiPolygon","coordinates":[[[[123.854057,9.76039],[123.862244,9.75401],[123.85952,9.75062],[123.859573,9.74992],[123.859459,9.74916],[123.859413,9.74848],[123.859131,9.74773],[123.85836,9.747],[123.857567,9.74634],[123.85704,9.74581],[123.856483,9.74533],[123.855843,9.74494],[123.854767,9.74452],[123.853729,9.74436],[123.852814,9.74411],[123.852287,9.74358],[123.851547,9.74262],[123.850967,9.74174],[123.845741,9.74542],[123.84552,9.74631],[123.845612,9.74717],[123.845909,9.74768],[123.846321,9.7483],[123.846321,9.74895],[123.845917,9.74995],[123.845947,9.75063],[123.846367,9.75146],[123.847313,9.75223],[123.847443,9.75406],[123.854057,9.76039]]]]}},{"type":"Feature","properties":{"ID_0":177,"ISO":"PHL","NAME_0":"Philippines","ID_1":7012,"NAME_1":"Bohol","ID_2":701232,"NAME_2":"Maribojoc","ID_3":701232006,"NAME_3":"Bood","NL_NAME_3":null,"VARNAME_3":null,"TYPE_3":"Barangay","ENGTYPE_3":"Village","PROVINCE":"Bohol","REGION":"Region VII (Central Visayas)","id":"barangay-0701232006","name":"Bood","barangayCode":"0701232006","population":null,"formattedPop":null,"densityCategory":"No data","vulnerabilityRating":"No data","healthRiskLevel":"No data","areaKm2":2.612831,"centerLat":9.751085,"centerLng":123.824663,"geometrySource":"all_barangay-2.csv detailed WKT","geometryMatchMethod":"unique_official_admin_names","boundaryPointCount":15},"geometry":{"type":"MultiPolygon","coordinates":[[[[123.813889,9.75845],[123.817734,9.76239],[123.835831,9.74945],[123.834412,9.74206],[123.834373,9.74206],[123.83358,9.74204],[123.831703,9.74074],[123.831238,9.74055],[123.830772,9.74032],[123.830261,9.74023],[123.829857,9.74001],[123.829491,9.73979],[123.829079,9.73963],[123.828957,9.73957],[123.813889,9.75845]]]]}},{"type":"Feature","properties":{"ID_0":177,"ISO":"PHL","NAME_0":"Philippines","ID_1":7012,"NAME_1":"Bohol","ID_2":701232,"NAME_2":"Maribojoc","ID_3":701232007,"NAME_3":"Busao","NL_NAME_3":null,"VARNAME_3":null,"TYPE_3":"Barangay","ENGTYPE_3":"Village","PROVINCE":"Bohol","REGION":"Region VII (Central Visayas)","id":"barangay-0701232007","name":"Busao","barangayCode":"0701232007","population":null,"formattedPop":null,"densityCategory":"No data","vulnerabilityRating":"No data","healthRiskLevel":"No data","areaKm2":1.72032,"centerLat":9.747695,"centerLng":123.897762,"geometrySource":"all_barangay-2.csv detailed WKT","geometryMatchMethod":"unique_official_admin_names","boundaryPointCount":34},"geometry":{"type":"MultiPolygon","coordinates":[[[[123.900291,9.75636],[123.899963,9.75542],[123.900398,9.75466],[123.901604,9.75385],[123.902611,9.75348],[123.90345,9.75254],[123.90416,9.75154],[123.904282,9.75072],[123.903877,9.75033],[123.903702,9.75003],[123.903816,9.74968],[123.903381,9.74921],[123.903282,9.74874],[123.903587,9.74825],[123.90345,9.74774],[123.903252,9.74684],[123.90403,9.74625],[123.903763,9.74552],[123.903023,9.74515],[123.902809,9.7446],[123.903648,9.74414],[123.903969,9.74295],[123.904381,9.74304],[123.905602,9.74356],[123.906052,9.74325],[123.905647,9.74225],[123.902298,9.74142],[123.901283,9.74138],[123.900543,9.74133],[123.899628,9.74123],[123.899223,9.74107],[123.898911,9.74101],[123.884193,9.74596],[123.900291,9.75636]]]]}},{"type":"Feature","properties":{"ID_0":177,"ISO":"PHL","NAME_0":"Philippines","ID_1":7012,"NAME_1":"Bohol","ID_2":701232,"NAME_2":"Maribojoc","ID_3":701232008,"NAME_3":"Cabawan","NL_NAME_3":null,"VARNAME_3":null,"TYPE_3":"Barangay","ENGTYPE_3":"Village","PROVINCE":"Bohol","REGION":"Region VII (Central Visayas)","id":"barangay-0701232008","name":"Cabawan","barangayCode":"0701232008","population":null,"formattedPop":null,"densityCategory":"No data","vulnerabilityRating":"No data","healthRiskLevel":"No data","areaKm2":3.403519,"centerLat":9.738458,"centerLng":123.880011,"geometrySource":"all_barangay-2.csv detailed WKT","geometryMatchMethod":"unique_official_admin_names","boundaryPointCount":57},"geometry":{"type":"MultiPolygon","coordinates":[[[[123.884048,9.76136],[123.883492,9.75322],[123.884193,9.74596],[123.885551,9.73769],[123.885612,9.73735],[123.88578,9.73665],[123.886543,9.7356],[123.886833,9.73509],[123.887283,9.73377],[123.887177,9.73238],[123.887611,9.7321],[123.887337,9.73151],[123.887703,9.7312],[123.887589,9.73047],[123.887283,9.73014],[123.886169,9.73047],[123.88475,9.73019],[123.883614,9.72955],[123.882713,9.72899],[123.881462,9.72859],[123.880432,9.72845],[123.879532,9.72836],[123.87883,9.728],[123.878517,9.72739],[123.879044,9.72693],[123.879707,9.72641],[123.879478,9.72584],[123.878929,9.7255],[123.878036,9.72558],[123.877319,9.72628],[123.876793,9.72746],[123.876099,9.72876],[123.875717,9.7291],[123.87484,9.72887],[123.87355,9.72862],[123.87323,9.7282],[123.873154,9.72835],[123.872543,9.72871],[123.872253,9.72914],[123.87233,9.72933],[123.87262,9.72978],[123.873016,9.73121],[123.872681,9.73115],[123.872032,9.73101],[123.871407,9.73122],[123.870934,9.73251],[123.871384,9.73369],[123.870827,9.73457],[123.870407,9.73566],[123.870018,9.73753],[123.870407,9.73926],[123.871147,9.7405],[123.871719,9.74249],[123.871674,9.74346],[123.87175,9.7448],[123.872276,9.74552],[123.884048,9.76136]]]]}},{"type":"Feature","properties":{"ID_0":177,"ISO":"PHL","NAME_0":"Philippines","ID_1":7012,"NAME_1":"Bohol","ID_2":701232,"NAME_2":"Maribojoc","ID_3":701232009,"NAME_3":"Candavid","NL_NAME_3":null,"VARNAME_3":null,"TYPE_3":"Barangay","ENGTYPE_3":"Village","PROVINCE":"Bohol","REGION":"Region VII (Central Visayas)","id":"barangay-0701232009","name":"Candavid","barangayCode":"0701232009","population":null,"formattedPop":null,"densityCategory":"No data","vulnerabilityRating":"No data","healthRiskLevel":"No data","areaKm2":4.044126,"centerLat":9.784664,"centerLng":123.855286,"geometrySource":"all_barangay-2.csv detailed WKT","geometryMatchMethod":"unique_official_admin_names","boundaryPointCount":6},"geometry":{"type":"MultiPolygon","coordinates":[[[[123.853203,9.79343],[123.866379,9.78499],[123.862129,9.78005],[123.856529,9.77332],[123.84845,9.78939],[123.853203,9.79343]]]]}},{"type":"Feature","properties":{"ID_0":177,"ISO":"PHL","NAME_0":"Philippines","ID_1":7012,"NAME_1":"Bohol","ID_2":701232,"NAME_2":"Maribojoc","ID_3":701232010,"NAME_3":"Dipatlong","NL_NAME_3":null,"VARNAME_3":null,"TYPE_3":"Barangay","ENGTYPE_3":"Village","PROVINCE":"Bohol","REGION":"Region VII (Central Visayas)","id":"barangay-0701232010","name":"Dipatlong","barangayCode":"0701232010","population":null,"formattedPop":null,"densityCategory":"No data","vulnerabilityRating":"No data","healthRiskLevel":"No data","areaKm2":1.053001,"centerLat":9.745993,"centerLng":123.838205,"geometrySource":"all_barangay-2.csv detailed WKT","geometryMatchMethod":"unique_official_admin_names","boundaryPointCount":18},"geometry":{"type":"MultiPolygon","coordinates":[[[[123.844017,9.74503],[123.841751,9.74335],[123.841721,9.7433],[123.839928,9.74082],[123.840057,9.74064],[123.838699,9.74151],[123.838516,9.74162],[123.83828,9.74166],[123.837669,9.74175],[123.83725,9.74182],[123.836647,9.74198],[123.836243,9.74218],[123.835693,9.74209],[123.834541,9.74206],[123.834412,9.74206],[123.835831,9.74945],[123.842033,9.75174],[123.844017,9.74503]]]]}},{"type":"Feature","properties":{"ID_0":177,"ISO":"PHL","NAME_0":"Philippines","ID_1":7012,"NAME_1":"Bohol","ID_2":701232,"NAME_2":"Maribojoc","ID_3":701232011,"NAME_3":"Guiwanon","NL_NAME_3":null,"VARNAME_3":null,"TYPE_3":"Barangay","ENGTYPE_3":"Village","PROVINCE":"Bohol","REGION":"Region VII (Central Visayas)","id":"barangay-0701232011","name":"Guiwanon","barangayCode":"0701232011","population":null,"formattedPop":null,"densityCategory":"No data","vulnerabilityRating":"No data","healthRiskLevel":"No data","areaKm2":2.462812,"centerLat":9.74265,"centerLng":123.809254,"geometrySource":"all_barangay-2.csv detailed WKT","geometryMatchMethod":"unique_official_admin_names","boundaryPointCount":28},"geometry":{"type":"MultiPolygon","coordinates":[[[[123.807281,9.75159],[123.819206,9.73623],[123.819069,9.73614],[123.818619,9.73592],[123.818443,9.73583],[123.818161,9.73568],[123.81765,9.73552],[123.817139,9.73535],[123.816978,9.73536],[123.816551,9.73538],[123.816048,9.73527],[123.815643,9.73509],[123.815247,9.73491],[123.814796,9.73475],[123.814247,9.73464],[123.813683,9.73448],[123.81311,9.73445],[123.812553,9.73444],[123.811996,9.73445],[123.811493,9.73444],[123.810997,9.73438],[123.81057,9.73421],[123.810066,9.73417],[123.80954,9.73417],[123.809212,9.73417],[123.800003,9.74506],[123.802773,9.74734],[123.807281,9.75159]]]]}},{"type":"Feature","properties":{"ID_0":177,"ISO":"PHL","NAME_0":"Philippines","ID_1":7012,"NAME_1":"Bohol","ID_2":701232,"NAME_2":"Maribojoc","ID_3":701232012,"NAME_3":"Jandig","NL_NAME_3":null,"VARNAME_3":null,"TYPE_3":"Barangay","ENGTYPE_3":"Village","PROVINCE":"Bohol","REGION":"Region VII (Central Visayas)","id":"barangay-0701232012","name":"Jandig","barangayCode":"0701232012","population":null,"formattedPop":null,"densityCategory":"No data","vulnerabilityRating":"No data","healthRiskLevel":"No data","areaKm2":6.598884,"centerLat":9.762358,"centerLng":123.834626,"geometrySource":"all_barangay-2.csv detailed WKT","geometryMatchMethod":"unique_official_admin_names","boundaryPointCount":20},"geometry":{"type":"MultiPolygon","coordinates":[[[[123.842957,9.78541],[123.847443,9.75406],[123.847313,9.75223],[123.846367,9.75146],[123.845947,9.75063],[123.845917,9.74995],[123.846321,9.74895],[123.846321,9.7483],[123.845909,9.74768],[123.845612,9.74717],[123.84552,9.74631],[123.845741,9.74542],[123.844017,9.74503],[123.842033,9.75174],[123.835831,9.74945],[123.817734,9.76239],[123.825859,9.77064],[123.832787,9.77667],[123.837212,9.78058],[123.842957,9.78541]]]]}},{"type":"Feature","properties":{"ID_0":177,"ISO":"PHL","NAME_0":"Philippines","ID_1":7012,"NAME_1":"Bohol","ID_2":701232,"NAME_2":"Maribojoc","ID_3":701232013,"NAME_3":"Lagtangon","NL_NAME_3":null,"VARNAME_3":null,"TYPE_3":"Barangay","ENGTYPE_3":"Village","PROVINCE":"Bohol","REGION":"Region VII (Central Visayas)","id":"barangay-0701232013","name":"Lagtangon","barangayCode":"0701232013","population":null,"formattedPop":null,"densityCategory":"No data","vulnerabilityRating":"No data","healthRiskLevel":"No data","areaKm2":2.261251,"centerLat":9.748085,"centerLng":123.816368,"geometrySource":"all_barangay-2.csv detailed WKT","geometryMatchMethod":"unique_official_admin_names","boundaryPointCount":25},"geometry":{"type":"MultiPolygon","coordinates":[[[[123.813889,9.75845],[123.828957,9.73957],[123.828659,9.73944],[123.828171,9.73922],[123.82756,9.73909],[123.826973,9.73888],[123.826424,9.7386],[123.82592,9.73829],[123.825462,9.73794],[123.824837,9.73773],[123.824287,9.73754],[123.823837,9.7375],[123.823471,9.73749],[123.823143,9.73746],[123.8228,9.73736],[123.822403,9.7372],[123.821938,9.73699],[123.821342,9.73695],[123.820763,9.73692],[123.820282,9.73679],[123.819847,9.73663],[123.819473,9.73639],[123.819206,9.73623],[123.807281,9.75159],[123.813889,9.75845]]]]}},{"type":"Feature","properties":{"ID_0":177,"ISO":"PHL","NAME_0":"Philippines","ID_1":7012,"NAME_1":"Bohol","ID_2":701232,"NAME_2":"Maribojoc","ID_3":701232014,"NAME_3":"Lincod","NL_NAME_3":null,"VARNAME_3":null,"TYPE_3":"Barangay","ENGTYPE_3":"Village","PROVINCE":"Bohol","REGION":"Region VII (Central Visayas)","id":"barangay-0701232014","name":"Lincod","barangayCode":"0701232014","population":null,"formattedPop":null,"densityCategory":"No data","vulnerabilityRating":"No data","healthRiskLevel":"No data","areaKm2":3.796651,"centerLat":9.723586,"centerLng":123.863226,"geometrySource":"all_barangay-2.csv detailed WKT","geometryMatchMethod":"unique_official_admin_names","boundaryPointCount":144},"geometry":{"type":"MultiPolygon","coordinates":[[[[123.872673,9.72606],[123.872917,9.7252],[123.872757,9.72437],[123.872589,9.72356],[123.872482,9.72251],[123.872887,9.72179],[123.873207,9.72094],[123.872963,9.72018],[123.872543,9.71917],[123.87236,9.71797],[123.872383,9.71745],[123.872398,9.71642],[123.872391,9.71514],[123.87188,9.71426],[123.871223,9.71402],[123.870461,9.71452],[123.869408,9.71544],[123.867607,9.71686],[123.866631,9.71682],[123.866943,9.71708],[123.867149,9.71729],[123.867851,9.71771],[123.868607,9.7175],[123.869377,9.71688],[123.869926,9.71723],[123.869453,9.71799],[123.869164,9.71833],[123.868607,9.71889],[123.868057,9.71889],[123.867706,9.71882],[123.867233,9.71861],[123.866943,9.71847],[123.866669,9.71833],[123.866112,9.71812],[123.865837,9.71778],[123.863327,9.71555],[123.863052,9.71528],[123.862778,9.71535],[123.862358,9.71528],[123.862152,9.71514],[123.861458,9.71541],[123.860764,9.71569],[123.86042,9.71576],[123.860001,9.71576],[123.859367,9.71597],[123.859169,9.71597],[123.858566,9.71602],[123.857681,9.71644],[123.856773,9.71651],[123.856049,9.71616],[123.855507,9.71645],[123.855103,9.71694],[123.854767,9.71745],[123.854538,9.71789],[123.85434,9.71821],[123.854233,9.71834],[123.853951,9.71868],[123.853767,9.71889],[123.853447,9.71889],[123.853104,9.71889],[123.852707,9.71889],[123.852287,9.71889],[123.851837,9.71886],[123.851547,9.71877],[123.851418,9.71873],[123.850998,9.71851],[123.850533,9.71839],[123.850121,9.71847],[123.850067,9.71848],[123.849609,9.71863],[123.849167,9.71884],[123.848686,9.71901],[123.848328,9.71939],[123.848282,9.71947],[123.848038,9.71987],[123.848083,9.72039],[123.848312,9.72089],[123.848579,9.72133],[123.848907,9.72167],[123.849182,9.72197],[123.84938,9.72228],[123.849388,9.72274],[123.849281,9.7233],[123.849518,9.72378],[123.84993,9.72417],[123.850349,9.7245],[123.850754,9.72474],[123.851097,9.72494],[123.851547,9.72487],[123.852074,9.72456],[123.853607,9.72417],[123.854156,9.72417],[123.854446,9.72389],[123.854721,9.72389],[123.854851,9.72376],[123.855003,9.72361],[123.855003,9.72333],[123.855278,9.72306],[123.855278,9.72278],[123.855553,9.7225],[123.855553,9.72222],[123.855827,9.72194],[123.855827,9.72167],[123.85611,9.72139],[123.85611,9.72],[123.856392,9.71972],[123.856392,9.71889],[123.856667,9.71861],[123.856667,9.71833],[123.856941,9.71806],[123.857498,9.71806],[123.85778,9.71833],[123.858612,9.71833],[123.859863,9.71855],[123.860909,9.71945],[123.860626,9.72104],[123.860687,9.72229],[123.860901,9.72278],[123.861526,9.72243],[123.862373,9.72299],[123.862572,9.72396],[123.862358,9.72424],[123.861954,9.72452],[123.861458,9.72445],[123.86097,9.72514],[123.860832,9.72542],[123.860001,9.72556],[123.859932,9.72528],[123.859169,9.72583],[123.858818,9.72569],[123.858261,9.72569],[123.858047,9.72521],[123.85778,9.72486],[123.857498,9.72486],[123.856873,9.72562],[123.856323,9.72632],[123.855553,9.72639],[123.855278,9.72611],[123.855278,9.72583],[123.854721,9.72528],[123.853889,9.72528],[123.853317,9.72583],[123.862122,9.7332],[123.872673,9.72606]]]]}},{"type":"Feature","properties":{"ID_0":177,"ISO":"PHL","NAME_0":"Philippines","ID_1":7012,"NAME_1":"Bohol","ID_2":701232,"NAME_2":"Maribojoc","ID_3":701232015,"NAME_3":"Pagnitoan","NL_NAME_3":null,"VARNAME_3":null,"TYPE_3":"Barangay","ENGTYPE_3":"Village","PROVINCE":"Bohol","REGION":"Region VII (Central Visayas)","id":"barangay-0701232015","name":"Pagnitoan","barangayCode":"0701232015","population":null,"formattedPop":null,"densityCategory":"No data","vulnerabilityRating":"No data","healthRiskLevel":"No data","areaKm2":2.963616,"centerLat":9.770811,"centerLng":123.846039,"geometrySource":"all_barangay-2.csv detailed WKT","geometryMatchMethod":"unique_official_admin_names","boundaryPointCount":7},"geometry":{"type":"MultiPolygon","coordinates":[[[[123.84845,9.78939],[123.856529,9.77332],[123.854057,9.76039],[123.847443,9.75406],[123.842957,9.78541],[123.845421,9.78746],[123.84845,9.78939]]]]}},{"type":"Feature","properties":{"ID_0":177,"ISO":"PHL","NAME_0":"Philippines","ID_1":7012,"NAME_1":"Bohol","ID_2":701232,"NAME_2":"Maribojoc","ID_3":701232016,"NAME_3":"Poblacion","NL_NAME_3":null,"VARNAME_3":null,"TYPE_3":"Barangay","ENGTYPE_3":"Village","PROVINCE":"Bohol","REGION":"Region VII (Central Visayas)","id":"barangay-0701232016","name":"Poblacion","barangayCode":"0701232016","population":null,"formattedPop":null,"densityCategory":"No data","vulnerabilityRating":"No data","healthRiskLevel":"No data","areaKm2":0.542605,"centerLat":9.741981,"centerLng":123.844365,"geometrySource":"all_barangay-2.csv detailed WKT","geometryMatchMethod":"unique_official_admin_names","boundaryPointCount":32},"geometry":{"type":"MultiPolygon","coordinates":[[[[123.845741,9.74542],[123.850967,9.74174],[123.850288,9.74081],[123.84967,9.74016],[123.849197,9.73998],[123.849159,9.73997],[123.848343,9.73966],[123.848106,9.73895],[123.847794,9.73881],[123.847214,9.73886],[123.84697,9.73873],[123.846581,9.73811],[123.846138,9.73776],[123.845596,9.73761],[123.844566,9.73767],[123.84417,9.73778],[123.843727,9.73784],[123.8433,9.73802],[123.843307,9.73815],[123.843163,9.73836],[123.842934,9.7385],[123.842621,9.73867],[123.842133,9.73879],[123.841599,9.73937],[123.841316,9.73967],[123.840363,9.74045],[123.840057,9.74064],[123.839928,9.74082],[123.841721,9.7433],[123.841751,9.74335],[123.844017,9.74503],[123.845741,9.74542]]]]}},{"type":"Feature","properties":{"ID_0":177,"ISO":"PHL","NAME_0":"Philippines","ID_1":7012,"NAME_1":"Bohol","ID_2":701232,"NAME_2":"Maribojoc","ID_3":701232017,"NAME_3":"Punsod","NL_NAME_3":null,"VARNAME_3":null,"TYPE_3":"Barangay","ENGTYPE_3":"Village","PROVINCE":"Bohol","REGION":"Region VII (Central Visayas)","id":"barangay-0701232017","name":"Punsod","barangayCode":"0701232017","population":null,"formattedPop":null,"densityCategory":"No data","vulnerabilityRating":"No data","healthRiskLevel":"No data","areaKm2":0.970105,"centerLat":9.742378,"centerLng":123.858072,"geometrySource":"all_barangay-2.csv detailed WKT","geometryMatchMethod":"unique_official_admin_names","boundaryPointCount":20},"geometry":{"type":"MultiPolygon","coordinates":[[[[123.869087,9.74889],[123.857643,9.7378],[123.850967,9.74174],[123.851547,9.74262],[123.852287,9.74358],[123.852814,9.74411],[123.853729,9.74436],[123.854767,9.74452],[123.855843,9.74494],[123.856483,9.74533],[123.85704,9.74581],[123.857567,9.74634],[123.85836,9.747],[123.859131,9.74773],[123.859413,9.74848],[123.859459,9.74916],[123.859573,9.74992],[123.85952,9.75062],[123.862244,9.75401],[123.869087,9.74889]]]]}},{"type":"Feature","properties":{"ID_0":177,"ISO":"PHL","NAME_0":"Philippines","ID_1":7012,"NAME_1":"Bohol","ID_2":701232,"NAME_2":"Maribojoc","ID_3":701232018,"NAME_3":"Punta Cruz","NL_NAME_3":null,"VARNAME_3":null,"TYPE_3":"Barangay","ENGTYPE_3":"Village","PROVINCE":"Bohol","REGION":"Region VII (Central Visayas)","id":"barangay-0701232018","name":"Punta Cruz","barangayCode":"0701232018","population":null,"formattedPop":null,"densityCategory":"No data","vulnerabilityRating":"No data","healthRiskLevel":"No data","areaKm2":2.062165,"centerLat":9.738786,"centerLng":123.797646,"geometrySource":"all_barangay-2.csv detailed WKT","geometryMatchMethod":"unique_official_admin_names","boundaryPointCount":36},"geometry":{"type":"MultiPolygon","coordinates":[[[[123.800003,9.74506],[123.809212,9.73417],[123.809036,9.73417],[123.808563,9.73412],[123.808144,9.73392],[123.807709,9.73377],[123.807259,9.73363],[123.80677,9.73356],[123.80629,9.73337],[123.805779,9.73322],[123.80265,9.73302],[123.800858,9.73284],[123.800423,9.733],[123.799957,9.73305],[123.799492,9.73306],[123.798988,9.73306],[123.79847,9.73306],[123.79792,9.73305],[123.79734,9.73305],[123.796761,9.73306],[123.796211,9.73313],[123.795776,9.73333],[123.795357,9.73352],[123.794884,9.7336],[123.794403,9.73361],[123.793953,9.73364],[123.793533,9.73378],[123.79306,9.7339],[123.792526,9.73406],[123.791969,9.73419],[123.791389,9.73438],[123.790756,9.73449],[123.790199,9.73479],[123.790154,9.73492],[123.789864,9.73543],[123.800003,9.74506]]]]}},{"type":"Feature","properties":{"ID_0":177,"ISO":"PHL","NAME_0":"Philippines","ID_1":7012,"NAME_1":"Bohol","ID_2":701232,"NAME_2":"Maribojoc","ID_3":701232019,"NAME_3":"San Isidro","NL_NAME_3":null,"VARNAME_3":null,"TYPE_3":"Barangay","ENGTYPE_3":"Village","PROVINCE":"Bohol","REGION":"Region VII (Central Visayas)","id":"barangay-0701232019","name":"San Isidro","barangayCode":"0701232019","population":null,"formattedPop":null,"densityCategory":"No data","vulnerabilityRating":"No data","healthRiskLevel":"No data","areaKm2":1.996478,"centerLat":9.766436,"centerLng":123.859008,"geometrySource":"all_barangay-2.csv detailed WKT","geometryMatchMethod":"unique_official_admin_names","boundaryPointCount":6},"geometry":{"type":"MultiPolygon","coordinates":[[[[123.856529,9.77332],[123.862129,9.78005],[123.867332,9.7591],[123.862244,9.75401],[123.854057,9.76039],[123.856529,9.77332]]]]}},{"type":"Feature","properties":{"ID_0":177,"ISO":"PHL","NAME_0":"Philippines","ID_1":7012,"NAME_1":"Bohol","ID_2":701232,"NAME_2":"Maribojoc","ID_3":701232020,"NAME_3":"San Vicente","NL_NAME_3":null,"VARNAME_3":null,"TYPE_3":"Barangay","ENGTYPE_3":"Village","PROVINCE":"Bohol","REGION":"Region VII (Central Visayas)","id":"barangay-0701232020","name":"San Vicente","barangayCode":"0701232020","population":null,"formattedPop":null,"densityCategory":"No data","vulnerabilityRating":"No data","healthRiskLevel":"No data","areaKm2":1.323852,"centerLat":9.732462,"centerLng":123.854887,"geometrySource":"all_barangay-2.csv detailed WKT","geometryMatchMethod":"unique_official_admin_names","boundaryPointCount":24},"geometry":{"type":"MultiPolygon","coordinates":[[[[123.862122,9.7332],[123.853317,9.72583],[123.853058,9.72583],[123.852852,9.72579],[123.852638,9.72582],[123.851692,9.72594],[123.851143,9.72629],[123.850937,9.72674],[123.850998,9.72699],[123.851158,9.72778],[123.85051,9.72773],[123.850388,9.72749],[123.85022,9.72744],[123.850037,9.72739],[123.849823,9.72722],[123.849426,9.72726],[123.849037,9.72744],[123.848541,9.72761],[123.848167,9.72884],[123.847198,9.73029],[123.846359,9.73167],[123.846199,9.7325],[123.857643,9.7378],[123.862122,9.7332]]]]}},{"type":"Feature","properties":{"ID_0":177,"ISO":"PHL","NAME_0":"Philippines","ID_1":7012,"NAME_1":"Bohol","ID_2":701232,"NAME_2":"Maribojoc","ID_3":701232021,"NAME_3":"Tinibgan","NL_NAME_3":null,"VARNAME_3":null,"TYPE_3":"Barangay","ENGTYPE_3":"Village","PROVINCE":"Bohol","REGION":"Region VII (Central Visayas)","id":"barangay-0701232021","name":"Tinibgan","barangayCode":"0701232021","population":null,"formattedPop":null,"densityCategory":"No data","vulnerabilityRating":"No data","healthRiskLevel":"No data","areaKm2":3.215245,"centerLat":9.77208,"centerLng":123.868916,"geometrySource":"all_barangay-2.csv detailed WKT","geometryMatchMethod":"unique_official_admin_names","boundaryPointCount":6},"geometry":{"type":"MultiPolygon","coordinates":[[[[123.866379,9.78499],[123.874977,9.77863],[123.880753,9.77415],[123.867332,9.7591],[123.862129,9.78005],[123.866379,9.78499]]]]}},{"type":"Feature","properties":{"ID_0":177,"ISO":"PHL","NAME_0":"Philippines","ID_1":7012,"NAME_1":"Bohol","ID_2":701232,"NAME_2":"Maribojoc","ID_3":701232022,"NAME_3":"Toril","NL_NAME_3":null,"VARNAME_3":null,"TYPE_3":"Barangay","ENGTYPE_3":"Village","PROVINCE":"Bohol","REGION":"Region VII (Central Visayas)","id":"barangay-0701232022","name":"Toril","barangayCode":"0701232022","population":null,"formattedPop":null,"densityCategory":"No data","vulnerabilityRating":"No data","healthRiskLevel":"No data","areaKm2":1.771212,"centerLat":9.756402,"centerLng":123.892314,"geometrySource":"all_barangay-2.csv detailed WKT","geometryMatchMethod":"unique_official_admin_names","boundaryPointCount":21},"geometry":{"type":"MultiPolygon","coordinates":[[[[123.891968,9.76647],[123.893356,9.76569],[123.894814,9.7656],[123.895538,9.76514],[123.895782,9.76388],[123.895729,9.763],[123.895943,9.76178],[123.896896,9.7605],[123.898109,9.75956],[123.899071,9.75934],[123.899872,9.75939],[123.90049,9.7592],[123.901138,9.75849],[123.901062,9.75772],[123.900291,9.75636],[123.884193,9.74596],[123.883492,9.75322],[123.884048,9.76136],[123.884827,9.77096],[123.891098,9.76623],[123.891968,9.76647]]]]}}]}
