{"type":"FeatureCollection","features":[{"type":"Feature","properties":{"ID_0":177,"ISO":"PHL","NAME_0":"Philippines","ID_1":1055,"NAME_1":"Pangasinan","ID_2":105501,"NAME_2":"Agno","ID_3":105501001,"NAME_3":"Allabon","NL_NAME_3":null,"VARNAME_3":null,"TYPE_3":"Barangay","ENGTYPE_3":"Village","PROVINCE":"Pangasinan","REGION":"Region I (Ilocos Region)","id":"barangay-0105501001","name":"Allabon","barangayCode":"0105501001","population":null,"formattedPop":null,"densityCategory":"No data","vulnerabilityRating":"No data","healthRiskLevel":"No data","areaKm2":12.376943,"centerLat":16.018179,"centerLng":119.79321,"geometrySource":"all_barangay-2.csv detailed WKT","geometryMatchMethod":"unique_official_admin_names","boundaryPointCount":36},"geometry":{"type":"MultiPolygon","coordinates":[[[[119.80735,16.056761],[119.807037,16.05422],[119.805069,16.04727],[119.79567,16.043779],[119.794693,16.04314],[119.794151,16.042419],[119.79303,16.040529],[119.792267,16.039301],[119.788963,16.03985],[119.78894,16.040739],[119.788116,16.04133],[119.78656,16.04307],[119.787804,16.04368],[119.789558,16.04417],[119.789787,16.04528],[119.789993,16.04727],[119.79023,16.04808],[119.790154,16.04999],[119.789543,16.052389],[119.789597,16.0539],[119.789177,16.05582],[119.789284,16.056471],[119.791206,16.058479],[119.792267,16.059031],[119.79303,16.059151],[119.794601,16.0588],[119.794594,16.067419],[119.795593,16.06764],[119.798782,16.06778],[119.80056,16.06781],[119.802406,16.06757],[119.803268,16.06539],[119.803947,16.062201],[119.804543,16.06049],[119.806152,16.056959],[119.80735,16.056761]]]]}},{"type":"Feature","properties":{"ID_0":177,"ISO":"PHL","NAME_0":"Philippines","ID_1":1055,"NAME_1":"Pangasinan","ID_2":105501,"NAME_2":"Agno","ID_3":105501002,"NAME_3":"Aloleng","NL_NAME_3":null,"VARNAME_3":null,"TYPE_3":"Barangay","ENGTYPE_3":"Village","PROVINCE":"Pangasinan","REGION":"Region I (Ilocos Region)","id":"barangay-0105501002","name":"Aloleng","barangayCode":"0105501002","population":null,"formattedPop":null,"densityCategory":"No data","vulnerabilityRating":"No data","healthRiskLevel":"No data","areaKm2":5.14144,"centerLat":16.117254,"centerLng":119.778117,"geometrySource":"all_barangay-2.csv detailed WKT","geometryMatchMethod":"unique_official_admin_names","boundaryPointCount":61},"geometry":{"type":"MultiPolygon","coordinates":[[[[119.781387,16.13287],[119.781754,16.13315],[119.783211,16.134121],[119.785149,16.134569],[119.787422,16.13409],[119.788712,16.133101],[119.789207,16.131941],[119.789253,16.12925],[119.789261,16.12863],[119.789337,16.12842],[119.789467,16.12689],[119.791107,16.12307],[119.793488,16.11944],[119.789917,16.116751],[119.785927,16.11586],[119.783257,16.115971],[119.784927,16.110609],[119.783287,16.10656],[119.761864,16.10409],[119.762001,16.106421],[119.762642,16.10977],[119.763634,16.113461],[119.764442,16.11528],[119.764717,16.115549],[119.764717,16.115829],[119.764999,16.11611],[119.764999,16.11639],[119.765213,16.11739],[119.765556,16.118059],[119.766197,16.117941],[119.766548,16.11787],[119.766739,16.11743],[119.766899,16.11705],[119.766968,16.116171],[119.767601,16.115761],[119.768661,16.11541],[119.769722,16.11528],[119.770782,16.115351],[119.771767,16.11541],[119.773323,16.11644],[119.774872,16.11828],[119.776108,16.12056],[119.776657,16.121111],[119.776657,16.121389],[119.777222,16.121941],[119.777222,16.122219],[119.777496,16.122499],[119.777496,16.12306],[119.777779,16.123329],[119.777779,16.12361],[119.778053,16.12389],[119.778053,16.124649],[119.778053,16.12472],[119.778481,16.12595],[119.778549,16.12752],[119.778893,16.129999],[119.779167,16.13028],[119.779167,16.13056],[119.779427,16.130819],[119.781387,16.13278],[119.781387,16.13287]]]]}},{"type":"Feature","properties":{"ID_0":177,"ISO":"PHL","NAME_0":"Philippines","ID_1":1055,"NAME_1":"Pangasinan","ID_2":105501,"NAME_2":"Agno","ID_3":105501003,"NAME_3":"Bangan-Oda","NL_NAME_3":null,"VARNAME_3":null,"TYPE_3":"Barangay","ENGTYPE_3":"Village","PROVINCE":"Pangasinan","REGION":"Region I (Ilocos Region)","id":"barangay-0105501003","name":"Bangan-Oda","barangayCode":"0105501003","population":null,"formattedPop":null,"densityCategory":"No data","vulnerabilityRating":"No data","healthRiskLevel":"No data","areaKm2":11.362439,"centerLat":16.111472,"centerLng":119.827574,"geometrySource":"all_barangay-2.csv detailed WKT","geometryMatchMethod":"unique_official_admin_names","boundaryPointCount":86},"geometry":{"type":"MultiPolygon","coordinates":[[[[119.822411,16.139441],[119.821358,16.137501],[119.821877,16.13571],[119.823486,16.13377],[119.82444,16.13324],[119.825638,16.13195],[119.824577,16.130289],[119.824707,16.128799],[119.824997,16.128349],[119.826408,16.12845],[119.827507,16.127911],[119.828697,16.12657],[119.829277,16.125441],[119.831444,16.124559],[119.834007,16.124201],[119.835258,16.12286],[119.835083,16.122259],[119.832832,16.120649],[119.831703,16.11969],[119.831848,16.117941],[119.832031,16.117109],[119.833687,16.11631],[119.835167,16.117399],[119.835121,16.11747],[119.838409,16.11797],[119.839928,16.11957],[119.840668,16.12068],[119.842552,16.12188],[119.844917,16.120359],[119.84584,16.11993],[119.848106,16.11895],[119.848846,16.118891],[119.850807,16.118469],[119.853058,16.120171],[119.85379,16.12051],[119.854523,16.12104],[119.856277,16.11726],[119.857712,16.114389],[119.85778,16.11273],[119.857986,16.109301],[119.858978,16.106661],[119.860207,16.10545],[119.860924,16.10499],[119.861877,16.103769],[119.861809,16.10191],[119.861748,16.100981],[119.862587,16.099991],[119.858093,16.096001],[119.853073,16.09201],[119.852257,16.093081],[119.851669,16.093399],[119.850128,16.09474],[119.847527,16.097601],[119.846672,16.09874],[119.843849,16.1008],[119.841698,16.10129],[119.83696,16.100149],[119.833931,16.09639],[119.832336,16.094049],[119.832222,16.093719],[119.83152,16.0933],[119.829536,16.095011],[119.829483,16.09605],[119.829063,16.10062],[119.829063,16.10294],[119.828621,16.10709],[119.828262,16.107599],[119.827904,16.108601],[119.825508,16.108351],[119.821793,16.10618],[119.820824,16.105511],[119.820602,16.105631],[119.819199,16.10989],[119.819077,16.113701],[119.817802,16.118999],[119.817596,16.12282],[119.817299,16.13364],[119.817322,16.137449],[119.816849,16.140261],[119.815964,16.1423],[119.817352,16.14238],[119.81929,16.14319],[119.820824,16.14249],[119.821617,16.1411],[119.822159,16.13979],[119.822411,16.139441]]]]}},{"type":"Feature","properties":{"ID_0":177,"ISO":"PHL","NAME_0":"Philippines","ID_1":1055,"NAME_1":"Pangasinan","ID_2":105501,"NAME_2":"Agno","ID_3":105501004,"NAME_3":"Baruan","NL_NAME_3":null,"VARNAME_3":null,"TYPE_3":"Barangay","ENGTYPE_3":"Village","PROVINCE":"Pangasinan","REGION":"Region I (Ilocos Region)","id":"barangay-0105501004","name":"Baruan","barangayCode":"0105501004","population":null,"formattedPop":null,"densityCategory":"No data","vulnerabilityRating":"No data","healthRiskLevel":"No data","areaKm2":7.277146,"centerLat":16.016882,"centerLng":119.77205,"geometrySource":"all_barangay-2.csv detailed WKT","geometryMatchMethod":"unique_official_admin_names","boundaryPointCount":80},"geometry":{"type":"MultiPolygon","coordinates":[[[[119.805069,16.04727],[119.804443,16.044411],[119.792503,16.030861],[119.790413,16.02869],[119.783417,16.02001],[119.778267,16.01437],[119.771133,16.01037],[119.768356,16.009821],[119.765068,16.01016],[119.762611,16.011459],[119.760277,16.012779],[119.761391,16.012779],[119.761673,16.012501],[119.761948,16.012501],[119.762497,16.01194],[119.763046,16.01194],[119.763184,16.01182],[119.763344,16.011669],[119.764168,16.011669],[119.765556,16.01306],[119.765831,16.01333],[119.765831,16.013611],[119.766113,16.013889],[119.766113,16.01417],[119.766388,16.014441],[119.766388,16.014999],[119.76667,16.01528],[119.76667,16.015619],[119.76667,16.015829],[119.767487,16.016661],[119.767776,16.016951],[119.767776,16.01701],[119.767776,16.01722],[119.768608,16.018061],[119.768784,16.018061],[119.76889,16.018061],[119.769447,16.01861],[119.769722,16.01861],[119.770844,16.01972],[119.771667,16.01972],[119.771942,16.02],[119.772217,16.02],[119.772781,16.020559],[119.773064,16.020559],[119.773331,16.02083],[119.773331,16.021111],[119.773613,16.021391],[119.773613,16.021669],[119.773331,16.02194],[119.773331,16.022499],[119.773888,16.02306],[119.774033,16.02467],[119.77375,16.025761],[119.77269,16.02774],[119.772408,16.028561],[119.772217,16.030279],[119.772217,16.03278],[119.771942,16.03306],[119.771942,16.03389],[119.770714,16.03513],[119.772881,16.035891],[119.774246,16.038309],[119.77565,16.039709],[119.776932,16.0401],[119.778442,16.03994],[119.780144,16.03895],[119.781013,16.03804],[119.783188,16.03594],[119.784286,16.035749],[119.785744,16.037109],[119.786537,16.03861],[119.787308,16.03919],[119.788254,16.03944],[119.788963,16.03985],[119.792267,16.039301],[119.79303,16.040529],[119.794151,16.042419],[119.794693,16.04314],[119.79567,16.043779],[119.805069,16.04727]]]]}},{"type":"Feature","properties":{"ID_0":177,"ISO":"PHL","NAME_0":"Philippines","ID_1":1055,"NAME_1":"Pangasinan","ID_2":105501,"NAME_2":"Agno","ID_3":105501005,"NAME_3":"Boboy","NL_NAME_3":null,"VARNAME_3":null,"TYPE_3":"Barangay","ENGTYPE_3":"Village","PROVINCE":"Pangasinan","REGION":"Region I (Ilocos Region)","id":"barangay-0105501005","name":"Boboy","barangayCode":"0105501005","population":null,"formattedPop":null,"densityCategory":"No data","vulnerabilityRating":"No data","healthRiskLevel":"No data","areaKm2":10.795992,"centerLat":16.144654,"centerLng":119.787134,"geometrySource":"all_barangay-2.csv detailed WKT","geometryMatchMethod":"unique_official_admin_names","boundaryPointCount":102},"geometry":{"type":"MultiPolygon","coordinates":[[[[119.788933,16.17441],[119.788979,16.173059],[119.789864,16.17087],[119.791321,16.167339],[119.790932,16.16456],[119.78933,16.161501],[119.787857,16.158079],[119.787842,16.15353],[119.788673,16.149731],[119.790024,16.14496],[119.791023,16.14135],[119.794327,16.138531],[119.797211,16.13637],[119.798897,16.135929],[119.80143,16.137239],[119.803688,16.138041],[119.803978,16.137569],[119.803482,16.136141],[119.802071,16.133579],[119.801178,16.133221],[119.800087,16.132641],[119.799301,16.130951],[119.797462,16.1276],[119.79628,16.1255],[119.794167,16.12513],[119.79155,16.127081],[119.789864,16.12838],[119.789261,16.12863],[119.789253,16.12925],[119.789207,16.131941],[119.788712,16.133101],[119.787422,16.13409],[119.785149,16.134569],[119.783211,16.134121],[119.781754,16.13315],[119.781387,16.13287],[119.781387,16.133051],[119.78167,16.133329],[119.781387,16.13361],[119.781387,16.13389],[119.781113,16.134171],[119.78083,16.134171],[119.780281,16.13361],[119.779442,16.13361],[119.778893,16.133051],[119.77861,16.133051],[119.778343,16.13278],[119.778343,16.1325],[119.777847,16.13201],[119.777496,16.13167],[119.776657,16.13167],[119.775833,16.1325],[119.775833,16.13278],[119.775833,16.133801],[119.775757,16.135241],[119.775337,16.136669],[119.774696,16.138451],[119.774696,16.13974],[119.774841,16.14152],[119.774628,16.14234],[119.773331,16.14278],[119.772781,16.14333],[119.772499,16.14333],[119.771942,16.14389],[119.771667,16.14389],[119.771393,16.144171],[119.771393,16.14444],[119.771111,16.14472],[119.771111,16.145],[119.770554,16.145559],[119.770554,16.146111],[119.770279,16.146391],[119.770279,16.147499],[119.770073,16.14949],[119.769783,16.15188],[119.769707,16.154131],[119.769722,16.15556],[119.769722,16.156389],[119.769447,16.15667],[119.769447,16.157499],[119.769157,16.15778],[119.769157,16.158331],[119.769447,16.158609],[119.769447,16.15889],[119.769897,16.15934],[119.770844,16.16028],[119.771111,16.16028],[119.771667,16.16083],[119.771942,16.16083],[119.771942,16.161671],[119.772209,16.1619],[119.774239,16.163099],[119.776756,16.164379],[119.77771,16.166321],[119.779663,16.167669],[119.781601,16.167521],[119.784126,16.167891],[119.785713,16.16913],[119.786636,16.171261],[119.787209,16.171801],[119.788109,16.17256],[119.788933,16.17441]]]]}},{"type":"Feature","properties":{"ID_0":177,"ISO":"PHL","NAME_0":"Philippines","ID_1":1055,"NAME_1":"Pangasinan","ID_2":105501,"NAME_2":"Agno","ID_3":105501006,"NAME_3":"Cayungnan","NL_NAME_3":null,"VARNAME_3":null,"TYPE_3":"Barangay","ENGTYPE_3":"Village","PROVINCE":"Pangasinan","REGION":"Region I (Ilocos Region)","id":"barangay-0105501006","name":"Cayungnan","barangayCode":"0105501006","population":null,"formattedPop":null,"densityCategory":"No data","vulnerabilityRating":"No data","healthRiskLevel":"No data","areaKm2":8.704299,"centerLat":16.139287,"centerLng":119.833184,"geometrySource":"all_barangay-2.csv detailed WKT","geometryMatchMethod":"unique_official_admin_names","boundaryPointCount":68},"geometry":{"type":"MultiPolygon","coordinates":[[[[119.852997,16.153391],[119.852333,16.152479],[119.851723,16.15127],[119.851852,16.14926],[119.85228,16.146429],[119.852249,16.142429],[119.851959,16.13727],[119.852547,16.133141],[119.852699,16.13171],[119.853203,16.125759],[119.85408,16.12175],[119.854523,16.12104],[119.85379,16.12051],[119.853058,16.120171],[119.850807,16.118469],[119.848846,16.118891],[119.848106,16.11895],[119.84584,16.11993],[119.844917,16.120359],[119.842552,16.12188],[119.840668,16.12068],[119.839928,16.11957],[119.838409,16.11797],[119.835121,16.11747],[119.835167,16.117399],[119.833687,16.11631],[119.832031,16.117109],[119.831848,16.117941],[119.831703,16.11969],[119.832832,16.120649],[119.835083,16.122259],[119.835258,16.12286],[119.834007,16.124201],[119.831444,16.124559],[119.829277,16.125441],[119.828697,16.12657],[119.827507,16.127911],[119.826408,16.12845],[119.824997,16.128349],[119.824707,16.128799],[119.824577,16.130289],[119.825638,16.13195],[119.82444,16.13324],[119.823486,16.13377],[119.821877,16.13571],[119.821358,16.137501],[119.822411,16.139441],[119.823502,16.13995],[119.824127,16.14119],[119.824409,16.142509],[119.825111,16.143259],[119.824852,16.14407],[119.824799,16.144661],[119.825798,16.146299],[119.82592,16.1478],[119.826736,16.148411],[119.828484,16.149509],[119.829567,16.15019],[119.830254,16.151489],[119.831017,16.156891],[119.82859,16.160641],[119.83213,16.157801],[119.83506,16.15423],[119.839561,16.154301],[119.844757,16.155621],[119.846916,16.15443],[119.851913,16.15328],[119.852997,16.153391]]]]}},{"type":"Feature","properties":{"ID_0":177,"ISO":"PHL","NAME_0":"Philippines","ID_1":1055,"NAME_1":"Pangasinan","ID_2":105501,"NAME_2":"Agno","ID_3":105501007,"NAME_3":"Dangley","NL_NAME_3":null,"VARNAME_3":null,"TYPE_3":"Barangay","ENGTYPE_3":"Village","PROVINCE":"Pangasinan","REGION":"Region I (Ilocos Region)","id":"barangay-0105501007","name":"Dangley","barangayCode":"0105501007","population":null,"formattedPop":null,"densityCategory":"No data","vulnerabilityRating":"No data","healthRiskLevel":"No data","areaKm2":1.669857,"centerLat":16.112086,"centerLng":119.794585,"geometrySource":"all_barangay-2.csv detailed WKT","geometryMatchMethod":"unique_official_admin_names","boundaryPointCount":11},"geometry":{"type":"MultiPolygon","coordinates":[[[[119.803032,16.108999],[119.783287,16.10656],[119.784927,16.110609],[119.783257,16.115971],[119.785927,16.11586],[119.789917,16.116751],[119.793488,16.11944],[119.79567,16.116541],[119.798447,16.113171],[119.802528,16.109631],[119.803032,16.108999]]]]}},{"type":"Feature","properties":{"ID_0":177,"ISO":"PHL","NAME_0":"Philippines","ID_1":1055,"NAME_1":"Pangasinan","ID_2":105501,"NAME_2":"Agno","ID_3":105501009,"NAME_3":"Gayusan","NL_NAME_3":null,"VARNAME_3":null,"TYPE_3":"Barangay","ENGTYPE_3":"Village","PROVINCE":"Pangasinan","REGION":"Region I (Ilocos Region)","id":"barangay-0105501009","name":"Gayusan","barangayCode":"0105501009","population":null,"formattedPop":null,"densityCategory":"No data","vulnerabilityRating":"No data","healthRiskLevel":"No data","areaKm2":9.222813,"centerLat":16.051912,"centerLng":119.775162,"geometrySource":"all_barangay-2.csv detailed WKT","geometryMatchMethod":"unique_official_admin_names","boundaryPointCount":70},"geometry":{"type":"MultiPolygon","coordinates":[[[[119.794594,16.067419],[119.794601,16.0588],[119.79303,16.059151],[119.792267,16.059031],[119.791206,16.058479],[119.789284,16.056471],[119.789177,16.05582],[119.789597,16.0539],[119.789543,16.052389],[119.790154,16.04999],[119.79023,16.04808],[119.789993,16.04727],[119.789787,16.04528],[119.789558,16.04417],[119.787804,16.04368],[119.78656,16.04307],[119.788116,16.04133],[119.78894,16.040739],[119.788963,16.03985],[119.788254,16.03944],[119.787308,16.03919],[119.786537,16.03861],[119.785744,16.037109],[119.784286,16.035749],[119.783188,16.03594],[119.781013,16.03804],[119.780144,16.03895],[119.778442,16.03994],[119.776932,16.0401],[119.77565,16.039709],[119.774246,16.038309],[119.772881,16.035891],[119.770714,16.03513],[119.770554,16.03528],[119.769997,16.035561],[119.769997,16.03611],[119.767776,16.03833],[119.76667,16.038891],[119.764999,16.03944],[119.763893,16.039721],[119.76223,16.039841],[119.760002,16.040001],[119.7593,16.040171],[119.758339,16.04022],[119.758057,16.040831],[119.758057,16.04129],[119.758057,16.041389],[119.7575,16.041941],[119.7575,16.042219],[119.757042,16.042681],[119.756668,16.04306],[119.756668,16.04417],[119.756393,16.044451],[119.756393,16.045],[119.756111,16.04528],[119.756111,16.04537],[119.756393,16.0455],[119.756432,16.045521],[119.782387,16.06015],[119.782539,16.0613],[119.783241,16.063009],[119.784653,16.064859],[119.785202,16.06539],[119.786133,16.066759],[119.785667,16.069071],[119.7882,16.06991],[119.789452,16.06995],[119.79187,16.069099],[119.793716,16.067801],[119.794594,16.067419]]]]}},{"type":"Feature","properties":{"ID_0":177,"ISO":"PHL","NAME_0":"Philippines","ID_1":1055,"NAME_1":"Pangasinan","ID_2":105501,"NAME_2":"Agno","ID_3":105501010,"NAME_3":"Macaboboni","NL_NAME_3":null,"VARNAME_3":null,"TYPE_3":"Barangay","ENGTYPE_3":"Village","PROVINCE":"Pangasinan","REGION":"Region I (Ilocos Region)","id":"barangay-0105501010","name":"Macaboboni","barangayCode":"0105501010","population":null,"formattedPop":null,"densityCategory":"No data","vulnerabilityRating":"No data","healthRiskLevel":"No data","areaKm2":13.788424,"centerLat":16.182714,"centerLng":119.773815,"geometrySource":"all_barangay-2.csv detailed WKT","geometryMatchMethod":"unique_official_admin_names","boundaryPointCount":138},"geometry":{"type":"MultiPolygon","coordinates":[[[[119.763046,16.2045],[119.763512,16.20451],[119.768883,16.202339],[119.774384,16.2013],[119.77774,16.200069],[119.781593,16.197941],[119.785667,16.194889],[119.78833,16.192341],[119.788307,16.191151],[119.789902,16.18992],[119.793747,16.18763],[119.795189,16.186649],[119.794907,16.18384],[119.793007,16.183319],[119.792137,16.18185],[119.791428,16.18049],[119.790321,16.177971],[119.789124,16.17609],[119.788933,16.17441],[119.788109,16.17256],[119.787209,16.171801],[119.786636,16.171261],[119.785713,16.16913],[119.784126,16.167891],[119.781601,16.167521],[119.779663,16.167669],[119.77771,16.166321],[119.776756,16.164379],[119.774239,16.163099],[119.772209,16.1619],[119.772217,16.161949],[119.771942,16.16222],[119.771942,16.1625],[119.771667,16.162781],[119.771667,16.163059],[119.771393,16.16333],[119.771393,16.16361],[119.770279,16.164721],[119.770103,16.164721],[119.769997,16.164721],[119.769447,16.165279],[119.769157,16.165279],[119.76889,16.16556],[119.768608,16.16556],[119.768333,16.165831],[119.766937,16.165831],[119.76667,16.16556],[119.766113,16.16556],[119.765831,16.165831],[119.760559,16.165831],[119.760277,16.166109],[119.758423,16.166109],[119.758331,16.166109],[119.757767,16.165831],[119.755836,16.163891],[119.755722,16.163891],[119.755547,16.163891],[119.75528,16.16361],[119.754997,16.163891],[119.754723,16.163891],[119.754448,16.164169],[119.753891,16.16444],[119.753891,16.16556],[119.754173,16.166109],[119.754173,16.16667],[119.754448,16.166941],[119.754448,16.167219],[119.754997,16.16778],[119.754997,16.16806],[119.75528,16.168329],[119.75528,16.16861],[119.754723,16.16917],[119.754448,16.16917],[119.754173,16.169451],[119.754173,16.16972],[119.753891,16.16972],[119.753326,16.17028],[119.753326,16.17083],[119.754517,16.17202],[119.75528,16.172779],[119.75528,16.173059],[119.755547,16.17333],[119.755547,16.173611],[119.755836,16.173889],[119.755836,16.17417],[119.756668,16.174999],[119.756668,16.17528],[119.7575,16.176109],[119.7575,16.17639],[119.757767,16.17639],[119.758614,16.177219],[119.758614,16.1775],[119.758331,16.17778],[119.758331,16.178049],[119.759163,16.17889],[119.759163,16.180281],[119.759453,16.180559],[119.759453,16.18083],[119.760002,16.181391],[119.760002,16.183331],[119.759453,16.183889],[119.759453,16.184071],[119.759453,16.184719],[119.759163,16.184999],[119.759163,16.18528],[119.758614,16.185829],[119.758614,16.18722],[119.758331,16.1875],[119.758331,16.18889],[119.758614,16.189171],[119.758614,16.190001],[119.758331,16.190281],[119.758331,16.19083],[119.758057,16.191111],[119.758057,16.194719],[119.758331,16.195],[119.758331,16.195551],[119.758614,16.195829],[119.758614,16.19611],[119.758774,16.19628],[119.75972,16.19722],[119.75972,16.1975],[119.760002,16.197781],[119.760002,16.198059],[119.760277,16.19833],[119.760277,16.19861],[119.761108,16.19944],[119.761391,16.19944],[119.761948,16.200001],[119.761948,16.200279],[119.763046,16.201389],[119.763046,16.20167],[119.763611,16.202221],[119.763611,16.203329],[119.763344,16.203609],[119.763344,16.20389],[119.763046,16.20417],[119.763046,16.2045]]]]}},{"type":"Feature","properties":{"ID_0":177,"ISO":"PHL","NAME_0":"Philippines","ID_1":1055,"NAME_1":"Pangasinan","ID_2":105501,"NAME_2":"Agno","ID_3":105501011,"NAME_3":"Magsaysay","NL_NAME_3":null,"VARNAME_3":null,"TYPE_3":"Barangay","ENGTYPE_3":"Village","PROVINCE":"Pangasinan","REGION":"Region I (Ilocos Region)","id":"barangay-0105501011","name":"Magsaysay","barangayCode":"0105501011","population":null,"formattedPop":null,"densityCategory":"No data","vulnerabilityRating":"No data","healthRiskLevel":"No data","areaKm2":18.392449,"centerLat":16.093656,"centerLng":119.799338,"geometrySource":"all_barangay-2.csv detailed WKT","geometryMatchMethod":"unique_official_admin_names","boundaryPointCount":78},"geometry":{"type":"MultiPolygon","coordinates":[[[[119.803032,16.108999],[119.80452,16.107491],[119.8069,16.105089],[119.807549,16.10475],[119.809067,16.102871],[119.81089,16.083561],[119.810287,16.082581],[119.809128,16.08087],[119.807869,16.079069],[119.806717,16.07712],[119.805923,16.07556],[119.805344,16.07509],[119.803284,16.07575],[119.802513,16.0763],[119.801849,16.078051],[119.800247,16.081141],[119.800262,16.083651],[119.800133,16.08522],[119.799507,16.08687],[119.797829,16.0874],[119.795883,16.08707],[119.794792,16.08638],[119.794197,16.084511],[119.792343,16.084379],[119.790817,16.085131],[119.788002,16.0856],[119.786484,16.08437],[119.784714,16.084],[119.782547,16.084061],[119.780853,16.082689],[119.779648,16.081909],[119.778137,16.08041],[119.776993,16.079519],[119.774971,16.079531],[119.774139,16.08024],[119.773552,16.08012],[119.771591,16.08012],[119.769661,16.081539],[119.76918,16.083269],[119.76828,16.08544],[119.768219,16.08551],[119.768463,16.0858],[119.768608,16.08667],[119.768608,16.088329],[119.768333,16.08861],[119.768333,16.08917],[119.768059,16.089451],[119.768059,16.090561],[119.767776,16.09083],[119.767776,16.091391],[119.767502,16.091669],[119.767502,16.09222],[119.76722,16.092501],[119.76722,16.092779],[119.766937,16.09306],[119.766937,16.09333],[119.76667,16.093611],[119.76667,16.093889],[119.765831,16.094721],[119.765831,16.094999],[119.765556,16.09528],[119.765556,16.09556],[119.764999,16.096109],[119.764999,16.09639],[119.764168,16.097219],[119.763611,16.09778],[119.763611,16.098061],[119.763344,16.09833],[119.763344,16.09861],[119.763046,16.09889],[119.763046,16.099171],[119.762497,16.09972],[119.762497,16.1],[119.762001,16.10137],[119.761787,16.103149],[119.761864,16.10409],[119.783287,16.10656],[119.803032,16.108999]]]]}},{"type":"Feature","properties":{"ID_0":177,"ISO":"PHL","NAME_0":"Philippines","ID_1":1055,"NAME_1":"Pangasinan","ID_2":105501,"NAME_2":"Agno","ID_3":105501012,"NAME_3":"Namatucan","NL_NAME_3":null,"VARNAME_3":null,"TYPE_3":"Barangay","ENGTYPE_3":"Village","PROVINCE":"Pangasinan","REGION":"Region I (Ilocos Region)","id":"barangay-0105501012","name":"Namatucan","barangayCode":"0105501012","population":null,"formattedPop":null,"densityCategory":"No data","vulnerabilityRating":"No data","healthRiskLevel":"No data","areaKm2":20.369645,"centerLat":16.052521,"centerLng":119.810783,"geometrySource":"all_barangay-2.csv detailed WKT","geometryMatchMethod":"unique_official_admin_names","boundaryPointCount":54},"geometry":{"type":"MultiPolygon","coordinates":[[[[119.774971,16.079531],[119.776993,16.079519],[119.778137,16.08041],[119.779648,16.081909],[119.780853,16.082689],[119.782547,16.084061],[119.784714,16.084],[119.786484,16.08437],[119.788002,16.0856],[119.790817,16.085131],[119.792343,16.084379],[119.794197,16.084511],[119.794792,16.08638],[119.795883,16.08707],[119.797829,16.0874],[119.799507,16.08687],[119.800133,16.08522],[119.800262,16.083651],[119.800247,16.081141],[119.801849,16.078051],[119.802513,16.0763],[119.803284,16.07575],[119.805344,16.07509],[119.805923,16.07556],[119.806717,16.07712],[119.807869,16.079069],[119.809128,16.08087],[119.810287,16.082581],[119.811317,16.07559],[119.812202,16.074421],[119.80735,16.056761],[119.806152,16.056959],[119.804543,16.06049],[119.803947,16.062201],[119.803268,16.06539],[119.802406,16.06757],[119.80056,16.06781],[119.798782,16.06778],[119.795593,16.06764],[119.794594,16.067419],[119.793716,16.067801],[119.79187,16.069099],[119.789452,16.06995],[119.7882,16.06991],[119.785667,16.069071],[119.785057,16.06991],[119.783096,16.070749],[119.781189,16.071711],[119.778999,16.07365],[119.778191,16.07543],[119.777153,16.07618],[119.775299,16.07863],[119.774803,16.07947],[119.774971,16.079531]]]]}},{"type":"Feature","properties":{"ID_0":177,"ISO":"PHL","NAME_0":"Philippines","ID_1":1055,"NAME_1":"Pangasinan","ID_2":105501,"NAME_2":"Agno","ID_3":105501013,"NAME_3":"Patar","NL_NAME_3":null,"VARNAME_3":null,"TYPE_3":"Barangay","ENGTYPE_3":"Village","PROVINCE":"Pangasinan","REGION":"Region I (Ilocos Region)","id":"barangay-0105501013","name":"Patar","barangayCode":"0105501013","population":null,"formattedPop":null,"densityCategory":"No data","vulnerabilityRating":"No data","healthRiskLevel":"No data","areaKm2":19.677412,"centerLat":16.158819,"centerLng":119.809552,"geometrySource":"all_barangay-2.csv detailed WKT","geometryMatchMethod":"unique_official_admin_names","boundaryPointCount":57},"geometry":{"type":"MultiPolygon","coordinates":[[[[119.799728,16.18148],[119.802223,16.176689],[119.807854,16.172621],[119.81395,16.16938],[119.818153,16.16732],[119.822006,16.165279],[119.825577,16.16293],[119.82859,16.160641],[119.831017,16.156891],[119.830254,16.151489],[119.829567,16.15019],[119.828484,16.149509],[119.826736,16.148411],[119.82592,16.1478],[119.825798,16.146299],[119.824799,16.144661],[119.824852,16.14407],[119.825111,16.143259],[119.824409,16.142509],[119.824127,16.14119],[119.823502,16.13995],[119.822411,16.139441],[119.822159,16.13979],[119.821617,16.1411],[119.820824,16.14249],[119.81929,16.14319],[119.817352,16.14238],[119.815964,16.1423],[119.813477,16.14147],[119.812332,16.140921],[119.810219,16.14068],[119.80822,16.13994],[119.803688,16.138041],[119.80143,16.137239],[119.798897,16.135929],[119.797211,16.13637],[119.794327,16.138531],[119.791023,16.14135],[119.790024,16.14496],[119.788673,16.149731],[119.787842,16.15353],[119.787857,16.158079],[119.78933,16.161501],[119.790932,16.16456],[119.791321,16.167339],[119.789864,16.17087],[119.788979,16.173059],[119.788933,16.17441],[119.789124,16.17609],[119.790321,16.177971],[119.791428,16.18049],[119.792137,16.18185],[119.793007,16.183319],[119.794907,16.18384],[119.795189,16.186649],[119.798042,16.18387],[119.799728,16.18148]]]]}},{"type":"Feature","properties":{"ID_0":177,"ISO":"PHL","NAME_0":"Philippines","ID_1":1055,"NAME_1":"Pangasinan","ID_2":105501,"NAME_2":"Agno","ID_3":105501014,"NAME_3":"Poblacion East","NL_NAME_3":null,"VARNAME_3":null,"TYPE_3":"Barangay","ENGTYPE_3":"Village","PROVINCE":"Pangasinan","REGION":"Region I (Ilocos Region)","id":"barangay-0105501014","name":"Poblacion East","barangayCode":"0105501014","population":null,"formattedPop":null,"densityCategory":"No data","vulnerabilityRating":"No data","healthRiskLevel":"No data","areaKm2":0.777497,"centerLat":16.116047,"centerLng":119.802446,"geometrySource":"all_barangay-2.csv detailed WKT","geometryMatchMethod":"unique_official_admin_names","boundaryPointCount":20},"geometry":{"type":"MultiPolygon","coordinates":[[[[119.80822,16.13994],[119.810219,16.14068],[119.812332,16.140921],[119.813477,16.14147],[119.815964,16.1423],[119.816849,16.140261],[119.817322,16.137449],[119.817299,16.13364],[119.817596,16.12282],[119.817802,16.118999],[119.819077,16.113701],[119.819199,16.10989],[119.820602,16.105631],[119.819901,16.104191],[119.818497,16.102289],[119.815781,16.101271],[119.813904,16.1012],[119.809067,16.102871],[119.807549,16.10475],[119.80822,16.13994]]]]}},{"type":"Feature","properties":{"ID_0":177,"ISO":"PHL","NAME_0":"Philippines","ID_1":1055,"NAME_1":"Pangasinan","ID_2":105501,"NAME_2":"Agno","ID_3":105501015,"NAME_3":"Poblacion West","NL_NAME_3":null,"VARNAME_3":null,"TYPE_3":"Barangay","ENGTYPE_3":"Village","PROVINCE":"Pangasinan","REGION":"Region I (Ilocos Region)","id":"barangay-0105501015","name":"Poblacion West","barangayCode":"0105501015","population":null,"formattedPop":null,"densityCategory":"No data","vulnerabilityRating":"No data","healthRiskLevel":"No data","areaKm2":0.669623,"centerLat":16.121063,"centerLng":119.795231,"geometrySource":"all_barangay-2.csv detailed WKT","geometryMatchMethod":"unique_official_admin_names","boundaryPointCount":26},"geometry":{"type":"MultiPolygon","coordinates":[[[[119.803688,16.138041],[119.80822,16.13994],[119.807549,16.10475],[119.8069,16.105089],[119.80452,16.107491],[119.803032,16.108999],[119.802528,16.109631],[119.798447,16.113171],[119.79567,16.116541],[119.793488,16.11944],[119.791107,16.12307],[119.789467,16.12689],[119.789337,16.12842],[119.789261,16.12863],[119.789864,16.12838],[119.79155,16.127081],[119.794167,16.12513],[119.79628,16.1255],[119.797462,16.1276],[119.799301,16.130951],[119.800087,16.132641],[119.801178,16.133221],[119.802071,16.133579],[119.803482,16.136141],[119.803978,16.137569],[119.803688,16.138041]]]]}},{"type":"Feature","properties":{"ID_0":177,"ISO":"PHL","NAME_0":"Philippines","ID_1":1055,"NAME_1":"Pangasinan","ID_2":105501,"NAME_2":"Agno","ID_3":105501016,"NAME_3":"San Juan","NL_NAME_3":null,"VARNAME_3":null,"TYPE_3":"Barangay","ENGTYPE_3":"Village","PROVINCE":"Pangasinan","REGION":"Region I (Ilocos Region)","id":"barangay-0105501016","name":"San Juan","barangayCode":"0105501016","population":null,"formattedPop":null,"densityCategory":"No data","vulnerabilityRating":"No data","healthRiskLevel":"No data","areaKm2":5.694048,"centerLat":16.088413,"centerLng":119.838835,"geometrySource":"all_barangay-2.csv detailed WKT","geometryMatchMethod":"unique_official_admin_names","boundaryPointCount":45},"geometry":{"type":"MultiPolygon","coordinates":[[[[119.820602,16.105631],[119.820824,16.105511],[119.821793,16.10618],[119.825508,16.108351],[119.827904,16.108601],[119.828262,16.107599],[119.828621,16.10709],[119.829063,16.10294],[119.829063,16.10062],[119.829483,16.09605],[119.829536,16.095011],[119.83152,16.0933],[119.832222,16.093719],[119.832336,16.094049],[119.833931,16.09639],[119.83696,16.100149],[119.841698,16.10129],[119.843849,16.1008],[119.846672,16.09874],[119.847527,16.097601],[119.850128,16.09474],[119.851669,16.093399],[119.852257,16.093081],[119.853073,16.09201],[119.850777,16.090031],[119.845619,16.08474],[119.836433,16.07513],[119.827164,16.066919],[119.818222,16.05842],[119.809601,16.050489],[119.80732,16.0478],[119.804443,16.044411],[119.805069,16.04727],[119.807037,16.05422],[119.80735,16.056761],[119.812202,16.074421],[119.811317,16.07559],[119.810287,16.082581],[119.81089,16.083561],[119.809067,16.102871],[119.813904,16.1012],[119.815781,16.101271],[119.818497,16.102289],[119.819901,16.104191],[119.820602,16.105631]]]]}},{"type":"Feature","properties":{"ID_0":177,"ISO":"PHL","NAME_0":"Philippines","ID_1":1055,"NAME_1":"Pangasinan","ID_2":105501,"NAME_2":"Agno","ID_3":105501017,"NAME_3":"Tupa","NL_NAME_3":null,"VARNAME_3":null,"TYPE_3":"Barangay","ENGTYPE_3":"Village","PROVINCE":"Pangasinan","REGION":"Region I (Ilocos Region)","id":"barangay-0105501017","name":"Tupa","barangayCode":"0105501017","population":null,"formattedPop":null,"densityCategory":"No data","vulnerabilityRating":"No data","healthRiskLevel":"No data","areaKm2":7.487696,"centerLat":16.075228,"centerLng":119.778015,"geometrySource":"all_barangay-2.csv detailed WKT","geometryMatchMethod":"unique_official_admin_names","boundaryPointCount":71},"geometry":{"type":"MultiPolygon","coordinates":[[[[119.774971,16.079531],[119.774803,16.07947],[119.775299,16.07863],[119.777153,16.07618],[119.778191,16.07543],[119.778999,16.07365],[119.781189,16.071711],[119.783096,16.070749],[119.785057,16.06991],[119.785667,16.069071],[119.786133,16.066759],[119.785202,16.06539],[119.784653,16.064859],[119.783241,16.063009],[119.782539,16.0613],[119.782387,16.06015],[119.756432,16.045521],[119.756393,16.0455],[119.756111,16.04537],[119.756111,16.04583],[119.755836,16.04611],[119.755836,16.046671],[119.755493,16.047819],[119.755417,16.04953],[119.755562,16.051649],[119.755943,16.052679],[119.756477,16.054171],[119.757607,16.056971],[119.7593,16.059219],[119.760147,16.06072],[119.760361,16.061819],[119.760361,16.062639],[119.760849,16.063459],[119.761673,16.06444],[119.761948,16.06472],[119.761948,16.065281],[119.762497,16.06583],[119.762497,16.066111],[119.762779,16.066389],[119.762779,16.066669],[119.763046,16.06694],[119.763046,16.067221],[119.763611,16.06778],[119.763611,16.06806],[119.763893,16.068331],[119.764236,16.06958],[119.764809,16.070259],[119.764999,16.07139],[119.764999,16.0725],[119.764717,16.07472],[119.764717,16.075279],[119.764442,16.07556],[119.764442,16.076389],[119.764168,16.07667],[119.764168,16.078329],[119.763771,16.07954],[119.76384,16.08029],[119.764191,16.08132],[119.764999,16.0825],[119.765556,16.083059],[119.765556,16.08333],[119.767113,16.08478],[119.768173,16.085461],[119.768219,16.08551],[119.76828,16.08544],[119.76918,16.083269],[119.769661,16.081539],[119.771591,16.08012],[119.773552,16.08012],[119.774139,16.08024],[119.774971,16.079531]]]]}},{"type":"Feature","properties":{"ID_0":177,"ISO":"PHL","NAME_0":"Philippines","ID_1":1055,"NAME_1":"Pangasinan","ID_2":105501,"NAME_2":"Agno","ID_3":105501018,"NAME_3":"Viga","NL_NAME_3":null,"VARNAME_3":null,"TYPE_3":"Barangay","ENGTYPE_3":"Village","PROVINCE":"Pangasinan","REGION":"Region I (Ilocos Region)","id":"barangay-0105501018","name":"Viga","barangayCode":"0105501018","population":null,"formattedPop":null,"densityCategory":"No data","vulnerabilityRating":"No data","healthRiskLevel":"No data","areaKm2":12.374218,"centerLat":16.120801,"centerLng":119.858293,"geometrySource":"all_barangay-2.csv detailed WKT","geometryMatchMethod":"unique_official_admin_names","boundaryPointCount":42},"geometry":{"type":"MultiPolygon","coordinates":[[[[119.876259,16.148411],[119.881393,16.144251],[119.882088,16.143511],[119.883583,16.14147],[119.886711,16.13764],[119.888458,16.134781],[119.888702,16.12924],[119.888359,16.12631],[119.886276,16.12364],[119.882004,16.119431],[119.879646,16.11694],[119.873848,16.11124],[119.862587,16.099991],[119.861748,16.100981],[119.861809,16.10191],[119.861877,16.103769],[119.860924,16.10499],[119.860207,16.10545],[119.858978,16.106661],[119.857986,16.109301],[119.85778,16.11273],[119.857712,16.114389],[119.856277,16.11726],[119.854523,16.12104],[119.85408,16.12175],[119.853203,16.125759],[119.852699,16.13171],[119.852547,16.133141],[119.851959,16.13727],[119.852249,16.142429],[119.85228,16.146429],[119.851852,16.14926],[119.851723,16.15127],[119.852333,16.152479],[119.852997,16.153391],[119.85762,16.152901],[119.859329,16.152349],[119.86422,16.151501],[119.867104,16.150499],[119.870773,16.15037],[119.873917,16.14962],[119.876259,16.148411]]]]}}]}
