{"type":"FeatureCollection","features":[{"type":"Feature","properties":{"ID_0":177,"ISO":"PHL","NAME_0":"Philippines","ID_1":3069,"NAME_1":"Tarlac","ID_2":306917,"NAME_2":"Victoria","ID_3":306917001,"NAME_3":"Baculong","NL_NAME_3":null,"VARNAME_3":null,"TYPE_3":"Barangay","ENGTYPE_3":"Village","PROVINCE":"Tarlac","REGION":"Region III (Central Luzon)","id":"barangay-0306917001","name":"Baculong","barangayCode":"0306917001","population":null,"formattedPop":null,"densityCategory":"No data","vulnerabilityRating":"No data","healthRiskLevel":"No data","areaKm2":8.482079,"centerLat":15.54017,"centerLng":120.64873,"geometrySource":"all_barangay-2.csv detailed WKT","geometryMatchMethod":"unique_official_admin_names","boundaryPointCount":79},"geometry":{"type":"MultiPolygon","coordinates":[[[[120.640022,15.56702],[120.641167,15.56625],[120.642632,15.56454],[120.644157,15.56284],[120.645927,15.56138],[120.648354,15.55942],[120.649597,15.55834],[120.650749,15.55742],[120.651237,15.55752],[120.651642,15.55743],[120.652184,15.55736],[120.652847,15.55734],[120.653252,15.55703],[120.653526,15.55597],[120.653877,15.55507],[120.654556,15.55426],[120.655128,15.55372],[120.656021,15.55346],[120.656754,15.55299],[120.658257,15.55146],[120.659286,15.54895],[120.659958,15.5476],[120.660522,15.54646],[120.661392,15.54521],[120.66272,15.54322],[120.663353,15.54228],[120.663612,15.54159],[120.66362,15.54045],[120.662033,15.5399],[120.661217,15.53927],[120.660606,15.5377],[120.659378,15.53655],[120.658401,15.53498],[120.657593,15.53366],[120.656593,15.53259],[120.655273,15.5318],[120.653198,15.53093],[120.651558,15.5312],[120.650902,15.53117],[120.650047,15.53086],[120.649017,15.53073],[120.648407,15.53165],[120.648132,15.53265],[120.647186,15.53397],[120.64576,15.53529],[120.644974,15.53595],[120.644531,15.53702],[120.642151,15.539],[120.640213,15.53946],[120.638817,15.53966],[120.638397,15.5399],[120.636833,15.53977],[120.635612,15.53981],[120.634407,15.54001],[120.632896,15.54067],[120.63118,15.54175],[120.630524,15.54174],[120.629913,15.54186],[120.628853,15.54268],[120.628372,15.54434],[120.627907,15.54672],[120.627373,15.54885],[120.626801,15.55075],[120.625877,15.55222],[120.624313,15.55387],[120.626251,15.55379],[120.627281,15.55368],[120.628639,15.55404],[120.629883,15.55476],[120.630821,15.55598],[120.631409,15.55762],[120.631943,15.55891],[120.632729,15.56006],[120.633659,15.5609],[120.635872,15.56248],[120.637321,15.56353],[120.638023,15.56432],[120.639107,15.56583],[120.640022,15.56702]]]]}},{"type":"Feature","properties":{"ID_0":177,"ISO":"PHL","NAME_0":"Philippines","ID_1":3069,"NAME_1":"Tarlac","ID_2":306917,"NAME_2":"Victoria","ID_3":306917002,"NAME_3":"Balayang","NL_NAME_3":null,"VARNAME_3":null,"TYPE_3":"Barangay","ENGTYPE_3":"Village","PROVINCE":"Tarlac","REGION":"Region III (Central Luzon)","id":"barangay-0306917002","name":"Balayang","barangayCode":"0306917002","population":null,"formattedPop":null,"densityCategory":"No data","vulnerabilityRating":"No data","healthRiskLevel":"No data","areaKm2":9.3523,"centerLat":15.541652,"centerLng":120.712884,"geometrySource":"all_barangay-2.csv detailed WKT","geometryMatchMethod":"unique_official_admin_names","boundaryPointCount":62},"geometry":{"type":"MultiPolygon","coordinates":[[[[120.728668,15.56322],[120.728157,15.56141],[120.727783,15.55946],[120.726784,15.5582],[120.725693,15.55752],[120.724693,15.55666],[120.724327,15.55506],[120.724487,15.55403],[120.724541,15.55268],[120.723419,15.55131],[120.722366,15.55019],[120.722031,15.54875],[120.722343,15.54765],[120.722603,15.54727],[120.723686,15.54635],[120.726028,15.54454],[120.727127,15.54389],[120.728127,15.54364],[120.729393,15.54236],[120.729691,15.54159],[120.729881,15.54039],[120.729752,15.53921],[120.729874,15.53798],[120.730476,15.5375],[120.731911,15.53657],[120.733231,15.53573],[120.733673,15.53502],[120.733597,15.53477],[120.726624,15.53463],[120.725502,15.53393],[120.724541,15.53385],[120.723373,15.53375],[120.722038,15.53322],[120.721123,15.53253],[120.719467,15.53116],[120.717758,15.53106],[120.716507,15.53046],[120.715561,15.53007],[120.71434,15.53016],[120.713661,15.53003],[120.712448,15.52901],[120.711617,15.5318],[120.702667,15.5438],[120.698677,15.54933],[120.696823,15.5589],[120.695618,15.5607],[120.697327,15.56092],[120.698624,15.56103],[120.700996,15.56164],[120.702522,15.56176],[120.704964,15.5619],[120.708023,15.56227],[120.710732,15.56293],[120.713257,15.56321],[120.716164,15.56391],[120.718231,15.56407],[120.719658,15.56377],[120.721581,15.5634],[120.722977,15.5636],[120.724739,15.56339],[120.726852,15.56303],[120.728668,15.56322]]]]}},{"type":"Feature","properties":{"ID_0":177,"ISO":"PHL","NAME_0":"Philippines","ID_1":3069,"NAME_1":"Tarlac","ID_2":306917,"NAME_2":"Victoria","ID_3":306917003,"NAME_3":"Balbaloto","NL_NAME_3":null,"VARNAME_3":null,"TYPE_3":"Barangay","ENGTYPE_3":"Village","PROVINCE":"Tarlac","REGION":"Region III (Central Luzon)","id":"barangay-0306917003","name":"Balbaloto","barangayCode":"0306917003","population":null,"formattedPop":null,"densityCategory":"No data","vulnerabilityRating":"No data","healthRiskLevel":"No data","areaKm2":2.240466,"centerLat":15.608232,"centerLng":120.659138,"geometrySource":"all_barangay-2.csv detailed WKT","geometryMatchMethod":"unique_official_admin_names","boundaryPointCount":35},"geometry":{"type":"MultiPolygon","coordinates":[[[[120.667023,15.62567],[120.671623,15.6122],[120.670372,15.6119],[120.668663,15.61144],[120.667397,15.61125],[120.666473,15.61119],[120.665039,15.61121],[120.663582,15.61132],[120.662727,15.61141],[120.659973,15.61132],[120.658173,15.61074],[120.654968,15.60987],[120.651718,15.60842],[120.64994,15.60782],[120.647247,15.60695],[120.647667,15.60828],[120.64769,15.60977],[120.647591,15.61132],[120.647423,15.61367],[120.647903,15.61505],[120.648392,15.61577],[120.649467,15.6172],[120.650101,15.61805],[120.650963,15.61934],[120.651894,15.62098],[120.652687,15.62225],[120.653572,15.62351],[120.654556,15.62406],[120.656197,15.62435],[120.657402,15.62471],[120.658592,15.62495],[120.660683,15.62517],[120.662491,15.62577],[120.665253,15.62597],[120.667023,15.62567]]]]}},{"type":"Feature","properties":{"ID_0":177,"ISO":"PHL","NAME_0":"Philippines","ID_1":3069,"NAME_1":"Tarlac","ID_2":306917,"NAME_2":"Victoria","ID_3":306917004,"NAME_3":"Bangar","NL_NAME_3":null,"VARNAME_3":null,"TYPE_3":"Barangay","ENGTYPE_3":"Village","PROVINCE":"Tarlac","REGION":"Region III (Central Luzon)","id":"barangay-0306917004","name":"Bangar","barangayCode":"0306917004","population":null,"formattedPop":null,"densityCategory":"No data","vulnerabilityRating":"No data","healthRiskLevel":"No data","areaKm2":3.063832,"centerLat":15.596246,"centerLng":120.665223,"geometrySource":"all_barangay-2.csv detailed WKT","geometryMatchMethod":"unique_official_admin_names","boundaryPointCount":33},"geometry":{"type":"MultiPolygon","coordinates":[[[[120.647247,15.60695],[120.64994,15.60782],[120.651718,15.60842],[120.654968,15.60987],[120.658173,15.61074],[120.659973,15.61132],[120.662727,15.61141],[120.663582,15.61132],[120.665039,15.61121],[120.666473,15.61119],[120.667397,15.61125],[120.668663,15.61144],[120.670372,15.6119],[120.671623,15.6122],[120.67292,15.60902],[120.674088,15.60539],[120.678627,15.59553],[120.678017,15.59505],[120.677597,15.59465],[120.6763,15.59291],[120.675461,15.59238],[120.674591,15.59237],[120.673683,15.5923],[120.670959,15.5923],[120.670189,15.59344],[120.669128,15.59369],[120.668404,15.59421],[120.665833,15.59565],[120.66024,15.59885],[120.656929,15.60082],[120.653954,15.603],[120.646637,15.6059],[120.647247,15.60695]]]]}},{"type":"Feature","properties":{"ID_0":177,"ISO":"PHL","NAME_0":"Philippines","ID_1":3069,"NAME_1":"Tarlac","ID_2":306917,"NAME_2":"Victoria","ID_3":306917005,"NAME_3":"Bantog","NL_NAME_3":null,"VARNAME_3":null,"TYPE_3":"Barangay","ENGTYPE_3":"Village","PROVINCE":"Tarlac","REGION":"Region III (Central Luzon)","id":"barangay-0306917005","name":"Bantog","barangayCode":"0306917005","population":null,"formattedPop":null,"densityCategory":"No data","vulnerabilityRating":"No data","healthRiskLevel":"No data","areaKm2":6.120333,"centerLat":15.615871,"centerLng":120.68329,"geometrySource":"all_barangay-2.csv detailed WKT","geometryMatchMethod":"unique_official_admin_names","boundaryPointCount":38},"geometry":{"type":"MultiPolygon","coordinates":[[[[120.681137,15.63576],[120.68454,15.63239],[120.692284,15.62452],[120.693588,15.6231],[120.695129,15.62118],[120.696907,15.61951],[120.697479,15.61854],[120.697304,15.61749],[120.697144,15.61638],[120.696701,15.61554],[120.696297,15.61497],[120.695717,15.61468],[120.694031,15.61455],[120.69265,15.61455],[120.691528,15.61428],[120.689941,15.61382],[120.688553,15.61338],[120.687309,15.61314],[120.68544,15.61268],[120.684319,15.61255],[120.683189,15.6129],[120.681709,15.61347],[120.680351,15.61367],[120.679298,15.61388],[120.678253,15.61345],[120.677261,15.61292],[120.675636,15.61317],[120.673637,15.61233],[120.671623,15.6122],[120.667023,15.62567],[120.669533,15.62647],[120.671593,15.62714],[120.672791,15.6279],[120.674309,15.6291],[120.676018,15.63053],[120.678001,15.63262],[120.680069,15.63503],[120.681137,15.63576]]]]}},{"type":"Feature","properties":{"ID_0":177,"ISO":"PHL","NAME_0":"Philippines","ID_1":3069,"NAME_1":"Tarlac","ID_2":306917,"NAME_2":"Victoria","ID_3":306917006,"NAME_3":"Batangbatang","NL_NAME_3":null,"VARNAME_3":null,"TYPE_3":"Barangay","ENGTYPE_3":"Village","PROVINCE":"Tarlac","REGION":"Region III (Central Luzon)","id":"barangay-0306917006","name":"Batangbatang","barangayCode":"0306917006","population":null,"formattedPop":null,"densityCategory":"No data","vulnerabilityRating":"No data","healthRiskLevel":"No data","areaKm2":1.589334,"centerLat":15.535546,"centerLng":120.68864,"geometrySource":"all_barangay-2.csv detailed WKT","geometryMatchMethod":"unique_official_admin_names","boundaryPointCount":24},"geometry":{"type":"MultiPolygon","coordinates":[[[[120.683022,15.54402],[120.684822,15.54461],[120.685638,15.54466],[120.687042,15.545],[120.689293,15.54622],[120.691833,15.54712],[120.69384,15.5483],[120.696007,15.54909],[120.698677,15.54933],[120.702667,15.5438],[120.700729,15.54305],[120.699348,15.54207],[120.697502,15.5408],[120.695686,15.53936],[120.694191,15.53805],[120.69223,15.53665],[120.690201,15.53534],[120.688728,15.5344],[120.686531,15.53341],[120.685837,15.53533],[120.684776,15.53808],[120.684113,15.53971],[120.683403,15.5421],[120.683022,15.54402]]]]}},{"type":"Feature","properties":{"ID_0":177,"ISO":"PHL","NAME_0":"Philippines","ID_1":3069,"NAME_1":"Tarlac","ID_2":306917,"NAME_2":"Victoria","ID_3":306917007,"NAME_3":"Bulo","NL_NAME_3":null,"VARNAME_3":null,"TYPE_3":"Barangay","ENGTYPE_3":"Village","PROVINCE":"Tarlac","REGION":"Region III (Central Luzon)","id":"barangay-0306917007","name":"Bulo","barangayCode":"0306917007","population":null,"formattedPop":null,"densityCategory":"No data","vulnerabilityRating":"No data","healthRiskLevel":"No data","areaKm2":2.996271,"centerLat":15.566439,"centerLng":120.664875,"geometrySource":"all_barangay-2.csv detailed WKT","geometryMatchMethod":"unique_official_admin_names","boundaryPointCount":39},"geometry":{"type":"MultiPolygon","coordinates":[[[[120.673523,15.57871],[120.672859,15.5778],[120.672577,15.57704],[120.672447,15.57628],[120.672798,15.57538],[120.67334,15.57476],[120.678238,15.57061],[120.680923,15.56861],[120.679893,15.56756],[120.678703,15.56693],[120.677292,15.56621],[120.676376,15.56592],[120.675346,15.56561],[120.673782,15.56486],[120.672943,15.56445],[120.671432,15.56354],[120.668983,15.56569],[120.667313,15.5667],[120.666069,15.5675],[120.663811,15.56865],[120.661629,15.56994],[120.659523,15.57135],[120.658669,15.57189],[120.657982,15.57308],[120.656517,15.5743],[120.65535,15.57529],[120.654297,15.57757],[120.656616,15.57884],[120.658257,15.57968],[120.659866,15.58036],[120.661713,15.58115],[120.663399,15.58181],[120.665993,15.58282],[120.668312,15.58376],[120.669899,15.58446],[120.671417,15.58269],[120.673592,15.58134],[120.673988,15.58037],[120.673523,15.57871]]]]}},{"type":"Feature","properties":{"ID_0":177,"ISO":"PHL","NAME_0":"Philippines","ID_1":3069,"NAME_1":"Tarlac","ID_2":306917,"NAME_2":"Victoria","ID_3":306917008,"NAME_3":"Cabuluan","NL_NAME_3":null,"VARNAME_3":null,"TYPE_3":"Barangay","ENGTYPE_3":"Village","PROVINCE":"Tarlac","REGION":"Region III (Central Luzon)","id":"barangay-0306917008","name":"Cabuluan","barangayCode":"0306917008","population":null,"formattedPop":null,"densityCategory":"No data","vulnerabilityRating":"No data","healthRiskLevel":"No data","areaKm2":1.771947,"centerLat":15.542538,"centerLng":120.682972,"geometrySource":"all_barangay-2.csv detailed WKT","geometryMatchMethod":"unique_official_admin_names","boundaryPointCount":38},"geometry":{"type":"MultiPolygon","coordinates":[[[[120.695618,15.5607],[120.696823,15.5589],[120.698677,15.54933],[120.696007,15.54909],[120.69384,15.5483],[120.691833,15.54712],[120.689293,15.54622],[120.687042,15.545],[120.685638,15.54466],[120.684822,15.54461],[120.683022,15.54402],[120.682663,15.5458],[120.68235,15.54668],[120.681992,15.54751],[120.681236,15.54867],[120.680206,15.55006],[120.679398,15.55093],[120.678864,15.55216],[120.680153,15.55194],[120.681183,15.5527],[120.682037,15.5534],[120.682388,15.55328],[120.683022,15.55326],[120.683823,15.55353],[120.685013,15.55361],[120.685623,15.55375],[120.686272,15.55466],[120.687149,15.55635],[120.687637,15.55687],[120.688087,15.55728],[120.689163,15.55814],[120.689842,15.55872],[120.691452,15.55956],[120.691849,15.55961],[120.69323,15.55973],[120.69426,15.56012],[120.694923,15.56039],[120.695618,15.5607]]]]}},{"type":"Feature","properties":{"ID_0":177,"ISO":"PHL","NAME_0":"Philippines","ID_1":3069,"NAME_1":"Tarlac","ID_2":306917,"NAME_2":"Victoria","ID_3":306917009,"NAME_3":"Calibungan","NL_NAME_3":null,"VARNAME_3":null,"TYPE_3":"Barangay","ENGTYPE_3":"Village","PROVINCE":"Tarlac","REGION":"Region III (Central Luzon)","id":"barangay-0306917009","name":"Calibungan","barangayCode":"0306917009","population":null,"formattedPop":null,"densityCategory":"No data","vulnerabilityRating":"No data","healthRiskLevel":"No data","areaKm2":4.59152,"centerLat":15.602776,"centerLng":120.726429,"geometrySource":"all_barangay-2.csv detailed WKT","geometryMatchMethod":"unique_official_admin_names","boundaryPointCount":21},"geometry":{"type":"MultiPolygon","coordinates":[[[[120.722137,15.61933],[120.731773,15.61495],[120.736343,15.59711],[120.733322,15.59688],[120.729782,15.59627],[120.726257,15.59627],[120.723831,15.59664],[120.720207,15.59733],[120.719643,15.59875],[120.718224,15.60171],[120.717682,15.60297],[120.716522,15.60598],[120.716537,15.60767],[120.716652,15.60864],[120.717247,15.61066],[120.718513,15.61323],[120.719276,15.61609],[120.719521,15.61803],[120.720123,15.62063],[120.72126,15.61979],[120.722137,15.61933]]]]}},{"type":"Feature","properties":{"ID_0":177,"ISO":"PHL","NAME_0":"Philippines","ID_1":3069,"NAME_1":"Tarlac","ID_2":306917,"NAME_2":"Victoria","ID_3":306917010,"NAME_3":"Canarem","NL_NAME_3":null,"VARNAME_3":null,"TYPE_3":"Barangay","ENGTYPE_3":"Village","PROVINCE":"Tarlac","REGION":"Region III (Central Luzon)","id":"barangay-0306917010","name":"Canarem","barangayCode":"0306917010","population":null,"formattedPop":null,"densityCategory":"No data","vulnerabilityRating":"No data","healthRiskLevel":"No data","areaKm2":6.160854,"centerLat":15.60504,"centerLng":120.709225,"geometrySource":"all_barangay-2.csv detailed WKT","geometryMatchMethod":"unique_official_admin_names","boundaryPointCount":64},"geometry":{"type":"MultiPolygon","coordinates":[[[[120.720123,15.62063],[120.719521,15.61803],[120.719276,15.61609],[120.718513,15.61323],[120.717247,15.61066],[120.716652,15.60864],[120.716537,15.60767],[120.716522,15.60598],[120.717682,15.60297],[120.718224,15.60171],[120.719643,15.59875],[120.720207,15.59733],[120.717438,15.59613],[120.715378,15.59505],[120.713272,15.59459],[120.711731,15.5941],[120.709763,15.59333],[120.708199,15.59261],[120.706787,15.59213],[120.703308,15.59076],[120.702248,15.59153],[120.70192,15.59217],[120.701538,15.59296],[120.701431,15.59507],[120.70089,15.59649],[120.700203,15.59725],[120.69957,15.59817],[120.698997,15.59916],[120.699089,15.60066],[120.699287,15.60256],[120.699448,15.60399],[120.698601,15.60458],[120.697632,15.60533],[120.696213,15.60642],[120.695541,15.60743],[120.695183,15.60905],[120.695381,15.61052],[120.69606,15.61252],[120.696297,15.61497],[120.696701,15.61554],[120.697144,15.61638],[120.697304,15.61749],[120.697479,15.61854],[120.696907,15.61951],[120.69767,15.61915],[120.698883,15.61893],[120.700203,15.6192],[120.700989,15.6194],[120.702332,15.61903],[120.703827,15.61869],[120.704681,15.61774],[120.705727,15.61702],[120.706444,15.61711],[120.707222,15.61812],[120.707916,15.61867],[120.708443,15.61858],[120.709633,15.6182],[120.710991,15.61764],[120.712334,15.61747],[120.714706,15.61778],[120.716614,15.61862],[120.717499,15.61915],[120.718552,15.61979],[120.720123,15.62063]]]]}},{"type":"Feature","properties":{"ID_0":177,"ISO":"PHL","NAME_0":"Philippines","ID_1":3069,"NAME_1":"Tarlac","ID_2":306917,"NAME_2":"Victoria","ID_3":306917011,"NAME_3":"Cruz","NL_NAME_3":null,"VARNAME_3":null,"TYPE_3":"Barangay","ENGTYPE_3":"Village","PROVINCE":"Tarlac","REGION":"Region III (Central Luzon)","id":"barangay-0306917011","name":"Cruz","barangayCode":"0306917011","population":null,"formattedPop":null,"densityCategory":"No data","vulnerabilityRating":"No data","healthRiskLevel":"No data","areaKm2":10.161867,"centerLat":15.560112,"centerLng":120.700875,"geometrySource":"all_barangay-2.csv detailed WKT","geometryMatchMethod":"unique_official_admin_names","boundaryPointCount":91},"geometry":{"type":"MultiPolygon","coordinates":[[[[120.686394,15.57574],[120.688164,15.57666],[120.689293,15.57695],[120.690498,15.57731],[120.692017,15.57758],[120.693893,15.57743],[120.695961,15.57716],[120.698433,15.57632],[120.700821,15.57569],[120.703033,15.57501],[120.704567,15.57433],[120.707336,15.5734],[120.709167,15.57268],[120.710426,15.57366],[120.711601,15.57395],[120.71328,15.57514],[120.71611,15.57661],[120.716309,15.57455],[120.716522,15.57364],[120.716949,15.57319],[120.718048,15.5727],[120.718643,15.57147],[120.718811,15.57033],[120.71907,15.56908],[120.720299,15.56788],[120.721893,15.56741],[120.722969,15.56711],[120.723961,15.56645],[120.724747,15.56605],[120.725533,15.5657],[120.725838,15.56537],[120.726891,15.56457],[120.727676,15.56431],[120.728104,15.56412],[120.728668,15.56322],[120.726852,15.56303],[120.724739,15.56339],[120.722977,15.5636],[120.721581,15.5634],[120.719658,15.56377],[120.718231,15.56407],[120.716164,15.56391],[120.713257,15.56321],[120.710732,15.56293],[120.708023,15.56227],[120.704964,15.5619],[120.702522,15.56176],[120.700996,15.56164],[120.698624,15.56103],[120.697327,15.56092],[120.695618,15.5607],[120.694923,15.56039],[120.69426,15.56012],[120.69323,15.55973],[120.691849,15.55961],[120.691452,15.55956],[120.689842,15.55872],[120.689163,15.55814],[120.688087,15.55728],[120.687637,15.55687],[120.687149,15.55635],[120.686272,15.55466],[120.685623,15.55375],[120.685013,15.55361],[120.683823,15.55353],[120.683022,15.55326],[120.682388,15.55328],[120.682037,15.5534],[120.681183,15.5527],[120.680153,15.55194],[120.678864,15.55216],[120.67704,15.55474],[120.676193,15.5568],[120.674507,15.55909],[120.672577,15.56148],[120.671432,15.56354],[120.672943,15.56445],[120.673782,15.56486],[120.675346,15.56561],[120.676376,15.56592],[120.677292,15.56621],[120.678703,15.56693],[120.679893,15.56756],[120.680923,15.56861],[120.682167,15.57049],[120.682297,15.57085],[120.682907,15.57183],[120.6838,15.573],[120.68441,15.57367],[120.685219,15.57448],[120.686394,15.57574]]]]}},{"type":"Feature","properties":{"ID_0":177,"ISO":"PHL","NAME_0":"Philippines","ID_1":3069,"NAME_1":"Tarlac","ID_2":306917,"NAME_2":"Victoria","ID_3":306917012,"NAME_3":"Lalapac","NL_NAME_3":null,"VARNAME_3":null,"TYPE_3":"Barangay","ENGTYPE_3":"Village","PROVINCE":"Tarlac","REGION":"Region III (Central Luzon)","id":"barangay-0306917012","name":"Lalapac","barangayCode":"0306917012","population":null,"formattedPop":null,"densityCategory":"No data","vulnerabilityRating":"No data","healthRiskLevel":"No data","areaKm2":3.754925,"centerLat":15.52803,"centerLng":120.675112,"geometrySource":"all_barangay-2.csv detailed WKT","geometryMatchMethod":"unique_official_admin_names","boundaryPointCount":54},"geometry":{"type":"MultiPolygon","coordinates":[[[[120.678864,15.55216],[120.679398,15.55093],[120.680206,15.55006],[120.681236,15.54867],[120.681992,15.54751],[120.68235,15.54668],[120.682663,15.5458],[120.683022,15.54402],[120.683403,15.5421],[120.684113,15.53971],[120.684776,15.53808],[120.685837,15.53533],[120.686531,15.53341],[120.686478,15.53035],[120.686562,15.52719],[120.686737,15.52404],[120.68721,15.52198],[120.683853,15.52091],[120.681572,15.52042],[120.680519,15.52093],[120.679298,15.52121],[120.677452,15.5215],[120.675827,15.52163],[120.674553,15.52106],[120.673447,15.52069],[120.671967,15.52151],[120.671806,15.52258],[120.671608,15.52355],[120.67067,15.52516],[120.669922,15.52515],[120.668098,15.52521],[120.667503,15.52616],[120.667122,15.52853],[120.666924,15.5301],[120.665863,15.53213],[120.664726,15.53265],[120.664032,15.533],[120.662987,15.53375],[120.662239,15.535],[120.661789,15.53624],[120.660606,15.5377],[120.661217,15.53927],[120.662033,15.5399],[120.66362,15.54045],[120.663612,15.54159],[120.663353,15.54228],[120.66272,15.54322],[120.66465,15.54464],[120.668114,15.54644],[120.669907,15.54762],[120.672203,15.54908],[120.673576,15.5498],[120.675331,15.55072],[120.678864,15.55216]]]]}},{"type":"Feature","properties":{"ID_0":177,"ISO":"PHL","NAME_0":"Philippines","ID_1":3069,"NAME_1":"Tarlac","ID_2":306917,"NAME_2":"Victoria","ID_3":306917013,"NAME_3":"Maluid","NL_NAME_3":null,"VARNAME_3":null,"TYPE_3":"Barangay","ENGTYPE_3":"Village","PROVINCE":"Tarlac","REGION":"Region III (Central Luzon)","id":"barangay-0306917013","name":"Maluid","barangayCode":"0306917013","population":null,"formattedPop":null,"densityCategory":"No data","vulnerabilityRating":"No data","healthRiskLevel":"No data","areaKm2":6.271364,"centerLat":15.56395,"centerLng":120.648526,"geometrySource":"all_barangay-2.csv detailed WKT","geometryMatchMethod":"unique_official_admin_names","boundaryPointCount":56},"geometry":{"type":"MultiPolygon","coordinates":[[[[120.645607,15.58753],[120.649971,15.58322],[120.651192,15.58175],[120.652786,15.57934],[120.654297,15.57757],[120.65535,15.57529],[120.656517,15.5743],[120.657982,15.57308],[120.658669,15.57189],[120.659523,15.57135],[120.661629,15.56994],[120.663811,15.56865],[120.666069,15.5675],[120.667313,15.5667],[120.668983,15.56569],[120.671432,15.56354],[120.670052,15.56192],[120.667618,15.56048],[120.665993,15.55949],[120.663048,15.55774],[120.660728,15.55677],[120.658981,15.55569],[120.657784,15.55504],[120.656952,15.55442],[120.656021,15.55346],[120.655128,15.55372],[120.654556,15.55426],[120.653877,15.55507],[120.653526,15.55597],[120.653252,15.55703],[120.652847,15.55734],[120.652184,15.55736],[120.651642,15.55743],[120.651237,15.55752],[120.650749,15.55742],[120.649597,15.55834],[120.648354,15.55942],[120.645927,15.56138],[120.644157,15.56284],[120.642632,15.56454],[120.641167,15.56625],[120.640022,15.56702],[120.637207,15.56995],[120.635178,15.57117],[120.633057,15.57433],[120.634041,15.57458],[120.635147,15.57513],[120.636528,15.57661],[120.637917,15.57801],[120.638634,15.57918],[120.639542,15.58049],[120.640869,15.58285],[120.642151,15.58464],[120.643692,15.58557],[120.644653,15.58636],[120.645607,15.58753]]]]}},{"type":"Feature","properties":{"ID_0":177,"ISO":"PHL","NAME_0":"Philippines","ID_1":3069,"NAME_1":"Tarlac","ID_2":306917,"NAME_2":"Victoria","ID_3":306917014,"NAME_3":"Mangolago","NL_NAME_3":null,"VARNAME_3":null,"TYPE_3":"Barangay","ENGTYPE_3":"Village","PROVINCE":"Tarlac","REGION":"Region III (Central Luzon)","id":"barangay-0306917014","name":"Mangolago","barangayCode":"0306917014","population":null,"formattedPop":null,"densityCategory":"No data","vulnerabilityRating":"No data","healthRiskLevel":"No data","areaKm2":6.308525,"centerLat":15.582607,"centerLng":120.724798,"geometrySource":"all_barangay-2.csv detailed WKT","geometryMatchMethod":"unique_official_admin_names","boundaryPointCount":74},"geometry":{"type":"MultiPolygon","coordinates":[[[[120.720207,15.59733],[120.723831,15.59664],[120.726257,15.59627],[120.729782,15.59627],[120.733322,15.59688],[120.736343,15.59711],[120.739571,15.59741],[120.747147,15.59416],[120.747017,15.59223],[120.746117,15.59106],[120.742737,15.58964],[120.740547,15.58863],[120.738861,15.58736],[120.738091,15.5868],[120.736862,15.58568],[120.735718,15.58423],[120.73468,15.58335],[120.733223,15.58256],[120.732483,15.58234],[120.73111,15.58146],[120.730377,15.58043],[120.729721,15.57914],[120.729057,15.57815],[120.728683,15.57667],[120.729691,15.5753],[120.730217,15.57459],[120.730591,15.57386],[120.730843,15.57167],[120.730621,15.56995],[120.729607,15.56755],[120.729446,15.56574],[120.728668,15.56322],[120.728104,15.56412],[120.727676,15.56431],[120.726891,15.56457],[120.725838,15.56537],[120.725533,15.5657],[120.724747,15.56605],[120.723961,15.56645],[120.722969,15.56711],[120.721893,15.56741],[120.720299,15.56788],[120.71907,15.56908],[120.718811,15.57033],[120.718643,15.57147],[120.718048,15.5727],[120.716949,15.57319],[120.716522,15.57364],[120.716309,15.57455],[120.71611,15.57661],[120.713737,15.57814],[120.713409,15.57847],[120.712891,15.57963],[120.712418,15.58034],[120.711014,15.58149],[120.710587,15.58168],[120.709633,15.58236],[120.709084,15.58333],[120.708649,15.58454],[120.708229,15.58518],[120.70771,15.58563],[120.707024,15.58646],[120.706673,15.58707],[120.706017,15.58776],[120.705803,15.58835],[120.703308,15.59076],[120.706787,15.59213],[120.708199,15.59261],[120.709763,15.59333],[120.711731,15.5941],[120.713272,15.59459],[120.715378,15.59505],[120.717438,15.59613],[120.720207,15.59733]]]]}},{"type":"Feature","properties":{"ID_0":177,"ISO":"PHL","NAME_0":"Philippines","ID_1":3069,"NAME_1":"Tarlac","ID_2":306917,"NAME_2":"Victoria","ID_3":306917015,"NAME_3":"Masalasa","NL_NAME_3":null,"VARNAME_3":null,"TYPE_3":"Barangay","ENGTYPE_3":"Village","PROVINCE":"Tarlac","REGION":"Region III (Central Luzon)","id":"barangay-0306917015","name":"Masalasa","barangayCode":"0306917015","population":null,"formattedPop":null,"densityCategory":"No data","vulnerabilityRating":"No data","healthRiskLevel":"No data","areaKm2":5.185335,"centerLat":15.607241,"centerLng":120.742224,"geometrySource":"all_barangay-2.csv detailed WKT","geometryMatchMethod":"unique_official_admin_names","boundaryPointCount":11},"geometry":{"type":"MultiPolygon","coordinates":[[[[120.731773,15.61495],[120.736656,15.61255],[120.754089,15.60441],[120.751259,15.60124],[120.750237,15.59968],[120.749588,15.59853],[120.747864,15.59565],[120.747147,15.59416],[120.739571,15.59741],[120.736343,15.59711],[120.731773,15.61495]]]]}},{"type":"Feature","properties":{"ID_0":177,"ISO":"PHL","NAME_0":"Philippines","ID_1":3069,"NAME_1":"Tarlac","ID_2":306917,"NAME_2":"Victoria","ID_3":306917016,"NAME_3":"Palacpalac","NL_NAME_3":null,"VARNAME_3":null,"TYPE_3":"Barangay","ENGTYPE_3":"Village","PROVINCE":"Tarlac","REGION":"Region III (Central Luzon)","id":"barangay-0306917016","name":"Palacpalac","barangayCode":"0306917016","population":null,"formattedPop":null,"densityCategory":"No data","vulnerabilityRating":"No data","healthRiskLevel":"No data","areaKm2":2.891442,"centerLat":15.529625,"centerLng":120.700103,"geometrySource":"all_barangay-2.csv detailed WKT","geometryMatchMethod":"unique_official_admin_names","boundaryPointCount":35},"geometry":{"type":"MultiPolygon","coordinates":[[[[120.702667,15.5438],[120.711617,15.5318],[120.712448,15.52901],[120.711037,15.5285],[120.71048,15.52811],[120.709229,15.52723],[120.707962,15.52665],[120.706657,15.52683],[120.705627,15.52633],[120.70446,15.52558],[120.703049,15.52557],[120.699181,15.52688],[120.696648,15.52714],[120.695641,15.52747],[120.694313,15.52753],[120.692108,15.5268],[120.69136,15.52618],[120.690483,15.52492],[120.690041,15.5233],[120.689247,15.5223],[120.688293,15.52189],[120.68721,15.52198],[120.686737,15.52404],[120.686562,15.52719],[120.686478,15.53035],[120.686531,15.53341],[120.688728,15.5344],[120.690201,15.53534],[120.69223,15.53665],[120.694191,15.53805],[120.695686,15.53936],[120.697502,15.5408],[120.699348,15.54207],[120.700729,15.54305],[120.702667,15.5438]]]]}},{"type":"Feature","properties":{"ID_0":177,"ISO":"PHL","NAME_0":"Philippines","ID_1":3069,"NAME_1":"Tarlac","ID_2":306917,"NAME_2":"Victoria","ID_3":306917017,"NAME_3":"San Agustin","NL_NAME_3":null,"VARNAME_3":null,"TYPE_3":"Barangay","ENGTYPE_3":"Village","PROVINCE":"Tarlac","REGION":"Region III (Central Luzon)","id":"barangay-0306917017","name":"San Agustin","barangayCode":"0306917017","population":null,"formattedPop":null,"densityCategory":"No data","vulnerabilityRating":"No data","healthRiskLevel":"No data","areaKm2":4.950761,"centerLat":15.599949,"centerLng":120.684653,"geometrySource":"all_barangay-2.csv detailed WKT","geometryMatchMethod":"unique_official_admin_names","boundaryPointCount":31},"geometry":{"type":"MultiPolygon","coordinates":[[[[120.671623,15.6122],[120.673637,15.61233],[120.675636,15.61317],[120.677261,15.61292],[120.678253,15.61345],[120.679298,15.61388],[120.680351,15.61367],[120.681709,15.61347],[120.683189,15.6129],[120.684319,15.61255],[120.68544,15.61268],[120.687309,15.61314],[120.688553,15.61338],[120.689941,15.61382],[120.691528,15.61428],[120.69265,15.61455],[120.694031,15.61455],[120.695717,15.61468],[120.696297,15.61497],[120.69606,15.61252],[120.695381,15.61052],[120.695183,15.60905],[120.695541,15.60743],[120.685173,15.59524],[120.684402,15.59547],[120.681953,15.59565],[120.680794,15.59562],[120.678627,15.59553],[120.674088,15.60539],[120.67292,15.60902],[120.671623,15.6122]]]]}},{"type":"Feature","properties":{"ID_0":177,"ISO":"PHL","NAME_0":"Philippines","ID_1":3069,"NAME_1":"Tarlac","ID_2":306917,"NAME_2":"Victoria","ID_3":306917018,"NAME_3":"San Andres","NL_NAME_3":null,"VARNAME_3":null,"TYPE_3":"Barangay","ENGTYPE_3":"Village","PROVINCE":"Tarlac","REGION":"Region III (Central Luzon)","id":"barangay-0306917018","name":"San Andres","barangayCode":"0306917018","population":null,"formattedPop":null,"densityCategory":"No data","vulnerabilityRating":"No data","healthRiskLevel":"No data","areaKm2":5.884001,"centerLat":15.585084,"centerLng":120.658571,"geometrySource":"all_barangay-2.csv detailed WKT","geometryMatchMethod":"unique_official_admin_names","boundaryPointCount":37},"geometry":{"type":"MultiPolygon","coordinates":[[[[120.670959,15.5923],[120.671112,15.59059],[120.671097,15.58929],[120.670952,15.58801],[120.67057,15.58589],[120.669899,15.58446],[120.668312,15.58376],[120.665993,15.58282],[120.663399,15.58181],[120.661713,15.58115],[120.659866,15.58036],[120.658257,15.57968],[120.656616,15.57884],[120.654297,15.57757],[120.652786,15.57934],[120.651192,15.58175],[120.649971,15.58322],[120.645607,15.58753],[120.646553,15.58858],[120.647079,15.59031],[120.647072,15.59145],[120.647087,15.59304],[120.647369,15.59464],[120.647369,15.59628],[120.646957,15.59877],[120.646584,15.60065],[120.646561,15.60181],[120.646317,15.60411],[120.646637,15.6059],[120.653954,15.603],[120.656929,15.60082],[120.66024,15.59885],[120.665833,15.59565],[120.668404,15.59421],[120.669128,15.59369],[120.670189,15.59344],[120.670959,15.5923]]]]}},{"type":"Feature","properties":{"ID_0":177,"ISO":"PHL","NAME_0":"Philippines","ID_1":3069,"NAME_1":"Tarlac","ID_2":306917,"NAME_2":"Victoria","ID_3":306917019,"NAME_3":"San Fernando","NL_NAME_3":null,"VARNAME_3":null,"TYPE_3":"Barangay","ENGTYPE_3":"Village","PROVINCE":"Tarlac","REGION":"Region III (Central Luzon)","id":"barangay-0306917019","name":"San Fernando","barangayCode":"0306917019","population":null,"formattedPop":null,"densityCategory":"No data","vulnerabilityRating":"No data","healthRiskLevel":"No data","areaKm2":2.086822,"centerLat":15.569398,"centerLng":120.677123,"geometrySource":"all_barangay-2.csv detailed WKT","geometryMatchMethod":"unique_official_admin_names","boundaryPointCount":17},"geometry":{"type":"MultiPolygon","coordinates":[[[[120.682159,15.58296],[120.686394,15.57574],[120.685219,15.57448],[120.68441,15.57367],[120.6838,15.573],[120.682907,15.57183],[120.682297,15.57085],[120.682167,15.57049],[120.680923,15.56861],[120.678238,15.57061],[120.67334,15.57476],[120.672798,15.57538],[120.672447,15.57628],[120.672577,15.57704],[120.672859,15.5778],[120.673523,15.57871],[120.682159,15.58296]]]]}},{"type":"Feature","properties":{"ID_0":177,"ISO":"PHL","NAME_0":"Philippines","ID_1":3069,"NAME_1":"Tarlac","ID_2":306917,"NAME_2":"Victoria","ID_3":306917020,"NAME_3":"San Francisco","NL_NAME_3":null,"VARNAME_3":null,"TYPE_3":"Barangay","ENGTYPE_3":"Village","PROVINCE":"Tarlac","REGION":"Region III (Central Luzon)","id":"barangay-0306917020","name":"San Francisco","barangayCode":"0306917020","population":null,"formattedPop":null,"densityCategory":"No data","vulnerabilityRating":"No data","healthRiskLevel":"No data","areaKm2":3.526453,"centerLat":15.554102,"centerLng":120.627871,"geometrySource":"all_barangay-2.csv detailed WKT","geometryMatchMethod":"unique_official_admin_names","boundaryPointCount":31},"geometry":{"type":"MultiPolygon","coordinates":[[[[120.640022,15.56702],[120.639107,15.56583],[120.638023,15.56432],[120.637321,15.56353],[120.635872,15.56248],[120.633659,15.5609],[120.632729,15.56006],[120.631943,15.55891],[120.631409,15.55762],[120.630821,15.55598],[120.629883,15.55476],[120.628639,15.55404],[120.627281,15.55368],[120.626251,15.55379],[120.624313,15.55387],[120.623383,15.55458],[120.622864,15.55543],[120.622864,15.55688],[120.623703,15.55826],[120.624336,15.5591],[120.62558,15.56158],[120.626694,15.56361],[120.628113,15.56545],[120.629433,15.56717],[120.630379,15.56936],[120.631142,15.57155],[120.631866,15.57255],[120.633057,15.57433],[120.635178,15.57117],[120.637207,15.56995],[120.640022,15.56702]]]]}},{"type":"Feature","properties":{"ID_0":177,"ISO":"PHL","NAME_0":"Philippines","ID_1":3069,"NAME_1":"Tarlac","ID_2":306917,"NAME_2":"Victoria","ID_3":306917021,"NAME_3":"San Gavino","NL_NAME_3":null,"VARNAME_3":null,"TYPE_3":"Barangay","ENGTYPE_3":"Village","PROVINCE":"Tarlac","REGION":"Region III (Central Luzon)","id":"barangay-0306917021","name":"San Gavino","barangayCode":"0306917021","population":null,"formattedPop":null,"densityCategory":"No data","vulnerabilityRating":"No data","healthRiskLevel":"No data","areaKm2":0.895429,"centerLat":15.570795,"centerLng":120.686803,"geometrySource":"all_barangay-2.csv detailed WKT","geometryMatchMethod":"unique_official_admin_names","boundaryPointCount":14},"geometry":{"type":"MultiPolygon","coordinates":[[[[120.685516,15.58486],[120.686913,15.5837],[120.688271,15.58281],[120.690788,15.58119],[120.691399,15.58086],[120.69194,15.58046],[120.692207,15.57889],[120.692017,15.57758],[120.690498,15.57731],[120.689293,15.57695],[120.688164,15.57666],[120.686394,15.57574],[120.682159,15.58296],[120.685516,15.58486]]]]}},{"type":"Feature","properties":{"ID_0":177,"ISO":"PHL","NAME_0":"Philippines","ID_1":3069,"NAME_1":"Tarlac","ID_2":306917,"NAME_2":"Victoria","ID_3":306917023,"NAME_3":"San Jacinto","NL_NAME_3":null,"VARNAME_3":null,"TYPE_3":"Barangay","ENGTYPE_3":"Village","PROVINCE":"Tarlac","REGION":"Region III (Central Luzon)","id":"barangay-0306917023","name":"San Jacinto","barangayCode":"0306917023","population":null,"formattedPop":null,"densityCategory":"No data","vulnerabilityRating":"No data","healthRiskLevel":"No data","areaKm2":2.987287,"centerLat":15.547454,"centerLng":120.667039,"geometrySource":"all_barangay-2.csv detailed WKT","geometryMatchMethod":"unique_official_admin_names","boundaryPointCount":29},"geometry":{"type":"MultiPolygon","coordinates":[[[[120.671432,15.56354],[120.672577,15.56148],[120.674507,15.55909],[120.676193,15.5568],[120.67704,15.55474],[120.678864,15.55216],[120.675331,15.55072],[120.673576,15.5498],[120.672203,15.54908],[120.669907,15.54762],[120.668114,15.54644],[120.66465,15.54464],[120.66272,15.54322],[120.661392,15.54521],[120.660522,15.54646],[120.659958,15.5476],[120.659286,15.54895],[120.658257,15.55146],[120.656754,15.55299],[120.656021,15.55346],[120.656952,15.55442],[120.657784,15.55504],[120.658981,15.55569],[120.660728,15.55677],[120.663048,15.55774],[120.665993,15.55949],[120.667618,15.56048],[120.670052,15.56192],[120.671432,15.56354]]]]}},{"type":"Feature","properties":{"ID_0":177,"ISO":"PHL","NAME_0":"Philippines","ID_1":3069,"NAME_1":"Tarlac","ID_2":306917,"NAME_2":"Victoria","ID_3":306917024,"NAME_3":"San Nicolas","NL_NAME_3":null,"VARNAME_3":null,"TYPE_3":"Barangay","ENGTYPE_3":"Village","PROVINCE":"Tarlac","REGION":"Region III (Central Luzon)","id":"barangay-0306917024","name":"San Nicolas","barangayCode":"0306917024","population":null,"formattedPop":null,"densityCategory":"No data","vulnerabilityRating":"No data","healthRiskLevel":"No data","areaKm2":0.701066,"centerLat":15.582801,"centerLng":120.680288,"geometrySource":"all_barangay-2.csv detailed WKT","geometryMatchMethod":"unique_official_admin_names","boundaryPointCount":15},"geometry":{"type":"MultiPolygon","coordinates":[[[[120.678627,15.59553],[120.680794,15.59562],[120.681953,15.59565],[120.684402,15.59547],[120.685173,15.59524],[120.68502,15.59186],[120.684914,15.59025],[120.684898,15.58764],[120.685516,15.58486],[120.682159,15.58296],[120.679253,15.58829],[120.6763,15.59291],[120.677597,15.59465],[120.678017,15.59505],[120.678627,15.59553]]]]}},{"type":"Feature","properties":{"ID_0":177,"ISO":"PHL","NAME_0":"Philippines","ID_1":3069,"NAME_1":"Tarlac","ID_2":306917,"NAME_2":"Victoria","ID_3":306917025,"NAME_3":"San Vicente","NL_NAME_3":null,"VARNAME_3":null,"TYPE_3":"Barangay","ENGTYPE_3":"Village","PROVINCE":"Tarlac","REGION":"Region III (Central Luzon)","id":"barangay-0306917025","name":"San Vicente","barangayCode":"0306917025","population":null,"formattedPop":null,"densityCategory":"No data","vulnerabilityRating":"No data","healthRiskLevel":"No data","areaKm2":2.660558,"centerLat":15.588421,"centerLng":120.692126,"geometrySource":"all_barangay-2.csv detailed WKT","geometryMatchMethod":"unique_official_admin_names","boundaryPointCount":19},"geometry":{"type":"MultiPolygon","coordinates":[[[[120.70089,15.59649],[120.688271,15.58281],[120.686913,15.5837],[120.685516,15.58486],[120.684898,15.58764],[120.684914,15.59025],[120.68502,15.59186],[120.685173,15.59524],[120.695541,15.60743],[120.696213,15.60642],[120.697632,15.60533],[120.698601,15.60458],[120.699448,15.60399],[120.699287,15.60256],[120.699089,15.60066],[120.698997,15.59916],[120.69957,15.59817],[120.700203,15.59725],[120.70089,15.59649]]]]}},{"type":"Feature","properties":{"ID_0":177,"ISO":"PHL","NAME_0":"Philippines","ID_1":3069,"NAME_1":"Tarlac","ID_2":306917,"NAME_2":"Victoria","ID_3":306917026,"NAME_3":"Santa Barbara","NL_NAME_3":null,"VARNAME_3":null,"TYPE_3":"Barangay","ENGTYPE_3":"Village","PROVINCE":"Tarlac","REGION":"Region III (Central Luzon)","id":"barangay-0306917026","name":"Santa Barbara","barangayCode":"0306917026","population":null,"formattedPop":null,"densityCategory":"No data","vulnerabilityRating":"No data","healthRiskLevel":"No data","areaKm2":4.555109,"centerLat":15.577963,"centerLng":120.700575,"geometrySource":"all_barangay-2.csv detailed WKT","geometryMatchMethod":"unique_official_admin_names","boundaryPointCount":40},"geometry":{"type":"MultiPolygon","coordinates":[[[[120.703308,15.59076],[120.705803,15.58835],[120.706017,15.58776],[120.706673,15.58707],[120.707024,15.58646],[120.70771,15.58563],[120.708229,15.58518],[120.708649,15.58454],[120.709084,15.58333],[120.709633,15.58236],[120.710587,15.58168],[120.711014,15.58149],[120.712418,15.58034],[120.712891,15.57963],[120.713409,15.57847],[120.713737,15.57814],[120.71611,15.57661],[120.71328,15.57514],[120.711601,15.57395],[120.710426,15.57366],[120.709167,15.57268],[120.707336,15.5734],[120.704567,15.57433],[120.703033,15.57501],[120.700821,15.57569],[120.698433,15.57632],[120.695961,15.57716],[120.693893,15.57743],[120.692017,15.57758],[120.692207,15.57889],[120.69194,15.58046],[120.691399,15.58086],[120.690788,15.58119],[120.688271,15.58281],[120.70089,15.59649],[120.701431,15.59507],[120.701538,15.59296],[120.70192,15.59217],[120.702248,15.59153],[120.703308,15.59076]]]]}},{"type":"Feature","properties":{"ID_0":177,"ISO":"PHL","NAME_0":"Philippines","ID_1":3069,"NAME_1":"Tarlac","ID_2":306917,"NAME_2":"Victoria","ID_3":306917027,"NAME_3":"Santa Lucia","NL_NAME_3":null,"VARNAME_3":null,"TYPE_3":"Barangay","ENGTYPE_3":"Village","PROVINCE":"Tarlac","REGION":"Region III (Central Luzon)","id":"barangay-0306917027","name":"Santa Lucia","barangayCode":"0306917027","population":null,"formattedPop":null,"densityCategory":"No data","vulnerabilityRating":"No data","healthRiskLevel":"No data","areaKm2":0.473689,"centerLat":15.577701,"centerLng":120.675772,"geometrySource":"all_barangay-2.csv detailed WKT","geometryMatchMethod":"unique_official_admin_names","boundaryPointCount":17},"geometry":{"type":"MultiPolygon","coordinates":[[[[120.6763,15.59291],[120.679253,15.58829],[120.682159,15.58296],[120.673523,15.57871],[120.673988,15.58037],[120.673592,15.58134],[120.671417,15.58269],[120.669899,15.58446],[120.67057,15.58589],[120.670952,15.58801],[120.671097,15.58929],[120.671112,15.59059],[120.670959,15.5923],[120.673683,15.5923],[120.674591,15.59237],[120.675461,15.59238],[120.6763,15.59291]]]]}}]}
