{"type":"FeatureCollection","features":[{"type":"Feature","properties":{"ID_0":177,"ISO":"PHL","NAME_0":"Philippines","ID_1":6030,"NAME_1":"Iloilo","ID_2":603032,"NAME_2":"New Lucena","ID_3":603032001,"NAME_3":"Baclayan","NL_NAME_3":null,"VARNAME_3":null,"TYPE_3":"Barangay","ENGTYPE_3":"Village","PROVINCE":"Iloilo","REGION":"Region VI (Western Visayas)","id":"barangay-0603032001","name":"Baclayan","barangayCode":"0603032001","population":null,"formattedPop":null,"densityCategory":"No data","vulnerabilityRating":"No data","healthRiskLevel":"No data","areaKm2":2.090801,"centerLat":10.870788,"centerLng":122.585471,"geometrySource":"all_barangay-2.csv detailed WKT","geometryMatchMethod":"unique_official_admin_names","boundaryPointCount":14},"geometry":{"type":"MultiPolygon","coordinates":[[[[122.598297,10.86696],[122.589088,10.86283],[122.588341,10.86257],[122.587547,10.86203],[122.586227,10.86077],[122.585716,10.86053],[122.584587,10.85989],[122.584129,10.86041],[122.584412,10.86143],[122.584267,10.86217],[122.583946,10.8629],[122.577606,10.87848],[122.597343,10.87434],[122.598297,10.86696]]]]}},{"type":"Feature","properties":{"ID_0":177,"ISO":"PHL","NAME_0":"Philippines","ID_1":6030,"NAME_1":"Iloilo","ID_2":603032,"NAME_2":"New Lucena","ID_3":603032002,"NAME_3":"Badiang","NL_NAME_3":null,"VARNAME_3":null,"TYPE_3":"Barangay","ENGTYPE_3":"Village","PROVINCE":"Iloilo","REGION":"Region VI (Western Visayas)","id":"barangay-0603032002","name":"Badiang","barangayCode":"0603032002","population":null,"formattedPop":null,"densityCategory":"No data","vulnerabilityRating":"No data","healthRiskLevel":"No data","areaKm2":2.082925,"centerLat":10.895392,"centerLng":122.59566,"geometrySource":"all_barangay-2.csv detailed WKT","geometryMatchMethod":"unique_official_admin_names","boundaryPointCount":29},"geometry":{"type":"MultiPolygon","coordinates":[[[[122.586273,10.90326],[122.587463,10.90368],[122.590927,10.90354],[122.596558,10.90098],[122.600853,10.90056],[122.602242,10.90003],[122.602898,10.89841],[122.603897,10.8965],[122.606087,10.89542],[122.608276,10.89638],[122.600052,10.8845],[122.599289,10.88559],[122.599083,10.88699],[122.599457,10.88844],[122.599442,10.88916],[122.598587,10.88927],[122.597351,10.88966],[122.596443,10.89098],[122.596001,10.89229],[122.595192,10.89216],[122.593803,10.89277],[122.592789,10.89337],[122.591537,10.89464],[122.589661,10.89579],[122.588608,10.89642],[122.587303,10.89753],[122.586502,10.89801],[122.584976,10.89805],[122.586273,10.90326]]]]}},{"type":"Feature","properties":{"ID_0":177,"ISO":"PHL","NAME_0":"Philippines","ID_1":6030,"NAME_1":"Iloilo","ID_2":603032,"NAME_2":"New Lucena","ID_3":603032003,"NAME_3":"Balabag","NL_NAME_3":null,"VARNAME_3":null,"TYPE_3":"Barangay","ENGTYPE_3":"Village","PROVINCE":"Iloilo","REGION":"Region VI (Western Visayas)","id":"barangay-0603032003","name":"Balabag","barangayCode":"0603032003","population":null,"formattedPop":null,"densityCategory":"No data","vulnerabilityRating":"No data","healthRiskLevel":"No data","areaKm2":1.009094,"centerLat":10.870931,"centerLng":122.601405,"geometrySource":"all_barangay-2.csv detailed WKT","geometryMatchMethod":"unique_official_admin_names","boundaryPointCount":22},"geometry":{"type":"MultiPolygon","coordinates":[[[[122.606277,10.86829],[122.605118,10.86746],[122.604446,10.86685],[122.60379,10.86529],[122.603287,10.86408],[122.603416,10.86304],[122.603973,10.86298],[122.604691,10.86295],[122.605011,10.86168],[122.604874,10.86021],[122.602997,10.86039],[122.601967,10.86044],[122.60051,10.86092],[122.599907,10.86177],[122.599472,10.86332],[122.599358,10.86419],[122.598846,10.86523],[122.598297,10.86696],[122.600517,10.86701],[122.602448,10.86714],[122.604553,10.86764],[122.606277,10.86829]]]]}},{"type":"Feature","properties":{"ID_0":177,"ISO":"PHL","NAME_0":"Philippines","ID_1":6030,"NAME_1":"Iloilo","ID_2":603032,"NAME_2":"New Lucena","ID_3":603032004,"NAME_3":"Bilidan","NL_NAME_3":null,"VARNAME_3":null,"TYPE_3":"Barangay","ENGTYPE_3":"Village","PROVINCE":"Iloilo","REGION":"Region VI (Western Visayas)","id":"barangay-0603032004","name":"Bilidan","barangayCode":"0603032004","population":null,"formattedPop":null,"densityCategory":"No data","vulnerabilityRating":"No data","healthRiskLevel":"No data","areaKm2":2.583409,"centerLat":10.852626,"centerLng":122.582691,"geometrySource":"all_barangay-2.csv detailed WKT","geometryMatchMethod":"unique_official_admin_names","boundaryPointCount":32},"geometry":{"type":"MultiPolygon","coordinates":[[[[122.589088,10.86283],[122.58976,10.86211],[122.58989,10.86144],[122.590233,10.86034],[122.590782,10.85973],[122.590179,10.85921],[122.589691,10.85824],[122.590317,10.85735],[122.591278,10.85582],[122.591331,10.85495],[122.591164,10.85367],[122.591469,10.85265],[122.591614,10.85126],[122.591949,10.85028],[122.593063,10.84957],[122.59343,10.84912],[122.593452,10.84829],[122.594002,10.84745],[122.595154,10.84663],[122.59581,10.84614],[122.594841,10.84445],[122.574364,10.85361],[122.583946,10.8629],[122.584267,10.86217],[122.584412,10.86143],[122.584129,10.86041],[122.584587,10.85989],[122.585716,10.86053],[122.586227,10.86077],[122.587547,10.86203],[122.588341,10.86257],[122.589088,10.86283]]]]}},{"type":"Feature","properties":{"ID_0":177,"ISO":"PHL","NAME_0":"Philippines","ID_1":6030,"NAME_1":"Iloilo","ID_2":603032,"NAME_2":"New Lucena","ID_3":603032005,"NAME_3":"Bita-og Gaja","NL_NAME_3":null,"VARNAME_3":null,"TYPE_3":"Barangay","ENGTYPE_3":"Village","PROVINCE":"Iloilo","REGION":"Region VI (Western Visayas)","id":"barangay-0603032005","name":"Bita-og Gaja","barangayCode":"0603032005","population":null,"formattedPop":null,"densityCategory":"No data","vulnerabilityRating":"No data","healthRiskLevel":"No data","areaKm2":2.356274,"centerLat":10.843221,"centerLng":122.582486,"geometrySource":"all_barangay-2.csv detailed WKT","geometryMatchMethod":"unique_official_admin_names","boundaryPointCount":7},"geometry":{"type":"MultiPolygon","coordinates":[[[[122.574364,10.85361],[122.594841,10.84445],[122.592918,10.83954],[122.591164,10.83942],[122.580772,10.83864],[122.571037,10.85096],[122.574364,10.85361]]]]}},{"type":"Feature","properties":{"ID_0":177,"ISO":"PHL","NAME_0":"Philippines","ID_1":6030,"NAME_1":"Iloilo","ID_2":603032,"NAME_2":"New Lucena","ID_3":603032007,"NAME_3":"Bololacao","NL_NAME_3":null,"VARNAME_3":null,"TYPE_3":"Barangay","ENGTYPE_3":"Village","PROVINCE":"Iloilo","REGION":"Region VI (Western Visayas)","id":"barangay-0603032007","name":"Bololacao","barangayCode":"0603032007","population":null,"formattedPop":null,"densityCategory":"No data","vulnerabilityRating":"No data","healthRiskLevel":"No data","areaKm2":1.890221,"centerLat":10.886276,"centerLng":122.588462,"geometrySource":"all_barangay-2.csv detailed WKT","geometryMatchMethod":"unique_official_admin_names","boundaryPointCount":16},"geometry":{"type":"MultiPolygon","coordinates":[[[[122.600052,10.8845],[122.577606,10.87848],[122.589661,10.89579],[122.591537,10.89464],[122.592789,10.89337],[122.593803,10.89277],[122.595192,10.89216],[122.596001,10.89229],[122.596443,10.89098],[122.597351,10.88966],[122.598587,10.88927],[122.599442,10.88916],[122.599457,10.88844],[122.599083,10.88699],[122.599289,10.88559],[122.600052,10.8845]]]]}},{"type":"Feature","properties":{"ID_0":177,"ISO":"PHL","NAME_0":"Philippines","ID_1":6030,"NAME_1":"Iloilo","ID_2":603032,"NAME_2":"New Lucena","ID_3":603032008,"NAME_3":"Burot","NL_NAME_3":null,"VARNAME_3":null,"TYPE_3":"Barangay","ENGTYPE_3":"Village","PROVINCE":"Iloilo","REGION":"Region VI (Western Visayas)","id":"barangay-0603032008","name":"Burot","barangayCode":"0603032008","population":null,"formattedPop":null,"densityCategory":"No data","vulnerabilityRating":"No data","healthRiskLevel":"No data","areaKm2":1.2504,"centerLat":10.868552,"centerLng":122.553823,"geometrySource":"all_barangay-2.csv detailed WKT","geometryMatchMethod":"unique_official_admin_names","boundaryPointCount":12},"geometry":{"type":"MultiPolygon","coordinates":[[[[122.568626,10.86834],[122.557701,10.86329],[122.549026,10.86656],[122.557701,10.87243],[122.558456,10.87218],[122.560493,10.87192],[122.562119,10.87152],[122.562698,10.87101],[122.564011,10.87033],[122.565147,10.8696],[122.566704,10.86918],[122.568626,10.86834]]]]}},{"type":"Feature","properties":{"ID_0":177,"ISO":"PHL","NAME_0":"Philippines","ID_1":6030,"NAME_1":"Iloilo","ID_2":603032,"NAME_2":"New Lucena","ID_3":603032009,"NAME_3":"Cabilauan","NL_NAME_3":null,"VARNAME_3":null,"TYPE_3":"Barangay","ENGTYPE_3":"Village","PROVINCE":"Iloilo","REGION":"Region VI (Western Visayas)","id":"barangay-0603032009","name":"Cabilauan","barangayCode":"0603032009","population":null,"formattedPop":null,"densityCategory":"No data","vulnerabilityRating":"No data","healthRiskLevel":"No data","areaKm2":2.475755,"centerLat":10.861044,"centerLng":122.568827,"geometrySource":"all_barangay-2.csv detailed WKT","geometryMatchMethod":"unique_official_admin_names","boundaryPointCount":17},"geometry":{"type":"MultiPolygon","coordinates":[[[[122.568626,10.86834],[122.569977,10.86777],[122.571053,10.86687],[122.573051,10.86562],[122.574677,10.86469],[122.577087,10.86456],[122.578842,10.86522],[122.579224,10.8646],[122.580208,10.86381],[122.580597,10.86336],[122.581291,10.86286],[122.582527,10.86268],[122.583946,10.8629],[122.574364,10.85361],[122.571037,10.85096],[122.557701,10.86329],[122.568626,10.86834]]]]}},{"type":"Feature","properties":{"ID_0":177,"ISO":"PHL","NAME_0":"Philippines","ID_1":6030,"NAME_1":"Iloilo","ID_2":603032,"NAME_2":"New Lucena","ID_3":603032010,"NAME_3":"Cabugao","NL_NAME_3":null,"VARNAME_3":null,"TYPE_3":"Barangay","ENGTYPE_3":"Village","PROVINCE":"Iloilo","REGION":"Region VI (Western Visayas)","id":"barangay-0603032010","name":"Cabugao","barangayCode":"0603032010","population":null,"formattedPop":null,"densityCategory":"No data","vulnerabilityRating":"No data","healthRiskLevel":"No data","areaKm2":1.854411,"centerLat":10.880941,"centerLng":122.556511,"geometrySource":"all_barangay-2.csv detailed WKT","geometryMatchMethod":"unique_official_admin_names","boundaryPointCount":13},"geometry":{"type":"MultiPolygon","coordinates":[[[[122.547363,10.87986],[122.564903,10.88827],[122.557701,10.87243],[122.555923,10.87311],[122.554764,10.8736],[122.553757,10.87398],[122.551964,10.87496],[122.550873,10.87625],[122.550247,10.87771],[122.54966,10.87876],[122.548607,10.87923],[122.547737,10.87938],[122.547363,10.87986]]]]}},{"type":"Feature","properties":{"ID_0":177,"ISO":"PHL","NAME_0":"Philippines","ID_1":6030,"NAME_1":"Iloilo","ID_2":603032,"NAME_2":"New Lucena","ID_3":603032012,"NAME_3":"Cagban","NL_NAME_3":null,"VARNAME_3":null,"TYPE_3":"Barangay","ENGTYPE_3":"Village","PROVINCE":"Iloilo","REGION":"Region VI (Western Visayas)","id":"barangay-0603032012","name":"Cagban","barangayCode":"0603032012","population":null,"formattedPop":null,"densityCategory":"No data","vulnerabilityRating":"No data","healthRiskLevel":"No data","areaKm2":1.479082,"centerLat":10.875132,"centerLng":122.543917,"geometrySource":"all_barangay-2.csv detailed WKT","geometryMatchMethod":"unique_official_admin_names","boundaryPointCount":19},"geometry":{"type":"MultiPolygon","coordinates":[[[[122.540237,10.88342],[122.547363,10.87986],[122.547737,10.87938],[122.548607,10.87923],[122.54966,10.87876],[122.550247,10.87771],[122.550873,10.87625],[122.551964,10.87496],[122.553757,10.87398],[122.554764,10.8736],[122.555923,10.87311],[122.557701,10.87243],[122.549026,10.86656],[122.545677,10.86798],[122.543327,10.86945],[122.535957,10.87543],[122.537209,10.87723],[122.538567,10.88101],[122.540237,10.88342]]]]}},{"type":"Feature","properties":{"ID_0":177,"ISO":"PHL","NAME_0":"Philippines","ID_1":6030,"NAME_1":"Iloilo","ID_2":603032,"NAME_2":"New Lucena","ID_3":603032013,"NAME_3":"Calumbuyan","NL_NAME_3":null,"VARNAME_3":null,"TYPE_3":"Barangay","ENGTYPE_3":"Village","PROVINCE":"Iloilo","REGION":"Region VI (Western Visayas)","id":"barangay-0603032013","name":"Calumbuyan","barangayCode":"0603032013","population":null,"formattedPop":null,"densityCategory":"No data","vulnerabilityRating":"No data","healthRiskLevel":"No data","areaKm2":0.626961,"centerLat":10.861168,"centerLng":122.603826,"geometrySource":"all_barangay-2.csv detailed WKT","geometryMatchMethod":"unique_official_admin_names","boundaryPointCount":13},"geometry":{"type":"MultiPolygon","coordinates":[[[[122.606277,10.86829],[122.611191,10.8632],[122.609993,10.85882],[122.604874,10.86021],[122.605011,10.86168],[122.604691,10.86295],[122.603973,10.86298],[122.603416,10.86304],[122.603287,10.86408],[122.60379,10.86529],[122.604446,10.86685],[122.605118,10.86746],[122.606277,10.86829]]]]}},{"type":"Feature","properties":{"ID_0":177,"ISO":"PHL","NAME_0":"Philippines","ID_1":6030,"NAME_1":"Iloilo","ID_2":603032,"NAME_2":"New Lucena","ID_3":603032014,"NAME_3":"Damires","NL_NAME_3":null,"VARNAME_3":null,"TYPE_3":"Barangay","ENGTYPE_3":"Village","PROVINCE":"Iloilo","REGION":"Region VI (Western Visayas)","id":"barangay-0603032014","name":"Damires","barangayCode":"0603032014","population":null,"formattedPop":null,"densityCategory":"No data","vulnerabilityRating":"No data","healthRiskLevel":"No data","areaKm2":3.674669,"centerLat":10.856462,"centerLng":122.595349,"geometrySource":"all_barangay-2.csv detailed WKT","geometryMatchMethod":"unique_official_admin_names","boundaryPointCount":57},"geometry":{"type":"MultiPolygon","coordinates":[[[[122.598297,10.86696],[122.598846,10.86523],[122.599358,10.86419],[122.599472,10.86332],[122.599907,10.86177],[122.60051,10.86092],[122.601967,10.86044],[122.602997,10.86039],[122.604874,10.86021],[122.6035,10.8588],[122.602158,10.85834],[122.601784,10.85771],[122.601624,10.85771],[122.600883,10.85736],[122.60096,10.85649],[122.601158,10.85595],[122.60128,10.85515],[122.601898,10.8542],[122.602257,10.85343],[122.602531,10.85278],[122.602623,10.85166],[122.602371,10.85091],[122.602364,10.85034],[122.602783,10.84964],[122.603127,10.84898],[122.603928,10.8472],[122.60424,10.84675],[122.604767,10.84607],[122.605087,10.84483],[122.605263,10.84478],[122.605583,10.84445],[122.603767,10.84447],[122.601913,10.84487],[122.600998,10.84498],[122.598732,10.84528],[122.597588,10.84546],[122.59581,10.84614],[122.595154,10.84663],[122.594002,10.84745],[122.593452,10.84829],[122.59343,10.84912],[122.593063,10.84957],[122.591949,10.85028],[122.591614,10.85126],[122.591469,10.85265],[122.591164,10.85367],[122.591331,10.85495],[122.591278,10.85582],[122.590317,10.85735],[122.589691,10.85824],[122.590179,10.85921],[122.590782,10.85973],[122.590233,10.86034],[122.58989,10.86144],[122.58976,10.86211],[122.589088,10.86283],[122.598297,10.86696]]]]}},{"type":"Feature","properties":{"ID_0":177,"ISO":"PHL","NAME_0":"Philippines","ID_1":6030,"NAME_1":"Iloilo","ID_2":603032,"NAME_2":"New Lucena","ID_3":603032015,"NAME_3":"Dawis","NL_NAME_3":null,"VARNAME_3":null,"TYPE_3":"Barangay","ENGTYPE_3":"Village","PROVINCE":"Iloilo","REGION":"Region VI (Western Visayas)","id":"barangay-0603032015","name":"Dawis","barangayCode":"0603032015","population":null,"formattedPop":null,"densityCategory":"No data","vulnerabilityRating":"No data","healthRiskLevel":"No data","areaKm2":1.836217,"centerLat":10.885305,"centerLng":122.604506,"geometrySource":"all_barangay-2.csv detailed WKT","geometryMatchMethod":"unique_official_admin_names","boundaryPointCount":16},"geometry":{"type":"MultiPolygon","coordinates":[[[[122.613869,10.89594],[122.609123,10.88816],[122.608177,10.87654],[122.606712,10.87808],[122.605667,10.87904],[122.605103,10.88013],[122.603859,10.88114],[122.601479,10.88252],[122.600052,10.8845],[122.608276,10.89638],[122.608727,10.89624],[122.609306,10.89632],[122.610268,10.89677],[122.610893,10.89684],[122.611732,10.89626],[122.613869,10.89594]]]]}},{"type":"Feature","properties":{"ID_0":177,"ISO":"PHL","NAME_0":"Philippines","ID_1":6030,"NAME_1":"Iloilo","ID_2":603032,"NAME_2":"New Lucena","ID_3":603032016,"NAME_3":"General Delgado","NL_NAME_3":null,"VARNAME_3":null,"TYPE_3":"Barangay","ENGTYPE_3":"Village","PROVINCE":"Iloilo","REGION":"Region VI (Western Visayas)","id":"barangay-0603032016","name":"General Delgado","barangayCode":"0603032016","population":null,"formattedPop":null,"densityCategory":"No data","vulnerabilityRating":"No data","healthRiskLevel":"No data","areaKm2":0.531281,"centerLat":10.882512,"centerLng":122.544562,"geometrySource":"all_barangay-2.csv detailed WKT","geometryMatchMethod":"unique_official_admin_names","boundaryPointCount":16},"geometry":{"type":"MultiPolygon","coordinates":[[[[122.540237,10.88342],[122.541946,10.88751],[122.545036,10.88567],[122.54557,10.88583],[122.546349,10.88647],[122.547569,10.88652],[122.548538,10.88557],[122.54924,10.88448],[122.550209,10.88348],[122.550209,10.88306],[122.550011,10.88268],[122.549263,10.88231],[122.548271,10.88168],[122.547974,10.88104],[122.547363,10.87986],[122.540237,10.88342]]]]}},{"type":"Feature","properties":{"ID_0":177,"ISO":"PHL","NAME_0":"Philippines","ID_1":6030,"NAME_1":"Iloilo","ID_2":603032,"NAME_2":"New Lucena","ID_3":603032017,"NAME_3":"Guinobatan","NL_NAME_3":null,"VARNAME_3":null,"TYPE_3":"Barangay","ENGTYPE_3":"Village","PROVINCE":"Iloilo","REGION":"Region VI (Western Visayas)","id":"barangay-0603032017","name":"Guinobatan","barangayCode":"0603032017","population":null,"formattedPop":null,"densityCategory":"No data","vulnerabilityRating":"No data","healthRiskLevel":"No data","areaKm2":2.785919,"centerLat":10.887286,"centerLng":122.577892,"geometrySource":"all_barangay-2.csv detailed WKT","geometryMatchMethod":"unique_official_admin_names","boundaryPointCount":21},"geometry":{"type":"MultiPolygon","coordinates":[[[[122.589661,10.89579],[122.577606,10.87848],[122.572319,10.88654],[122.574471,10.89615],[122.575157,10.89738],[122.575577,10.89873],[122.57608,10.8989],[122.57666,10.89848],[122.577133,10.89702],[122.577454,10.89574],[122.578194,10.89412],[122.580276,10.89392],[122.5821,10.89346],[122.58371,10.89456],[122.583267,10.89639],[122.583839,10.89716],[122.584976,10.89805],[122.586502,10.89801],[122.587303,10.89753],[122.588608,10.89642],[122.589661,10.89579]]]]}},{"type":"Feature","properties":{"ID_0":177,"ISO":"PHL","NAME_0":"Philippines","ID_1":6030,"NAME_1":"Iloilo","ID_2":603032,"NAME_2":"New Lucena","ID_3":603032018,"NAME_3":"Janipa-an Oeste","NL_NAME_3":null,"VARNAME_3":null,"TYPE_3":"Barangay","ENGTYPE_3":"Village","PROVINCE":"Iloilo","REGION":"Region VI (Western Visayas)","id":"barangay-0603032018","name":"Janipa-an Oeste","barangayCode":"0603032018","population":null,"formattedPop":null,"densityCategory":"No data","vulnerabilityRating":"No data","healthRiskLevel":"No data","areaKm2":1.727293,"centerLat":10.895224,"centerLng":122.563497,"geometrySource":"all_barangay-2.csv detailed WKT","geometryMatchMethod":"unique_official_admin_names","boundaryPointCount":27},"geometry":{"type":"MultiPolygon","coordinates":[[[[122.556084,10.90829],[122.557022,10.90638],[122.557953,10.90508],[122.55793,10.90401],[122.557907,10.90264],[122.558777,10.90236],[122.559753,10.90164],[122.560349,10.90051],[122.561623,10.90102],[122.56311,10.90222],[122.564522,10.90217],[122.565224,10.90148],[122.56636,10.90116],[122.568199,10.90033],[122.567528,10.89933],[122.567291,10.89867],[122.565918,10.89792],[122.566292,10.89674],[122.568153,10.89712],[122.569649,10.8965],[122.570267,10.89559],[122.572098,10.8953],[122.574471,10.89615],[122.572319,10.88654],[122.564903,10.88827],[122.552322,10.903],[122.556084,10.90829]]]]}},{"type":"Feature","properties":{"ID_0":177,"ISO":"PHL","NAME_0":"Philippines","ID_1":6030,"NAME_1":"Iloilo","ID_2":603032,"NAME_2":"New Lucena","ID_3":603032019,"NAME_3":"Jelicuon Este","NL_NAME_3":null,"VARNAME_3":null,"TYPE_3":"Barangay","ENGTYPE_3":"Village","PROVINCE":"Iloilo","REGION":"Region VI (Western Visayas)","id":"barangay-0603032019","name":"Jelicuon Este","barangayCode":"0603032019","population":null,"formattedPop":null,"densityCategory":"No data","vulnerabilityRating":"No data","healthRiskLevel":"No data","areaKm2":0.740161,"centerLat":10.841226,"centerLng":122.599914,"geometrySource":"all_barangay-2.csv detailed WKT","geometryMatchMethod":"unique_official_admin_names","boundaryPointCount":13},"geometry":{"type":"MultiPolygon","coordinates":[[[[122.59581,10.84614],[122.597588,10.84546],[122.598732,10.84528],[122.600998,10.84498],[122.601913,10.84487],[122.603767,10.84447],[122.605583,10.84445],[122.605438,10.84314],[122.605652,10.84269],[122.606117,10.84225],[122.606003,10.84131],[122.594841,10.84445],[122.59581,10.84614]]]]}},{"type":"Feature","properties":{"ID_0":177,"ISO":"PHL","NAME_0":"Philippines","ID_1":6030,"NAME_1":"Iloilo","ID_2":603032,"NAME_2":"New Lucena","ID_3":603032020,"NAME_3":"Jelicuon Oeste","NL_NAME_3":null,"VARNAME_3":null,"TYPE_3":"Barangay","ENGTYPE_3":"Village","PROVINCE":"Iloilo","REGION":"Region VI (Western Visayas)","id":"barangay-0603032020","name":"Jelicuon Oeste","barangayCode":"0603032020","population":null,"formattedPop":null,"densityCategory":"No data","vulnerabilityRating":"No data","healthRiskLevel":"No data","areaKm2":2.310583,"centerLat":10.891395,"centerLng":122.551484,"geometrySource":"all_barangay-2.csv detailed WKT","geometryMatchMethod":"unique_official_admin_names","boundaryPointCount":18},"geometry":{"type":"MultiPolygon","coordinates":[[[[122.564903,10.88827],[122.547363,10.87986],[122.547974,10.88104],[122.548271,10.88168],[122.549263,10.88231],[122.550011,10.88268],[122.550209,10.88306],[122.550209,10.88348],[122.54924,10.88448],[122.548538,10.88557],[122.547569,10.88652],[122.546349,10.88647],[122.54557,10.88583],[122.545036,10.88567],[122.541946,10.88751],[122.546204,10.89344],[122.552322,10.903],[122.564903,10.88827]]]]}},{"type":"Feature","properties":{"ID_0":177,"ISO":"PHL","NAME_0":"Philippines","ID_1":6030,"NAME_1":"Iloilo","ID_2":603032,"NAME_2":"New Lucena","ID_3":603032021,"NAME_3":"Pasil","NL_NAME_3":null,"VARNAME_3":null,"TYPE_3":"Barangay","ENGTYPE_3":"Village","PROVINCE":"Iloilo","REGION":"Region VI (Western Visayas)","id":"barangay-0603032021","name":"Pasil","barangayCode":"0603032021","population":null,"formattedPop":null,"densityCategory":"No data","vulnerabilityRating":"No data","healthRiskLevel":"No data","areaKm2":0.592948,"centerLat":10.836214,"centerLng":122.597269,"geometrySource":"all_barangay-2.csv detailed WKT","geometryMatchMethod":"unique_official_admin_names","boundaryPointCount":17},"geometry":{"type":"MultiPolygon","coordinates":[[[[122.606003,10.84131],[122.605827,10.84053],[122.605568,10.84],[122.605927,10.83944],[122.606209,10.83901],[122.605583,10.8382],[122.604591,10.83797],[122.604286,10.83751],[122.603996,10.83723],[122.603233,10.83754],[122.602837,10.83721],[122.602448,10.83652],[122.602142,10.83631],[122.601707,10.83577],[122.592918,10.83954],[122.594841,10.84445],[122.606003,10.84131]]]]}},{"type":"Feature","properties":{"ID_0":177,"ISO":"PHL","NAME_0":"Philippines","ID_1":6030,"NAME_1":"Iloilo","ID_2":603032,"NAME_2":"New Lucena","ID_3":603032022,"NAME_3":"Poblacion","NL_NAME_3":null,"VARNAME_3":null,"TYPE_3":"Barangay","ENGTYPE_3":"Village","PROVINCE":"Iloilo","REGION":"Region VI (Western Visayas)","id":"barangay-0603032022","name":"Poblacion","barangayCode":"0603032022","population":null,"formattedPop":null,"densityCategory":"No data","vulnerabilityRating":"No data","healthRiskLevel":"No data","areaKm2":1.696071,"centerLat":10.878,"centerLng":122.594689,"geometrySource":"all_barangay-2.csv detailed WKT","geometryMatchMethod":"unique_official_admin_names","boundaryPointCount":22},"geometry":{"type":"MultiPolygon","coordinates":[[[[122.577606,10.87848],[122.600052,10.8845],[122.601479,10.88252],[122.603859,10.88114],[122.605103,10.88013],[122.605667,10.87904],[122.606712,10.87808],[122.608177,10.87654],[122.60881,10.87636],[122.60984,10.87578],[122.610283,10.875],[122.610626,10.87422],[122.610107,10.87316],[122.608322,10.87078],[122.606934,10.86907],[122.606277,10.86829],[122.604553,10.86764],[122.602448,10.86714],[122.600517,10.86701],[122.598297,10.86696],[122.597343,10.87434],[122.577606,10.87848]]]]}},{"type":"Feature","properties":{"ID_0":177,"ISO":"PHL","NAME_0":"Philippines","ID_1":6030,"NAME_1":"Iloilo","ID_2":603032,"NAME_2":"New Lucena","ID_3":603032023,"NAME_3":"Wari-wari","NL_NAME_3":null,"VARNAME_3":null,"TYPE_3":"Barangay","ENGTYPE_3":"Village","PROVINCE":"Iloilo","REGION":"Region VI (Western Visayas)","id":"barangay-0603032023","name":"Wari-wari","barangayCode":"0603032023","population":null,"formattedPop":null,"densityCategory":"No data","vulnerabilityRating":"No data","healthRiskLevel":"No data","areaKm2":3.923277,"centerLat":10.874575,"centerLng":122.568714,"geometrySource":"all_barangay-2.csv detailed WKT","geometryMatchMethod":"unique_official_admin_names","boundaryPointCount":25},"geometry":{"type":"MultiPolygon","coordinates":[[[[122.564903,10.88827],[122.572319,10.88654],[122.577606,10.87848],[122.583946,10.8629],[122.582527,10.86268],[122.581291,10.86286],[122.580597,10.86336],[122.580208,10.86381],[122.579224,10.8646],[122.578842,10.86522],[122.577087,10.86456],[122.574677,10.86469],[122.573051,10.86562],[122.571053,10.86687],[122.569977,10.86777],[122.568626,10.86834],[122.566704,10.86918],[122.565147,10.8696],[122.564011,10.87033],[122.562698,10.87101],[122.562119,10.87152],[122.560493,10.87192],[122.558456,10.87218],[122.557701,10.87243],[122.564903,10.88827]]]]}}]}
