{"type":"FeatureCollection","features":[{"type":"Feature","properties":{"ID_0":177,"ISO":"PHL","NAME_0":"Philippines","ID_1":7022,"NAME_1":"Cebu","ID_2":702203,"NAME_2":"Alegria","ID_3":702203001,"NAME_3":"Compostela","NL_NAME_3":null,"VARNAME_3":null,"TYPE_3":"Barangay","ENGTYPE_3":"Village","PROVINCE":"Cebu","REGION":"Region VII (Central Visayas)","id":"barangay-0702203001","name":"Compostela","barangayCode":"0702203001","population":null,"formattedPop":null,"densityCategory":"No data","vulnerabilityRating":"No data","healthRiskLevel":"No data","areaKm2":17.376591,"centerLat":9.779065,"centerLng":123.394365,"geometrySource":"all_barangay-2.csv detailed WKT","geometryMatchMethod":"unique_official_admin_names","boundaryPointCount":31},"geometry":{"type":"MultiPolygon","coordinates":[[[[123.390472,9.80161],[123.39817,9.79855],[123.405052,9.79513],[123.410553,9.79194],[123.416138,9.78905],[123.420967,9.78645],[123.424377,9.78431],[123.43116,9.77922],[123.42939,9.77597],[123.428436,9.77383],[123.427773,9.77223],[123.427017,9.77045],[123.426537,9.76706],[123.420021,9.7672],[123.413597,9.76774],[123.407898,9.76873],[123.399986,9.76939],[123.396896,9.7702],[123.392143,9.77018],[123.387894,9.76994],[123.384262,9.7699],[123.380333,9.76911],[123.376984,9.76856],[123.375793,9.77221],[123.374786,9.77552],[123.373978,9.77881],[123.373672,9.77996],[123.373428,9.78161],[123.373627,9.78296],[123.382858,9.80478],[123.390472,9.80161]]]]}},{"type":"Feature","properties":{"ID_0":177,"ISO":"PHL","NAME_0":"Philippines","ID_1":7022,"NAME_1":"Cebu","ID_2":702203,"NAME_2":"Alegria","ID_3":702203002,"NAME_3":"Guadalupe","NL_NAME_3":null,"VARNAME_3":null,"TYPE_3":"Barangay","ENGTYPE_3":"Village","PROVINCE":"Cebu","REGION":"Region VII (Central Visayas)","id":"barangay-0702203002","name":"Guadalupe","barangayCode":"0702203002","population":null,"formattedPop":null,"densityCategory":"No data","vulnerabilityRating":"No data","healthRiskLevel":"No data","areaKm2":24.765399,"centerLat":9.734412,"centerLng":123.39,"geometrySource":"all_barangay-2.csv detailed WKT","geometryMatchMethod":"unique_official_admin_names","boundaryPointCount":45},"geometry":{"type":"MultiPolygon","coordinates":[[[[123.425919,9.74804],[123.425392,9.74214],[123.425362,9.7404],[123.425369,9.73907],[123.425537,9.73558],[123.426018,9.73309],[123.426727,9.73008],[123.427948,9.72631],[123.428146,9.72531],[123.428337,9.72318],[123.42881,9.71935],[123.428703,9.71625],[123.41053,9.71797],[123.405823,9.7181],[123.397827,9.71958],[123.393417,9.7204],[123.388847,9.72109],[123.384262,9.72176],[123.378593,9.72263],[123.373413,9.72341],[123.369102,9.7236],[123.363937,9.72361],[123.362801,9.72324],[123.361259,9.72278],[123.360893,9.72434],[123.360847,9.72625],[123.360893,9.72726],[123.360901,9.7274],[123.360947,9.72887],[123.361023,9.7305],[123.361031,9.73097],[123.361557,9.73369],[123.361832,9.73613],[123.362,9.73685],[123.362198,9.73801],[123.362289,9.73983],[123.36216,9.74247],[123.36145,9.74623],[123.36058,9.74951],[123.380913,9.7483],[123.388763,9.74796],[123.399872,9.74814],[123.413017,9.74876],[123.416771,9.74869],[123.425919,9.74804]]]]}},{"type":"Feature","properties":{"ID_0":177,"ISO":"PHL","NAME_0":"Philippines","ID_1":7022,"NAME_1":"Cebu","ID_2":702203,"NAME_2":"Alegria","ID_3":702203003,"NAME_3":"Legaspi","NL_NAME_3":null,"VARNAME_3":null,"TYPE_3":"Barangay","ENGTYPE_3":"Village","PROVINCE":"Cebu","REGION":"Region VII (Central Visayas)","id":"barangay-0702203003","name":"Legaspi","barangayCode":"0702203003","population":null,"formattedPop":null,"densityCategory":"No data","vulnerabilityRating":"No data","healthRiskLevel":"No data","areaKm2":2.805625,"centerLat":9.705642,"centerLng":123.342688,"geometrySource":"all_barangay-2.csv detailed WKT","geometryMatchMethod":"unique_official_admin_names","boundaryPointCount":52},"geometry":{"type":"MultiPolygon","coordinates":[[[[123.33815,9.72078],[123.338173,9.72001],[123.343674,9.71951],[123.344254,9.71945],[123.344719,9.7194],[123.34639,9.71964],[123.347267,9.71998],[123.348709,9.72021],[123.349579,9.72024],[123.350113,9.72026],[123.35141,9.72026],[123.353302,9.72028],[123.353737,9.71981],[123.353951,9.71676],[123.354408,9.71579],[123.355026,9.71486],[123.355743,9.71411],[123.356056,9.7138],[123.356148,9.71361],[123.356369,9.71279],[123.356239,9.71131],[123.355202,9.70796],[123.354424,9.70842],[123.352127,9.70921],[123.349342,9.70991],[123.347023,9.71059],[123.344543,9.71109],[123.341461,9.71145],[123.337753,9.71198],[123.337967,9.71277],[123.337997,9.71282],[123.338158,9.71315],[123.33831,9.71347],[123.338333,9.71384],[123.338287,9.71405],[123.338242,9.71425],[123.338089,9.71473],[123.338051,9.71529],[123.338074,9.71589],[123.33815,9.71644],[123.338318,9.71691],[123.338478,9.71724],[123.338509,9.71731],[123.338547,9.7177],[123.338409,9.71807],[123.338409,9.71811],[123.338341,9.71855],[123.338287,9.71902],[123.338097,9.71949],[123.338058,9.72006],[123.338097,9.72064],[123.33815,9.72078]]]]}},{"type":"Feature","properties":{"ID_0":177,"ISO":"PHL","NAME_0":"Philippines","ID_1":7022,"NAME_1":"Cebu","ID_2":702203,"NAME_2":"Alegria","ID_3":702203004,"NAME_3":"Lepanto","NL_NAME_3":null,"VARNAME_3":null,"TYPE_3":"Barangay","ENGTYPE_3":"Village","PROVINCE":"Cebu","REGION":"Region VII (Central Visayas)","id":"barangay-0702203004","name":"Lepanto","barangayCode":"0702203004","population":null,"formattedPop":null,"densityCategory":"No data","vulnerabilityRating":"No data","healthRiskLevel":"No data","areaKm2":16.308319,"centerLat":9.707676,"centerLng":123.392899,"geometrySource":"all_barangay-2.csv detailed WKT","geometryMatchMethod":"unique_official_admin_names","boundaryPointCount":22},"geometry":{"type":"MultiPolygon","coordinates":[[[[123.397827,9.71958],[123.405823,9.7181],[123.41053,9.71797],[123.428703,9.71625],[123.428619,9.70991],[123.428741,9.70705],[123.42778,9.70312],[123.427521,9.70285],[123.426712,9.70188],[123.425362,9.69901],[123.424477,9.69534],[123.424103,9.69327],[123.423561,9.69028],[123.392212,9.69997],[123.392662,9.7033],[123.393173,9.70435],[123.39386,9.70577],[123.394859,9.70806],[123.396072,9.71098],[123.396889,9.71447],[123.397476,9.71746],[123.397827,9.71958]]]]}},{"type":"Feature","properties":{"ID_0":177,"ISO":"PHL","NAME_0":"Philippines","ID_1":7022,"NAME_1":"Cebu","ID_2":702203,"NAME_2":"Alegria","ID_3":702203005,"NAME_3":"Madridejos","NL_NAME_3":null,"VARNAME_3":null,"TYPE_3":"Barangay","ENGTYPE_3":"Village","PROVINCE":"Cebu","REGION":"Region VII (Central Visayas)","id":"barangay-0702203005","name":"Madridejos","barangayCode":"0702203005","population":null,"formattedPop":null,"densityCategory":"No data","vulnerabilityRating":"No data","healthRiskLevel":"No data","areaKm2":8.288052,"centerLat":9.781331,"centerLng":123.35596,"geometrySource":"all_barangay-2.csv detailed WKT","geometryMatchMethod":"unique_official_admin_names","boundaryPointCount":138},"geometry":{"type":"MultiPolygon","coordinates":[[[[123.37471,9.80827],[123.382858,9.80478],[123.373627,9.78296],[123.373428,9.78161],[123.373672,9.77996],[123.373978,9.77881],[123.374786,9.77552],[123.375793,9.77221],[123.376984,9.76856],[123.37413,9.76722],[123.371323,9.76667],[123.369186,9.76679],[123.367683,9.76661],[123.364258,9.76686],[123.362228,9.76736],[123.359558,9.76828],[123.356163,9.76866],[123.353088,9.76843],[123.350014,9.76814],[123.345329,9.76698],[123.345352,9.7671],[123.34552,9.76752],[123.345543,9.76775],[123.345573,9.76795],[123.345581,9.7683],[123.345802,9.76876],[123.345657,9.77014],[123.344978,9.7719],[123.34491,9.77251],[123.344749,9.77309],[123.344627,9.77367],[123.344467,9.77418],[123.344337,9.77467],[123.344193,9.7751],[123.344162,9.77551],[123.344177,9.77587],[123.344177,9.77625],[123.344231,9.7766],[123.344307,9.77694],[123.344322,9.77729],[123.344208,9.77763],[123.344009,9.77797],[123.343857,9.77837],[123.343681,9.77881],[123.343674,9.77931],[123.343819,9.77983],[123.343849,9.78008],[123.34388,9.78033],[123.343887,9.78081],[123.343887,9.78127],[123.343887,9.78172],[123.343887,9.78188],[123.343887,9.78216],[123.343887,9.78262],[123.343887,9.7831],[123.343903,9.7836],[123.343987,9.78412],[123.344139,9.78462],[123.344147,9.78479],[123.34417,9.78513],[123.344223,9.7856],[123.344223,9.78564],[123.344414,9.78614],[123.344521,9.78673],[123.344704,9.78727],[123.344719,9.78737],[123.344833,9.78785],[123.345047,9.78834],[123.345253,9.78885],[123.345322,9.78941],[123.345444,9.7897],[123.345528,9.78995],[123.345596,9.79021],[123.345673,9.79051],[123.345886,9.791],[123.346169,9.79132],[123.346207,9.79137],[123.346573,9.79165],[123.346947,9.79185],[123.347343,9.79203],[123.347778,9.79215],[123.348213,9.7923],[123.34864,9.79252],[123.348999,9.79284],[123.349228,9.79332],[123.349472,9.79388],[123.349808,9.79447],[123.350143,9.79511],[123.350594,9.79565],[123.351097,9.79608],[123.351662,9.79637],[123.352188,9.79659],[123.352654,9.79683],[123.353073,9.79711],[123.353493,9.79739],[123.353943,9.79768],[123.354401,9.79789],[123.354782,9.79813],[123.355072,9.7984],[123.355362,9.79862],[123.355659,9.79881],[123.35598,9.79891],[123.356049,9.79893],[123.356117,9.79897],[123.356392,9.79913],[123.35643,9.79916],[123.356903,9.7994],[123.357422,9.79967],[123.357857,9.8001],[123.358269,9.8006],[123.358597,9.80115],[123.35891,9.80168],[123.359207,9.80214],[123.359573,9.80249],[123.359917,9.80278],[123.360237,9.80308],[123.360542,9.80339],[123.360802,9.80371],[123.361023,9.80407],[123.361221,9.80441],[123.361488,9.80471],[123.361816,9.805],[123.362244,9.80531],[123.362679,9.80572],[123.363228,9.80613],[123.363792,9.80655],[123.364403,9.80689],[123.364937,9.80719],[123.365334,9.80759],[123.365578,9.80812],[123.365807,9.80868],[123.365959,9.80929],[123.366089,9.80988],[123.366112,9.8105],[123.366081,9.81112],[123.36602,9.8117],[123.366257,9.81204],[123.37471,9.80827]]]]}},{"type":"Feature","properties":{"ID_0":177,"ISO":"PHL","NAME_0":"Philippines","ID_1":7022,"NAME_1":"Cebu","ID_2":702203,"NAME_2":"Alegria","ID_3":702203006,"NAME_3":"Montpeller","NL_NAME_3":null,"VARNAME_3":null,"TYPE_3":"Barangay","ENGTYPE_3":"Village","PROVINCE":"Cebu","REGION":"Region VII (Central Visayas)","id":"barangay-0702203006","name":"Montpeller","barangayCode":"0702203006","population":null,"formattedPop":null,"densityCategory":"No data","vulnerabilityRating":"No data","healthRiskLevel":"No data","areaKm2":6.96576,"centerLat":9.714161,"centerLng":123.35567,"geometrySource":"all_barangay-2.csv detailed WKT","geometryMatchMethod":"unique_official_admin_names","boundaryPointCount":46},"geometry":{"type":"MultiPolygon","coordinates":[[[[123.361259,9.72278],[123.362801,9.72324],[123.363937,9.72361],[123.369102,9.7236],[123.373413,9.72341],[123.378593,9.72263],[123.384262,9.72176],[123.388847,9.72109],[123.393417,9.7204],[123.397827,9.71958],[123.397476,9.71746],[123.396889,9.71447],[123.396072,9.71098],[123.394859,9.70806],[123.39386,9.70577],[123.393173,9.70435],[123.392662,9.7033],[123.392212,9.69997],[123.389214,9.70088],[123.387337,9.70152],[123.384789,9.70155],[123.381363,9.70222],[123.379021,9.70269],[123.374687,9.70398],[123.370102,9.70537],[123.365593,9.70608],[123.361557,9.70622],[123.360451,9.70611],[123.358177,9.70638],[123.357048,9.70703],[123.355202,9.70796],[123.356239,9.71131],[123.356369,9.71279],[123.356148,9.71361],[123.356056,9.7138],[123.355743,9.71411],[123.355026,9.71486],[123.354408,9.71579],[123.353951,9.71676],[123.353737,9.71981],[123.353302,9.72028],[123.354538,9.72044],[123.355843,9.72055],[123.35833,9.72111],[123.360909,9.72216],[123.361259,9.72278]]]]}},{"type":"Feature","properties":{"ID_0":177,"ISO":"PHL","NAME_0":"Philippines","ID_1":7022,"NAME_1":"Cebu","ID_2":702203,"NAME_2":"Alegria","ID_3":702203007,"NAME_3":"Poblacion","NL_NAME_3":null,"VARNAME_3":null,"TYPE_3":"Barangay","ENGTYPE_3":"Village","PROVINCE":"Cebu","REGION":"Region VII (Central Visayas)","id":"barangay-0702203007","name":"Poblacion","barangayCode":"0702203007","population":null,"formattedPop":null,"densityCategory":"No data","vulnerabilityRating":"No data","healthRiskLevel":"No data","areaKm2":1.454952,"centerLat":9.731178,"centerLng":123.341938,"geometrySource":"barangays.geojson simplified fallback","geometryMatchMethod":"simplified_fallback","boundaryPointCount":5},"geometry":{"type":"Polygon","coordinates":[[[123.33971694200011,9.744034270000043],[123.3447578470001,9.722769305000043],[123.33849491800004,9.718696299000044],[123.3398574580001,9.725456501000053],[123.33971694200011,9.744034270000043]]]}},{"type":"Feature","properties":{"ID_0":177,"ISO":"PHL","NAME_0":"Philippines","ID_1":7022,"NAME_1":"Cebu","ID_2":702203,"NAME_2":"Alegria","ID_3":702203008,"NAME_3":"Santa Filomena","NL_NAME_3":null,"VARNAME_3":null,"TYPE_3":"Barangay","ENGTYPE_3":"Village","PROVINCE":"Cebu","REGION":"Region VII (Central Visayas)","id":"barangay-0702203008","name":"Santa Filomena","barangayCode":"0702203008","population":null,"formattedPop":null,"densityCategory":"No data","vulnerabilityRating":"No data","healthRiskLevel":"No data","areaKm2":4.510457,"centerLat":9.754077,"centerLng":123.351711,"geometrySource":"all_barangay-2.csv detailed WKT","geometryMatchMethod":"unique_official_admin_names","boundaryPointCount":87},"geometry":{"type":"MultiPolygon","coordinates":[[[[123.364258,9.76686],[123.362907,9.76227],[123.361809,9.75813],[123.361076,9.75375],[123.360619,9.75121],[123.36058,9.74951],[123.36145,9.74623],[123.36216,9.74247],[123.362289,9.73983],[123.362198,9.73801],[123.362,9.73685],[123.340157,9.73706],[123.339653,9.73709],[123.3396,9.73747],[123.33976,9.73953],[123.339523,9.7406],[123.339462,9.74124],[123.339439,9.74192],[123.339432,9.74259],[123.33947,9.74325],[123.339661,9.74385],[123.339912,9.74418],[123.340027,9.74434],[123.340508,9.74478],[123.340637,9.74491],[123.340851,9.74511],[123.340988,9.74525],[123.341499,9.74567],[123.341927,9.74611],[123.342216,9.74657],[123.342453,9.74696],[123.342484,9.7474],[123.342407,9.74785],[123.342461,9.74829],[123.342484,9.74868],[123.342392,9.74899],[123.342278,9.74925],[123.342201,9.74951],[123.342056,9.74976],[123.341957,9.75006],[123.341942,9.75046],[123.341942,9.75088],[123.341957,9.75131],[123.342087,9.75169],[123.342171,9.75191],[123.342232,9.75207],[123.342407,9.75244],[123.342537,9.75288],[123.342758,9.75329],[123.342911,9.75374],[123.343063,9.75422],[123.343102,9.75442],[123.343178,9.75471],[123.343269,9.75505],[123.343307,9.75518],[123.343338,9.75564],[123.343643,9.75696],[123.343819,9.75779],[123.343887,9.75809],[123.343887,9.7584],[123.343857,9.75875],[123.343781,9.75914],[123.343773,9.75918],[123.343697,9.7596],[123.343536,9.76013],[123.343613,9.76073],[123.343727,9.76135],[123.343857,9.76196],[123.343849,9.762],[123.343933,9.76251],[123.344116,9.76297],[123.344177,9.7635],[123.344208,9.76367],[123.344276,9.76402],[123.344559,9.76445],[123.344681,9.76468],[123.34481,9.76492],[123.344978,9.76546],[123.345039,9.76605],[123.345253,9.76658],[123.345329,9.76698],[123.350014,9.76814],[123.353088,9.76843],[123.356163,9.76866],[123.359558,9.76828],[123.362228,9.76736],[123.364258,9.76686]]]]}},{"type":"Feature","properties":{"ID_0":177,"ISO":"PHL","NAME_0":"Philippines","ID_1":7022,"NAME_1":"Cebu","ID_2":702203,"NAME_2":"Alegria","ID_3":702203009,"NAME_3":"Valencia","NL_NAME_3":null,"VARNAME_3":null,"TYPE_3":"Barangay","ENGTYPE_3":"Village","PROVINCE":"Cebu","REGION":"Region VII (Central Visayas)","id":"barangay-0702203009","name":"Valencia","barangayCode":"0702203009","population":null,"formattedPop":null,"densityCategory":"No data","vulnerabilityRating":"No data","healthRiskLevel":"No data","areaKm2":13.899636,"centerLat":9.756992,"centerLng":123.389219,"geometrySource":"all_barangay-2.csv detailed WKT","geometryMatchMethod":"unique_official_admin_names","boundaryPointCount":33},"geometry":{"type":"MultiPolygon","coordinates":[[[[123.426537,9.76706],[123.426559,9.76593],[123.426643,9.76232],[123.426743,9.75709],[123.426773,9.75311],[123.426277,9.74956],[123.425919,9.74804],[123.416771,9.74869],[123.413017,9.74876],[123.399872,9.74814],[123.388763,9.74796],[123.380913,9.7483],[123.36058,9.74951],[123.360619,9.75121],[123.361076,9.75375],[123.361809,9.75813],[123.362907,9.76227],[123.364258,9.76686],[123.367683,9.76661],[123.369186,9.76679],[123.371323,9.76667],[123.37413,9.76722],[123.376984,9.76856],[123.380333,9.76911],[123.384262,9.7699],[123.387894,9.76994],[123.392143,9.77018],[123.396896,9.7702],[123.399986,9.76939],[123.407898,9.76873],[123.413597,9.76774],[123.420021,9.7672],[123.426537,9.76706]]]]}}]}
