{"type":"FeatureCollection","features":[{"type":"Feature","properties":{"ID_0":177,"ISO":"PHL","NAME_0":"Philippines","ID_1":4034,"NAME_1":"Laguna","ID_2":403401,"NAME_2":"Alaminos","ID_3":403401001,"NAME_3":"Del Carmen","NL_NAME_3":null,"VARNAME_3":null,"TYPE_3":"Barangay","ENGTYPE_3":"Village","PROVINCE":"Laguna","REGION":"Region IV-A (Calabarzon)","id":"barangay-0403401001","name":"Del Carmen","barangayCode":"0403401001","population":null,"formattedPop":null,"densityCategory":"No data","vulnerabilityRating":"No data","healthRiskLevel":"No data","areaKm2":4.847818,"centerLat":14.079687,"centerLng":121.265549,"geometrySource":"all_barangay-2.csv detailed WKT","geometryMatchMethod":"unique_official_admin_names","boundaryPointCount":42},"geometry":{"type":"MultiPolygon","coordinates":[[[[121.274033,14.0931],[121.280952,14.09025],[121.277031,14.08603],[121.274437,14.08357],[121.274307,14.08239],[121.272491,14.08128],[121.272881,14.08068],[121.273453,14.08076],[121.273651,14.08018],[121.272583,14.07916],[121.273064,14.07802],[121.272453,14.07751],[121.273354,14.07674],[121.272949,14.07597],[121.272957,14.07525],[121.272423,14.07521],[121.272118,14.07485],[121.271202,14.07429],[121.270981,14.07363],[121.271629,14.07299],[121.272499,14.07307],[121.273407,14.07231],[121.274712,14.07257],[121.274887,14.07181],[121.274559,14.07042],[121.27401,14.07023],[121.264862,14.06791],[121.259247,14.06606],[121.259216,14.06627],[121.258957,14.06959],[121.258759,14.07217],[121.258133,14.07635],[121.257141,14.07952],[121.259857,14.08107],[121.262451,14.08577],[121.263939,14.08928],[121.262123,14.09415],[121.260323,14.09752],[121.262123,14.09922],[121.264763,14.09794],[121.269432,14.09611],[121.274033,14.0931]]]]}},{"type":"Feature","properties":{"ID_0":177,"ISO":"PHL","NAME_0":"Philippines","ID_1":4034,"NAME_1":"Laguna","ID_2":403401,"NAME_2":"Alaminos","ID_3":403401002,"NAME_3":"Palma","NL_NAME_3":null,"VARNAME_3":null,"TYPE_3":"Barangay","ENGTYPE_3":"Village","PROVINCE":"Laguna","REGION":"Region IV-A (Calabarzon)","id":"barangay-0403401002","name":"Palma","barangayCode":"0403401002","population":null,"formattedPop":null,"densityCategory":"No data","vulnerabilityRating":"No data","healthRiskLevel":"No data","areaKm2":10.210577,"centerLat":14.025251,"centerLng":121.231806,"geometrySource":"all_barangay-2.csv detailed WKT","geometryMatchMethod":"unique_official_admin_names","boundaryPointCount":39},"geometry":{"type":"MultiPolygon","coordinates":[[[[121.23114,14.05404],[121.232452,14.05335],[121.233597,14.05233],[121.233803,14.05085],[121.232582,14.04861],[121.232094,14.04518],[121.231407,14.04156],[121.232597,14.03727],[121.234108,14.03321],[121.236412,14.03117],[121.239563,14.0302],[121.239433,14.02845],[121.239418,14.02546],[121.240097,14.02209],[121.239563,14.01819],[121.239594,14.01381],[121.240761,14.01026],[121.241409,14.00687],[121.240952,14.00432],[121.241043,14.00152],[121.236794,13.99382],[121.234734,13.99706],[121.231812,14.00073],[121.228882,14.00391],[121.225754,14.00872],[121.223984,14.0133],[121.222504,14.01589],[121.220512,14.01917],[121.218727,14.02222],[121.217194,14.02546],[121.219872,14.03398],[121.221527,14.03696],[121.222923,14.04007],[121.224548,14.04369],[121.228722,14.04732],[121.230019,14.05149],[121.229759,14.05282],[121.230087,14.05317],[121.23114,14.05404]]]]}},{"type":"Feature","properties":{"ID_0":177,"ISO":"PHL","NAME_0":"Philippines","ID_1":4034,"NAME_1":"Laguna","ID_2":403401,"NAME_2":"Alaminos","ID_3":403401003,"NAME_3":"Barangay I","NL_NAME_3":null,"VARNAME_3":null,"TYPE_3":"Barangay","ENGTYPE_3":"Village","PROVINCE":"Laguna","REGION":"Region IV-A (Calabarzon)","id":"barangay-0403401003","name":"Barangay I","barangayCode":"0403401003","population":null,"formattedPop":null,"densityCategory":"No data","vulnerabilityRating":"No data","healthRiskLevel":"No data","areaKm2":0.713214,"centerLat":14.061691,"centerLng":121.250719,"geometrySource":"all_barangay-2.csv detailed WKT","geometryMatchMethod":"unique_official_admin_names","boundaryPointCount":11},"geometry":{"type":"MultiPolygon","coordinates":[[[[121.259247,14.06606],[121.25956,14.06276],[121.2584,14.05989],[121.255501,14.05957],[121.253593,14.05948],[121.251923,14.06227],[121.251167,14.06353],[121.250977,14.06427],[121.250793,14.06537],[121.259171,14.06603],[121.259247,14.06606]]]]}},{"type":"Feature","properties":{"ID_0":177,"ISO":"PHL","NAME_0":"Philippines","ID_1":4034,"NAME_1":"Laguna","ID_2":403401,"NAME_2":"Alaminos","ID_3":403401004,"NAME_3":"Barangay II","NL_NAME_3":null,"VARNAME_3":null,"TYPE_3":"Barangay","ENGTYPE_3":"Village","PROVINCE":"Laguna","REGION":"Region IV-A (Calabarzon)","id":"barangay-0403401004","name":"Barangay II","barangayCode":"0403401004","population":null,"formattedPop":null,"densityCategory":"No data","vulnerabilityRating":"No data","healthRiskLevel":"No data","areaKm2":0.741416,"centerLat":14.06639,"centerLng":121.239076,"geometrySource":"all_barangay-2.csv detailed WKT","geometryMatchMethod":"unique_official_admin_names","boundaryPointCount":21},"geometry":{"type":"MultiPolygon","coordinates":[[[[121.249908,14.0769],[121.250038,14.07617],[121.250168,14.07338],[121.250481,14.07144],[121.250481,14.06991],[121.250549,14.06621],[121.250793,14.06537],[121.250977,14.06427],[121.249619,14.06395],[121.247307,14.06395],[121.242203,14.0638],[121.240494,14.0665],[121.238899,14.06874],[121.23761,14.07002],[121.235458,14.07157],[121.233803,14.07267],[121.235847,14.07318],[121.240196,14.0717],[121.24366,14.07359],[121.246674,14.07645],[121.249908,14.0769]]]]}},{"type":"Feature","properties":{"ID_0":177,"ISO":"PHL","NAME_0":"Philippines","ID_1":4034,"NAME_1":"Laguna","ID_2":403401,"NAME_2":"Alaminos","ID_3":403401005,"NAME_3":"Barangay III","NL_NAME_3":null,"VARNAME_3":null,"TYPE_3":"Barangay","ENGTYPE_3":"Village","PROVINCE":"Laguna","REGION":"Region IV-A (Calabarzon)","id":"barangay-0403401005","name":"Barangay III","barangayCode":"0403401005","population":null,"formattedPop":null,"densityCategory":"No data","vulnerabilityRating":"No data","healthRiskLevel":"No data","areaKm2":1.171419,"centerLat":14.069291,"centerLng":121.248207,"geometrySource":"all_barangay-2.csv detailed WKT","geometryMatchMethod":"unique_official_admin_names","boundaryPointCount":17},"geometry":{"type":"MultiPolygon","coordinates":[[[[121.249908,14.0769],[121.252571,14.07684],[121.255966,14.07851],[121.257141,14.07952],[121.258133,14.07635],[121.258759,14.07217],[121.258957,14.06959],[121.259216,14.06627],[121.259247,14.06606],[121.259171,14.06603],[121.250793,14.06537],[121.250549,14.06621],[121.250481,14.06991],[121.250481,14.07144],[121.250168,14.07338],[121.250038,14.07617],[121.249908,14.0769]]]]}},{"type":"Feature","properties":{"ID_0":177,"ISO":"PHL","NAME_0":"Philippines","ID_1":4034,"NAME_1":"Laguna","ID_2":403401,"NAME_2":"Alaminos","ID_3":403401006,"NAME_3":"Barangay IV","NL_NAME_3":null,"VARNAME_3":null,"TYPE_3":"Barangay","ENGTYPE_3":"Village","PROVINCE":"Laguna","REGION":"Region IV-A (Calabarzon)","id":"barangay-0403401006","name":"Barangay IV","barangayCode":"0403401006","population":null,"formattedPop":null,"densityCategory":"No data","vulnerabilityRating":"No data","healthRiskLevel":"No data","areaKm2":0.26259,"centerLat":14.06093,"centerLng":121.244568,"geometrySource":"all_barangay-2.csv detailed WKT","geometryMatchMethod":"unique_official_admin_names","boundaryPointCount":10},"geometry":{"type":"MultiPolygon","coordinates":[[[[121.242203,14.0638],[121.247307,14.06395],[121.249619,14.06395],[121.250977,14.06427],[121.251167,14.06353],[121.251923,14.06227],[121.253593,14.05948],[121.250771,14.06058],[121.245247,14.06179],[121.242203,14.0638]]]]}},{"type":"Feature","properties":{"ID_0":177,"ISO":"PHL","NAME_0":"Philippines","ID_1":4034,"NAME_1":"Laguna","ID_2":403401,"NAME_2":"Alaminos","ID_3":403401007,"NAME_3":"San Agustin","NL_NAME_3":null,"VARNAME_3":null,"TYPE_3":"Barangay","ENGTYPE_3":"Village","PROVINCE":"Laguna","REGION":"Region IV-A (Calabarzon)","id":"barangay-0403401007","name":"San Agustin","barangayCode":"0403401007","population":null,"formattedPop":null,"densityCategory":"No data","vulnerabilityRating":"No data","healthRiskLevel":"No data","areaKm2":2.959093,"centerLat":14.059459,"centerLng":121.264378,"geometrySource":"all_barangay-2.csv detailed WKT","geometryMatchMethod":"unique_official_admin_names","boundaryPointCount":19},"geometry":{"type":"MultiPolygon","coordinates":[[[[121.27298,14.06691],[121.27269,14.06594],[121.272324,14.06171],[121.272034,14.05506],[121.272667,14.04912],[121.272583,14.04885],[121.269897,14.05061],[121.263748,14.05359],[121.261093,14.05497],[121.2584,14.05989],[121.25956,14.06276],[121.259247,14.06606],[121.264862,14.06791],[121.27401,14.07023],[121.273949,14.06967],[121.273064,14.06875],[121.273048,14.06801],[121.272476,14.06748],[121.27298,14.06691]]]]}},{"type":"Feature","properties":{"ID_0":177,"ISO":"PHL","NAME_0":"Philippines","ID_1":4034,"NAME_1":"Laguna","ID_2":403401,"NAME_2":"Alaminos","ID_3":403401008,"NAME_3":"San Andres","NL_NAME_3":null,"VARNAME_3":null,"TYPE_3":"Barangay","ENGTYPE_3":"Village","PROVINCE":"Laguna","REGION":"Region IV-A (Calabarzon)","id":"barangay-0403401008","name":"San Andres","barangayCode":"0403401008","population":null,"formattedPop":null,"densityCategory":"No data","vulnerabilityRating":"No data","healthRiskLevel":"No data","areaKm2":5.785982,"centerLat":14.070033,"centerLng":121.219235,"geometrySource":"all_barangay-2.csv detailed WKT","geometryMatchMethod":"unique_official_admin_names","boundaryPointCount":34},"geometry":{"type":"MultiPolygon","coordinates":[[[[121.217308,14.08564],[121.219238,14.0835],[121.221619,14.08215],[121.223373,14.08102],[121.225479,14.08061],[121.230553,14.0758],[121.233803,14.07267],[121.234467,14.07128],[121.229729,14.06921],[121.22596,14.06653],[121.225563,14.06226],[121.22599,14.06008],[121.227287,14.05772],[121.229721,14.05525],[121.231194,14.05408],[121.23114,14.05404],[121.230087,14.05317],[121.2258,14.05286],[121.220558,14.05358],[121.215881,14.05609],[121.213074,14.05861],[121.212837,14.06068],[121.212578,14.06285],[121.212227,14.06646],[121.2118,14.06877],[121.211472,14.07083],[121.211128,14.07298],[121.210602,14.07468],[121.210297,14.07691],[121.210068,14.07847],[121.209717,14.08025],[121.209732,14.08816],[121.215912,14.08653],[121.217308,14.08564]]]]}},{"type":"Feature","properties":{"ID_0":177,"ISO":"PHL","NAME_0":"Philippines","ID_1":4034,"NAME_1":"Laguna","ID_2":403401,"NAME_2":"Alaminos","ID_3":403401009,"NAME_3":"San Benito","NL_NAME_3":null,"VARNAME_3":null,"TYPE_3":"Barangay","ENGTYPE_3":"Village","PROVINCE":"Laguna","REGION":"Region IV-A (Calabarzon)","id":"barangay-0403401009","name":"San Benito","barangayCode":"0403401009","population":null,"formattedPop":null,"densityCategory":"No data","vulnerabilityRating":"No data","healthRiskLevel":"No data","areaKm2":3.701722,"centerLat":14.057209,"centerLng":121.279821,"geometrySource":"all_barangay-2.csv detailed WKT","geometryMatchMethod":"unique_official_admin_names","boundaryPointCount":85},"geometry":{"type":"MultiPolygon","coordinates":[[[[121.28553,14.06708],[121.286186,14.06642],[121.28598,14.06586],[121.286774,14.06498],[121.287209,14.06508],[121.287292,14.06418],[121.287949,14.06396],[121.288162,14.06168],[121.287514,14.06161],[121.287216,14.06113],[121.28759,14.06049],[121.287727,14.05965],[121.288177,14.05943],[121.288696,14.05843],[121.288353,14.05794],[121.288727,14.05718],[121.289268,14.05588],[121.288818,14.05525],[121.288437,14.05494],[121.288834,14.05421],[121.28846,14.05396],[121.287888,14.05383],[121.28772,14.05352],[121.287941,14.05333],[121.287956,14.05318],[121.289017,14.05289],[121.289177,14.05223],[121.289528,14.0521],[121.289948,14.05121],[121.288887,14.05105],[121.288406,14.05005],[121.288231,14.04705],[121.28817,14.04669],[121.28743,14.04657],[121.287209,14.04692],[121.286293,14.04705],[121.285751,14.04685],[121.285278,14.04684],[121.284264,14.04659],[121.283752,14.04659],[121.282951,14.04606],[121.282967,14.0457],[121.282272,14.04534],[121.281258,14.0465],[121.280807,14.04639],[121.28022,14.04713],[121.279266,14.04691],[121.278763,14.04773],[121.278969,14.04811],[121.278343,14.0486],[121.277481,14.04845],[121.276611,14.05],[121.276154,14.04986],[121.275757,14.05008],[121.275307,14.04972],[121.275818,14.04873],[121.275414,14.04826],[121.274513,14.04864],[121.272667,14.04912],[121.272034,14.05506],[121.272324,14.06171],[121.27269,14.06594],[121.27298,14.06691],[121.274887,14.06733],[121.275124,14.0671],[121.276413,14.06752],[121.276543,14.0667],[121.276482,14.06649],[121.27655,14.06624],[121.27729,14.06625],[121.278236,14.06497],[121.279083,14.06512],[121.278488,14.06639],[121.279709,14.06651],[121.279861,14.06602],[121.280884,14.06609],[121.281891,14.06626],[121.282066,14.06684],[121.282623,14.06718],[121.282753,14.06771],[121.283218,14.06783],[121.283447,14.06753],[121.284393,14.06753],[121.284409,14.06704],[121.28553,14.06708]]]]}},{"type":"Feature","properties":{"ID_0":177,"ISO":"PHL","NAME_0":"Philippines","ID_1":4034,"NAME_1":"Laguna","ID_2":403401,"NAME_2":"Alaminos","ID_3":403401010,"NAME_3":"San Gregorio","NL_NAME_3":null,"VARNAME_3":null,"TYPE_3":"Barangay","ENGTYPE_3":"Village","PROVINCE":"Laguna","REGION":"Region IV-A (Calabarzon)","id":"barangay-0403401010","name":"San Gregorio","barangayCode":"0403401010","population":null,"formattedPop":null,"densityCategory":"No data","vulnerabilityRating":"No data","healthRiskLevel":"No data","areaKm2":15.293098,"centerLat":14.019269,"centerLng":121.255922,"geometrySource":"all_barangay-2.csv detailed WKT","geometryMatchMethod":"unique_official_admin_names","boundaryPointCount":83},"geometry":{"type":"MultiPolygon","coordinates":[[[[121.254967,14.04371],[121.254936,14.0434],[121.259933,14.03974],[121.264481,14.03608],[121.277184,14.02901],[121.276001,14.02881],[121.274422,14.02685],[121.273697,14.02674],[121.27285,14.02525],[121.275208,14.02403],[121.274834,14.0229],[121.274139,14.02151],[121.27478,14.02094],[121.274681,14.02054],[121.27417,14.01981],[121.27462,14.01936],[121.275223,14.0193],[121.274933,14.01863],[121.273277,14.01681],[121.273354,14.01622],[121.272629,14.01606],[121.27256,14.01652],[121.272163,14.01629],[121.271759,14.01624],[121.270943,14.01596],[121.271057,14.01529],[121.26963,14.01464],[121.269577,14.01366],[121.269989,14.0132],[121.269783,14.01292],[121.268967,14.01296],[121.268883,14.01282],[121.26825,14.01283],[121.26799,14.01313],[121.267517,14.01302],[121.267021,14.01379],[121.266602,14.01368],[121.266487,14.01239],[121.266891,14.0118],[121.265678,14.01007],[121.265427,14.00941],[121.264832,14.00877],[121.265213,14.00828],[121.263977,14.0067],[121.26413,14.00627],[121.261948,14.00485],[121.262032,14.00393],[121.260521,14.00276],[121.259064,14.00427],[121.253937,14.00013],[121.252518,13.99923],[121.251839,13.99887],[121.25132,13.99887],[121.251534,13.99821],[121.250877,13.99643],[121.251747,13.99581],[121.251099,13.99573],[121.250801,13.99576],[121.250587,13.99534],[121.250237,13.99527],[121.249947,13.99537],[121.249634,13.9953],[121.24971,13.99469],[121.248749,13.99318],[121.245453,13.99276],[121.239159,13.99149],[121.236794,13.99382],[121.241043,14.00152],[121.240952,14.00432],[121.241409,14.00687],[121.240761,14.01026],[121.239594,14.01381],[121.239563,14.01819],[121.240097,14.02209],[121.239418,14.02546],[121.239433,14.02845],[121.239563,14.0302],[121.241158,14.03168],[121.24662,14.035],[121.249557,14.03804],[121.251663,14.04082],[121.253891,14.0432],[121.254967,14.04371]]]]}},{"type":"Feature","properties":{"ID_0":177,"ISO":"PHL","NAME_0":"Philippines","ID_1":4034,"NAME_1":"Laguna","ID_2":403401,"NAME_2":"Alaminos","ID_3":403401011,"NAME_3":"San Ildefonso","NL_NAME_3":null,"VARNAME_3":null,"TYPE_3":"Barangay","ENGTYPE_3":"Village","PROVINCE":"Laguna","REGION":"Region IV-A (Calabarzon)","id":"barangay-0403401011","name":"San Ildefonso","barangayCode":"0403401011","population":null,"formattedPop":null,"densityCategory":"No data","vulnerabilityRating":"No data","healthRiskLevel":"No data","areaKm2":3.313135,"centerLat":14.044449,"centerLng":121.219926,"geometrySource":"all_barangay-2.csv detailed WKT","geometryMatchMethod":"unique_official_admin_names","boundaryPointCount":22},"geometry":{"type":"MultiPolygon","coordinates":[[[[121.213074,14.05861],[121.215881,14.05609],[121.220558,14.05358],[121.2258,14.05286],[121.230087,14.05317],[121.229759,14.05282],[121.230019,14.05149],[121.228722,14.04732],[121.224548,14.04369],[121.222923,14.04007],[121.221527,14.03696],[121.219872,14.03398],[121.217194,14.02546],[121.216042,14.02767],[121.215523,14.0324],[121.214211,14.03616],[121.213203,14.0408],[121.213417,14.04806],[121.213463,14.05118],[121.213547,14.0534],[121.213387,14.05611],[121.213074,14.05861]]]]}},{"type":"Feature","properties":{"ID_0":177,"ISO":"PHL","NAME_0":"Philippines","ID_1":4034,"NAME_1":"Laguna","ID_2":403401,"NAME_2":"Alaminos","ID_3":403401012,"NAME_3":"San Juan","NL_NAME_3":null,"VARNAME_3":null,"TYPE_3":"Barangay","ENGTYPE_3":"Village","PROVINCE":"Laguna","REGION":"Region IV-A (Calabarzon)","id":"barangay-0403401012","name":"San Juan","barangayCode":"0403401012","population":null,"formattedPop":null,"densityCategory":"No data","vulnerabilityRating":"No data","healthRiskLevel":"No data","areaKm2":2.147417,"centerLat":14.060327,"centerLng":121.231898,"geometrySource":"all_barangay-2.csv detailed WKT","geometryMatchMethod":"unique_official_admin_names","boundaryPointCount":29},"geometry":{"type":"MultiPolygon","coordinates":[[[[121.242203,14.0638],[121.245247,14.06179],[121.250771,14.06058],[121.253593,14.05948],[121.251442,14.05746],[121.248817,14.05648],[121.244247,14.05577],[121.241493,14.05461],[121.239883,14.05392],[121.236229,14.05303],[121.23481,14.05178],[121.233803,14.05085],[121.233597,14.05233],[121.232452,14.05335],[121.23114,14.05404],[121.231194,14.05408],[121.229721,14.05525],[121.227287,14.05772],[121.22599,14.06008],[121.225563,14.06226],[121.22596,14.06653],[121.229729,14.06921],[121.234467,14.07128],[121.233803,14.07267],[121.235458,14.07157],[121.23761,14.07002],[121.238899,14.06874],[121.240494,14.0665],[121.242203,14.0638]]]]}},{"type":"Feature","properties":{"ID_0":177,"ISO":"PHL","NAME_0":"Philippines","ID_1":4034,"NAME_1":"Laguna","ID_2":403401,"NAME_2":"Alaminos","ID_3":403401013,"NAME_3":"San Miguel","NL_NAME_3":null,"VARNAME_3":null,"TYPE_3":"Barangay","ENGTYPE_3":"Village","PROVINCE":"Laguna","REGION":"Region IV-A (Calabarzon)","id":"barangay-0403401013","name":"San Miguel","barangayCode":"0403401013","population":null,"formattedPop":null,"densityCategory":"No data","vulnerabilityRating":"No data","healthRiskLevel":"No data","areaKm2":2.122567,"centerLat":14.049127,"centerLng":121.255971,"geometrySource":"all_barangay-2.csv detailed WKT","geometryMatchMethod":"unique_official_admin_names","boundaryPointCount":14},"geometry":{"type":"MultiPolygon","coordinates":[[[[121.2584,14.05989],[121.261093,14.05497],[121.263748,14.05359],[121.263443,14.05297],[121.26178,14.04957],[121.254967,14.04371],[121.250572,14.04687],[121.241493,14.05461],[121.244247,14.05577],[121.248817,14.05648],[121.251442,14.05746],[121.253593,14.05948],[121.255501,14.05957],[121.2584,14.05989]]]]}},{"type":"Feature","properties":{"ID_0":177,"ISO":"PHL","NAME_0":"Philippines","ID_1":4034,"NAME_1":"Laguna","ID_2":403401,"NAME_2":"Alaminos","ID_3":403401014,"NAME_3":"San Roque","NL_NAME_3":null,"VARNAME_3":null,"TYPE_3":"Barangay","ENGTYPE_3":"Village","PROVINCE":"Laguna","REGION":"Region IV-A (Calabarzon)","id":"barangay-0403401014","name":"San Roque","barangayCode":"0403401014","population":null,"formattedPop":null,"densityCategory":"No data","vulnerabilityRating":"No data","healthRiskLevel":"No data","areaKm2":2.253819,"centerLat":14.043485,"centerLng":121.271437,"geometrySource":"all_barangay-2.csv detailed WKT","geometryMatchMethod":"unique_official_admin_names","boundaryPointCount":57},"geometry":{"type":"MultiPolygon","coordinates":[[[[121.263748,14.05359],[121.269897,14.05061],[121.272583,14.04885],[121.272667,14.04912],[121.274513,14.04864],[121.275414,14.04826],[121.275436,14.04731],[121.274918,14.04699],[121.275497,14.04633],[121.276077,14.04639],[121.276497,14.04603],[121.276993,14.04608],[121.277832,14.04568],[121.277893,14.04549],[121.278427,14.04581],[121.278801,14.04551],[121.277191,14.04402],[121.277939,14.04295],[121.279266,14.04317],[121.278954,14.04376],[121.280167,14.04457],[121.280983,14.04331],[121.280418,14.043],[121.280319,14.04245],[121.279922,14.04223],[121.279861,14.04152],[121.278587,14.04109],[121.27977,14.04],[121.279488,14.03959],[121.280006,14.03922],[121.280533,14.03863],[121.281158,14.03904],[121.281502,14.03862],[121.28318,14.0381],[121.283257,14.03757],[121.282997,14.03704],[121.282654,14.0372],[121.281387,14.03667],[121.281143,14.03621],[121.280647,14.03583],[121.28009,14.0359],[121.279938,14.03572],[121.280067,14.0353],[121.279556,14.03498],[121.278862,14.03506],[121.278358,14.03445],[121.278687,14.0324],[121.277077,14.03014],[121.277428,14.02942],[121.277184,14.02901],[121.264481,14.03608],[121.259933,14.03974],[121.254936,14.0434],[121.254967,14.04371],[121.26178,14.04957],[121.263443,14.05297],[121.263748,14.05359]]]]}},{"type":"Feature","properties":{"ID_0":177,"ISO":"PHL","NAME_0":"Philippines","ID_1":4034,"NAME_1":"Laguna","ID_2":403401,"NAME_2":"Alaminos","ID_3":403401015,"NAME_3":"Santa Rosa","NL_NAME_3":null,"VARNAME_3":null,"TYPE_3":"Barangay","ENGTYPE_3":"Village","PROVINCE":"Laguna","REGION":"Region IV-A (Calabarzon)","id":"barangay-0403401015","name":"Santa Rosa","barangayCode":"0403401015","population":null,"formattedPop":null,"densityCategory":"No data","vulnerabilityRating":"No data","healthRiskLevel":"No data","areaKm2":4.124879,"centerLat":14.041819,"centerLng":121.242352,"geometrySource":"all_barangay-2.csv detailed WKT","geometryMatchMethod":"unique_official_admin_names","boundaryPointCount":20},"geometry":{"type":"MultiPolygon","coordinates":[[[[121.241493,14.05461],[121.250572,14.04687],[121.254967,14.04371],[121.253891,14.0432],[121.251663,14.04082],[121.249557,14.03804],[121.24662,14.035],[121.241158,14.03168],[121.239563,14.0302],[121.236412,14.03117],[121.234108,14.03321],[121.232597,14.03727],[121.231407,14.04156],[121.232094,14.04518],[121.232582,14.04861],[121.233803,14.05085],[121.23481,14.05178],[121.236229,14.05303],[121.239883,14.05392],[121.241493,14.05461]]]]}}]}
