{"type":"FeatureCollection","features":[{"type":"Feature","properties":{"ID_0":177,"ISO":"PHL","NAME_0":"Philippines","ID_1":12063,"NAME_1":"South Cotabato","ID_2":1206306,"NAME_2":"City of Koronadal (Capital)","ID_3":1206306001,"NAME_3":"Assumption","NL_NAME_3":null,"VARNAME_3":null,"TYPE_3":"Barangay","ENGTYPE_3":"Village","PROVINCE":"South Cotabato","REGION":"Region XII (Soccsksargen)","id":"barangay-1206306001","name":"Assumption","barangayCode":"1206306001","population":null,"formattedPop":null,"densityCategory":"No data","vulnerabilityRating":"No data","healthRiskLevel":"No data","areaKm2":8.971785,"centerLat":6.44053,"centerLng":124.844464,"geometrySource":"all_barangay-2.csv detailed WKT","geometryMatchMethod":"psgc_coordinate_bridge","boundaryPointCount":30},"geometry":{"type":"MultiPolygon","coordinates":[[[[124.877899,6.42677],[124.878479,6.40851],[124.858482,6.37985],[124.854263,6.38527],[124.853592,6.38861],[124.852333,6.39184],[124.850807,6.39345],[124.852837,6.39525],[124.855827,6.39724],[124.856979,6.39992],[124.8554,6.40337],[124.853882,6.40773],[124.851807,6.40877],[124.85022,6.41106],[124.849289,6.41468],[124.850014,6.41754],[124.852203,6.41771],[124.854134,6.41857],[124.855423,6.4202],[124.858208,6.42085],[124.859558,6.42298],[124.860168,6.42382],[124.863197,6.4237],[124.865913,6.4253],[124.866737,6.42249],[124.870621,6.42132],[124.871964,6.42025],[124.874603,6.42032],[124.874153,6.42299],[124.877899,6.42677]]]]}},{"type":"Feature","properties":{"ID_0":177,"ISO":"PHL","NAME_0":"Philippines","ID_1":12063,"NAME_1":"South Cotabato","ID_2":1206306,"NAME_2":"City of Koronadal (Capital)","ID_3":1206306002,"NAME_3":"Avanceña","NL_NAME_3":null,"VARNAME_3":"Avancena (Bo. 3)","TYPE_3":"Barangay","ENGTYPE_3":"Village","PROVINCE":"South Cotabato","REGION":"Region XII (Soccsksargen)","id":"barangay-1206306002","name":"Avanceña","barangayCode":"1206306002","population":null,"formattedPop":null,"densityCategory":"No data","vulnerabilityRating":"No data","healthRiskLevel":"No data","areaKm2":7.509597,"centerLat":6.536292,"centerLng":124.876929,"geometrySource":"barangays.geojson simplified fallback","geometryMatchMethod":"simplified_fallback","boundaryPointCount":5},"geometry":{"type":"Polygon","coordinates":[[[124.88388306000002,6.551315230000057],[124.88888548600005,6.528772008000033],[124.87555561400006,6.516717509000046],[124.86005515700003,6.538028619000045],[124.88388306000002,6.551315230000057]]]}},{"type":"Feature","properties":{"ID_0":177,"ISO":"PHL","NAME_0":"Philippines","ID_1":12063,"NAME_1":"South Cotabato","ID_2":1206306,"NAME_2":"City of Koronadal (Capital)","ID_3":1206306003,"NAME_3":"Cacub","NL_NAME_3":null,"VARNAME_3":null,"TYPE_3":"Barangay","ENGTYPE_3":"Village","PROVINCE":"South Cotabato","REGION":"Region XII (Soccsksargen)","id":"barangay-1206306003","name":"Cacub","barangayCode":"1206306003","population":null,"formattedPop":null,"densityCategory":"No data","vulnerabilityRating":"No data","healthRiskLevel":"No data","areaKm2":26.703146,"centerLat":6.523647,"centerLng":124.957531,"geometrySource":"all_barangay-2.csv detailed WKT","geometryMatchMethod":"psgc_coordinate_bridge","boundaryPointCount":43},"geometry":{"type":"MultiPolygon","coordinates":[[[[124.982674,6.53541],[125.008598,6.53562],[125.015083,6.53549],[125.019783,6.5354],[124.994667,6.49322],[124.995583,6.48923],[124.996643,6.48691],[124.996536,6.48377],[124.994942,6.48025],[124.989029,6.47413],[124.986801,6.47441],[124.98349,6.47502],[124.979309,6.47462],[124.974762,6.48012],[124.970863,6.48296],[124.965073,6.47913],[124.961456,6.47822],[124.957062,6.47851],[124.954697,6.47568],[124.950684,6.4746],[124.946609,6.47555],[124.945419,6.47468],[124.945618,6.47328],[124.943489,6.47351],[124.942001,6.47161],[124.939857,6.47206],[124.940262,6.47916],[124.925652,6.48872],[124.928337,6.49162],[124.929802,6.4982],[124.931267,6.4996],[124.933472,6.50005],[124.937019,6.50356],[124.939003,6.50491],[124.941368,6.50841],[124.942093,6.511],[124.944763,6.51291],[124.948639,6.51426],[124.951118,6.51326],[124.960426,6.5161],[124.96183,6.51872],[124.967934,6.52272],[124.982674,6.53541]]]]}},{"type":"Feature","properties":{"ID_0":177,"ISO":"PHL","NAME_0":"Philippines","ID_1":12063,"NAME_1":"South Cotabato","ID_2":1206306,"NAME_2":"City of Koronadal (Capital)","ID_3":1206306005,"NAME_3":"Carpenter Hill","NL_NAME_3":null,"VARNAME_3":null,"TYPE_3":"Barangay","ENGTYPE_3":"Village","PROVINCE":"South Cotabato","REGION":"Region XII (Soccsksargen)","id":"barangay-1206306005","name":"Carpenter Hill","barangayCode":"1206306005","population":null,"formattedPop":null,"densityCategory":"No data","vulnerabilityRating":"No data","healthRiskLevel":"No data","areaKm2":9.918363,"centerLat":6.453967,"centerLng":124.873153,"geometrySource":"all_barangay-2.csv detailed WKT","geometryMatchMethod":"psgc_coordinate_bridge","boundaryPointCount":33},"geometry":{"type":"MultiPolygon","coordinates":[[[[124.879082,6.45098],[124.879997,6.45147],[124.880966,6.44919],[124.88887,6.44919],[124.889053,6.44671],[124.887337,6.44184],[124.88726,6.44036],[124.886963,6.43843],[124.890472,6.43655],[124.890244,6.4339],[124.89167,6.43247],[124.891182,6.43059],[124.896187,6.42588],[124.897163,6.42114],[124.895073,6.42114],[124.88475,6.41855],[124.883133,6.42705],[124.877899,6.42677],[124.874153,6.42299],[124.874603,6.42032],[124.871964,6.42025],[124.870621,6.42132],[124.866737,6.42249],[124.865913,6.4253],[124.863197,6.4237],[124.860168,6.42382],[124.861099,6.4278],[124.863922,6.43052],[124.859131,6.4346],[124.872276,6.45143],[124.874031,6.45003],[124.874229,6.44877],[124.879082,6.45098]]]]}},{"type":"Feature","properties":{"ID_0":177,"ISO":"PHL","NAME_0":"Philippines","ID_1":12063,"NAME_1":"South Cotabato","ID_2":1206306,"NAME_2":"City of Koronadal (Capital)","ID_3":1206306006,"NAME_3":"Concepcion","NL_NAME_3":null,"VARNAME_3":null,"TYPE_3":"Barangay","ENGTYPE_3":"Village","PROVINCE":"South Cotabato","REGION":"Region XII (Soccsksargen)","id":"barangay-1206306006","name":"Concepcion","barangayCode":"1206306006","population":null,"formattedPop":null,"densityCategory":"No data","vulnerabilityRating":"No data","healthRiskLevel":"No data","areaKm2":6.915175,"centerLat":6.477174,"centerLng":124.886548,"geometrySource":"all_barangay-2.csv detailed WKT","geometryMatchMethod":"psgc_coordinate_bridge","boundaryPointCount":25},"geometry":{"type":"MultiPolygon","coordinates":[[[[124.883034,6.46903],[124.887993,6.46918],[124.892982,6.46655],[124.895973,6.46863],[124.898804,6.46875],[124.900963,6.46771],[124.90416,6.46381],[124.908974,6.4605],[124.898857,6.45624],[124.902473,6.44698],[124.890388,6.4424],[124.889816,6.4408],[124.88726,6.44036],[124.887337,6.44184],[124.889053,6.44671],[124.88887,6.44919],[124.880966,6.44919],[124.879997,6.45147],[124.87899,6.4532],[124.878059,6.45444],[124.875099,6.45689],[124.872238,6.45925],[124.877701,6.46511],[124.883774,6.46717],[124.883034,6.46903]]]]}},{"type":"Feature","properties":{"ID_0":177,"ISO":"PHL","NAME_0":"Philippines","ID_1":12063,"NAME_1":"South Cotabato","ID_2":1206306,"NAME_2":"City of Koronadal (Capital)","ID_3":1206306007,"NAME_3":"Esperanza","NL_NAME_3":null,"VARNAME_3":null,"TYPE_3":"Barangay","ENGTYPE_3":"Village","PROVINCE":"South Cotabato","REGION":"Region XII (Soccsksargen)","id":"barangay-1206306007","name":"Esperanza","barangayCode":"1206306007","population":null,"formattedPop":null,"densityCategory":"No data","vulnerabilityRating":"No data","healthRiskLevel":"No data","areaKm2":4.395365,"centerLat":6.509814,"centerLng":124.91359,"geometrySource":"all_barangay-2.csv detailed WKT","geometryMatchMethod":"psgc_coordinate_bridge","boundaryPointCount":10},"geometry":{"type":"MultiPolygon","coordinates":[[[[124.909523,6.4993],[124.912033,6.49798],[124.914726,6.50178],[124.922913,6.49625],[124.923767,6.49038],[124.914886,6.4775],[124.905861,6.4841],[124.908699,6.48821],[124.904259,6.49133],[124.909523,6.4993]]]]}},{"type":"Feature","properties":{"ID_0":177,"ISO":"PHL","NAME_0":"Philippines","ID_1":12063,"NAME_1":"South Cotabato","ID_2":1206306,"NAME_2":"City of Koronadal (Capital)","ID_3":1206306008,"NAME_3":"General Paulino Santos","NL_NAME_3":null,"VARNAME_3":null,"TYPE_3":"Barangay","ENGTYPE_3":"Village","PROVINCE":"South Cotabato","REGION":"Region XII (Soccsksargen)","id":"barangay-1206306008","name":"General Paulino Santos","barangayCode":"1206306008","population":null,"formattedPop":null,"densityCategory":"No data","vulnerabilityRating":"No data","healthRiskLevel":"No data","areaKm2":5.919522,"centerLat":6.510032,"centerLng":124.857661,"geometrySource":"barangays.geojson simplified fallback","geometryMatchMethod":"simplified_fallback","boundaryPointCount":5},"geometry":{"type":"Polygon","coordinates":[[[124.85450552900011,6.522230450000052],[124.87155712900005,6.514910730000054],[124.85798454500002,6.495831157000055],[124.8414182140001,6.50736716800003],[124.85450552900011,6.522230450000052]]]}},{"type":"Feature","properties":{"ID_0":177,"ISO":"PHL","NAME_0":"Philippines","ID_1":12063,"NAME_1":"South Cotabato","ID_2":1206306,"NAME_2":"City of Koronadal (Capital)","ID_3":1206306009,"NAME_3":"Mabini","NL_NAME_3":null,"VARNAME_3":null,"TYPE_3":"Barangay","ENGTYPE_3":"Village","PROVINCE":"South Cotabato","REGION":"Region XII (Soccsksargen)","id":"barangay-1206306009","name":"Mabini","barangayCode":"1206306009","population":null,"formattedPop":null,"densityCategory":"No data","vulnerabilityRating":"No data","healthRiskLevel":"No data","areaKm2":11.425988,"centerLat":6.535381,"centerLng":124.926604,"geometrySource":"all_barangay-2.csv detailed WKT","geometryMatchMethod":"psgc_coordinate_bridge","boundaryPointCount":44},"geometry":{"type":"MultiPolygon","coordinates":[[[[124.97879,6.53532],[124.980049,6.53535],[124.982674,6.53541],[124.967934,6.52272],[124.96183,6.51872],[124.960426,6.5161],[124.951118,6.51326],[124.948639,6.51426],[124.944763,6.51291],[124.942093,6.511],[124.941368,6.50841],[124.939003,6.50491],[124.937019,6.50356],[124.933472,6.50005],[124.931267,6.4996],[124.929802,6.4982],[124.928337,6.49162],[124.925652,6.48872],[124.923767,6.49038],[124.922913,6.49625],[124.914726,6.50178],[124.912033,6.49798],[124.909523,6.4993],[124.890984,6.51034],[124.888969,6.5147],[124.895172,6.51663],[124.896248,6.51867],[124.914772,6.51262],[124.916786,6.51365],[124.920387,6.5088],[124.925232,6.51327],[124.929916,6.51676],[124.930817,6.51921],[124.93425,6.5212],[124.938072,6.52143],[124.93914,6.52603],[124.941803,6.53015],[124.944771,6.53138],[124.947891,6.53082],[124.950333,6.53022],[124.956711,6.53483],[124.96209,6.53495],[124.968643,6.53509],[124.97879,6.53532]]]]}},{"type":"Feature","properties":{"ID_0":177,"ISO":"PHL","NAME_0":"Philippines","ID_1":12063,"NAME_1":"South Cotabato","ID_2":1206306,"NAME_2":"City of Koronadal (Capital)","ID_3":1206306010,"NAME_3":"Magsaysay","NL_NAME_3":null,"VARNAME_3":null,"TYPE_3":"Barangay","ENGTYPE_3":"Village","PROVINCE":"South Cotabato","REGION":"Region XII (Soccsksargen)","id":"barangay-1206306010","name":"Magsaysay","barangayCode":"1206306010","population":null,"formattedPop":null,"densityCategory":"No data","vulnerabilityRating":"No data","healthRiskLevel":"No data","areaKm2":6.992216,"centerLat":6.466753,"centerLng":124.910992,"geometrySource":"all_barangay-2.csv detailed WKT","geometryMatchMethod":"psgc_coordinate_bridge","boundaryPointCount":13},"geometry":{"type":"MultiPolygon","coordinates":[[[[124.914772,6.45987],[124.916443,6.45862],[124.918427,6.4583],[124.921638,6.45499],[124.928032,6.44107],[124.918503,6.43652],[124.913383,6.43452],[124.909317,6.44375],[124.90419,6.44176],[124.902473,6.44698],[124.898857,6.45624],[124.908974,6.4605],[124.914772,6.45987]]]]}},{"type":"Feature","properties":{"ID_0":177,"ISO":"PHL","NAME_0":"Philippines","ID_1":12063,"NAME_1":"South Cotabato","ID_2":1206306,"NAME_2":"City of Koronadal (Capital)","ID_3":1206306012,"NAME_3":"Morales","NL_NAME_3":null,"VARNAME_3":null,"TYPE_3":"Barangay","ENGTYPE_3":"Village","PROVINCE":"South Cotabato","REGION":"Region XII (Soccsksargen)","id":"barangay-1206306012","name":"Morales","barangayCode":"1206306012","population":null,"formattedPop":null,"densityCategory":"No data","vulnerabilityRating":"No data","healthRiskLevel":"No data","areaKm2":3.810853,"centerLat":6.514462,"centerLng":124.826222,"geometrySource":"all_barangay-2.csv detailed WKT","geometryMatchMethod":"psgc_coordinate_bridge","boundaryPointCount":15},"geometry":{"type":"MultiPolygon","coordinates":[[[[124.816467,6.49999],[124.819702,6.50364],[124.825996,6.50619],[124.842552,6.49202],[124.839272,6.48909],[124.835892,6.48769],[124.83403,6.48481],[124.829849,6.47951],[124.827881,6.48361],[124.824272,6.4854],[124.824837,6.48683],[124.822578,6.48953],[124.822304,6.49165],[124.819511,6.4932],[124.816467,6.49999]]]]}},{"type":"Feature","properties":{"ID_0":177,"ISO":"PHL","NAME_0":"Philippines","ID_1":12063,"NAME_1":"South Cotabato","ID_2":1206306,"NAME_2":"City of Koronadal (Capital)","ID_3":1206306013,"NAME_3":"Namnama","NL_NAME_3":null,"VARNAME_3":null,"TYPE_3":"Barangay","ENGTYPE_3":"Village","PROVINCE":"South Cotabato","REGION":"Region XII (Soccsksargen)","id":"barangay-1206306013","name":"Namnama","barangayCode":"1206306013","population":null,"formattedPop":null,"densityCategory":"No data","vulnerabilityRating":"No data","healthRiskLevel":"No data","areaKm2":6.127422,"centerLat":6.528422,"centerLng":124.859119,"geometrySource":"all_barangay-2.csv detailed WKT","geometryMatchMethod":"psgc_coordinate_bridge","boundaryPointCount":26},"geometry":{"type":"MultiPolygon","coordinates":[[[[124.848038,6.53271],[124.848244,6.5325],[124.859688,6.5207],[124.857536,6.51679],[124.859398,6.51459],[124.862717,6.51757],[124.870613,6.51149],[124.879807,6.49856],[124.881027,6.49597],[124.87928,6.49191],[124.872093,6.48278],[124.871986,6.48503],[124.872108,6.48921],[124.871674,6.49259],[124.871384,6.49475],[124.871521,6.49772],[124.868027,6.50036],[124.865852,6.50077],[124.860573,6.50018],[124.856728,6.50373],[124.855629,6.50592],[124.852959,6.50625],[124.851158,6.51038],[124.845001,6.51644],[124.847992,6.53249],[124.848038,6.53271]]]]}},{"type":"Feature","properties":{"ID_0":177,"ISO":"PHL","NAME_0":"Philippines","ID_1":12063,"NAME_1":"South Cotabato","ID_2":1206306,"NAME_2":"City of Koronadal (Capital)","ID_3":1206306014,"NAME_3":"New Pangasinan","NL_NAME_3":null,"VARNAME_3":null,"TYPE_3":"Barangay","ENGTYPE_3":"Village","PROVINCE":"South Cotabato","REGION":"Region XII (Soccsksargen)","id":"barangay-1206306014","name":"New Pangasinan","barangayCode":"1206306014","population":null,"formattedPop":null,"densityCategory":"No data","vulnerabilityRating":"No data","healthRiskLevel":"No data","areaKm2":7.966083,"centerLat":6.494215,"centerLng":124.896884,"geometrySource":"all_barangay-2.csv detailed WKT","geometryMatchMethod":"psgc_coordinate_bridge","boundaryPointCount":24},"geometry":{"type":"MultiPolygon","coordinates":[[[[124.904259,6.49133],[124.908699,6.48821],[124.905861,6.4841],[124.914886,6.4775],[124.913063,6.47426],[124.915833,6.47172],[124.915932,6.46929],[124.920326,6.46595],[124.914772,6.45987],[124.908974,6.4605],[124.90416,6.46381],[124.900963,6.46771],[124.898804,6.46875],[124.895973,6.46863],[124.892982,6.46655],[124.887993,6.46918],[124.883034,6.46903],[124.885147,6.47388],[124.880623,6.47655],[124.887238,6.48683],[124.889618,6.49068],[124.894897,6.48813],[124.900169,6.49412],[124.904259,6.49133]]]]}},{"type":"Feature","properties":{"ID_0":177,"ISO":"PHL","NAME_0":"Philippines","ID_1":12063,"NAME_1":"South Cotabato","ID_2":1206306,"NAME_2":"City of Koronadal (Capital)","ID_3":1206306015,"NAME_3":"Paraiso","NL_NAME_3":null,"VARNAME_3":null,"TYPE_3":"Barangay","ENGTYPE_3":"Village","PROVINCE":"South Cotabato","REGION":"Region XII (Soccsksargen)","id":"barangay-1206306015","name":"Paraiso","barangayCode":"1206306015","population":null,"formattedPop":null,"densityCategory":"No data","vulnerabilityRating":"No data","healthRiskLevel":"No data","areaKm2":15.256585,"centerLat":6.488616,"centerLng":124.810593,"geometrySource":"all_barangay-2.csv detailed WKT","geometryMatchMethod":"psgc_coordinate_bridge","boundaryPointCount":55},"geometry":{"type":"MultiPolygon","coordinates":[[[[124.816467,6.49999],[124.819511,6.4932],[124.822304,6.49165],[124.822578,6.48953],[124.824837,6.48683],[124.824272,6.4854],[124.827881,6.48361],[124.829849,6.47951],[124.8312,6.47629],[124.829582,6.47412],[124.832771,6.4669],[124.833519,6.46562],[124.832733,6.45988],[124.82991,6.45689],[124.829849,6.45096],[124.831123,6.44805],[124.828568,6.44253],[124.828087,6.43894],[124.827393,6.43532],[124.82843,6.43237],[124.829674,6.43072],[124.83239,6.42773],[124.833893,6.42571],[124.831581,6.4233],[124.828407,6.42405],[124.824074,6.42222],[124.820137,6.42384],[124.818497,6.42586],[124.815552,6.43093],[124.814163,6.43717],[124.810921,6.43842],[124.792587,6.45163],[124.79023,6.4516],[124.788094,6.45165],[124.788544,6.45344],[124.786888,6.45505],[124.784843,6.45461],[124.780327,6.4567],[124.779762,6.46044],[124.777557,6.4614],[124.773117,6.46461],[124.771606,6.4686],[124.772232,6.47295],[124.770012,6.47556],[124.770187,6.47848],[124.771744,6.48104],[124.777977,6.47721],[124.777634,6.47277],[124.791206,6.46669],[124.792,6.47211],[124.793533,6.47212],[124.795029,6.47685],[124.807213,6.49391],[124.809761,6.49259],[124.816467,6.49999]]]]}},{"type":"Feature","properties":{"ID_0":177,"ISO":"PHL","NAME_0":"Philippines","ID_1":12063,"NAME_1":"South Cotabato","ID_2":1206306,"NAME_2":"City of Koronadal (Capital)","ID_3":1206306016,"NAME_3":"Zone I","NL_NAME_3":null,"VARNAME_3":null,"TYPE_3":"Barangay","ENGTYPE_3":"Village","PROVINCE":"South Cotabato","REGION":"Region XII (Soccsksargen)","id":"barangay-1206306016","name":"Zone I","barangayCode":"1206306016","population":null,"formattedPop":null,"densityCategory":"No data","vulnerabilityRating":"No data","healthRiskLevel":"No data","areaKm2":0.575261,"centerLat":6.505948,"centerLng":124.841134,"geometrySource":"all_barangay-2.csv detailed WKT","geometryMatchMethod":"psgc_coordinate_bridge","boundaryPointCount":10},"geometry":{"type":"MultiPolygon","coordinates":[[[[124.845543,6.48943],[124.843933,6.48794],[124.845734,6.48651],[124.843933,6.48475],[124.844841,6.48392],[124.842194,6.48145],[124.835892,6.48769],[124.839272,6.48909],[124.842552,6.49202],[124.845543,6.48943]]]]}},{"type":"Feature","properties":{"ID_0":177,"ISO":"PHL","NAME_0":"Philippines","ID_1":12063,"NAME_1":"South Cotabato","ID_2":1206306,"NAME_2":"City of Koronadal (Capital)","ID_3":1206306017,"NAME_3":"Zone II","NL_NAME_3":null,"VARNAME_3":null,"TYPE_3":"Barangay","ENGTYPE_3":"Village","PROVINCE":"South Cotabato","REGION":"Region XII (Soccsksargen)","id":"barangay-1206306017","name":"Zone II","barangayCode":"1206306017","population":null,"formattedPop":null,"densityCategory":"No data","vulnerabilityRating":"No data","healthRiskLevel":"No data","areaKm2":0.792291,"centerLat":6.497175,"centerLng":124.851159,"geometrySource":"all_barangay-2.csv detailed WKT","geometryMatchMethod":"psgc_coordinate_bridge","boundaryPointCount":17},"geometry":{"type":"MultiPolygon","coordinates":[[[[124.844841,6.48392],[124.851624,6.47832],[124.854286,6.48073],[124.856667,6.47851],[124.857689,6.4775],[124.854424,6.47438],[124.872238,6.45925],[124.875099,6.45689],[124.878059,6.45444],[124.87899,6.4532],[124.879997,6.45147],[124.879082,6.45098],[124.876343,6.45341],[124.873482,6.45526],[124.859673,6.46621],[124.842194,6.48145],[124.844841,6.48392]]]]}},{"type":"Feature","properties":{"ID_0":177,"ISO":"PHL","NAME_0":"Philippines","ID_1":12063,"NAME_1":"South Cotabato","ID_2":1206306,"NAME_2":"City of Koronadal (Capital)","ID_3":1206306018,"NAME_3":"Zone III","NL_NAME_3":null,"VARNAME_3":null,"TYPE_3":"Barangay","ENGTYPE_3":"Village","PROVINCE":"South Cotabato","REGION":"Region XII (Soccsksargen)","id":"barangay-1206306018","name":"Zone III","barangayCode":"1206306018","population":null,"formattedPop":null,"densityCategory":"No data","vulnerabilityRating":"No data","healthRiskLevel":"No data","areaKm2":3.29117,"centerLat":6.486351,"centerLng":124.854325,"geometrySource":"all_barangay-2.csv detailed WKT","geometryMatchMethod":"psgc_coordinate_bridge","boundaryPointCount":15},"geometry":{"type":"MultiPolygon","coordinates":[[[[124.842194,6.48145],[124.859673,6.46621],[124.873482,6.45526],[124.876343,6.45341],[124.879082,6.45098],[124.874229,6.44877],[124.874031,6.45003],[124.872276,6.45143],[124.855637,6.46577],[124.847717,6.4731],[124.844963,6.47029],[124.842934,6.47205],[124.84111,6.47137],[124.83828,6.47324],[124.842194,6.48145]]]]}},{"type":"Feature","properties":{"ID_0":177,"ISO":"PHL","NAME_0":"Philippines","ID_1":12063,"NAME_1":"South Cotabato","ID_2":1206306,"NAME_2":"City of Koronadal (Capital)","ID_3":1206306019,"NAME_3":"Zone IV","NL_NAME_3":null,"VARNAME_3":null,"TYPE_3":"Barangay","ENGTYPE_3":"Village","PROVINCE":"South Cotabato","REGION":"Region XII (Soccsksargen)","id":"barangay-1206306019","name":"Zone IV","barangayCode":"1206306019","population":null,"formattedPop":null,"densityCategory":"No data","vulnerabilityRating":"No data","healthRiskLevel":"No data","areaKm2":1.922853,"centerLat":6.498921,"centerLng":124.834938,"geometrySource":"all_barangay-2.csv detailed WKT","geometryMatchMethod":"psgc_coordinate_bridge","boundaryPointCount":9},"geometry":{"type":"MultiPolygon","coordinates":[[[[124.842194,6.48145],[124.83828,6.47324],[124.832771,6.4669],[124.829582,6.47412],[124.8312,6.47629],[124.829849,6.47951],[124.83403,6.48481],[124.835892,6.48769],[124.842194,6.48145]]]]}},{"type":"Feature","properties":{"ID_0":177,"ISO":"PHL","NAME_0":"Philippines","ID_1":12063,"NAME_1":"South Cotabato","ID_2":1206306,"NAME_2":"City of Koronadal (Capital)","ID_3":1206306020,"NAME_3":"Rotonda","NL_NAME_3":null,"VARNAME_3":null,"TYPE_3":"Barangay","ENGTYPE_3":"Village","PROVINCE":"South Cotabato","REGION":"Region XII (Soccsksargen)","id":"barangay-1206306020","name":"Rotonda","barangayCode":"1206306020","population":null,"formattedPop":null,"densityCategory":"No data","vulnerabilityRating":"No data","healthRiskLevel":"No data","areaKm2":6.041766,"centerLat":6.51672,"centerLng":124.892336,"geometrySource":"all_barangay-2.csv detailed WKT","geometryMatchMethod":"psgc_coordinate_bridge","boundaryPointCount":16},"geometry":{"type":"MultiPolygon","coordinates":[[[[124.909523,6.4993],[124.904259,6.49133],[124.900169,6.49412],[124.894897,6.48813],[124.889618,6.49068],[124.887238,6.48683],[124.87928,6.49191],[124.881027,6.49597],[124.879807,6.49856],[124.884071,6.5012],[124.880783,6.50595],[124.885658,6.50966],[124.884789,6.51201],[124.888969,6.5147],[124.890984,6.51034],[124.909523,6.4993]]]]}},{"type":"Feature","properties":{"ID_0":177,"ISO":"PHL","NAME_0":"Philippines","ID_1":12063,"NAME_1":"South Cotabato","ID_2":1206306,"NAME_2":"City of Koronadal (Capital)","ID_3":1206306022,"NAME_3":"San Jose","NL_NAME_3":null,"VARNAME_3":null,"TYPE_3":"Barangay","ENGTYPE_3":"Village","PROVINCE":"South Cotabato","REGION":"Region XII (Soccsksargen)","id":"barangay-1206306022","name":"San Jose","barangayCode":"1206306022","population":null,"formattedPop":null,"densityCategory":"No data","vulnerabilityRating":"No data","healthRiskLevel":"No data","areaKm2":23.475021,"centerLat":6.553441,"centerLng":124.913974,"geometrySource":"all_barangay-2.csv detailed WKT","geometryMatchMethod":"psgc_coordinate_bridge","boundaryPointCount":22},"geometry":{"type":"MultiPolygon","coordinates":[[[[124.900833,6.53403],[124.903992,6.53412],[124.906593,6.5342],[124.956711,6.53483],[124.950333,6.53022],[124.947891,6.53082],[124.944771,6.53138],[124.941803,6.53015],[124.93914,6.52603],[124.938072,6.52143],[124.93425,6.5212],[124.930817,6.51921],[124.929916,6.51676],[124.925232,6.51327],[124.920387,6.5088],[124.916786,6.51365],[124.914772,6.51262],[124.896248,6.51867],[124.895172,6.51663],[124.888969,6.5147],[124.864487,6.53297],[124.900833,6.53403]]]]}},{"type":"Feature","properties":{"ID_0":177,"ISO":"PHL","NAME_0":"Philippines","ID_1":12063,"NAME_1":"South Cotabato","ID_2":1206306,"NAME_2":"City of Koronadal (Capital)","ID_3":1206306023,"NAME_3":"San Roque","NL_NAME_3":null,"VARNAME_3":null,"TYPE_3":"Barangay","ENGTYPE_3":"Village","PROVINCE":"South Cotabato","REGION":"Region XII (Soccsksargen)","id":"barangay-1206306023","name":"San Roque","barangayCode":"1206306023","population":null,"formattedPop":null,"densityCategory":"No data","vulnerabilityRating":"No data","healthRiskLevel":"No data","areaKm2":9.440861,"centerLat":6.44664,"centerLng":124.903779,"geometrySource":"all_barangay-2.csv detailed WKT","geometryMatchMethod":"psgc_coordinate_bridge","boundaryPointCount":27},"geometry":{"type":"MultiPolygon","coordinates":[[[[124.902473,6.44698],[124.90419,6.44176],[124.909317,6.44375],[124.913383,6.43452],[124.918503,6.43652],[124.920464,6.43143],[124.919182,6.43061],[124.922371,6.42563],[124.924217,6.42522],[124.925331,6.42313],[124.913361,6.4179],[124.89846,6.41233],[124.897034,6.41349],[124.897362,6.41717],[124.897697,6.41838],[124.896263,6.41922],[124.897163,6.42114],[124.896187,6.42588],[124.891182,6.43059],[124.89167,6.43247],[124.890244,6.4339],[124.890472,6.43655],[124.886963,6.43843],[124.88726,6.44036],[124.889816,6.4408],[124.890388,6.4424],[124.902473,6.44698]]]]}},{"type":"Feature","properties":{"ID_0":177,"ISO":"PHL","NAME_0":"Philippines","ID_1":12063,"NAME_1":"South Cotabato","ID_2":1206306,"NAME_2":"City of Koronadal (Capital)","ID_3":1206306024,"NAME_3":"Santa Cruz","NL_NAME_3":null,"VARNAME_3":null,"TYPE_3":"Barangay","ENGTYPE_3":"Village","PROVINCE":"South Cotabato","REGION":"Region XII (Soccsksargen)","id":"barangay-1206306024","name":"Santa Cruz","barangayCode":"1206306024","population":null,"formattedPop":null,"densityCategory":"No data","vulnerabilityRating":"No data","healthRiskLevel":"No data","areaKm2":4.97915,"centerLat":6.480732,"centerLng":124.837996,"geometrySource":"all_barangay-2.csv detailed WKT","geometryMatchMethod":"psgc_coordinate_bridge","boundaryPointCount":17},"geometry":{"type":"MultiPolygon","coordinates":[[[[124.832771,6.4669],[124.83828,6.47324],[124.84111,6.47137],[124.842934,6.47205],[124.844963,6.47029],[124.847717,6.4731],[124.855637,6.46577],[124.848473,6.45901],[124.850258,6.4569],[124.842941,6.44929],[124.840347,6.45124],[124.834541,6.45656],[124.833199,6.45542],[124.82991,6.45689],[124.832733,6.45988],[124.833519,6.46562],[124.832771,6.4669]]]]}},{"type":"Feature","properties":{"ID_0":177,"ISO":"PHL","NAME_0":"Philippines","ID_1":12063,"NAME_1":"South Cotabato","ID_2":1206306,"NAME_2":"City of Koronadal (Capital)","ID_3":1206306025,"NAME_3":"Santo Niño","NL_NAME_3":null,"VARNAME_3":"Santo Nino (Bo. 2)","TYPE_3":"Barangay","ENGTYPE_3":"Village","PROVINCE":"South Cotabato","REGION":"Region XII (Soccsksargen)","id":"barangay-1206306025","name":"Santo Niño","barangayCode":"1206306025","population":null,"formattedPop":null,"densityCategory":"No data","vulnerabilityRating":"No data","healthRiskLevel":"No data","areaKm2":5.720417,"centerLat":6.495941,"centerLng":124.870214,"geometrySource":"all_barangay-2.csv detailed WKT","geometryMatchMethod":"psgc_coordinate_bridge","boundaryPointCount":17},"geometry":{"type":"MultiPolygon","coordinates":[[[[124.887238,6.48683],[124.880623,6.47655],[124.885147,6.47388],[124.883034,6.46903],[124.883774,6.46717],[124.877701,6.46511],[124.872238,6.45925],[124.854424,6.47438],[124.857689,6.4775],[124.856667,6.47851],[124.871384,6.49475],[124.871674,6.49259],[124.872108,6.48921],[124.871986,6.48503],[124.872093,6.48278],[124.87928,6.49191],[124.887238,6.48683]]]]}},{"type":"Feature","properties":{"ID_0":177,"ISO":"PHL","NAME_0":"Philippines","ID_1":12063,"NAME_1":"South Cotabato","ID_2":1206306,"NAME_2":"City of Koronadal (Capital)","ID_3":1206306026,"NAME_3":"Sarabia","NL_NAME_3":null,"VARNAME_3":null,"TYPE_3":"Barangay","ENGTYPE_3":"Village","PROVINCE":"South Cotabato","REGION":"Region XII (Soccsksargen)","id":"barangay-1206306026","name":"Sarabia","barangayCode":"1206306026","population":null,"formattedPop":null,"densityCategory":"No data","vulnerabilityRating":"No data","healthRiskLevel":"No data","areaKm2":58.891681,"centerLat":6.398579,"centerLng":124.864606,"geometrySource":"all_barangay-2.csv detailed WKT","geometryMatchMethod":"psgc_coordinate_bridge","boundaryPointCount":46},"geometry":{"type":"MultiPolygon","coordinates":[[[[124.897163,6.42114],[124.896263,6.41922],[124.897697,6.41838],[124.897362,6.41717],[124.897034,6.41349],[124.89846,6.41233],[124.898033,6.40865],[124.89724,6.40763],[124.897583,6.40618],[124.900177,6.40437],[124.900162,6.40311],[124.902542,6.40139],[124.903687,6.39897],[124.903023,6.39773],[124.904778,6.39611],[124.906937,6.39511],[124.908722,6.393],[124.908363,6.39035],[124.907837,6.38901],[124.910004,6.38586],[124.910332,6.38342],[124.910851,6.38156],[124.909264,6.37354],[124.905403,6.37426],[124.900757,6.3714],[124.896667,6.37407],[124.897888,6.37872],[124.893112,6.38158],[124.889412,6.37789],[124.887383,6.37632],[124.886017,6.37414],[124.883453,6.3729],[124.88237,6.37027],[124.882027,6.3692],[124.877563,6.36845],[124.872276,6.36232],[124.871048,6.36514],[124.871323,6.36806],[124.86998,6.37215],[124.858482,6.37985],[124.878479,6.40851],[124.877899,6.42677],[124.883133,6.42705],[124.88475,6.41855],[124.895073,6.42114],[124.897163,6.42114]]]]}},{"type":"Feature","properties":{"ID_0":177,"ISO":"PHL","NAME_0":"Philippines","ID_1":12063,"NAME_1":"South Cotabato","ID_2":1206306,"NAME_2":"City of Koronadal (Capital)","ID_3":1206306027,"NAME_3":"Zulueta","NL_NAME_3":null,"VARNAME_3":null,"TYPE_3":"Barangay","ENGTYPE_3":"Village","PROVINCE":"South Cotabato","REGION":"Region XII (Soccsksargen)","id":"barangay-1206306027","name":"Zulueta","barangayCode":"1206306027","population":null,"formattedPop":null,"densityCategory":"No data","vulnerabilityRating":"No data","healthRiskLevel":"No data","areaKm2":17.989527,"centerLat":6.488229,"centerLng":124.938414,"geometrySource":"all_barangay-2.csv detailed WKT","geometryMatchMethod":"psgc_coordinate_bridge","boundaryPointCount":43},"geometry":{"type":"MultiPolygon","coordinates":[[[[124.925652,6.48872],[124.940262,6.47916],[124.939857,6.47206],[124.942001,6.47161],[124.943489,6.47351],[124.945618,6.47328],[124.945419,6.47468],[124.946609,6.47555],[124.950684,6.4746],[124.954697,6.47568],[124.957062,6.47851],[124.961456,6.47822],[124.965073,6.47913],[124.970863,6.48296],[124.974762,6.48012],[124.979309,6.47462],[124.976044,6.47191],[124.971474,6.46733],[124.970451,6.46407],[124.969429,6.46248],[124.965851,6.4604],[124.960693,6.45908],[124.953613,6.45159],[124.947006,6.45089],[124.944099,6.45329],[124.940231,6.45266],[124.93869,6.45288],[124.932678,6.45221],[124.931107,6.45333],[124.929626,6.45476],[124.927071,6.45414],[124.92524,6.45562],[124.921638,6.45499],[124.918427,6.4583],[124.916443,6.45862],[124.914772,6.45987],[124.920326,6.46595],[124.915932,6.46929],[124.915833,6.47172],[124.913063,6.47426],[124.914886,6.4775],[124.923767,6.49038],[124.925652,6.48872]]]]}}]}
