{"type":"FeatureCollection","features":[{"type":"Feature","properties":{"ID_0":177,"ISO":"PHL","NAME_0":"Philippines","ID_1":9072,"NAME_1":"Zamboanga del Norte","ID_2":907211,"NAME_2":"Pres. Manuel A. Roxas","ID_3":907211001,"NAME_3":"Balubo","NL_NAME_3":null,"VARNAME_3":null,"TYPE_3":"Barangay","ENGTYPE_3":"Village","PROVINCE":"Zamboanga del Norte","REGION":"Region IX (Zamboanga Peninsula)","id":"barangay-0907211001","name":"Balubo","barangayCode":"0907211001","population":null,"formattedPop":null,"densityCategory":"No data","vulnerabilityRating":"No data","healthRiskLevel":"No data","areaKm2":13.811925,"centerLat":8.406344,"centerLng":123.174967,"geometrySource":"all_barangay-2.csv detailed WKT","geometryMatchMethod":"unique_official_admin_names","boundaryPointCount":23},"geometry":{"type":"MultiPolygon","coordinates":[[[[123.186607,8.42987],[123.189034,8.42467],[123.191338,8.42011],[123.193748,8.40989],[123.197273,8.40086],[123.200813,8.39727],[123.206711,8.39863],[123.208717,8.38827],[123.208527,8.38257],[123.208107,8.37846],[123.208061,8.37491],[123.208557,8.36981],[123.205017,8.36755],[123.200188,8.36519],[123.199318,8.36056],[123.201141,8.35747],[123.199471,8.353],[123.195663,8.34727],[123.195442,8.34286],[123.194847,8.33044],[123.174751,8.33072],[123.175041,8.42628],[123.186607,8.42987]]]]}},{"type":"Feature","properties":{"ID_0":177,"ISO":"PHL","NAME_0":"Philippines","ID_1":9072,"NAME_1":"Zamboanga del Norte","ID_2":907211,"NAME_2":"Pres. Manuel A. Roxas","ID_3":907211002,"NAME_3":"Canibongan","NL_NAME_3":null,"VARNAME_3":null,"TYPE_3":"Barangay","ENGTYPE_3":"Village","PROVINCE":"Zamboanga del Norte","REGION":"Region IX (Zamboanga Peninsula)","id":"barangay-0907211002","name":"Canibongan","barangayCode":"0907211002","population":null,"formattedPop":null,"densityCategory":"No data","vulnerabilityRating":"No data","healthRiskLevel":"No data","areaKm2":12.44197,"centerLat":8.453621,"centerLng":123.171302,"geometrySource":"all_barangay-2.csv detailed WKT","geometryMatchMethod":"unique_official_admin_names","boundaryPointCount":8},"geometry":{"type":"MultiPolygon","coordinates":[[[[123.185867,8.45642],[123.187927,8.45198],[123.192886,8.44674],[123.190773,8.44624],[123.183571,8.44377],[123.178886,8.44288],[123.177597,8.45525],[123.185867,8.45642]]]]}},{"type":"Feature","properties":{"ID_0":177,"ISO":"PHL","NAME_0":"Philippines","ID_1":9072,"NAME_1":"Zamboanga del Norte","ID_2":907211,"NAME_2":"Pres. Manuel A. Roxas","ID_3":907211003,"NAME_3":"Capase","NL_NAME_3":null,"VARNAME_3":null,"TYPE_3":"Barangay","ENGTYPE_3":"Village","PROVINCE":"Zamboanga del Norte","REGION":"Region IX (Zamboanga Peninsula)","id":"barangay-0907211003","name":"Capase","barangayCode":"0907211003","population":null,"formattedPop":null,"densityCategory":"No data","vulnerabilityRating":"No data","healthRiskLevel":"No data","areaKm2":6.18048,"centerLat":8.440522,"centerLng":123.199994,"geometrySource":"all_barangay-2.csv detailed WKT","geometryMatchMethod":"unique_official_admin_names","boundaryPointCount":7},"geometry":{"type":"MultiPolygon","coordinates":[[[[123.208641,8.45277],[123.210083,8.44237],[123.207153,8.43279],[123.204887,8.43032],[123.196007,8.44806],[123.204582,8.45267],[123.208641,8.45277]]]]}},{"type":"Feature","properties":{"ID_0":177,"ISO":"PHL","NAME_0":"Philippines","ID_1":9072,"NAME_1":"Zamboanga del Norte","ID_2":907211,"NAME_2":"Pres. Manuel A. Roxas","ID_3":907211004,"NAME_3":"Denoman","NL_NAME_3":null,"VARNAME_3":null,"TYPE_3":"Barangay","ENGTYPE_3":"Village","PROVINCE":"Zamboanga del Norte","REGION":"Region IX (Zamboanga Peninsula)","id":"barangay-0907211004","name":"Denoman","barangayCode":"0907211004","population":null,"formattedPop":null,"densityCategory":"No data","vulnerabilityRating":"No data","healthRiskLevel":"No data","areaKm2":4.660126,"centerLat":8.478047,"centerLng":123.214163,"geometrySource":"all_barangay-2.csv detailed WKT","geometryMatchMethod":"unique_official_admin_names","boundaryPointCount":10},"geometry":{"type":"MultiPolygon","coordinates":[[[[123.217407,8.4702],[123.217194,8.46376],[123.224533,8.46291],[123.234596,8.46351],[123.235191,8.45592],[123.228477,8.45525],[123.219543,8.45765],[123.207153,8.46097],[123.209663,8.46796],[123.217407,8.4702]]]]}},{"type":"Feature","properties":{"ID_0":177,"ISO":"PHL","NAME_0":"Philippines","ID_1":9072,"NAME_1":"Zamboanga del Norte","ID_2":907211,"NAME_2":"Pres. Manuel A. Roxas","ID_3":907211005,"NAME_3":"Dohinob","NL_NAME_3":null,"VARNAME_3":null,"TYPE_3":"Barangay","ENGTYPE_3":"Village","PROVINCE":"Zamboanga del Norte","REGION":"Region IX (Zamboanga Peninsula)","id":"barangay-0907211005","name":"Dohinob","barangayCode":"0907211005","population":null,"formattedPop":null,"densityCategory":"No data","vulnerabilityRating":"No data","healthRiskLevel":"No data","areaKm2":1.791444,"centerLat":8.527127,"centerLng":123.189774,"geometrySource":"all_barangay-2.csv detailed WKT","geometryMatchMethod":"unique_official_admin_names","boundaryPointCount":33},"geometry":{"type":"MultiPolygon","coordinates":[[[[123.184883,8.53274],[123.185677,8.53274],[123.18689,8.53274],[123.187531,8.53256],[123.188133,8.53246],[123.188637,8.53229],[123.189163,8.53223],[123.191093,8.53218],[123.191704,8.53217],[123.192436,8.53215],[123.193542,8.53222],[123.195381,8.53232],[123.195717,8.53111],[123.196587,8.52687],[123.195457,8.52281],[123.19416,8.51784],[123.194313,8.50873],[123.186142,8.51013],[123.176514,8.51182],[123.176277,8.51375],[123.177147,8.51546],[123.179863,8.5147],[123.181953,8.51571],[123.18174,8.51871],[123.179024,8.52044],[123.181351,8.52163],[123.18351,8.5236],[123.181747,8.52512],[123.182259,8.52711],[123.183159,8.52929],[123.183487,8.52955],[123.184036,8.53045],[123.184883,8.53274]]]]}},{"type":"Feature","properties":{"ID_0":177,"ISO":"PHL","NAME_0":"Philippines","ID_1":9072,"NAME_1":"Zamboanga del Norte","ID_2":907211,"NAME_2":"Pres. Manuel A. Roxas","ID_3":907211006,"NAME_3":"Langatian","NL_NAME_3":null,"VARNAME_3":null,"TYPE_3":"Barangay","ENGTYPE_3":"Village","PROVINCE":"Zamboanga del Norte","REGION":"Region IX (Zamboanga Peninsula)","id":"barangay-0907211006","name":"Langatian","barangayCode":"0907211006","population":null,"formattedPop":null,"densityCategory":"No data","vulnerabilityRating":"No data","healthRiskLevel":"No data","areaKm2":4.283017,"centerLat":8.510852,"centerLng":123.235369,"geometrySource":"all_barangay-2.csv detailed WKT","geometryMatchMethod":"unique_official_admin_names","boundaryPointCount":48},"geometry":{"type":"MultiPolygon","coordinates":[[[[123.214462,8.52736],[123.214661,8.52728],[123.215111,8.52705],[123.215553,8.52685],[123.216019,8.52669],[123.216522,8.52657],[123.217003,8.52633],[123.217484,8.52606],[123.217903,8.52574],[123.218369,8.52551],[123.218826,8.52529],[123.219322,8.52512],[123.219833,8.52498],[123.220352,8.52479],[123.220901,8.5246],[123.221481,8.52445],[123.222076,8.5243],[123.22271,8.52414],[123.223297,8.52389],[123.223938,8.52365],[123.224602,8.52354],[123.22525,8.52332],[123.225906,8.52306],[123.226624,8.52282],[123.227348,8.52271],[123.227997,8.52254],[123.228683,8.5225],[123.229317,8.52245],[123.229919,8.52224],[123.230904,8.52199],[123.230904,8.52193],[123.230721,8.52079],[123.23069,8.5206],[123.230141,8.51762],[123.229378,8.51356],[123.227661,8.50767],[123.228302,8.50359],[123.226463,8.49743],[123.227333,8.49527],[123.219391,8.49398],[123.21489,8.49339],[123.210548,8.49265],[123.209999,8.50615],[123.211861,8.51056],[123.214127,8.51488],[123.213959,8.51993],[123.214394,8.52619],[123.214462,8.52736]]]]}},{"type":"Feature","properties":{"ID_0":177,"ISO":"PHL","NAME_0":"Philippines","ID_1":9072,"NAME_1":"Zamboanga del Norte","ID_2":907211,"NAME_2":"Pres. Manuel A. Roxas","ID_3":907211007,"NAME_3":"Lipakan","NL_NAME_3":null,"VARNAME_3":null,"TYPE_3":"Barangay","ENGTYPE_3":"Village","PROVINCE":"Zamboanga del Norte","REGION":"Region IX (Zamboanga Peninsula)","id":"barangay-0907211007","name":"Lipakan","barangayCode":"0907211007","population":null,"formattedPop":null,"densityCategory":"No data","vulnerabilityRating":"No data","healthRiskLevel":"No data","areaKm2":6.239039,"centerLat":8.45867,"centerLng":123.205133,"geometrySource":"all_barangay-2.csv detailed WKT","geometryMatchMethod":"unique_official_admin_names","boundaryPointCount":14},"geometry":{"type":"MultiPolygon","coordinates":[[[[123.19973,8.47296],[123.202316,8.47115],[123.209663,8.46796],[123.207153,8.46097],[123.205772,8.45571],[123.204582,8.45267],[123.196007,8.44806],[123.192886,8.44674],[123.187927,8.45198],[123.185867,8.45642],[123.187271,8.45905],[123.188377,8.46499],[123.191383,8.46873],[123.19973,8.47296]]]]}},{"type":"Feature","properties":{"ID_0":177,"ISO":"PHL","NAME_0":"Philippines","ID_1":9072,"NAME_1":"Zamboanga del Norte","ID_2":907211,"NAME_2":"Pres. Manuel A. Roxas","ID_3":907211008,"NAME_3":"Marupay","NL_NAME_3":null,"VARNAME_3":null,"TYPE_3":"Barangay","ENGTYPE_3":"Village","PROVINCE":"Zamboanga del Norte","REGION":"Region IX (Zamboanga Peninsula)","id":"barangay-0907211008","name":"Marupay","barangayCode":"0907211008","population":null,"formattedPop":null,"densityCategory":"No data","vulnerabilityRating":"No data","healthRiskLevel":"No data","areaKm2":8.175933,"centerLat":8.418917,"centerLng":123.221695,"geometrySource":"all_barangay-2.csv detailed WKT","geometryMatchMethod":"unique_official_admin_names","boundaryPointCount":15},"geometry":{"type":"MultiPolygon","coordinates":[[[[123.253082,8.43904],[123.253197,8.41854],[123.248787,8.41094],[123.236473,8.40779],[123.22493,8.40336],[123.215889,8.40086],[123.206711,8.39863],[123.207901,8.41443],[123.204887,8.43032],[123.207153,8.43279],[123.212448,8.43438],[123.222137,8.43661],[123.234482,8.43737],[123.24205,8.43803],[123.253082,8.43904]]]]}},{"type":"Feature","properties":{"ID_0":177,"ISO":"PHL","NAME_0":"Philippines","ID_1":9072,"NAME_1":"Zamboanga del Norte","ID_2":907211,"NAME_2":"Pres. Manuel A. Roxas","ID_3":907211009,"NAME_3":"Moliton","NL_NAME_3":null,"VARNAME_3":null,"TYPE_3":"Barangay","ENGTYPE_3":"Village","PROVINCE":"Zamboanga del Norte","REGION":"Region IX (Zamboanga Peninsula)","id":"barangay-0907211009","name":"Moliton","barangayCode":"0907211009","population":null,"formattedPop":null,"densityCategory":"No data","vulnerabilityRating":"No data","healthRiskLevel":"No data","areaKm2":6.131054,"centerLat":8.42946,"centerLng":123.177638,"geometrySource":"all_barangay-2.csv detailed WKT","geometryMatchMethod":"unique_official_admin_names","boundaryPointCount":8},"geometry":{"type":"MultiPolygon","coordinates":[[[[123.196007,8.44806],[123.204887,8.43032],[123.197418,8.43109],[123.193626,8.43133],[123.192451,8.43935],[123.190773,8.44624],[123.192886,8.44674],[123.196007,8.44806]]]]}},{"type":"Feature","properties":{"ID_0":177,"ISO":"PHL","NAME_0":"Philippines","ID_1":9072,"NAME_1":"Zamboanga del Norte","ID_2":907211,"NAME_2":"Pres. Manuel A. Roxas","ID_3":907211010,"NAME_3":"Nabilid","NL_NAME_3":null,"VARNAME_3":null,"TYPE_3":"Barangay","ENGTYPE_3":"Village","PROVINCE":"Zamboanga del Norte","REGION":"Region IX (Zamboanga Peninsula)","id":"barangay-0907211010","name":"Nabilid","barangayCode":"0907211010","population":null,"formattedPop":null,"densityCategory":"No data","vulnerabilityRating":"No data","healthRiskLevel":"No data","areaKm2":1.021905,"centerLat":8.50944,"centerLng":123.250827,"geometrySource":"all_barangay-2.csv detailed WKT","geometryMatchMethod":"unique_official_admin_names","boundaryPointCount":37},"geometry":{"type":"MultiPolygon","coordinates":[[[[123.252617,8.51868],[123.252762,8.51838],[123.253113,8.5179],[123.253441,8.51744],[123.253883,8.51704],[123.254509,8.51701],[123.254593,8.517],[123.255127,8.51696],[123.255531,8.51645],[123.255692,8.51607],[123.255768,8.51589],[123.255943,8.51539],[123.256203,8.51505],[123.256577,8.51483],[123.257019,8.51468],[123.257423,8.51444],[123.257874,8.5142],[123.258293,8.5141],[123.257568,8.51346],[123.257263,8.51252],[123.257011,8.51176],[123.257187,8.51032],[123.257339,8.50915],[123.256233,8.50721],[123.255333,8.5053],[123.254066,8.49649],[123.242088,8.49616],[123.240494,8.49916],[123.243172,8.50192],[123.244659,8.50323],[123.24398,8.50667],[123.243027,8.50902],[123.244507,8.51236],[123.247566,8.51542],[123.247833,8.51708],[123.252022,8.5192],[123.252617,8.51868]]]]}},{"type":"Feature","properties":{"ID_0":177,"ISO":"PHL","NAME_0":"Philippines","ID_1":9072,"NAME_1":"Zamboanga del Norte","ID_2":907211,"NAME_2":"Pres. Manuel A. Roxas","ID_3":907211011,"NAME_3":"Pangologon","NL_NAME_3":null,"VARNAME_3":null,"TYPE_3":"Barangay","ENGTYPE_3":"Village","PROVINCE":"Zamboanga del Norte","REGION":"Region IX (Zamboanga Peninsula)","id":"barangay-0907211011","name":"Pangologon","barangayCode":"0907211011","population":null,"formattedPop":null,"densityCategory":"No data","vulnerabilityRating":"No data","healthRiskLevel":"No data","areaKm2":2.82802,"centerLat":8.484038,"centerLng":123.244891,"geometrySource":"all_barangay-2.csv detailed WKT","geometryMatchMethod":"unique_official_admin_names","boundaryPointCount":9},"geometry":{"type":"MultiPolygon","coordinates":[[[[123.254204,8.47955],[123.25296,8.45766],[123.241333,8.45766],[123.235191,8.45592],[123.234596,8.46351],[123.238426,8.47071],[123.237442,8.47683],[123.243477,8.47835],[123.254204,8.47955]]]]}},{"type":"Feature","properties":{"ID_0":177,"ISO":"PHL","NAME_0":"Philippines","ID_1":9072,"NAME_1":"Zamboanga del Norte","ID_2":907211,"NAME_2":"Pres. Manuel A. Roxas","ID_3":907211012,"NAME_3":"Piñalan","NL_NAME_3":null,"VARNAME_3":"Pinalan","TYPE_3":"Barangay","ENGTYPE_3":"Village","PROVINCE":"Zamboanga del Norte","REGION":"Region IX (Zamboanga Peninsula)","id":"barangay-0907211012","name":"Piñalan","barangayCode":"0907211012","population":null,"formattedPop":null,"densityCategory":"No data","vulnerabilityRating":"No data","healthRiskLevel":"No data","areaKm2":5.583431,"centerLat":8.451154,"centerLng":123.234574,"geometrySource":"barangays.geojson simplified fallback","geometryMatchMethod":"simplified_fallback","boundaryPointCount":9},"geometry":{"type":"Polygon","coordinates":[[[123.24446025800012,8.472107521000055],[123.24756742400007,8.46656130100007],[123.23801835800009,8.456860523000046],[123.24552807300006,8.443985475000034],[123.2253718290001,8.428971574000059],[123.22052442600011,8.437567148000028],[123.2335024780001,8.456905715000062],[123.22539466,8.466700943000035],[123.24446025800012,8.472107521000055]]]}},{"type":"Feature","properties":{"ID_0":177,"ISO":"PHL","NAME_0":"Philippines","ID_1":9072,"NAME_1":"Zamboanga del Norte","ID_2":907211,"NAME_2":"Pres. Manuel A. Roxas","ID_3":907211013,"NAME_3":"Piñamar","NL_NAME_3":null,"VARNAME_3":"Pinamar","TYPE_3":"Barangay","ENGTYPE_3":"Village","PROVINCE":"Zamboanga del Norte","REGION":"Region IX (Zamboanga Peninsula)","id":"barangay-0907211013","name":"Piñamar","barangayCode":"0907211013","population":null,"formattedPop":null,"densityCategory":"No data","vulnerabilityRating":"No data","healthRiskLevel":"No data","areaKm2":3.681371,"centerLat":8.451839,"centerLng":123.243908,"geometrySource":"barangays.geojson simplified fallback","geometryMatchMethod":"simplified_fallback","boundaryPointCount":7},"geometry":{"type":"Polygon","coordinates":[[[123.24732053500009,8.47181023500002],[123.25322927900004,8.447603813000057],[123.22861880700009,8.428763111000023],[123.2336216440001,8.441175896000061],[123.24552807300006,8.443985475000034],[123.23801835800009,8.456860523000046],[123.24732053500009,8.47181023500002]]]}},{"type":"Feature","properties":{"ID_0":177,"ISO":"PHL","NAME_0":"Philippines","ID_1":9072,"NAME_1":"Zamboanga del Norte","ID_2":907211,"NAME_2":"Pres. Manuel A. Roxas","ID_3":907211014,"NAME_3":"Sebod","NL_NAME_3":null,"VARNAME_3":null,"TYPE_3":"Barangay","ENGTYPE_3":"Village","PROVINCE":"Zamboanga del Norte","REGION":"Region IX (Zamboanga Peninsula)","id":"barangay-0907211014","name":"Sebod","barangayCode":"0907211014","population":null,"formattedPop":null,"densityCategory":"No data","vulnerabilityRating":"No data","healthRiskLevel":"No data","areaKm2":3.122631,"centerLat":8.44605,"centerLng":123.221234,"geometrySource":"all_barangay-2.csv detailed WKT","geometryMatchMethod":"unique_official_admin_names","boundaryPointCount":8},"geometry":{"type":"MultiPolygon","coordinates":[[[[123.222633,8.45407],[123.22139,8.44665],[123.222137,8.43661],[123.212448,8.43438],[123.207153,8.43279],[123.210083,8.44237],[123.208641,8.45277],[123.222633,8.45407]]]]}},{"type":"Feature","properties":{"ID_0":177,"ISO":"PHL","NAME_0":"Philippines","ID_1":9072,"NAME_1":"Zamboanga del Norte","ID_2":907211,"NAME_2":"Pres. Manuel A. Roxas","ID_3":907211015,"NAME_3":"Tanayan","NL_NAME_3":null,"VARNAME_3":null,"TYPE_3":"Barangay","ENGTYPE_3":"Village","PROVINCE":"Zamboanga del Norte","REGION":"Region IX (Zamboanga Peninsula)","id":"barangay-0907211015","name":"Tanayan","barangayCode":"0907211015","population":null,"formattedPop":null,"densityCategory":"No data","vulnerabilityRating":"No data","healthRiskLevel":"No data","areaKm2":4.025643,"centerLat":8.496884,"centerLng":123.208236,"geometrySource":"all_barangay-2.csv detailed WKT","geometryMatchMethod":"unique_official_admin_names","boundaryPointCount":14},"geometry":{"type":"MultiPolygon","coordinates":[[[[123.210548,8.49265],[123.21489,8.49339],[123.219391,8.49398],[123.21846,8.48448],[123.220947,8.47812],[123.220711,8.47514],[123.219467,8.47161],[123.217407,8.4702],[123.209663,8.46796],[123.202316,8.47115],[123.19973,8.47296],[123.207367,8.48187],[123.209557,8.48901],[123.210548,8.49265]]]]}},{"type":"Feature","properties":{"ID_0":177,"ISO":"PHL","NAME_0":"Philippines","ID_1":9072,"NAME_1":"Zamboanga del Norte","ID_2":907211,"NAME_2":"Pres. Manuel A. Roxas","ID_3":907211017,"NAME_3":"Villahermoso","NL_NAME_3":null,"VARNAME_3":null,"TYPE_3":"Barangay","ENGTYPE_3":"Village","PROVINCE":"Zamboanga del Norte","REGION":"Region IX (Zamboanga Peninsula)","id":"barangay-0907211017","name":"Villahermoso","barangayCode":"0907211017","population":null,"formattedPop":null,"densityCategory":"No data","vulnerabilityRating":"No data","healthRiskLevel":"No data","areaKm2":7.355398,"centerLat":8.477929,"centerLng":123.192731,"geometrySource":"all_barangay-2.csv detailed WKT","geometryMatchMethod":"unique_official_admin_names","boundaryPointCount":16},"geometry":{"type":"MultiPolygon","coordinates":[[[[123.203407,8.49343],[123.205582,8.49215],[123.210548,8.49265],[123.209557,8.48901],[123.207367,8.48187],[123.19973,8.47296],[123.191383,8.46873],[123.184196,8.46739],[123.176376,8.46637],[123.171631,8.46613],[123.16423,8.46635],[123.163429,8.47558],[123.183144,8.47828],[123.194946,8.48385],[123.20108,8.48938],[123.203407,8.49343]]]]}},{"type":"Feature","properties":{"ID_0":177,"ISO":"PHL","NAME_0":"Philippines","ID_1":9072,"NAME_1":"Zamboanga del Norte","ID_2":907211,"NAME_2":"Pres. Manuel A. Roxas","ID_3":907211018,"NAME_3":"Banbanan","NL_NAME_3":null,"VARNAME_3":null,"TYPE_3":"Barangay","ENGTYPE_3":"Village","PROVINCE":"Zamboanga del Norte","REGION":"Region IX (Zamboanga Peninsula)","id":"barangay-0907211018","name":"Banbanan","barangayCode":"0907211018","population":null,"formattedPop":null,"densityCategory":"No data","vulnerabilityRating":"No data","healthRiskLevel":"No data","areaKm2":2.560928,"centerLat":8.497859,"centerLng":123.223891,"geometrySource":"all_barangay-2.csv detailed WKT","geometryMatchMethod":"unique_official_admin_names","boundaryPointCount":14},"geometry":{"type":"MultiPolygon","coordinates":[[[[123.242088,8.49616],[123.244331,8.48848],[123.243446,8.48634],[123.243507,8.48039],[123.243477,8.47835],[123.237442,8.47683],[123.231117,8.47641],[123.220947,8.47812],[123.21846,8.48448],[123.219391,8.49398],[123.227333,8.49527],[123.232979,8.4963],[123.240494,8.49916],[123.242088,8.49616]]]]}},{"type":"Feature","properties":{"ID_0":177,"ISO":"PHL","NAME_0":"Philippines","ID_1":9072,"NAME_1":"Zamboanga del Norte","ID_2":907211,"NAME_2":"Pres. Manuel A. Roxas","ID_3":907211019,"NAME_3":"Cape","NL_NAME_3":null,"VARNAME_3":null,"TYPE_3":"Barangay","ENGTYPE_3":"Village","PROVINCE":"Zamboanga del Norte","REGION":"Region IX (Zamboanga Peninsula)","id":"barangay-0907211019","name":"Cape","barangayCode":"0907211019","population":null,"formattedPop":null,"densityCategory":"No data","vulnerabilityRating":"No data","healthRiskLevel":"No data","areaKm2":1.451629,"centerLat":8.459814,"centerLng":123.225137,"geometrySource":"all_barangay-2.csv detailed WKT","geometryMatchMethod":"unique_official_admin_names","boundaryPointCount":8},"geometry":{"type":"MultiPolygon","coordinates":[[[[123.207153,8.46097],[123.219543,8.45765],[123.228477,8.45525],[123.222633,8.45407],[123.208641,8.45277],[123.204582,8.45267],[123.205772,8.45571],[123.207153,8.46097]]]]}},{"type":"Feature","properties":{"ID_0":177,"ISO":"PHL","NAME_0":"Philippines","ID_1":9072,"NAME_1":"Zamboanga del Norte","ID_2":907211,"NAME_2":"Pres. Manuel A. Roxas","ID_3":907211020,"NAME_3":"Galokso","NL_NAME_3":null,"VARNAME_3":null,"TYPE_3":"Barangay","ENGTYPE_3":"Village","PROVINCE":"Zamboanga del Norte","REGION":"Region IX (Zamboanga Peninsula)","id":"barangay-0907211020","name":"Galokso","barangayCode":"0907211020","population":null,"formattedPop":null,"densityCategory":"No data","vulnerabilityRating":"No data","healthRiskLevel":"No data","areaKm2":2.541037,"centerLat":8.510183,"centerLng":123.18319,"geometrySource":"all_barangay-2.csv detailed WKT","geometryMatchMethod":"unique_official_admin_names","boundaryPointCount":14},"geometry":{"type":"MultiPolygon","coordinates":[[[[123.186142,8.51013],[123.185188,8.50698],[123.185829,8.502],[123.187317,8.49067],[123.174026,8.49004],[123.176102,8.49189],[123.178436,8.49548],[123.176842,8.49984],[123.174911,8.50255],[123.17646,8.50422],[123.177567,8.50639],[123.174339,8.50942],[123.176514,8.51182],[123.186142,8.51013]]]]}},{"type":"Feature","properties":{"ID_0":177,"ISO":"PHL","NAME_0":"Philippines","ID_1":9072,"NAME_1":"Zamboanga del Norte","ID_2":907211,"NAME_2":"Pres. Manuel A. Roxas","ID_3":907211021,"NAME_3":"Gubat","NL_NAME_3":null,"VARNAME_3":null,"TYPE_3":"Barangay","ENGTYPE_3":"Village","PROVINCE":"Zamboanga del Norte","REGION":"Region IX (Zamboanga Peninsula)","id":"barangay-0907211021","name":"Gubat","barangayCode":"0907211021","population":null,"formattedPop":null,"densityCategory":"No data","vulnerabilityRating":"No data","healthRiskLevel":"No data","areaKm2":2.181794,"centerLat":8.485213,"centerLng":123.181475,"geometrySource":"all_barangay-2.csv detailed WKT","geometryMatchMethod":"unique_official_admin_names","boundaryPointCount":8},"geometry":{"type":"MultiPolygon","coordinates":[[[[123.191383,8.46873],[123.188377,8.46499],[123.187271,8.45905],[123.185867,8.45642],[123.177597,8.45525],[123.176376,8.46637],[123.184196,8.46739],[123.191383,8.46873]]]]}},{"type":"Feature","properties":{"ID_0":177,"ISO":"PHL","NAME_0":"Philippines","ID_1":9072,"NAME_1":"Zamboanga del Norte","ID_2":907211,"NAME_2":"Pres. Manuel A. Roxas","ID_3":907211022,"NAME_3":"Irasan","NL_NAME_3":null,"VARNAME_3":null,"TYPE_3":"Barangay","ENGTYPE_3":"Village","PROVINCE":"Zamboanga del Norte","REGION":"Region IX (Zamboanga Peninsula)","id":"barangay-0907211022","name":"Irasan","barangayCode":"0907211022","population":null,"formattedPop":null,"densityCategory":"No data","vulnerabilityRating":"No data","healthRiskLevel":"No data","areaKm2":4.721644,"centerLat":8.51494,"centerLng":123.215691,"geometrySource":"all_barangay-2.csv detailed WKT","geometryMatchMethod":"unique_official_admin_names","boundaryPointCount":23},"geometry":{"type":"MultiPolygon","coordinates":[[[[123.205437,8.53056],[123.205971,8.53048],[123.206589,8.53027],[123.20723,8.53006],[123.207901,8.52983],[123.209824,8.52908],[123.211319,8.52862],[123.211884,8.52833],[123.212433,8.52806],[123.212997,8.5278],[123.213593,8.52764],[123.214157,8.52748],[123.214462,8.52736],[123.214394,8.52619],[123.213959,8.51993],[123.214127,8.51488],[123.211861,8.51056],[123.209999,8.50615],[123.2033,8.50819],[123.203049,8.51378],[123.20385,8.51901],[123.205276,8.52925],[123.205437,8.53056]]]]}},{"type":"Feature","properties":{"ID_0":177,"ISO":"PHL","NAME_0":"Philippines","ID_1":9072,"NAME_1":"Zamboanga del Norte","ID_2":907211,"NAME_2":"Pres. Manuel A. Roxas","ID_3":907211023,"NAME_3":"Labakid","NL_NAME_3":null,"VARNAME_3":null,"TYPE_3":"Barangay","ENGTYPE_3":"Village","PROVINCE":"Zamboanga del Norte","REGION":"Region IX (Zamboanga Peninsula)","id":"barangay-0907211023","name":"Labakid","barangayCode":"0907211023","population":null,"formattedPop":null,"densityCategory":"No data","vulnerabilityRating":"No data","healthRiskLevel":"No data","areaKm2":2.963668,"centerLat":8.506836,"centerLng":123.193039,"geometrySource":"all_barangay-2.csv detailed WKT","geometryMatchMethod":"unique_official_admin_names","boundaryPointCount":10},"geometry":{"type":"MultiPolygon","coordinates":[[[[123.194313,8.50873],[123.19455,8.50739],[123.195107,8.50431],[123.197891,8.49915],[123.190987,8.49265],[123.187317,8.49067],[123.185829,8.502],[123.185188,8.50698],[123.186142,8.51013],[123.194313,8.50873]]]]}},{"type":"Feature","properties":{"ID_0":177,"ISO":"PHL","NAME_0":"Philippines","ID_1":9072,"NAME_1":"Zamboanga del Norte","ID_2":907211,"NAME_2":"Pres. Manuel A. Roxas","ID_3":907211024,"NAME_3":"Panampalay","NL_NAME_3":null,"VARNAME_3":null,"TYPE_3":"Barangay","ENGTYPE_3":"Village","PROVINCE":"Zamboanga del Norte","REGION":"Region IX (Zamboanga Peninsula)","id":"barangay-0907211024","name":"Panampalay","barangayCode":"0907211024","population":null,"formattedPop":null,"densityCategory":"No data","vulnerabilityRating":"No data","healthRiskLevel":"No data","areaKm2":54.048992,"centerLat":8.35321,"centerLng":123.162122,"geometrySource":"all_barangay-2.csv detailed WKT","geometryMatchMethod":"unique_official_admin_names","boundaryPointCount":10},"geometry":{"type":"MultiPolygon","coordinates":[[[[123.190773,8.44624],[123.192451,8.43935],[123.193626,8.43133],[123.186607,8.42987],[123.175041,8.42628],[123.176559,8.43125],[123.170723,8.43631],[123.178886,8.44288],[123.183571,8.44377],[123.190773,8.44624]]]]}},{"type":"Feature","properties":{"ID_0":177,"ISO":"PHL","NAME_0":"Philippines","ID_1":9072,"NAME_1":"Zamboanga del Norte","ID_2":907211,"NAME_2":"Pres. Manuel A. Roxas","ID_3":907211025,"NAME_3":"Piao","NL_NAME_3":null,"VARNAME_3":null,"TYPE_3":"Barangay","ENGTYPE_3":"Village","PROVINCE":"Zamboanga del Norte","REGION":"Region IX (Zamboanga Peninsula)","id":"barangay-0907211025","name":"Piao","barangayCode":"0907211025","population":null,"formattedPop":null,"densityCategory":"No data","vulnerabilityRating":"No data","healthRiskLevel":"No data","areaKm2":1.331241,"centerLat":8.508646,"centerLng":123.245732,"geometrySource":"all_barangay-2.csv detailed WKT","geometryMatchMethod":"unique_official_admin_names","boundaryPointCount":48},"geometry":{"type":"MultiPolygon","coordinates":[[[[123.230904,8.52199],[123.233009,8.52145],[123.235031,8.5211],[123.237396,8.52083],[123.238098,8.5208],[123.238678,8.52068],[123.239166,8.52071],[123.239708,8.52078],[123.240196,8.52082],[123.240646,8.52083],[123.241112,8.52083],[123.241562,8.52083],[123.241982,8.52083],[123.242393,8.52083],[123.242821,8.52083],[123.243317,8.52083],[123.243912,8.52084],[123.24456,8.52085],[123.245216,8.52084],[123.245857,8.52079],[123.246407,8.5206],[123.246964,8.5205],[123.247437,8.52032],[123.247963,8.52026],[123.248444,8.52016],[123.250763,8.51982],[123.252083,8.51982],[123.252617,8.51868],[123.252022,8.5192],[123.247833,8.51708],[123.247566,8.51542],[123.244507,8.51236],[123.243027,8.50902],[123.24398,8.50667],[123.244659,8.50323],[123.243172,8.50192],[123.240494,8.49916],[123.232979,8.4963],[123.227333,8.49527],[123.226463,8.49743],[123.228302,8.50359],[123.227661,8.50767],[123.229378,8.51356],[123.230141,8.51762],[123.23069,8.5206],[123.230721,8.52079],[123.230904,8.52193],[123.230904,8.52199]]]]}},{"type":"Feature","properties":{"ID_0":177,"ISO":"PHL","NAME_0":"Philippines","ID_1":9072,"NAME_1":"Zamboanga del Norte","ID_2":907211,"NAME_2":"Pres. Manuel A. Roxas","ID_3":907211026,"NAME_3":"Pongolan","NL_NAME_3":null,"VARNAME_3":null,"TYPE_3":"Barangay","ENGTYPE_3":"Village","PROVINCE":"Zamboanga del Norte","REGION":"Region IX (Zamboanga Peninsula)","id":"barangay-0907211026","name":"Pongolan","barangayCode":"0907211026","population":null,"formattedPop":null,"densityCategory":"No data","vulnerabilityRating":"No data","healthRiskLevel":"No data","areaKm2":5.817133,"centerLat":8.482536,"centerLng":123.232414,"geometrySource":"all_barangay-2.csv detailed WKT","geometryMatchMethod":"unique_official_admin_names","boundaryPointCount":11},"geometry":{"type":"MultiPolygon","coordinates":[[[[123.220947,8.47812],[123.231117,8.47641],[123.237442,8.47683],[123.238426,8.47071],[123.234596,8.46351],[123.224533,8.46291],[123.217194,8.46376],[123.217407,8.4702],[123.219467,8.47161],[123.220711,8.47514],[123.220947,8.47812]]]]}},{"type":"Feature","properties":{"ID_0":177,"ISO":"PHL","NAME_0":"Philippines","ID_1":9072,"NAME_1":"Zamboanga del Norte","ID_2":907211,"NAME_2":"Pres. Manuel A. Roxas","ID_3":907211027,"NAME_3":"Salisig","NL_NAME_3":null,"VARNAME_3":null,"TYPE_3":"Barangay","ENGTYPE_3":"Village","PROVINCE":"Zamboanga del Norte","REGION":"Region IX (Zamboanga Peninsula)","id":"barangay-0907211027","name":"Salisig","barangayCode":"0907211027","population":null,"formattedPop":null,"densityCategory":"No data","vulnerabilityRating":"No data","healthRiskLevel":"No data","areaKm2":3.053292,"centerLat":8.486251,"centerLng":123.172856,"geometrySource":"all_barangay-2.csv detailed WKT","geometryMatchMethod":"unique_official_admin_names","boundaryPointCount":16},"geometry":{"type":"MultiPolygon","coordinates":[[[[123.203407,8.49343],[123.20108,8.48938],[123.194946,8.48385],[123.183144,8.47828],[123.163429,8.47558],[123.165741,8.4783],[123.166412,8.48271],[123.167473,8.48591],[123.169594,8.4878],[123.171112,8.48993],[123.174026,8.49004],[123.187317,8.49067],[123.190987,8.49265],[123.197891,8.49915],[123.200027,8.49607],[123.203407,8.49343]]]]}},{"type":"Feature","properties":{"ID_0":177,"ISO":"PHL","NAME_0":"Philippines","ID_1":9072,"NAME_1":"Zamboanga del Norte","ID_2":907211,"NAME_2":"Pres. Manuel A. Roxas","ID_3":907211028,"NAME_3":"Sibatog","NL_NAME_3":null,"VARNAME_3":null,"TYPE_3":"Barangay","ENGTYPE_3":"Village","PROVINCE":"Zamboanga del Norte","REGION":"Region IX (Zamboanga Peninsula)","id":"barangay-0907211028","name":"Sibatog","barangayCode":"0907211028","population":null,"formattedPop":null,"densityCategory":"No data","vulnerabilityRating":"No data","healthRiskLevel":"No data","areaKm2":5.062631,"centerLat":8.414824,"centerLng":123.203915,"geometrySource":"all_barangay-2.csv detailed WKT","geometryMatchMethod":"unique_official_admin_names","boundaryPointCount":12},"geometry":{"type":"MultiPolygon","coordinates":[[[[123.204887,8.43032],[123.207901,8.41443],[123.206711,8.39863],[123.200813,8.39727],[123.197273,8.40086],[123.193748,8.40989],[123.191338,8.42011],[123.189034,8.42467],[123.186607,8.42987],[123.193626,8.43133],[123.197418,8.43109],[123.204887,8.43032]]]]}},{"type":"Feature","properties":{"ID_0":177,"ISO":"PHL","NAME_0":"Philippines","ID_1":9072,"NAME_1":"Zamboanga del Norte","ID_2":907211,"NAME_2":"Pres. Manuel A. Roxas","ID_3":907211029,"NAME_3":"Situbo","NL_NAME_3":null,"VARNAME_3":null,"TYPE_3":"Barangay","ENGTYPE_3":"Village","PROVINCE":"Zamboanga del Norte","REGION":"Region IX (Zamboanga Peninsula)","id":"barangay-0907211029","name":"Situbo","barangayCode":"0907211029","population":null,"formattedPop":null,"densityCategory":"No data","vulnerabilityRating":"No data","healthRiskLevel":"No data","areaKm2":28.680653,"centerLat":8.424464,"centerLng":123.142994,"geometrySource":"all_barangay-2.csv detailed WKT","geometryMatchMethod":"unique_official_admin_names","boundaryPointCount":8},"geometry":{"type":"MultiPolygon","coordinates":[[[[123.176376,8.46637],[123.177597,8.45525],[123.178886,8.44288],[123.170723,8.43631],[123.164032,8.44278],[123.16423,8.46635],[123.171631,8.46613],[123.176376,8.46637]]]]}},{"type":"Feature","properties":{"ID_0":177,"ISO":"PHL","NAME_0":"Philippines","ID_1":9072,"NAME_1":"Zamboanga del Norte","ID_2":907211,"NAME_2":"Pres. Manuel A. Roxas","ID_3":907211030,"NAME_3":"Tantingon","NL_NAME_3":null,"VARNAME_3":null,"TYPE_3":"Barangay","ENGTYPE_3":"Village","PROVINCE":"Zamboanga del Norte","REGION":"Region IX (Zamboanga Peninsula)","id":"barangay-0907211030","name":"Tantingon","barangayCode":"0907211030","population":null,"formattedPop":null,"densityCategory":"No data","vulnerabilityRating":"No data","healthRiskLevel":"No data","areaKm2":22.677266,"centerLat":8.367038,"centerLng":123.202904,"geometrySource":"all_barangay-2.csv detailed WKT","geometryMatchMethod":"unique_official_admin_names","boundaryPointCount":21},"geometry":{"type":"MultiPolygon","coordinates":[[[[123.248787,8.41094],[123.223747,8.36881],[123.196983,8.33031],[123.194847,8.33044],[123.195442,8.34286],[123.195663,8.34727],[123.199471,8.353],[123.201141,8.35747],[123.199318,8.36056],[123.200188,8.36519],[123.205017,8.36755],[123.208557,8.36981],[123.208061,8.37491],[123.208107,8.37846],[123.208527,8.38257],[123.208717,8.38827],[123.206711,8.39863],[123.215889,8.40086],[123.22493,8.40336],[123.236473,8.40779],[123.248787,8.41094]]]]}},{"type":"Feature","properties":{"ID_0":177,"ISO":"PHL","NAME_0":"Philippines","ID_1":9072,"NAME_1":"Zamboanga del Norte","ID_2":907211,"NAME_2":"Pres. Manuel A. Roxas","ID_3":907211031,"NAME_3":"Upper Irasan","NL_NAME_3":null,"VARNAME_3":null,"TYPE_3":"Barangay","ENGTYPE_3":"Village","PROVINCE":"Zamboanga del Norte","REGION":"Region IX (Zamboanga Peninsula)","id":"barangay-0907211031","name":"Upper Irasan","barangayCode":"0907211031","population":null,"formattedPop":null,"densityCategory":"No data","vulnerabilityRating":"No data","healthRiskLevel":"No data","areaKm2":3.335055,"centerLat":8.521272,"centerLng":123.202351,"geometrySource":"all_barangay-2.csv detailed WKT","geometryMatchMethod":"unique_official_admin_names","boundaryPointCount":35},"geometry":{"type":"MultiPolygon","coordinates":[[[[123.195381,8.53232],[123.196037,8.53236],[123.197571,8.53236],[123.199692,8.53212],[123.200119,8.53199],[123.200577,8.5319],[123.201012,8.53171],[123.201508,8.53159],[123.20208,8.53172],[123.202499,8.53156],[123.202904,8.53139],[123.203339,8.53123],[123.203819,8.53109],[123.204277,8.53087],[123.204788,8.53071],[123.205353,8.53057],[123.205437,8.53056],[123.205276,8.52925],[123.20385,8.51901],[123.203049,8.51378],[123.2033,8.50819],[123.209999,8.50615],[123.210548,8.49265],[123.205582,8.49215],[123.203407,8.49343],[123.200027,8.49607],[123.197891,8.49915],[123.195107,8.50431],[123.19455,8.50739],[123.194313,8.50873],[123.19416,8.51784],[123.195457,8.52281],[123.196587,8.52687],[123.195717,8.53111],[123.195381,8.53232]]]]}},{"type":"Feature","properties":{"ID_0":177,"ISO":"PHL","NAME_0":"Philippines","ID_1":9072,"NAME_1":"Zamboanga del Norte","ID_2":907211,"NAME_2":"Pres. Manuel A. Roxas","ID_3":907211032,"NAME_3":"Upper Minang","NL_NAME_3":null,"VARNAME_3":null,"TYPE_3":"Barangay","ENGTYPE_3":"Village","PROVINCE":"Zamboanga del Norte","REGION":"Region IX (Zamboanga Peninsula)","id":"barangay-0907211032","name":"Upper Minang","barangayCode":"0907211032","population":null,"formattedPop":null,"densityCategory":"No data","vulnerabilityRating":"No data","healthRiskLevel":"No data","areaKm2":1.318504,"centerLat":8.497018,"centerLng":123.252074,"geometrySource":"all_barangay-2.csv detailed WKT","geometryMatchMethod":"unique_official_admin_names","boundaryPointCount":9},"geometry":{"type":"MultiPolygon","coordinates":[[[[123.242088,8.49616],[123.254066,8.49649],[123.254318,8.48248],[123.254204,8.47955],[123.243477,8.47835],[123.243507,8.48039],[123.243446,8.48634],[123.244331,8.48848],[123.242088,8.49616]]]]}}]}
