{"type":"FeatureCollection","features":[{"type":"Feature","properties":{"ID_0":177,"ISO":"PHL","NAME_0":"Philippines","ID_1":2009,"NAME_1":"Batanes","ID_2":200901,"NAME_2":"Basco (Capital)","ID_3":200901001,"NAME_3":"Ihubok II","NL_NAME_3":null,"VARNAME_3":null,"TYPE_3":"Barangay","ENGTYPE_3":"Village","PROVINCE":"Batanes","REGION":"Region II (Cagayan Valley)","id":"barangay-0200901001","name":"Ihubok II","barangayCode":"0200901001","population":null,"formattedPop":null,"densityCategory":"No data","vulnerabilityRating":"No data","healthRiskLevel":"No data","areaKm2":3.339169,"centerLat":20.453572,"centerLng":121.985645,"geometrySource":"all_barangay-2.csv detailed WKT","geometryMatchMethod":"psgc_coordinate_bridge","boundaryPointCount":68},"geometry":{"type":"MultiPolygon","coordinates":[[[[121.969307,20.45256],[121.971527,20.450491],[121.972961,20.44978],[121.973709,20.44906],[121.974907,20.448669],[121.975616,20.448601],[121.976532,20.448721],[121.977814,20.449169],[121.980057,20.45051],[121.981567,20.451851],[121.981819,20.452089],[121.981888,20.45216],[121.981918,20.449261],[121.981522,20.44829],[121.981979,20.447241],[121.982811,20.44619],[121.983101,20.44495],[121.983421,20.44363],[121.984253,20.44224],[121.984512,20.441759],[121.984581,20.440741],[121.984306,20.439619],[121.9841,20.4391],[121.985703,20.438471],[121.987007,20.437851],[121.985558,20.43639],[121.985558,20.43611],[121.985283,20.435829],[121.985283,20.43556],[121.985001,20.43528],[121.985001,20.434441],[121.984734,20.43417],[121.984734,20.433889],[121.984444,20.433611],[121.984444,20.432529],[121.984169,20.43222],[121.984169,20.431669],[121.984207,20.431339],[121.984581,20.431141],[121.984917,20.430941],[121.985199,20.430719],[121.985542,20.43055],[121.985931,20.43013],[121.986137,20.42985],[121.986214,20.429541],[121.986214,20.429079],[121.986038,20.42877],[121.985893,20.42869],[121.985687,20.42853],[121.985519,20.428169],[121.985413,20.427919],[121.985329,20.427759],[121.985138,20.427641],[121.984879,20.427521],[121.984322,20.42738],[121.984047,20.42728],[121.983269,20.42807],[121.96611,20.446569],[121.96611,20.447781],[121.965843,20.448059],[121.965843,20.44833],[121.965279,20.448891],[121.965233,20.44886],[121.965057,20.44879],[121.964821,20.44906],[121.96489,20.4491],[121.966583,20.450121],[121.969307,20.45256]]]]}},{"type":"Feature","properties":{"ID_0":177,"ISO":"PHL","NAME_0":"Philippines","ID_1":2009,"NAME_1":"Batanes","ID_2":200901,"NAME_2":"Basco (Capital)","ID_3":200901002,"NAME_3":"Ihubok I","NL_NAME_3":null,"VARNAME_3":null,"TYPE_3":"Barangay","ENGTYPE_3":"Village","PROVINCE":"Batanes","REGION":"Region II (Cagayan Valley)","id":"barangay-0200901002","name":"Ihubok I","barangayCode":"0200901002","population":null,"formattedPop":null,"densityCategory":"No data","vulnerabilityRating":"No data","healthRiskLevel":"No data","areaKm2":1.607511,"centerLat":20.437294,"centerLng":121.97291,"geometrySource":"all_barangay-2.csv detailed WKT","geometryMatchMethod":"psgc_coordinate_bridge","boundaryPointCount":54},"geometry":{"type":"MultiPolygon","coordinates":[[[[121.962273,20.443081],[121.962677,20.443331],[121.962967,20.44351],[121.963608,20.44389],[121.964157,20.44389],[121.964447,20.44417],[121.964722,20.44417],[121.965279,20.444719],[121.965584,20.444889],[121.965843,20.44525],[121.966049,20.44565],[121.96611,20.44639],[121.96611,20.446569],[121.983269,20.42807],[121.984047,20.42728],[121.983963,20.42725],[121.983627,20.42705],[121.983177,20.42667],[121.982887,20.4263],[121.982826,20.42609],[121.98278,20.42594],[121.98278,20.425739],[121.982857,20.425449],[121.982857,20.42527],[121.982521,20.425011],[121.982353,20.424891],[121.98214,20.424761],[121.98201,20.424561],[121.981796,20.424419],[121.981499,20.42428],[121.981133,20.424101],[121.98111,20.423611],[121.980553,20.423611],[121.980278,20.42333],[121.977829,20.42333],[121.977798,20.423351],[121.97686,20.423981],[121.976578,20.4242],[121.976547,20.42425],[121.974373,20.425859],[121.97403,20.427179],[121.973457,20.428631],[121.972107,20.429819],[121.970734,20.430479],[121.970337,20.43177],[121.969879,20.433029],[121.968643,20.434019],[121.967117,20.435141],[121.965897,20.43622],[121.964943,20.437981],[121.963966,20.440229],[121.963211,20.441681],[121.962532,20.442659],[121.962273,20.443081]]]]}},{"type":"Feature","properties":{"ID_0":177,"ISO":"PHL","NAME_0":"Philippines","ID_1":2009,"NAME_1":"Batanes","ID_2":200901,"NAME_2":"Basco (Capital)","ID_3":200901003,"NAME_3":"San Antonio","NL_NAME_3":null,"VARNAME_3":null,"TYPE_3":"Barangay","ENGTYPE_3":"Village","PROVINCE":"Batanes","REGION":"Region II (Cagayan Valley)","id":"barangay-0200901003","name":"San Antonio","barangayCode":"0200901003","population":null,"formattedPop":null,"densityCategory":"No data","vulnerabilityRating":"No data","healthRiskLevel":"No data","areaKm2":8.326372,"centerLat":20.465092,"centerLng":121.978359,"geometrySource":"all_barangay-2.csv detailed WKT","geometryMatchMethod":"psgc_coordinate_bridge","boundaryPointCount":184},"geometry":{"type":"MultiPolygon","coordinates":[[[[122.001732,20.46253],[121.99855,20.463051],[121.99501,20.46277],[121.99353,20.462481],[121.991257,20.46204],[121.988281,20.460751],[121.985947,20.459141],[121.984138,20.45793],[121.982872,20.457411],[121.982826,20.457399],[121.982063,20.457081],[121.980492,20.45713],[121.978149,20.45698],[121.9757,20.456011],[121.974052,20.45529],[121.972672,20.454741],[121.971703,20.454201],[121.971474,20.45348],[121.969307,20.45256],[121.966583,20.450121],[121.96489,20.4491],[121.964821,20.44906],[121.964722,20.449169],[121.964104,20.449381],[121.96402,20.44944],[121.963387,20.449949],[121.963058,20.450279],[121.961937,20.451389],[121.961487,20.45183],[121.959717,20.45389],[121.959717,20.45417],[121.959442,20.454451],[121.959442,20.45472],[121.959328,20.454981],[121.959328,20.455021],[121.959297,20.45545],[121.959343,20.45554],[121.959442,20.45583],[121.959442,20.46056],[121.959457,20.460791],[121.959358,20.461189],[121.95919,20.4615],[121.95887,20.461679],[121.957947,20.46307],[121.957779,20.463329],[121.95768,20.46372],[121.957603,20.464001],[121.95752,20.464109],[121.957222,20.464451],[121.957153,20.46497],[121.957077,20.465139],[121.956947,20.465561],[121.956947,20.46611],[121.956657,20.466391],[121.956657,20.46694],[121.956421,20.46719],[121.956413,20.46723],[121.95639,20.4673],[121.95639,20.467779],[121.956207,20.46796],[121.956108,20.46806],[121.956108,20.468321],[121.956108,20.46859],[121.956139,20.468639],[121.95639,20.468889],[121.95639,20.46907],[121.95639,20.46917],[121.956528,20.469311],[121.956657,20.46944],[121.956787,20.469641],[121.956947,20.469721],[121.957222,20.469999],[121.957779,20.469999],[121.958,20.470221],[121.958054,20.47028],[121.958893,20.47028],[121.958923,20.470249],[121.959167,20.469999],[121.959999,20.469999],[121.961113,20.471109],[121.961113,20.4713],[121.961113,20.47139],[121.961388,20.47167],[121.961601,20.47209],[121.962219,20.472219],[121.963333,20.471109],[121.963333,20.470831],[121.964157,20.469999],[121.964447,20.469999],[121.964722,20.469721],[121.967506,20.469721],[121.96833,20.469721],[121.96843,20.46982],[121.968613,20.469999],[121.969299,20.469999],[121.970284,20.469999],[121.970558,20.47028],[121.970596,20.47028],[121.971107,20.47028],[121.971336,20.47051],[121.97139,20.47056],[121.971481,20.47056],[121.972221,20.47056],[121.972603,20.47093],[121.972778,20.471109],[121.973152,20.471109],[121.97361,20.471109],[121.973892,20.47139],[121.974167,20.47139],[121.974442,20.47167],[121.974998,20.47167],[121.976669,20.473339],[121.977219,20.47389],[121.977402,20.47389],[121.977501,20.47389],[121.977737,20.474131],[121.978058,20.474449],[121.978188,20.474449],[121.978333,20.474449],[121.978691,20.4748],[121.979446,20.475559],[121.979736,20.47554],[121.980003,20.47583],[121.980171,20.47583],[121.980278,20.47583],[121.980507,20.47607],[121.980827,20.476391],[121.98098,20.476391],[121.98111,20.476391],[121.9814,20.476681],[121.981667,20.47694],[121.981789,20.47694],[121.981941,20.47694],[121.982224,20.477221],[121.982498,20.477221],[121.983177,20.477909],[121.98333,20.47806],[121.983398,20.47806],[121.983612,20.47806],[121.984108,20.47855],[121.9842,20.478609],[121.984444,20.478609],[121.985001,20.47917],[121.985558,20.47917],[121.985832,20.479441],[121.986107,20.479441],[121.986389,20.479719],[121.986656,20.479719],[121.988152,20.481199],[121.988197,20.48126],[121.988327,20.48139],[121.988487,20.48139],[121.988609,20.48139],[121.988731,20.48151],[121.989166,20.481951],[121.989571,20.481951],[121.989647,20.481951],[121.989891,20.48188],[121.991882,20.481371],[121.99308,20.4814],[121.993889,20.48101],[121.99366,20.48023],[121.993141,20.47929],[121.992104,20.477409],[121.991783,20.4758],[121.9916,20.47477],[121.990837,20.47373],[121.990883,20.47245],[121.992523,20.471661],[121.995667,20.47156],[121.999687,20.472111],[122.001106,20.471569],[122.000023,20.47028],[121.999039,20.46907],[121.997993,20.46784],[121.996918,20.466579],[121.997467,20.465321],[121.999008,20.464451],[122.000748,20.46413],[122.002342,20.4641],[122.003014,20.46384],[122.003113,20.463659],[122.003113,20.463499],[122.001732,20.46253]]]]}},{"type":"Feature","properties":{"ID_0":177,"ISO":"PHL","NAME_0":"Philippines","ID_1":2009,"NAME_1":"Batanes","ID_2":200901,"NAME_2":"Basco (Capital)","ID_3":200901004,"NAME_3":"San Joaquin","NL_NAME_3":null,"VARNAME_3":null,"TYPE_3":"Barangay","ENGTYPE_3":"Village","PROVINCE":"Batanes","REGION":"Region II (Cagayan Valley)","id":"barangay-0200901004","name":"San Joaquin","barangayCode":"0200901004","population":null,"formattedPop":null,"densityCategory":"No data","vulnerabilityRating":"No data","healthRiskLevel":"No data","areaKm2":15.906145,"centerLat":20.465437,"centerLng":122.00987,"geometrySource":"all_barangay-2.csv detailed WKT","geometryMatchMethod":"psgc_coordinate_bridge","boundaryPointCount":251},"geometry":{"type":"MultiPolygon","coordinates":[[[[122.001732,20.46253],[122.003113,20.463499],[122.003113,20.463659],[122.003014,20.46384],[122.002342,20.4641],[122.000748,20.46413],[121.999008,20.464451],[121.997467,20.465321],[121.996918,20.466579],[121.997993,20.46784],[121.999039,20.46907],[122.000023,20.47028],[122.001106,20.471569],[121.999687,20.472111],[121.995667,20.47156],[121.992523,20.471661],[121.990883,20.47245],[121.990837,20.47373],[121.9916,20.47477],[121.991783,20.4758],[121.992104,20.477409],[121.993141,20.47929],[121.99366,20.48023],[121.993889,20.48101],[121.99308,20.4814],[121.991882,20.481371],[121.989891,20.48188],[121.989647,20.481951],[121.989998,20.481951],[121.99028,20.48222],[121.990547,20.48222],[121.990837,20.4825],[121.991112,20.4825],[121.991386,20.48278],[121.991669,20.48278],[121.992767,20.484171],[121.993721,20.48493],[121.99472,20.485279],[121.995003,20.485559],[121.995277,20.485559],[121.996109,20.486389],[121.996391,20.486389],[121.997223,20.487221],[121.997498,20.487221],[121.998039,20.487761],[121.998337,20.48806],[121.998611,20.48806],[121.998894,20.488331],[121.999168,20.488331],[121.999367,20.488541],[121.999649,20.488661],[121.999733,20.488609],[122.0,20.48889],[122.000359,20.488831],[122.00042,20.48881],[122.001083,20.489031],[122.001213,20.488951],[122.001572,20.489229],[122.001732,20.489281],[122.002647,20.48955],[122.003403,20.48929],[122.003639,20.489031],[122.003777,20.48888],[122.003853,20.4888],[122.004768,20.488279],[122.005211,20.488211],[122.005302,20.488211],[122.007317,20.487631],[122.007843,20.48737],[122.00811,20.48744],[122.009422,20.486719],[122.010643,20.48625],[122.012138,20.48551],[122.013924,20.485241],[122.014771,20.48522],[122.015129,20.48531],[122.015213,20.48517],[122.016632,20.4853],[122.017059,20.48551],[122.017326,20.48583],[122.0177,20.4858],[122.018204,20.48591],[122.020203,20.4851],[122.021271,20.484631],[122.022697,20.48348],[122.023521,20.483339],[122.023872,20.483271],[122.024467,20.482719],[122.026703,20.48173],[122.02713,20.481461],[122.027557,20.4807],[122.027557,20.48024],[122.027557,20.48016],[122.027924,20.479759],[122.028351,20.47901],[122.028503,20.47888],[122.028633,20.47847],[122.028999,20.478189],[122.029068,20.47814],[122.029083,20.478029],[122.029137,20.47773],[122.029633,20.476851],[122.029839,20.476629],[122.030144,20.476311],[122.030418,20.47604],[122.030563,20.47571],[122.030777,20.475229],[122.031067,20.474899],[122.031197,20.474689],[122.031349,20.47436],[122.031563,20.473949],[122.031708,20.47368],[122.031921,20.47328],[122.032066,20.472811],[122.032562,20.472429],[122.032578,20.47184],[122.033081,20.47143],[122.034081,20.47143],[122.034019,20.46962],[122.033997,20.469139],[122.034348,20.46911],[122.034798,20.46908],[122.03479,20.4688],[122.03508,20.46821],[122.035156,20.46781],[122.035652,20.467199],[122.03598,20.466209],[122.03569,20.465599],[122.035393,20.465481],[122.035423,20.4645],[122.035278,20.46417],[122.034721,20.46361],[122.034447,20.46361],[122.034157,20.463329],[122.03389,20.463329],[122.033607,20.463051],[122.033333,20.463051],[122.032784,20.4625],[122.032501,20.4625],[122.029999,20.459999],[122.029297,20.45879],[122.02816,20.45825],[122.027733,20.45717],[122.026169,20.455549],[122.02417,20.45472],[122.02417,20.45417],[122.023888,20.45389],[122.023888,20.45306],[122.023613,20.45278],[122.023331,20.45278],[122.023064,20.452499],[122.022499,20.452499],[122.022217,20.452221],[122.021393,20.452221],[122.021111,20.451941],[122.020554,20.451941],[122.019447,20.45083],[122.019157,20.45083],[122.017288,20.449841],[122.016869,20.44957],[122.016441,20.44944],[122.015846,20.44948],[122.015137,20.44915],[122.014999,20.44861],[122.014717,20.44861],[122.014641,20.448139],[122.014214,20.44746],[122.012154,20.44739],[122.011963,20.447109],[122.011459,20.447109],[122.011269,20.44733],[122.00927,20.44733],[122.008842,20.44713],[122.007874,20.44721],[122.005943,20.446421],[122.005836,20.446369],[122.005501,20.44644],[122.004288,20.445829],[122.002289,20.44462],[122.001083,20.44401],[122.0,20.443609],[121.999733,20.443331],[121.999443,20.443331],[121.998894,20.44278],[121.998611,20.44278],[121.998337,20.442499],[121.99778,20.442499],[121.997498,20.442221],[121.996948,20.442221],[121.996674,20.44194],[121.996109,20.44194],[121.995827,20.441669],[121.995277,20.441669],[121.995003,20.441389],[121.99472,20.441389],[121.994453,20.441111],[121.994164,20.441111],[121.993889,20.44083],[121.993332,20.44083],[121.993057,20.440559],[121.992767,20.440559],[121.9925,20.440281],[121.991943,20.440281],[121.991669,20.440001],[121.991386,20.440001],[121.991112,20.43972],[121.990837,20.43972],[121.990547,20.43944],[121.99028,20.43944],[121.989723,20.43889],[121.988892,20.43889],[121.988609,20.43861],[121.988327,20.43861],[121.988052,20.43833],[121.987778,20.43833],[121.987503,20.438061],[121.987221,20.438061],[121.987007,20.437851],[121.985703,20.438471],[121.9841,20.4391],[121.984306,20.439619],[121.984581,20.440741],[121.984512,20.441759],[121.984253,20.44224],[121.983421,20.44363],[121.983101,20.44495],[121.982811,20.44619],[121.981979,20.447241],[121.981522,20.44829],[121.981918,20.449261],[121.983368,20.449921],[121.983963,20.45015],[121.984238,20.45014],[121.985909,20.450109],[121.98732,20.450211],[121.989189,20.450871],[121.990143,20.45129],[121.991173,20.45236],[121.992416,20.45402],[121.993767,20.455469],[121.994537,20.45606],[121.995193,20.456551],[121.997292,20.457439],[121.999641,20.45853],[122.000603,20.459339],[122.000961,20.4597],[122.001221,20.46015],[122.001663,20.46137],[122.00177,20.46216],[122.001747,20.462351],[122.001732,20.46253]]]]}},{"type":"Feature","properties":{"ID_0":177,"ISO":"PHL","NAME_0":"Philippines","ID_1":2009,"NAME_1":"Batanes","ID_2":200901,"NAME_2":"Basco (Capital)","ID_3":200901005,"NAME_3":"Chanarian","NL_NAME_3":null,"VARNAME_3":null,"TYPE_3":"Barangay","ENGTYPE_3":"Village","PROVINCE":"Batanes","REGION":"Region II (Cagayan Valley)","id":"barangay-0200901005","name":"Chanarian","barangayCode":"0200901005","population":null,"formattedPop":null,"densityCategory":"No data","vulnerabilityRating":"No data","healthRiskLevel":"No data","areaKm2":2.675312,"centerLat":20.430407,"centerLng":121.967303,"geometrySource":"all_barangay-2.csv detailed WKT","geometryMatchMethod":"psgc_coordinate_bridge","boundaryPointCount":55},"geometry":{"type":"MultiPolygon","coordinates":[[[[121.957863,20.432301],[121.958344,20.432779],[121.958344,20.43306],[121.959167,20.433889],[121.959167,20.43417],[121.959396,20.434641],[121.959297,20.434919],[121.95919,20.435539],[121.959229,20.435841],[121.959396,20.436119],[121.961937,20.43861],[121.962463,20.43923],[121.962563,20.43977],[121.961937,20.440241],[121.96167,20.44083],[121.96167,20.442221],[121.961937,20.442499],[121.962181,20.443029],[121.962273,20.443081],[121.962532,20.442659],[121.963211,20.441681],[121.963966,20.440229],[121.964943,20.437981],[121.965897,20.43622],[121.967117,20.435141],[121.968643,20.434019],[121.969879,20.433029],[121.970337,20.43177],[121.970734,20.430479],[121.972107,20.429819],[121.973457,20.428631],[121.97403,20.427179],[121.974373,20.425859],[121.976547,20.42425],[121.976578,20.4242],[121.97686,20.423981],[121.977798,20.423351],[121.977219,20.422779],[121.976936,20.422779],[121.976387,20.42222],[121.976112,20.42222],[121.973892,20.42],[121.97361,20.42],[121.973343,20.41972],[121.973213,20.419689],[121.972923,20.41951],[121.972237,20.41935],[121.971947,20.419451],[121.971657,20.419451],[121.970833,20.41861],[121.970573,20.418631],[121.970192,20.41884],[121.969772,20.419041],[121.961304,20.42749],[121.957863,20.432301]]]]}},{"type":"Feature","properties":{"ID_0":177,"ISO":"PHL","NAME_0":"Philippines","ID_1":2009,"NAME_1":"Batanes","ID_2":200901,"NAME_2":"Basco (Capital)","ID_3":200901006,"NAME_3":"Kayhuvokan","NL_NAME_3":null,"VARNAME_3":null,"TYPE_3":"Barangay","ENGTYPE_3":"Village","PROVINCE":"Batanes","REGION":"Region II (Cagayan Valley)","id":"barangay-0200901006","name":"Kayhuvokan","barangayCode":"0200901006","population":null,"formattedPop":null,"densityCategory":"No data","vulnerabilityRating":"No data","healthRiskLevel":"No data","areaKm2":1.639102,"centerLat":20.437289,"centerLng":121.978787,"geometrySource":"all_barangay-2.csv detailed WKT","geometryMatchMethod":"psgc_coordinate_bridge","boundaryPointCount":52},"geometry":{"type":"MultiPolygon","coordinates":[[[[121.969307,20.45256],[121.971474,20.45348],[121.971703,20.454201],[121.972672,20.454741],[121.974052,20.45529],[121.9757,20.456011],[121.978149,20.45698],[121.980492,20.45713],[121.982063,20.457081],[121.982826,20.457399],[121.982872,20.457411],[121.984138,20.45793],[121.985947,20.459141],[121.988281,20.460751],[121.991257,20.46204],[121.99353,20.462481],[121.99501,20.46277],[121.99855,20.463051],[122.001732,20.46253],[122.001747,20.462351],[122.00177,20.46216],[122.001663,20.46137],[122.001221,20.46015],[122.000961,20.4597],[122.000603,20.459339],[121.999641,20.45853],[121.997292,20.457439],[121.995193,20.456551],[121.994537,20.45606],[121.993767,20.455469],[121.992416,20.45402],[121.991173,20.45236],[121.990143,20.45129],[121.989189,20.450871],[121.98732,20.450211],[121.985909,20.450109],[121.984238,20.45014],[121.983963,20.45015],[121.983368,20.449921],[121.981918,20.449261],[121.981888,20.45216],[121.981819,20.452089],[121.981567,20.451851],[121.980057,20.45051],[121.977814,20.449169],[121.976532,20.448721],[121.975616,20.448601],[121.974907,20.448669],[121.973709,20.44906],[121.972961,20.44978],[121.971527,20.450491],[121.969307,20.45256]]]]}}]}
