{"type":"FeatureCollection","features":[{"type":"Feature","properties":{"ID_0":177,"ISO":"PHL","NAME_0":"Philippines","ID_1":8048,"NAME_1":"Northern Samar","ID_2":804801,"NAME_2":"Allen","ID_3":804801001,"NAME_3":"Alejandro Village","NL_NAME_3":null,"VARNAME_3":null,"TYPE_3":"Barangay","ENGTYPE_3":"Village","PROVINCE":"Northern Samar","REGION":"Region VIII (Eastern Visayas)","id":"barangay-0804801001","name":"Alejandro Village","barangayCode":"0804801001","population":null,"formattedPop":null,"densityCategory":"No data","vulnerabilityRating":"No data","healthRiskLevel":"No data","areaKm2":5.997283,"centerLat":12.482666,"centerLng":124.338307,"geometrySource":"all_barangay-2.csv detailed WKT","geometryMatchMethod":"unique_official_admin_names","boundaryPointCount":21},"geometry":{"type":"MultiPolygon","coordinates":[[[[124.305779,12.52514],[124.30912,12.52143],[124.30925,12.52129],[124.308723,12.52057],[124.307137,12.51956],[124.306061,12.51874],[124.305771,12.51812],[124.305649,12.51773],[124.30542,12.51655],[124.304863,12.51607],[124.302994,12.51412],[124.30262,12.51322],[124.302834,12.51033],[124.302643,12.50992],[124.301964,12.50965],[124.300797,12.50951],[124.299767,12.50961],[124.298851,12.5102],[124.296562,12.51076],[124.296204,12.51761],[124.305779,12.52514]]]]}},{"type":"Feature","properties":{"ID_0":177,"ISO":"PHL","NAME_0":"Philippines","ID_1":8048,"NAME_1":"Northern Samar","ID_2":804801,"NAME_2":"Allen","ID_3":804801002,"NAME_3":"Bonifacio","NL_NAME_3":null,"VARNAME_3":null,"TYPE_3":"Barangay","ENGTYPE_3":"Village","PROVINCE":"Northern Samar","REGION":"Region VIII (Eastern Visayas)","id":"barangay-0804801002","name":"Bonifacio","barangayCode":"0804801002","population":null,"formattedPop":null,"densityCategory":"No data","vulnerabilityRating":"No data","healthRiskLevel":"No data","areaKm2":4.535075,"centerLat":12.500438,"centerLng":124.311575,"geometrySource":"all_barangay-2.csv detailed WKT","geometryMatchMethod":"unique_official_admin_names","boundaryPointCount":9},"geometry":{"type":"MultiPolygon","coordinates":[[[[124.335739,12.50544],[124.344879,12.50081],[124.347214,12.49888],[124.318283,12.47258],[124.300507,12.49522],[124.300232,12.49739],[124.299568,12.50257],[124.32431,12.51162],[124.335739,12.50544]]]]}},{"type":"Feature","properties":{"ID_0":177,"ISO":"PHL","NAME_0":"Philippines","ID_1":8048,"NAME_1":"Northern Samar","ID_2":804801,"NAME_2":"Allen","ID_3":804801003,"NAME_3":"Cabacungan","NL_NAME_3":null,"VARNAME_3":null,"TYPE_3":"Barangay","ENGTYPE_3":"Village","PROVINCE":"Northern Samar","REGION":"Region VIII (Eastern Visayas)","id":"barangay-0804801003","name":"Cabacungan","barangayCode":"0804801003","population":null,"formattedPop":null,"densityCategory":"No data","vulnerabilityRating":"No data","healthRiskLevel":"No data","areaKm2":2.875179,"centerLat":12.566621,"centerLng":124.277855,"geometrySource":"all_barangay-2.csv detailed WKT","geometryMatchMethod":"unique_official_admin_names","boundaryPointCount":45},"geometry":{"type":"MultiPolygon","coordinates":[[[[124.279068,12.58008],[124.28421,12.56377],[124.285629,12.55934],[124.281754,12.55939],[124.281349,12.55928],[124.280807,12.5591],[124.280327,12.55915],[124.279793,12.55947],[124.279404,12.55966],[124.278847,12.56022],[124.278473,12.56038],[124.278191,12.56038],[124.277763,12.56036],[124.277031,12.56058],[124.277077,12.56106],[124.276756,12.56111],[124.276253,12.56095],[124.275993,12.561],[124.275711,12.56116],[124.27536,12.56089],[124.274979,12.56078],[124.269569,12.56374],[124.269722,12.56389],[124.269997,12.56389],[124.270844,12.56472],[124.271393,12.56472],[124.272278,12.56474],[124.272842,12.56556],[124.272781,12.56639],[124.272057,12.56766],[124.271477,12.5683],[124.270813,12.56904],[124.269974,12.57055],[124.269974,12.57099],[124.269974,12.57152],[124.270447,12.57207],[124.271362,12.57241],[124.273392,12.5731],[124.274788,12.57448],[124.275208,12.57558],[124.277031,12.57696],[124.277451,12.5782],[124.27829,12.57903],[124.278992,12.57999],[124.279068,12.58008]]]]}},{"type":"Feature","properties":{"ID_0":177,"ISO":"PHL","NAME_0":"Philippines","ID_1":8048,"NAME_1":"Northern Samar","ID_2":804801,"NAME_2":"Allen","ID_3":804801004,"NAME_3":"Calarayan","NL_NAME_3":null,"VARNAME_3":null,"TYPE_3":"Barangay","ENGTYPE_3":"Village","PROVINCE":"Northern Samar","REGION":"Region VIII (Eastern Visayas)","id":"barangay-0804801004","name":"Calarayan","barangayCode":"0804801004","population":null,"formattedPop":null,"densityCategory":"No data","vulnerabilityRating":"No data","healthRiskLevel":"No data","areaKm2":1.853787,"centerLat":12.555808,"centerLng":124.275545,"geometrySource":"all_barangay-2.csv detailed WKT","geometryMatchMethod":"unique_official_admin_names","boundaryPointCount":39},"geometry":{"type":"MultiPolygon","coordinates":[[[[124.269569,12.56374],[124.274979,12.56078],[124.27536,12.56089],[124.275711,12.56116],[124.275993,12.561],[124.276253,12.56095],[124.276756,12.56111],[124.277077,12.56106],[124.277031,12.56058],[124.277763,12.56036],[124.278191,12.56038],[124.278473,12.56038],[124.278847,12.56022],[124.279404,12.55966],[124.279793,12.55947],[124.280327,12.55915],[124.280807,12.5591],[124.281349,12.55928],[124.281754,12.55939],[124.285629,12.55934],[124.287697,12.55326],[124.263817,12.55396],[124.264107,12.55432],[124.264809,12.55542],[124.265228,12.55653],[124.265648,12.55777],[124.265701,12.5604],[124.265533,12.5608],[124.265312,12.56116],[124.265068,12.56157],[124.264977,12.56213],[124.26532,12.56267],[124.265892,12.563],[124.266571,12.56315],[124.267227,12.56335],[124.267883,12.56355],[124.268608,12.56361],[124.269447,12.56361],[124.269569,12.56374]]]]}},{"type":"Feature","properties":{"ID_0":177,"ISO":"PHL","NAME_0":"Philippines","ID_1":8048,"NAME_1":"Northern Samar","ID_2":804801,"NAME_2":"Allen","ID_3":804801006,"NAME_3":"Guin-arawayan","NL_NAME_3":null,"VARNAME_3":null,"TYPE_3":"Barangay","ENGTYPE_3":"Village","PROVINCE":"Northern Samar","REGION":"Region VIII (Eastern Visayas)","id":"barangay-0804801006","name":"Guin-arawayan","barangayCode":"0804801006","population":null,"formattedPop":null,"densityCategory":"No data","vulnerabilityRating":"No data","healthRiskLevel":"No data","areaKm2":1.959996,"centerLat":12.549362,"centerLng":124.274051,"geometrySource":"all_barangay-2.csv detailed WKT","geometryMatchMethod":"unique_official_admin_names","boundaryPointCount":20},"geometry":{"type":"MultiPolygon","coordinates":[[[[124.287697,12.55326],[124.288841,12.54985],[124.262848,12.54464],[124.262703,12.54496],[124.262489,12.54536],[124.262253,12.54575],[124.262062,12.54615],[124.261917,12.54657],[124.261711,12.54695],[124.261597,12.54736],[124.261429,12.54775],[124.261307,12.54822],[124.261108,12.54871],[124.260933,12.54925],[124.261139,12.54981],[124.262711,12.55129],[124.263268,12.55212],[124.26355,12.55363],[124.263817,12.55396],[124.287697,12.55326]]]]}},{"type":"Feature","properties":{"ID_0":177,"ISO":"PHL","NAME_0":"Philippines","ID_1":8048,"NAME_1":"Northern Samar","ID_2":804801,"NAME_2":"Allen","ID_3":804801007,"NAME_3":"Jubasan","NL_NAME_3":null,"VARNAME_3":null,"TYPE_3":"Barangay","ENGTYPE_3":"Village","PROVINCE":"Northern Samar","REGION":"Region VIII (Eastern Visayas)","id":"barangay-0804801007","name":"Jubasan","barangayCode":"0804801007","population":null,"formattedPop":null,"densityCategory":"No data","vulnerabilityRating":"No data","healthRiskLevel":"No data","areaKm2":2.94687,"centerLat":12.482354,"centerLng":124.293178,"geometrySource":"all_barangay-2.csv detailed WKT","geometryMatchMethod":"unique_official_admin_names","boundaryPointCount":28},"geometry":{"type":"MultiPolygon","coordinates":[[[[124.29303,12.49203],[124.294998,12.47436],[124.284439,12.47471],[124.284447,12.47492],[124.284447,12.47521],[124.284439,12.47547],[124.284416,12.47573],[124.28434,12.47598],[124.28421,12.47625],[124.284088,12.47658],[124.283882,12.47691],[124.283638,12.47726],[124.283417,12.47769],[124.283287,12.4789],[124.283127,12.48022],[124.283333,12.48111],[124.283333,12.48139],[124.284157,12.48222],[124.284851,12.48252],[124.285423,12.48293],[124.28569,12.48403],[124.285843,12.48528],[124.286247,12.48681],[124.286324,12.48722],[124.286598,12.48802],[124.286598,12.48896],[124.286034,12.48957],[124.29303,12.49203]]]]}},{"type":"Feature","properties":{"ID_0":177,"ISO":"PHL","NAME_0":"Philippines","ID_1":8048,"NAME_1":"Northern Samar","ID_2":804801,"NAME_2":"Allen","ID_3":804801008,"NAME_3":"Kinabranan Zone I","NL_NAME_3":null,"VARNAME_3":null,"TYPE_3":"Barangay","ENGTYPE_3":"Village","PROVINCE":"Northern Samar","REGION":"Region VIII (Eastern Visayas)","id":"barangay-0804801008","name":"Kinabranan Zone I","barangayCode":"0804801008","population":null,"formattedPop":null,"densityCategory":"No data","vulnerabilityRating":"No data","healthRiskLevel":"No data","areaKm2":0.655977,"centerLat":12.498598,"centerLng":124.291056,"geometrySource":"all_barangay-2.csv detailed WKT","geometryMatchMethod":"unique_official_admin_names","boundaryPointCount":10},"geometry":{"type":"MultiPolygon","coordinates":[[[[124.287956,12.50221],[124.299568,12.50257],[124.300232,12.49739],[124.281113,12.49531],[124.281387,12.4975],[124.281387,12.49833],[124.281464,12.49854],[124.281807,12.50003],[124.281464,12.50105],[124.287956,12.50221]]]]}},{"type":"Feature","properties":{"ID_0":177,"ISO":"PHL","NAME_0":"Philippines","ID_1":8048,"NAME_1":"Northern Samar","ID_2":804801,"NAME_2":"Allen","ID_3":804801009,"NAME_3":"Kinaguitman","NL_NAME_3":null,"VARNAME_3":null,"TYPE_3":"Barangay","ENGTYPE_3":"Village","PROVINCE":"Northern Samar","REGION":"Region VIII (Eastern Visayas)","id":"barangay-0804801009","name":"Kinaguitman","barangayCode":"0804801009","population":null,"formattedPop":null,"densityCategory":"No data","vulnerabilityRating":"No data","healthRiskLevel":"No data","areaKm2":0.857393,"centerLat":12.51949,"centerLng":124.288603,"geometrySource":"all_barangay-2.csv detailed WKT","geometryMatchMethod":"unique_official_admin_names","boundaryPointCount":12},"geometry":{"type":"MultiPolygon","coordinates":[[[[124.286621,12.52358],[124.290977,12.51747],[124.28231,12.517],[124.281998,12.51875],[124.281303,12.51861],[124.280983,12.5188],[124.280167,12.5193],[124.279327,12.51985],[124.278923,12.52028],[124.278839,12.52041],[124.278793,12.52049],[124.286621,12.52358]]]]}},{"type":"Feature","properties":{"ID_0":177,"ISO":"PHL","NAME_0":"Philippines","ID_1":8048,"NAME_1":"Northern Samar","ID_2":804801,"NAME_2":"Allen","ID_3":804801010,"NAME_3":"Lagundi","NL_NAME_3":null,"VARNAME_3":null,"TYPE_3":"Barangay","ENGTYPE_3":"Village","PROVINCE":"Northern Samar","REGION":"Region VIII (Eastern Visayas)","id":"barangay-0804801010","name":"Lagundi","barangayCode":"0804801010","population":null,"formattedPop":null,"densityCategory":"No data","vulnerabilityRating":"No data","healthRiskLevel":"No data","areaKm2":1.63984,"centerLat":12.514324,"centerLng":124.291465,"geometrySource":"all_barangay-2.csv detailed WKT","geometryMatchMethod":"unique_official_admin_names","boundaryPointCount":18},"geometry":{"type":"MultiPolygon","coordinates":[[[[124.296204,12.51761],[124.296562,12.51076],[124.288116,12.50922],[124.283058,12.50826],[124.283058,12.50972],[124.282784,12.51],[124.282784,12.51083],[124.282501,12.51111],[124.282501,12.51194],[124.282219,12.51222],[124.282219,12.5125],[124.282501,12.51278],[124.282501,12.51379],[124.282417,12.51503],[124.282417,12.51641],[124.28231,12.517],[124.290977,12.51747],[124.296204,12.51761]]]]}},{"type":"Feature","properties":{"ID_0":177,"ISO":"PHL","NAME_0":"Philippines","ID_1":8048,"NAME_1":"Northern Samar","ID_2":804801,"NAME_2":"Allen","ID_3":804801011,"NAME_3":"Lipata","NL_NAME_3":null,"VARNAME_3":null,"TYPE_3":"Barangay","ENGTYPE_3":"Village","PROVINCE":"Northern Samar","REGION":"Region VIII (Eastern Visayas)","id":"barangay-0804801011","name":"Lipata","barangayCode":"0804801011","population":null,"formattedPop":null,"densityCategory":"No data","vulnerabilityRating":"No data","healthRiskLevel":"No data","areaKm2":4.536312,"centerLat":12.539355,"centerLng":124.279441,"geometrySource":"all_barangay-2.csv detailed WKT","geometryMatchMethod":"unique_official_admin_names","boundaryPointCount":55},"geometry":{"type":"MultiPolygon","coordinates":[[[[124.288841,12.54985],[124.291237,12.54188],[124.292961,12.54003],[124.284698,12.53746],[124.278473,12.53553],[124.27813,12.53537],[124.277817,12.53544],[124.277473,12.53537],[124.277023,12.53512],[124.276573,12.53503],[124.276123,12.53499],[124.275269,12.53502],[124.274857,12.53484],[124.274391,12.53459],[124.273987,12.53425],[124.273582,12.53376],[124.273323,12.53368],[124.272957,12.53368],[124.272209,12.53373],[124.271927,12.53355],[124.271408,12.53318],[124.271072,12.53316],[124.270462,12.53312],[124.270279,12.53313],[124.270279,12.53472],[124.269997,12.535],[124.269997,12.53528],[124.269722,12.53556],[124.269722,12.53583],[124.269447,12.53611],[124.269447,12.53639],[124.269157,12.53667],[124.269157,12.53694],[124.26889,12.53722],[124.26889,12.5375],[124.268608,12.53778],[124.268608,12.53806],[124.268333,12.53833],[124.268333,12.53861],[124.268059,12.53889],[124.268059,12.53917],[124.267776,12.53944],[124.267776,12.53972],[124.267502,12.54],[124.267502,12.54028],[124.265327,12.54245],[124.265022,12.54276],[124.264717,12.54306],[124.264641,12.54306],[124.264442,12.54306],[124.263397,12.5441],[124.263344,12.54417],[124.262894,12.54453],[124.262848,12.54464],[124.288841,12.54985]]]]}},{"type":"Feature","properties":{"ID_0":177,"ISO":"PHL","NAME_0":"Philippines","ID_1":8048,"NAME_1":"Northern Samar","ID_2":804801,"NAME_2":"Allen","ID_3":804801012,"NAME_3":"Londres","NL_NAME_3":null,"VARNAME_3":null,"TYPE_3":"Barangay","ENGTYPE_3":"Village","PROVINCE":"Northern Samar","REGION":"Region VIII (Eastern Visayas)","id":"barangay-0804801012","name":"Londres","barangayCode":"0804801012","population":null,"formattedPop":null,"densityCategory":"No data","vulnerabilityRating":"No data","healthRiskLevel":"No data","areaKm2":3.368052,"centerLat":12.515859,"centerLng":124.305617,"geometrySource":"all_barangay-2.csv detailed WKT","geometryMatchMethod":"unique_official_admin_names","boundaryPointCount":21},"geometry":{"type":"MultiPolygon","coordinates":[[[[124.32431,12.51162],[124.299568,12.50257],[124.299187,12.50655],[124.298851,12.5102],[124.299767,12.50961],[124.300797,12.50951],[124.301964,12.50965],[124.302643,12.50992],[124.302834,12.51033],[124.30262,12.51322],[124.302994,12.51412],[124.304863,12.51607],[124.30542,12.51655],[124.305649,12.51773],[124.305771,12.51812],[124.306061,12.51874],[124.307137,12.51956],[124.308723,12.52057],[124.30925,12.52129],[124.31163,12.51837],[124.32431,12.51162]]]]}},{"type":"Feature","properties":{"ID_0":177,"ISO":"PHL","NAME_0":"Philippines","ID_1":8048,"NAME_1":"Northern Samar","ID_2":804801,"NAME_2":"Allen","ID_3":804801015,"NAME_3":"Sabang Zone I","NL_NAME_3":null,"VARNAME_3":null,"TYPE_3":"Barangay","ENGTYPE_3":"Village","PROVINCE":"Northern Samar","REGION":"Region VIII (Eastern Visayas)","id":"barangay-0804801015","name":"Sabang Zone I","barangayCode":"0804801015","population":null,"formattedPop":null,"densityCategory":"No data","vulnerabilityRating":"No data","healthRiskLevel":"No data","areaKm2":0.12021,"centerLat":12.501308,"centerLng":124.285629,"geometrySource":"all_barangay-2.csv detailed WKT","geometryMatchMethod":"unique_official_admin_names","boundaryPointCount":24},"geometry":{"type":"MultiPolygon","coordinates":[[[[124.298851,12.5102],[124.299187,12.50655],[124.298149,12.5067],[124.297508,12.50694],[124.297249,12.5071],[124.296257,12.50738],[124.295433,12.50738],[124.294746,12.50723],[124.293579,12.50689],[124.29306,12.50627],[124.292747,12.50595],[124.29277,12.50558],[124.292824,12.50526],[124.292671,12.50503],[124.29232,12.50489],[124.291702,12.50489],[124.291252,12.5048],[124.290817,12.50511],[124.290871,12.50496],[124.289917,12.50542],[124.288078,12.50565],[124.288116,12.50922],[124.296562,12.51076],[124.298851,12.5102]]]]}},{"type":"Feature","properties":{"ID_0":177,"ISO":"PHL","NAME_0":"Philippines","ID_1":8048,"NAME_1":"Northern Samar","ID_2":804801,"NAME_2":"Allen","ID_3":804801016,"NAME_3":"Santa Rita","NL_NAME_3":null,"VARNAME_3":null,"TYPE_3":"Barangay","ENGTYPE_3":"Village","PROVINCE":"Northern Samar","REGION":"Region VIII (Eastern Visayas)","id":"barangay-0804801016","name":"Santa Rita","barangayCode":"0804801016","population":null,"formattedPop":null,"densityCategory":"No data","vulnerabilityRating":"No data","healthRiskLevel":"No data","areaKm2":2.168826,"centerLat":12.530865,"centerLng":124.293895,"geometrySource":"all_barangay-2.csv detailed WKT","geometryMatchMethod":"unique_official_admin_names","boundaryPointCount":25},"geometry":{"type":"MultiPolygon","coordinates":[[[[124.292961,12.54003],[124.298241,12.53329],[124.302223,12.52851],[124.305779,12.52514],[124.296204,12.51761],[124.290977,12.51747],[124.286621,12.52358],[124.28418,12.52664],[124.28421,12.52763],[124.284447,12.52841],[124.284637,12.52864],[124.285027,12.52967],[124.284981,12.53009],[124.285103,12.53078],[124.285179,12.53115],[124.285271,12.53158],[124.28521,12.53276],[124.285004,12.53364],[124.284866,12.53398],[124.284721,12.53426],[124.284683,12.5347],[124.284752,12.53488],[124.28492,12.53541],[124.284698,12.53746],[124.292961,12.54003]]]]}},{"type":"Feature","properties":{"ID_0":177,"ISO":"PHL","NAME_0":"Philippines","ID_1":8048,"NAME_1":"Northern Samar","ID_2":804801,"NAME_2":"Allen","ID_3":804801017,"NAME_3":"Tasvilla","NL_NAME_3":null,"VARNAME_3":null,"TYPE_3":"Barangay","ENGTYPE_3":"Village","PROVINCE":"Northern Samar","REGION":"Region VIII (Eastern Visayas)","id":"barangay-0804801017","name":"Tasvilla","barangayCode":"0804801017","population":null,"formattedPop":null,"densityCategory":"No data","vulnerabilityRating":"No data","healthRiskLevel":"No data","areaKm2":0.950987,"centerLat":12.528474,"centerLng":124.281049,"geometrySource":"all_barangay-2.csv detailed WKT","geometryMatchMethod":"unique_official_admin_names","boundaryPointCount":61},"geometry":{"type":"MultiPolygon","coordinates":[[[[124.284698,12.53746],[124.28492,12.53541],[124.284752,12.53488],[124.284683,12.5347],[124.284721,12.53426],[124.284866,12.53398],[124.285004,12.53364],[124.28521,12.53276],[124.285271,12.53158],[124.285179,12.53115],[124.285103,12.53078],[124.284981,12.53009],[124.285027,12.52967],[124.284637,12.52864],[124.284447,12.52841],[124.28421,12.52763],[124.28418,12.52664],[124.275703,12.52384],[124.275841,12.52368],[124.275902,12.5236],[124.275703,12.5237],[124.274712,12.52397],[124.274094,12.52446],[124.272774,12.52552],[124.272476,12.52586],[124.272186,12.52624],[124.271843,12.52664],[124.271446,12.52709],[124.271118,12.52762],[124.270828,12.52819],[124.270554,12.52861],[124.270279,12.52889],[124.270279,12.52917],[124.269997,12.52944],[124.269997,12.53],[124.269722,12.53028],[124.269722,12.53111],[124.269997,12.53139],[124.269997,12.5325],[124.270279,12.53278],[124.270279,12.53313],[124.270462,12.53312],[124.271072,12.53316],[124.271408,12.53318],[124.271927,12.53355],[124.272209,12.53373],[124.272957,12.53368],[124.273323,12.53368],[124.273582,12.53376],[124.273987,12.53425],[124.274391,12.53459],[124.274857,12.53484],[124.275269,12.53502],[124.276123,12.53499],[124.276573,12.53503],[124.277023,12.53512],[124.277473,12.53537],[124.277817,12.53544],[124.27813,12.53537],[124.278473,12.53553],[124.284698,12.53746]]]]}},{"type":"Feature","properties":{"ID_0":177,"ISO":"PHL","NAME_0":"Philippines","ID_1":8048,"NAME_1":"Northern Samar","ID_2":804801,"NAME_2":"Allen","ID_3":804801018,"NAME_3":"Frederic","NL_NAME_3":null,"VARNAME_3":null,"TYPE_3":"Barangay","ENGTYPE_3":"Village","PROVINCE":"Northern Samar","REGION":"Region VIII (Eastern Visayas)","id":"barangay-0804801018","name":"Frederic","barangayCode":"0804801018","population":null,"formattedPop":null,"densityCategory":"No data","vulnerabilityRating":"No data","healthRiskLevel":"No data","areaKm2":3.161727,"centerLat":12.492717,"centerLng":124.323737,"geometrySource":"all_barangay-2.csv detailed WKT","geometryMatchMethod":"unique_official_admin_names","boundaryPointCount":9},"geometry":{"type":"MultiPolygon","coordinates":[[[[124.36644,12.48919],[124.406509,12.46725],[124.407318,12.46685],[124.348053,12.47099],[124.335548,12.47192],[124.32827,12.47239],[124.318283,12.47258],[124.347214,12.49888],[124.36644,12.48919]]]]}},{"type":"Feature","properties":{"ID_0":177,"ISO":"PHL","NAME_0":"Philippines","ID_1":8048,"NAME_1":"Northern Samar","ID_2":804801,"NAME_2":"Allen","ID_3":804801019,"NAME_3":"Imelda","NL_NAME_3":null,"VARNAME_3":null,"TYPE_3":"Barangay","ENGTYPE_3":"Village","PROVINCE":"Northern Samar","REGION":"Region VIII (Eastern Visayas)","id":"barangay-0804801019","name":"Imelda","barangayCode":"0804801019","population":null,"formattedPop":null,"densityCategory":"No data","vulnerabilityRating":"No data","healthRiskLevel":"No data","areaKm2":2.862667,"centerLat":12.483188,"centerLng":124.309341,"geometrySource":"all_barangay-2.csv detailed WKT","geometryMatchMethod":"unique_official_admin_names","boundaryPointCount":7},"geometry":{"type":"MultiPolygon","coordinates":[[[[124.300507,12.49522],[124.318283,12.47258],[124.311073,12.47327],[124.300911,12.47386],[124.294998,12.47436],[124.29303,12.49203],[124.300507,12.49522]]]]}},{"type":"Feature","properties":{"ID_0":177,"ISO":"PHL","NAME_0":"Philippines","ID_1":8048,"NAME_1":"Northern Samar","ID_2":804801,"NAME_2":"Allen","ID_3":804801020,"NAME_3":"Lo-oc","NL_NAME_3":null,"VARNAME_3":null,"TYPE_3":"Barangay","ENGTYPE_3":"Village","PROVINCE":"Northern Samar","REGION":"Region VIII (Eastern Visayas)","id":"barangay-0804801020","name":"Lo-oc","barangayCode":"0804801020","population":null,"formattedPop":null,"densityCategory":"No data","vulnerabilityRating":"No data","healthRiskLevel":"No data","areaKm2":0.231398,"centerLat":12.506629,"centerLng":124.285844,"geometrySource":"all_barangay-2.csv detailed WKT","geometryMatchMethod":"unique_official_admin_names","boundaryPointCount":18},"geometry":{"type":"MultiPolygon","coordinates":[[[[124.288116,12.50922],[124.288078,12.50565],[124.288017,12.50446],[124.287971,12.50316],[124.287956,12.50221],[124.281464,12.50105],[124.281387,12.50139],[124.281601,12.5016],[124.282082,12.50215],[124.282784,12.50265],[124.284027,12.50306],[124.284866,12.50347],[124.284027,12.5043],[124.283897,12.50499],[124.283897,12.50636],[124.283058,12.50778],[124.283058,12.50826],[124.288116,12.50922]]]]}},{"type":"Feature","properties":{"ID_0":177,"ISO":"PHL","NAME_0":"Philippines","ID_1":8048,"NAME_1":"Northern Samar","ID_2":804801,"NAME_2":"Allen","ID_3":804801021,"NAME_3":"Kinabranan Zone II","NL_NAME_3":null,"VARNAME_3":null,"TYPE_3":"Barangay","ENGTYPE_3":"Village","PROVINCE":"Northern Samar","REGION":"Region VIII (Eastern Visayas)","id":"barangay-0804801021","name":"Kinabranan Zone II","barangayCode":"0804801021","population":null,"formattedPop":null,"densityCategory":"No data","vulnerabilityRating":"No data","healthRiskLevel":"No data","areaKm2":1.354794,"centerLat":12.493852,"centerLng":124.289,"geometrySource":"all_barangay-2.csv detailed WKT","geometryMatchMethod":"unique_official_admin_names","boundaryPointCount":20},"geometry":{"type":"MultiPolygon","coordinates":[[[[124.300232,12.49739],[124.300507,12.49522],[124.29303,12.49203],[124.286034,12.48957],[124.285942,12.48968],[124.284691,12.4903],[124.284157,12.49056],[124.284157,12.49074],[124.284157,12.49083],[124.283577,12.49141],[124.28273,12.49226],[124.282303,12.4927],[124.282219,12.4928],[124.282219,12.49306],[124.28167,12.49361],[124.28167,12.49417],[124.281387,12.49445],[124.281387,12.495],[124.281113,12.49531],[124.300232,12.49739]]]]}},{"type":"Feature","properties":{"ID_0":177,"ISO":"PHL","NAME_0":"Philippines","ID_1":8048,"NAME_1":"Northern Samar","ID_2":804801,"NAME_2":"Allen","ID_3":804801022,"NAME_3":"Sabang Zone II","NL_NAME_3":null,"VARNAME_3":null,"TYPE_3":"Barangay","ENGTYPE_3":"Village","PROVINCE":"Northern Samar","REGION":"Region VIII (Eastern Visayas)","id":"barangay-0804801022","name":"Sabang Zone II","barangayCode":"0804801022","population":null,"formattedPop":null,"densityCategory":"No data","vulnerabilityRating":"No data","healthRiskLevel":"No data","areaKm2":1.610502,"centerLat":12.504657,"centerLng":124.294716,"geometrySource":"all_barangay-2.csv detailed WKT","geometryMatchMethod":"unique_official_admin_names","boundaryPointCount":25},"geometry":{"type":"MultiPolygon","coordinates":[[[[124.299187,12.50655],[124.299568,12.50257],[124.287956,12.50221],[124.287971,12.50316],[124.288017,12.50446],[124.288078,12.50565],[124.289917,12.50542],[124.290871,12.50496],[124.290817,12.50511],[124.291252,12.5048],[124.291702,12.50489],[124.29232,12.50489],[124.292671,12.50503],[124.292824,12.50526],[124.29277,12.50558],[124.292747,12.50595],[124.29306,12.50627],[124.293579,12.50689],[124.294746,12.50723],[124.295433,12.50738],[124.296257,12.50738],[124.297249,12.5071],[124.297508,12.50694],[124.298149,12.5067],[124.299187,12.50655]]]]}},{"type":"Feature","properties":{"ID_0":177,"ISO":"PHL","NAME_0":"Philippines","ID_1":8048,"NAME_1":"Northern Samar","ID_2":804801,"NAME_2":"Allen","ID_3":804801023,"NAME_3":"Victoria","NL_NAME_3":null,"VARNAME_3":null,"TYPE_3":"Barangay","ENGTYPE_3":"Village","PROVINCE":"Northern Samar","REGION":"Region VIII (Eastern Visayas)","id":"barangay-0804801023","name":"Victoria","barangayCode":"0804801023","population":null,"formattedPop":null,"densityCategory":"No data","vulnerabilityRating":"No data","healthRiskLevel":"No data","areaKm2":0.780721,"centerLat":12.523143,"centerLng":124.284057,"geometrySource":"all_barangay-2.csv detailed WKT","geometryMatchMethod":"unique_official_admin_names","boundaryPointCount":9},"geometry":{"type":"MultiPolygon","coordinates":[[[[124.28418,12.52664],[124.286621,12.52358],[124.278793,12.52049],[124.278214,12.52135],[124.277512,12.52287],[124.275902,12.5236],[124.275841,12.52368],[124.275703,12.52384],[124.28418,12.52664]]]]}}]}
