{"type":"FeatureCollection","features":[{"type":"Feature","properties":{"ID_0":177,"ISO":"PHL","NAME_0":"Philippines","ID_1":5041,"NAME_1":"Masbate","ID_2":504118,"NAME_2":"San Fernando","ID_3":504118001,"NAME_3":"Altavista","NL_NAME_3":null,"VARNAME_3":null,"TYPE_3":"Barangay","ENGTYPE_3":"Village","PROVINCE":"Masbate","REGION":"Region V (Bicol Region)","id":"barangay-0504118001","name":"Altavista","barangayCode":"0504118001","population":null,"formattedPop":null,"densityCategory":"No data","vulnerabilityRating":"No data","healthRiskLevel":"No data","areaKm2":2.453487,"centerLat":12.460738,"centerLng":123.694696,"geometrySource":"all_barangay-2.csv detailed WKT","geometryMatchMethod":"unique_official_admin_names","boundaryPointCount":31},"geometry":{"type":"MultiPolygon","coordinates":[[[[123.704292,12.47174],[123.705383,12.46852],[123.706482,12.46743],[123.707314,12.46661],[123.70948,12.46432],[123.695007,12.45372],[123.695122,12.45361],[123.695,12.45361],[123.69445,12.45417],[123.694168,12.45417],[123.693336,12.455],[123.693047,12.455],[123.691673,12.4564],[123.691391,12.45639],[123.690201,12.45758],[123.688332,12.45944],[123.687714,12.46005],[123.687012,12.46102],[123.686111,12.46194],[123.684723,12.46333],[123.684723,12.46361],[123.684448,12.46389],[123.684448,12.46417],[123.683929,12.46519],[123.683891,12.46694],[123.683609,12.46722],[123.683891,12.4675],[123.683891,12.46778],[123.684052,12.46794],[123.702599,12.4763],[123.704292,12.47174]]]]}},{"type":"Feature","properties":{"ID_0":177,"ISO":"PHL","NAME_0":"Philippines","ID_1":5041,"NAME_1":"Masbate","ID_2":504118,"NAME_2":"San Fernando","ID_3":504118002,"NAME_3":"Benitinan","NL_NAME_3":null,"VARNAME_3":null,"TYPE_3":"Barangay","ENGTYPE_3":"Village","PROVINCE":"Masbate","REGION":"Region V (Bicol Region)","id":"barangay-0504118002","name":"Benitinan","barangayCode":"0504118002","population":null,"formattedPop":null,"densityCategory":"No data","vulnerabilityRating":"No data","healthRiskLevel":"No data","areaKm2":1.422106,"centerLat":12.508569,"centerLng":123.756888,"geometrySource":"all_barangay-2.csv detailed WKT","geometryMatchMethod":"unique_official_admin_names","boundaryPointCount":50},"geometry":{"type":"MultiPolygon","coordinates":[[[[123.750381,12.51712],[123.750557,12.51695],[123.750832,12.51695],[123.751106,12.51667],[123.751663,12.51667],[123.751953,12.51695],[123.75222,12.51695],[123.752502,12.51722],[123.752777,12.51722],[123.753052,12.5175],[123.753609,12.5175],[123.753891,12.51778],[123.754448,12.51778],[123.754662,12.518],[123.754997,12.51833],[123.756668,12.51667],[123.756668,12.51639],[123.7575,12.51556],[123.7575,12.51528],[123.758057,12.51472],[123.758057,12.51444],[123.758331,12.51417],[123.758331,12.51389],[123.758614,12.51361],[123.758614,12.51333],[123.759163,12.51278],[123.759163,12.5125],[123.759453,12.51222],[123.759453,12.51194],[123.75972,12.51167],[123.75972,12.51139],[123.760002,12.51111],[123.760002,12.51056],[123.760559,12.51],[123.760559,12.50972],[123.761108,12.50917],[123.761108,12.50889],[123.761391,12.50861],[123.761391,12.50833],[123.761673,12.50806],[123.761391,12.50778],[123.761673,12.5075],[123.761673,12.50694],[123.762222,12.50639],[123.762222,12.50611],[123.762901,12.50543],[123.762627,12.5053],[123.747726,12.49914],[123.74131,12.51165],[123.750381,12.51712]]]]}},{"type":"Feature","properties":{"ID_0":177,"ISO":"PHL","NAME_0":"Philippines","ID_1":5041,"NAME_1":"Masbate","ID_2":504118,"NAME_2":"San Fernando","ID_3":504118003,"NAME_3":"Buenasuerte","NL_NAME_3":null,"VARNAME_3":null,"TYPE_3":"Barangay","ENGTYPE_3":"Village","PROVINCE":"Masbate","REGION":"Region V (Bicol Region)","id":"barangay-0504118003","name":"Buenasuerte","barangayCode":"0504118003","population":null,"formattedPop":null,"densityCategory":"No data","vulnerabilityRating":"No data","healthRiskLevel":"No data","areaKm2":3.39126,"centerLat":12.497757,"centerLng":123.703845,"geometrySource":"all_barangay-2.csv detailed WKT","geometryMatchMethod":"unique_official_admin_names","boundaryPointCount":8},"geometry":{"type":"MultiPolygon","coordinates":[[[[123.706596,12.50539],[123.7229,12.49486],[123.73008,12.48046],[123.723671,12.47822],[123.720558,12.48306],[123.715988,12.49059],[123.710037,12.49937],[123.706596,12.50539]]]]}},{"type":"Feature","properties":{"ID_0":177,"ISO":"PHL","NAME_0":"Philippines","ID_1":5041,"NAME_1":"Masbate","ID_2":504118,"NAME_2":"San Fernando","ID_3":504118004,"NAME_3":"Buenavista","NL_NAME_3":null,"VARNAME_3":null,"TYPE_3":"Barangay","ENGTYPE_3":"Village","PROVINCE":"Masbate","REGION":"Region V (Bicol Region)","id":"barangay-0504118004","name":"Buenavista","barangayCode":"0504118004","population":null,"formattedPop":null,"densityCategory":"No data","vulnerabilityRating":"No data","healthRiskLevel":"No data","areaKm2":4.112158,"centerLat":12.469069,"centerLng":123.706308,"geometrySource":"all_barangay-2.csv detailed WKT","geometryMatchMethod":"unique_official_admin_names","boundaryPointCount":8},"geometry":{"type":"MultiPolygon","coordinates":[[[[123.723671,12.47822],[123.725548,12.47255],[123.707314,12.46661],[123.706482,12.46743],[123.705383,12.46852],[123.704292,12.47174],[123.720558,12.48306],[123.723671,12.47822]]]]}},{"type":"Feature","properties":{"ID_0":177,"ISO":"PHL","NAME_0":"Philippines","ID_1":5041,"NAME_1":"Masbate","ID_2":504118,"NAME_2":"San Fernando","ID_3":504118005,"NAME_3":"Buenos Aires","NL_NAME_3":null,"VARNAME_3":null,"TYPE_3":"Barangay","ENGTYPE_3":"Village","PROVINCE":"Masbate","REGION":"Region V (Bicol Region)","id":"barangay-0504118005","name":"Buenos Aires","barangayCode":"0504118005","population":null,"formattedPop":null,"densityCategory":"No data","vulnerabilityRating":"No data","healthRiskLevel":"No data","areaKm2":6.596151,"centerLat":12.50397,"centerLng":123.716175,"geometrySource":"all_barangay-2.csv detailed WKT","geometryMatchMethod":"unique_official_admin_names","boundaryPointCount":11},"geometry":{"type":"MultiPolygon","coordinates":[[[[123.722443,12.51357],[123.722527,12.51342],[123.728394,12.5041],[123.733276,12.49345],[123.735123,12.48285],[123.73008,12.48046],[123.7229,12.49486],[123.706596,12.50539],[123.710693,12.50743],[123.721024,12.51276],[123.722443,12.51357]]]]}},{"type":"Feature","properties":{"ID_0":177,"ISO":"PHL","NAME_0":"Philippines","ID_1":5041,"NAME_1":"Masbate","ID_2":504118,"NAME_2":"San Fernando","ID_3":504118006,"NAME_3":"Buyo","NL_NAME_3":null,"VARNAME_3":null,"TYPE_3":"Barangay","ENGTYPE_3":"Village","PROVINCE":"Masbate","REGION":"Region V (Bicol Region)","id":"barangay-0504118006","name":"Buyo","barangayCode":"0504118006","population":null,"formattedPop":null,"densityCategory":"No data","vulnerabilityRating":"No data","healthRiskLevel":"No data","areaKm2":1.541544,"centerLat":12.455892,"centerLng":123.766596,"geometrySource":"all_barangay-2.csv detailed WKT","geometryMatchMethod":"unique_official_admin_names","boundaryPointCount":33},"geometry":{"type":"MultiPolygon","coordinates":[[[[123.773613,12.47404],[123.773613,12.47389],[123.773331,12.47361],[123.773331,12.47306],[123.773613,12.47278],[123.773613,12.47139],[123.772217,12.47],[123.771942,12.47],[123.771667,12.46972],[123.771393,12.46972],[123.771111,12.46944],[123.770844,12.46944],[123.770279,12.46889],[123.770279,12.46861],[123.769722,12.46806],[123.769722,12.46783],[123.769722,12.4675],[123.769447,12.46722],[123.769447,12.46667],[123.769722,12.46639],[123.769722,12.46583],[123.769997,12.46556],[123.769997,12.46528],[123.770279,12.465],[123.770554,12.465],[123.77066,12.4649],[123.743591,12.46188],[123.74353,12.46259],[123.743523,12.46268],[123.743439,12.4636],[123.742867,12.46941],[123.771423,12.4738],[123.773613,12.47404]]]]}},{"type":"Feature","properties":{"ID_0":177,"ISO":"PHL","NAME_0":"Philippines","ID_1":5041,"NAME_1":"Masbate","ID_2":504118,"NAME_2":"San Fernando","ID_3":504118007,"NAME_3":"Cañelas","NL_NAME_3":null,"VARNAME_3":"Canelas","TYPE_3":"Barangay","ENGTYPE_3":"Village","PROVINCE":"Masbate","REGION":"Region V (Bicol Region)","id":"barangay-0504118007","name":"Cañelas","barangayCode":"0504118007","population":null,"formattedPop":null,"densityCategory":"No data","vulnerabilityRating":"No data","healthRiskLevel":"No data","areaKm2":4.961781,"centerLat":12.447865,"centerLng":123.71221,"geometrySource":"barangays.geojson simplified fallback","geometryMatchMethod":"simplified_fallback","boundaryPointCount":5},"geometry":{"type":"Polygon","coordinates":[[[123.71212580300005,12.461516478000021],[123.72833751700011,12.442423156000075],[123.7079450230001,12.436259677000066],[123.69747699800007,12.45104905200003],[123.71212580300005,12.461516478000021]]]}},{"type":"Feature","properties":{"ID_0":177,"ISO":"PHL","NAME_0":"Philippines","ID_1":5041,"NAME_1":"Masbate","ID_2":504118,"NAME_2":"San Fernando","ID_3":504118008,"NAME_3":"Corbada","NL_NAME_3":null,"VARNAME_3":null,"TYPE_3":"Barangay","ENGTYPE_3":"Village","PROVINCE":"Masbate","REGION":"Region V (Bicol Region)","id":"barangay-0504118008","name":"Corbada","barangayCode":"0504118008","population":null,"formattedPop":null,"densityCategory":"No data","vulnerabilityRating":"No data","healthRiskLevel":"No data","areaKm2":3.298822,"centerLat":12.494193,"centerLng":123.756583,"geometrySource":"all_barangay-2.csv detailed WKT","geometryMatchMethod":"unique_official_admin_names","boundaryPointCount":48},"geometry":{"type":"MultiPolygon","coordinates":[[[[123.762901,12.50543],[123.764442,12.50389],[123.764442,12.50361],[123.764999,12.50306],[123.764999,12.5025],[123.765556,12.50194],[123.765556,12.50167],[123.765831,12.50139],[123.765831,12.50111],[123.76667,12.50028],[123.76667,12.4998],[123.76667,12.49972],[123.766853,12.49953],[123.766953,12.49943],[123.76722,12.49917],[123.76722,12.49864],[123.767227,12.4986],[123.767502,12.49833],[123.767502,12.49806],[123.768059,12.4975],[123.768059,12.49722],[123.768333,12.49694],[123.768333,12.49667],[123.768608,12.49639],[123.768608,12.49611],[123.76889,12.49583],[123.76889,12.49528],[123.769722,12.49445],[123.769722,12.49389],[123.769997,12.49361],[123.769997,12.49306],[123.770279,12.49278],[123.770279,12.49222],[123.769157,12.49111],[123.768608,12.49111],[123.768333,12.49083],[123.768059,12.49083],[123.767921,12.4907],[123.7659,12.49115],[123.763489,12.49071],[123.762283,12.49047],[123.752083,12.48773],[123.752022,12.48772],[123.744591,12.48582],[123.741631,12.49648],[123.747726,12.49914],[123.762627,12.5053],[123.762901,12.50543]]]]}},{"type":"Feature","properties":{"ID_0":177,"ISO":"PHL","NAME_0":"Philippines","ID_1":5041,"NAME_1":"Masbate","ID_2":504118,"NAME_2":"San Fernando","ID_3":504118009,"NAME_3":"Daplian","NL_NAME_3":null,"VARNAME_3":null,"TYPE_3":"Barangay","ENGTYPE_3":"Village","PROVINCE":"Masbate","REGION":"Region V (Bicol Region)","id":"barangay-0504118009","name":"Daplian","barangayCode":"0504118009","population":null,"formattedPop":null,"densityCategory":"No data","vulnerabilityRating":"No data","healthRiskLevel":"No data","areaKm2":0.844187,"centerLat":12.519908,"centerLng":123.748184,"geometrySource":"all_barangay-2.csv detailed WKT","geometryMatchMethod":"unique_official_admin_names","boundaryPointCount":31},"geometry":{"type":"MultiPolygon","coordinates":[[[[123.750992,12.52905],[123.751953,12.5295],[123.751953,12.52944],[123.75222,12.52917],[123.75222,12.52889],[123.753052,12.52806],[123.753052,12.52722],[123.753326,12.52694],[123.753326,12.52639],[123.753891,12.52583],[123.753891,12.525],[123.754173,12.52472],[123.754173,12.52389],[123.754448,12.52361],[123.754448,12.5225],[123.75148,12.51953],[123.750557,12.51861],[123.750267,12.51861],[123.749733,12.51806],[123.749733,12.51778],[123.750381,12.51712],[123.74131,12.51165],[123.728394,12.5041],[123.722527,12.51342],[123.722443,12.51357],[123.72654,12.51578],[123.732338,12.5189],[123.732841,12.51914],[123.733398,12.51938],[123.746117,12.5263],[123.750992,12.52905]]]]}},{"type":"Feature","properties":{"ID_0":177,"ISO":"PHL","NAME_0":"Philippines","ID_1":5041,"NAME_1":"Masbate","ID_2":504118,"NAME_2":"San Fernando","ID_3":504118010,"NAME_3":"Del Rosario","NL_NAME_3":null,"VARNAME_3":null,"TYPE_3":"Barangay","ENGTYPE_3":"Village","PROVINCE":"Masbate","REGION":"Region V (Bicol Region)","id":"barangay-0504118010","name":"Del Rosario","barangayCode":"0504118010","population":null,"formattedPop":null,"densityCategory":"No data","vulnerabilityRating":"No data","healthRiskLevel":"No data","areaKm2":3.766226,"centerLat":12.448678,"centerLng":123.737485,"geometrySource":"all_barangay-2.csv detailed WKT","geometryMatchMethod":"unique_official_admin_names","boundaryPointCount":6},"geometry":{"type":"MultiPolygon","coordinates":[[[[123.742867,12.46941],[123.743439,12.4636],[123.721199,12.45134],[123.716057,12.45729],[123.742706,12.47086],[123.742867,12.46941]]]]}},{"type":"Feature","properties":{"ID_0":177,"ISO":"PHL","NAME_0":"Philippines","ID_1":5041,"NAME_1":"Masbate","ID_2":504118,"NAME_2":"San Fernando","ID_3":504118011,"NAME_3":"Ipil","NL_NAME_3":null,"VARNAME_3":null,"TYPE_3":"Barangay","ENGTYPE_3":"Village","PROVINCE":"Masbate","REGION":"Region V (Bicol Region)","id":"barangay-0504118011","name":"Ipil","barangayCode":"0504118011","population":null,"formattedPop":null,"densityCategory":"No data","vulnerabilityRating":"No data","healthRiskLevel":"No data","areaKm2":2.546907,"centerLat":12.4989,"centerLng":123.689698,"geometrySource":"all_barangay-2.csv detailed WKT","geometryMatchMethod":"unique_official_admin_names","boundaryPointCount":8},"geometry":{"type":"MultiPolygon","coordinates":[[[[123.715988,12.49059],[123.701591,12.48055],[123.694511,12.4873],[123.694183,12.48769],[123.694153,12.48773],[123.693779,12.48815],[123.710037,12.49937],[123.715988,12.49059]]]]}},{"type":"Feature","properties":{"ID_0":177,"ISO":"PHL","NAME_0":"Philippines","ID_1":5041,"NAME_1":"Masbate","ID_2":504118,"NAME_2":"San Fernando","ID_3":504118012,"NAME_3":"Lahong","NL_NAME_3":null,"VARNAME_3":null,"TYPE_3":"Barangay","ENGTYPE_3":"Village","PROVINCE":"Masbate","REGION":"Region V (Bicol Region)","id":"barangay-0504118012","name":"Lahong","barangayCode":"0504118012","population":null,"formattedPop":null,"densityCategory":"No data","vulnerabilityRating":"No data","healthRiskLevel":"No data","areaKm2":2.390468,"centerLat":12.500763,"centerLng":123.671099,"geometrySource":"all_barangay-2.csv detailed WKT","geometryMatchMethod":"unique_official_admin_names","boundaryPointCount":41},"geometry":{"type":"MultiPolygon","coordinates":[[[[123.688797,12.49583],[123.693779,12.48815],[123.694153,12.48773],[123.694183,12.48769],[123.694511,12.4873],[123.686943,12.4795],[123.686943,12.47972],[123.686668,12.48],[123.686668,12.48083],[123.686394,12.48111],[123.686394,12.48139],[123.686111,12.48167],[123.686111,12.48222],[123.685837,12.4825],[123.685547,12.48278],[123.685547,12.48306],[123.684723,12.48389],[123.684723,12.48417],[123.684448,12.48417],[123.684174,12.48444],[123.683891,12.48444],[123.683609,12.48472],[123.683571,12.48472],[123.683327,12.48472],[123.683052,12.485],[123.682777,12.485],[123.682503,12.48528],[123.681953,12.48528],[123.681664,12.48556],[123.680557,12.48556],[123.680267,12.48583],[123.68,12.48583],[123.679733,12.48611],[123.679443,12.48611],[123.679169,12.48639],[123.678047,12.48639],[123.67778,12.48667],[123.677498,12.48667],[123.675522,12.48865],[123.675484,12.48869],[123.688797,12.49583]]]]}},{"type":"Feature","properties":{"ID_0":177,"ISO":"PHL","NAME_0":"Philippines","ID_1":5041,"NAME_1":"Masbate","ID_2":504118,"NAME_2":"San Fernando","ID_3":504118013,"NAME_3":"Lumbia","NL_NAME_3":null,"VARNAME_3":null,"TYPE_3":"Barangay","ENGTYPE_3":"Village","PROVINCE":"Masbate","REGION":"Region V (Bicol Region)","id":"barangay-0504118013","name":"Lumbia","barangayCode":"0504118013","population":null,"formattedPop":null,"densityCategory":"No data","vulnerabilityRating":"No data","healthRiskLevel":"No data","areaKm2":4.246443,"centerLat":12.448123,"centerLng":123.755531,"geometrySource":"all_barangay-2.csv detailed WKT","geometryMatchMethod":"unique_official_admin_names","boundaryPointCount":11},"geometry":{"type":"MultiPolygon","coordinates":[[[[123.743591,12.46188],[123.744911,12.44755],[123.735474,12.44504],[123.732697,12.44436],[123.730057,12.4437],[123.728653,12.44328],[123.721199,12.45134],[123.743439,12.4636],[123.743523,12.46268],[123.74353,12.46259],[123.743591,12.46188]]]]}},{"type":"Feature","properties":{"ID_0":177,"ISO":"PHL","NAME_0":"Philippines","ID_1":5041,"NAME_1":"Masbate","ID_2":504118,"NAME_2":"San Fernando","ID_3":504118014,"NAME_3":"Magkaipit","NL_NAME_3":null,"VARNAME_3":null,"TYPE_3":"Barangay","ENGTYPE_3":"Village","PROVINCE":"Masbate","REGION":"Region V (Bicol Region)","id":"barangay-0504118014","name":"Magkaipit","barangayCode":"0504118014","population":null,"formattedPop":null,"densityCategory":"No data","vulnerabilityRating":"No data","healthRiskLevel":"No data","areaKm2":4.281169,"centerLat":12.487852,"centerLng":123.731707,"geometrySource":"all_barangay-2.csv detailed WKT","geometryMatchMethod":"unique_official_admin_names","boundaryPointCount":6},"geometry":{"type":"MultiPolygon","coordinates":[[[[123.733276,12.49345],[123.741631,12.49648],[123.744591,12.48582],[123.741417,12.48489],[123.735123,12.48285],[123.733276,12.49345]]]]}},{"type":"Feature","properties":{"ID_0":177,"ISO":"PHL","NAME_0":"Philippines","ID_1":5041,"NAME_1":"Masbate","ID_2":504118,"NAME_2":"San Fernando","ID_3":504118015,"NAME_3":"Minio","NL_NAME_3":null,"VARNAME_3":null,"TYPE_3":"Barangay","ENGTYPE_3":"Village","PROVINCE":"Masbate","REGION":"Region V (Bicol Region)","id":"barangay-0504118015","name":"Minio","barangayCode":"0504118015","population":null,"formattedPop":null,"densityCategory":"No data","vulnerabilityRating":"No data","healthRiskLevel":"No data","areaKm2":3.66285,"centerLat":12.503958,"centerLng":123.743889,"geometrySource":"all_barangay-2.csv detailed WKT","geometryMatchMethod":"unique_official_admin_names","boundaryPointCount":6},"geometry":{"type":"MultiPolygon","coordinates":[[[[123.74131,12.51165],[123.747726,12.49914],[123.741631,12.49648],[123.733276,12.49345],[123.728394,12.5041],[123.74131,12.51165]]]]}},{"type":"Feature","properties":{"ID_0":177,"ISO":"PHL","NAME_0":"Philippines","ID_1":5041,"NAME_1":"Masbate","ID_2":504118,"NAME_2":"San Fernando","ID_3":504118016,"NAME_3":"Pinamoghaan","NL_NAME_3":null,"VARNAME_3":null,"TYPE_3":"Barangay","ENGTYPE_3":"Village","PROVINCE":"Masbate","REGION":"Region V (Bicol Region)","id":"barangay-0504118016","name":"Pinamoghaan","barangayCode":"0504118016","population":null,"formattedPop":null,"densityCategory":"No data","vulnerabilityRating":"No data","healthRiskLevel":"No data","areaKm2":1.526329,"centerLat":12.444406,"centerLng":123.770557,"geometrySource":"all_barangay-2.csv detailed WKT","geometryMatchMethod":"unique_official_admin_names","boundaryPointCount":23},"geometry":{"type":"MultiPolygon","coordinates":[[[[123.77066,12.4649],[123.771111,12.46444],[123.771393,12.46444],[123.771667,12.46417],[123.771942,12.46417],[123.772552,12.46356],[123.773331,12.46278],[123.773331,12.46111],[123.773613,12.46083],[123.773331,12.46056],[123.773331,12.4575],[123.772537,12.4567],[123.772499,12.45667],[123.772499,12.45583],[123.772217,12.45556],[123.77256,12.45522],[123.772133,12.45509],[123.768623,12.45423],[123.763481,12.45286],[123.750259,12.4491],[123.744911,12.44755],[123.743591,12.46188],[123.77066,12.4649]]]]}},{"type":"Feature","properties":{"ID_0":177,"ISO":"PHL","NAME_0":"Philippines","ID_1":5041,"NAME_1":"Masbate","ID_2":504118,"NAME_2":"San Fernando","ID_3":504118017,"NAME_3":"Baybaydagat Pob.","NL_NAME_3":null,"VARNAME_3":null,"TYPE_3":"Barangay","ENGTYPE_3":"Village","PROVINCE":"Masbate","REGION":"Region V (Bicol Region)","id":"barangay-0504118017","name":"Baybaydagat Pob.","barangayCode":"0504118017","population":null,"formattedPop":null,"densityCategory":"No data","vulnerabilityRating":"No data","healthRiskLevel":"No data","areaKm2":0.122488,"centerLat":12.486036,"centerLng":123.763487,"geometrySource":"all_barangay-2.csv detailed WKT","geometryMatchMethod":"unique_official_admin_names","boundaryPointCount":21},"geometry":{"type":"MultiPolygon","coordinates":[[[[123.767921,12.4907],[123.767776,12.49056],[123.767502,12.49056],[123.76722,12.49028],[123.766937,12.49028],[123.764442,12.48778],[123.764442,12.48619],[123.763481,12.48597],[123.761597,12.48536],[123.75853,12.48456],[123.75621,12.48399],[123.752876,12.48348],[123.752678,12.48382],[123.752419,12.4849],[123.752281,12.48638],[123.752022,12.48772],[123.752083,12.48773],[123.762283,12.49047],[123.763489,12.49071],[123.7659,12.49115],[123.767921,12.4907]]]]}},{"type":"Feature","properties":{"ID_0":177,"ISO":"PHL","NAME_0":"Philippines","ID_1":5041,"NAME_1":"Masbate","ID_2":504118,"NAME_2":"San Fernando","ID_3":504118018,"NAME_3":"Silangan Pob.","NL_NAME_3":null,"VARNAME_3":null,"TYPE_3":"Barangay","ENGTYPE_3":"Village","PROVINCE":"Masbate","REGION":"Region V (Bicol Region)","id":"barangay-0504118018","name":"Silangan Pob.","barangayCode":"0504118018","population":null,"formattedPop":null,"densityCategory":"No data","vulnerabilityRating":"No data","healthRiskLevel":"No data","areaKm2":0.142522,"centerLat":12.480935,"centerLng":123.764496,"geometrySource":"all_barangay-2.csv detailed WKT","geometryMatchMethod":"unique_official_admin_names","boundaryPointCount":12},"geometry":{"type":"MultiPolygon","coordinates":[[[[123.752022,12.48772],[123.752281,12.48638],[123.752419,12.4849],[123.752678,12.48382],[123.752876,12.48348],[123.751266,12.48313],[123.748741,12.48262],[123.742142,12.48131],[123.741783,12.48138],[123.741417,12.48489],[123.744591,12.48582],[123.752022,12.48772]]]]}},{"type":"Feature","properties":{"ID_0":177,"ISO":"PHL","NAME_0":"Philippines","ID_1":5041,"NAME_1":"Masbate","ID_2":504118,"NAME_2":"San Fernando","ID_3":504118019,"NAME_3":"Magsasaka Pob.","NL_NAME_3":null,"VARNAME_3":null,"TYPE_3":"Barangay","ENGTYPE_3":"Village","PROVINCE":"Masbate","REGION":"Region V (Bicol Region)","id":"barangay-0504118019","name":"Magsasaka Pob.","barangayCode":"0504118019","population":null,"formattedPop":null,"densityCategory":"No data","vulnerabilityRating":"No data","healthRiskLevel":"No data","areaKm2":1.623576,"centerLat":12.478555,"centerLng":123.757082,"geometrySource":"all_barangay-2.csv detailed WKT","geometryMatchMethod":"unique_official_admin_names","boundaryPointCount":11},"geometry":{"type":"MultiPolygon","coordinates":[[[[123.741783,12.48138],[123.742142,12.48131],[123.748741,12.48262],[123.751266,12.48313],[123.752876,12.48348],[123.753014,12.4817],[123.753067,12.48022],[123.753532,12.47779],[123.742249,12.47582],[123.742126,12.47763],[123.741783,12.48138]]]]}},{"type":"Feature","properties":{"ID_0":177,"ISO":"PHL","NAME_0":"Philippines","ID_1":5041,"NAME_1":"Masbate","ID_2":504118,"NAME_2":"San Fernando","ID_3":504118020,"NAME_3":"Bayanihan Pob.","NL_NAME_3":null,"VARNAME_3":null,"TYPE_3":"Barangay","ENGTYPE_3":"Village","PROVINCE":"Masbate","REGION":"Region V (Bicol Region)","id":"barangay-0504118020","name":"Bayanihan Pob.","barangayCode":"0504118020","population":null,"formattedPop":null,"densityCategory":"No data","vulnerabilityRating":"No data","healthRiskLevel":"No data","areaKm2":1.711696,"centerLat":12.484854,"centerLng":123.75115,"geometrySource":"all_barangay-2.csv detailed WKT","geometryMatchMethod":"unique_official_admin_names","boundaryPointCount":19},"geometry":{"type":"MultiPolygon","coordinates":[[[[123.752876,12.48348],[123.75621,12.48399],[123.75853,12.48456],[123.761597,12.48536],[123.763481,12.48597],[123.764442,12.48619],[123.764442,12.48528],[123.764717,12.485],[123.764717,12.48313],[123.764717,12.48222],[123.764999,12.48194],[123.764999,12.48167],[123.765266,12.48139],[123.765266,12.48111],[123.766243,12.48015],[123.753532,12.47779],[123.753067,12.48022],[123.753014,12.4817],[123.752876,12.48348]]]]}},{"type":"Feature","properties":{"ID_0":177,"ISO":"PHL","NAME_0":"Philippines","ID_1":5041,"NAME_1":"Masbate","ID_2":504118,"NAME_2":"San Fernando","ID_3":504118021,"NAME_3":"Progreso","NL_NAME_3":null,"VARNAME_3":null,"TYPE_3":"Barangay","ENGTYPE_3":"Village","PROVINCE":"Masbate","REGION":"Region V (Bicol Region)","id":"barangay-0504118021","name":"Progreso","barangayCode":"0504118021","population":null,"formattedPop":null,"densityCategory":"No data","vulnerabilityRating":"No data","healthRiskLevel":"No data","areaKm2":7.661756,"centerLat":12.464801,"centerLng":123.733413,"geometrySource":"all_barangay-2.csv detailed WKT","geometryMatchMethod":"unique_official_admin_names","boundaryPointCount":8},"geometry":{"type":"MultiPolygon","coordinates":[[[[123.742249,12.47582],[123.742706,12.47086],[123.716057,12.45729],[123.70948,12.46432],[123.707314,12.46661],[123.725548,12.47255],[123.742126,12.47763],[123.742249,12.47582]]]]}},{"type":"Feature","properties":{"ID_0":177,"ISO":"PHL","NAME_0":"Philippines","ID_1":5041,"NAME_1":"Masbate","ID_2":504118,"NAME_2":"San Fernando","ID_3":504118022,"NAME_3":"Resurreccion","NL_NAME_3":null,"VARNAME_3":null,"TYPE_3":"Barangay","ENGTYPE_3":"Village","PROVINCE":"Masbate","REGION":"Region V (Bicol Region)","id":"barangay-0504118022","name":"Resurreccion","barangayCode":"0504118022","population":null,"formattedPop":null,"densityCategory":"No data","vulnerabilityRating":"No data","healthRiskLevel":"No data","areaKm2":3.943606,"centerLat":12.467622,"centerLng":123.761154,"geometrySource":"all_barangay-2.csv detailed WKT","geometryMatchMethod":"unique_official_admin_names","boundaryPointCount":34},"geometry":{"type":"MultiPolygon","coordinates":[[[[123.766243,12.48015],[123.76667,12.47972],[123.766937,12.47972],[123.76722,12.47944],[123.767502,12.47944],[123.767776,12.47917],[123.76889,12.47917],[123.769157,12.47889],[123.769447,12.47889],[123.769722,12.47861],[123.770279,12.47861],[123.770554,12.47833],[123.770844,12.47833],[123.771111,12.47806],[123.771393,12.47806],[123.771942,12.4775],[123.771942,12.47722],[123.772453,12.47671],[123.772499,12.47667],[123.772499,12.47639],[123.772781,12.47611],[123.772781,12.47583],[123.773064,12.47556],[123.773064,12.475],[123.773331,12.47472],[123.773331,12.47444],[123.773613,12.47417],[123.773613,12.47404],[123.771423,12.4738],[123.742867,12.46941],[123.742706,12.47086],[123.742249,12.47582],[123.753532,12.47779],[123.766243,12.48015]]]]}},{"type":"Feature","properties":{"ID_0":177,"ISO":"PHL","NAME_0":"Philippines","ID_1":5041,"NAME_1":"Masbate","ID_2":504118,"NAME_2":"San Fernando","ID_3":504118023,"NAME_3":"Salvacion","NL_NAME_3":null,"VARNAME_3":null,"TYPE_3":"Barangay","ENGTYPE_3":"Village","PROVINCE":"Masbate","REGION":"Region V (Bicol Region)","id":"barangay-0504118023","name":"Salvacion","barangayCode":"0504118023","population":null,"formattedPop":null,"densityCategory":"No data","vulnerabilityRating":"No data","healthRiskLevel":"No data","areaKm2":2.997937,"centerLat":12.509129,"centerLng":123.686416,"geometrySource":"all_barangay-2.csv detailed WKT","geometryMatchMethod":"unique_official_admin_names","boundaryPointCount":7},"geometry":{"type":"MultiPolygon","coordinates":[[[[123.706596,12.50539],[123.710037,12.49937],[123.693779,12.48815],[123.688797,12.49583],[123.690941,12.49695],[123.699074,12.50137],[123.706596,12.50539]]]]}},{"type":"Feature","properties":{"ID_0":177,"ISO":"PHL","NAME_0":"Philippines","ID_1":5041,"NAME_1":"Masbate","ID_2":504118,"NAME_2":"San Fernando","ID_3":504118024,"NAME_3":"Sowa","NL_NAME_3":null,"VARNAME_3":null,"TYPE_3":"Barangay","ENGTYPE_3":"Village","PROVINCE":"Masbate","REGION":"Region V (Bicol Region)","id":"barangay-0504118024","name":"Sowa","barangayCode":"0504118024","population":null,"formattedPop":null,"densityCategory":"No data","vulnerabilityRating":"No data","healthRiskLevel":"No data","areaKm2":2.613572,"centerLat":12.482636,"centerLng":123.700205,"geometrySource":"all_barangay-2.csv detailed WKT","geometryMatchMethod":"unique_official_admin_names","boundaryPointCount":6},"geometry":{"type":"MultiPolygon","coordinates":[[[[123.720558,12.48306],[123.704292,12.47174],[123.702599,12.4763],[123.701591,12.48055],[123.715988,12.49059],[123.720558,12.48306]]]]}},{"type":"Feature","properties":{"ID_0":177,"ISO":"PHL","NAME_0":"Philippines","ID_1":5041,"NAME_1":"Masbate","ID_2":504118,"NAME_2":"San Fernando","ID_3":504118025,"NAME_3":"Talisay","NL_NAME_3":null,"VARNAME_3":null,"TYPE_3":"Barangay","ENGTYPE_3":"Village","PROVINCE":"Masbate","REGION":"Region V (Bicol Region)","id":"barangay-0504118025","name":"Talisay","barangayCode":"0504118025","population":null,"formattedPop":null,"densityCategory":"No data","vulnerabilityRating":"No data","healthRiskLevel":"No data","areaKm2":3.229437,"centerLat":12.483697,"centerLng":123.685989,"geometrySource":"all_barangay-2.csv detailed WKT","geometryMatchMethod":"unique_official_admin_names","boundaryPointCount":27},"geometry":{"type":"MultiPolygon","coordinates":[[[[123.701591,12.48055],[123.702599,12.4763],[123.684052,12.46794],[123.684174,12.46806],[123.684174,12.46944],[123.684448,12.46972],[123.684448,12.47028],[123.684998,12.47083],[123.684998,12.47111],[123.68528,12.47139],[123.68528,12.47167],[123.685837,12.47222],[123.685837,12.47278],[123.686111,12.47306],[123.686111,12.47361],[123.685837,12.47389],[123.685837,12.47472],[123.686111,12.475],[123.686111,12.47556],[123.686394,12.47583],[123.686394,12.4775],[123.686668,12.47778],[123.686668,12.47861],[123.686943,12.47889],[123.686943,12.4795],[123.694511,12.4873],[123.701591,12.48055]]]]}},{"type":"Feature","properties":{"ID_0":177,"ISO":"PHL","NAME_0":"Philippines","ID_1":5041,"NAME_1":"Masbate","ID_2":504118,"NAME_2":"San Fernando","ID_3":504118026,"NAME_3":"Valparaiso","NL_NAME_3":null,"VARNAME_3":null,"TYPE_3":"Barangay","ENGTYPE_3":"Village","PROVINCE":"Masbate","REGION":"Region V (Bicol Region)","id":"barangay-0504118026","name":"Valparaiso","barangayCode":"0504118026","population":null,"formattedPop":null,"densityCategory":"No data","vulnerabilityRating":"No data","healthRiskLevel":"No data","areaKm2":3.045178,"centerLat":12.477379,"centerLng":123.723108,"geometrySource":"all_barangay-2.csv detailed WKT","geometryMatchMethod":"unique_official_admin_names","boundaryPointCount":8},"geometry":{"type":"MultiPolygon","coordinates":[[[[123.741417,12.48489],[123.741783,12.48138],[123.742126,12.47763],[123.725548,12.47255],[123.723671,12.47822],[123.73008,12.48046],[123.735123,12.48285],[123.741417,12.48489]]]]}}]}
