{"type":"FeatureCollection","features":[{"type":"Feature","properties":{"ID_0":177,"ISO":"PHL","NAME_0":"Philippines","ID_1":10043,"NAME_1":"Misamis Oriental","ID_2":1004324,"NAME_2":"Tagoloan","ID_3":1004324001,"NAME_3":"Baluarte","NL_NAME_3":null,"VARNAME_3":null,"TYPE_3":"Barangay","ENGTYPE_3":"Village","PROVINCE":"Misamis Oriental","REGION":"Region X (Northern Mindanao)","id":"barangay-1004324001","name":"Baluarte","barangayCode":"1004324001","population":null,"formattedPop":null,"densityCategory":"No data","vulnerabilityRating":"No data","healthRiskLevel":"No data","areaKm2":1.757842,"centerLat":8.545974,"centerLng":124.745237,"geometrySource":"all_barangay-2.csv detailed WKT","geometryMatchMethod":"unique_official_admin_names","boundaryPointCount":111},"geometry":{"type":"MultiPolygon","coordinates":[[[[124.752777,8.5473],[124.752502,8.54666],[124.751953,8.54722],[124.751953,8.5475],[124.751663,8.54778],[124.751663,8.54806],[124.751389,8.54833],[124.751389,8.54861],[124.751106,8.54889],[124.751106,8.54917],[124.750832,8.54944],[124.750832,8.54972],[124.750557,8.55],[124.750557,8.55009],[124.751129,8.54995],[124.752502,8.54911],[124.75338,8.54787],[124.752777,8.5473]]],[[[124.7425,8.555],[124.742767,8.55472],[124.743057,8.55472],[124.743332,8.55444],[124.743767,8.55444],[124.743523,8.55381],[124.742897,8.55308],[124.744873,8.55209],[124.745354,8.55133],[124.746429,8.55087],[124.748894,8.55089],[124.748894,8.55083],[124.749168,8.55056],[124.749168,8.55],[124.749443,8.54972],[124.749443,8.54944],[124.749733,8.54917],[124.749733,8.54889],[124.75,8.54861],[124.75,8.54833],[124.750267,8.54806],[124.750267,8.54694],[124.750351,8.5466],[124.750267,8.54611],[124.750137,8.54576],[124.750069,8.54549],[124.750137,8.54465],[124.750267,8.54444],[124.750687,8.54375],[124.750923,8.5448],[124.751038,8.54521],[124.750969,8.54611],[124.75119,8.54668],[124.751404,8.54682],[124.752167,8.54589],[124.751862,8.54523],[124.751213,8.54379],[124.750648,8.54221],[124.750023,8.54048],[124.749298,8.54088],[124.74881,8.54076],[124.748451,8.54067],[124.747337,8.53966],[124.746567,8.53897],[124.745682,8.53862],[124.744537,8.53859],[124.743828,8.53859],[124.743019,8.53856],[124.742287,8.53844],[124.741768,8.53835],[124.741631,8.53798],[124.741562,8.5378],[124.741547,8.53773],[124.741432,8.53737],[124.741043,8.53792],[124.740913,8.53868],[124.740837,8.53972],[124.740837,8.54083],[124.740547,8.54111],[124.740547,8.54167],[124.74028,8.54194],[124.74028,8.54389],[124.740547,8.54417],[124.741096,8.5448],[124.741524,8.54529],[124.741943,8.54529],[124.742622,8.5451],[124.742706,8.54508],[124.743469,8.54529],[124.743607,8.54611],[124.743057,8.54667],[124.742767,8.54667],[124.742668,8.54678],[124.7425,8.54694],[124.742233,8.54694],[124.741943,8.54667],[124.741669,8.54667],[124.741112,8.54611],[124.74028,8.54611],[124.739998,8.54639],[124.739998,8.54669],[124.740646,8.54773],[124.740707,8.54814],[124.741127,8.54932],[124.740929,8.55008],[124.740707,8.55092],[124.740707,8.55154],[124.740646,8.55237],[124.740791,8.55334],[124.740898,8.55361],[124.741318,8.55458],[124.741447,8.555],[124.7425,8.555]]]]}},{"type":"Feature","properties":{"ID_0":177,"ISO":"PHL","NAME_0":"Philippines","ID_1":10043,"NAME_1":"Misamis Oriental","ID_2":1004324,"NAME_2":"Tagoloan","ID_3":1004324002,"NAME_3":"Casinglot","NL_NAME_3":null,"VARNAME_3":null,"TYPE_3":"Barangay","ENGTYPE_3":"Village","PROVINCE":"Misamis Oriental","REGION":"Region X (Northern Mindanao)","id":"barangay-1004324002","name":"Casinglot","barangayCode":"1004324002","population":null,"formattedPop":null,"densityCategory":"No data","vulnerabilityRating":"No data","healthRiskLevel":"No data","areaKm2":4.215794,"centerLat":8.52009,"centerLng":124.760167,"geometrySource":"all_barangay-2.csv detailed WKT","geometryMatchMethod":"unique_official_admin_names","boundaryPointCount":75},"geometry":{"type":"MultiPolygon","coordinates":[[[[124.757927,8.53476],[124.758507,8.53464],[124.759277,8.5341],[124.762154,8.53195],[124.763077,8.5313],[124.766731,8.52871],[124.769791,8.52667],[124.774551,8.52306],[124.78022,8.51911],[124.78331,8.5163],[124.787697,8.51322],[124.787132,8.51262],[124.786377,8.51193],[124.785103,8.51189],[124.784348,8.51216],[124.783257,8.51235],[124.782318,8.51237],[124.780991,8.51202],[124.780182,8.51197],[124.778908,8.51209],[124.777817,8.51191],[124.777061,8.51199],[124.776657,8.51278],[124.775963,8.51333],[124.774353,8.51372],[124.773392,8.51342],[124.772087,8.51284],[124.77179,8.51261],[124.770554,8.51198],[124.769363,8.51147],[124.7686,8.51132],[124.767677,8.51036],[124.767113,8.50993],[124.766342,8.50922],[124.765511,8.50818],[124.764633,8.50794],[124.764076,8.5084],[124.763519,8.5094],[124.762604,8.50945],[124.761261,8.50923],[124.760162,8.50991],[124.758507,8.51031],[124.757843,8.51128],[124.757462,8.51258],[124.756813,8.51258],[124.755142,8.51204],[124.754837,8.51198],[124.75441,8.51237],[124.754356,8.51245],[124.754013,8.51274],[124.753502,8.51306],[124.753052,8.51312],[124.753052,8.51389],[124.752777,8.51417],[124.752777,8.51583],[124.752502,8.51611],[124.752502,8.51639],[124.75222,8.51667],[124.75222,8.51722],[124.751953,8.5175],[124.751953,8.51778],[124.751732,8.51799],[124.751602,8.51818],[124.75222,8.51869],[124.75251,8.51901],[124.752869,8.51954],[124.753166,8.52051],[124.753868,8.52269],[124.754318,8.52412],[124.755547,8.52784],[124.756264,8.5295],[124.756737,8.53067],[124.757423,8.53271],[124.757721,8.53374],[124.757927,8.53476]]]]}},{"type":"Feature","properties":{"ID_0":177,"ISO":"PHL","NAME_0":"Philippines","ID_1":10043,"NAME_1":"Misamis Oriental","ID_2":1004324,"NAME_2":"Tagoloan","ID_3":1004324003,"NAME_3":"Gracia","NL_NAME_3":null,"VARNAME_3":null,"TYPE_3":"Barangay","ENGTYPE_3":"Village","PROVINCE":"Misamis Oriental","REGION":"Region X (Northern Mindanao)","id":"barangay-1004324003","name":"Gracia","barangayCode":"1004324003","population":null,"formattedPop":null,"densityCategory":"No data","vulnerabilityRating":"No data","healthRiskLevel":"No data","areaKm2":0.450086,"centerLat":8.53368,"centerLng":124.74534,"geometrySource":"all_barangay-2.csv detailed WKT","geometryMatchMethod":"unique_official_admin_names","boundaryPointCount":64},"geometry":{"type":"MultiPolygon","coordinates":[[[[124.741432,8.53737],[124.741547,8.53773],[124.741562,8.5378],[124.741631,8.53798],[124.741768,8.53835],[124.742287,8.53844],[124.743019,8.53856],[124.743828,8.53859],[124.744537,8.53859],[124.745682,8.53862],[124.746567,8.53897],[124.747337,8.53966],[124.748451,8.54067],[124.74881,8.54076],[124.749298,8.54088],[124.750023,8.54048],[124.750877,8.53946],[124.751907,8.53848],[124.752617,8.53653],[124.753723,8.53576],[124.752968,8.5347],[124.751984,8.53314],[124.751472,8.53265],[124.751213,8.5324],[124.74984,8.53],[124.749046,8.52852],[124.748978,8.52838],[124.748459,8.5274],[124.748283,8.5271],[124.747864,8.52642],[124.747513,8.52591],[124.747177,8.52542],[124.747093,8.52539],[124.746407,8.52451],[124.746101,8.52389],[124.745827,8.52361],[124.743332,8.52611],[124.743332,8.52806],[124.743057,8.52833],[124.743057,8.52917],[124.74279,8.53019],[124.742691,8.53053],[124.74192,8.53053],[124.740807,8.53046],[124.740669,8.5306],[124.740707,8.53096],[124.74086,8.53141],[124.741112,8.53167],[124.741112,8.53194],[124.741386,8.53222],[124.741386,8.53306],[124.741112,8.53333],[124.741112,8.53361],[124.740837,8.53389],[124.740837,8.53444],[124.740547,8.53472],[124.740547,8.535],[124.74028,8.53528],[124.740646,8.53621],[124.741112,8.5364],[124.741669,8.53667],[124.741737,8.53688],[124.741531,8.53723],[124.741432,8.53737]]]]}},{"type":"Feature","properties":{"ID_0":177,"ISO":"PHL","NAME_0":"Philippines","ID_1":10043,"NAME_1":"Misamis Oriental","ID_2":1004324,"NAME_2":"Tagoloan","ID_3":1004324004,"NAME_3":"Mohon","NL_NAME_3":null,"VARNAME_3":null,"TYPE_3":"Barangay","ENGTYPE_3":"Village","PROVINCE":"Misamis Oriental","REGION":"Region X (Northern Mindanao)","id":"barangay-1004324004","name":"Mohon","barangayCode":"1004324004","population":null,"formattedPop":null,"densityCategory":"No data","vulnerabilityRating":"No data","healthRiskLevel":"No data","areaKm2":5.56189,"centerLat":8.543872,"centerLng":124.788584,"geometrySource":"all_barangay-2.csv detailed WKT","geometryMatchMethod":"unique_official_admin_names","boundaryPointCount":38},"geometry":{"type":"MultiPolygon","coordinates":[[[[124.796494,8.54363],[124.795036,8.54227],[124.793411,8.53927],[124.792557,8.53721],[124.791496,8.53501],[124.790283,8.53228],[124.78933,8.52938],[124.787613,8.53015],[124.785896,8.53113],[124.785187,8.53152],[124.783943,8.53251],[124.783073,8.53317],[124.781952,8.53339],[124.781273,8.53341],[124.780746,8.53328],[124.779877,8.53361],[124.779259,8.5342],[124.778702,8.53456],[124.777412,8.53538],[124.776047,8.5362],[124.776741,8.53829],[124.777321,8.53954],[124.777809,8.54092],[124.779533,8.54399],[124.78067,8.54585],[124.781937,8.54849],[124.782944,8.5502],[124.783707,8.5517],[124.784576,8.55116],[124.785294,8.55104],[124.786728,8.55029],[124.78788,8.54971],[124.789162,8.54913],[124.79071,8.54826],[124.792427,8.54709],[124.794113,8.54573],[124.795197,8.54514],[124.796494,8.54363]]]]}},{"type":"Feature","properties":{"ID_0":177,"ISO":"PHL","NAME_0":"Philippines","ID_1":10043,"NAME_1":"Misamis Oriental","ID_2":1004324,"NAME_2":"Tagoloan","ID_3":1004324005,"NAME_3":"Natumolan","NL_NAME_3":null,"VARNAME_3":null,"TYPE_3":"Barangay","ENGTYPE_3":"Village","PROVINCE":"Misamis Oriental","REGION":"Region X (Northern Mindanao)","id":"barangay-1004324005","name":"Natumolan","barangayCode":"1004324005","population":null,"formattedPop":null,"densityCategory":"No data","vulnerabilityRating":"No data","healthRiskLevel":"No data","areaKm2":9.126299,"centerLat":8.524786,"centerLng":124.778942,"geometrySource":"all_barangay-2.csv detailed WKT","geometryMatchMethod":"unique_official_admin_names","boundaryPointCount":167},"geometry":{"type":"MultiPolygon","coordinates":[[[[124.758308,8.54137],[124.7584,8.54196],[124.75975,8.54232],[124.76088,8.54278],[124.762138,8.54307],[124.763107,8.54311],[124.764641,8.5427],[124.765991,8.54211],[124.76664,8.54137],[124.767738,8.54061],[124.769386,8.53969],[124.771057,8.53875],[124.772682,8.53782],[124.774208,8.53715],[124.776047,8.5362],[124.777412,8.53538],[124.778702,8.53456],[124.779259,8.5342],[124.779877,8.53361],[124.780746,8.53328],[124.781273,8.53341],[124.781952,8.53339],[124.783073,8.53317],[124.783943,8.53251],[124.785187,8.53152],[124.785896,8.53113],[124.787613,8.53015],[124.78933,8.52938],[124.790916,8.52813],[124.791313,8.52662],[124.792328,8.52438],[124.793404,8.52356],[124.79393,8.52329],[124.794647,8.52283],[124.795982,8.52189],[124.796539,8.52102],[124.797112,8.52019],[124.797684,8.52006],[124.798187,8.51977],[124.798767,8.51906],[124.799179,8.51803],[124.799431,8.51697],[124.799812,8.51594],[124.801033,8.51514],[124.802261,8.51468],[124.804253,8.51441],[124.805801,8.51417],[124.807137,8.51398],[124.808884,8.51339],[124.81002,8.51314],[124.812119,8.51291],[124.813942,8.51253],[124.815483,8.51185],[124.817619,8.51137],[124.81826,8.51181],[124.819344,8.51318],[124.820084,8.51435],[124.820557,8.51525],[124.821152,8.51668],[124.821663,8.518],[124.822197,8.51881],[124.823257,8.51986],[124.824013,8.52052],[124.824837,8.52106],[124.825546,8.5213],[124.826393,8.52127],[124.827606,8.52083],[124.82827,8.52009],[124.829269,8.51912],[124.830544,8.51766],[124.83139,8.51693],[124.827042,8.50645],[124.823837,8.49885],[124.823471,8.49769],[124.82058,8.4906],[124.817459,8.48259],[124.814278,8.47604],[124.814079,8.4763],[124.813843,8.47676],[124.813766,8.47705],[124.813728,8.47725],[124.813858,8.47801],[124.813637,8.47872],[124.81311,8.47991],[124.812477,8.48133],[124.812187,8.48202],[124.811111,8.48236],[124.8106,8.4826],[124.810287,8.48275],[124.809967,8.48326],[124.810013,8.48344],[124.810089,8.48377],[124.810097,8.48458],[124.80957,8.48516],[124.809334,8.48542],[124.809288,8.48576],[124.809227,8.48621],[124.809433,8.48697],[124.809593,8.48794],[124.808647,8.48891],[124.80864,8.48944],[124.808693,8.48961],[124.808762,8.48981],[124.808701,8.49039],[124.808144,8.49037],[124.807716,8.49036],[124.807289,8.49044],[124.807251,8.49044],[124.806709,8.49054],[124.80674,8.49133],[124.806892,8.49216],[124.80555,8.49295],[124.805023,8.49309],[124.803833,8.4939],[124.803596,8.49444],[124.803017,8.49438],[124.802963,8.49437],[124.80265,8.49434],[124.801247,8.49504],[124.800903,8.49527],[124.800003,8.49547],[124.799339,8.49586],[124.798752,8.49673],[124.798576,8.49787],[124.798553,8.49857],[124.797783,8.49903],[124.796761,8.49964],[124.796471,8.50014],[124.796967,8.50083],[124.797234,8.50133],[124.796219,8.50274],[124.795601,8.5036],[124.795486,8.50418],[124.795372,8.50483],[124.795433,8.50525],[124.795448,8.50544],[124.796219,8.50614],[124.796349,8.50665],[124.795662,8.50709],[124.794952,8.50729],[124.794243,8.50793],[124.794037,8.50801],[124.793343,8.50827],[124.792442,8.5096],[124.792198,8.51007],[124.791527,8.51066],[124.791237,8.51078],[124.790939,8.51091],[124.789627,8.51145],[124.788879,8.51226],[124.788971,8.51301],[124.789017,8.51335],[124.787697,8.51322],[124.78331,8.5163],[124.78022,8.51911],[124.774551,8.52306],[124.769791,8.52667],[124.766731,8.52871],[124.763077,8.5313],[124.762154,8.53195],[124.759277,8.5341],[124.758507,8.53464],[124.757927,8.53476],[124.757767,8.53601],[124.75795,8.53832],[124.758034,8.54007],[124.758308,8.54137]]]]}},{"type":"Feature","properties":{"ID_0":177,"ISO":"PHL","NAME_0":"Philippines","ID_1":10043,"NAME_1":"Misamis Oriental","ID_2":1004324,"NAME_2":"Tagoloan","ID_3":1004324006,"NAME_3":"Poblacion","NL_NAME_3":null,"VARNAME_3":null,"TYPE_3":"Barangay","ENGTYPE_3":"Village","PROVINCE":"Misamis Oriental","REGION":"Region X (Northern Mindanao)","id":"barangay-1004324006","name":"Poblacion","barangayCode":"1004324006","population":null,"formattedPop":null,"densityCategory":"No data","vulnerabilityRating":"No data","healthRiskLevel":"No data","areaKm2":1.343692,"centerLat":8.538039,"centerLng":124.752093,"geometrySource":"all_barangay-2.csv detailed WKT","geometryMatchMethod":"unique_official_admin_names","boundaryPointCount":29},"geometry":{"type":"MultiPolygon","coordinates":[[[[124.752502,8.54666],[124.752777,8.5473],[124.75338,8.54787],[124.75502,8.5453],[124.756119,8.54314],[124.756912,8.54249],[124.757072,8.54248],[124.758011,8.54203],[124.758308,8.54137],[124.758034,8.54007],[124.75795,8.53832],[124.757767,8.53601],[124.757927,8.53476],[124.756393,8.53501],[124.755203,8.53546],[124.753723,8.53576],[124.752617,8.53653],[124.751907,8.53848],[124.750877,8.53946],[124.750023,8.54048],[124.750648,8.54221],[124.751213,8.54379],[124.751862,8.54523],[124.752167,8.54589],[124.75222,8.54583],[124.752502,8.54583],[124.752777,8.54611],[124.752777,8.54639],[124.752502,8.54666]]]]}},{"type":"Feature","properties":{"ID_0":177,"ISO":"PHL","NAME_0":"Philippines","ID_1":10043,"NAME_1":"Misamis Oriental","ID_2":1004324,"NAME_2":"Tagoloan","ID_3":1004324007,"NAME_3":"Rosario","NL_NAME_3":null,"VARNAME_3":null,"TYPE_3":"Barangay","ENGTYPE_3":"Village","PROVINCE":"Misamis Oriental","REGION":"Region X (Northern Mindanao)","id":"barangay-1004324007","name":"Rosario","barangayCode":"1004324007","population":null,"formattedPop":null,"densityCategory":"No data","vulnerabilityRating":"No data","healthRiskLevel":"No data","areaKm2":12.189258,"centerLat":8.539516,"centerLng":124.82752,"geometrySource":"all_barangay-2.csv detailed WKT","geometryMatchMethod":"unique_official_admin_names","boundaryPointCount":110},"geometry":{"type":"MultiPolygon","coordinates":[[[[124.84903,8.55905],[124.846107,8.55298],[124.844933,8.55061],[124.844078,8.54776],[124.842133,8.54327],[124.840897,8.54018],[124.838112,8.53396],[124.835297,8.52718],[124.834778,8.52542],[124.832771,8.52106],[124.83139,8.51693],[124.830544,8.51766],[124.829269,8.51912],[124.82827,8.52009],[124.827606,8.52083],[124.826393,8.52127],[124.825546,8.5213],[124.824837,8.52106],[124.824013,8.52052],[124.823257,8.51986],[124.822197,8.51881],[124.821663,8.518],[124.821152,8.51668],[124.820557,8.51525],[124.820084,8.51435],[124.819344,8.51318],[124.81826,8.51181],[124.817619,8.51137],[124.815483,8.51185],[124.813942,8.51253],[124.812119,8.51291],[124.81002,8.51314],[124.808884,8.51339],[124.807137,8.51398],[124.808403,8.51761],[124.809273,8.52165],[124.809753,8.52393],[124.810364,8.52601],[124.811287,8.52823],[124.811859,8.52973],[124.81292,8.53225],[124.813583,8.53496],[124.813019,8.53693],[124.812576,8.53839],[124.81163,8.54093],[124.810013,8.54212],[124.808678,8.54258],[124.807297,8.54284],[124.806267,8.54338],[124.805794,8.54383],[124.80513,8.54426],[124.805351,8.54438],[124.806374,8.54475],[124.807747,8.54612],[124.808777,8.54726],[124.809792,8.5484],[124.809929,8.54926],[124.809212,8.5497],[124.808449,8.55008],[124.807587,8.55036],[124.808029,8.55126],[124.809486,8.55217],[124.810463,8.55287],[124.812767,8.5547],[124.813332,8.55486],[124.814209,8.55474],[124.815048,8.55433],[124.816132,8.55356],[124.818024,8.5533],[124.819191,8.5543],[124.819389,8.5556],[124.819443,8.55628],[124.820007,8.55748],[124.820992,8.55785],[124.821854,8.55785],[124.822456,8.5576],[124.823433,8.55697],[124.824211,8.55679],[124.824966,8.55762],[124.825432,8.55841],[124.82576,8.55862],[124.827362,8.55999],[124.827591,8.56043],[124.828293,8.56127],[124.829857,8.56115],[124.83062,8.56101],[124.831757,8.5606],[124.831947,8.56041],[124.833702,8.55955],[124.834518,8.55941],[124.835403,8.55969],[124.835739,8.5603],[124.836304,8.56116],[124.836617,8.56118],[124.83709,8.56074],[124.837708,8.55972],[124.837883,8.55847],[124.837967,8.55731],[124.838501,8.55673],[124.840363,8.55713],[124.841713,8.55683],[124.842117,8.55606],[124.844048,8.55588],[124.84523,8.55612],[124.846199,8.55653],[124.846977,8.55716],[124.847618,8.55784],[124.847939,8.55826],[124.84861,8.55865],[124.84903,8.55905]]]]}},{"type":"Feature","properties":{"ID_0":177,"ISO":"PHL","NAME_0":"Philippines","ID_1":10043,"NAME_1":"Misamis Oriental","ID_2":1004324,"NAME_2":"Tagoloan","ID_3":1004324008,"NAME_3":"Santa Ana","NL_NAME_3":null,"VARNAME_3":null,"TYPE_3":"Barangay","ENGTYPE_3":"Village","PROVINCE":"Misamis Oriental","REGION":"Region X (Northern Mindanao)","id":"barangay-1004324008","name":"Santa Ana","barangayCode":"1004324008","population":null,"formattedPop":null,"densityCategory":"No data","vulnerabilityRating":"No data","healthRiskLevel":"No data","areaKm2":8.08031,"centerLat":8.527126,"centerLng":124.805272,"geometrySource":"all_barangay-2.csv detailed WKT","geometryMatchMethod":"unique_official_admin_names","boundaryPointCount":49},"geometry":{"type":"MultiPolygon","coordinates":[[[[124.796494,8.54363],[124.799057,8.54425],[124.800613,8.5445],[124.803383,8.54457],[124.805351,8.54438],[124.80513,8.54426],[124.805794,8.54383],[124.806267,8.54338],[124.807297,8.54284],[124.808678,8.54258],[124.810013,8.54212],[124.81163,8.54093],[124.812576,8.53839],[124.813019,8.53693],[124.813583,8.53496],[124.81292,8.53225],[124.811859,8.52973],[124.811287,8.52823],[124.810364,8.52601],[124.809753,8.52393],[124.809273,8.52165],[124.808403,8.51761],[124.807137,8.51398],[124.805801,8.51417],[124.804253,8.51441],[124.802261,8.51468],[124.801033,8.51514],[124.799812,8.51594],[124.799431,8.51697],[124.799179,8.51803],[124.798767,8.51906],[124.798187,8.51977],[124.797684,8.52006],[124.797112,8.52019],[124.796539,8.52102],[124.795982,8.52189],[124.794647,8.52283],[124.79393,8.52329],[124.793404,8.52356],[124.792328,8.52438],[124.791313,8.52662],[124.790916,8.52813],[124.78933,8.52938],[124.790283,8.53228],[124.791496,8.53501],[124.792557,8.53721],[124.793411,8.53927],[124.795036,8.54227],[124.796494,8.54363]]]]}},{"type":"Feature","properties":{"ID_0":177,"ISO":"PHL","NAME_0":"Philippines","ID_1":10043,"NAME_1":"Misamis Oriental","ID_2":1004324,"NAME_2":"Tagoloan","ID_3":1004324009,"NAME_3":"Santa Cruz","NL_NAME_3":null,"VARNAME_3":null,"TYPE_3":"Barangay","ENGTYPE_3":"Village","PROVINCE":"Misamis Oriental","REGION":"Region X (Northern Mindanao)","id":"barangay-1004324009","name":"Santa Cruz","barangayCode":"1004324009","population":null,"formattedPop":null,"densityCategory":"No data","vulnerabilityRating":"No data","healthRiskLevel":"No data","areaKm2":6.866597,"centerLat":8.551485,"centerLng":124.763227,"geometrySource":"all_barangay-2.csv detailed WKT","geometryMatchMethod":"unique_official_admin_names","boundaryPointCount":103},"geometry":{"type":"MultiPolygon","coordinates":[[[[124.745003,8.55472],[124.745277,8.55444],[124.745827,8.55444],[124.746109,8.55417],[124.746391,8.55417],[124.748337,8.55222],[124.748337,8.55194],[124.748611,8.55167],[124.748611,8.55139],[124.748894,8.55111],[124.748894,8.55089],[124.746429,8.55087],[124.745354,8.55133],[124.744873,8.55209],[124.742897,8.55308],[124.743523,8.55381],[124.743767,8.55444],[124.744164,8.55444],[124.744453,8.55472],[124.745003,8.55472]]],[[[124.783707,8.5517],[124.782944,8.5502],[124.781937,8.54849],[124.78067,8.54585],[124.779533,8.54399],[124.777809,8.54092],[124.777321,8.53954],[124.776741,8.53829],[124.776047,8.5362],[124.774208,8.53715],[124.772682,8.53782],[124.771057,8.53875],[124.769386,8.53969],[124.767738,8.54061],[124.76664,8.54137],[124.765991,8.54211],[124.764641,8.5427],[124.763107,8.54311],[124.762138,8.54307],[124.76088,8.54278],[124.75975,8.54232],[124.7584,8.54196],[124.758308,8.54137],[124.758011,8.54203],[124.757072,8.54248],[124.756912,8.54249],[124.756119,8.54314],[124.75502,8.5453],[124.75338,8.54787],[124.752502,8.54911],[124.751129,8.54995],[124.750557,8.55009],[124.750557,8.55028],[124.750267,8.55056],[124.750267,8.55111],[124.75,8.55139],[124.75,8.55167],[124.749733,8.55194],[124.749733,8.55222],[124.749443,8.5525],[124.749443,8.55278],[124.748894,8.55333],[124.748894,8.55361],[124.747498,8.555],[124.747223,8.555],[124.746391,8.55583],[124.746109,8.55583],[124.745827,8.55611],[124.745277,8.55611],[124.745003,8.55639],[124.744003,8.55639],[124.744591,8.55675],[124.746147,8.55662],[124.748154,8.55602],[124.748627,8.55593],[124.749939,8.55568],[124.752586,8.55506],[124.754204,8.55447],[124.757103,8.55315],[124.757584,8.55309],[124.758034,8.55304],[124.758217,8.55245],[124.759644,8.55169],[124.760597,8.5516],[124.762222,8.55222],[124.763519,8.55316],[124.764603,8.55441],[124.765228,8.55522],[124.766029,8.55645],[124.766457,8.5571],[124.766876,8.55746],[124.768013,8.55811],[124.768471,8.5583],[124.768631,8.55857],[124.770729,8.55797],[124.772453,8.55702],[124.773628,8.55654],[124.775627,8.5553],[124.778976,8.55393],[124.779991,8.5537],[124.780731,8.5533],[124.781464,8.55285],[124.783707,8.5517]]]]}},{"type":"Feature","properties":{"ID_0":177,"ISO":"PHL","NAME_0":"Philippines","ID_1":10043,"NAME_1":"Misamis Oriental","ID_2":1004324,"NAME_2":"Tagoloan","ID_3":1004324010,"NAME_3":"Sugbongcogon","NL_NAME_3":null,"VARNAME_3":null,"TYPE_3":"Barangay","ENGTYPE_3":"Village","PROVINCE":"Misamis Oriental","REGION":"Region X (Northern Mindanao)","id":"barangay-1004324010","name":"Sugbongcogon","barangayCode":"1004324010","population":null,"formattedPop":null,"densityCategory":"No data","vulnerabilityRating":"No data","healthRiskLevel":"No data","areaKm2":0.605311,"centerLat":8.529585,"centerLng":124.747951,"geometrySource":"all_barangay-2.csv detailed WKT","geometryMatchMethod":"unique_official_admin_names","boundaryPointCount":47},"geometry":{"type":"MultiPolygon","coordinates":[[[[124.757927,8.53476],[124.757721,8.53374],[124.757423,8.53271],[124.756737,8.53067],[124.756264,8.5295],[124.755547,8.52784],[124.754318,8.52412],[124.753868,8.52269],[124.753166,8.52051],[124.752869,8.51954],[124.75251,8.51901],[124.75222,8.51869],[124.751602,8.51818],[124.751106,8.51889],[124.750633,8.51952],[124.75,8.51993],[124.74971,8.52061],[124.749443,8.52139],[124.749443,8.52194],[124.749168,8.52222],[124.749168,8.5225],[124.748894,8.52278],[124.748611,8.52278],[124.748047,8.52333],[124.74778,8.52333],[124.747498,8.52361],[124.746674,8.52361],[124.746391,8.52389],[124.746101,8.52389],[124.746407,8.52451],[124.747093,8.52539],[124.747177,8.52542],[124.747513,8.52591],[124.747864,8.52642],[124.748283,8.5271],[124.748459,8.5274],[124.748978,8.52838],[124.749046,8.52852],[124.74984,8.53],[124.751213,8.5324],[124.751472,8.53265],[124.751984,8.53314],[124.752968,8.5347],[124.753723,8.53576],[124.755203,8.53546],[124.756393,8.53501],[124.757927,8.53476]]]]}}]}
