{"type":"FeatureCollection","features":[{"type":"Feature","properties":{"ID_0":177,"ISO":"PHL","NAME_0":"Philippines","ID_1":7022,"NAME_1":"Cebu","ID_2":702206,"NAME_2":"Asturias","ID_3":702206001,"NAME_3":"Agbanga","NL_NAME_3":null,"VARNAME_3":null,"TYPE_3":"Barangay","ENGTYPE_3":"Village","PROVINCE":"Cebu","REGION":"Region VII (Central Visayas)","id":"barangay-0702206001","name":"Agbanga","barangayCode":"0702206001","population":null,"formattedPop":null,"densityCategory":"No data","vulnerabilityRating":"No data","healthRiskLevel":"No data","areaKm2":3.872372,"centerLat":10.592285,"centerLng":123.807071,"geometrySource":"all_barangay-2.csv detailed WKT","geometryMatchMethod":"unique_official_admin_names","boundaryPointCount":102},"geometry":{"type":"MultiPolygon","coordinates":[[[[123.827019,10.60413],[123.828079,10.60284],[123.828979,10.60198],[123.830467,10.60108],[123.831017,10.60034],[123.831093,10.59919],[123.830223,10.59864],[123.830002,10.5978],[123.829338,10.59713],[123.828453,10.59696],[123.827873,10.59731],[123.827232,10.59754],[123.825943,10.59747],[123.825256,10.5966],[123.825607,10.5961],[123.823914,10.59531],[123.823914,10.59524],[123.823631,10.59391],[123.823013,10.59354],[123.822487,10.59242],[123.821999,10.59217],[123.821487,10.59092],[123.821342,10.5907],[123.820778,10.58965],[123.820374,10.58884],[123.820457,10.58353],[123.811417,10.58438],[123.802063,10.58544],[123.80278,10.58656],[123.802994,10.58782],[123.802917,10.58873],[123.803047,10.5894],[123.80323,10.58975],[123.802628,10.59025],[123.80233,10.59083],[123.803108,10.59104],[123.803169,10.59189],[123.802521,10.59237],[123.803223,10.59368],[123.803574,10.59429],[123.804001,10.59503],[123.804008,10.59526],[123.803749,10.59591],[123.803947,10.59689],[123.804749,10.59766],[123.804863,10.59826],[123.804253,10.59944],[123.803978,10.59956],[123.802979,10.59996],[123.802887,10.60089],[123.802299,10.60093],[123.802483,10.60157],[123.803886,10.60173],[123.805313,10.60296],[123.806396,10.604],[123.807503,10.60445],[123.808548,10.60446],[123.809486,10.60414],[123.810402,10.60361],[123.811287,10.60275],[123.811729,10.60215],[123.812073,10.60107],[123.812141,10.59965],[123.811996,10.59876],[123.812027,10.59774],[123.812233,10.59726],[123.812553,10.59687],[123.813133,10.59687],[123.813843,10.5977],[123.814133,10.59976],[123.814278,10.60113],[123.814369,10.60163],[123.814667,10.60204],[123.814987,10.60241],[123.815559,10.60251],[123.815773,10.60192],[123.815964,10.60134],[123.815773,10.60094],[123.816017,10.60033],[123.817139,10.60013],[123.818298,10.60007],[123.819801,10.59962],[123.819923,10.59967],[123.820183,10.60005],[123.820351,10.60072],[123.820396,10.60153],[123.821121,10.60268],[123.821808,10.60312],[123.822456,10.60298],[123.823036,10.60234],[123.823517,10.60193],[123.824669,10.60165],[123.825378,10.6019],[123.825722,10.60281],[123.824951,10.60358],[123.824493,10.60394],[123.82373,10.60447],[123.823578,10.60533],[123.824417,10.60577],[123.825157,10.60579],[123.825691,10.60552],[123.827019,10.60413]]]]}},{"type":"Feature","properties":{"ID_0":177,"ISO":"PHL","NAME_0":"Philippines","ID_1":7022,"NAME_1":"Cebu","ID_2":702206,"NAME_2":"Asturias","ID_3":702206002,"NAME_3":"Agtugop","NL_NAME_3":null,"VARNAME_3":null,"TYPE_3":"Barangay","ENGTYPE_3":"Village","PROVINCE":"Cebu","REGION":"Region VII (Central Visayas)","id":"barangay-0702206002","name":"Agtugop","barangayCode":"0702206002","population":null,"formattedPop":null,"densityCategory":"No data","vulnerabilityRating":"No data","healthRiskLevel":"No data","areaKm2":6.015038,"centerLat":10.596127,"centerLng":123.787058,"geometrySource":"all_barangay-2.csv detailed WKT","geometryMatchMethod":"unique_official_admin_names","boundaryPointCount":51},"geometry":{"type":"MultiPolygon","coordinates":[[[[123.778351,10.61094],[123.779167,10.61015],[123.780777,10.60979],[123.782761,10.60949],[123.784576,10.60909],[123.785667,10.60935],[123.787262,10.60904],[123.789391,10.60823],[123.790237,10.60801],[123.791267,10.60744],[123.79274,10.60662],[123.793663,10.60585],[123.794388,10.60483],[123.794724,10.60449],[123.795059,10.60392],[123.795937,10.6036],[123.797417,10.60321],[123.798424,10.60344],[123.799408,10.60339],[123.800163,10.60247],[123.800423,10.60201],[123.80143,10.60197],[123.802048,10.60201],[123.802483,10.60157],[123.802299,10.60093],[123.802887,10.60089],[123.802979,10.59996],[123.803978,10.59956],[123.804253,10.59944],[123.804863,10.59826],[123.804749,10.59766],[123.803947,10.59689],[123.803749,10.59591],[123.804008,10.59526],[123.804001,10.59503],[123.803574,10.59429],[123.803223,10.59368],[123.802521,10.59237],[123.803169,10.59189],[123.803108,10.59104],[123.80233,10.59083],[123.802628,10.59025],[123.80323,10.58975],[123.803047,10.5894],[123.802917,10.58873],[123.802994,10.58782],[123.80278,10.58656],[123.802063,10.58544],[123.771393,10.59235],[123.776077,10.60937],[123.778351,10.61094]]]]}},{"type":"Feature","properties":{"ID_0":177,"ISO":"PHL","NAME_0":"Philippines","ID_1":7022,"NAME_1":"Cebu","ID_2":702206,"NAME_2":"Asturias","ID_3":702206003,"NAME_3":"Bago","NL_NAME_3":null,"VARNAME_3":null,"TYPE_3":"Barangay","ENGTYPE_3":"Village","PROVINCE":"Cebu","REGION":"Region VII (Central Visayas)","id":"barangay-0702206003","name":"Bago","barangayCode":"0702206003","population":null,"formattedPop":null,"densityCategory":"No data","vulnerabilityRating":"No data","healthRiskLevel":"No data","areaKm2":4.44616,"centerLat":10.625587,"centerLng":123.775841,"geometrySource":"all_barangay-2.csv detailed WKT","geometryMatchMethod":"unique_official_admin_names","boundaryPointCount":80},"geometry":{"type":"MultiPolygon","coordinates":[[[[123.800034,10.63085],[123.795059,10.60392],[123.794724,10.60449],[123.794388,10.60483],[123.793663,10.60585],[123.79274,10.60662],[123.791267,10.60744],[123.790237,10.60801],[123.789391,10.60823],[123.787262,10.60904],[123.785667,10.60935],[123.784576,10.60909],[123.782761,10.60949],[123.780777,10.60979],[123.779167,10.61015],[123.778351,10.61094],[123.778427,10.61149],[123.778618,10.61206],[123.778999,10.61272],[123.779243,10.61309],[123.779869,10.61458],[123.779877,10.61552],[123.779282,10.61739],[123.778412,10.61855],[123.777847,10.61904],[123.776817,10.6196],[123.775757,10.61949],[123.774811,10.61918],[123.773773,10.61938],[123.773193,10.62017],[123.772438,10.62211],[123.772179,10.62303],[123.772324,10.62359],[123.772774,10.62401],[123.772987,10.62478],[123.773788,10.62547],[123.774094,10.62612],[123.774078,10.62641],[123.77404,10.62706],[123.774109,10.62803],[123.774597,10.62904],[123.775383,10.62946],[123.775993,10.62988],[123.776199,10.6303],[123.775917,10.63122],[123.775398,10.63239],[123.775772,10.6331],[123.777092,10.63345],[123.777847,10.63342],[123.778923,10.63361],[123.779266,10.63388],[123.779312,10.63495],[123.779831,10.63583],[123.780434,10.63621],[123.780609,10.63674],[123.780838,10.63742],[123.781219,10.63768],[123.782112,10.63721],[123.78318,10.63691],[123.783829,10.63715],[123.783501,10.6376],[123.78392,10.63742],[123.784698,10.63788],[123.785713,10.6377],[123.78598,10.63704],[123.786819,10.63679],[123.787621,10.63609],[123.788742,10.63475],[123.790077,10.63368],[123.790833,10.63357],[123.791977,10.63374],[123.792953,10.63345],[123.794167,10.63306],[123.79509,10.63294],[123.795448,10.63417],[123.796791,10.63326],[123.796852,10.63269],[123.798439,10.63155],[123.799263,10.63108],[123.800034,10.63085]]]]}},{"type":"Feature","properties":{"ID_0":177,"ISO":"PHL","NAME_0":"Philippines","ID_1":7022,"NAME_1":"Cebu","ID_2":702206,"NAME_2":"Asturias","ID_3":702206004,"NAME_3":"Bairan","NL_NAME_3":null,"VARNAME_3":null,"TYPE_3":"Barangay","ENGTYPE_3":"Village","PROVINCE":"Cebu","REGION":"Region VII (Central Visayas)","id":"barangay-0702206004","name":"Bairan","barangayCode":"0702206004","population":null,"formattedPop":null,"densityCategory":"No data","vulnerabilityRating":"No data","healthRiskLevel":"No data","areaKm2":7.62373,"centerLat":10.564549,"centerLng":123.824187,"geometrySource":"all_barangay-2.csv detailed WKT","geometryMatchMethod":"unique_official_admin_names","boundaryPointCount":25},"geometry":{"type":"MultiPolygon","coordinates":[[[[123.820457,10.58353],[123.825317,10.58123],[123.827988,10.58469],[123.84742,10.58366],[123.855278,10.58529],[123.858032,10.57403],[123.839729,10.5702],[123.811577,10.56183],[123.810867,10.5664],[123.811577,10.56994],[123.81131,10.57023],[123.810959,10.5707],[123.810493,10.57085],[123.810181,10.57193],[123.810547,10.57224],[123.811272,10.57279],[123.811836,10.57369],[123.812073,10.57435],[123.812103,10.57555],[123.811531,10.57669],[123.811371,10.57771],[123.8116,10.57921],[123.811737,10.581],[123.811417,10.58438],[123.820457,10.58353]]]]}},{"type":"Feature","properties":{"ID_0":177,"ISO":"PHL","NAME_0":"Philippines","ID_1":7022,"NAME_1":"Cebu","ID_2":702206,"NAME_2":"Asturias","ID_3":702206005,"NAME_3":"Banban","NL_NAME_3":null,"VARNAME_3":null,"TYPE_3":"Barangay","ENGTYPE_3":"Village","PROVINCE":"Cebu","REGION":"Region VII (Central Visayas)","id":"barangay-0702206005","name":"Banban","barangayCode":"0702206005","population":null,"formattedPop":null,"densityCategory":"No data","vulnerabilityRating":"No data","healthRiskLevel":"No data","areaKm2":6.252694,"centerLat":10.612998,"centerLng":123.811031,"geometrySource":"all_barangay-2.csv detailed WKT","geometryMatchMethod":"unique_official_admin_names","boundaryPointCount":26},"geometry":{"type":"MultiPolygon","coordinates":[[[[123.839439,10.62258],[123.841888,10.62278],[123.853783,10.60604],[123.852997,10.60615],[123.852463,10.60573],[123.851799,10.60517],[123.850327,10.60523],[123.849693,10.60526],[123.849113,10.60561],[123.827019,10.60413],[123.825691,10.60552],[123.825157,10.60579],[123.830048,10.61726],[123.830704,10.61778],[123.831703,10.61866],[123.832314,10.61857],[123.832916,10.61884],[123.83374,10.61836],[123.834778,10.61802],[123.835274,10.61807],[123.83596,10.61853],[123.836372,10.61936],[123.837852,10.62026],[123.838463,10.62102],[123.83889,10.62182],[123.839439,10.62258]]]]}},{"type":"Feature","properties":{"ID_0":177,"ISO":"PHL","NAME_0":"Philippines","ID_1":7022,"NAME_1":"Cebu","ID_2":702206,"NAME_2":"Asturias","ID_3":702206006,"NAME_3":"Baye","NL_NAME_3":null,"VARNAME_3":null,"TYPE_3":"Barangay","ENGTYPE_3":"Village","PROVINCE":"Cebu","REGION":"Region VII (Central Visayas)","id":"barangay-0702206006","name":"Baye","barangayCode":"0702206006","population":null,"formattedPop":null,"densityCategory":"No data","vulnerabilityRating":"No data","healthRiskLevel":"No data","areaKm2":7.144619,"centerLat":10.585404,"centerLng":123.828031,"geometrySource":"all_barangay-2.csv detailed WKT","geometryMatchMethod":"unique_official_admin_names","boundaryPointCount":93},"geometry":{"type":"MultiPolygon","coordinates":[[[[123.853783,10.60604],[123.853767,10.60448],[123.853752,10.60326],[123.853928,10.60194],[123.854477,10.60172],[123.855148,10.60212],[123.85598,10.60152],[123.856819,10.60081],[123.857582,10.60039],[123.858307,10.60009],[123.855278,10.58529],[123.84742,10.58366],[123.827988,10.58469],[123.825317,10.58123],[123.820457,10.58353],[123.820374,10.58884],[123.820778,10.58965],[123.821342,10.5907],[123.821487,10.59092],[123.821999,10.59217],[123.822487,10.59242],[123.823013,10.59354],[123.823631,10.59391],[123.823914,10.59524],[123.823914,10.59531],[123.825607,10.5961],[123.826431,10.59635],[123.827362,10.59578],[123.828583,10.59505],[123.829987,10.59514],[123.830727,10.59449],[123.830841,10.59351],[123.830711,10.59214],[123.83139,10.59145],[123.83271,10.59136],[123.833023,10.59178],[123.833366,10.59298],[123.833572,10.59382],[123.834251,10.59426],[123.834793,10.59406],[123.835098,10.59312],[123.835564,10.59186],[123.836067,10.59063],[123.836197,10.58968],[123.836708,10.58922],[123.837318,10.58916],[123.839157,10.59021],[123.839722,10.59072],[123.840302,10.59096],[123.841187,10.5906],[123.841728,10.58982],[123.842216,10.58943],[123.843246,10.58898],[123.843918,10.58918],[123.845123,10.58945],[123.845627,10.58948],[123.846527,10.5903],[123.847198,10.59119],[123.847282,10.59144],[123.846779,10.59273],[123.84626,10.59367],[123.846916,10.59369],[123.847878,10.59348],[123.848244,10.59415],[123.847504,10.59465],[123.846977,10.59518],[123.847351,10.59576],[123.846977,10.59656],[123.84642,10.59668],[123.846153,10.59732],[123.846603,10.59784],[123.846092,10.5985],[123.846268,10.59904],[123.846771,10.59907],[123.847633,10.59936],[123.847992,10.59972],[123.847572,10.60016],[123.846367,10.60093],[123.846626,10.60145],[123.84761,10.60186],[123.847939,10.60243],[123.848053,10.60297],[123.848106,10.60351],[123.847557,10.60424],[123.848007,10.60493],[123.848633,10.60525],[123.849113,10.60561],[123.849693,10.60526],[123.850327,10.60523],[123.851799,10.60517],[123.852463,10.60573],[123.852997,10.60615],[123.853783,10.60604]]]]}},{"type":"Feature","properties":{"ID_0":177,"ISO":"PHL","NAME_0":"Philippines","ID_1":7022,"NAME_1":"Cebu","ID_2":702206,"NAME_2":"Asturias","ID_3":702206007,"NAME_3":"Bog-o","NL_NAME_3":null,"VARNAME_3":null,"TYPE_3":"Barangay","ENGTYPE_3":"Village","PROVINCE":"Cebu","REGION":"Region VII (Central Visayas)","id":"barangay-0702206007","name":"Bog-o","barangayCode":"0702206007","population":null,"formattedPop":null,"densityCategory":"No data","vulnerabilityRating":"No data","healthRiskLevel":"No data","areaKm2":3.892774,"centerLat":10.603677,"centerLng":123.766721,"geometrySource":"all_barangay-2.csv detailed WKT","geometryMatchMethod":"unique_official_admin_names","boundaryPointCount":5},"geometry":{"type":"MultiPolygon","coordinates":[[[[123.762733,10.61454],[123.776077,10.60937],[123.771393,10.59235],[123.757347,10.60046],[123.762733,10.61454]]]]}},{"type":"Feature","properties":{"ID_0":177,"ISO":"PHL","NAME_0":"Philippines","ID_1":7022,"NAME_1":"Cebu","ID_2":702206,"NAME_2":"Asturias","ID_3":702206009,"NAME_3":"Kaluangan","NL_NAME_3":null,"VARNAME_3":null,"TYPE_3":"Barangay","ENGTYPE_3":"Village","PROVINCE":"Cebu","REGION":"Region VII (Central Visayas)","id":"barangay-0702206009","name":"Kaluangan","barangayCode":"0702206009","population":null,"formattedPop":null,"densityCategory":"No data","vulnerabilityRating":"No data","healthRiskLevel":"No data","areaKm2":6.684592,"centerLat":10.521066,"centerLng":123.877372,"geometrySource":"all_barangay-2.csv detailed WKT","geometryMatchMethod":"unique_official_admin_names","boundaryPointCount":104},"geometry":{"type":"MultiPolygon","coordinates":[[[[123.858032,10.57403],[123.878639,10.57666],[123.908836,10.55575],[123.908234,10.55497],[123.907532,10.55346],[123.906677,10.55249],[123.90551,10.55158],[123.904556,10.55067],[123.903397,10.54882],[123.902443,10.54736],[123.902283,10.54711],[123.902191,10.54593],[123.902237,10.54408],[123.901871,10.54265],[123.901962,10.54096],[123.901871,10.5403],[123.901413,10.53973],[123.900398,10.53935],[123.899467,10.53881],[123.899429,10.53788],[123.898987,10.5372],[123.898453,10.53634],[123.898514,10.5354],[123.898499,10.5345],[123.896843,10.53335],[123.896271,10.53302],[123.892036,10.53302],[123.891403,10.53278],[123.890877,10.53209],[123.890831,10.5314],[123.890213,10.53098],[123.88945,10.53067],[123.889137,10.52988],[123.88829,10.52895],[123.887627,10.5279],[123.887253,10.5281],[123.886803,10.52888],[123.886337,10.52935],[123.88588,10.52907],[123.885834,10.52855],[123.885429,10.52817],[123.884933,10.52851],[123.884521,10.52966],[123.883926,10.52906],[123.883141,10.52942],[123.883171,10.52978],[123.883133,10.53059],[123.882469,10.5305],[123.881973,10.53059],[123.881523,10.53144],[123.881889,10.53205],[123.881477,10.53245],[123.880859,10.53262],[123.880379,10.53272],[123.879517,10.53243],[123.879173,10.53274],[123.878799,10.53291],[123.877876,10.53257],[123.877609,10.53229],[123.877922,10.53195],[123.877739,10.53162],[123.877213,10.5316],[123.876343,10.53275],[123.875717,10.53335],[123.874779,10.53311],[123.874237,10.53321],[123.873367,10.53338],[123.872643,10.53278],[123.871773,10.53263],[123.87059,10.5342],[123.869827,10.53373],[123.869583,10.53444],[123.869926,10.53518],[123.86985,10.5357],[123.870842,10.53587],[123.870941,10.5361],[123.869873,10.53707],[123.869247,10.53747],[123.868553,10.53848],[123.868027,10.53879],[123.867363,10.53877],[123.867401,10.53982],[123.867859,10.54023],[123.867661,10.54074],[123.867691,10.54141],[123.868347,10.54161],[123.868729,10.54121],[123.868919,10.54145],[123.868782,10.54211],[123.868179,10.5426],[123.867661,10.54283],[123.866898,10.54297],[123.866577,10.54276],[123.86628,10.54209],[123.865547,10.54225],[123.865356,10.54285],[123.865387,10.54351],[123.865211,10.54399],[123.864761,10.54442],[123.864143,10.54414],[123.863991,10.54371],[123.863564,10.54336],[123.86335,10.54326],[123.858032,10.57403]]]]}},{"type":"Feature","properties":{"ID_0":177,"ISO":"PHL","NAME_0":"Philippines","ID_1":7022,"NAME_1":"Cebu","ID_2":702206,"NAME_2":"Asturias","ID_3":702206010,"NAME_3":"Lanao","NL_NAME_3":null,"VARNAME_3":null,"TYPE_3":"Barangay","ENGTYPE_3":"Village","PROVINCE":"Cebu","REGION":"Region VII (Central Visayas)","id":"barangay-0702206010","name":"Lanao","barangayCode":"0702206010","population":null,"formattedPop":null,"densityCategory":"No data","vulnerabilityRating":"No data","healthRiskLevel":"No data","areaKm2":5.366738,"centerLat":10.602017,"centerLng":123.836523,"geometrySource":"all_barangay-2.csv detailed WKT","geometryMatchMethod":"unique_official_admin_names","boundaryPointCount":77},"geometry":{"type":"MultiPolygon","coordinates":[[[[123.849113,10.60561],[123.848633,10.60525],[123.848007,10.60493],[123.847557,10.60424],[123.848106,10.60351],[123.848053,10.60297],[123.847939,10.60243],[123.84761,10.60186],[123.846626,10.60145],[123.846367,10.60093],[123.847572,10.60016],[123.847992,10.59972],[123.847633,10.59936],[123.846771,10.59907],[123.846268,10.59904],[123.846092,10.5985],[123.846603,10.59784],[123.846153,10.59732],[123.84642,10.59668],[123.846977,10.59656],[123.847351,10.59576],[123.846977,10.59518],[123.847504,10.59465],[123.848244,10.59415],[123.847878,10.59348],[123.846916,10.59369],[123.84626,10.59367],[123.846779,10.59273],[123.847282,10.59144],[123.847198,10.59119],[123.846527,10.5903],[123.845627,10.58948],[123.845123,10.58945],[123.843918,10.58918],[123.843246,10.58898],[123.842216,10.58943],[123.841728,10.58982],[123.841187,10.5906],[123.840302,10.59096],[123.839722,10.59072],[123.839157,10.59021],[123.837318,10.58916],[123.836708,10.58922],[123.836197,10.58968],[123.836067,10.59063],[123.835564,10.59186],[123.835098,10.59312],[123.834793,10.59406],[123.834251,10.59426],[123.833572,10.59382],[123.833366,10.59298],[123.833023,10.59178],[123.83271,10.59136],[123.83139,10.59145],[123.830711,10.59214],[123.830841,10.59351],[123.830727,10.59449],[123.829987,10.59514],[123.828583,10.59505],[123.827362,10.59578],[123.826431,10.59635],[123.825607,10.5961],[123.825256,10.5966],[123.825943,10.59747],[123.827232,10.59754],[123.827873,10.59731],[123.828453,10.59696],[123.829338,10.59713],[123.830002,10.5978],[123.830223,10.59864],[123.831093,10.59919],[123.831017,10.60034],[123.830467,10.60108],[123.828979,10.60198],[123.828079,10.60284],[123.827019,10.60413],[123.849113,10.60561]]]]}},{"type":"Feature","properties":{"ID_0":177,"ISO":"PHL","NAME_0":"Philippines","ID_1":7022,"NAME_1":"Cebu","ID_2":702206,"NAME_2":"Asturias","ID_3":702206011,"NAME_3":"Langub","NL_NAME_3":null,"VARNAME_3":null,"TYPE_3":"Barangay","ENGTYPE_3":"Village","PROVINCE":"Cebu","REGION":"Region VII (Central Visayas)","id":"barangay-0702206011","name":"Langub","barangayCode":"0702206011","population":null,"formattedPop":null,"densityCategory":"No data","vulnerabilityRating":"No data","healthRiskLevel":"No data","areaKm2":4.417419,"centerLat":10.580193,"centerLng":123.741924,"geometrySource":"all_barangay-2.csv detailed WKT","geometryMatchMethod":"unique_official_admin_names","boundaryPointCount":36},"geometry":{"type":"MultiPolygon","coordinates":[[[[123.751297,10.58437],[123.744873,10.57021],[123.729286,10.57467],[123.729378,10.57477],[123.729584,10.57511],[123.729622,10.57518],[123.730003,10.57556],[123.729897,10.57565],[123.729446,10.57611],[123.729721,10.57639],[123.729721,10.57778],[123.729446,10.57806],[123.729446,10.57889],[123.729721,10.57917],[123.729721,10.57945],[123.730003,10.57972],[123.730003,10.58],[123.730553,10.58056],[123.730553,10.58111],[123.731392,10.58363],[123.731461,10.5846],[123.731941,10.58583],[123.731941,10.58639],[123.732224,10.58667],[123.732224,10.58722],[123.732498,10.5875],[123.73278,10.58813],[123.733047,10.58882],[123.73278,10.58944],[123.73278,10.58972],[123.733047,10.59],[123.733047,10.59056],[123.73333,10.59083],[123.733429,10.59115],[123.734612,10.59097],[123.751297,10.58437]]]]}},{"type":"Feature","properties":{"ID_0":177,"ISO":"PHL","NAME_0":"Philippines","ID_1":7022,"NAME_1":"Cebu","ID_2":702206,"NAME_2":"Asturias","ID_3":702206012,"NAME_3":"Looc Norte","NL_NAME_3":null,"VARNAME_3":null,"TYPE_3":"Barangay","ENGTYPE_3":"Village","PROVINCE":"Cebu","REGION":"Region VII (Central Visayas)","id":"barangay-0702206012","name":"Looc Norte","barangayCode":"0702206012","population":null,"formattedPop":null,"densityCategory":"No data","vulnerabilityRating":"No data","healthRiskLevel":"No data","areaKm2":4.271622,"centerLat":10.565146,"centerLng":123.733975,"geometrySource":"all_barangay-2.csv detailed WKT","geometryMatchMethod":"unique_official_admin_names","boundaryPointCount":23},"geometry":{"type":"MultiPolygon","coordinates":[[[[123.724503,10.57148],[123.724968,10.57164],[123.726013,10.57167],[123.726089,10.5718],[123.726303,10.57215],[123.726639,10.57263],[123.726921,10.57291],[123.727089,10.57301],[123.727333,10.57314],[123.727409,10.57319],[123.728127,10.57384],[123.728241,10.57395],[123.728394,10.57409],[123.728813,10.57422],[123.728943,10.57422],[123.72921,10.57457],[123.729286,10.57467],[123.744873,10.57021],[123.740791,10.56162],[123.725029,10.57124],[123.724747,10.57135],[123.724617,10.57141],[123.724503,10.57148]]]]}},{"type":"Feature","properties":{"ID_0":177,"ISO":"PHL","NAME_0":"Philippines","ID_1":7022,"NAME_1":"Cebu","ID_2":702206,"NAME_2":"Asturias","ID_3":702206013,"NAME_3":"Lunas","NL_NAME_3":null,"VARNAME_3":null,"TYPE_3":"Barangay","ENGTYPE_3":"Village","PROVINCE":"Cebu","REGION":"Region VII (Central Visayas)","id":"barangay-0702206013","name":"Lunas","barangayCode":"0702206013","population":null,"formattedPop":null,"densityCategory":"No data","vulnerabilityRating":"No data","healthRiskLevel":"No data","areaKm2":5.79959,"centerLat":10.632013,"centerLng":123.787489,"geometrySource":"all_barangay-2.csv detailed WKT","geometryMatchMethod":"unique_official_admin_names","boundaryPointCount":67},"geometry":{"type":"MultiPolygon","coordinates":[[[[123.79483,10.64034],[123.795868,10.63995],[123.799698,10.63927],[123.80735,10.63888],[123.818497,10.63975],[123.824577,10.64039],[123.831848,10.64107],[123.837463,10.64212],[123.839127,10.64247],[123.839439,10.62258],[123.83889,10.62182],[123.838463,10.62102],[123.837852,10.62026],[123.836372,10.61936],[123.83596,10.61853],[123.835274,10.61807],[123.834778,10.61802],[123.83374,10.61836],[123.832916,10.61884],[123.832314,10.61857],[123.831703,10.61866],[123.830704,10.61778],[123.830048,10.61726],[123.82917,10.61806],[123.82901,10.61833],[123.828171,10.61938],[123.8274,10.61954],[123.827026,10.6187],[123.826736,10.61737],[123.826363,10.61619],[123.824898,10.61552],[123.822983,10.61527],[123.822601,10.61536],[123.821823,10.61607],[123.821579,10.61684],[123.821228,10.61802],[123.820343,10.61847],[123.819481,10.61919],[123.819008,10.61995],[123.818932,10.62084],[123.81826,10.62155],[123.817574,10.62109],[123.816521,10.62106],[123.815788,10.62202],[123.81472,10.62313],[123.813889,10.62435],[123.812279,10.62517],[123.811447,10.62581],[123.810417,10.62653],[123.8088,10.62659],[123.807632,10.62695],[123.806091,10.62819],[123.804626,10.62954],[123.803352,10.63059],[123.802673,10.63086],[123.801888,10.63116],[123.800911,10.63129],[123.800034,10.63085],[123.799263,10.63108],[123.798439,10.63155],[123.796852,10.63269],[123.796791,10.63326],[123.795448,10.63417],[123.79509,10.63294],[123.794167,10.63306],[123.792953,10.63345],[123.79483,10.64034]]]]}},{"type":"Feature","properties":{"ID_0":177,"ISO":"PHL","NAME_0":"Philippines","ID_1":7022,"NAME_1":"Cebu","ID_2":702206,"NAME_2":"Asturias","ID_3":702206014,"NAME_3":"Magcalape","NL_NAME_3":null,"VARNAME_3":null,"TYPE_3":"Barangay","ENGTYPE_3":"Village","PROVINCE":"Cebu","REGION":"Region VII (Central Visayas)","id":"barangay-0702206014","name":"Magcalape","barangayCode":"0702206014","population":null,"formattedPop":null,"densityCategory":"No data","vulnerabilityRating":"No data","healthRiskLevel":"No data","areaKm2":6.878554,"centerLat":10.569395,"centerLng":123.798589,"geometrySource":"all_barangay-2.csv detailed WKT","geometryMatchMethod":"unique_official_admin_names","boundaryPointCount":25},"geometry":{"type":"MultiPolygon","coordinates":[[[[123.811417,10.58438],[123.811737,10.581],[123.8116,10.57921],[123.811371,10.57771],[123.811531,10.57669],[123.812103,10.57555],[123.812073,10.57435],[123.811836,10.57369],[123.811272,10.57279],[123.810547,10.57224],[123.810181,10.57193],[123.810493,10.57085],[123.810959,10.5707],[123.81131,10.57023],[123.811577,10.56994],[123.810867,10.5664],[123.811577,10.56183],[123.793289,10.56724],[123.798866,10.58061],[123.799309,10.58129],[123.799362,10.58235],[123.799957,10.58384],[123.800873,10.58454],[123.802063,10.58544],[123.811417,10.58438]]]]}},{"type":"Feature","properties":{"ID_0":177,"ISO":"PHL","NAME_0":"Philippines","ID_1":7022,"NAME_1":"Cebu","ID_2":702206,"NAME_2":"Asturias","ID_3":702206015,"NAME_3":"Manguiao","NL_NAME_3":null,"VARNAME_3":null,"TYPE_3":"Barangay","ENGTYPE_3":"Village","PROVINCE":"Cebu","REGION":"Region VII (Central Visayas)","id":"barangay-0702206015","name":"Manguiao","barangayCode":"0702206015","population":null,"formattedPop":null,"densityCategory":"No data","vulnerabilityRating":"No data","healthRiskLevel":"No data","areaKm2":7.843456,"centerLat":10.573653,"centerLng":123.776701,"geometrySource":"all_barangay-2.csv detailed WKT","geometryMatchMethod":"unique_official_admin_names","boundaryPointCount":11},"geometry":{"type":"MultiPolygon","coordinates":[[[[123.802063,10.58544],[123.800873,10.58454],[123.799957,10.58384],[123.799362,10.58235],[123.799309,10.58129],[123.798866,10.58061],[123.793289,10.56724],[123.77623,10.56217],[123.758438,10.56684],[123.771393,10.59235],[123.802063,10.58544]]]]}},{"type":"Feature","properties":{"ID_0":177,"ISO":"PHL","NAME_0":"Philippines","ID_1":7022,"NAME_1":"Cebu","ID_2":702206,"NAME_2":"Asturias","ID_3":702206016,"NAME_3":"New Bago","NL_NAME_3":null,"VARNAME_3":null,"TYPE_3":"Barangay","ENGTYPE_3":"Village","PROVINCE":"Cebu","REGION":"Region VII (Central Visayas)","id":"barangay-0702206016","name":"New Bago","barangayCode":"0702206016","population":null,"formattedPop":null,"densityCategory":"No data","vulnerabilityRating":"No data","healthRiskLevel":"No data","areaKm2":3.202278,"centerLat":10.619005,"centerLng":123.766065,"geometrySource":"all_barangay-2.csv detailed WKT","geometryMatchMethod":"unique_official_admin_names","boundaryPointCount":66},"geometry":{"type":"MultiPolygon","coordinates":[[[[123.770302,10.6489],[123.777603,10.64692],[123.79483,10.64034],[123.792953,10.63345],[123.791977,10.63374],[123.790833,10.63357],[123.790077,10.63368],[123.788742,10.63475],[123.787621,10.63609],[123.786819,10.63679],[123.78598,10.63704],[123.785713,10.6377],[123.784698,10.63788],[123.78392,10.63742],[123.783501,10.6376],[123.783829,10.63715],[123.78318,10.63691],[123.782112,10.63721],[123.781219,10.63768],[123.780838,10.63742],[123.780609,10.63674],[123.780434,10.63621],[123.779831,10.63583],[123.779312,10.63495],[123.779266,10.63388],[123.778923,10.63361],[123.777847,10.63342],[123.777092,10.63345],[123.775772,10.6331],[123.775398,10.63239],[123.775917,10.63122],[123.776199,10.6303],[123.775993,10.62988],[123.775383,10.62946],[123.774597,10.62904],[123.774109,10.62803],[123.77404,10.62706],[123.774078,10.62641],[123.774094,10.62612],[123.773788,10.62547],[123.772987,10.62478],[123.772774,10.62401],[123.772324,10.62359],[123.772179,10.62303],[123.772438,10.62211],[123.773193,10.62017],[123.773773,10.61938],[123.774811,10.61918],[123.775757,10.61949],[123.776817,10.6196],[123.777847,10.61904],[123.778412,10.61855],[123.779282,10.61739],[123.779877,10.61552],[123.779869,10.61458],[123.779243,10.61309],[123.778999,10.61272],[123.778618,10.61206],[123.778427,10.61149],[123.778351,10.61094],[123.776077,10.60937],[123.762733,10.61454],[123.760399,10.6297],[123.763367,10.63427],[123.765862,10.63809],[123.770302,10.6489]]]]}},{"type":"Feature","properties":{"ID_0":177,"ISO":"PHL","NAME_0":"Philippines","ID_1":7022,"NAME_1":"Cebu","ID_2":702206,"NAME_2":"Asturias","ID_3":702206017,"NAME_3":"Owak","NL_NAME_3":null,"VARNAME_3":null,"TYPE_3":"Barangay","ENGTYPE_3":"Village","PROVINCE":"Cebu","REGION":"Region VII (Central Visayas)","id":"barangay-0702206017","name":"Owak","barangayCode":"0702206017","population":null,"formattedPop":null,"densityCategory":"No data","vulnerabilityRating":"No data","healthRiskLevel":"No data","areaKm2":3.822996,"centerLat":10.545063,"centerLng":123.71754,"geometrySource":"all_barangay-2.csv detailed WKT","geometryMatchMethod":"unique_official_admin_names","boundaryPointCount":71},"geometry":{"type":"MultiPolygon","coordinates":[[[[123.740791,10.56162],[123.732964,10.54182],[123.726547,10.54126],[123.725868,10.54161],[123.725014,10.54142],[123.724648,10.54103],[123.723984,10.54105],[123.723633,10.54156],[123.722969,10.54105],[123.72245,10.54021],[123.722076,10.53924],[123.721107,10.53861],[123.719658,10.53842],[123.718391,10.53865],[123.71698,10.53833],[123.7164,10.53816],[123.715019,10.53794],[123.713814,10.53807],[123.712486,10.53816],[123.711418,10.53798],[123.711052,10.53751],[123.710197,10.53724],[123.709343,10.53726],[123.708679,10.53726],[123.708107,10.53717],[123.707481,10.53756],[123.706963,10.53758],[123.706467,10.5376],[123.706192,10.53755],[123.705727,10.53768],[123.705727,10.53783],[123.705521,10.53839],[123.705383,10.5388],[123.704689,10.53986],[123.70462,10.53998],[123.704338,10.5406],[123.703918,10.54136],[123.703918,10.54179],[123.703918,10.54343],[123.703949,10.54363],[123.703987,10.54385],[123.704109,10.544],[123.704269,10.54419],[123.704887,10.54468],[123.705307,10.54502],[123.705597,10.54523],[123.706009,10.54557],[123.706848,10.54661],[123.707619,10.54735],[123.70784,10.54751],[123.708076,10.5477],[123.708313,10.54789],[123.708519,10.54812],[123.708687,10.5484],[123.708977,10.54865],[123.709328,10.54892],[123.709679,10.54927],[123.709991,10.54971],[123.710297,10.55014],[123.711456,10.55103],[123.712303,10.55207],[123.71286,10.55331],[123.712898,10.55394],[123.712997,10.55538],[123.712997,10.55707],[123.713303,10.55696],[123.713341,10.55692],[123.713387,10.55687],[123.716042,10.55631],[123.721947,10.56206],[123.740791,10.56162]]]]}},{"type":"Feature","properties":{"ID_0":177,"ISO":"PHL","NAME_0":"Philippines","ID_1":7022,"NAME_1":"Cebu","ID_2":702206,"NAME_2":"Asturias","ID_3":702206018,"NAME_3":"Poblacion","NL_NAME_3":null,"VARNAME_3":null,"TYPE_3":"Barangay","ENGTYPE_3":"Village","PROVINCE":"Cebu","REGION":"Region VII (Central Visayas)","id":"barangay-0702206018","name":"Poblacion","barangayCode":"0702206018","population":null,"formattedPop":null,"densityCategory":"No data","vulnerabilityRating":"No data","healthRiskLevel":"No data","areaKm2":3.135508,"centerLat":10.559058,"centerLng":123.720912,"geometrySource":"all_barangay-2.csv detailed WKT","geometryMatchMethod":"unique_official_admin_names","boundaryPointCount":55},"geometry":{"type":"MultiPolygon","coordinates":[[[[123.740791,10.56162],[123.721947,10.56206],[123.716042,10.55631],[123.713387,10.55687],[123.713341,10.55692],[123.713303,10.55696],[123.712997,10.55707],[123.712997,10.55732],[123.712578,10.55877],[123.711937,10.55972],[123.71167,10.55972],[123.711388,10.56],[123.711388,10.56056],[123.711113,10.56083],[123.711113,10.56111],[123.711182,10.56167],[123.711739,10.56195],[123.712082,10.56243],[123.712219,10.56306],[123.712219,10.56444],[123.711937,10.56472],[123.711937,10.565],[123.71167,10.56528],[123.71167,10.56556],[123.711937,10.56583],[123.712227,10.56741],[123.712723,10.56782],[123.713211,10.5681],[123.713547,10.56831],[123.713699,10.56852],[123.714737,10.56955],[123.715157,10.56969],[123.716347,10.57038],[123.716621,10.57045],[123.717194,10.57059],[123.717392,10.57059],[123.717812,10.57066],[123.718651,10.57059],[123.718987,10.57045],[123.71933,10.57045],[123.719414,10.57045],[123.71962,10.57052],[123.719803,10.57062],[123.719971,10.57073],[123.720596,10.57093],[123.721367,10.57128],[123.722412,10.57149],[123.723557,10.57166],[123.724037,10.57152],[123.724472,10.5715],[123.724503,10.57148],[123.724617,10.57141],[123.724747,10.57135],[123.725029,10.57124],[123.740791,10.56162]]]]}},{"type":"Feature","properties":{"ID_0":177,"ISO":"PHL","NAME_0":"Philippines","ID_1":7022,"NAME_1":"Cebu","ID_2":702206,"NAME_2":"Asturias","ID_3":702206019,"NAME_3":"Saksak","NL_NAME_3":null,"VARNAME_3":null,"TYPE_3":"Barangay","ENGTYPE_3":"Village","PROVINCE":"Cebu","REGION":"Region VII (Central Visayas)","id":"barangay-0702206019","name":"Saksak","barangayCode":"0702206019","population":null,"formattedPop":null,"densityCategory":"No data","vulnerabilityRating":"No data","healthRiskLevel":"No data","areaKm2":3.482231,"centerLat":10.540503,"centerLng":123.864023,"geometrySource":"all_barangay-2.csv detailed WKT","geometryMatchMethod":"unique_official_admin_names","boundaryPointCount":52},"geometry":{"type":"MultiPolygon","coordinates":[[[[123.941177,10.66738],[123.940323,10.65926],[123.939049,10.65246],[123.937767,10.64669],[123.936363,10.64037],[123.934776,10.63569],[123.933006,10.62778],[123.931763,10.62236],[123.928337,10.61265],[123.923691,10.59108],[123.920113,10.58335],[123.918457,10.57969],[123.917313,10.5766],[123.908836,10.55575],[123.878639,10.57666],[123.858032,10.57403],[123.855278,10.58529],[123.858307,10.60009],[123.857582,10.60039],[123.856819,10.60081],[123.85598,10.60152],[123.855148,10.60212],[123.854477,10.60172],[123.853928,10.60194],[123.853752,10.60326],[123.853767,10.60448],[123.853783,10.60604],[123.841888,10.62278],[123.839439,10.62258],[123.839127,10.64247],[123.842361,10.64279],[123.843918,10.64314],[123.852188,10.64431],[123.858978,10.64528],[123.865181,10.64686],[123.870361,10.64816],[123.87458,10.64922],[123.883949,10.65191],[123.89019,10.6535],[123.897263,10.65597],[123.907143,10.65971],[123.914963,10.66254],[123.921432,10.66602],[123.929092,10.67069],[123.933929,10.67408],[123.937889,10.67675],[123.939278,10.67835],[123.940742,10.67975],[123.942657,10.68098],[123.942337,10.67691],[123.941772,10.67218],[123.941177,10.66738]]]]}},{"type":"Feature","properties":{"ID_0":177,"ISO":"PHL","NAME_0":"Philippines","ID_1":7022,"NAME_1":"Cebu","ID_2":702206,"NAME_2":"Asturias","ID_3":702206020,"NAME_3":"San Isidro","NL_NAME_3":null,"VARNAME_3":null,"TYPE_3":"Barangay","ENGTYPE_3":"Village","PROVINCE":"Cebu","REGION":"Region VII (Central Visayas)","id":"barangay-0702206020","name":"San Isidro","barangayCode":"0702206020","population":null,"formattedPop":null,"densityCategory":"No data","vulnerabilityRating":"No data","healthRiskLevel":"No data","areaKm2":10.039277,"centerLat":10.55189,"centerLng":123.752066,"geometrySource":"all_barangay-2.csv detailed WKT","geometryMatchMethod":"unique_official_admin_names","boundaryPointCount":34},"geometry":{"type":"MultiPolygon","coordinates":[[[[123.758438,10.56684],[123.77623,10.56217],[123.773552,10.55074],[123.772758,10.55016],[123.771873,10.54934],[123.771263,10.54845],[123.770233,10.54723],[123.769287,10.54693],[123.768372,10.54681],[123.767281,10.54692],[123.76622,10.54737],[123.76564,10.54781],[123.765083,10.54798],[123.764481,10.5476],[123.763687,10.54686],[123.763184,10.54605],[123.763687,10.54506],[123.764214,10.54462],[123.765404,10.54425],[123.766319,10.54368],[123.766411,10.54294],[123.7659,10.54195],[123.764961,10.54108],[123.763947,10.54083],[123.762909,10.54129],[123.762199,10.54216],[123.761307,10.54319],[123.76059,10.5437],[123.759956,10.54394],[123.742706,10.54266],[123.732964,10.54182],[123.740791,10.56162],[123.744873,10.57021],[123.758438,10.56684]]]]}},{"type":"Feature","properties":{"ID_0":177,"ISO":"PHL","NAME_0":"Philippines","ID_1":7022,"NAME_1":"Cebu","ID_2":702206,"NAME_2":"Asturias","ID_3":702206021,"NAME_3":"San Roque","NL_NAME_3":null,"VARNAME_3":null,"TYPE_3":"Barangay","ENGTYPE_3":"Village","PROVINCE":"Cebu","REGION":"Region VII (Central Visayas)","id":"barangay-0702206021","name":"San Roque","barangayCode":"0702206021","population":null,"formattedPop":null,"densityCategory":"No data","vulnerabilityRating":"No data","healthRiskLevel":"No data","areaKm2":4.380721,"centerLat":10.59452,"centerLng":123.749742,"geometrySource":"all_barangay-2.csv detailed WKT","geometryMatchMethod":"unique_official_admin_names","boundaryPointCount":40},"geometry":{"type":"MultiPolygon","coordinates":[[[[123.744057,10.60757],[123.757347,10.60046],[123.751297,10.58437],[123.734612,10.59097],[123.733429,10.59115],[123.733818,10.59243],[123.734512,10.59334],[123.734734,10.59389],[123.735832,10.595],[123.735832,10.59528],[123.736107,10.59556],[123.736107,10.59583],[123.736656,10.59639],[123.737343,10.59665],[123.73745,10.59669],[123.737869,10.59731],[123.738289,10.59773],[123.738632,10.59807],[123.73954,10.59883],[123.739891,10.59932],[123.740379,10.6007],[123.740448,10.60091],[123.740753,10.60145],[123.740799,10.60153],[123.741074,10.60187],[123.741364,10.60229],[123.741631,10.60277],[123.74205,10.60326],[123.742332,10.60381],[123.742653,10.60434],[123.742737,10.6045],[123.742767,10.60454],[123.743027,10.60491],[123.743141,10.60514],[123.743309,10.60547],[123.743446,10.60588],[123.743721,10.60644],[123.743896,10.60709],[123.743927,10.6072],[123.744057,10.60757]]]]}},{"type":"Feature","properties":{"ID_0":177,"ISO":"PHL","NAME_0":"Philippines","ID_1":7022,"NAME_1":"Cebu","ID_2":702206,"NAME_2":"Asturias","ID_3":702206022,"NAME_3":"Santa Lucia","NL_NAME_3":null,"VARNAME_3":null,"TYPE_3":"Barangay","ENGTYPE_3":"Village","PROVINCE":"Cebu","REGION":"Region VII (Central Visayas)","id":"barangay-0702206022","name":"Santa Lucia","barangayCode":"0702206022","population":null,"formattedPop":null,"densityCategory":"No data","vulnerabilityRating":"No data","healthRiskLevel":"No data","areaKm2":4.155366,"centerLat":10.640491,"centerLng":123.759701,"geometrySource":"all_barangay-2.csv detailed WKT","geometryMatchMethod":"unique_official_admin_names","boundaryPointCount":91},"geometry":{"type":"MultiPolygon","coordinates":[[[[123.770302,10.6489],[123.765862,10.63809],[123.763367,10.63427],[123.760399,10.6297],[123.759628,10.63003],[123.758423,10.63032],[123.757683,10.63044],[123.756821,10.63021],[123.755852,10.62959],[123.754997,10.62897],[123.753891,10.62903],[123.753036,10.62986],[123.752724,10.63047],[123.752319,10.63138],[123.752083,10.632],[123.751442,10.63277],[123.750282,10.63337],[123.749702,10.63408],[123.749336,10.63434],[123.748253,10.63496],[123.747398,10.63561],[123.746742,10.63587],[123.746513,10.6356],[123.746162,10.63567],[123.745667,10.63574],[123.744347,10.63574],[123.744003,10.63602],[123.744278,10.63629],[123.744629,10.63643],[123.744972,10.6365],[123.745392,10.63664],[123.745667,10.63678],[123.74588,10.63699],[123.746231,10.6374],[123.74707,10.63809],[123.747337,10.63823],[123.747627,10.63844],[123.747902,10.63899],[123.748466,10.63945],[123.749161,10.63982],[123.749847,10.64017],[123.750137,10.6403],[123.750664,10.64082],[123.750877,10.64111],[123.751053,10.64132],[123.751312,10.64138],[123.751633,10.64142],[123.751961,10.64157],[123.752319,10.64178],[123.752617,10.64209],[123.752838,10.64246],[123.752876,10.64248],[123.753098,10.64292],[123.753387,10.6433],[123.75354,10.64349],[123.753677,10.64366],[123.753868,10.64396],[123.753937,10.64403],[123.754189,10.64438],[123.754448,10.6447],[123.754692,10.64477],[123.754898,10.64483],[123.755241,10.64504],[123.755386,10.64532],[123.755386,10.64543],[123.755386,10.64566],[123.75531,10.64587],[123.755096,10.64622],[123.754898,10.64649],[123.754822,10.64677],[123.754898,10.64766],[123.754997,10.64792],[123.755257,10.6483],[123.755653,10.64868],[123.756187,10.64896],[123.756767,10.64919],[123.757294,10.64947],[123.757721,10.64983],[123.758034,10.65026],[123.758278,10.65069],[123.758339,10.6509],[123.75872,10.65095],[123.759453,10.65103],[123.759941,10.65106],[123.760239,10.65108],[123.76046,10.65108],[123.760643,10.6512],[123.761833,10.65089],[123.762863,10.65107],[123.765091,10.65035],[123.770302,10.6489]]]]}},{"type":"Feature","properties":{"ID_0":177,"ISO":"PHL","NAME_0":"Philippines","ID_1":7022,"NAME_1":"Cebu","ID_2":702206,"NAME_2":"Asturias","ID_3":702206023,"NAME_3":"Santa Rita","NL_NAME_3":null,"VARNAME_3":null,"TYPE_3":"Barangay","ENGTYPE_3":"Village","PROVINCE":"Cebu","REGION":"Region VII (Central Visayas)","id":"barangay-0702206023","name":"Santa Rita","barangayCode":"0702206023","population":null,"formattedPop":null,"densityCategory":"No data","vulnerabilityRating":"No data","healthRiskLevel":"No data","areaKm2":2.795875,"centerLat":10.610737,"centerLng":123.792081,"geometrySource":"all_barangay-2.csv detailed WKT","geometryMatchMethod":"unique_official_admin_names","boundaryPointCount":95},"geometry":{"type":"MultiPolygon","coordinates":[[[[123.830048,10.61726],[123.825157,10.60579],[123.824417,10.60577],[123.823578,10.60533],[123.82373,10.60447],[123.824493,10.60394],[123.824951,10.60358],[123.825722,10.60281],[123.825378,10.6019],[123.824669,10.60165],[123.823517,10.60193],[123.823036,10.60234],[123.822456,10.60298],[123.821808,10.60312],[123.821121,10.60268],[123.820396,10.60153],[123.820351,10.60072],[123.820183,10.60005],[123.819923,10.59967],[123.819801,10.59962],[123.818298,10.60007],[123.817139,10.60013],[123.816017,10.60033],[123.815773,10.60094],[123.815964,10.60134],[123.815773,10.60192],[123.815559,10.60251],[123.814987,10.60241],[123.814667,10.60204],[123.814369,10.60163],[123.814278,10.60113],[123.814133,10.59976],[123.813843,10.5977],[123.813133,10.59687],[123.812553,10.59687],[123.812233,10.59726],[123.812027,10.59774],[123.811996,10.59876],[123.812141,10.59965],[123.812073,10.60107],[123.811729,10.60215],[123.811287,10.60275],[123.810402,10.60361],[123.809486,10.60414],[123.808548,10.60446],[123.807503,10.60445],[123.806396,10.604],[123.805313,10.60296],[123.803886,10.60173],[123.802483,10.60157],[123.802048,10.60201],[123.80143,10.60197],[123.800423,10.60201],[123.800163,10.60247],[123.799408,10.60339],[123.798424,10.60344],[123.797417,10.60321],[123.795937,10.6036],[123.795059,10.60392],[123.800034,10.63085],[123.800911,10.63129],[123.801888,10.63116],[123.802673,10.63086],[123.803352,10.63059],[123.804626,10.62954],[123.806091,10.62819],[123.807632,10.62695],[123.8088,10.62659],[123.810417,10.62653],[123.811447,10.62581],[123.812279,10.62517],[123.813889,10.62435],[123.81472,10.62313],[123.815788,10.62202],[123.816521,10.62106],[123.817574,10.62109],[123.81826,10.62155],[123.818932,10.62084],[123.819008,10.61995],[123.819481,10.61919],[123.820343,10.61847],[123.821228,10.61802],[123.821579,10.61684],[123.821823,10.61607],[123.822601,10.61536],[123.822983,10.61527],[123.824898,10.61552],[123.826363,10.61619],[123.826736,10.61737],[123.827026,10.6187],[123.8274,10.61954],[123.828171,10.61938],[123.82901,10.61833],[123.82917,10.61806],[123.830048,10.61726]]]]}},{"type":"Feature","properties":{"ID_0":177,"ISO":"PHL","NAME_0":"Philippines","ID_1":7022,"NAME_1":"Cebu","ID_2":702206,"NAME_2":"Asturias","ID_3":702206024,"NAME_3":"Tag-amakan","NL_NAME_3":null,"VARNAME_3":null,"TYPE_3":"Barangay","ENGTYPE_3":"Village","PROVINCE":"Cebu","REGION":"Region VII (Central Visayas)","id":"barangay-0702206024","name":"Tag-amakan","barangayCode":"0702206024","population":null,"formattedPop":null,"densityCategory":"No data","vulnerabilityRating":"No data","healthRiskLevel":"No data","areaKm2":8.320372,"centerLat":10.545792,"centerLng":123.81739,"geometrySource":"all_barangay-2.csv detailed WKT","geometryMatchMethod":"unique_official_admin_names","boundaryPointCount":48},"geometry":{"type":"MultiPolygon","coordinates":[[[[123.811577,10.56183],[123.839729,10.5702],[123.841278,10.54403],[123.840492,10.54299],[123.839851,10.54246],[123.83889,10.54195],[123.838043,10.54053],[123.838654,10.53943],[123.839417,10.53889],[123.84024,10.53823],[123.840317,10.53718],[123.840271,10.53629],[123.839706,10.53673],[123.83902,10.53648],[123.839043,10.53467],[123.83886,10.53383],[123.838142,10.53364],[123.837242,10.53431],[123.8358,10.53591],[123.835258,10.53512],[123.834259,10.53502],[123.833771,10.53611],[123.833252,10.53726],[123.832474,10.5374],[123.830902,10.53727],[123.830276,10.53708],[123.829247,10.53724],[123.828484,10.53747],[123.826599,10.53755],[123.824837,10.53746],[123.822769,10.53752],[123.821327,10.53676],[123.820152,10.53697],[123.819008,10.5377],[123.817657,10.5388],[123.816322,10.54016],[123.815842,10.54114],[123.815086,10.54089],[123.814743,10.54002],[123.815117,10.53868],[123.815323,10.53847],[123.814713,10.53737],[123.813797,10.53805],[123.812668,10.5361],[123.812141,10.53517],[123.810699,10.53463],[123.808922,10.53466],[123.811577,10.56183]]]]}},{"type":"Feature","properties":{"ID_0":177,"ISO":"PHL","NAME_0":"Philippines","ID_1":7022,"NAME_1":"Cebu","ID_2":702206,"NAME_2":"Asturias","ID_3":702206025,"NAME_3":"Tagbubonga","NL_NAME_3":null,"VARNAME_3":null,"TYPE_3":"Barangay","ENGTYPE_3":"Village","PROVINCE":"Cebu","REGION":"Region VII (Central Visayas)","id":"barangay-0702206025","name":"Tagbubonga","barangayCode":"0702206025","population":null,"formattedPop":null,"densityCategory":"No data","vulnerabilityRating":"No data","healthRiskLevel":"No data","areaKm2":4.23985,"centerLat":10.54466,"centerLng":123.843501,"geometrySource":"all_barangay-2.csv detailed WKT","geometryMatchMethod":"unique_official_admin_names","boundaryPointCount":63},"geometry":{"type":"MultiPolygon","coordinates":[[[[123.839729,10.5702],[123.858032,10.57403],[123.86335,10.54326],[123.862923,10.54247],[123.863136,10.54201],[123.86248,10.5416],[123.861992,10.5421],[123.861267,10.54197],[123.861107,10.54127],[123.860657,10.54088],[123.860298,10.54109],[123.859871,10.54159],[123.859398,10.54133],[123.859528,10.54093],[123.859306,10.54045],[123.858803,10.54067],[123.858543,10.5414],[123.858467,10.54192],[123.858292,10.54218],[123.857422,10.5421],[123.85704,10.54195],[123.856461,10.542],[123.85598,10.54259],[123.85511,10.54254],[123.854698,10.54188],[123.854637,10.54135],[123.854286,10.5409],[123.853607,10.54076],[123.853233,10.54019],[123.853813,10.53977],[123.854141,10.53974],[123.854408,10.5393],[123.854408,10.53926],[123.85405,10.53825],[123.853821,10.53754],[123.853073,10.53694],[123.852188,10.5377],[123.851669,10.53735],[123.851044,10.5376],[123.850952,10.53851],[123.851158,10.5392],[123.850739,10.54],[123.849564,10.54015],[123.849152,10.53966],[123.848717,10.53873],[123.848427,10.53759],[123.848122,10.53668],[123.847733,10.53644],[123.846474,10.53688],[123.845093,10.53631],[123.842979,10.53585],[123.841164,10.53598],[123.840271,10.53629],[123.840317,10.53718],[123.84024,10.53823],[123.839417,10.53889],[123.838654,10.53943],[123.838043,10.54053],[123.83889,10.54195],[123.839851,10.54246],[123.840492,10.54299],[123.841278,10.54403],[123.839729,10.5702]]]]}},{"type":"Feature","properties":{"ID_0":177,"ISO":"PHL","NAME_0":"Philippines","ID_1":7022,"NAME_1":"Cebu","ID_2":702206,"NAME_2":"Asturias","ID_3":702206026,"NAME_3":"Tubigagmanok","NL_NAME_3":null,"VARNAME_3":null,"TYPE_3":"Barangay","ENGTYPE_3":"Village","PROVINCE":"Cebu","REGION":"Region VII (Central Visayas)","id":"barangay-0702206026","name":"Tubigagmanok","barangayCode":"0702206026","population":null,"formattedPop":null,"densityCategory":"No data","vulnerabilityRating":"No data","healthRiskLevel":"No data","areaKm2":4.295111,"centerLat":10.61795,"centerLng":123.750256,"geometrySource":"all_barangay-2.csv detailed WKT","geometryMatchMethod":"unique_official_admin_names","boundaryPointCount":59},"geometry":{"type":"MultiPolygon","coordinates":[[[[123.760399,10.6297],[123.762733,10.61454],[123.757347,10.60046],[123.744057,10.60757],[123.744141,10.60782],[123.744293,10.6083],[123.744492,10.60865],[123.744766,10.6092],[123.745331,10.61037],[123.745667,10.61127],[123.746582,10.61342],[123.7472,10.61483],[123.747292,10.615],[123.747482,10.61666],[123.747414,10.61874],[123.746651,10.62074],[123.745811,10.6224],[123.745247,10.62365],[123.744827,10.62482],[123.743652,10.62648],[123.742393,10.62786],[123.741417,10.62897],[123.74086,10.63063],[123.741119,10.63144],[123.741211,10.63173],[123.741379,10.63249],[123.741493,10.63298],[123.741837,10.63367],[123.742264,10.63422],[123.742737,10.63457],[123.743103,10.63464],[123.743553,10.63464],[123.744904,10.63464],[123.745193,10.63484],[123.745392,10.63505],[123.745811,10.63519],[123.746078,10.63522],[123.746368,10.63526],[123.746513,10.6354],[123.746513,10.6356],[123.746742,10.63587],[123.747398,10.63561],[123.748253,10.63496],[123.749336,10.63434],[123.749702,10.63408],[123.750282,10.63337],[123.751442,10.63277],[123.752083,10.632],[123.752319,10.63138],[123.752724,10.63047],[123.753036,10.62986],[123.753891,10.62903],[123.754997,10.62897],[123.755852,10.62959],[123.756821,10.63021],[123.757683,10.63044],[123.758423,10.63032],[123.759628,10.63003],[123.760399,10.6297]]]]}},{"type":"Feature","properties":{"ID_0":177,"ISO":"PHL","NAME_0":"Philippines","ID_1":7022,"NAME_1":"Cebu","ID_2":702206,"NAME_2":"Asturias","ID_3":702206027,"NAME_3":"Tubod","NL_NAME_3":null,"VARNAME_3":null,"TYPE_3":"Barangay","ENGTYPE_3":"Village","PROVINCE":"Cebu","REGION":"Region VII (Central Visayas)","id":"barangay-0702206027","name":"Tubod","barangayCode":"0702206027","population":null,"formattedPop":null,"densityCategory":"No data","vulnerabilityRating":"No data","healthRiskLevel":"No data","areaKm2":4.205125,"centerLat":10.580791,"centerLng":123.761851,"geometrySource":"all_barangay-2.csv detailed WKT","geometryMatchMethod":"unique_official_admin_names","boundaryPointCount":6},"geometry":{"type":"MultiPolygon","coordinates":[[[[123.771393,10.59235],[123.758438,10.56684],[123.744873,10.57021],[123.751297,10.58437],[123.757347,10.60046],[123.771393,10.59235]]]]}},{"type":"Feature","properties":{"ID_0":177,"ISO":"PHL","NAME_0":"Philippines","ID_1":7022,"NAME_1":"Cebu","ID_2":702206,"NAME_2":"Asturias","ID_3":702206028,"NAME_3":"Ubogon","NL_NAME_3":null,"VARNAME_3":null,"TYPE_3":"Barangay","ENGTYPE_3":"Village","PROVINCE":"Cebu","REGION":"Region VII (Central Visayas)","id":"barangay-0702206028","name":"Ubogon","barangayCode":"0702206028","population":null,"formattedPop":null,"densityCategory":"No data","vulnerabilityRating":"No data","healthRiskLevel":"No data","areaKm2":3.956088,"centerLat":10.552981,"centerLng":123.786222,"geometrySource":"all_barangay-2.csv detailed WKT","geometryMatchMethod":"unique_official_admin_names","boundaryPointCount":40},"geometry":{"type":"MultiPolygon","coordinates":[[[[123.793289,10.56724],[123.811577,10.56183],[123.808922,10.53466],[123.807762,10.53508],[123.806847,10.5359],[123.806488,10.53688],[123.80571,10.5383],[123.805962,10.53991],[123.806053,10.54076],[123.805031,10.54173],[123.803886,10.54322],[123.80265,10.54374],[123.802292,10.54376],[123.801849,10.54333],[123.800926,10.54302],[123.799881,10.54302],[123.798714,10.54351],[123.798332,10.54497],[123.797302,10.54582],[123.79644,10.546],[123.79435,10.54594],[123.79258,10.54623],[123.791267,10.5468],[123.79039,10.54769],[123.788986,10.5489],[123.787842,10.54949],[123.786751,10.5497],[123.785439,10.54958],[123.784691,10.54926],[123.78334,10.54929],[123.781502,10.54986],[123.78067,10.54999],[123.779358,10.5501],[123.778511,10.55095],[123.777557,10.55146],[123.776299,10.55123],[123.77494,10.55109],[123.773552,10.55074],[123.77623,10.56217],[123.793289,10.56724]]]]}}]}
