{"type":"FeatureCollection","features":[{"type":"Feature","properties":{"ID_0":177,"ISO":"PHL","NAME_0":"Philippines","ID_1":9072,"NAME_1":"Zamboanga del Norte","ID_2":907203,"NAME_2":"Katipunan","ID_3":907203001,"NAME_3":"Balok","NL_NAME_3":null,"VARNAME_3":null,"TYPE_3":"Barangay","ENGTYPE_3":"Village","PROVINCE":"Zamboanga del Norte","REGION":"Region IX (Zamboanga Peninsula)","id":"barangay-0907203001","name":"Balok","barangayCode":"0907203001","population":null,"formattedPop":null,"densityCategory":"No data","vulnerabilityRating":"No data","healthRiskLevel":"No data","areaKm2":15.492714,"centerLat":8.405941,"centerLng":123.243364,"geometrySource":"all_barangay-2.csv detailed WKT","geometryMatchMethod":"unique_official_admin_names","boundaryPointCount":12},"geometry":{"type":"MultiPolygon","coordinates":[[[[123.258537,8.4454],[123.266357,8.42493],[123.269257,8.41937],[123.26516,8.40503],[123.260696,8.39528],[123.25634,8.38488],[123.223747,8.36881],[123.248787,8.41094],[123.253197,8.41854],[123.253082,8.43904],[123.253754,8.44549],[123.258537,8.4454]]]]}},{"type":"Feature","properties":{"ID_0":177,"ISO":"PHL","NAME_0":"Philippines","ID_1":9072,"NAME_1":"Zamboanga del Norte","ID_2":907203,"NAME_2":"Katipunan","ID_3":907203002,"NAME_3":"Basagan","NL_NAME_3":null,"VARNAME_3":null,"TYPE_3":"Barangay","ENGTYPE_3":"Village","PROVINCE":"Zamboanga del Norte","REGION":"Region IX (Zamboanga Peninsula)","id":"barangay-0907203002","name":"Basagan","barangayCode":"0907203002","population":null,"formattedPop":null,"densityCategory":"No data","vulnerabilityRating":"No data","healthRiskLevel":"No data","areaKm2":5.243752,"centerLat":8.473185,"centerLng":123.310844,"geometrySource":"all_barangay-2.csv detailed WKT","geometryMatchMethod":"unique_official_admin_names","boundaryPointCount":11},"geometry":{"type":"MultiPolygon","coordinates":[[[[123.328598,8.492],[123.32756,8.48763],[123.329857,8.48199],[123.324539,8.47994],[123.322388,8.47681],[123.319893,8.47435],[123.317703,8.47371],[123.313873,8.47042],[123.31163,8.47048],[123.309929,8.48774],[123.328598,8.492]]]]}},{"type":"Feature","properties":{"ID_0":177,"ISO":"PHL","NAME_0":"Philippines","ID_1":9072,"NAME_1":"Zamboanga del Norte","ID_2":907203,"NAME_2":"Katipunan","ID_3":907203003,"NAME_3":"Biniray","NL_NAME_3":null,"VARNAME_3":null,"TYPE_3":"Barangay","ENGTYPE_3":"Village","PROVINCE":"Zamboanga del Norte","REGION":"Region IX (Zamboanga Peninsula)","id":"barangay-0907203003","name":"Biniray","barangayCode":"0907203003","population":null,"formattedPop":null,"densityCategory":"No data","vulnerabilityRating":"No data","healthRiskLevel":"No data","areaKm2":3.955342,"centerLat":8.474854,"centerLng":123.285504,"geometrySource":"all_barangay-2.csv detailed WKT","geometryMatchMethod":"unique_official_admin_names","boundaryPointCount":14},"geometry":{"type":"MultiPolygon","coordinates":[[[[123.282753,8.48526],[123.28894,8.48529],[123.291817,8.48474],[123.291969,8.48099],[123.292969,8.4781],[123.295738,8.47352],[123.296494,8.46916],[123.294258,8.46619],[123.292686,8.466],[123.291054,8.46568],[123.288231,8.46331],[123.284752,8.4632],[123.285454,8.47459],[123.282753,8.48526]]]]}},{"type":"Feature","properties":{"ID_0":177,"ISO":"PHL","NAME_0":"Philippines","ID_1":9072,"NAME_1":"Zamboanga del Norte","ID_2":907203,"NAME_2":"Katipunan","ID_3":907203004,"NAME_3":"Bulawan","NL_NAME_3":null,"VARNAME_3":null,"TYPE_3":"Barangay","ENGTYPE_3":"Village","PROVINCE":"Zamboanga del Norte","REGION":"Region IX (Zamboanga Peninsula)","id":"barangay-0907203004","name":"Bulawan","barangayCode":"0907203004","population":null,"formattedPop":null,"densityCategory":"No data","vulnerabilityRating":"No data","healthRiskLevel":"No data","areaKm2":26.081092,"centerLat":8.36908,"centerLng":123.260261,"geometrySource":"all_barangay-2.csv detailed WKT","geometryMatchMethod":"unique_official_admin_names","boundaryPointCount":26},"geometry":{"type":"MultiPolygon","coordinates":[[[[123.278503,8.42035],[123.279793,8.41993],[123.282143,8.42098],[123.285873,8.4227],[123.286339,8.42074],[123.284477,8.41883],[123.282181,8.41547],[123.283813,8.41371],[123.285683,8.41319],[123.28968,8.41209],[123.289871,8.41104],[123.290062,8.40999],[123.28952,8.40558],[123.289391,8.40288],[123.289284,8.40073],[123.290787,8.39778],[123.295227,8.39827],[123.295013,8.39619],[123.293617,8.39254],[123.290779,8.38665],[123.279167,8.38509],[123.25634,8.38488],[123.260696,8.39528],[123.26516,8.40503],[123.269257,8.41937],[123.278503,8.42035]]]]}},{"type":"Feature","properties":{"ID_0":177,"ISO":"PHL","NAME_0":"Philippines","ID_1":9072,"NAME_1":"Zamboanga del Norte","ID_2":907203,"NAME_2":"Katipunan","ID_3":907203005,"NAME_3":"Daanglungsod","NL_NAME_3":null,"VARNAME_3":null,"TYPE_3":"Barangay","ENGTYPE_3":"Village","PROVINCE":"Zamboanga del Norte","REGION":"Region IX (Zamboanga Peninsula)","id":"barangay-0907203005","name":"Daanglungsod","barangayCode":"0907203005","population":null,"formattedPop":null,"densityCategory":"No data","vulnerabilityRating":"No data","healthRiskLevel":"No data","areaKm2":1.212982,"centerLat":8.506121,"centerLng":123.304804,"geometrySource":"all_barangay-2.csv detailed WKT","geometryMatchMethod":"unique_official_admin_names","boundaryPointCount":15},"geometry":{"type":"MultiPolygon","coordinates":[[[[123.315353,8.51499],[123.314743,8.51086],[123.316483,8.50729],[123.310493,8.50328],[123.307961,8.5004],[123.306053,8.50026],[123.303886,8.49938],[123.300621,8.50077],[123.298882,8.50323],[123.300369,8.50433],[123.301369,8.50507],[123.302238,8.50702],[123.301361,8.5094],[123.305603,8.51279],[123.315353,8.51499]]]]}},{"type":"Feature","properties":{"ID_0":177,"ISO":"PHL","NAME_0":"Philippines","ID_1":9072,"NAME_1":"Zamboanga del Norte","ID_2":907203,"NAME_2":"Katipunan","ID_3":907203006,"NAME_3":"Dabiak","NL_NAME_3":null,"VARNAME_3":null,"TYPE_3":"Barangay","ENGTYPE_3":"Village","PROVINCE":"Zamboanga del Norte","REGION":"Region IX (Zamboanga Peninsula)","id":"barangay-0907203006","name":"Dabiak","barangayCode":"0907203006","population":null,"formattedPop":null,"densityCategory":"No data","vulnerabilityRating":"No data","healthRiskLevel":"No data","areaKm2":11.856586,"centerLat":8.339224,"centerLng":123.286538,"geometrySource":"all_barangay-2.csv detailed WKT","geometryMatchMethod":"unique_official_admin_names","boundaryPointCount":20},"geometry":{"type":"MultiPolygon","coordinates":[[[[123.30085,8.3646],[123.300949,8.35256],[123.300087,8.33105],[123.283386,8.33155],[123.282066,8.3364],[123.282112,8.33748],[123.279953,8.34121],[123.278839,8.34435],[123.283447,8.34761],[123.286362,8.34973],[123.284752,8.35188],[123.28286,8.35528],[123.280418,8.35762],[123.282204,8.35974],[123.284981,8.35948],[123.286247,8.36209],[123.286888,8.36473],[123.291183,8.3653],[123.292053,8.36407],[123.30085,8.3646]]]]}},{"type":"Feature","properties":{"ID_0":177,"ISO":"PHL","NAME_0":"Philippines","ID_1":9072,"NAME_1":"Zamboanga del Norte","ID_2":907203,"NAME_2":"Katipunan","ID_3":907203007,"NAME_3":"Dr. Jose Rizal","NL_NAME_3":null,"VARNAME_3":null,"TYPE_3":"Barangay","ENGTYPE_3":"Village","PROVINCE":"Zamboanga del Norte","REGION":"Region IX (Zamboanga Peninsula)","id":"barangay-0907203007","name":"Dr. Jose Rizal","barangayCode":"0907203007","population":null,"formattedPop":null,"densityCategory":"No data","vulnerabilityRating":"No data","healthRiskLevel":"No data","areaKm2":2.280922,"centerLat":8.502564,"centerLng":123.294766,"geometrySource":"all_barangay-2.csv detailed WKT","geometryMatchMethod":"unique_official_admin_names","boundaryPointCount":15},"geometry":{"type":"MultiPolygon","coordinates":[[[[123.298882,8.50323],[123.300621,8.50077],[123.303886,8.49938],[123.301537,8.49602],[123.300209,8.49257],[123.298637,8.48885],[123.29599,8.48662],[123.291817,8.48474],[123.28894,8.48529],[123.290451,8.49143],[123.292213,8.49784],[123.294121,8.50314],[123.295937,8.50317],[123.296066,8.50317],[123.298882,8.50323]]]]}},{"type":"Feature","properties":{"ID_0":177,"ISO":"PHL","NAME_0":"Philippines","ID_1":9072,"NAME_1":"Zamboanga del Norte","ID_2":907203,"NAME_2":"Katipunan","ID_3":907203008,"NAME_3":"Fimagas","NL_NAME_3":null,"VARNAME_3":null,"TYPE_3":"Barangay","ENGTYPE_3":"Village","PROVINCE":"Zamboanga del Norte","REGION":"Region IX (Zamboanga Peninsula)","id":"barangay-0907203008","name":"Fimagas","barangayCode":"0907203008","population":null,"formattedPop":null,"densityCategory":"No data","vulnerabilityRating":"No data","healthRiskLevel":"No data","areaKm2":20.733893,"centerLat":8.322244,"centerLng":123.21967,"geometrySource":"all_barangay-2.csv detailed WKT","geometryMatchMethod":"unique_official_admin_names","boundaryPointCount":7},"geometry":{"type":"MultiPolygon","coordinates":[[[[123.253563,8.36759],[123.251678,8.34945],[123.24807,8.3313],[123.196983,8.33031],[123.223747,8.36881],[123.239754,8.36941],[123.253563,8.36759]]]]}},{"type":"Feature","properties":{"ID_0":177,"ISO":"PHL","NAME_0":"Philippines","ID_1":9072,"NAME_1":"Zamboanga del Norte","ID_2":907203,"NAME_2":"Katipunan","ID_3":907203009,"NAME_3":"Malugas","NL_NAME_3":null,"VARNAME_3":null,"TYPE_3":"Barangay","ENGTYPE_3":"Village","PROVINCE":"Zamboanga del Norte","REGION":"Region IX (Zamboanga Peninsula)","id":"barangay-0907203009","name":"Malugas","barangayCode":"0907203009","population":null,"formattedPop":null,"densityCategory":"No data","vulnerabilityRating":"No data","healthRiskLevel":"No data","areaKm2":3.674321,"centerLat":8.495284,"centerLng":123.31675,"geometrySource":"all_barangay-2.csv detailed WKT","geometryMatchMethod":"unique_official_admin_names","boundaryPointCount":11},"geometry":{"type":"MultiPolygon","coordinates":[[[[123.307961,8.5004],[123.310493,8.50328],[123.316483,8.50729],[123.318336,8.50569],[123.325844,8.50222],[123.327293,8.50031],[123.325851,8.49686],[123.327232,8.49477],[123.328598,8.492],[123.309929,8.48774],[123.307961,8.5004]]]]}},{"type":"Feature","properties":{"ID_0":177,"ISO":"PHL","NAME_0":"Philippines","ID_1":9072,"NAME_1":"Zamboanga del Norte","ID_2":907203,"NAME_2":"Katipunan","ID_3":907203010,"NAME_3":"Malasay","NL_NAME_3":null,"VARNAME_3":null,"TYPE_3":"Barangay","ENGTYPE_3":"Village","PROVINCE":"Zamboanga del Norte","REGION":"Region IX (Zamboanga Peninsula)","id":"barangay-0907203010","name":"Malasay","barangayCode":"0907203010","population":null,"formattedPop":null,"densityCategory":"No data","vulnerabilityRating":"No data","healthRiskLevel":"No data","areaKm2":13.88009,"centerLat":8.359747,"centerLng":123.226338,"geometrySource":"all_barangay-2.csv detailed WKT","geometryMatchMethod":"unique_official_admin_names","boundaryPointCount":18},"geometry":{"type":"MultiPolygon","coordinates":[[[[123.290779,8.38665],[123.292183,8.38529],[123.293358,8.38326],[123.296661,8.38164],[123.298737,8.38033],[123.297333,8.37664],[123.294533,8.37283],[123.292892,8.37171],[123.289597,8.3689],[123.284264,8.36952],[123.273132,8.36812],[123.261879,8.36745],[123.253563,8.36759],[123.239754,8.36941],[123.223747,8.36881],[123.25634,8.38488],[123.279167,8.38509],[123.290779,8.38665]]]]}},{"type":"Feature","properties":{"ID_0":177,"ISO":"PHL","NAME_0":"Philippines","ID_1":9072,"NAME_1":"Zamboanga del Norte","ID_2":907203,"NAME_2":"Katipunan","ID_3":907203011,"NAME_3":"Matam","NL_NAME_3":null,"VARNAME_3":null,"TYPE_3":"Barangay","ENGTYPE_3":"Village","PROVINCE":"Zamboanga del Norte","REGION":"Region IX (Zamboanga Peninsula)","id":"barangay-0907203011","name":"Matam","barangayCode":"0907203011","population":null,"formattedPop":null,"densityCategory":"No data","vulnerabilityRating":"No data","healthRiskLevel":"No data","areaKm2":11.095355,"centerLat":8.440324,"centerLng":123.261223,"geometrySource":"all_barangay-2.csv detailed WKT","geometryMatchMethod":"unique_official_admin_names","boundaryPointCount":13},"geometry":{"type":"MultiPolygon","coordinates":[[[[123.270302,8.45768],[123.269234,8.45539],[123.266823,8.45326],[123.267273,8.45173],[123.268257,8.4505],[123.265297,8.44922],[123.26416,8.4471],[123.264587,8.44622],[123.258537,8.4454],[123.253754,8.44549],[123.25296,8.45766],[123.264999,8.45747],[123.270302,8.45768]]]]}},{"type":"Feature","properties":{"ID_0":177,"ISO":"PHL","NAME_0":"Philippines","ID_1":9072,"NAME_1":"Zamboanga del Norte","ID_2":907203,"NAME_2":"Katipunan","ID_3":907203012,"NAME_3":"Mias","NL_NAME_3":null,"VARNAME_3":null,"TYPE_3":"Barangay","ENGTYPE_3":"Village","PROVINCE":"Zamboanga del Norte","REGION":"Region IX (Zamboanga Peninsula)","id":"barangay-0907203012","name":"Mias","barangayCode":"0907203012","population":null,"formattedPop":null,"densityCategory":"No data","vulnerabilityRating":"No data","healthRiskLevel":"No data","areaKm2":5.59779,"centerLat":8.490669,"centerLng":123.279548,"geometrySource":"all_barangay-2.csv detailed WKT","geometryMatchMethod":"unique_official_admin_names","boundaryPointCount":16},"geometry":{"type":"MultiPolygon","coordinates":[[[[123.294121,8.50314],[123.292213,8.49784],[123.290451,8.49143],[123.28894,8.48529],[123.282753,8.48526],[123.278702,8.48554],[123.278778,8.48975],[123.279198,8.49319],[123.281067,8.49625],[123.283234,8.49821],[123.285393,8.49888],[123.286377,8.50086],[123.287483,8.5019],[123.289093,8.50342],[123.289513,8.50408],[123.294121,8.50314]]]]}},{"type":"Feature","properties":{"ID_0":177,"ISO":"PHL","NAME_0":"Philippines","ID_1":9072,"NAME_1":"Zamboanga del Norte","ID_2":907203,"NAME_2":"Katipunan","ID_3":907203013,"NAME_3":"Miatan","NL_NAME_3":null,"VARNAME_3":null,"TYPE_3":"Barangay","ENGTYPE_3":"Village","PROVINCE":"Zamboanga del Norte","REGION":"Region IX (Zamboanga Peninsula)","id":"barangay-0907203013","name":"Miatan","barangayCode":"0907203013","population":null,"formattedPop":null,"densityCategory":"No data","vulnerabilityRating":"No data","healthRiskLevel":"No data","areaKm2":7.769058,"centerLat":8.412209,"centerLng":123.274716,"geometrySource":"all_barangay-2.csv detailed WKT","geometryMatchMethod":"unique_official_admin_names","boundaryPointCount":19},"geometry":{"type":"MultiPolygon","coordinates":[[[[123.264587,8.44622],[123.267479,8.44585],[123.269127,8.44362],[123.272018,8.44158],[123.274902,8.44298],[123.278618,8.44343],[123.280006,8.44027],[123.27758,8.43598],[123.275833,8.43101],[123.278214,8.42728],[123.279648,8.42714],[123.281288,8.4265],[123.278603,8.42369],[123.278183,8.42231],[123.278503,8.42035],[123.269257,8.41937],[123.266357,8.42493],[123.258537,8.4454],[123.264587,8.44622]]]]}},{"type":"Feature","properties":{"ID_0":177,"ISO":"PHL","NAME_0":"Philippines","ID_1":9072,"NAME_1":"Zamboanga del Norte","ID_2":907203,"NAME_2":"Katipunan","ID_3":907203014,"NAME_3":"Nanginan","NL_NAME_3":null,"VARNAME_3":null,"TYPE_3":"Barangay","ENGTYPE_3":"Village","PROVINCE":"Zamboanga del Norte","REGION":"Region IX (Zamboanga Peninsula)","id":"barangay-0907203014","name":"Nanginan","barangayCode":"0907203014","population":null,"formattedPop":null,"densityCategory":"No data","vulnerabilityRating":"No data","healthRiskLevel":"No data","areaKm2":10.426534,"centerLat":8.471233,"centerLng":123.26131,"geometrySource":"all_barangay-2.csv detailed WKT","geometryMatchMethod":"unique_official_admin_names","boundaryPointCount":20},"geometry":{"type":"MultiPolygon","coordinates":[[[[123.278702,8.48554],[123.282753,8.48526],[123.285454,8.47459],[123.284752,8.4632],[123.283401,8.4638],[123.281288,8.46273],[123.278099,8.46038],[123.275719,8.45793],[123.273041,8.45822],[123.271103,8.45866],[123.270302,8.45768],[123.264999,8.45747],[123.25296,8.45766],[123.254204,8.47955],[123.254318,8.48248],[123.262428,8.4852],[123.267883,8.48537],[123.272774,8.48545],[123.272827,8.48545],[123.278702,8.48554]]]]}},{"type":"Feature","properties":{"ID_0":177,"ISO":"PHL","NAME_0":"Philippines","ID_1":9072,"NAME_1":"Zamboanga del Norte","ID_2":907203,"NAME_2":"Katipunan","ID_3":907203016,"NAME_3":"Barangay Uno","NL_NAME_3":null,"VARNAME_3":null,"TYPE_3":"Barangay","ENGTYPE_3":"Village","PROVINCE":"Zamboanga del Norte","REGION":"Region IX (Zamboanga Peninsula)","id":"barangay-0907203016","name":"Barangay Uno","barangayCode":"0907203016","population":null,"formattedPop":null,"densityCategory":"No data","vulnerabilityRating":"No data","healthRiskLevel":"No data","areaKm2":1.305186,"centerLat":8.507546,"centerLng":123.280956,"geometrySource":"all_barangay-2.csv detailed WKT","geometryMatchMethod":"unique_official_admin_names","boundaryPointCount":22},"geometry":{"type":"MultiPolygon","coordinates":[[[[123.280457,8.51293],[123.28167,8.51336],[123.282188,8.51349],[123.28273,8.51363],[123.283302,8.51376],[123.283897,8.51388],[123.284523,8.51398],[123.285202,8.51417],[123.285881,8.51436],[123.286568,8.5145],[123.286659,8.51453],[123.287018,8.51302],[123.288048,8.50793],[123.289513,8.50408],[123.289093,8.50342],[123.287483,8.5019],[123.286377,8.50086],[123.285393,8.49888],[123.283234,8.49821],[123.28022,8.50454],[123.280357,8.51164],[123.280457,8.51293]]]]}},{"type":"Feature","properties":{"ID_0":177,"ISO":"PHL","NAME_0":"Philippines","ID_1":9072,"NAME_1":"Zamboanga del Norte","ID_2":907203,"NAME_2":"Katipunan","ID_3":907203017,"NAME_3":"Barangay Dos","NL_NAME_3":null,"VARNAME_3":null,"TYPE_3":"Barangay","ENGTYPE_3":"Village","PROVINCE":"Zamboanga del Norte","REGION":"Region IX (Zamboanga Peninsula)","id":"barangay-0907203017","name":"Barangay Dos","barangayCode":"0907203017","population":null,"formattedPop":null,"densityCategory":"No data","vulnerabilityRating":"No data","healthRiskLevel":"No data","areaKm2":0.803087,"centerLat":8.511333,"centerLng":123.289612,"geometrySource":"all_barangay-2.csv detailed WKT","geometryMatchMethod":"unique_official_admin_names","boundaryPointCount":28},"geometry":{"type":"MultiPolygon","coordinates":[[[[123.286659,8.51453],[123.287216,8.51469],[123.287903,8.51479],[123.288513,8.51501],[123.289101,8.51528],[123.289673,8.51553],[123.29026,8.51569],[123.290817,8.51585],[123.291313,8.51604],[123.291389,8.51611],[123.291656,8.51611],[123.292801,8.51666],[123.294312,8.51713],[123.295807,8.51535],[123.296967,8.51387],[123.29879,8.51077],[123.301361,8.5094],[123.302238,8.50702],[123.301369,8.50507],[123.300369,8.50433],[123.298882,8.50323],[123.296066,8.50317],[123.295937,8.50317],[123.294121,8.50314],[123.289513,8.50408],[123.288048,8.50793],[123.287018,8.51302],[123.286659,8.51453]]]]}},{"type":"Feature","properties":{"ID_0":177,"ISO":"PHL","NAME_0":"Philippines","ID_1":9072,"NAME_1":"Zamboanga del Norte","ID_2":907203,"NAME_2":"Katipunan","ID_3":907203018,"NAME_3":"San Antonio","NL_NAME_3":null,"VARNAME_3":null,"TYPE_3":"Barangay","ENGTYPE_3":"Village","PROVINCE":"Zamboanga del Norte","REGION":"Region IX (Zamboanga Peninsula)","id":"barangay-0907203018","name":"San Antonio","barangayCode":"0907203018","population":null,"formattedPop":null,"densityCategory":"No data","vulnerabilityRating":"No data","healthRiskLevel":"No data","areaKm2":1.735913,"centerLat":8.515755,"centerLng":123.302969,"geometrySource":"all_barangay-2.csv detailed WKT","geometryMatchMethod":"unique_official_admin_names","boundaryPointCount":25},"geometry":{"type":"MultiPolygon","coordinates":[[[[123.305344,8.52501],[123.306099,8.52386],[123.306137,8.52391],[123.307732,8.52291],[123.309677,8.52349],[123.310738,8.5203],[123.312492,8.51833],[123.315353,8.51499],[123.305603,8.51279],[123.301361,8.5094],[123.29879,8.51077],[123.296967,8.51387],[123.295807,8.51535],[123.294312,8.51713],[123.294609,8.51722],[123.29586,8.51784],[123.297867,8.51867],[123.299477,8.51944],[123.300102,8.51999],[123.302773,8.52181],[123.303741,8.52285],[123.304161,8.52403],[123.304581,8.52465],[123.305267,8.52493],[123.305344,8.52501]]]]}},{"type":"Feature","properties":{"ID_0":177,"ISO":"PHL","NAME_0":"Philippines","ID_1":9072,"NAME_1":"Zamboanga del Norte","ID_2":907203,"NAME_2":"Katipunan","ID_3":907203019,"NAME_3":"Seres","NL_NAME_3":null,"VARNAME_3":null,"TYPE_3":"Barangay","ENGTYPE_3":"Village","PROVINCE":"Zamboanga del Norte","REGION":"Region IX (Zamboanga Peninsula)","id":"barangay-0907203019","name":"Seres","barangayCode":"0907203019","population":null,"formattedPop":null,"densityCategory":"No data","vulnerabilityRating":"No data","healthRiskLevel":"No data","areaKm2":14.701194,"centerLat":8.38275,"centerLng":123.328222,"geometrySource":"all_barangay-2.csv detailed WKT","geometryMatchMethod":"unique_official_admin_names","boundaryPointCount":9},"geometry":{"type":"MultiPolygon","coordinates":[[[[123.309067,8.40302],[123.32299,8.40768],[123.333893,8.39228],[123.339996,8.37873],[123.339539,8.36764],[123.326881,8.36768],[123.315353,8.36604],[123.312973,8.38228],[123.309067,8.40302]]]]}},{"type":"Feature","properties":{"ID_0":177,"ISO":"PHL","NAME_0":"Philippines","ID_1":9072,"NAME_1":"Zamboanga del Norte","ID_2":907203,"NAME_2":"Katipunan","ID_3":907203020,"NAME_3":"Seroan","NL_NAME_3":null,"VARNAME_3":null,"TYPE_3":"Barangay","ENGTYPE_3":"Village","PROVINCE":"Zamboanga del Norte","REGION":"Region IX (Zamboanga Peninsula)","id":"barangay-0907203020","name":"Seroan","barangayCode":"0907203020","population":null,"formattedPop":null,"densityCategory":"No data","vulnerabilityRating":"No data","healthRiskLevel":"No data","areaKm2":12.200449,"centerLat":8.345544,"centerLng":123.321262,"geometrySource":"all_barangay-2.csv detailed WKT","geometryMatchMethod":"unique_official_admin_names","boundaryPointCount":12},"geometry":{"type":"MultiPolygon","coordinates":[[[[123.339539,8.36764],[123.339653,8.36558],[123.334938,8.34884],[123.33403,8.341],[123.33416,8.3315],[123.330269,8.33119],[123.300087,8.33105],[123.300949,8.35256],[123.30085,8.3646],[123.315353,8.36604],[123.326881,8.36768],[123.339539,8.36764]]]]}},{"type":"Feature","properties":{"ID_0":177,"ISO":"PHL","NAME_0":"Philippines","ID_1":9072,"NAME_1":"Zamboanga del Norte","ID_2":907203,"NAME_2":"Katipunan","ID_3":907203021,"NAME_3":"Singatong","NL_NAME_3":null,"VARNAME_3":null,"TYPE_3":"Barangay","ENGTYPE_3":"Village","PROVINCE":"Zamboanga del Norte","REGION":"Region IX (Zamboanga Peninsula)","id":"barangay-0907203021","name":"Singatong","barangayCode":"0907203021","population":null,"formattedPop":null,"densityCategory":"No data","vulnerabilityRating":"No data","healthRiskLevel":"No data","areaKm2":6.486269,"centerLat":8.454952,"centerLng":123.289742,"geometrySource":"all_barangay-2.csv detailed WKT","geometryMatchMethod":"unique_official_admin_names","boundaryPointCount":34},"geometry":{"type":"MultiPolygon","coordinates":[[[[123.305359,8.46929],[123.305946,8.45507],[123.302742,8.43835],[123.29129,8.43793],[123.28434,8.43894],[123.281357,8.43964],[123.280006,8.44027],[123.278618,8.44343],[123.274902,8.44298],[123.272018,8.44158],[123.269127,8.44362],[123.267479,8.44585],[123.264587,8.44622],[123.26416,8.4471],[123.265297,8.44922],[123.268257,8.4505],[123.267273,8.45173],[123.266823,8.45326],[123.269234,8.45539],[123.270302,8.45768],[123.271103,8.45866],[123.273041,8.45822],[123.275719,8.45793],[123.278099,8.46038],[123.281288,8.46273],[123.283401,8.4638],[123.284752,8.4632],[123.288231,8.46331],[123.291054,8.46568],[123.292686,8.466],[123.294258,8.46619],[123.296494,8.46916],[123.298866,8.46996],[123.305359,8.46929]]]]}},{"type":"Feature","properties":{"ID_0":177,"ISO":"PHL","NAME_0":"Philippines","ID_1":9072,"NAME_1":"Zamboanga del Norte","ID_2":907203,"NAME_2":"Katipunan","ID_3":907203022,"NAME_3":"Sinuyak","NL_NAME_3":null,"VARNAME_3":null,"TYPE_3":"Barangay","ENGTYPE_3":"Village","PROVINCE":"Zamboanga del Norte","REGION":"Region IX (Zamboanga Peninsula)","id":"barangay-0907203022","name":"Sinuyak","barangayCode":"0907203022","population":null,"formattedPop":null,"densityCategory":"No data","vulnerabilityRating":"No data","healthRiskLevel":"No data","areaKm2":3.319731,"centerLat":8.429924,"centerLng":123.304432,"geometrySource":"all_barangay-2.csv detailed WKT","geometryMatchMethod":"unique_official_admin_names","boundaryPointCount":9},"geometry":{"type":"MultiPolygon","coordinates":[[[[123.31002,8.43905],[123.309677,8.43785],[123.3097,8.43328],[123.307487,8.42832],[123.308357,8.42716],[123.292999,8.42683],[123.29129,8.43793],[123.302742,8.43835],[123.31002,8.43905]]]]}},{"type":"Feature","properties":{"ID_0":177,"ISO":"PHL","NAME_0":"Philippines","ID_1":9072,"NAME_1":"Zamboanga del Norte","ID_2":907203,"NAME_2":"Katipunan","ID_3":907203023,"NAME_3":"Sitog","NL_NAME_3":null,"VARNAME_3":null,"TYPE_3":"Barangay","ENGTYPE_3":"Village","PROVINCE":"Zamboanga del Norte","REGION":"Region IX (Zamboanga Peninsula)","id":"barangay-0907203023","name":"Sitog","barangayCode":"0907203023","population":null,"formattedPop":null,"densityCategory":"No data","vulnerabilityRating":"No data","healthRiskLevel":"No data","areaKm2":22.138965,"centerLat":8.381049,"centerLng":123.298279,"geometrySource":"all_barangay-2.csv detailed WKT","geometryMatchMethod":"unique_official_admin_names","boundaryPointCount":20},"geometry":{"type":"MultiPolygon","coordinates":[[[[123.309067,8.40302],[123.312973,8.38228],[123.315353,8.36604],[123.30085,8.3646],[123.292053,8.36407],[123.289597,8.3689],[123.292892,8.37171],[123.294533,8.37283],[123.297333,8.37664],[123.298737,8.38033],[123.296661,8.38164],[123.293358,8.38326],[123.292183,8.38529],[123.290779,8.38665],[123.293617,8.39254],[123.295013,8.39619],[123.295227,8.39827],[123.304672,8.40151],[123.304733,8.40153],[123.309067,8.40302]]]]}},{"type":"Feature","properties":{"ID_0":177,"ISO":"PHL","NAME_0":"Philippines","ID_1":9072,"NAME_1":"Zamboanga del Norte","ID_2":907203,"NAME_2":"Katipunan","ID_3":907203024,"NAME_3":"Tuburan","NL_NAME_3":null,"VARNAME_3":null,"TYPE_3":"Barangay","ENGTYPE_3":"Village","PROVINCE":"Zamboanga del Norte","REGION":"Region IX (Zamboanga Peninsula)","id":"barangay-0907203024","name":"Tuburan","barangayCode":"0907203024","population":null,"formattedPop":null,"densityCategory":"No data","vulnerabilityRating":"No data","healthRiskLevel":"No data","areaKm2":2.85824,"centerLat":8.502914,"centerLng":123.260327,"geometrySource":"all_barangay-2.csv detailed WKT","geometryMatchMethod":"unique_official_admin_names","boundaryPointCount":47},"geometry":{"type":"MultiPolygon","coordinates":[[[[123.258293,8.5141],[123.258423,8.51407],[123.258949,8.51387],[123.259483,8.5137],[123.260002,8.51357],[123.26046,8.51338],[123.260948,8.51331],[123.261414,8.51318],[123.261887,8.51305],[123.262413,8.51292],[123.26297,8.51281],[123.263603,8.51278],[123.263924,8.51278],[123.264259,8.51278],[123.264954,8.51278],[123.265617,8.51274],[123.266197,8.51258],[123.266739,8.51247],[123.267174,8.5123],[123.267593,8.51223],[123.268021,8.51221],[123.268463,8.51218],[123.268913,8.51207],[123.269379,8.51197],[123.269829,8.51195],[123.270271,8.51199],[123.270714,8.51217],[123.271103,8.51214],[123.271248,8.5115],[123.273956,8.49989],[123.279198,8.49319],[123.278778,8.48975],[123.278702,8.48554],[123.272827,8.48545],[123.272774,8.48545],[123.267883,8.48537],[123.262428,8.4852],[123.254318,8.48248],[123.254066,8.49649],[123.255333,8.5053],[123.256233,8.50721],[123.257339,8.50915],[123.257187,8.51032],[123.257011,8.51176],[123.257263,8.51252],[123.257568,8.51346],[123.258293,8.5141]]]]}},{"type":"Feature","properties":{"ID_0":177,"ISO":"PHL","NAME_0":"Philippines","ID_1":9072,"NAME_1":"Zamboanga del Norte","ID_2":907203,"NAME_2":"Katipunan","ID_3":907203025,"NAME_3":"Carupay","NL_NAME_3":null,"VARNAME_3":null,"TYPE_3":"Barangay","ENGTYPE_3":"Village","PROVINCE":"Zamboanga del Norte","REGION":"Region IX (Zamboanga Peninsula)","id":"barangay-0907203025","name":"Carupay","barangayCode":"0907203025","population":null,"formattedPop":null,"densityCategory":"No data","vulnerabilityRating":"No data","healthRiskLevel":"No data","areaKm2":8.05798,"centerLat":8.326726,"centerLng":123.25716,"geometrySource":"all_barangay-2.csv detailed WKT","geometryMatchMethod":"unique_official_admin_names","boundaryPointCount":24},"geometry":{"type":"MultiPolygon","coordinates":[[[[123.289597,8.3689],[123.292053,8.36407],[123.291183,8.3653],[123.286888,8.36473],[123.286247,8.36209],[123.284981,8.35948],[123.282204,8.35974],[123.280418,8.35762],[123.28286,8.35528],[123.284752,8.35188],[123.286362,8.34973],[123.283447,8.34761],[123.278839,8.34435],[123.279953,8.34121],[123.282112,8.33748],[123.282066,8.3364],[123.283386,8.33155],[123.24807,8.3313],[123.251678,8.34945],[123.253563,8.36759],[123.261879,8.36745],[123.273132,8.36812],[123.284264,8.36952],[123.289597,8.3689]]]]}},{"type":"Feature","properties":{"ID_0":177,"ISO":"PHL","NAME_0":"Philippines","ID_1":9072,"NAME_1":"Zamboanga del Norte","ID_2":907203,"NAME_2":"Katipunan","ID_3":907203026,"NAME_3":"Loyuran","NL_NAME_3":null,"VARNAME_3":null,"TYPE_3":"Barangay","ENGTYPE_3":"Village","PROVINCE":"Zamboanga del Norte","REGION":"Region IX (Zamboanga Peninsula)","id":"barangay-0907203026","name":"Loyuran","barangayCode":"0907203026","population":null,"formattedPop":null,"densityCategory":"No data","vulnerabilityRating":"No data","healthRiskLevel":"No data","areaKm2":2.996797,"centerLat":8.452379,"centerLng":123.308263,"geometrySource":"all_barangay-2.csv detailed WKT","geometryMatchMethod":"unique_official_admin_names","boundaryPointCount":17},"geometry":{"type":"MultiPolygon","coordinates":[[[[123.317703,8.47371],[123.317467,8.46696],[123.320389,8.46356],[123.322456,8.45841],[123.320328,8.45626],[123.318283,8.45452],[123.314819,8.45056],[123.310402,8.44526],[123.31002,8.43905],[123.302742,8.43835],[123.305946,8.45507],[123.305359,8.46929],[123.307716,8.46844],[123.309196,8.46859],[123.31163,8.47048],[123.313873,8.47042],[123.317703,8.47371]]]]}},{"type":"Feature","properties":{"ID_0":177,"ISO":"PHL","NAME_0":"Philippines","ID_1":9072,"NAME_1":"Zamboanga del Norte","ID_2":907203,"NAME_2":"Katipunan","ID_3":907203027,"NAME_3":"New Tambo","NL_NAME_3":null,"VARNAME_3":null,"TYPE_3":"Barangay","ENGTYPE_3":"Village","PROVINCE":"Zamboanga del Norte","REGION":"Region IX (Zamboanga Peninsula)","id":"barangay-0907203027","name":"New Tambo","barangayCode":"0907203027","population":null,"formattedPop":null,"densityCategory":"No data","vulnerabilityRating":"No data","healthRiskLevel":"No data","areaKm2":1.927895,"centerLat":8.504845,"centerLng":123.270282,"geometrySource":"all_barangay-2.csv detailed WKT","geometryMatchMethod":"unique_official_admin_names","boundaryPointCount":17},"geometry":{"type":"MultiPolygon","coordinates":[[[[123.271103,8.51214],[123.271179,8.51214],[123.271713,8.51198],[123.272301,8.51199],[123.273857,8.512],[123.27636,8.51255],[123.278023,8.51258],[123.279556,8.5128],[123.280457,8.51293],[123.280357,8.51164],[123.28022,8.50454],[123.283234,8.49821],[123.281067,8.49625],[123.279198,8.49319],[123.273956,8.49989],[123.271248,8.5115],[123.271103,8.51214]]]]}},{"type":"Feature","properties":{"ID_0":177,"ISO":"PHL","NAME_0":"Philippines","ID_1":9072,"NAME_1":"Zamboanga del Norte","ID_2":907203,"NAME_2":"Katipunan","ID_3":907203028,"NAME_3":"Patik","NL_NAME_3":null,"VARNAME_3":null,"TYPE_3":"Barangay","ENGTYPE_3":"Village","PROVINCE":"Zamboanga del Norte","REGION":"Region IX (Zamboanga Peninsula)","id":"barangay-0907203028","name":"Patik","barangayCode":"0907203028","population":null,"formattedPop":null,"densityCategory":"No data","vulnerabilityRating":"No data","healthRiskLevel":"No data","areaKm2":4.510237,"centerLat":8.414876,"centerLng":123.307513,"geometrySource":"all_barangay-2.csv detailed WKT","geometryMatchMethod":"unique_official_admin_names","boundaryPointCount":30},"geometry":{"type":"MultiPolygon","coordinates":[[[[123.308357,8.42716],[123.309143,8.42324],[123.31443,8.41999],[123.318832,8.41585],[123.32299,8.40768],[123.309067,8.40302],[123.304733,8.40153],[123.304672,8.40151],[123.295227,8.39827],[123.290787,8.39778],[123.289284,8.40073],[123.289391,8.40288],[123.28952,8.40558],[123.290062,8.40999],[123.289871,8.41104],[123.28968,8.41209],[123.285683,8.41319],[123.283813,8.41371],[123.282181,8.41547],[123.284477,8.41883],[123.286339,8.42074],[123.285873,8.4227],[123.282143,8.42098],[123.279793,8.41993],[123.278503,8.42035],[123.278183,8.42231],[123.278603,8.42369],[123.281288,8.4265],[123.292999,8.42683],[123.308357,8.42716]]]]}},{"type":"Feature","properties":{"ID_0":177,"ISO":"PHL","NAME_0":"Philippines","ID_1":9072,"NAME_1":"Zamboanga del Norte","ID_2":907203,"NAME_2":"Katipunan","ID_3":907203029,"NAME_3":"Sanao","NL_NAME_3":null,"VARNAME_3":null,"TYPE_3":"Barangay","ENGTYPE_3":"Village","PROVINCE":"Zamboanga del Norte","REGION":"Region IX (Zamboanga Peninsula)","id":"barangay-0907203029","name":"Sanao","barangayCode":"0907203029","population":null,"formattedPop":null,"densityCategory":"No data","vulnerabilityRating":"No data","healthRiskLevel":"No data","areaKm2":6.329931,"centerLat":8.431418,"centerLng":123.288388,"geometrySource":"all_barangay-2.csv detailed WKT","geometryMatchMethod":"unique_official_admin_names","boundaryPointCount":11},"geometry":{"type":"MultiPolygon","coordinates":[[[[123.29129,8.43793],[123.292999,8.42683],[123.281288,8.4265],[123.279648,8.42714],[123.278214,8.42728],[123.275833,8.43101],[123.27758,8.43598],[123.280006,8.44027],[123.281357,8.43964],[123.28434,8.43894],[123.29129,8.43793]]]]}},{"type":"Feature","properties":{"ID_0":177,"ISO":"PHL","NAME_0":"Philippines","ID_1":9072,"NAME_1":"Zamboanga del Norte","ID_2":907203,"NAME_2":"Katipunan","ID_3":907203030,"NAME_3":"San Vicente","NL_NAME_3":null,"VARNAME_3":null,"TYPE_3":"Barangay","ENGTYPE_3":"Village","PROVINCE":"Zamboanga del Norte","REGION":"Region IX (Zamboanga Peninsula)","id":"barangay-0907203030","name":"San Vicente","barangayCode":"0907203030","population":null,"formattedPop":null,"densityCategory":"No data","vulnerabilityRating":"No data","healthRiskLevel":"No data","areaKm2":1.783535,"centerLat":8.492891,"centerLng":123.305192,"geometrySource":"all_barangay-2.csv detailed WKT","geometryMatchMethod":"unique_official_admin_names","boundaryPointCount":10},"geometry":{"type":"MultiPolygon","coordinates":[[[[123.307961,8.5004],[123.309929,8.48774],[123.30278,8.48663],[123.29599,8.48662],[123.298637,8.48885],[123.300209,8.49257],[123.301537,8.49602],[123.303886,8.49938],[123.306053,8.50026],[123.307961,8.5004]]]]}},{"type":"Feature","properties":{"ID_0":177,"ISO":"PHL","NAME_0":"Philippines","ID_1":9072,"NAME_1":"Zamboanga del Norte","ID_2":907203,"NAME_2":"Katipunan","ID_3":907203031,"NAME_3":"Santo Niño","NL_NAME_3":null,"VARNAME_3":"Santo Nino","TYPE_3":"Barangay","ENGTYPE_3":"Village","PROVINCE":"Zamboanga del Norte","REGION":"Region IX (Zamboanga Peninsula)","id":"barangay-0907203031","name":"Santo Niño","barangayCode":"0907203031","population":null,"formattedPop":null,"densityCategory":"No data","vulnerabilityRating":"No data","healthRiskLevel":"No data","areaKm2":2.360518,"centerLat":8.481063,"centerLng":123.298245,"geometrySource":"all_barangay-2.csv detailed WKT","geometryMatchMethod":"unique_official_admin_names","boundaryPointCount":14},"geometry":{"type":"MultiPolygon","coordinates":[[[[123.29599,8.48662],[123.30278,8.48663],[123.309929,8.48774],[123.31163,8.47048],[123.309196,8.46859],[123.307716,8.46844],[123.305359,8.46929],[123.298866,8.46996],[123.296494,8.46916],[123.295738,8.47352],[123.292969,8.4781],[123.291969,8.48099],[123.291817,8.48474],[123.29599,8.48662]]]]}}]}
