{"type":"FeatureCollection","features":[{"type":"Feature","properties":{"ID_0":177,"ISO":"PHL","NAME_0":"Philippines","ID_1":3054,"NAME_1":"Pampanga","ID_2":305408,"NAME_2":"Lubao","ID_3":305408001,"NAME_3":"Balantacan","NL_NAME_3":null,"VARNAME_3":null,"TYPE_3":"Barangay","ENGTYPE_3":"Village","PROVINCE":"Pampanga","REGION":"Region III (Central Luzon)","id":"barangay-0305408001","name":"Balantacan","barangayCode":"0305408001","population":null,"formattedPop":null,"densityCategory":"No data","vulnerabilityRating":"No data","healthRiskLevel":"No data","areaKm2":1.454533,"centerLat":14.894435,"centerLng":120.559758,"geometrySource":"all_barangay-2.csv detailed WKT","geometryMatchMethod":"unique_official_admin_names","boundaryPointCount":57},"geometry":{"type":"MultiPolygon","coordinates":[[[[120.586258,14.89842],[120.586739,14.89742],[120.587883,14.89686],[120.589737,14.89662],[120.591667,14.89714],[120.592484,14.89664],[120.593727,14.89652],[120.59481,14.89623],[120.595657,14.89522],[120.597168,14.89477],[120.598747,14.89511],[120.599586,14.89517],[120.60128,14.89461],[120.60302,14.89386],[120.603958,14.89357],[120.604897,14.89281],[120.605347,14.89178],[120.605888,14.89066],[120.605362,14.88921],[120.605011,14.8879],[120.605278,14.88689],[120.605766,14.88502],[120.606323,14.88405],[120.606262,14.88278],[120.605911,14.8806],[120.605614,14.87722],[120.603912,14.87679],[120.602364,14.87696],[120.600853,14.87772],[120.599113,14.87812],[120.597237,14.87769],[120.595558,14.87758],[120.594307,14.87696],[120.592812,14.87564],[120.591698,14.87438],[120.590057,14.87312],[120.588829,14.87245],[120.587624,14.87236],[120.586273,14.8719],[120.585312,14.87094],[120.584122,14.8699],[120.581757,14.87005],[120.576599,14.87484],[120.57637,14.87589],[120.576469,14.87693],[120.576569,14.87789],[120.575882,14.87874],[120.575394,14.87906],[120.574913,14.87978],[120.57444,14.88101],[120.574013,14.88207],[120.573311,14.88317],[120.572197,14.88371],[120.571533,14.88452],[120.570793,14.88571],[120.575562,14.88982],[120.586258,14.89842]]]]}},{"type":"Feature","properties":{"ID_0":177,"ISO":"PHL","NAME_0":"Philippines","ID_1":3054,"NAME_1":"Pampanga","ID_2":305408,"NAME_2":"Lubao","ID_3":305408002,"NAME_3":"Bancal Sinubli","NL_NAME_3":null,"VARNAME_3":null,"TYPE_3":"Barangay","ENGTYPE_3":"Village","PROVINCE":"Pampanga","REGION":"Region III (Central Luzon)","id":"barangay-0305408002","name":"Bancal Sinubli","barangayCode":"0305408002","population":null,"formattedPop":null,"densityCategory":"No data","vulnerabilityRating":"No data","healthRiskLevel":"No data","areaKm2":7.370441,"centerLat":14.861074,"centerLng":120.601822,"geometrySource":"all_barangay-2.csv detailed WKT","geometryMatchMethod":"unique_official_admin_names","boundaryPointCount":166},"geometry":{"type":"MultiPolygon","coordinates":[[[[120.577477,14.83141],[120.577766,14.83112],[120.577232,14.83116],[120.577477,14.83141]]],[[[120.602364,14.87696],[120.603912,14.87679],[120.605614,14.87722],[120.606453,14.87568],[120.607109,14.8736],[120.607491,14.87275],[120.608063,14.87182],[120.608994,14.87115],[120.610832,14.8718],[120.61158,14.87226],[120.612427,14.87286],[120.613037,14.87338],[120.614433,14.87426],[120.615372,14.87444],[120.61779,14.8763],[120.617599,14.87389],[120.617813,14.87227],[120.618767,14.86948],[120.61898,14.86825],[120.618851,14.8663],[120.618729,14.865],[120.619476,14.86383],[120.620682,14.86194],[120.621147,14.86056],[120.621262,14.85899],[120.622612,14.85753],[120.623016,14.8566],[120.62384,14.85513],[120.625229,14.85406],[120.626083,14.85302],[120.625832,14.85278],[120.625832,14.85261],[120.619034,14.85219],[120.616867,14.85175],[120.615952,14.85161],[120.614616,14.85132],[120.613419,14.85068],[120.612473,14.84954],[120.612007,14.84883],[120.611717,14.84777],[120.611801,14.8471],[120.612007,14.84571],[120.612846,14.84406],[120.613647,14.84275],[120.614403,14.8417],[120.615181,14.84083],[120.615883,14.83949],[120.615707,14.83858],[120.614258,14.83789],[120.61145,14.83751],[120.609573,14.83689],[120.608307,14.83623],[120.60688,14.83531],[120.604584,14.83204],[120.603233,14.83017],[120.601967,14.82853],[120.600113,14.82592],[120.599007,14.8242],[120.597069,14.82193],[120.595657,14.8202],[120.594116,14.81806],[120.589973,14.81306],[120.589722,14.81306],[120.589447,14.81278],[120.58889,14.81278],[120.588608,14.81306],[120.588058,14.81306],[120.587219,14.81389],[120.587219,14.81417],[120.586937,14.81444],[120.586937,14.81472],[120.586113,14.81556],[120.585831,14.81556],[120.585281,14.81611],[120.585281,14.81639],[120.585564,14.81667],[120.585564,14.81694],[120.586113,14.8175],[120.586388,14.8175],[120.586937,14.81806],[120.587784,14.81889],[120.587784,14.81917],[120.588608,14.82],[120.588608,14.82028],[120.589722,14.82139],[120.589722,14.82167],[120.590279,14.82222],[120.590279,14.8225],[120.590553,14.82278],[120.590553,14.82291],[120.590553,14.82306],[120.590843,14.82333],[120.590843,14.82361],[120.591942,14.82472],[120.592216,14.825],[120.592499,14.82556],[120.59285,14.82555],[120.593063,14.82556],[120.59333,14.82569],[120.59417,14.82643],[120.593887,14.82667],[120.593063,14.82667],[120.592499,14.82611],[120.592216,14.82611],[120.591942,14.82583],[120.591667,14.82583],[120.590843,14.825],[120.589996,14.825],[120.589722,14.82528],[120.589256,14.82497],[120.588829,14.82468],[120.588127,14.8244],[120.587013,14.82406],[120.585457,14.82406],[120.584442,14.82444],[120.582779,14.82611],[120.582779,14.82639],[120.583054,14.82667],[120.583054,14.82694],[120.58139,14.82861],[120.58139,14.82889],[120.580559,14.82972],[120.580559,14.83],[120.580002,14.83056],[120.57972,14.83056],[120.579292,14.83099],[120.578171,14.83211],[120.587837,14.84186],[120.585419,14.84518],[120.585457,14.8457],[120.586113,14.84703],[120.5867,14.84808],[120.586678,14.84901],[120.586288,14.84964],[120.586067,14.85009],[120.586151,14.85145],[120.586639,14.85296],[120.586609,14.85344],[120.585999,14.85438],[120.585541,14.85462],[120.585182,14.85481],[120.585083,14.85621],[120.585327,14.85774],[120.586342,14.8593],[120.587708,14.86298],[120.588531,14.86459],[120.589401,14.86509],[120.590813,14.86549],[120.591942,14.86588],[120.593964,14.86701],[120.594727,14.86779],[120.59539,14.86892],[120.595482,14.87072],[120.595497,14.87199],[120.595787,14.87247],[120.596581,14.87421],[120.596519,14.87537],[120.595558,14.87758],[120.597237,14.87769],[120.599113,14.87812],[120.600853,14.87772],[120.602364,14.87696]]]]}},{"type":"Feature","properties":{"ID_0":177,"ISO":"PHL","NAME_0":"Philippines","ID_1":3054,"NAME_1":"Pampanga","ID_2":305408,"NAME_2":"Lubao","ID_3":305408003,"NAME_3":"Bancal Pugad","NL_NAME_3":null,"VARNAME_3":null,"TYPE_3":"Barangay","ENGTYPE_3":"Village","PROVINCE":"Pampanga","REGION":"Region III (Central Luzon)","id":"barangay-0305408003","name":"Bancal Pugad","barangayCode":"0305408003","population":null,"formattedPop":null,"densityCategory":"No data","vulnerabilityRating":"No data","healthRiskLevel":"No data","areaKm2":9.38707,"centerLat":14.835608,"centerLng":120.58434,"geometrySource":"all_barangay-2.csv detailed WKT","geometryMatchMethod":"unique_official_admin_names","boundaryPointCount":318},"geometry":{"type":"MultiPolygon","coordinates":[[[[120.616669,14.8],[120.615837,14.8],[120.61528,14.80056],[120.61528,14.80139],[120.616112,14.80222],[120.616478,14.80237],[120.616966,14.80209],[120.617027,14.80175],[120.61718,14.80127],[120.616943,14.80028],[120.616669,14.8]]],[[[120.625633,14.80545],[120.625412,14.80514],[120.625267,14.80528],[120.624168,14.80528],[120.623894,14.805],[120.623894,14.80444],[120.624496,14.80384],[120.624367,14.80366],[120.622993,14.80113],[120.621681,14.79954],[120.620827,14.7989],[120.620827,14.79917],[120.621109,14.79944],[120.620552,14.8],[120.620552,14.80083],[120.620827,14.80111],[120.621391,14.80056],[120.621948,14.80056],[120.622498,14.80111],[120.622498,14.80139],[120.622223,14.80167],[120.622223,14.80194],[120.621948,14.80222],[120.621109,14.80222],[120.620827,14.80194],[120.620193,14.8026],[120.620193,14.80342],[120.620407,14.80376],[120.620621,14.80445],[120.620621,14.80472],[120.62027,14.8052],[120.620277,14.80556],[120.620552,14.80583],[120.620552,14.80833],[120.620827,14.80861],[120.620827,14.80917],[120.621109,14.80944],[120.621109,14.81167],[120.621391,14.81194],[120.621391,14.8125],[120.621674,14.81278],[120.621674,14.81361],[120.621948,14.81389],[120.621948,14.81444],[120.622223,14.81472],[120.622223,14.81611],[120.622498,14.81639],[120.622498,14.81722],[120.62278,14.8175],[120.62278,14.81806],[120.622871,14.81815],[120.623154,14.81649],[120.624184,14.81516],[120.625153,14.81427],[120.625557,14.81316],[120.626442,14.81229],[120.62648,14.81049],[120.626747,14.80886],[120.626213,14.80757],[120.625633,14.80545]]],[[[120.62455,14.82109],[120.624168,14.8206],[120.624168,14.82083],[120.624733,14.82139],[120.624733,14.82167],[120.625,14.82194],[120.625,14.82333],[120.624702,14.82451],[120.624924,14.8252],[120.625687,14.82596],[120.625809,14.82624],[120.626083,14.82614],[120.627052,14.82356],[120.625481,14.82214],[120.62455,14.82109]]],[[[120.628593,14.84593],[120.627136,14.84508],[120.626663,14.84556],[120.626663,14.84611],[120.626389,14.84639],[120.626389,14.84778],[120.626106,14.84806],[120.626106,14.84861],[120.626129,14.84985],[120.626198,14.85019],[120.626198,14.85074],[120.62606,14.85095],[120.626694,14.8517],[120.626823,14.85209],[120.627449,14.85129],[120.629143,14.85011],[120.630333,14.84951],[120.63121,14.84789],[120.629807,14.84648],[120.628593,14.84593]]],[[[120.620827,14.81694],[120.620827,14.81639],[120.620552,14.81611],[120.620552,14.81583],[120.620277,14.81556],[120.620277,14.81444],[120.620003,14.81417],[120.620003,14.81389],[120.619453,14.81333],[120.619453,14.81306],[120.619164,14.81306],[120.618889,14.81278],[120.618889,14.81222],[120.619164,14.81194],[120.619164,14.81028],[120.618889,14.81],[120.618889,14.80917],[120.618607,14.80889],[120.618607,14.80806],[120.618332,14.80778],[120.618332,14.80722],[120.6175,14.80639],[120.617363,14.80625],[120.617233,14.80611],[120.616943,14.80604],[120.616669,14.80583],[120.615547,14.80472],[120.615547,14.80444],[120.61528,14.80417],[120.614998,14.80417],[120.614723,14.80389],[120.614441,14.80389],[120.614166,14.80361],[120.613892,14.80361],[120.613609,14.80389],[120.613327,14.80389],[120.613052,14.80417],[120.612503,14.80417],[120.612221,14.80444],[120.611954,14.80444],[120.611656,14.80417],[120.611107,14.80417],[120.610558,14.80361],[120.610283,14.80361],[120.610283,14.80389],[120.610558,14.80417],[120.610558,14.80472],[120.611107,14.80528],[120.611107,14.80556],[120.611389,14.80583],[120.611389,14.80639],[120.610558,14.80722],[120.610283,14.80722],[120.610283,14.80778],[120.610001,14.80778],[120.609444,14.80833],[120.608612,14.80833],[120.608063,14.80889],[120.608063,14.80917],[120.60833,14.80944],[120.60833,14.80972],[120.608612,14.81],[120.608612,14.81028],[120.608887,14.81056],[120.608887,14.81083],[120.609169,14.81111],[120.609169,14.81194],[120.608887,14.81222],[120.60833,14.81222],[120.60833,14.81194],[120.607498,14.81111],[120.607498,14.81],[120.606941,14.81],[120.606392,14.81056],[120.606392,14.81167],[120.60611,14.81194],[120.60611,14.81222],[120.605278,14.81306],[120.605003,14.81306],[120.604446,14.81361],[120.604156,14.81361],[120.603058,14.81472],[120.602501,14.81472],[120.602501,14.815],[120.602219,14.81528],[120.602219,14.81556],[120.601387,14.81639],[120.60083,14.81639],[120.600563,14.81667],[120.600281,14.81667],[120.599998,14.81639],[120.600281,14.81611],[120.600281,14.815],[120.60083,14.815],[120.601669,14.81417],[120.601936,14.81417],[120.601936,14.81389],[120.602219,14.81361],[120.602219,14.81333],[120.601936,14.81306],[120.601936,14.81278],[120.601669,14.8125],[120.601387,14.81278],[120.601112,14.81278],[120.600563,14.81333],[120.599716,14.81333],[120.599442,14.81306],[120.599167,14.81333],[120.598892,14.81333],[120.59861,14.81361],[120.597221,14.81361],[120.596947,14.81389],[120.596863,14.81389],[120.596657,14.81389],[120.59639,14.81417],[120.596107,14.81417],[120.595833,14.81444],[120.595284,14.81444],[120.594437,14.81361],[120.593613,14.81361],[120.593613,14.81333],[120.593063,14.81278],[120.592499,14.81333],[120.591393,14.81333],[120.59111,14.81306],[120.589973,14.81306],[120.594116,14.81806],[120.595657,14.8202],[120.597069,14.82193],[120.599007,14.8242],[120.600113,14.82592],[120.601967,14.82853],[120.603233,14.83017],[120.604584,14.83204],[120.60688,14.83531],[120.608307,14.83623],[120.609573,14.83689],[120.61145,14.83751],[120.614258,14.83789],[120.615707,14.83858],[120.615883,14.83949],[120.615181,14.84083],[120.614403,14.8417],[120.613647,14.84275],[120.612846,14.84406],[120.612007,14.84571],[120.611801,14.8471],[120.611717,14.84777],[120.612007,14.84883],[120.612473,14.84954],[120.613419,14.85068],[120.614616,14.85132],[120.615952,14.85161],[120.616867,14.85175],[120.619034,14.85219],[120.625832,14.85261],[120.625832,14.8525],[120.625557,14.85222],[120.625557,14.85194],[120.625267,14.85167],[120.625267,14.85139],[120.624443,14.85056],[120.624237,14.84994],[120.624237,14.84958],[120.624443,14.84917],[120.624733,14.84889],[120.624733,14.84833],[120.625,14.84806],[120.625,14.8475],[120.625267,14.84722],[120.625267,14.84667],[120.625557,14.84639],[120.625557,14.84415],[120.624832,14.84375],[120.622177,14.84243],[120.621193,14.84163],[120.619209,14.8388],[120.618752,14.83783],[120.618134,14.83613],[120.617561,14.83377],[120.617508,14.8318],[120.617813,14.83082],[120.619812,14.82939],[120.621651,14.82866],[120.623596,14.82739],[120.624443,14.82681],[120.624443,14.82667],[120.624168,14.82639],[120.623894,14.82507],[120.623817,14.82472],[120.623611,14.82424],[120.623611,14.82389],[120.623611,14.82333],[120.623337,14.82306],[120.623337,14.8225],[120.623047,14.82222],[120.623047,14.82194],[120.62278,14.82167],[120.62278,14.82139],[120.622498,14.82111],[120.622498,14.82083],[120.622223,14.82056],[120.622223,14.82028],[120.621948,14.82],[120.621948,14.81944],[120.621674,14.81917],[120.621674,14.81889],[120.621391,14.81861],[120.621391,14.81833],[120.621109,14.81806],[120.621109,14.81722],[120.620827,14.81694]]]]}},{"type":"Feature","properties":{"ID_0":177,"ISO":"PHL","NAME_0":"Philippines","ID_1":3054,"NAME_1":"Pampanga","ID_2":305408,"NAME_2":"Lubao","ID_3":305408004,"NAME_3":"Baruya","NL_NAME_3":null,"VARNAME_3":null,"TYPE_3":"Barangay","ENGTYPE_3":"Village","PROVINCE":"Pampanga","REGION":"Region III (Central Luzon)","id":"barangay-0305408004","name":"Baruya","barangayCode":"0305408004","population":null,"formattedPop":null,"densityCategory":"No data","vulnerabilityRating":"No data","healthRiskLevel":"No data","areaKm2":19.417001,"centerLat":14.856474,"centerLng":120.538588,"geometrySource":"all_barangay-2.csv detailed WKT","geometryMatchMethod":"unique_official_admin_names","boundaryPointCount":182},"geometry":{"type":"MultiPolygon","coordinates":[[[[120.587708,14.86298],[120.586342,14.8593],[120.585327,14.85774],[120.585083,14.85621],[120.585182,14.85481],[120.585541,14.85462],[120.585999,14.85438],[120.586609,14.85344],[120.586639,14.85296],[120.586151,14.85145],[120.586067,14.85009],[120.586288,14.84964],[120.586678,14.84901],[120.5867,14.84808],[120.586113,14.84703],[120.585457,14.8457],[120.585419,14.84518],[120.587837,14.84186],[120.578171,14.83211],[120.578056,14.83222],[120.578056,14.8325],[120.577499,14.83306],[120.577499,14.83361],[120.578056,14.83417],[120.578056,14.83639],[120.577499,14.83694],[120.577499,14.83806],[120.577766,14.83833],[120.577766,14.83917],[120.577499,14.83944],[120.577499,14.84056],[120.577217,14.84083],[120.577217,14.84167],[120.576942,14.84194],[120.576942,14.84278],[120.576714,14.84311],[120.577278,14.84338],[120.577911,14.844],[120.5784,14.84475],[120.579247,14.84585],[120.580017,14.84681],[120.580856,14.84784],[120.58107,14.84839],[120.58149,14.84873],[120.58149,14.84894],[120.581352,14.84962],[120.581139,14.84942],[120.581001,14.84908],[120.58065,14.84866],[120.580093,14.84791],[120.579872,14.84757],[120.579521,14.84722],[120.57917,14.84674],[120.578682,14.8464],[120.57798,14.84654],[120.577347,14.84633],[120.576782,14.84578],[120.576149,14.8451],[120.575661,14.84448],[120.575157,14.84414],[120.574043,14.84414],[120.573624,14.84421],[120.573059,14.84434],[120.572853,14.8451],[120.572639,14.84571],[120.572433,14.84613],[120.572289,14.84661],[120.571869,14.84709],[120.571091,14.84805],[120.570953,14.84839],[120.570877,14.84873],[120.571167,14.84935],[120.571587,14.84949],[120.57222,14.84983],[120.573059,14.85024],[120.573692,14.85113],[120.573914,14.85196],[120.573547,14.85196],[120.57341,14.85148],[120.572922,14.85106],[120.572571,14.85072],[120.571518,14.85004],[120.57074,14.84969],[120.570602,14.84949],[120.570602,14.84914],[120.570389,14.84859],[120.570602,14.84818],[120.570877,14.84777],[120.571442,14.84695],[120.571869,14.84606],[120.57222,14.84496],[120.57222,14.84421],[120.572067,14.84414],[120.571869,14.844],[120.570953,14.84318],[120.570389,14.84263],[120.569901,14.84201],[120.569481,14.84167],[120.568977,14.84112],[120.568703,14.84084],[120.568283,14.84036],[120.567863,14.8403],[120.567513,14.84009],[120.567787,14.83968],[120.568001,14.83892],[120.568207,14.83872],[120.568573,14.83872],[120.568779,14.83885],[120.568977,14.83947],[120.569397,14.8403],[120.570183,14.84119],[120.571091,14.8418],[120.572708,14.84208],[120.573967,14.84222],[120.574997,14.84222],[120.575279,14.84194],[120.575546,14.84194],[120.575844,14.84167],[120.575844,14.84139],[120.576393,14.84083],[120.576393,14.84056],[120.576668,14.84028],[120.576393,14.84],[120.576393,14.83944],[120.576668,14.83917],[120.576668,14.83583],[120.576942,14.83556],[120.576942,14.83528],[120.576668,14.835],[120.576668,14.83444],[120.576942,14.83417],[120.576942,14.83222],[120.577217,14.83194],[120.577217,14.83167],[120.577477,14.83141],[120.577232,14.83116],[120.575027,14.83146],[120.57309,14.83156],[120.570969,14.83148],[120.568848,14.83138],[120.566383,14.83122],[120.564209,14.83071],[120.562447,14.82986],[120.559921,14.82798],[120.558792,14.82709],[120.557442,14.8265],[120.555779,14.82591],[120.554352,14.82507],[120.552017,14.8244],[120.557861,14.83825],[120.559311,14.8421],[120.55983,14.84404],[120.560989,14.84632],[120.562218,14.8486],[120.564369,14.85133],[120.565514,14.85271],[120.566704,14.85504],[120.567673,14.85646],[120.568916,14.85826],[120.570297,14.86101],[120.570961,14.86249],[120.572182,14.86517],[120.576683,14.86256],[120.577927,14.86183],[120.578957,14.86176],[120.58033,14.86176],[120.580833,14.86226],[120.580803,14.8629],[120.581062,14.86388],[120.581429,14.86424],[120.582047,14.8645],[120.581833,14.86552],[120.581589,14.86566],[120.581123,14.86593],[120.581161,14.8663],[120.581871,14.86675],[120.582336,14.86683],[120.583237,14.86796],[120.584213,14.86759],[120.585922,14.86665],[120.587471,14.86419],[120.587708,14.86298]]]]}},{"type":"Feature","properties":{"ID_0":177,"ISO":"PHL","NAME_0":"Philippines","ID_1":3054,"NAME_1":"Pampanga","ID_2":305408,"NAME_2":"Lubao","ID_3":305408005,"NAME_3":"Calangain","NL_NAME_3":null,"VARNAME_3":null,"TYPE_3":"Barangay","ENGTYPE_3":"Village","PROVINCE":"Pampanga","REGION":"Region III (Central Luzon)","id":"barangay-0305408005","name":"Calangain","barangayCode":"0305408005","population":null,"formattedPop":null,"densityCategory":"No data","vulnerabilityRating":"No data","healthRiskLevel":"No data","areaKm2":3.74676,"centerLat":14.886665,"centerLng":120.550576,"geometrySource":"all_barangay-2.csv detailed WKT","geometryMatchMethod":"unique_official_admin_names","boundaryPointCount":34},"geometry":{"type":"MultiPolygon","coordinates":[[[[120.558777,14.87479],[120.570793,14.88571],[120.571533,14.88452],[120.572197,14.88371],[120.573311,14.88317],[120.574013,14.88207],[120.57444,14.88101],[120.574913,14.87978],[120.575394,14.87906],[120.575882,14.87874],[120.576569,14.87789],[120.576469,14.87693],[120.57637,14.87589],[120.576599,14.87484],[120.581757,14.87005],[120.58284,14.86897],[120.583237,14.86796],[120.582336,14.86683],[120.581871,14.86675],[120.581161,14.8663],[120.581123,14.86593],[120.581589,14.86566],[120.581833,14.86552],[120.582047,14.8645],[120.581429,14.86424],[120.581062,14.86388],[120.580803,14.8629],[120.580833,14.86226],[120.58033,14.86176],[120.578957,14.86176],[120.577927,14.86183],[120.576683,14.86256],[120.572182,14.86517],[120.558777,14.87479]]]]}},{"type":"Feature","properties":{"ID_0":177,"ISO":"PHL","NAME_0":"Philippines","ID_1":3054,"NAME_1":"Pampanga","ID_2":305408,"NAME_2":"Lubao","ID_3":305408006,"NAME_3":"Concepcion","NL_NAME_3":null,"VARNAME_3":null,"TYPE_3":"Barangay","ENGTYPE_3":"Village","PROVINCE":"Pampanga","REGION":"Region III (Central Luzon)","id":"barangay-0305408006","name":"Concepcion","barangayCode":"0305408006","population":null,"formattedPop":null,"densityCategory":"No data","vulnerabilityRating":"No data","healthRiskLevel":"No data","areaKm2":4.161478,"centerLat":14.946666,"centerLng":120.582688,"geometrySource":"all_barangay-2.csv detailed WKT","geometryMatchMethod":"unique_official_admin_names","boundaryPointCount":35},"geometry":{"type":"MultiPolygon","coordinates":[[[[120.603271,14.9374],[120.604309,14.93669],[120.605507,14.93591],[120.606789,14.93516],[120.608757,14.93455],[120.610817,14.93397],[120.611954,14.93269],[120.612442,14.93152],[120.613472,14.92992],[120.614037,14.92907],[120.61438,14.92795],[120.614594,14.9268],[120.615883,14.92583],[120.615646,14.92505],[120.615417,14.92415],[120.613419,14.92248],[120.608673,14.92259],[120.606453,14.92272],[120.604652,14.92307],[120.603371,14.92343],[120.60186,14.92403],[120.600159,14.92542],[120.597939,14.92689],[120.597214,14.9279],[120.595383,14.92956],[120.593567,14.93058],[120.594612,14.93362],[120.595238,14.93642],[120.595589,14.93886],[120.595573,14.94084],[120.597641,14.93982],[120.599388,14.93867],[120.599937,14.9383],[120.600937,14.9381],[120.603271,14.9374]]]]}},{"type":"Feature","properties":{"ID_0":177,"ISO":"PHL","NAME_0":"Philippines","ID_1":3054,"NAME_1":"Pampanga","ID_2":305408,"NAME_2":"Lubao","ID_3":305408007,"NAME_3":"Del Carmen","NL_NAME_3":null,"VARNAME_3":null,"TYPE_3":"Barangay","ENGTYPE_3":"Village","PROVINCE":"Pampanga","REGION":"Region III (Central Luzon)","id":"barangay-0305408007","name":"Del Carmen","barangayCode":"0305408007","population":null,"formattedPop":null,"densityCategory":"No data","vulnerabilityRating":"No data","healthRiskLevel":"No data","areaKm2":2.706794,"centerLat":14.933651,"centerLng":120.557974,"geometrySource":"all_barangay-2.csv detailed WKT","geometryMatchMethod":"unique_official_admin_names","boundaryPointCount":17},"geometry":{"type":"MultiPolygon","coordinates":[[[[120.589523,14.91714],[120.586861,14.91517],[120.58625,14.91498],[120.582191,14.9119],[120.579979,14.91296],[120.579063,14.91353],[120.578049,14.91415],[120.576279,14.91438],[120.573708,14.91604],[120.574203,14.91788],[120.57476,14.91966],[120.575073,14.92074],[120.576103,14.92255],[120.576424,14.92368],[120.578911,14.92151],[120.58329,14.91985],[120.589523,14.91714]]]]}},{"type":"Feature","properties":{"ID_0":177,"ISO":"PHL","NAME_0":"Philippines","ID_1":3054,"NAME_1":"Pampanga","ID_2":305408,"NAME_2":"Lubao","ID_3":305408008,"NAME_3":"De La Paz","NL_NAME_3":null,"VARNAME_3":null,"TYPE_3":"Barangay","ENGTYPE_3":"Village","PROVINCE":"Pampanga","REGION":"Region III (Central Luzon)","id":"barangay-0305408008","name":"De La Paz","barangayCode":"0305408008","population":null,"formattedPop":null,"densityCategory":"No data","vulnerabilityRating":"No data","healthRiskLevel":"No data","areaKm2":2.222732,"centerLat":14.93353,"centerLng":120.527699,"geometrySource":"barangays.geojson simplified fallback","geometryMatchMethod":"simplified_fallback","boundaryPointCount":5},"geometry":{"type":"Polygon","coordinates":[[[120.53813401800005,14.931491395000023],[120.52923030900001,14.925087182000027],[120.51730726100004,14.93466778800007],[120.52524152800004,14.943050180000057],[120.53813401800005,14.931491395000023]]]}},{"type":"Feature","properties":{"ID_0":177,"ISO":"PHL","NAME_0":"Philippines","ID_1":3054,"NAME_1":"Pampanga","ID_2":305408,"NAME_2":"Lubao","ID_3":305408009,"NAME_3":"Don Ignacio Dimson","NL_NAME_3":null,"VARNAME_3":null,"TYPE_3":"Barangay","ENGTYPE_3":"Village","PROVINCE":"Pampanga","REGION":"Region III (Central Luzon)","id":"barangay-0305408009","name":"Don Ignacio Dimson","barangayCode":"0305408009","population":null,"formattedPop":null,"densityCategory":"No data","vulnerabilityRating":"No data","healthRiskLevel":"No data","areaKm2":2.706005,"centerLat":14.969383,"centerLng":120.584767,"geometrySource":"all_barangay-2.csv detailed WKT","geometryMatchMethod":"unique_official_admin_names","boundaryPointCount":8},"geometry":{"type":"MultiPolygon","coordinates":[[[[120.568237,14.9648],[120.589699,14.95745],[120.586319,14.95062],[120.564301,14.96056],[120.564743,14.9613],[120.565353,14.96221],[120.566673,14.96375],[120.568237,14.9648]]]]}},{"type":"Feature","properties":{"ID_0":177,"ISO":"PHL","NAME_0":"Philippines","ID_1":3054,"NAME_1":"Pampanga","ID_2":305408,"NAME_2":"Lubao","ID_3":305408010,"NAME_3":"Lourdes","NL_NAME_3":null,"VARNAME_3":null,"TYPE_3":"Barangay","ENGTYPE_3":"Village","PROVINCE":"Pampanga","REGION":"Region III (Central Luzon)","id":"barangay-0305408010","name":"Lourdes","barangayCode":"0305408010","population":null,"formattedPop":null,"densityCategory":"No data","vulnerabilityRating":"No data","healthRiskLevel":"No data","areaKm2":1.844488,"centerLat":14.894621,"centerLng":120.532973,"geometrySource":"all_barangay-2.csv detailed WKT","geometryMatchMethod":"unique_official_admin_names","boundaryPointCount":9},"geometry":{"type":"MultiPolygon","coordinates":[[[[120.554024,14.87142],[120.544067,14.86128],[120.54158,14.86279],[120.54026,14.86367],[120.539864,14.86499],[120.548103,14.87733],[120.548943,14.87457],[120.55069,14.87382],[120.554024,14.87142]]]]}},{"type":"Feature","properties":{"ID_0":177,"ISO":"PHL","NAME_0":"Philippines","ID_1":3054,"NAME_1":"Pampanga","ID_2":305408,"NAME_2":"Lubao","ID_3":305408011,"NAME_3":"Prado Siongco","NL_NAME_3":null,"VARNAME_3":null,"TYPE_3":"Barangay","ENGTYPE_3":"Village","PROVINCE":"Pampanga","REGION":"Region III (Central Luzon)","id":"barangay-0305408011","name":"Prado Siongco","barangayCode":"0305408011","population":null,"formattedPop":null,"densityCategory":"No data","vulnerabilityRating":"No data","healthRiskLevel":"No data","areaKm2":4.262462,"centerLat":14.884802,"centerLng":120.508154,"geometrySource":"all_barangay-2.csv detailed WKT","geometryMatchMethod":"unique_official_admin_names","boundaryPointCount":21},"geometry":{"type":"MultiPolygon","coordinates":[[[[120.544067,14.86128],[120.54644,14.85864],[120.547379,14.85738],[120.548347,14.85622],[120.550194,14.85437],[120.551033,14.85363],[120.551849,14.8531],[120.553688,14.8517],[120.555443,14.85026],[120.556999,14.84858],[120.558121,14.84685],[120.55983,14.84404],[120.559311,14.8421],[120.557861,14.83825],[120.530273,14.85602],[120.53318,14.85931],[120.538986,14.86338],[120.539864,14.86499],[120.54026,14.86367],[120.54158,14.86279],[120.544067,14.86128]]]]}},{"type":"Feature","properties":{"ID_0":177,"ISO":"PHL","NAME_0":"Philippines","ID_1":3054,"NAME_1":"Pampanga","ID_2":305408,"NAME_2":"Lubao","ID_3":305408012,"NAME_3":"Remedios","NL_NAME_3":null,"VARNAME_3":null,"TYPE_3":"Barangay","ENGTYPE_3":"Village","PROVINCE":"Pampanga","REGION":"Region III (Central Luzon)","id":"barangay-0305408012","name":"Remedios","barangayCode":"0305408012","population":null,"formattedPop":null,"densityCategory":"No data","vulnerabilityRating":"No data","healthRiskLevel":"No data","areaKm2":3.337276,"centerLat":14.912521,"centerLng":120.58825,"geometrySource":"all_barangay-2.csv detailed WKT","geometryMatchMethod":"unique_official_admin_names","boundaryPointCount":43},"geometry":{"type":"MultiPolygon","coordinates":[[[[120.598534,14.90941],[120.601486,14.90866],[120.603943,14.9073],[120.605873,14.90568],[120.608078,14.90466],[120.611366,14.90339],[120.615517,14.90199],[120.617523,14.90152],[120.619507,14.90169],[120.619293,14.8992],[120.619301,14.89698],[120.61937,14.89583],[120.619713,14.89294],[120.619492,14.89169],[120.618896,14.88955],[120.617767,14.8904],[120.616783,14.89062],[120.616013,14.89076],[120.615051,14.89081],[120.613564,14.89058],[120.61084,14.88997],[120.608932,14.88969],[120.60762,14.88987],[120.605888,14.89066],[120.605347,14.89178],[120.604897,14.89281],[120.603958,14.89357],[120.60302,14.89386],[120.60128,14.89461],[120.599586,14.89517],[120.598747,14.89511],[120.597168,14.89477],[120.595657,14.89522],[120.59481,14.89623],[120.593727,14.89652],[120.592484,14.89664],[120.591667,14.89714],[120.589737,14.89662],[120.587883,14.89686],[120.586739,14.89742],[120.586258,14.89842],[120.593002,14.90462],[120.598534,14.90941]]]]}},{"type":"Feature","properties":{"ID_0":177,"ISO":"PHL","NAME_0":"Philippines","ID_1":3054,"NAME_1":"Pampanga","ID_2":305408,"NAME_2":"Lubao","ID_3":305408013,"NAME_3":"San Agustin","NL_NAME_3":null,"VARNAME_3":null,"TYPE_3":"Barangay","ENGTYPE_3":"Village","PROVINCE":"Pampanga","REGION":"Region III (Central Luzon)","id":"barangay-0305408013","name":"San Agustin","barangayCode":"0305408013","population":null,"formattedPop":null,"densityCategory":"No data","vulnerabilityRating":"No data","healthRiskLevel":"No data","areaKm2":2.302174,"centerLat":14.928561,"centerLng":120.579661,"geometrySource":"all_barangay-2.csv detailed WKT","geometryMatchMethod":"unique_official_admin_names","boundaryPointCount":18},"geometry":{"type":"MultiPolygon","coordinates":[[[[120.589523,14.91714],[120.59063,14.91733],[120.59198,14.91772],[120.593681,14.91689],[120.601418,14.91299],[120.604874,14.91608],[120.609558,14.91825],[120.608467,14.91745],[120.598534,14.90941],[120.596336,14.91075],[120.59584,14.91129],[120.593536,14.91266],[120.592522,14.91296],[120.591263,14.91315],[120.589897,14.91329],[120.589027,14.9137],[120.586861,14.91517],[120.589523,14.91714]]]]}},{"type":"Feature","properties":{"ID_0":177,"ISO":"PHL","NAME_0":"Philippines","ID_1":3054,"NAME_1":"Pampanga","ID_2":305408,"NAME_2":"Lubao","ID_3":305408014,"NAME_3":"San Antonio","NL_NAME_3":null,"VARNAME_3":null,"TYPE_3":"Barangay","ENGTYPE_3":"Village","PROVINCE":"Pampanga","REGION":"Region III (Central Luzon)","id":"barangay-0305408014","name":"San Antonio","barangayCode":"0305408014","population":null,"formattedPop":null,"densityCategory":"No data","vulnerabilityRating":"No data","healthRiskLevel":"No data","areaKm2":1.787962,"centerLat":14.939555,"centerLng":120.574061,"geometrySource":"all_barangay-2.csv detailed WKT","geometryMatchMethod":"unique_official_admin_names","boundaryPointCount":25},"geometry":{"type":"MultiPolygon","coordinates":[[[[120.587593,14.9326],[120.589119,14.93227],[120.591187,14.9318],[120.593567,14.93058],[120.595383,14.92956],[120.597214,14.9279],[120.597939,14.92689],[120.5961,14.92418],[120.594841,14.92341],[120.593521,14.92231],[120.591942,14.92032],[120.589523,14.91714],[120.58329,14.91985],[120.578911,14.92151],[120.576424,14.92368],[120.577553,14.92554],[120.578232,14.92742],[120.579498,14.93055],[120.58075,14.93428],[120.580994,14.93718],[120.581573,14.93576],[120.582687,14.93459],[120.584007,14.93328],[120.585899,14.933],[120.587593,14.9326]]]]}},{"type":"Feature","properties":{"ID_0":177,"ISO":"PHL","NAME_0":"Philippines","ID_1":3054,"NAME_1":"Pampanga","ID_2":305408,"NAME_2":"Lubao","ID_3":305408015,"NAME_3":"San Francisco","NL_NAME_3":null,"VARNAME_3":null,"TYPE_3":"Barangay","ENGTYPE_3":"Village","PROVINCE":"Pampanga","REGION":"Region III (Central Luzon)","id":"barangay-0305408015","name":"San Francisco","barangayCode":"0305408015","population":null,"formattedPop":null,"densityCategory":"No data","vulnerabilityRating":"No data","healthRiskLevel":"No data","areaKm2":2.307579,"centerLat":14.96152,"centerLng":120.549224,"geometrySource":"all_barangay-2.csv detailed WKT","geometryMatchMethod":"unique_official_admin_names","boundaryPointCount":53},"geometry":{"type":"MultiPolygon","coordinates":[[[[120.557533,14.9567],[120.558777,14.95745],[120.560089,14.95839],[120.561249,14.95894],[120.561737,14.95906],[120.562393,14.95902],[120.564301,14.96056],[120.586319,14.95062],[120.580818,14.94018],[120.580833,14.9394],[120.575493,14.93942],[120.5737,14.93914],[120.570648,14.93943],[120.569221,14.94033],[120.567436,14.94161],[120.56636,14.94209],[120.565453,14.94206],[120.564812,14.94058],[120.564499,14.93911],[120.564323,14.93775],[120.564034,14.93662],[120.562576,14.93479],[120.560333,14.93394],[120.558319,14.93356],[120.555847,14.93383],[120.55381,14.93391],[120.550339,14.93337],[120.548981,14.9333],[120.547653,14.9336],[120.545792,14.93416],[120.54451,14.93483],[120.543983,14.93559],[120.538811,14.93874],[120.539703,14.94054],[120.540733,14.94202],[120.541313,14.94274],[120.542603,14.94405],[120.543587,14.94498],[120.544403,14.9461],[120.545448,14.94763],[120.546043,14.94845],[120.54628,14.94908],[120.547729,14.95034],[120.548973,14.95131],[120.550079,14.95215],[120.552078,14.95368],[120.552406,14.954],[120.552963,14.95505],[120.553902,14.95579],[120.554466,14.95582],[120.55542,14.95591],[120.556168,14.95606],[120.557533,14.9567]]]]}},{"type":"Feature","properties":{"ID_0":177,"ISO":"PHL","NAME_0":"Philippines","ID_1":3054,"NAME_1":"Pampanga","ID_2":305408,"NAME_2":"Lubao","ID_3":305408016,"NAME_3":"San Isidro","NL_NAME_3":null,"VARNAME_3":null,"TYPE_3":"Barangay","ENGTYPE_3":"Village","PROVINCE":"Pampanga","REGION":"Region III (Central Luzon)","id":"barangay-0305408016","name":"San Isidro","barangayCode":"0305408016","population":null,"formattedPop":null,"densityCategory":"No data","vulnerabilityRating":"No data","healthRiskLevel":"No data","areaKm2":2.545818,"centerLat":14.888288,"centerLng":120.523578,"geometrySource":"all_barangay-2.csv detailed WKT","geometryMatchMethod":"unique_official_admin_names","boundaryPointCount":25},"geometry":{"type":"MultiPolygon","coordinates":[[[[120.558777,14.87479],[120.572182,14.86517],[120.570961,14.86249],[120.570297,14.86101],[120.568916,14.85826],[120.567673,14.85646],[120.566704,14.85504],[120.565514,14.85271],[120.564369,14.85133],[120.562218,14.8486],[120.560989,14.84632],[120.55983,14.84404],[120.558121,14.84685],[120.556999,14.84858],[120.555443,14.85026],[120.553688,14.8517],[120.551849,14.8531],[120.551033,14.85363],[120.550194,14.85437],[120.548347,14.85622],[120.547379,14.85738],[120.54644,14.85864],[120.544067,14.86128],[120.554024,14.87142],[120.558777,14.87479]]]]}},{"type":"Feature","properties":{"ID_0":177,"ISO":"PHL","NAME_0":"Philippines","ID_1":3054,"NAME_1":"Pampanga","ID_2":305408,"NAME_2":"Lubao","ID_3":305408017,"NAME_3":"San Jose Apunan","NL_NAME_3":null,"VARNAME_3":null,"TYPE_3":"Barangay","ENGTYPE_3":"Village","PROVINCE":"Pampanga","REGION":"Region III (Central Luzon)","id":"barangay-0305408017","name":"San Jose Apunan","barangayCode":"0305408017","population":null,"formattedPop":null,"densityCategory":"No data","vulnerabilityRating":"No data","healthRiskLevel":"No data","areaKm2":0.896224,"centerLat":14.963909,"centerLng":120.573738,"geometrySource":"all_barangay-2.csv detailed WKT","geometryMatchMethod":"unique_official_admin_names","boundaryPointCount":24},"geometry":{"type":"MultiPolygon","coordinates":[[[[120.598167,14.96386],[120.600449,14.96321],[120.60257,14.96263],[120.604317,14.96246],[120.606087,14.96225],[120.608414,14.96174],[120.609093,14.96157],[120.610321,14.96106],[120.611298,14.96047],[120.606613,14.95723],[120.605347,14.95651],[120.603752,14.95547],[120.601913,14.95361],[120.600929,14.95444],[120.599564,14.95515],[120.597954,14.95568],[120.596558,14.95655],[120.594887,14.9571],[120.59301,14.95726],[120.589699,14.95745],[120.593437,14.96557],[120.595016,14.96501],[120.597023,14.96433],[120.598167,14.96386]]]]}},{"type":"Feature","properties":{"ID_0":177,"ISO":"PHL","NAME_0":"Philippines","ID_1":3054,"NAME_1":"Pampanga","ID_2":305408,"NAME_2":"Lubao","ID_3":305408018,"NAME_3":"San Jose Gumi","NL_NAME_3":null,"VARNAME_3":null,"TYPE_3":"Barangay","ENGTYPE_3":"Village","PROVINCE":"Pampanga","REGION":"Region III (Central Luzon)","id":"barangay-0305408018","name":"San Jose Gumi","barangayCode":"0305408018","population":null,"formattedPop":null,"densityCategory":"No data","vulnerabilityRating":"No data","healthRiskLevel":"No data","areaKm2":14.073461,"centerLat":14.880455,"centerLng":120.588469,"geometrySource":"all_barangay-2.csv detailed WKT","geometryMatchMethod":"unique_official_admin_names","boundaryPointCount":36},"geometry":{"type":"MultiPolygon","coordinates":[[[[120.618896,14.88955],[120.619072,14.8858],[120.6194,14.8842],[120.619392,14.88166],[120.618889,14.87979],[120.618279,14.87788],[120.61779,14.8763],[120.615372,14.87444],[120.614433,14.87426],[120.613037,14.87338],[120.612427,14.87286],[120.61158,14.87226],[120.610832,14.8718],[120.608994,14.87115],[120.608063,14.87182],[120.607491,14.87275],[120.607109,14.8736],[120.606453,14.87568],[120.605614,14.87722],[120.605911,14.8806],[120.606262,14.88278],[120.606323,14.88405],[120.605766,14.88502],[120.605278,14.88689],[120.605011,14.8879],[120.605362,14.88921],[120.605888,14.89066],[120.60762,14.88987],[120.608932,14.88969],[120.61084,14.88997],[120.613564,14.89058],[120.615051,14.89081],[120.616013,14.89076],[120.616783,14.89062],[120.617767,14.8904],[120.618896,14.88955]]]]}},{"type":"Feature","properties":{"ID_0":177,"ISO":"PHL","NAME_0":"Philippines","ID_1":3054,"NAME_1":"Pampanga","ID_2":305408,"NAME_2":"Lubao","ID_3":305408019,"NAME_3":"San Juan","NL_NAME_3":null,"VARNAME_3":null,"TYPE_3":"Barangay","ENGTYPE_3":"Village","PROVINCE":"Pampanga","REGION":"Region III (Central Luzon)","id":"barangay-0305408019","name":"San Juan","barangayCode":"0305408019","population":null,"formattedPop":null,"densityCategory":"No data","vulnerabilityRating":"No data","healthRiskLevel":"No data","areaKm2":1.529202,"centerLat":14.929756,"centerLng":120.603227,"geometrySource":"all_barangay-2.csv detailed WKT","geometryMatchMethod":"unique_official_admin_names","boundaryPointCount":18},"geometry":{"type":"MultiPolygon","coordinates":[[[[120.615883,14.92583],[120.618431,14.92575],[120.620773,14.92512],[120.623383,14.92425],[120.624512,14.92343],[120.626717,14.92217],[120.626694,14.91991],[120.624771,14.92013],[120.624123,14.91989],[120.622993,14.9198],[120.62159,14.92035],[120.619057,14.92081],[120.617439,14.92138],[120.615089,14.92196],[120.613419,14.92248],[120.615417,14.92415],[120.615646,14.92505],[120.615883,14.92583]]]]}},{"type":"Feature","properties":{"ID_0":177,"ISO":"PHL","NAME_0":"Philippines","ID_1":3054,"NAME_1":"Pampanga","ID_2":305408,"NAME_2":"Lubao","ID_3":305408020,"NAME_3":"San Matias","NL_NAME_3":null,"VARNAME_3":null,"TYPE_3":"Barangay","ENGTYPE_3":"Village","PROVINCE":"Pampanga","REGION":"Region III (Central Luzon)","id":"barangay-0305408020","name":"San Matias","barangayCode":"0305408020","population":null,"formattedPop":null,"densityCategory":"No data","vulnerabilityRating":"No data","healthRiskLevel":"No data","areaKm2":1.965533,"centerLat":14.956263,"centerLng":120.586961,"geometrySource":"all_barangay-2.csv detailed WKT","geometryMatchMethod":"unique_official_admin_names","boundaryPointCount":16},"geometry":{"type":"MultiPolygon","coordinates":[[[[120.607941,14.94432],[120.606117,14.94187],[120.605377,14.94064],[120.604874,14.9398],[120.603271,14.9374],[120.600937,14.9381],[120.599937,14.9383],[120.599388,14.93867],[120.597641,14.93982],[120.595573,14.94084],[120.596672,14.94366],[120.597298,14.94595],[120.598228,14.94738],[120.599274,14.94901],[120.605957,14.94541],[120.607941,14.94432]]]]}},{"type":"Feature","properties":{"ID_0":177,"ISO":"PHL","NAME_0":"Philippines","ID_1":3054,"NAME_1":"Pampanga","ID_2":305408,"NAME_2":"Lubao","ID_3":305408021,"NAME_3":"San Miguel","NL_NAME_3":null,"VARNAME_3":null,"TYPE_3":"Barangay","ENGTYPE_3":"Village","PROVINCE":"Pampanga","REGION":"Region III (Central Luzon)","id":"barangay-0305408021","name":"San Miguel","barangayCode":"0305408021","population":null,"formattedPop":null,"densityCategory":"No data","vulnerabilityRating":"No data","healthRiskLevel":"No data","areaKm2":3.881534,"centerLat":14.945851,"centerLng":120.55197,"geometrySource":"all_barangay-2.csv detailed WKT","geometryMatchMethod":"unique_official_admin_names","boundaryPointCount":20},"geometry":{"type":"MultiPolygon","coordinates":[[[[120.580994,14.93718],[120.58075,14.93428],[120.579498,14.93055],[120.578232,14.92742],[120.577553,14.92554],[120.576424,14.92368],[120.562576,14.93479],[120.564034,14.93662],[120.564323,14.93775],[120.564499,14.93911],[120.564812,14.94058],[120.565453,14.94206],[120.56636,14.94209],[120.567436,14.94161],[120.569221,14.94033],[120.570648,14.93943],[120.5737,14.93914],[120.575493,14.93942],[120.580833,14.9394],[120.580994,14.93718]]]]}},{"type":"Feature","properties":{"ID_0":177,"ISO":"PHL","NAME_0":"Philippines","ID_1":3054,"NAME_1":"Pampanga","ID_2":305408,"NAME_2":"Lubao","ID_3":305408022,"NAME_3":"San Nicolas 1st","NL_NAME_3":null,"VARNAME_3":null,"TYPE_3":"Barangay","ENGTYPE_3":"Village","PROVINCE":"Pampanga","REGION":"Region III (Central Luzon)","id":"barangay-0305408022","name":"San Nicolas 1st","barangayCode":"0305408022","population":null,"formattedPop":null,"densityCategory":"No data","vulnerabilityRating":"No data","healthRiskLevel":"No data","areaKm2":1.580003,"centerLat":14.940148,"centerLng":120.605447,"geometrySource":"all_barangay-2.csv detailed WKT","geometryMatchMethod":"unique_official_admin_names","boundaryPointCount":23},"geometry":{"type":"MultiPolygon","coordinates":[[[[120.626694,14.91991],[120.626053,14.91695],[120.625427,14.9144],[120.625252,14.9128],[120.623978,14.91253],[120.622726,14.91309],[120.621178,14.91397],[120.620033,14.91443],[120.617416,14.91544],[120.614578,14.91656],[120.613121,14.9173],[120.609558,14.91825],[120.610893,14.91977],[120.611794,14.92094],[120.613419,14.92248],[120.615089,14.92196],[120.617439,14.92138],[120.619057,14.92081],[120.62159,14.92035],[120.622993,14.9198],[120.624123,14.91989],[120.624771,14.92013],[120.626694,14.91991]]]]}},{"type":"Feature","properties":{"ID_0":177,"ISO":"PHL","NAME_0":"Philippines","ID_1":3054,"NAME_1":"Pampanga","ID_2":305408,"NAME_2":"Lubao","ID_3":305408023,"NAME_3":"San Nicolas 2nd","NL_NAME_3":null,"VARNAME_3":null,"TYPE_3":"Barangay","ENGTYPE_3":"Village","PROVINCE":"Pampanga","REGION":"Region III (Central Luzon)","id":"barangay-0305408023","name":"San Nicolas 2nd","barangayCode":"0305408023","population":null,"formattedPop":null,"densityCategory":"No data","vulnerabilityRating":"No data","healthRiskLevel":"No data","areaKm2":0.497399,"centerLat":14.934789,"centerLng":120.586597,"geometrySource":"all_barangay-2.csv detailed WKT","geometryMatchMethod":"unique_official_admin_names","boundaryPointCount":22},"geometry":{"type":"MultiPolygon","coordinates":[[[[120.613419,14.92248],[120.611794,14.92094],[120.610893,14.91977],[120.609558,14.91825],[120.604874,14.91608],[120.601418,14.91299],[120.593681,14.91689],[120.59198,14.91772],[120.59063,14.91733],[120.589523,14.91714],[120.591942,14.92032],[120.593521,14.92231],[120.594841,14.92341],[120.5961,14.92418],[120.597939,14.92689],[120.600159,14.92542],[120.60186,14.92403],[120.603371,14.92343],[120.604652,14.92307],[120.606453,14.92272],[120.608673,14.92259],[120.613419,14.92248]]]]}},{"type":"Feature","properties":{"ID_0":177,"ISO":"PHL","NAME_0":"Philippines","ID_1":3054,"NAME_1":"Pampanga","ID_2":305408,"NAME_2":"Lubao","ID_3":305408024,"NAME_3":"San Pablo 1st","NL_NAME_3":null,"VARNAME_3":null,"TYPE_3":"Barangay","ENGTYPE_3":"Village","PROVINCE":"Pampanga","REGION":"Region III (Central Luzon)","id":"barangay-0305408024","name":"San Pablo 1st","barangayCode":"0305408024","population":null,"formattedPop":null,"densityCategory":"No data","vulnerabilityRating":"No data","healthRiskLevel":"No data","areaKm2":1.017347,"centerLat":14.928467,"centerLng":120.519604,"geometrySource":"all_barangay-2.csv detailed WKT","geometryMatchMethod":"unique_official_admin_names","boundaryPointCount":36},"geometry":{"type":"MultiPolygon","coordinates":[[[[120.526039,14.92066],[120.544891,14.90712],[120.547829,14.90417],[120.546707,14.90254],[120.545547,14.90191],[120.543503,14.90179],[120.542427,14.90289],[120.540466,14.90345],[120.539261,14.90358],[120.53788,14.90332],[120.536171,14.90248],[120.535271,14.90155],[120.534027,14.90006],[120.533363,14.89923],[120.532501,14.89791],[120.530434,14.89682],[120.528969,14.89665],[120.527298,14.89675],[120.525963,14.89706],[120.524628,14.89749],[120.523514,14.89823],[120.522217,14.89925],[120.521973,14.90001],[120.517532,14.90428],[120.519073,14.90582],[120.520149,14.90671],[120.520897,14.90747],[120.521896,14.90882],[120.522423,14.90981],[120.522972,14.91123],[120.52327,14.91253],[120.523567,14.91433],[120.524338,14.91651],[120.524834,14.91757],[120.525497,14.91905],[120.526039,14.92066]]]]}},{"type":"Feature","properties":{"ID_0":177,"ISO":"PHL","NAME_0":"Philippines","ID_1":3054,"NAME_1":"Pampanga","ID_2":305408,"NAME_2":"Lubao","ID_3":305408025,"NAME_3":"San Pablo 2nd","NL_NAME_3":null,"VARNAME_3":null,"TYPE_3":"Barangay","ENGTYPE_3":"Village","PROVINCE":"Pampanga","REGION":"Region III (Central Luzon)","id":"barangay-0305408025","name":"San Pablo 2nd","barangayCode":"0305408025","population":null,"formattedPop":null,"densityCategory":"No data","vulnerabilityRating":"No data","healthRiskLevel":"No data","areaKm2":3.702739,"centerLat":14.919913,"centerLng":120.538941,"geometrySource":"all_barangay-2.csv detailed WKT","geometryMatchMethod":"unique_official_admin_names","boundaryPointCount":26},"geometry":{"type":"MultiPolygon","coordinates":[[[[120.554314,14.91466],[120.555267,14.91403],[120.556587,14.91356],[120.557907,14.91329],[120.558807,14.91303],[120.559647,14.91245],[120.560677,14.91109],[120.561943,14.91006],[120.562881,14.90936],[120.564423,14.90837],[120.56662,14.90818],[120.569611,14.90587],[120.568466,14.90331],[120.568207,14.90196],[120.567642,14.89968],[120.566917,14.89742],[120.566353,14.89421],[120.562714,14.89569],[120.561256,14.89612],[120.559021,14.89694],[120.556381,14.89812],[120.553726,14.89974],[120.55127,14.90053],[120.550102,14.90162],[120.547829,14.90417],[120.554314,14.91466]]]]}},{"type":"Feature","properties":{"ID_0":177,"ISO":"PHL","NAME_0":"Philippines","ID_1":3054,"NAME_1":"Pampanga","ID_2":305408,"NAME_2":"Lubao","ID_3":305408026,"NAME_3":"San Pedro Palcarangan","NL_NAME_3":null,"VARNAME_3":null,"TYPE_3":"Barangay","ENGTYPE_3":"Village","PROVINCE":"Pampanga","REGION":"Region III (Central Luzon)","id":"barangay-0305408026","name":"San Pedro Palcarangan","barangayCode":"0305408026","population":null,"formattedPop":null,"densityCategory":"No data","vulnerabilityRating":"No data","healthRiskLevel":"No data","areaKm2":3.412863,"centerLat":14.917884,"centerLng":120.512651,"geometrySource":"all_barangay-2.csv detailed WKT","geometryMatchMethod":"unique_official_admin_names","boundaryPointCount":57},"geometry":{"type":"MultiPolygon","coordinates":[[[[120.545547,14.90191],[120.544724,14.90051],[120.542732,14.8989],[120.540321,14.89663],[120.539063,14.89549],[120.53791,14.8943],[120.536568,14.89263],[120.535103,14.89057],[120.534027,14.88887],[120.532303,14.88576],[120.507446,14.87971],[120.506653,14.88168],[120.507401,14.88421],[120.508209,14.8855],[120.508492,14.88737],[120.507446,14.88819],[120.506592,14.88903],[120.503227,14.89255],[120.501556,14.89297],[120.501068,14.89467],[120.501297,14.89651],[120.502342,14.89766],[120.504547,14.89872],[120.505798,14.89766],[120.506851,14.89697],[120.508598,14.89653],[120.509911,14.89511],[120.511047,14.89416],[120.51226,14.89386],[120.513557,14.89409],[120.514572,14.89449],[120.515617,14.89625],[120.515968,14.89759],[120.515961,14.89902],[120.5159,14.9003],[120.51635,14.9022],[120.516792,14.90295],[120.517532,14.90428],[120.521973,14.90001],[120.522217,14.89925],[120.523514,14.89823],[120.524628,14.89749],[120.525963,14.89706],[120.527298,14.89675],[120.528969,14.89665],[120.530434,14.89682],[120.532501,14.89791],[120.533363,14.89923],[120.534027,14.90006],[120.535271,14.90155],[120.536171,14.90248],[120.53788,14.90332],[120.539261,14.90358],[120.540466,14.90345],[120.542427,14.90289],[120.543503,14.90179],[120.545547,14.90191]]]]}},{"type":"Feature","properties":{"ID_0":177,"ISO":"PHL","NAME_0":"Philippines","ID_1":3054,"NAME_1":"Pampanga","ID_2":305408,"NAME_2":"Lubao","ID_3":305408027,"NAME_3":"San Pedro Saug","NL_NAME_3":null,"VARNAME_3":null,"TYPE_3":"Barangay","ENGTYPE_3":"Village","PROVINCE":"Pampanga","REGION":"Region III (Central Luzon)","id":"barangay-0305408027","name":"San Pedro Saug","barangayCode":"0305408027","population":null,"formattedPop":null,"densityCategory":"No data","vulnerabilityRating":"No data","healthRiskLevel":"No data","areaKm2":2.890951,"centerLat":14.911639,"centerLng":120.526,"geometrySource":"all_barangay-2.csv detailed WKT","geometryMatchMethod":"unique_official_admin_names","boundaryPointCount":21},"geometry":{"type":"MultiPolygon","coordinates":[[[[120.547829,14.90417],[120.550102,14.90162],[120.55127,14.90053],[120.553726,14.89974],[120.556381,14.89812],[120.559021,14.89694],[120.561256,14.89612],[120.562714,14.89569],[120.566353,14.89421],[120.532303,14.88576],[120.534027,14.88887],[120.535103,14.89057],[120.536568,14.89263],[120.53791,14.8943],[120.539063,14.89549],[120.540321,14.89663],[120.542732,14.8989],[120.544724,14.90051],[120.545547,14.90191],[120.546707,14.90254],[120.547829,14.90417]]]]}},{"type":"Feature","properties":{"ID_0":177,"ISO":"PHL","NAME_0":"Philippines","ID_1":3054,"NAME_1":"Pampanga","ID_2":305408,"NAME_2":"Lubao","ID_3":305408029,"NAME_3":"San Roque Arbol","NL_NAME_3":null,"VARNAME_3":null,"TYPE_3":"Barangay","ENGTYPE_3":"Village","PROVINCE":"Pampanga","REGION":"Region III (Central Luzon)","id":"barangay-0305408029","name":"San Roque Arbol","barangayCode":"0305408029","population":null,"formattedPop":null,"densityCategory":"No data","vulnerabilityRating":"No data","healthRiskLevel":"No data","areaKm2":1.49232,"centerLat":14.901723,"centerLng":120.53971,"geometrySource":"all_barangay-2.csv detailed WKT","geometryMatchMethod":"unique_official_admin_names","boundaryPointCount":23},"geometry":{"type":"MultiPolygon","coordinates":[[[[120.566353,14.89421],[120.566887,14.89392],[120.567772,14.89241],[120.568047,14.89154],[120.568237,14.89103],[120.568893,14.88995],[120.569572,14.88861],[120.570793,14.88571],[120.558777,14.87479],[120.554024,14.87142],[120.55069,14.87382],[120.548943,14.87457],[120.548103,14.87733],[120.547157,14.87812],[120.546356,14.87836],[120.544968,14.87857],[120.543983,14.87861],[120.542641,14.87827],[120.539093,14.881],[120.536377,14.88245],[120.533829,14.88435],[120.532303,14.88576],[120.566353,14.89421]]]]}},{"type":"Feature","properties":{"ID_0":177,"ISO":"PHL","NAME_0":"Philippines","ID_1":3054,"NAME_1":"Pampanga","ID_2":305408,"NAME_2":"Lubao","ID_3":305408030,"NAME_3":"San Roque Dau","NL_NAME_3":null,"VARNAME_3":null,"TYPE_3":"Barangay","ENGTYPE_3":"Village","PROVINCE":"Pampanga","REGION":"Region III (Central Luzon)","id":"barangay-0305408030","name":"San Roque Dau","barangayCode":"0305408030","population":null,"formattedPop":null,"densityCategory":"No data","vulnerabilityRating":"No data","healthRiskLevel":"No data","areaKm2":3.357692,"centerLat":14.976163,"centerLng":120.568551,"geometrySource":"all_barangay-2.csv detailed WKT","geometryMatchMethod":"unique_official_admin_names","boundaryPointCount":22},"geometry":{"type":"MultiPolygon","coordinates":[[[[120.593437,14.96557],[120.589699,14.95745],[120.568237,14.9648],[120.56884,14.96504],[120.57,14.96535],[120.571007,14.96542],[120.571777,14.96555],[120.573128,14.96585],[120.57402,14.96666],[120.574493,14.96804],[120.57444,14.96892],[120.577347,14.96972],[120.578308,14.96981],[120.580116,14.96924],[120.58149,14.96849],[120.582352,14.96768],[120.584427,14.96707],[120.586617,14.96665],[120.588058,14.96664],[120.590279,14.96662],[120.591812,14.96628],[120.593437,14.96557]]]]}},{"type":"Feature","properties":{"ID_0":177,"ISO":"PHL","NAME_0":"Philippines","ID_1":3054,"NAME_1":"Pampanga","ID_2":305408,"NAME_2":"Lubao","ID_3":305408031,"NAME_3":"San Vicente","NL_NAME_3":null,"VARNAME_3":null,"TYPE_3":"Barangay","ENGTYPE_3":"Village","PROVINCE":"Pampanga","REGION":"Region III (Central Luzon)","id":"barangay-0305408031","name":"San Vicente","barangayCode":"0305408031","population":null,"formattedPop":null,"densityCategory":"No data","vulnerabilityRating":"No data","healthRiskLevel":"No data","areaKm2":1.782083,"centerLat":14.953327,"centerLng":120.560676,"geometrySource":"all_barangay-2.csv detailed WKT","geometryMatchMethod":"unique_official_admin_names","boundaryPointCount":14},"geometry":{"type":"MultiPolygon","coordinates":[[[[120.595573,14.94084],[120.595589,14.93886],[120.595238,14.93642],[120.594612,14.93362],[120.593567,14.93058],[120.591187,14.9318],[120.589119,14.93227],[120.587593,14.9326],[120.590263,14.93734],[120.591187,14.94023],[120.592072,14.94067],[120.593643,14.94104],[120.594963,14.94116],[120.595573,14.94084]]]]}},{"type":"Feature","properties":{"ID_0":177,"ISO":"PHL","NAME_0":"Philippines","ID_1":3054,"NAME_1":"Pampanga","ID_2":305408,"NAME_2":"Lubao","ID_3":305408032,"NAME_3":"Santa Barbara","NL_NAME_3":null,"VARNAME_3":null,"TYPE_3":"Barangay","ENGTYPE_3":"Village","PROVINCE":"Pampanga","REGION":"Region III (Central Luzon)","id":"barangay-0305408032","name":"Santa Barbara","barangayCode":"0305408032","population":null,"formattedPop":null,"densityCategory":"No data","vulnerabilityRating":"No data","healthRiskLevel":"No data","areaKm2":1.237629,"centerLat":14.925753,"centerLng":120.599496,"geometrySource":"all_barangay-2.csv detailed WKT","geometryMatchMethod":"unique_official_admin_names","boundaryPointCount":14},"geometry":{"type":"MultiPolygon","coordinates":[[[[120.626068,14.92779],[120.62587,14.92656],[120.626953,14.92424],[120.626717,14.92217],[120.624512,14.92343],[120.623383,14.92425],[120.620773,14.92512],[120.618431,14.92575],[120.615883,14.92583],[120.614594,14.9268],[120.61438,14.92795],[120.615753,14.92814],[120.61702,14.92838],[120.626068,14.92779]]]]}},{"type":"Feature","properties":{"ID_0":177,"ISO":"PHL","NAME_0":"Philippines","ID_1":3054,"NAME_1":"Pampanga","ID_2":305408,"NAME_2":"Lubao","ID_3":305408033,"NAME_3":"Santa Catalina","NL_NAME_3":null,"VARNAME_3":null,"TYPE_3":"Barangay","ENGTYPE_3":"Village","PROVINCE":"Pampanga","REGION":"Region III (Central Luzon)","id":"barangay-0305408033","name":"Santa Catalina","barangayCode":"0305408033","population":null,"formattedPop":null,"densityCategory":"No data","vulnerabilityRating":"No data","healthRiskLevel":"No data","areaKm2":3.053135,"centerLat":14.91852,"centerLng":120.59699,"geometrySource":"all_barangay-2.csv detailed WKT","geometryMatchMethod":"unique_official_admin_names","boundaryPointCount":24},"geometry":{"type":"MultiPolygon","coordinates":[[[[120.625252,14.9128],[120.624001,14.90992],[120.622566,14.90746],[120.621323,14.90551],[120.619766,14.9028],[120.619507,14.90169],[120.617523,14.90152],[120.615517,14.90199],[120.611366,14.90339],[120.608078,14.90466],[120.605873,14.90568],[120.603943,14.9073],[120.601486,14.90866],[120.598534,14.90941],[120.608467,14.91745],[120.609558,14.91825],[120.613121,14.9173],[120.614578,14.91656],[120.617416,14.91544],[120.620033,14.91443],[120.621178,14.91397],[120.622726,14.91309],[120.623978,14.91253],[120.625252,14.9128]]]]}},{"type":"Feature","properties":{"ID_0":177,"ISO":"PHL","NAME_0":"Philippines","ID_1":3054,"NAME_1":"Pampanga","ID_2":305408,"NAME_2":"Lubao","ID_3":305408034,"NAME_3":"Santa Cruz","NL_NAME_3":null,"VARNAME_3":null,"TYPE_3":"Barangay","ENGTYPE_3":"Village","PROVINCE":"Pampanga","REGION":"Region III (Central Luzon)","id":"barangay-0305408034","name":"Santa Cruz","barangayCode":"0305408034","population":null,"formattedPop":null,"densityCategory":"No data","vulnerabilityRating":"No data","healthRiskLevel":"No data","areaKm2":10.165113,"centerLat":14.906623,"centerLng":120.564392,"geometrySource":"all_barangay-2.csv detailed WKT","geometryMatchMethod":"unique_official_admin_names","boundaryPointCount":32},"geometry":{"type":"MultiPolygon","coordinates":[[[[120.593002,14.90462],[120.586258,14.89842],[120.575562,14.88982],[120.570793,14.88571],[120.569572,14.88861],[120.568893,14.88995],[120.568237,14.89103],[120.568047,14.89154],[120.567772,14.89241],[120.566887,14.89392],[120.566353,14.89421],[120.56823,14.89596],[120.569443,14.8975],[120.570862,14.89881],[120.572273,14.89997],[120.574097,14.90131],[120.575493,14.90239],[120.57711,14.90378],[120.578743,14.90553],[120.579872,14.90703],[120.580757,14.90892],[120.581352,14.91016],[120.582191,14.9119],[120.583092,14.91118],[120.583733,14.91021],[120.584877,14.9094],[120.586113,14.90918],[120.58757,14.90878],[120.588493,14.90806],[120.589821,14.90685],[120.59108,14.90629],[120.593002,14.90462]]]]}},{"type":"Feature","properties":{"ID_0":177,"ISO":"PHL","NAME_0":"Philippines","ID_1":3054,"NAME_1":"Pampanga","ID_2":305408,"NAME_2":"Lubao","ID_3":305408035,"NAME_3":"Santa Lucia","NL_NAME_3":null,"VARNAME_3":null,"TYPE_3":"Barangay","ENGTYPE_3":"Village","PROVINCE":"Pampanga","REGION":"Region III (Central Luzon)","id":"barangay-0305408035","name":"Santa Lucia","barangayCode":"0305408035","population":null,"formattedPop":null,"densityCategory":"No data","vulnerabilityRating":"No data","healthRiskLevel":"No data","areaKm2":0.876426,"centerLat":14.933284,"centerLng":120.607372,"geometrySource":"all_barangay-2.csv detailed WKT","geometryMatchMethod":"unique_official_admin_names","boundaryPointCount":25},"geometry":{"type":"MultiPolygon","coordinates":[[[[120.631073,14.93666],[120.629791,14.9341],[120.62854,14.9325],[120.627136,14.93049],[120.626312,14.92853],[120.626068,14.92779],[120.61702,14.92838],[120.615753,14.92814],[120.61438,14.92795],[120.614037,14.92907],[120.613472,14.92992],[120.612442,14.93152],[120.611954,14.93269],[120.610817,14.93397],[120.610764,14.93592],[120.611473,14.9372],[120.612312,14.93815],[120.613777,14.93948],[120.616257,14.94212],[120.617531,14.94156],[120.623528,14.93984],[120.625366,14.93949],[120.627274,14.93835],[120.629082,14.93767],[120.631073,14.93666]]]]}},{"type":"Feature","properties":{"ID_0":177,"ISO":"PHL","NAME_0":"Philippines","ID_1":3054,"NAME_1":"Pampanga","ID_2":305408,"NAME_2":"Lubao","ID_3":305408036,"NAME_3":"Santa Maria","NL_NAME_3":null,"VARNAME_3":null,"TYPE_3":"Barangay","ENGTYPE_3":"Village","PROVINCE":"Pampanga","REGION":"Region III (Central Luzon)","id":"barangay-0305408036","name":"Santa Maria","barangayCode":"0305408036","population":null,"formattedPop":null,"densityCategory":"No data","vulnerabilityRating":"No data","healthRiskLevel":"No data","areaKm2":1.073302,"centerLat":14.924066,"centerLng":120.569746,"geometrySource":"all_barangay-2.csv detailed WKT","geometryMatchMethod":"unique_official_admin_names","boundaryPointCount":21},"geometry":{"type":"MultiPolygon","coordinates":[[[[120.582191,14.9119],[120.58625,14.91498],[120.586861,14.91517],[120.589027,14.9137],[120.589897,14.91329],[120.591263,14.91315],[120.592522,14.91296],[120.593536,14.91266],[120.59584,14.91129],[120.596336,14.91075],[120.598534,14.90941],[120.593002,14.90462],[120.59108,14.90629],[120.589821,14.90685],[120.588493,14.90806],[120.58757,14.90878],[120.586113,14.90918],[120.584877,14.9094],[120.583733,14.91021],[120.583092,14.91118],[120.582191,14.9119]]]]}},{"type":"Feature","properties":{"ID_0":177,"ISO":"PHL","NAME_0":"Philippines","ID_1":3054,"NAME_1":"Pampanga","ID_2":305408,"NAME_2":"Lubao","ID_3":305408037,"NAME_3":"Santa Monica","NL_NAME_3":null,"VARNAME_3":null,"TYPE_3":"Barangay","ENGTYPE_3":"Village","PROVINCE":"Pampanga","REGION":"Region III (Central Luzon)","id":"barangay-0305408037","name":"Santa Monica","barangayCode":"0305408037","population":null,"formattedPop":null,"densityCategory":"No data","vulnerabilityRating":"No data","healthRiskLevel":"No data","areaKm2":2.974068,"centerLat":14.959512,"centerLng":120.60396,"geometrySource":"all_barangay-2.csv detailed WKT","geometryMatchMethod":"unique_official_admin_names","boundaryPointCount":43},"geometry":{"type":"MultiPolygon","coordinates":[[[[120.611298,14.96047],[120.612244,14.95924],[120.611977,14.95725],[120.612122,14.95682],[120.613853,14.95649],[120.615898,14.95601],[120.616867,14.95546],[120.617683,14.95471],[120.618317,14.95345],[120.61982,14.95264],[120.620934,14.9522],[120.622559,14.9517],[120.623993,14.95146],[120.625397,14.95119],[120.626488,14.95066],[120.627808,14.94975],[120.628708,14.94902],[120.629921,14.94854],[120.631248,14.94782],[120.632309,14.94702],[120.632843,14.94643],[120.631477,14.94389],[120.630898,14.94256],[120.631126,14.94104],[120.631447,14.93923],[120.631073,14.93666],[120.629082,14.93767],[120.627274,14.93835],[120.625366,14.93949],[120.623528,14.93984],[120.617531,14.94156],[120.616257,14.94212],[120.613701,14.94297],[120.611656,14.94341],[120.607941,14.94432],[120.605957,14.94541],[120.599274,14.94901],[120.60083,14.95145],[120.601913,14.95361],[120.603752,14.95547],[120.605347,14.95651],[120.606613,14.95723],[120.611298,14.96047]]]]}},{"type":"Feature","properties":{"ID_0":177,"ISO":"PHL","NAME_0":"Philippines","ID_1":3054,"NAME_1":"Pampanga","ID_2":305408,"NAME_2":"Lubao","ID_3":305408038,"NAME_3":"Santa Rita","NL_NAME_3":null,"VARNAME_3":null,"TYPE_3":"Barangay","ENGTYPE_3":"Village","PROVINCE":"Pampanga","REGION":"Region III (Central Luzon)","id":"barangay-0305408038","name":"Santa Rita","barangayCode":"0305408038","population":null,"formattedPop":null,"densityCategory":"No data","vulnerabilityRating":"No data","healthRiskLevel":"No data","areaKm2":2.07306,"centerLat":14.940479,"centerLng":120.536715,"geometrySource":"all_barangay-2.csv detailed WKT","geometryMatchMethod":"unique_official_admin_names","boundaryPointCount":27},"geometry":{"type":"MultiPolygon","coordinates":[[[[120.562576,14.93479],[120.576424,14.92368],[120.576103,14.92255],[120.575073,14.92074],[120.57476,14.91966],[120.574203,14.91788],[120.573708,14.91604],[120.571999,14.91273],[120.571426,14.91081],[120.569611,14.90587],[120.56662,14.90818],[120.564423,14.90837],[120.562881,14.90936],[120.561943,14.91006],[120.560677,14.91109],[120.559647,14.91245],[120.558807,14.91303],[120.557907,14.91329],[120.556587,14.91356],[120.555267,14.91403],[120.554314,14.91466],[120.547882,14.91939],[120.55381,14.93391],[120.555847,14.93383],[120.558319,14.93356],[120.560333,14.93394],[120.562576,14.93479]]]]}},{"type":"Feature","properties":{"ID_0":177,"ISO":"PHL","NAME_0":"Philippines","ID_1":3054,"NAME_1":"Pampanga","ID_2":305408,"NAME_2":"Lubao","ID_3":305408040,"NAME_3":"Santa Teresa 1st","NL_NAME_3":null,"VARNAME_3":null,"TYPE_3":"Barangay","ENGTYPE_3":"Village","PROVINCE":"Pampanga","REGION":"Region III (Central Luzon)","id":"barangay-0305408040","name":"Santa Teresa 1st","barangayCode":"0305408040","population":null,"formattedPop":null,"densityCategory":"No data","vulnerabilityRating":"No data","healthRiskLevel":"No data","areaKm2":2.11459,"centerLat":14.925728,"centerLng":120.552133,"geometrySource":"all_barangay-2.csv detailed WKT","geometryMatchMethod":"unique_official_admin_names","boundaryPointCount":26},"geometry":{"type":"MultiPolygon","coordinates":[[[[120.573708,14.91604],[120.576279,14.91438],[120.578049,14.91415],[120.579063,14.91353],[120.579979,14.91296],[120.582191,14.9119],[120.581352,14.91016],[120.580757,14.90892],[120.579872,14.90703],[120.578743,14.90553],[120.57711,14.90378],[120.575493,14.90239],[120.574097,14.90131],[120.572273,14.89997],[120.570862,14.89881],[120.569443,14.8975],[120.56823,14.89596],[120.566353,14.89421],[120.566917,14.89742],[120.567642,14.89968],[120.568207,14.90196],[120.568466,14.90331],[120.569611,14.90587],[120.571426,14.91081],[120.571999,14.91273],[120.573708,14.91604]]]]}},{"type":"Feature","properties":{"ID_0":177,"ISO":"PHL","NAME_0":"Philippines","ID_1":3054,"NAME_1":"Pampanga","ID_2":305408,"NAME_2":"Lubao","ID_3":305408041,"NAME_3":"Santa Teresa 2nd","NL_NAME_3":null,"VARNAME_3":null,"TYPE_3":"Barangay","ENGTYPE_3":"Village","PROVINCE":"Pampanga","REGION":"Region III (Central Luzon)","id":"barangay-0305408041","name":"Santa Teresa 2nd","barangayCode":"0305408041","population":null,"formattedPop":null,"densityCategory":"No data","vulnerabilityRating":"No data","healthRiskLevel":"No data","areaKm2":14.066779,"centerLat":14.859303,"centerLng":120.564272,"geometrySource":"all_barangay-2.csv detailed WKT","geometryMatchMethod":"unique_official_admin_names","boundaryPointCount":30},"geometry":{"type":"MultiPolygon","coordinates":[[[[120.595558,14.87758],[120.596519,14.87537],[120.596581,14.87421],[120.595787,14.87247],[120.595497,14.87199],[120.595482,14.87072],[120.59539,14.86892],[120.594727,14.86779],[120.593964,14.86701],[120.591942,14.86588],[120.590813,14.86549],[120.589401,14.86509],[120.588531,14.86459],[120.587708,14.86298],[120.587471,14.86419],[120.585922,14.86665],[120.584213,14.86759],[120.583237,14.86796],[120.58284,14.86897],[120.581757,14.87005],[120.584122,14.8699],[120.585312,14.87094],[120.586273,14.8719],[120.587624,14.87236],[120.588829,14.87245],[120.590057,14.87312],[120.591698,14.87438],[120.592812,14.87564],[120.594307,14.87696],[120.595558,14.87758]]]]}},{"type":"Feature","properties":{"ID_0":177,"ISO":"PHL","NAME_0":"Philippines","ID_1":3054,"NAME_1":"Pampanga","ID_2":305408,"NAME_2":"Lubao","ID_3":305408042,"NAME_3":"Santiago","NL_NAME_3":null,"VARNAME_3":null,"TYPE_3":"Barangay","ENGTYPE_3":"Village","PROVINCE":"Pampanga","REGION":"Region III (Central Luzon)","id":"barangay-0305408042","name":"Santiago","barangayCode":"0305408042","population":null,"formattedPop":null,"densityCategory":"No data","vulnerabilityRating":"No data","healthRiskLevel":"No data","areaKm2":3.651269,"centerLat":14.90032,"centerLng":120.514505,"geometrySource":"all_barangay-2.csv detailed WKT","geometryMatchMethod":"unique_official_admin_names","boundaryPointCount":32},"geometry":{"type":"MultiPolygon","coordinates":[[[[120.532303,14.88576],[120.533829,14.88435],[120.536377,14.88245],[120.539093,14.881],[120.542641,14.87827],[120.543983,14.87861],[120.544968,14.87857],[120.546356,14.87836],[120.547157,14.87812],[120.548103,14.87733],[120.539864,14.86499],[120.538986,14.86338],[120.53318,14.85931],[120.530273,14.85602],[120.519958,14.8457],[120.518608,14.84751],[120.515442,14.84978],[120.514328,14.85118],[120.513634,14.85272],[120.511597,14.8547],[120.509819,14.85685],[120.508324,14.85895],[120.506477,14.86189],[120.504311,14.86493],[120.503014,14.86798],[120.502777,14.87022],[120.504471,14.87357],[120.505608,14.87509],[120.506989,14.87652],[120.507339,14.87736],[120.507446,14.87971],[120.532303,14.88576]]]]}},{"type":"Feature","properties":{"ID_0":177,"ISO":"PHL","NAME_0":"Philippines","ID_1":3054,"NAME_1":"Pampanga","ID_2":305408,"NAME_2":"Lubao","ID_3":305408043,"NAME_3":"Santo Domingo","NL_NAME_3":null,"VARNAME_3":null,"TYPE_3":"Barangay","ENGTYPE_3":"Village","PROVINCE":"Pampanga","REGION":"Region III (Central Luzon)","id":"barangay-0305408043","name":"Santo Domingo","barangayCode":"0305408043","population":null,"formattedPop":null,"densityCategory":"No data","vulnerabilityRating":"No data","healthRiskLevel":"No data","areaKm2":2.122284,"centerLat":14.962967,"centerLng":120.563485,"geometrySource":"all_barangay-2.csv detailed WKT","geometryMatchMethod":"unique_official_admin_names","boundaryPointCount":29},"geometry":{"type":"MultiPolygon","coordinates":[[[[120.589699,14.95745],[120.59301,14.95726],[120.594887,14.9571],[120.596558,14.95655],[120.597954,14.95568],[120.599564,14.95515],[120.600929,14.95444],[120.601913,14.95361],[120.60083,14.95145],[120.599274,14.94901],[120.598228,14.94738],[120.597298,14.94595],[120.596672,14.94366],[120.595573,14.94084],[120.594963,14.94116],[120.593643,14.94104],[120.592072,14.94067],[120.591187,14.94023],[120.590263,14.93734],[120.587593,14.9326],[120.585899,14.933],[120.584007,14.93328],[120.582687,14.93459],[120.581573,14.93576],[120.580994,14.93718],[120.580833,14.9394],[120.580818,14.94018],[120.586319,14.95062],[120.589699,14.95745]]]]}},{"type":"Feature","properties":{"ID_0":177,"ISO":"PHL","NAME_0":"Philippines","ID_1":3054,"NAME_1":"Pampanga","ID_2":305408,"NAME_2":"Lubao","ID_3":305408044,"NAME_3":"Santo Niño","NL_NAME_3":null,"VARNAME_3":"Santo Nino (Prado Aruba)","TYPE_3":"Barangay","ENGTYPE_3":"Village","PROVINCE":"Pampanga","REGION":"Region III (Central Luzon)","id":"barangay-0305408044","name":"Santo Niño","barangayCode":"0305408044","population":null,"formattedPop":null,"densityCategory":"No data","vulnerabilityRating":"No data","healthRiskLevel":"No data","areaKm2":5.054639,"centerLat":14.870177,"centerLng":120.508366,"geometrySource":"all_barangay-2.csv detailed WKT","geometryMatchMethod":"unique_official_admin_names","boundaryPointCount":17},"geometry":{"type":"MultiPolygon","coordinates":[[[[120.519958,14.8457],[120.530273,14.85602],[120.557861,14.83825],[120.552017,14.8244],[120.550728,14.82472],[120.548561,14.82533],[120.545341,14.82642],[120.543007,14.82795],[120.539673,14.83005],[120.537079,14.83187],[120.534851,14.83345],[120.532661,14.83517],[120.529991,14.83742],[120.52774,14.83912],[120.525238,14.84065],[120.521622,14.84396],[120.519958,14.8457]]]]}},{"type":"Feature","properties":{"ID_0":177,"ISO":"PHL","NAME_0":"Philippines","ID_1":3054,"NAME_1":"Pampanga","ID_2":305408,"NAME_2":"Lubao","ID_3":305408045,"NAME_3":"Santo Tomas","NL_NAME_3":null,"VARNAME_3":null,"TYPE_3":"Barangay","ENGTYPE_3":"Village","PROVINCE":"Pampanga","REGION":"Region III (Central Luzon)","id":"barangay-0305408045","name":"Santo Tomas","barangayCode":"0305408045","population":null,"formattedPop":null,"densityCategory":"No data","vulnerabilityRating":"No data","healthRiskLevel":"No data","areaKm2":2.192494,"centerLat":14.950256,"centerLng":120.601331,"geometrySource":"all_barangay-2.csv detailed WKT","geometryMatchMethod":"unique_official_admin_names","boundaryPointCount":18},"geometry":{"type":"MultiPolygon","coordinates":[[[[120.616257,14.94212],[120.613777,14.93948],[120.612312,14.93815],[120.611473,14.9372],[120.610764,14.93592],[120.610817,14.93397],[120.608757,14.93455],[120.606789,14.93516],[120.605507,14.93591],[120.604309,14.93669],[120.603271,14.9374],[120.604874,14.9398],[120.605377,14.94064],[120.606117,14.94187],[120.607941,14.94432],[120.611656,14.94341],[120.613701,14.94297],[120.616257,14.94212]]]]}},{"type":"Feature","properties":{"ID_0":177,"ISO":"PHL","NAME_0":"Philippines","ID_1":3054,"NAME_1":"Pampanga","ID_2":305408,"NAME_2":"Lubao","ID_3":305408046,"NAME_3":"Santo Cristo","NL_NAME_3":null,"VARNAME_3":null,"TYPE_3":"Barangay","ENGTYPE_3":"Village","PROVINCE":"Pampanga","REGION":"Region III (Central Luzon)","id":"barangay-0305408046","name":"Santo Cristo","barangayCode":"0305408046","population":null,"formattedPop":null,"densityCategory":"No data","vulnerabilityRating":"No data","healthRiskLevel":"No data","areaKm2":0.723391,"centerLat":14.948288,"centerLng":120.529213,"geometrySource":"all_barangay-2.csv detailed WKT","geometryMatchMethod":"unique_official_admin_names","boundaryPointCount":17},"geometry":{"type":"MultiPolygon","coordinates":[[[[120.55381,14.93391],[120.547882,14.91939],[120.533363,14.92913],[120.534317,14.93052],[120.535187,14.93231],[120.535851,14.9339],[120.536499,14.9353],[120.537102,14.93643],[120.537987,14.93758],[120.538811,14.93874],[120.543983,14.93559],[120.54451,14.93483],[120.545792,14.93416],[120.547653,14.9336],[120.548981,14.9333],[120.550339,14.93337],[120.55381,14.93391]]]]}}]}
