{"type":"FeatureCollection","features":[{"type":"Feature","properties":{"ID_0":177,"ISO":"PHL","NAME_0":"Philippines","ID_1":7012,"NAME_1":"Bohol","ID_2":701213,"NAME_2":"Catigbian","ID_3":701213001,"NAME_3":"Alegria","NL_NAME_3":null,"VARNAME_3":null,"TYPE_3":"Barangay","ENGTYPE_3":"Village","PROVINCE":"Bohol","REGION":"Region VII (Central Visayas)","id":"barangay-0701213001","name":"Alegria","barangayCode":"0701213001","population":null,"formattedPop":null,"densityCategory":"No data","vulnerabilityRating":"No data","healthRiskLevel":"No data","areaKm2":6.182182,"centerLat":9.868277,"centerLng":124.031364,"geometrySource":"all_barangay-2.csv detailed WKT","geometryMatchMethod":"unique_official_admin_names","boundaryPointCount":12},"geometry":{"type":"MultiPolygon","coordinates":[[[[124.026131,9.87525],[124.026077,9.87228],[124.034264,9.86965],[124.034714,9.86367],[124.031433,9.86037],[124.026604,9.86227],[124.019829,9.85772],[124.013779,9.86402],[124.010513,9.86623],[124.013237,9.87246],[124.022537,9.87379],[124.026131,9.87525]]]]}},{"type":"Feature","properties":{"ID_0":177,"ISO":"PHL","NAME_0":"Philippines","ID_1":7012,"NAME_1":"Bohol","ID_2":701213,"NAME_2":"Catigbian","ID_3":701213002,"NAME_3":"Ambuan","NL_NAME_3":null,"VARNAME_3":null,"TYPE_3":"Barangay","ENGTYPE_3":"Village","PROVINCE":"Bohol","REGION":"Region VII (Central Visayas)","id":"barangay-0701213002","name":"Ambuan","barangayCode":"0701213002","population":null,"formattedPop":null,"densityCategory":"No data","vulnerabilityRating":"No data","healthRiskLevel":"No data","areaKm2":11.026315,"centerLat":9.813381,"centerLng":124.015361,"geometrySource":"all_barangay-2.csv detailed WKT","geometryMatchMethod":"unique_official_admin_names","boundaryPointCount":20},"geometry":{"type":"MultiPolygon","coordinates":[[[[124.034737,9.83015],[124.032921,9.8264],[124.031593,9.82532],[124.030373,9.82293],[124.02993,9.82063],[124.030006,9.81788],[124.030457,9.81485],[124.03141,9.81245],[124.032188,9.8099],[124.032181,9.80613],[124.030952,9.80381],[124.029839,9.80192],[124.028793,9.80075],[124.027473,9.79952],[124.020157,9.8033],[123.997673,9.81506],[123.99894,9.82842],[124.008522,9.8475],[124.016533,9.83277],[124.034737,9.83015]]]]}},{"type":"Feature","properties":{"ID_0":177,"ISO":"PHL","NAME_0":"Philippines","ID_1":7012,"NAME_1":"Bohol","ID_2":701213,"NAME_2":"Catigbian","ID_3":701213003,"NAME_3":"Baang","NL_NAME_3":null,"VARNAME_3":null,"TYPE_3":"Barangay","ENGTYPE_3":"Village","PROVINCE":"Bohol","REGION":"Region VII (Central Visayas)","id":"barangay-0701213003","name":"Baang","barangayCode":"0701213003","population":null,"formattedPop":null,"densityCategory":"No data","vulnerabilityRating":"No data","healthRiskLevel":"No data","areaKm2":3.724199,"centerLat":9.850018,"centerLng":124.041516,"geometrySource":"all_barangay-2.csv detailed WKT","geometryMatchMethod":"unique_official_admin_names","boundaryPointCount":7},"geometry":{"type":"MultiPolygon","coordinates":[[[[124.031433,9.86037],[124.056183,9.85183],[124.050552,9.84424],[124.028,9.84752],[124.019829,9.85772],[124.026604,9.86227],[124.031433,9.86037]]]]}},{"type":"Feature","properties":{"ID_0":177,"ISO":"PHL","NAME_0":"Philippines","ID_1":7012,"NAME_1":"Bohol","ID_2":701213,"NAME_2":"Catigbian","ID_3":701213004,"NAME_3":"Bagtic","NL_NAME_3":null,"VARNAME_3":null,"TYPE_3":"Barangay","ENGTYPE_3":"Village","PROVINCE":"Bohol","REGION":"Region VII (Central Visayas)","id":"barangay-0701213004","name":"Bagtic","barangayCode":"0701213004","population":null,"formattedPop":null,"densityCategory":"No data","vulnerabilityRating":"No data","healthRiskLevel":"No data","areaKm2":2.238237,"centerLat":9.839541,"centerLng":124.059762,"geometrySource":"all_barangay-2.csv detailed WKT","geometryMatchMethod":"unique_official_admin_names","boundaryPointCount":7},"geometry":{"type":"MultiPolygon","coordinates":[[[[124.067329,9.84828],[124.068687,9.83633],[124.056602,9.83672],[124.058403,9.83982],[124.050552,9.84424],[124.056183,9.85183],[124.067329,9.84828]]]]}},{"type":"Feature","properties":{"ID_0":177,"ISO":"PHL","NAME_0":"Philippines","ID_1":7012,"NAME_1":"Bohol","ID_2":701213,"NAME_2":"Catigbian","ID_3":701213005,"NAME_3":"Bongbong","NL_NAME_3":null,"VARNAME_3":null,"TYPE_3":"Barangay","ENGTYPE_3":"Village","PROVINCE":"Bohol","REGION":"Region VII (Central Visayas)","id":"barangay-0701213005","name":"Bongbong","barangayCode":"0701213005","population":null,"formattedPop":null,"densityCategory":"No data","vulnerabilityRating":"No data","healthRiskLevel":"No data","areaKm2":6.912295,"centerLat":9.837808,"centerLng":124.02356,"geometrySource":"all_barangay-2.csv detailed WKT","geometryMatchMethod":"unique_official_admin_names","boundaryPointCount":7},"geometry":{"type":"MultiPolygon","coordinates":[[[[124.012642,9.85328],[124.019829,9.85772],[124.028,9.84752],[124.034737,9.83015],[124.016533,9.83277],[124.008522,9.8475],[124.012642,9.85328]]]]}},{"type":"Feature","properties":{"ID_0":177,"ISO":"PHL","NAME_0":"Philippines","ID_1":7012,"NAME_1":"Bohol","ID_2":701213,"NAME_2":"Catigbian","ID_3":701213007,"NAME_3":"Cambailan","NL_NAME_3":null,"VARNAME_3":null,"TYPE_3":"Barangay","ENGTYPE_3":"Village","PROVINCE":"Bohol","REGION":"Region VII (Central Visayas)","id":"barangay-0701213007","name":"Cambailan","barangayCode":"0701213007","population":null,"formattedPop":null,"densityCategory":"No data","vulnerabilityRating":"No data","healthRiskLevel":"No data","areaKm2":4.164582,"centerLat":9.83563,"centerLng":124.043543,"geometrySource":"all_barangay-2.csv detailed WKT","geometryMatchMethod":"unique_official_admin_names","boundaryPointCount":6},"geometry":{"type":"MultiPolygon","coordinates":[[[[124.050552,9.84424],[124.058403,9.83982],[124.056602,9.83672],[124.034737,9.83015],[124.028,9.84752],[124.050552,9.84424]]]]}},{"type":"Feature","properties":{"ID_0":177,"ISO":"PHL","NAME_0":"Philippines","ID_1":7012,"NAME_1":"Bohol","ID_2":701213,"NAME_2":"Catigbian","ID_3":701213008,"NAME_3":"Candumayao","NL_NAME_3":null,"VARNAME_3":null,"TYPE_3":"Barangay","ENGTYPE_3":"Village","PROVINCE":"Bohol","REGION":"Region VII (Central Visayas)","id":"barangay-0701213008","name":"Candumayao","barangayCode":"0701213008","population":null,"formattedPop":null,"densityCategory":"No data","vulnerabilityRating":"No data","healthRiskLevel":"No data","areaKm2":7.844958,"centerLat":9.879635,"centerLng":124.007497,"geometrySource":"all_barangay-2.csv detailed WKT","geometryMatchMethod":"unique_official_admin_names","boundaryPointCount":38},"geometry":{"type":"MultiPolygon","coordinates":[[[[124.008949,9.89601],[124.010452,9.89556],[124.013718,9.88779],[124.012001,9.88465],[124.014297,9.88315],[124.012932,9.88171],[124.013237,9.87246],[124.010513,9.86623],[124.003777,9.86696],[124.001617,9.86603],[124.000542,9.86573],[123.99839,9.86505],[123.996803,9.8639],[123.993607,9.86683],[123.994347,9.86789],[123.994888,9.86886],[123.994827,9.87023],[123.993889,9.87152],[123.993767,9.87301],[123.993599,9.87466],[123.99369,9.87611],[123.993401,9.87781],[123.992912,9.87861],[123.992249,9.87966],[123.991081,9.88434],[123.994926,9.88642],[123.995651,9.8872],[123.996201,9.8882],[123.997078,9.89104],[123.998047,9.89158],[123.998627,9.89199],[123.999153,9.89312],[124.000252,9.89359],[124.002136,9.89393],[124.003639,9.89481],[124.005592,9.895],[124.007347,9.8959],[124.008949,9.89601]]]]}},{"type":"Feature","properties":{"ID_0":177,"ISO":"PHL","NAME_0":"Philippines","ID_1":7012,"NAME_1":"Bohol","ID_2":701213,"NAME_2":"Catigbian","ID_3":701213009,"NAME_3":"Kang-iras","NL_NAME_3":null,"VARNAME_3":null,"TYPE_3":"Barangay","ENGTYPE_3":"Village","PROVINCE":"Bohol","REGION":"Region VII (Central Visayas)","id":"barangay-0701213009","name":"Kang-iras","barangayCode":"0701213009","population":null,"formattedPop":null,"densityCategory":"No data","vulnerabilityRating":"No data","healthRiskLevel":"No data","areaKm2":9.624558,"centerLat":9.838774,"centerLng":124.080633,"geometrySource":"all_barangay-2.csv detailed WKT","geometryMatchMethod":"unique_official_admin_names","boundaryPointCount":41},"geometry":{"type":"MultiPolygon","coordinates":[[[[124.103394,9.86812],[124.101967,9.86676],[124.100906,9.8647],[124.101044,9.86341],[124.100777,9.86269],[124.099731,9.86252],[124.098907,9.86229],[124.098244,9.8617],[124.097923,9.8611],[124.098312,9.86003],[124.099403,9.85833],[124.099998,9.85707],[124.099838,9.8557],[124.099663,9.85481],[124.099907,9.85385],[124.097656,9.85353],[124.097366,9.85317],[124.097672,9.85153],[124.098267,9.84985],[124.098999,9.84819],[124.098862,9.84702],[124.098999,9.84549],[124.099457,9.8444],[124.099533,9.84338],[124.09903,9.84223],[124.098831,9.84118],[124.098282,9.84055],[124.097763,9.84066],[124.096558,9.84135],[124.095863,9.84163],[124.095078,9.84128],[124.094543,9.84056],[124.093468,9.83975],[124.092377,9.83921],[124.091537,9.83918],[124.090973,9.83905],[124.090683,9.83875],[124.068687,9.83633],[124.067329,9.84828],[124.079529,9.85193],[124.103394,9.86812]]]]}},{"type":"Feature","properties":{"ID_0":177,"ISO":"PHL","NAME_0":"Philippines","ID_1":7012,"NAME_1":"Bohol","ID_2":701213,"NAME_2":"Catigbian","ID_3":701213011,"NAME_3":"Causwagan Norte","NL_NAME_3":null,"VARNAME_3":null,"TYPE_3":"Barangay","ENGTYPE_3":"Village","PROVINCE":"Bohol","REGION":"Region VII (Central Visayas)","id":"barangay-0701213011","name":"Causwagan Norte","barangayCode":"0701213011","population":null,"formattedPop":null,"densityCategory":"No data","vulnerabilityRating":"No data","healthRiskLevel":"No data","areaKm2":6.412579,"centerLat":9.890232,"centerLng":124.029886,"geometrySource":"all_barangay-2.csv detailed WKT","geometryMatchMethod":"unique_official_admin_names","boundaryPointCount":13},"geometry":{"type":"MultiPolygon","coordinates":[[[[124.010452,9.89556],[124.011292,9.8951],[124.024399,9.88303],[124.023804,9.8816],[124.026047,9.88094],[124.026131,9.87525],[124.022537,9.87379],[124.013237,9.87246],[124.012932,9.88171],[124.014297,9.88315],[124.012001,9.88465],[124.013718,9.88779],[124.010452,9.89556]]]]}},{"type":"Feature","properties":{"ID_0":177,"ISO":"PHL","NAME_0":"Philippines","ID_1":7012,"NAME_1":"Bohol","ID_2":701213,"NAME_2":"Catigbian","ID_3":701213013,"NAME_3":"Hagbuaya","NL_NAME_3":null,"VARNAME_3":null,"TYPE_3":"Barangay","ENGTYPE_3":"Village","PROVINCE":"Bohol","REGION":"Region VII (Central Visayas)","id":"barangay-0701213013","name":"Hagbuaya","barangayCode":"0701213013","population":null,"formattedPop":null,"densityCategory":"No data","vulnerabilityRating":"No data","healthRiskLevel":"No data","areaKm2":4.091727,"centerLat":9.820274,"centerLng":124.047965,"geometrySource":"all_barangay-2.csv detailed WKT","geometryMatchMethod":"unique_official_admin_names","boundaryPointCount":7},"geometry":{"type":"MultiPolygon","coordinates":[[[[124.056602,9.83672],[124.064247,9.82719],[124.061058,9.82137],[124.037582,9.82548],[124.032921,9.8264],[124.034737,9.83015],[124.056602,9.83672]]]]}},{"type":"Feature","properties":{"ID_0":177,"ISO":"PHL","NAME_0":"Philippines","ID_1":7012,"NAME_1":"Bohol","ID_2":701213,"NAME_2":"Catigbian","ID_3":701213014,"NAME_3":"Haguilanan","NL_NAME_3":null,"VARNAME_3":null,"TYPE_3":"Barangay","ENGTYPE_3":"Village","PROVINCE":"Bohol","REGION":"Region VII (Central Visayas)","id":"barangay-0701213014","name":"Haguilanan","barangayCode":"0701213014","population":null,"formattedPop":null,"densityCategory":"No data","vulnerabilityRating":"No data","healthRiskLevel":"No data","areaKm2":4.404042,"centerLat":9.819938,"centerLng":123.989222,"geometrySource":"all_barangay-2.csv detailed WKT","geometryMatchMethod":"unique_official_admin_names","boundaryPointCount":10},"geometry":{"type":"MultiPolygon","coordinates":[[[[123.975891,9.83313],[123.991737,9.83215],[123.993607,9.83141],[123.994873,9.83095],[123.995888,9.82961],[123.997131,9.82958],[123.99894,9.82842],[123.997673,9.81506],[123.987534,9.82064],[123.975891,9.83313]]]]}},{"type":"Feature","properties":{"ID_0":177,"ISO":"PHL","NAME_0":"Philippines","ID_1":7012,"NAME_1":"Bohol","ID_2":701213,"NAME_2":"Catigbian","ID_3":701213015,"NAME_3":"Libertad Sur","NL_NAME_3":null,"VARNAME_3":null,"TYPE_3":"Barangay","ENGTYPE_3":"Village","PROVINCE":"Bohol","REGION":"Region VII (Central Visayas)","id":"barangay-0701213015","name":"Libertad Sur","barangayCode":"0701213015","population":null,"formattedPop":null,"densityCategory":"No data","vulnerabilityRating":"No data","healthRiskLevel":"No data","areaKm2":1.191068,"centerLat":9.880591,"centerLng":123.987029,"geometrySource":"all_barangay-2.csv detailed WKT","geometryMatchMethod":"unique_official_admin_names","boundaryPointCount":17},"geometry":{"type":"MultiPolygon","coordinates":[[[[123.991081,9.88434],[123.992249,9.87966],[123.992912,9.87861],[123.993401,9.87781],[123.99369,9.87611],[123.993599,9.87466],[123.993767,9.87301],[123.993889,9.87152],[123.994827,9.87023],[123.994888,9.86886],[123.994347,9.86789],[123.993607,9.86683],[123.981911,9.87716],[123.981987,9.87782],[123.981567,9.87899],[123.981033,9.87912],[123.991081,9.88434]]]]}},{"type":"Feature","properties":{"ID_0":177,"ISO":"PHL","NAME_0":"Philippines","ID_1":7012,"NAME_1":"Bohol","ID_2":701213,"NAME_2":"Catigbian","ID_3":701213016,"NAME_3":"Liboron","NL_NAME_3":null,"VARNAME_3":null,"TYPE_3":"Barangay","ENGTYPE_3":"Village","PROVINCE":"Bohol","REGION":"Region VII (Central Visayas)","id":"barangay-0701213016","name":"Liboron","barangayCode":"0701213016","population":null,"formattedPop":null,"densityCategory":"No data","vulnerabilityRating":"No data","healthRiskLevel":"No data","areaKm2":2.709736,"centerLat":9.8563,"centerLng":124.05191,"geometrySource":"all_barangay-2.csv detailed WKT","geometryMatchMethod":"unique_official_admin_names","boundaryPointCount":5},"geometry":{"type":"MultiPolygon","coordinates":[[[[124.06044,9.86189],[124.056183,9.85183],[124.031433,9.86037],[124.034714,9.86367],[124.06044,9.86189]]]]}},{"type":"Feature","properties":{"ID_0":177,"ISO":"PHL","NAME_0":"Philippines","ID_1":7012,"NAME_1":"Bohol","ID_2":701213,"NAME_2":"Catigbian","ID_3":701213017,"NAME_3":"Mahayag Norte","NL_NAME_3":null,"VARNAME_3":null,"TYPE_3":"Barangay","ENGTYPE_3":"Village","PROVINCE":"Bohol","REGION":"Region VII (Central Visayas)","id":"barangay-0701213017","name":"Mahayag Norte","barangayCode":"0701213017","population":null,"formattedPop":null,"densityCategory":"No data","vulnerabilityRating":"No data","healthRiskLevel":"No data","areaKm2":2.037733,"centerLat":9.824324,"centerLng":124.065664,"geometrySource":"all_barangay-2.csv detailed WKT","geometryMatchMethod":"unique_official_admin_names","boundaryPointCount":22},"geometry":{"type":"MultiPolygon","coordinates":[[[[124.068687,9.83633],[124.090683,9.83875],[124.090477,9.83836],[124.090523,9.83584],[124.090393,9.83518],[124.091019,9.83478],[124.091568,9.83423],[124.091431,9.83335],[124.091904,9.83234],[124.090286,9.83108],[124.088921,9.82945],[124.087212,9.82754],[124.085709,9.82674],[124.084633,9.82591],[124.084503,9.82514],[124.084007,9.82414],[124.082809,9.82335],[124.082199,9.82287],[124.081413,9.82194],[124.064247,9.82719],[124.056602,9.83672],[124.068687,9.83633]]]]}},{"type":"Feature","properties":{"ID_0":177,"ISO":"PHL","NAME_0":"Philippines","ID_1":7012,"NAME_1":"Bohol","ID_2":701213,"NAME_2":"Catigbian","ID_3":701213018,"NAME_3":"Mahayag Sur","NL_NAME_3":null,"VARNAME_3":null,"TYPE_3":"Barangay","ENGTYPE_3":"Village","PROVINCE":"Bohol","REGION":"Region VII (Central Visayas)","id":"barangay-0701213018","name":"Mahayag Sur","barangayCode":"0701213018","population":null,"formattedPop":null,"densityCategory":"No data","vulnerabilityRating":"No data","healthRiskLevel":"No data","areaKm2":1.529222,"centerLat":9.814815,"centerLng":124.063595,"geometrySource":"all_barangay-2.csv detailed WKT","geometryMatchMethod":"unique_official_admin_names","boundaryPointCount":22},"geometry":{"type":"MultiPolygon","coordinates":[[[[124.064247,9.82719],[124.081413,9.82194],[124.080582,9.82146],[124.079857,9.82122],[124.079376,9.82086],[124.079086,9.82004],[124.079399,9.81899],[124.079788,9.81808],[124.079552,9.8173],[124.078888,9.81658],[124.077957,9.81608],[124.076843,9.81631],[124.076347,9.81665],[124.07592,9.81725],[124.075592,9.81813],[124.075783,9.81907],[124.075157,9.81975],[124.074799,9.81987],[124.074188,9.81939],[124.074043,9.81875],[124.061058,9.82137],[124.064247,9.82719]]]]}},{"type":"Feature","properties":{"ID_0":177,"ISO":"PHL","NAME_0":"Philippines","ID_1":7012,"NAME_1":"Bohol","ID_2":701213,"NAME_2":"Catigbian","ID_3":701213019,"NAME_3":"Maitum","NL_NAME_3":null,"VARNAME_3":null,"TYPE_3":"Barangay","ENGTYPE_3":"Village","PROVINCE":"Bohol","REGION":"Region VII (Central Visayas)","id":"barangay-0701213019","name":"Maitum","barangayCode":"0701213019","population":null,"formattedPop":null,"densityCategory":"No data","vulnerabilityRating":"No data","healthRiskLevel":"No data","areaKm2":8.159363,"centerLat":9.86093,"centerLng":124.076985,"geometrySource":"all_barangay-2.csv detailed WKT","geometryMatchMethod":"unique_official_admin_names","boundaryPointCount":9},"geometry":{"type":"MultiPolygon","coordinates":[[[[124.103394,9.86812],[124.079529,9.85193],[124.067329,9.84828],[124.056183,9.85183],[124.06044,9.86189],[124.063339,9.86793],[124.064911,9.86793],[124.096603,9.86817],[124.103394,9.86812]]]]}},{"type":"Feature","properties":{"ID_0":177,"ISO":"PHL","NAME_0":"Philippines","ID_1":7012,"NAME_1":"Bohol","ID_2":701213,"NAME_2":"Catigbian","ID_3":701213020,"NAME_3":"Mantasida","NL_NAME_3":null,"VARNAME_3":null,"TYPE_3":"Barangay","ENGTYPE_3":"Village","PROVINCE":"Bohol","REGION":"Region VII (Central Visayas)","id":"barangay-0701213020","name":"Mantasida","barangayCode":"0701213020","population":null,"formattedPop":null,"densityCategory":"No data","vulnerabilityRating":"No data","healthRiskLevel":"No data","areaKm2":2.381086,"centerLat":9.887986,"centerLng":124.049067,"geometrySource":"all_barangay-2.csv detailed WKT","geometryMatchMethod":"unique_official_admin_names","boundaryPointCount":10},"geometry":{"type":"MultiPolygon","coordinates":[[[[124.024399,9.88303],[124.042686,9.8696],[124.040443,9.8683],[124.038193,9.86996],[124.034264,9.86965],[124.026077,9.87228],[124.026131,9.87525],[124.026047,9.88094],[124.023804,9.8816],[124.024399,9.88303]]]]}},{"type":"Feature","properties":{"ID_0":177,"ISO":"PHL","NAME_0":"Philippines","ID_1":7012,"NAME_1":"Bohol","ID_2":701213,"NAME_2":"Catigbian","ID_3":701213021,"NAME_3":"Poblacion","NL_NAME_3":null,"VARNAME_3":null,"TYPE_3":"Barangay","ENGTYPE_3":"Village","PROVINCE":"Bohol","REGION":"Region VII (Central Visayas)","id":"barangay-0701213021","name":"Poblacion","barangayCode":"0701213021","population":null,"formattedPop":null,"densityCategory":"No data","vulnerabilityRating":"No data","healthRiskLevel":"No data","areaKm2":4.537325,"centerLat":9.859352,"centerLng":124.007493,"geometrySource":"all_barangay-2.csv detailed WKT","geometryMatchMethod":"unique_official_admin_names","boundaryPointCount":21},"geometry":{"type":"MultiPolygon","coordinates":[[[[124.010513,9.86623],[124.013779,9.86402],[124.019829,9.85772],[124.012642,9.85328],[123.998962,9.86013],[123.997887,9.85987],[123.996071,9.85963],[123.995529,9.85972],[123.995087,9.86005],[123.995438,9.86079],[123.996277,9.86124],[123.996834,9.86177],[123.997169,9.86277],[123.997124,9.86297],[123.996719,9.86345],[123.996803,9.8639],[123.99839,9.86505],[124.000542,9.86573],[124.001617,9.86603],[124.003777,9.86696],[124.010513,9.86623]]]]}},{"type":"Feature","properties":{"ID_0":177,"ISO":"PHL","NAME_0":"Philippines","ID_1":7012,"NAME_1":"Bohol","ID_2":701213,"NAME_2":"Catigbian","ID_3":701213022,"NAME_3":"Rizal","NL_NAME_3":null,"VARNAME_3":null,"TYPE_3":"Barangay","ENGTYPE_3":"Village","PROVINCE":"Bohol","REGION":"Region VII (Central Visayas)","id":"barangay-0701213022","name":"Rizal","barangayCode":"0701213022","population":null,"formattedPop":null,"densityCategory":"No data","vulnerabilityRating":"No data","healthRiskLevel":"No data","areaKm2":4.089407,"centerLat":9.865763,"centerLng":123.985706,"geometrySource":"all_barangay-2.csv detailed WKT","geometryMatchMethod":"unique_official_admin_names","boundaryPointCount":52},"geometry":{"type":"MultiPolygon","coordinates":[[[[123.981911,9.87716],[123.993607,9.86683],[123.996803,9.8639],[123.996719,9.86345],[123.997124,9.86297],[123.997169,9.86277],[123.996834,9.86177],[123.996277,9.86124],[123.995438,9.86079],[123.995087,9.86005],[123.994858,9.85913],[123.994438,9.85853],[123.993843,9.85793],[123.992462,9.85762],[123.991447,9.85706],[123.989967,9.8562],[123.988968,9.85574],[123.987679,9.85492],[123.987,9.85444],[123.985023,9.85422],[123.983681,9.85422],[123.982529,9.85445],[123.981934,9.8541],[123.980797,9.85422],[123.980324,9.8552],[123.979599,9.85652],[123.979218,9.85761],[123.978889,9.85888],[123.978912,9.86034],[123.97834,9.86121],[123.977386,9.86159],[123.976402,9.86217],[123.976158,9.86287],[123.976257,9.864],[123.976372,9.86474],[123.976227,9.86511],[123.976044,9.86606],[123.976196,9.86699],[123.975899,9.86796],[123.975616,9.86861],[123.975922,9.86911],[123.976807,9.87036],[123.976402,9.87132],[123.975754,9.87173],[123.975647,9.87198],[123.976128,9.8726],[123.97702,9.87346],[123.978043,9.87441],[123.979446,9.87548],[123.980537,9.87606],[123.981323,9.87651],[123.981911,9.87716]]]]}},{"type":"Feature","properties":{"ID_0":177,"ISO":"PHL","NAME_0":"Philippines","ID_1":7012,"NAME_1":"Bohol","ID_2":701213,"NAME_2":"Catigbian","ID_3":701213025,"NAME_3":"Sinakayanan","NL_NAME_3":null,"VARNAME_3":null,"TYPE_3":"Barangay","ENGTYPE_3":"Village","PROVINCE":"Bohol","REGION":"Region VII (Central Visayas)","id":"barangay-0701213025","name":"Sinakayanan","barangayCode":"0701213025","population":null,"formattedPop":null,"densityCategory":"No data","vulnerabilityRating":"No data","healthRiskLevel":"No data","areaKm2":6.600962,"centerLat":9.835632,"centerLng":123.992694,"geometrySource":"all_barangay-2.csv detailed WKT","geometryMatchMethod":"unique_official_admin_names","boundaryPointCount":21},"geometry":{"type":"MultiPolygon","coordinates":[[[[124.008522,9.8475],[123.99894,9.82842],[123.997131,9.82958],[123.995888,9.82961],[123.994873,9.83095],[123.993607,9.83141],[123.991737,9.83215],[123.975891,9.83313],[123.976341,9.83407],[123.976303,9.83486],[123.976181,9.8365],[123.976738,9.83792],[123.977638,9.83918],[123.978554,9.83985],[123.978989,9.84016],[123.97908,9.84112],[123.978996,9.84263],[123.979134,9.84459],[123.97924,9.84564],[123.997261,9.84605],[124.008522,9.8475]]]]}},{"type":"Feature","properties":{"ID_0":177,"ISO":"PHL","NAME_0":"Philippines","ID_1":7012,"NAME_1":"Bohol","ID_2":701213,"NAME_2":"Catigbian","ID_3":701213026,"NAME_3":"Triple Union","NL_NAME_3":null,"VARNAME_3":null,"TYPE_3":"Barangay","ENGTYPE_3":"Village","PROVINCE":"Bohol","REGION":"Region VII (Central Visayas)","id":"barangay-0701213026","name":"Triple Union","barangayCode":"0701213026","population":null,"formattedPop":null,"densityCategory":"No data","vulnerabilityRating":"No data","healthRiskLevel":"No data","areaKm2":4.679567,"centerLat":9.8713,"centerLng":124.053842,"geometrySource":"all_barangay-2.csv detailed WKT","geometryMatchMethod":"unique_official_admin_names","boundaryPointCount":10},"geometry":{"type":"MultiPolygon","coordinates":[[[[124.034264,9.86965],[124.038193,9.86996],[124.040443,9.8683],[124.042686,9.8696],[124.045029,9.86784],[124.049759,9.8676],[124.063339,9.86793],[124.06044,9.86189],[124.034714,9.86367],[124.034264,9.86965]]]]}},{"type":"Feature","properties":{"ID_0":177,"ISO":"PHL","NAME_0":"Philippines","ID_1":7012,"NAME_1":"Bohol","ID_2":701213,"NAME_2":"Catigbian","ID_3":701213027,"NAME_3":"Poblacion Weste","NL_NAME_3":null,"VARNAME_3":null,"TYPE_3":"Barangay","ENGTYPE_3":"Village","PROVINCE":"Bohol","REGION":"Region VII (Central Visayas)","id":"barangay-0701213027","name":"Poblacion Weste","barangayCode":"0701213027","population":null,"formattedPop":null,"densityCategory":"No data","vulnerabilityRating":"No data","healthRiskLevel":"No data","areaKm2":3.814889,"centerLat":9.849952,"centerLng":123.994224,"geometrySource":"all_barangay-2.csv detailed WKT","geometryMatchMethod":"unique_official_admin_names","boundaryPointCount":29},"geometry":{"type":"MultiPolygon","coordinates":[[[[123.995087,9.86005],[123.995529,9.85972],[123.996071,9.85963],[123.997887,9.85987],[123.998962,9.86013],[124.012642,9.85328],[124.008522,9.8475],[123.997261,9.84605],[123.97924,9.84564],[123.9795,9.84683],[123.980347,9.84759],[123.98143,9.84909],[123.981537,9.85075],[123.981262,9.8524],[123.980797,9.85422],[123.981934,9.8541],[123.982529,9.85445],[123.983681,9.85422],[123.985023,9.85422],[123.987,9.85444],[123.987679,9.85492],[123.988968,9.85574],[123.989967,9.8562],[123.991447,9.85706],[123.992462,9.85762],[123.993843,9.85793],[123.994438,9.85853],[123.994858,9.85913],[123.995087,9.86005]]]]}}]}
