{"type":"FeatureCollection","features":[{"type":"Feature","properties":{"ID_0":177,"ISO":"PHL","NAME_0":"Philippines","ID_1":8037,"NAME_1":"Leyte","ID_2":803717,"NAME_2":"Dagami","ID_3":803717001,"NAME_3":"Abaca","NL_NAME_3":null,"VARNAME_3":null,"TYPE_3":"Barangay","ENGTYPE_3":"Village","PROVINCE":"Leyte","REGION":"Region VIII (Eastern Visayas)","id":"barangay-0803717001","name":"Abaca","barangayCode":"0803717001","population":null,"formattedPop":null,"densityCategory":"No data","vulnerabilityRating":"No data","healthRiskLevel":"No data","areaKm2":2.267817,"centerLat":11.093381,"centerLng":124.893772,"geometrySource":"all_barangay-2.csv detailed WKT","geometryMatchMethod":"unique_official_admin_names","boundaryPointCount":14},"geometry":{"type":"MultiPolygon","coordinates":[[[[124.917152,11.09754],[124.916832,11.08944],[124.909637,11.08943],[124.904099,11.09031],[124.89463,11.09033],[124.888634,11.09045],[124.888199,11.09114],[124.887749,11.09237],[124.884972,11.09281],[124.886932,11.09441],[124.889267,11.09668],[124.90004,11.09747],[124.905746,11.09692],[124.917152,11.09754]]]]}},{"type":"Feature","properties":{"ID_0":177,"ISO":"PHL","NAME_0":"Philippines","ID_1":8037,"NAME_1":"Leyte","ID_2":803717,"NAME_2":"Dagami","ID_3":803717002,"NAME_3":"Abre","NL_NAME_3":null,"VARNAME_3":null,"TYPE_3":"Barangay","ENGTYPE_3":"Village","PROVINCE":"Leyte","REGION":"Region VIII (Eastern Visayas)","id":"barangay-0803717002","name":"Abre","barangayCode":"0803717002","population":null,"formattedPop":null,"densityCategory":"No data","vulnerabilityRating":"No data","healthRiskLevel":"No data","areaKm2":2.113742,"centerLat":11.08227,"centerLng":124.884152,"geometrySource":"all_barangay-2.csv detailed WKT","geometryMatchMethod":"unique_official_admin_names","boundaryPointCount":15},"geometry":{"type":"MultiPolygon","coordinates":[[[[124.889633,11.08321],[124.89006,11.07824],[124.891731,11.07714],[124.893227,11.07705],[124.894218,11.07744],[124.89473,11.07711],[124.895058,11.07653],[124.893951,11.07564],[124.892593,11.07312],[124.890541,11.07293],[124.889023,11.07352],[124.884819,11.0739],[124.883759,11.07687],[124.881073,11.07835],[124.889633,11.08321]]]]}},{"type":"Feature","properties":{"ID_0":177,"ISO":"PHL","NAME_0":"Philippines","ID_1":8037,"NAME_1":"Leyte","ID_2":803717,"NAME_2":"Dagami","ID_3":803717003,"NAME_3":"Balilit","NL_NAME_3":null,"VARNAME_3":null,"TYPE_3":"Barangay","ENGTYPE_3":"Village","PROVINCE":"Leyte","REGION":"Region VIII (Eastern Visayas)","id":"barangay-0803717003","name":"Balilit","barangayCode":"0803717003","population":null,"formattedPop":null,"densityCategory":"No data","vulnerabilityRating":"No data","healthRiskLevel":"No data","areaKm2":2.878918,"centerLat":11.09,"centerLng":124.930251,"geometrySource":"all_barangay-2.csv detailed WKT","geometryMatchMethod":"unique_official_admin_names","boundaryPointCount":12},"geometry":{"type":"MultiPolygon","coordinates":[[[[124.946617,11.0912],[124.94133,11.0862],[124.938667,11.08226],[124.93792,11.0831],[124.936768,11.08373],[124.936478,11.08204],[124.937447,11.08086],[124.935677,11.07984],[124.935028,11.0779],[124.933006,11.08122],[124.93248,11.08871],[124.946617,11.0912]]]]}},{"type":"Feature","properties":{"ID_0":177,"ISO":"PHL","NAME_0":"Philippines","ID_1":8037,"NAME_1":"Leyte","ID_2":803717,"NAME_2":"Dagami","ID_3":803717004,"NAME_3":"Banayon","NL_NAME_3":null,"VARNAME_3":null,"TYPE_3":"Barangay","ENGTYPE_3":"Village","PROVINCE":"Leyte","REGION":"Region VIII (Eastern Visayas)","id":"barangay-0803717004","name":"Banayon","barangayCode":"0803717004","population":null,"formattedPop":null,"densityCategory":"No data","vulnerabilityRating":"No data","healthRiskLevel":"No data","areaKm2":1.223102,"centerLat":11.057114,"centerLng":124.926632,"geometrySource":"all_barangay-2.csv detailed WKT","geometryMatchMethod":"unique_official_admin_names","boundaryPointCount":16},"geometry":{"type":"MultiPolygon","coordinates":[[[[124.925262,11.06603],[124.932373,11.06251],[124.929024,11.05613],[124.926521,11.05245],[124.924919,11.04778],[124.919891,11.04753],[124.915359,11.0464],[124.914848,11.04843],[124.913452,11.04993],[124.911987,11.0524],[124.910492,11.05642],[124.910103,11.05887],[124.909737,11.06429],[124.918289,11.06497],[124.923988,11.06598],[124.925262,11.06603]]]]}},{"type":"Feature","properties":{"ID_0":177,"ISO":"PHL","NAME_0":"Philippines","ID_1":8037,"NAME_1":"Leyte","ID_2":803717,"NAME_2":"Dagami","ID_3":803717005,"NAME_3":"Bayabas","NL_NAME_3":null,"VARNAME_3":null,"TYPE_3":"Barangay","ENGTYPE_3":"Village","PROVINCE":"Leyte","REGION":"Region VIII (Eastern Visayas)","id":"barangay-0803717005","name":"Bayabas","barangayCode":"0803717005","population":null,"formattedPop":null,"densityCategory":"No data","vulnerabilityRating":"No data","healthRiskLevel":"No data","areaKm2":1.237882,"centerLat":11.037109,"centerLng":124.920246,"geometrySource":"all_barangay-2.csv detailed WKT","geometryMatchMethod":"unique_official_admin_names","boundaryPointCount":6},"geometry":{"type":"MultiPolygon","coordinates":[[[[124.927902,11.04121],[124.925949,11.03779],[124.923401,11.03204],[124.911324,11.03246],[124.914413,11.04122],[124.927902,11.04121]]]]}},{"type":"Feature","properties":{"ID_0":177,"ISO":"PHL","NAME_0":"Philippines","ID_1":8037,"NAME_1":"Leyte","ID_2":803717,"NAME_2":"Dagami","ID_3":803717006,"NAME_3":"Bolirao","NL_NAME_3":null,"VARNAME_3":null,"TYPE_3":"Barangay","ENGTYPE_3":"Village","PROVINCE":"Leyte","REGION":"Region VIII (Eastern Visayas)","id":"barangay-0803717006","name":"Bolirao","barangayCode":"0803717006","population":null,"formattedPop":null,"densityCategory":"No data","vulnerabilityRating":"No data","healthRiskLevel":"No data","areaKm2":1.720765,"centerLat":11.047091,"centerLng":124.917906,"geometrySource":"all_barangay-2.csv detailed WKT","geometryMatchMethod":"unique_official_admin_names","boundaryPointCount":7},"geometry":{"type":"MultiPolygon","coordinates":[[[[124.924919,11.04778],[124.930656,11.04701],[124.927902,11.04121],[124.914413,11.04122],[124.915359,11.0464],[124.919891,11.04753],[124.924919,11.04778]]]]}},{"type":"Feature","properties":{"ID_0":177,"ISO":"PHL","NAME_0":"Philippines","ID_1":8037,"NAME_1":"Leyte","ID_2":803717,"NAME_2":"Dagami","ID_3":803717007,"NAME_3":"Buenavista","NL_NAME_3":null,"VARNAME_3":null,"TYPE_3":"Barangay","ENGTYPE_3":"Village","PROVINCE":"Leyte","REGION":"Region VIII (Eastern Visayas)","id":"barangay-0803717007","name":"Buenavista","barangayCode":"0803717007","population":null,"formattedPop":null,"densityCategory":"No data","vulnerabilityRating":"No data","healthRiskLevel":"No data","areaKm2":4.966596,"centerLat":11.041139,"centerLng":124.848221,"geometrySource":"all_barangay-2.csv detailed WKT","geometryMatchMethod":"unique_official_admin_names","boundaryPointCount":24},"geometry":{"type":"MultiPolygon","coordinates":[[[[124.866051,11.04446],[124.863792,11.04222],[124.863121,11.04147],[124.86158,11.0385],[124.860352,11.0374],[124.857933,11.03682],[124.85627,11.0354],[124.853172,11.03361],[124.852028,11.03294],[124.846771,11.03121],[124.83857,11.02804],[124.835808,11.02951],[124.831177,11.03098],[124.840714,11.04025],[124.846092,11.04536],[124.857674,11.05464],[124.861687,11.05636],[124.866371,11.05605],[124.869247,11.05608],[124.868736,11.05577],[124.868973,11.0535],[124.867104,11.05157],[124.865921,11.04767],[124.866051,11.04446]]]]}},{"type":"Feature","properties":{"ID_0":177,"ISO":"PHL","NAME_0":"Philippines","ID_1":8037,"NAME_1":"Leyte","ID_2":803717,"NAME_2":"Dagami","ID_3":803717008,"NAME_3":"Buntay","NL_NAME_3":null,"VARNAME_3":null,"TYPE_3":"Barangay","ENGTYPE_3":"Village","PROVINCE":"Leyte","REGION":"Region VIII (Eastern Visayas)","id":"barangay-0803717008","name":"Buntay","barangayCode":"0803717008","population":null,"formattedPop":null,"densityCategory":"No data","vulnerabilityRating":"No data","healthRiskLevel":"No data","areaKm2":3.387942,"centerLat":11.086891,"centerLng":124.909827,"geometrySource":"all_barangay-2.csv detailed WKT","geometryMatchMethod":"unique_official_admin_names","boundaryPointCount":18},"geometry":{"type":"MultiPolygon","coordinates":[[[[124.909637,11.08943],[124.916832,11.08944],[124.917793,11.07837],[124.91523,11.07284],[124.911949,11.07],[124.910767,11.06933],[124.909698,11.07119],[124.909531,11.07231],[124.908051,11.07352],[124.907356,11.07577],[124.90683,11.07734],[124.905403,11.0771],[124.902763,11.07606],[124.902184,11.07697],[124.90313,11.0818],[124.905006,11.08495],[124.906197,11.08667],[124.909637,11.08943]]]]}},{"type":"Feature","properties":{"ID_0":177,"ISO":"PHL","NAME_0":"Philippines","ID_1":8037,"NAME_1":"Leyte","ID_2":803717,"NAME_2":"Dagami","ID_3":803717009,"NAME_3":"Caanislagan","NL_NAME_3":null,"VARNAME_3":null,"TYPE_3":"Barangay","ENGTYPE_3":"Village","PROVINCE":"Leyte","REGION":"Region VIII (Eastern Visayas)","id":"barangay-0803717009","name":"Caanislagan","barangayCode":"0803717009","population":null,"formattedPop":null,"densityCategory":"No data","vulnerabilityRating":"No data","healthRiskLevel":"No data","areaKm2":1.246134,"centerLat":11.091245,"centerLng":124.868869,"geometrySource":"all_barangay-2.csv detailed WKT","geometryMatchMethod":"unique_official_admin_names","boundaryPointCount":9},"geometry":{"type":"MultiPolygon","coordinates":[[[[124.870453,11.09618],[124.872368,11.09292],[124.86351,11.08877],[124.86116,11.08804],[124.859627,11.0886],[124.859001,11.09055],[124.859894,11.09162],[124.865799,11.09418],[124.870453,11.09618]]]]}},{"type":"Feature","properties":{"ID_0":177,"ISO":"PHL","NAME_0":"Philippines","ID_1":8037,"NAME_1":"Leyte","ID_2":803717,"NAME_2":"Dagami","ID_3":803717010,"NAME_3":"Cabariwan","NL_NAME_3":null,"VARNAME_3":null,"TYPE_3":"Barangay","ENGTYPE_3":"Village","PROVINCE":"Leyte","REGION":"Region VIII (Eastern Visayas)","id":"barangay-0803717010","name":"Cabariwan","barangayCode":"0803717010","population":null,"formattedPop":null,"densityCategory":"No data","vulnerabilityRating":"No data","healthRiskLevel":"No data","areaKm2":0.90018,"centerLat":11.053298,"centerLng":124.907725,"geometrySource":"all_barangay-2.csv detailed WKT","geometryMatchMethod":"unique_official_admin_names","boundaryPointCount":10},"geometry":{"type":"MultiPolygon","coordinates":[[[[124.90464,11.06161],[124.905006,11.06201],[124.907692,11.06331],[124.909737,11.06429],[124.910103,11.05887],[124.909286,11.05853],[124.907928,11.05797],[124.90448,11.05632],[124.903328,11.0599],[124.90464,11.06161]]]]}},{"type":"Feature","properties":{"ID_0":177,"ISO":"PHL","NAME_0":"Philippines","ID_1":8037,"NAME_1":"Leyte","ID_2":803717,"NAME_2":"Dagami","ID_3":803717011,"NAME_3":"Cabuloran","NL_NAME_3":null,"VARNAME_3":null,"TYPE_3":"Barangay","ENGTYPE_3":"Village","PROVINCE":"Leyte","REGION":"Region VIII (Eastern Visayas)","id":"barangay-0803717011","name":"Cabuloran","barangayCode":"0803717011","population":null,"formattedPop":null,"densityCategory":"No data","vulnerabilityRating":"No data","healthRiskLevel":"No data","areaKm2":1.578616,"centerLat":11.044322,"centerLng":124.903995,"geometrySource":"all_barangay-2.csv detailed WKT","geometryMatchMethod":"unique_official_admin_names","boundaryPointCount":13},"geometry":{"type":"MultiPolygon","coordinates":[[[[124.90448,11.05632],[124.907928,11.05797],[124.909286,11.05853],[124.910103,11.05887],[124.910492,11.05642],[124.911987,11.0524],[124.913452,11.04993],[124.89743,11.04686],[124.897926,11.0484],[124.901588,11.0516],[124.902077,11.05253],[124.902893,11.0549],[124.90448,11.05632]]]]}},{"type":"Feature","properties":{"ID_0":177,"ISO":"PHL","NAME_0":"Philippines","ID_1":8037,"NAME_1":"Leyte","ID_2":803717,"NAME_2":"Dagami","ID_3":803717012,"NAME_3":"Cabunga-an","NL_NAME_3":null,"VARNAME_3":null,"TYPE_3":"Barangay","ENGTYPE_3":"Village","PROVINCE":"Leyte","REGION":"Region VIII (Eastern Visayas)","id":"barangay-0803717012","name":"Cabunga-an","barangayCode":"0803717012","population":null,"formattedPop":null,"densityCategory":"No data","vulnerabilityRating":"No data","healthRiskLevel":"No data","areaKm2":5.950073,"centerLat":11.030564,"centerLng":124.877155,"geometrySource":"all_barangay-2.csv detailed WKT","geometryMatchMethod":"unique_official_admin_names","boundaryPointCount":12},"geometry":{"type":"MultiPolygon","coordinates":[[[[124.89743,11.04686],[124.897812,11.04329],[124.897781,11.04091],[124.896767,11.03912],[124.89492,11.03778],[124.89402,11.03595],[124.89389,11.03469],[124.892036,11.03263],[124.883133,11.03541],[124.878807,11.03669],[124.880013,11.04439],[124.89743,11.04686]]]]}},{"type":"Feature","properties":{"ID_0":177,"ISO":"PHL","NAME_0":"Philippines","ID_1":8037,"NAME_1":"Leyte","ID_2":803717,"NAME_2":"Dagami","ID_3":803717013,"NAME_3":"Calipayan","NL_NAME_3":null,"VARNAME_3":null,"TYPE_3":"Barangay","ENGTYPE_3":"Village","PROVINCE":"Leyte","REGION":"Region VIII (Eastern Visayas)","id":"barangay-0803717013","name":"Calipayan","barangayCode":"0803717013","population":null,"formattedPop":null,"densityCategory":"No data","vulnerabilityRating":"No data","healthRiskLevel":"No data","areaKm2":2.20672,"centerLat":11.095836,"centerLng":124.844381,"geometrySource":"all_barangay-2.csv detailed WKT","geometryMatchMethod":"unique_official_admin_names","boundaryPointCount":15},"geometry":{"type":"MultiPolygon","coordinates":[[[[124.845383,11.09614],[124.848442,11.09506],[124.850288,11.09367],[124.852737,11.09365],[124.857101,11.09126],[124.859001,11.09055],[124.859627,11.0886],[124.858459,11.08664],[124.857018,11.08374],[124.842903,11.08462],[124.845253,11.08765],[124.846786,11.08965],[124.846626,11.09149],[124.846008,11.09419],[124.845383,11.09614]]]]}},{"type":"Feature","properties":{"ID_0":177,"ISO":"PHL","NAME_0":"Philippines","ID_1":8037,"NAME_1":"Leyte","ID_2":803717,"NAME_2":"Dagami","ID_3":803717014,"NAME_3":"Calsadahay","NL_NAME_3":null,"VARNAME_3":null,"TYPE_3":"Barangay","ENGTYPE_3":"Village","PROVINCE":"Leyte","REGION":"Region VIII (Eastern Visayas)","id":"barangay-0803717014","name":"Calsadahay","barangayCode":"0803717014","population":null,"formattedPop":null,"densityCategory":"No data","vulnerabilityRating":"No data","healthRiskLevel":"No data","areaKm2":0.900356,"centerLat":11.062536,"centerLng":124.936771,"geometrySource":"all_barangay-2.csv detailed WKT","geometryMatchMethod":"unique_official_admin_names","boundaryPointCount":13},"geometry":{"type":"MultiPolygon","coordinates":[[[[124.944229,11.07061],[124.943962,11.06664],[124.94281,11.06532],[124.938843,11.06238],[124.938019,11.0612],[124.932373,11.06251],[124.925262,11.06603],[124.934563,11.06897],[124.936684,11.0693],[124.938881,11.06883],[124.940567,11.06974],[124.942368,11.0708],[124.944229,11.07061]]]]}},{"type":"Feature","properties":{"ID_0":177,"ISO":"PHL","NAME_0":"Philippines","ID_1":8037,"NAME_1":"Leyte","ID_2":803717,"NAME_2":"Dagami","ID_3":803717015,"NAME_3":"Caluctogan","NL_NAME_3":null,"VARNAME_3":null,"TYPE_3":"Barangay","ENGTYPE_3":"Village","PROVINCE":"Leyte","REGION":"Region VIII (Eastern Visayas)","id":"barangay-0803717015","name":"Caluctogan","barangayCode":"0803717015","population":null,"formattedPop":null,"densityCategory":"No data","vulnerabilityRating":"No data","healthRiskLevel":"No data","areaKm2":1.392976,"centerLat":11.080391,"centerLng":124.897333,"geometrySource":"all_barangay-2.csv detailed WKT","geometryMatchMethod":"unique_official_admin_names","boundaryPointCount":16},"geometry":{"type":"MultiPolygon","coordinates":[[[[124.888634,11.09045],[124.89463,11.09033],[124.904099,11.09031],[124.909637,11.08943],[124.906197,11.08667],[124.905006,11.08495],[124.90313,11.0818],[124.895432,11.08534],[124.889633,11.08321],[124.886276,11.08442],[124.885147,11.08523],[124.884819,11.08769],[124.885033,11.08938],[124.886063,11.08998],[124.887413,11.08971],[124.888634,11.09045]]]]}},{"type":"Feature","properties":{"ID_0":177,"ISO":"PHL","NAME_0":"Philippines","ID_1":8037,"NAME_1":"Leyte","ID_2":803717,"NAME_2":"Dagami","ID_3":803717016,"NAME_3":"Calutan","NL_NAME_3":null,"VARNAME_3":null,"TYPE_3":"Barangay","ENGTYPE_3":"Village","PROVINCE":"Leyte","REGION":"Region VIII (Eastern Visayas)","id":"barangay-0803717016","name":"Calutan","barangayCode":"0803717016","population":null,"formattedPop":null,"densityCategory":"No data","vulnerabilityRating":"No data","healthRiskLevel":"No data","areaKm2":0.81276,"centerLat":11.053634,"centerLng":124.932886,"geometrySource":"all_barangay-2.csv detailed WKT","geometryMatchMethod":"unique_official_admin_names","boundaryPointCount":8},"geometry":{"type":"MultiPolygon","coordinates":[[[[124.938019,11.0612],[124.936241,11.05703],[124.930656,11.04701],[124.924919,11.04778],[124.926521,11.05245],[124.929024,11.05613],[124.932373,11.06251],[124.938019,11.0612]]]]}},{"type":"Feature","properties":{"ID_0":177,"ISO":"PHL","NAME_0":"Philippines","ID_1":8037,"NAME_1":"Leyte","ID_2":803717,"NAME_2":"Dagami","ID_3":803717017,"NAME_3":"Camono-an","NL_NAME_3":null,"VARNAME_3":null,"TYPE_3":"Barangay","ENGTYPE_3":"Village","PROVINCE":"Leyte","REGION":"Region VIII (Eastern Visayas)","id":"barangay-0803717017","name":"Camono-an","barangayCode":"0803717017","population":null,"formattedPop":null,"densityCategory":"No data","vulnerabilityRating":"No data","healthRiskLevel":"No data","areaKm2":5.922122,"centerLat":11.071591,"centerLng":124.838581,"geometrySource":"all_barangay-2.csv detailed WKT","geometryMatchMethod":"unique_official_admin_names","boundaryPointCount":24},"geometry":{"type":"MultiPolygon","coordinates":[[[[124.842903,11.08462],[124.857018,11.08374],[124.856773,11.08144],[124.853287,11.07658],[124.850349,11.07338],[124.848167,11.07009],[124.844948,11.06538],[124.839081,11.0593],[124.834534,11.05572],[124.830437,11.05149],[124.82637,11.04305],[124.822922,11.03191],[124.798447,11.03142],[124.801537,11.03839],[124.809341,11.04904],[124.814919,11.05513],[124.822746,11.06489],[124.825447,11.07169],[124.82563,11.07424],[124.826019,11.07794],[124.828377,11.08205],[124.831238,11.08385],[124.834373,11.08562],[124.842903,11.08462]]]]}},{"type":"Feature","properties":{"ID_0":177,"ISO":"PHL","NAME_0":"Philippines","ID_1":8037,"NAME_1":"Leyte","ID_2":803717,"NAME_2":"Dagami","ID_3":803717018,"NAME_3":"Candagara","NL_NAME_3":null,"VARNAME_3":null,"TYPE_3":"Barangay","ENGTYPE_3":"Village","PROVINCE":"Leyte","REGION":"Region VIII (Eastern Visayas)","id":"barangay-0803717018","name":"Candagara","barangayCode":"0803717018","population":null,"formattedPop":null,"densityCategory":"No data","vulnerabilityRating":"No data","healthRiskLevel":"No data","areaKm2":5.014675,"centerLat":11.094958,"centerLng":124.813973,"geometrySource":"all_barangay-2.csv detailed WKT","geometryMatchMethod":"unique_official_admin_names","boundaryPointCount":21},"geometry":{"type":"MultiPolygon","coordinates":[[[[124.813789,11.09707],[124.827827,11.09702],[124.825706,11.09492],[124.828346,11.09209],[124.832008,11.09194],[124.835419,11.09154],[124.837547,11.09033],[124.836021,11.08812],[124.835121,11.0869],[124.834373,11.08562],[124.831238,11.08385],[124.828377,11.08205],[124.826019,11.07794],[124.82563,11.07424],[124.825447,11.07169],[124.822746,11.06489],[124.819298,11.06414],[124.814751,11.06387],[124.813377,11.06816],[124.813042,11.07762],[124.813789,11.09707]]]]}},{"type":"Feature","properties":{"ID_0":177,"ISO":"PHL","NAME_0":"Philippines","ID_1":8037,"NAME_1":"Leyte","ID_2":803717,"NAME_2":"Dagami","ID_3":803717019,"NAME_3":"Canlingga","NL_NAME_3":null,"VARNAME_3":null,"TYPE_3":"Barangay","ENGTYPE_3":"Village","PROVINCE":"Leyte","REGION":"Region VIII (Eastern Visayas)","id":"barangay-0803717019","name":"Canlingga","barangayCode":"0803717019","population":null,"formattedPop":null,"densityCategory":"No data","vulnerabilityRating":"No data","healthRiskLevel":"No data","areaKm2":1.384488,"centerLat":11.062048,"centerLng":124.895023,"geometrySource":"all_barangay-2.csv detailed WKT","geometryMatchMethod":"unique_official_admin_names","boundaryPointCount":12},"geometry":{"type":"MultiPolygon","coordinates":[[[[124.900917,11.06598],[124.901314,11.06529],[124.901154,11.06286],[124.900978,11.06137],[124.901123,11.06072],[124.896362,11.05999],[124.895523,11.06191],[124.895813,11.06404],[124.896973,11.06665],[124.897949,11.06772],[124.900101,11.06762],[124.900917,11.06598]]]]}},{"type":"Feature","properties":{"ID_0":177,"ISO":"PHL","NAME_0":"Philippines","ID_1":8037,"NAME_1":"Leyte","ID_2":803717,"NAME_2":"Dagami","ID_3":803717020,"NAME_3":"Cansamada East","NL_NAME_3":null,"VARNAME_3":null,"TYPE_3":"Barangay","ENGTYPE_3":"Village","PROVINCE":"Leyte","REGION":"Region VIII (Eastern Visayas)","id":"barangay-0803717020","name":"Cansamada East","barangayCode":"0803717020","population":null,"formattedPop":null,"densityCategory":"No data","vulnerabilityRating":"No data","healthRiskLevel":"No data","areaKm2":1.105805,"centerLat":11.075454,"centerLng":124.944073,"geometrySource":"all_barangay-2.csv detailed WKT","geometryMatchMethod":"unique_official_admin_names","boundaryPointCount":27},"geometry":{"type":"MultiPolygon","coordinates":[[[[124.951317,11.08157],[124.952263,11.0783],[124.949692,11.07671],[124.948082,11.07619],[124.946327,11.07567],[124.946007,11.07431],[124.944229,11.07061],[124.942368,11.0708],[124.940567,11.06974],[124.938881,11.06883],[124.936684,11.0693],[124.936607,11.07422],[124.93512,11.07681],[124.935028,11.0779],[124.935677,11.07984],[124.937447,11.08086],[124.936478,11.08204],[124.936768,11.08373],[124.93792,11.0831],[124.938667,11.08226],[124.940987,11.08168],[124.942017,11.08206],[124.943207,11.08356],[124.945717,11.08392],[124.947098,11.08372],[124.947594,11.0827],[124.951317,11.08157]]]]}},{"type":"Feature","properties":{"ID_0":177,"ISO":"PHL","NAME_0":"Philippines","ID_1":8037,"NAME_1":"Leyte","ID_2":803717,"NAME_2":"Dagami","ID_3":803717021,"NAME_3":"Digahongan","NL_NAME_3":null,"VARNAME_3":null,"TYPE_3":"Barangay","ENGTYPE_3":"Village","PROVINCE":"Leyte","REGION":"Region VIII (Eastern Visayas)","id":"barangay-0803717021","name":"Digahongan","barangayCode":"0803717021","population":null,"formattedPop":null,"densityCategory":"No data","vulnerabilityRating":"No data","healthRiskLevel":"No data","areaKm2":1.008048,"centerLat":11.06785,"centerLng":124.928731,"geometrySource":"all_barangay-2.csv detailed WKT","geometryMatchMethod":"unique_official_admin_names","boundaryPointCount":7},"geometry":{"type":"MultiPolygon","coordinates":[[[[124.923866,11.07],[124.936607,11.07422],[124.936684,11.0693],[124.934563,11.06897],[124.925262,11.06603],[124.923988,11.06598],[124.923866,11.07]]]]}},{"type":"Feature","properties":{"ID_0":177,"ISO":"PHL","NAME_0":"Philippines","ID_1":8037,"NAME_1":"Leyte","ID_2":803717,"NAME_2":"Dagami","ID_3":803717022,"NAME_3":"Guinarona","NL_NAME_3":null,"VARNAME_3":null,"TYPE_3":"Barangay","ENGTYPE_3":"Village","PROVINCE":"Leyte","REGION":"Region VIII (Eastern Visayas)","id":"barangay-0803717022","name":"Guinarona","barangayCode":"0803717022","population":null,"formattedPop":null,"densityCategory":"No data","vulnerabilityRating":"No data","healthRiskLevel":"No data","areaKm2":0.33822,"centerLat":11.023598,"centerLng":124.900817,"geometrySource":"all_barangay-2.csv detailed WKT","geometryMatchMethod":"unique_official_admin_names","boundaryPointCount":6},"geometry":{"type":"MultiPolygon","coordinates":[[[[124.892036,11.03263],[124.90815,11.02714],[124.903191,11.02483],[124.898323,11.02479],[124.8927,11.0279],[124.892036,11.03263]]]]}},{"type":"Feature","properties":{"ID_0":177,"ISO":"PHL","NAME_0":"Philippines","ID_1":8037,"NAME_1":"Leyte","ID_2":803717,"NAME_2":"Dagami","ID_3":803717023,"NAME_3":"Hiabangan","NL_NAME_3":null,"VARNAME_3":null,"TYPE_3":"Barangay","ENGTYPE_3":"Village","PROVINCE":"Leyte","REGION":"Region VIII (Eastern Visayas)","id":"barangay-0803717023","name":"Hiabangan","barangayCode":"0803717023","population":null,"formattedPop":null,"densityCategory":"No data","vulnerabilityRating":"No data","healthRiskLevel":"No data","areaKm2":2.752879,"centerLat":11.06249,"centerLng":124.878313,"geometrySource":"all_barangay-2.csv detailed WKT","geometryMatchMethod":"unique_official_admin_names","boundaryPointCount":12},"geometry":{"type":"MultiPolygon","coordinates":[[[[124.884819,11.0739],[124.889023,11.07352],[124.890541,11.07293],[124.889511,11.07204],[124.882797,11.0646],[124.880203,11.06124],[124.879028,11.05859],[124.876244,11.06039],[124.874428,11.06196],[124.872383,11.0644],[124.871513,11.06654],[124.884819,11.0739]]]]}},{"type":"Feature","properties":{"ID_0":177,"ISO":"PHL","NAME_0":"Philippines","ID_1":8037,"NAME_1":"Leyte","ID_2":803717,"NAME_2":"Dagami","ID_3":803717024,"NAME_3":"Hilabago","NL_NAME_3":null,"VARNAME_3":null,"TYPE_3":"Barangay","ENGTYPE_3":"Village","PROVINCE":"Leyte","REGION":"Region VIII (Eastern Visayas)","id":"barangay-0803717024","name":"Hilabago","barangayCode":"0803717024","population":null,"formattedPop":null,"densityCategory":"No data","vulnerabilityRating":"No data","healthRiskLevel":"No data","areaKm2":1.41506,"centerLat":11.080626,"centerLng":124.861694,"geometrySource":"all_barangay-2.csv detailed WKT","geometryMatchMethod":"unique_official_admin_names","boundaryPointCount":18},"geometry":{"type":"MultiPolygon","coordinates":[[[[124.86351,11.08877],[124.863457,11.08773],[124.864677,11.08606],[124.867371,11.08513],[124.868843,11.08313],[124.868607,11.08245],[124.867523,11.08106],[124.865959,11.07964],[124.86438,11.07886],[124.861061,11.07753],[124.858047,11.07642],[124.853287,11.07658],[124.856773,11.08144],[124.857018,11.08374],[124.858459,11.08664],[124.859627,11.0886],[124.86116,11.08804],[124.86351,11.08877]]]]}},{"type":"Feature","properties":{"ID_0":177,"ISO":"PHL","NAME_0":"Philippines","ID_1":8037,"NAME_1":"Leyte","ID_2":803717,"NAME_2":"Dagami","ID_3":803717025,"NAME_3":"Hinabuyan","NL_NAME_3":null,"VARNAME_3":null,"TYPE_3":"Barangay","ENGTYPE_3":"Village","PROVINCE":"Leyte","REGION":"Region VIII (Eastern Visayas)","id":"barangay-0803717025","name":"Hinabuyan","barangayCode":"0803717025","population":null,"formattedPop":null,"densityCategory":"No data","vulnerabilityRating":"No data","healthRiskLevel":"No data","areaKm2":1.965185,"centerLat":11.08833,"centerLng":124.919913,"geometrySource":"all_barangay-2.csv detailed WKT","geometryMatchMethod":"unique_official_admin_names","boundaryPointCount":12},"geometry":{"type":"MultiPolygon","coordinates":[[[[124.932449,11.09769],[124.93248,11.08871],[124.928963,11.08789],[124.924187,11.0854],[124.92363,11.08327],[124.923737,11.08067],[124.924408,11.07668],[124.922684,11.07548],[124.917793,11.07837],[124.916832,11.08944],[124.917152,11.09754],[124.932449,11.09769]]]]}},{"type":"Feature","properties":{"ID_0":177,"ISO":"PHL","NAME_0":"Philippines","ID_1":8037,"NAME_1":"Leyte","ID_2":803717,"NAME_2":"Dagami","ID_3":803717026,"NAME_3":"Hinologan","NL_NAME_3":null,"VARNAME_3":null,"TYPE_3":"Barangay","ENGTYPE_3":"Village","PROVINCE":"Leyte","REGION":"Region VIII (Eastern Visayas)","id":"barangay-0803717026","name":"Hinologan","barangayCode":"0803717026","population":null,"formattedPop":null,"densityCategory":"No data","vulnerabilityRating":"No data","healthRiskLevel":"No data","areaKm2":2.453398,"centerLat":11.029838,"centerLng":124.90931,"geometrySource":"all_barangay-2.csv detailed WKT","geometryMatchMethod":"unique_official_admin_names","boundaryPointCount":9},"geometry":{"type":"MultiPolygon","coordinates":[[[[124.896767,11.03912],[124.90477,11.03281],[124.911324,11.03246],[124.90815,11.02714],[124.892036,11.03263],[124.89389,11.03469],[124.89402,11.03595],[124.89492,11.03778],[124.896767,11.03912]]]]}},{"type":"Feature","properties":{"ID_0":177,"ISO":"PHL","NAME_0":"Philippines","ID_1":8037,"NAME_1":"Leyte","ID_2":803717,"NAME_2":"Dagami","ID_3":803717027,"NAME_3":"Hitumnog","NL_NAME_3":null,"VARNAME_3":null,"TYPE_3":"Barangay","ENGTYPE_3":"Village","PROVINCE":"Leyte","REGION":"Region VIII (Eastern Visayas)","id":"barangay-0803717027","name":"Hitumnog","barangayCode":"0803717027","population":null,"formattedPop":null,"densityCategory":"No data","vulnerabilityRating":"No data","healthRiskLevel":"No data","areaKm2":1.944065,"centerLat":11.04584,"centerLng":124.882663,"geometrySource":"all_barangay-2.csv detailed WKT","geometryMatchMethod":"unique_official_admin_names","boundaryPointCount":7},"geometry":{"type":"MultiPolygon","coordinates":[[[[124.882797,11.0646],[124.893661,11.05765],[124.890892,11.05563],[124.886124,11.05461],[124.879028,11.05859],[124.880203,11.06124],[124.882797,11.0646]]]]}},{"type":"Feature","properties":{"ID_0":177,"ISO":"PHL","NAME_0":"Philippines","ID_1":8037,"NAME_1":"Leyte","ID_2":803717,"NAME_2":"Dagami","ID_3":803717028,"NAME_3":"Katipunan","NL_NAME_3":null,"VARNAME_3":null,"TYPE_3":"Barangay","ENGTYPE_3":"Village","PROVINCE":"Leyte","REGION":"Region VIII (Eastern Visayas)","id":"barangay-0803717028","name":"Katipunan","barangayCode":"0803717028","population":null,"formattedPop":null,"densityCategory":"No data","vulnerabilityRating":"No data","healthRiskLevel":"No data","areaKm2":5.291189,"centerLat":11.062158,"centerLng":124.850471,"geometrySource":"all_barangay-2.csv detailed WKT","geometryMatchMethod":"unique_official_admin_names","boundaryPointCount":32},"geometry":{"type":"MultiPolygon","coordinates":[[[[124.865959,11.07964],[124.865723,11.07823],[124.867317,11.07552],[124.869247,11.07276],[124.8703,11.06918],[124.871513,11.06654],[124.872383,11.0644],[124.874428,11.06196],[124.873329,11.06147],[124.871483,11.06074],[124.870613,11.05877],[124.869247,11.05608],[124.866371,11.05605],[124.861687,11.05636],[124.857674,11.05464],[124.846092,11.04536],[124.840714,11.04025],[124.831177,11.03098],[124.825218,11.03173],[124.822922,11.03191],[124.82637,11.04305],[124.830437,11.05149],[124.834534,11.05572],[124.839081,11.0593],[124.844948,11.06538],[124.848167,11.07009],[124.850349,11.07338],[124.853287,11.07658],[124.858047,11.07642],[124.861061,11.07753],[124.86438,11.07886],[124.865959,11.07964]]]]}},{"type":"Feature","properties":{"ID_0":177,"ISO":"PHL","NAME_0":"Philippines","ID_1":8037,"NAME_1":"Leyte","ID_2":803717,"NAME_2":"Dagami","ID_3":803717029,"NAME_3":"Los Martires","NL_NAME_3":null,"VARNAME_3":null,"TYPE_3":"Barangay","ENGTYPE_3":"Village","PROVINCE":"Leyte","REGION":"Region VIII (Eastern Visayas)","id":"barangay-0803717029","name":"Los Martires","barangayCode":"0803717029","population":null,"formattedPop":null,"densityCategory":"No data","vulnerabilityRating":"No data","healthRiskLevel":"No data","areaKm2":1.731698,"centerLat":11.06055,"centerLng":124.91634,"geometrySource":"all_barangay-2.csv detailed WKT","geometryMatchMethod":"unique_official_admin_names","boundaryPointCount":16},"geometry":{"type":"MultiPolygon","coordinates":[[[[124.91523,11.07284],[124.916199,11.07145],[124.918289,11.06497],[124.909737,11.06429],[124.908691,11.06586],[124.908211,11.06651],[124.907303,11.06786],[124.906822,11.06856],[124.907043,11.06953],[124.907097,11.07099],[124.907082,11.07202],[124.908363,11.07146],[124.909698,11.07119],[124.910767,11.06933],[124.911949,11.07],[124.91523,11.07284]]]]}},{"type":"Feature","properties":{"ID_0":177,"ISO":"PHL","NAME_0":"Philippines","ID_1":8037,"NAME_1":"Leyte","ID_2":803717,"NAME_2":"Dagami","ID_3":803717030,"NAME_3":"Lobe-lobe","NL_NAME_3":null,"VARNAME_3":null,"TYPE_3":"Barangay","ENGTYPE_3":"Village","PROVINCE":"Leyte","REGION":"Region VIII (Eastern Visayas)","id":"barangay-0803717030","name":"Lobe-lobe","barangayCode":"0803717030","population":null,"formattedPop":null,"densityCategory":"No data","vulnerabilityRating":"No data","healthRiskLevel":"No data","areaKm2":4.279216,"centerLat":11.073342,"centerLng":124.812957,"geometrySource":"all_barangay-2.csv detailed WKT","geometryMatchMethod":"unique_official_admin_names","boundaryPointCount":21},"geometry":{"type":"MultiPolygon","coordinates":[[[[124.793098,11.08184],[124.795433,11.07876],[124.79583,11.07577],[124.796181,11.0726],[124.796989,11.06971],[124.798782,11.06675],[124.798813,11.06409],[124.80085,11.06047],[124.807426,11.06255],[124.814751,11.06387],[124.819298,11.06414],[124.822746,11.06489],[124.814919,11.05513],[124.809341,11.04904],[124.801537,11.03839],[124.798447,11.03142],[124.783737,11.03055],[124.776604,11.04824],[124.775703,11.05267],[124.764931,11.06397],[124.793098,11.08184]]]]}},{"type":"Feature","properties":{"ID_0":177,"ISO":"PHL","NAME_0":"Philippines","ID_1":8037,"NAME_1":"Leyte","ID_2":803717,"NAME_2":"Dagami","ID_3":803717031,"NAME_3":"Macaalang","NL_NAME_3":null,"VARNAME_3":null,"TYPE_3":"Barangay","ENGTYPE_3":"Village","PROVINCE":"Leyte","REGION":"Region VIII (Eastern Visayas)","id":"barangay-0803717031","name":"Macaalang","barangayCode":"0803717031","population":null,"formattedPop":null,"densityCategory":"No data","vulnerabilityRating":"No data","healthRiskLevel":"No data","areaKm2":2.754389,"centerLat":11.038664,"centerLng":124.86491,"geometrySource":"all_barangay-2.csv detailed WKT","geometryMatchMethod":"unique_official_admin_names","boundaryPointCount":23},"geometry":{"type":"MultiPolygon","coordinates":[[[[124.866051,11.04446],[124.877098,11.04731],[124.878708,11.04765],[124.879128,11.04631],[124.880013,11.04439],[124.878807,11.03669],[124.877342,11.03408],[124.873367,11.02175],[124.858566,11.02187],[124.852531,11.02188],[124.847473,11.02285],[124.844772,11.02425],[124.83857,11.02804],[124.846771,11.03121],[124.852028,11.03294],[124.853172,11.03361],[124.85627,11.0354],[124.857933,11.03682],[124.860352,11.0374],[124.86158,11.0385],[124.863121,11.04147],[124.863792,11.04222],[124.866051,11.04446]]]]}},{"type":"Feature","properties":{"ID_0":177,"ISO":"PHL","NAME_0":"Philippines","ID_1":8037,"NAME_1":"Leyte","ID_2":803717,"NAME_2":"Dagami","ID_3":803717032,"NAME_3":"Maliwaliw","NL_NAME_3":null,"VARNAME_3":null,"TYPE_3":"Barangay","ENGTYPE_3":"Village","PROVINCE":"Leyte","REGION":"Region VIII (Eastern Visayas)","id":"barangay-0803717032","name":"Maliwaliw","barangayCode":"0803717032","population":null,"formattedPop":null,"densityCategory":"No data","vulnerabilityRating":"No data","healthRiskLevel":"No data","areaKm2":1.450576,"centerLat":11.037146,"centerLng":124.906127,"geometrySource":"all_barangay-2.csv detailed WKT","geometryMatchMethod":"unique_official_admin_names","boundaryPointCount":11},"geometry":{"type":"MultiPolygon","coordinates":[[[[124.89743,11.04686],[124.913452,11.04993],[124.914848,11.04843],[124.915359,11.0464],[124.914413,11.04122],[124.911324,11.03246],[124.90477,11.03281],[124.896767,11.03912],[124.897781,11.04091],[124.897812,11.04329],[124.89743,11.04686]]]]}},{"type":"Feature","properties":{"ID_0":177,"ISO":"PHL","NAME_0":"Philippines","ID_1":8037,"NAME_1":"Leyte","ID_2":803717,"NAME_2":"Dagami","ID_3":803717033,"NAME_3":"Maragondong","NL_NAME_3":null,"VARNAME_3":null,"TYPE_3":"Barangay","ENGTYPE_3":"Village","PROVINCE":"Leyte","REGION":"Region VIII (Eastern Visayas)","id":"barangay-0803717033","name":"Maragondong","barangayCode":"0803717033","population":null,"formattedPop":null,"densityCategory":"No data","vulnerabilityRating":"No data","healthRiskLevel":"No data","areaKm2":2.03875,"centerLat":11.077391,"centerLng":124.872908,"geometrySource":"all_barangay-2.csv detailed WKT","geometryMatchMethod":"unique_official_admin_names","boundaryPointCount":15},"geometry":{"type":"MultiPolygon","coordinates":[[[[124.87635,11.08347],[124.878616,11.08091],[124.881073,11.07835],[124.873428,11.07532],[124.873299,11.07355],[124.869247,11.07276],[124.867317,11.07552],[124.865723,11.07823],[124.865959,11.07964],[124.867523,11.08106],[124.868607,11.08245],[124.868843,11.08313],[124.870117,11.08369],[124.873863,11.0857],[124.87635,11.08347]]]]}},{"type":"Feature","properties":{"ID_0":177,"ISO":"PHL","NAME_0":"Philippines","ID_1":8037,"NAME_1":"Leyte","ID_2":803717,"NAME_2":"Dagami","ID_3":803717034,"NAME_3":"Ormocay","NL_NAME_3":null,"VARNAME_3":null,"TYPE_3":"Barangay","ENGTYPE_3":"Village","PROVINCE":"Leyte","REGION":"Region VIII (Eastern Visayas)","id":"barangay-0803717034","name":"Ormocay","barangayCode":"0803717034","population":null,"formattedPop":null,"densityCategory":"No data","vulnerabilityRating":"No data","healthRiskLevel":"No data","areaKm2":2.2656,"centerLat":11.022181,"centerLng":124.920018,"geometrySource":"all_barangay-2.csv detailed WKT","geometryMatchMethod":"unique_official_admin_names","boundaryPointCount":12},"geometry":{"type":"MultiPolygon","coordinates":[[[[124.90815,11.02714],[124.919502,11.0243],[124.916222,11.01818],[124.91497,11.01748],[124.914337,11.01709],[124.912987,11.01689],[124.910912,11.0162],[124.907494,11.01672],[124.9067,11.01724],[124.904579,11.01914],[124.907463,11.02538],[124.90815,11.02714]]]]}},{"type":"Feature","properties":{"ID_0":177,"ISO":"PHL","NAME_0":"Philippines","ID_1":8037,"NAME_1":"Leyte","ID_2":803717,"NAME_2":"Dagami","ID_3":803717035,"NAME_3":"Palacio","NL_NAME_3":null,"VARNAME_3":null,"TYPE_3":"Barangay","ENGTYPE_3":"Village","PROVINCE":"Leyte","REGION":"Region VIII (Eastern Visayas)","id":"barangay-0803717035","name":"Palacio","barangayCode":"0803717035","population":null,"formattedPop":null,"densityCategory":"No data","vulnerabilityRating":"No data","healthRiskLevel":"No data","areaKm2":2.208281,"centerLat":11.047565,"centerLng":124.894607,"geometrySource":"all_barangay-2.csv detailed WKT","geometryMatchMethod":"unique_official_admin_names","boundaryPointCount":18},"geometry":{"type":"MultiPolygon","coordinates":[[[[124.901123,11.06072],[124.903328,11.0599],[124.90448,11.05632],[124.902893,11.0549],[124.902077,11.05253],[124.901588,11.0516],[124.897926,11.0484],[124.89743,11.04686],[124.880013,11.04439],[124.879128,11.04631],[124.878708,11.04765],[124.879051,11.0534],[124.879028,11.05859],[124.886124,11.05461],[124.890892,11.05563],[124.893661,11.05765],[124.896362,11.05999],[124.901123,11.06072]]]]}},{"type":"Feature","properties":{"ID_0":177,"ISO":"PHL","NAME_0":"Philippines","ID_1":8037,"NAME_1":"Leyte","ID_2":803717,"NAME_2":"Dagami","ID_3":803717036,"NAME_3":"Panda","NL_NAME_3":null,"VARNAME_3":null,"TYPE_3":"Barangay","ENGTYPE_3":"Village","PROVINCE":"Leyte","REGION":"Region VIII (Eastern Visayas)","id":"barangay-0803717036","name":"Panda","barangayCode":"0803717036","population":null,"formattedPop":null,"densityCategory":"No data","vulnerabilityRating":"No data","healthRiskLevel":"No data","areaKm2":1.336834,"centerLat":11.091779,"centerLng":124.878926,"geometrySource":"all_barangay-2.csv detailed WKT","geometryMatchMethod":"unique_official_admin_names","boundaryPointCount":9},"geometry":{"type":"MultiPolygon","coordinates":[[[[124.87635,11.08347],[124.885033,11.08938],[124.884819,11.08769],[124.885147,11.08523],[124.886276,11.08442],[124.889633,11.08321],[124.881073,11.07835],[124.878616,11.08091],[124.87635,11.08347]]]]}},{"type":"Feature","properties":{"ID_0":177,"ISO":"PHL","NAME_0":"Philippines","ID_1":8037,"NAME_1":"Leyte","ID_2":803717,"NAME_2":"Dagami","ID_3":803717037,"NAME_3":"Patoc","NL_NAME_3":null,"VARNAME_3":null,"TYPE_3":"Barangay","ENGTYPE_3":"Village","PROVINCE":"Leyte","REGION":"Region VIII (Eastern Visayas)","id":"barangay-0803717037","name":"Patoc","barangayCode":"0803717037","population":null,"formattedPop":null,"densityCategory":"No data","vulnerabilityRating":"No data","healthRiskLevel":"No data","areaKm2":4.87708,"centerLat":11.085998,"centerLng":124.844102,"geometrySource":"all_barangay-2.csv detailed WKT","geometryMatchMethod":"unique_official_admin_names","boundaryPointCount":11},"geometry":{"type":"MultiPolygon","coordinates":[[[[124.872368,11.09292],[124.87455,11.08994],[124.873947,11.08696],[124.873863,11.0857],[124.870117,11.08369],[124.868843,11.08313],[124.867371,11.08513],[124.864677,11.08606],[124.863457,11.08773],[124.86351,11.08877],[124.872368,11.09292]]]]}},{"type":"Feature","properties":{"ID_0":177,"ISO":"PHL","NAME_0":"Philippines","ID_1":8037,"NAME_1":"Leyte","ID_2":803717,"NAME_2":"Dagami","ID_3":803717038,"NAME_3":"Plaridel","NL_NAME_3":null,"VARNAME_3":null,"TYPE_3":"Barangay","ENGTYPE_3":"Village","PROVINCE":"Leyte","REGION":"Region VIII (Eastern Visayas)","id":"barangay-0803717038","name":"Plaridel","barangayCode":"0803717038","population":null,"formattedPop":null,"densityCategory":"No data","vulnerabilityRating":"No data","healthRiskLevel":"No data","areaKm2":3.430038,"centerLat":11.111234,"centerLng":124.822655,"geometrySource":"all_barangay-2.csv detailed WKT","geometryMatchMethod":"unique_official_admin_names","boundaryPointCount":14},"geometry":{"type":"MultiPolygon","coordinates":[[[[124.793098,11.08184],[124.813789,11.09707],[124.813042,11.07762],[124.813377,11.06816],[124.814751,11.06387],[124.807426,11.06255],[124.80085,11.06047],[124.798813,11.06409],[124.798782,11.06675],[124.796989,11.06971],[124.796181,11.0726],[124.79583,11.07577],[124.795433,11.07876],[124.793098,11.08184]]]]}},{"type":"Feature","properties":{"ID_0":177,"ISO":"PHL","NAME_0":"Philippines","ID_1":8037,"NAME_1":"Leyte","ID_2":803717,"NAME_2":"Dagami","ID_3":803717039,"NAME_3":"Sampao West Pob.","NL_NAME_3":null,"VARNAME_3":null,"TYPE_3":"Barangay","ENGTYPE_3":"Village","PROVINCE":"Leyte","REGION":"Region VIII (Eastern Visayas)","id":"barangay-0803717039","name":"Sampao West Pob.","barangayCode":"0803717039","population":null,"formattedPop":null,"densityCategory":"No data","vulnerabilityRating":"No data","healthRiskLevel":"No data","areaKm2":0.2771,"centerLat":11.059248,"centerLng":124.902107,"geometrySource":"all_barangay-2.csv detailed WKT","geometryMatchMethod":"unique_official_admin_names","boundaryPointCount":7},"geometry":{"type":"MultiPolygon","coordinates":[[[[124.901154,11.06286],[124.904091,11.06401],[124.90464,11.06161],[124.903328,11.0599],[124.901123,11.06072],[124.900978,11.06137],[124.901154,11.06286]]]]}},{"type":"Feature","properties":{"ID_0":177,"ISO":"PHL","NAME_0":"Philippines","ID_1":8037,"NAME_1":"Leyte","ID_2":803717,"NAME_2":"Dagami","ID_3":803717040,"NAME_3":"Lapu-lapu Pob.","NL_NAME_3":null,"VARNAME_3":null,"TYPE_3":"Barangay","ENGTYPE_3":"Village","PROVINCE":"Leyte","REGION":"Region VIII (Eastern Visayas)","id":"barangay-0803717040","name":"Lapu-lapu Pob.","barangayCode":"0803717040","population":null,"formattedPop":null,"densityCategory":"No data","vulnerabilityRating":"No data","healthRiskLevel":"No data","areaKm2":0.190481,"centerLat":11.070504048220835,"centerLng":124.90461434909052,"geometrySource":"all_barangay-2.csv detailed WKT","geometryMatchMethod":"unique_official_admin_names","boundaryPointCount":10},"geometry":{"type":"MultiPolygon","coordinates":[[[[124.907097,11.07099],[124.90448,11.06955],[124.902603,11.06852],[124.902283,11.06946],[124.902161,11.06982],[124.902344,11.06999],[124.904411,11.07152],[124.906143,11.07204],[124.907082,11.07202],[124.907097,11.07099]]]]}},{"type":"Feature","properties":{"ID_0":177,"ISO":"PHL","NAME_0":"Philippines","ID_1":8037,"NAME_1":"Leyte","ID_2":803717,"NAME_2":"Dagami","ID_3":803717041,"NAME_3":"Lusad Pob.","NL_NAME_3":null,"VARNAME_3":null,"TYPE_3":"Barangay","ENGTYPE_3":"Village","PROVINCE":"Leyte","REGION":"Region VIII (Eastern Visayas)","id":"barangay-0803717041","name":"Lusad Pob.","barangayCode":"0803717041","population":null,"formattedPop":null,"densityCategory":"No data","vulnerabilityRating":"No data","healthRiskLevel":"No data","areaKm2":0.109587,"centerLat":11.062784,"centerLng":124.90138,"geometrySource":"all_barangay-2.csv detailed WKT","geometryMatchMethod":"unique_official_admin_names","boundaryPointCount":7},"geometry":{"type":"MultiPolygon","coordinates":[[[[124.903481,11.06603],[124.904091,11.06401],[124.901154,11.06286],[124.901314,11.06529],[124.902443,11.06558],[124.902924,11.06582],[124.903481,11.06603]]]]}},{"type":"Feature","properties":{"ID_0":177,"ISO":"PHL","NAME_0":"Philippines","ID_1":8037,"NAME_1":"Leyte","ID_2":803717,"NAME_2":"Dagami","ID_3":803717042,"NAME_3":"Sampao East Pob.","NL_NAME_3":null,"VARNAME_3":null,"TYPE_3":"Barangay","ENGTYPE_3":"Village","PROVINCE":"Leyte","REGION":"Region VIII (Eastern Visayas)","id":"barangay-0803717042","name":"Sampao East Pob.","barangayCode":"0803717042","population":null,"formattedPop":null,"densityCategory":"No data","vulnerabilityRating":"No data","healthRiskLevel":"No data","areaKm2":0.392344,"centerLat":11.059233,"centerLng":124.908289,"geometrySource":"all_barangay-2.csv detailed WKT","geometryMatchMethod":"unique_official_admin_names","boundaryPointCount":8},"geometry":{"type":"MultiPolygon","coordinates":[[[[124.909737,11.06429],[124.907692,11.06331],[124.905006,11.06201],[124.90464,11.06161],[124.904091,11.06401],[124.907654,11.06536],[124.908691,11.06586],[124.909737,11.06429]]]]}},{"type":"Feature","properties":{"ID_0":177,"ISO":"PHL","NAME_0":"Philippines","ID_1":8037,"NAME_1":"Leyte","ID_2":803717,"NAME_2":"Dagami","ID_3":803717043,"NAME_3":"San Antonio Pob.","NL_NAME_3":null,"VARNAME_3":null,"TYPE_3":"Barangay","ENGTYPE_3":"Village","PROVINCE":"Leyte","REGION":"Region VIII (Eastern Visayas)","id":"barangay-0803717043","name":"San Antonio Pob.","barangayCode":"0803717043","population":null,"formattedPop":null,"densityCategory":"No data","vulnerabilityRating":"No data","healthRiskLevel":"No data","areaKm2":0.084303,"centerLat":11.065031,"centerLng":124.905313,"geometrySource":"all_barangay-2.csv detailed WKT","geometryMatchMethod":"unique_official_admin_names","boundaryPointCount":8},"geometry":{"type":"MultiPolygon","coordinates":[[[[124.907303,11.06786],[124.904633,11.0666],[124.903481,11.06603],[124.90316,11.067],[124.902878,11.06762],[124.907043,11.06953],[124.906822,11.06856],[124.907303,11.06786]]]]}},{"type":"Feature","properties":{"ID_0":177,"ISO":"PHL","NAME_0":"Philippines","ID_1":8037,"NAME_1":"Leyte","ID_2":803717,"NAME_2":"Dagami","ID_3":803717044,"NAME_3":"San Jose Pob.","NL_NAME_3":null,"VARNAME_3":null,"TYPE_3":"Barangay","ENGTYPE_3":"Village","PROVINCE":"Leyte","REGION":"Region VIII (Eastern Visayas)","id":"barangay-0803717044","name":"San Jose Pob.","barangayCode":"0803717044","population":null,"formattedPop":null,"densityCategory":"No data","vulnerabilityRating":"No data","healthRiskLevel":"No data","areaKm2":0.067231,"centerLat":11.065946,"centerLng":124.90219,"geometrySource":"all_barangay-2.csv detailed WKT","geometryMatchMethod":"unique_official_admin_names","boundaryPointCount":9},"geometry":{"type":"MultiPolygon","coordinates":[[[[124.902603,11.06852],[124.902878,11.06762],[124.90316,11.067],[124.901642,11.06625],[124.900917,11.06598],[124.900101,11.06762],[124.902161,11.06982],[124.902283,11.06946],[124.902603,11.06852]]]]}},{"type":"Feature","properties":{"ID_0":177,"ISO":"PHL","NAME_0":"Philippines","ID_1":8037,"NAME_1":"Leyte","ID_2":803717,"NAME_2":"Dagami","ID_3":803717045,"NAME_3":"Sta. Mesa Pob.","NL_NAME_3":null,"VARNAME_3":null,"TYPE_3":"Barangay","ENGTYPE_3":"Village","PROVINCE":"Leyte","REGION":"Region VIII (Eastern Visayas)","id":"barangay-0803717045","name":"Sta. Mesa Pob.","barangayCode":"0803717045","population":null,"formattedPop":null,"densityCategory":"No data","vulnerabilityRating":"No data","healthRiskLevel":"No data","areaKm2":0.181403,"centerLat":11.062777,"centerLng":124.906824,"geometrySource":"all_barangay-2.csv detailed WKT","geometryMatchMethod":"unique_official_admin_names","boundaryPointCount":8},"geometry":{"type":"MultiPolygon","coordinates":[[[[124.907303,11.06786],[124.908211,11.06651],[124.908691,11.06586],[124.907654,11.06536],[124.904091,11.06401],[124.903481,11.06603],[124.904633,11.0666],[124.907303,11.06786]]]]}},{"type":"Feature","properties":{"ID_0":177,"ISO":"PHL","NAME_0":"Philippines","ID_1":8037,"NAME_1":"Leyte","ID_2":803717,"NAME_2":"Dagami","ID_3":803717046,"NAME_3":"Tunga Pob.","NL_NAME_3":null,"VARNAME_3":null,"TYPE_3":"Barangay","ENGTYPE_3":"Village","PROVINCE":"Leyte","REGION":"Region VIII (Eastern Visayas)","id":"barangay-0803717046","name":"Tunga Pob.","barangayCode":"0803717046","population":null,"formattedPop":null,"densityCategory":"No data","vulnerabilityRating":"No data","healthRiskLevel":"No data","areaKm2":0.05548,"centerLat":11.064246,"centerLng":124.901422,"geometrySource":"all_barangay-2.csv detailed WKT","geometryMatchMethod":"unique_official_admin_names","boundaryPointCount":8},"geometry":{"type":"MultiPolygon","coordinates":[[[[124.903481,11.06603],[124.902924,11.06582],[124.902443,11.06558],[124.901314,11.06529],[124.900917,11.06598],[124.901642,11.06625],[124.90316,11.067],[124.903481,11.06603]]]]}},{"type":"Feature","properties":{"ID_0":177,"ISO":"PHL","NAME_0":"Philippines","ID_1":8037,"NAME_1":"Leyte","ID_2":803717,"NAME_2":"Dagami","ID_3":803717047,"NAME_3":"San Roque Pob.","NL_NAME_3":null,"VARNAME_3":null,"TYPE_3":"Barangay","ENGTYPE_3":"Village","PROVINCE":"Leyte","REGION":"Region VIII (Eastern Visayas)","id":"barangay-0803717047","name":"San Roque Pob.","barangayCode":"0803717047","population":null,"formattedPop":null,"densityCategory":"No data","vulnerabilityRating":"No data","healthRiskLevel":"No data","areaKm2":0.026762,"centerLat":11.066471,"centerLng":124.904937,"geometrySource":"all_barangay-2.csv detailed WKT","geometryMatchMethod":"unique_official_admin_names","boundaryPointCount":6},"geometry":{"type":"MultiPolygon","coordinates":[[[[124.907043,11.06953],[124.902878,11.06762],[124.902603,11.06852],[124.90448,11.06955],[124.907097,11.07099],[124.907043,11.06953]]]]}},{"type":"Feature","properties":{"ID_0":177,"ISO":"PHL","NAME_0":"Philippines","ID_1":8037,"NAME_1":"Leyte","ID_2":803717,"NAME_2":"Dagami","ID_3":803717048,"NAME_3":"Poponton","NL_NAME_3":null,"VARNAME_3":null,"TYPE_3":"Barangay","ENGTYPE_3":"Village","PROVINCE":"Leyte","REGION":"Region VIII (Eastern Visayas)","id":"barangay-0803717048","name":"Poponton","barangayCode":"0803717048","population":null,"formattedPop":null,"densityCategory":"No data","vulnerabilityRating":"No data","healthRiskLevel":"No data","areaKm2":1.120758,"centerLat":11.076195,"centerLng":124.907714,"geometrySource":"all_barangay-2.csv detailed WKT","geometryMatchMethod":"unique_official_admin_names","boundaryPointCount":18},"geometry":{"type":"MultiPolygon","coordinates":[[[[124.90313,11.0818],[124.902184,11.07697],[124.902763,11.07606],[124.901253,11.07528],[124.900047,11.07505],[124.898987,11.07528],[124.897972,11.0762],[124.896843,11.07568],[124.896004,11.07619],[124.895058,11.07653],[124.89473,11.07711],[124.894218,11.07744],[124.893227,11.07705],[124.891731,11.07714],[124.89006,11.07824],[124.889633,11.08321],[124.895432,11.08534],[124.90313,11.0818]]]]}},{"type":"Feature","properties":{"ID_0":177,"ISO":"PHL","NAME_0":"Philippines","ID_1":8037,"NAME_1":"Leyte","ID_2":803717,"NAME_2":"Dagami","ID_3":803717049,"NAME_3":"Rizal","NL_NAME_3":null,"VARNAME_3":null,"TYPE_3":"Barangay","ENGTYPE_3":"Village","PROVINCE":"Leyte","REGION":"Region VIII (Eastern Visayas)","id":"barangay-0803717049","name":"Rizal","barangayCode":"0803717049","population":null,"formattedPop":null,"densityCategory":"No data","vulnerabilityRating":"No data","healthRiskLevel":"No data","areaKm2":5.674271,"centerLat":11.100051,"centerLng":124.834615,"geometrySource":"all_barangay-2.csv detailed WKT","geometryMatchMethod":"unique_official_admin_names","boundaryPointCount":17},"geometry":{"type":"MultiPolygon","coordinates":[[[[124.842712,11.09732],[124.845383,11.09614],[124.846008,11.09419],[124.846626,11.09149],[124.846786,11.08965],[124.845253,11.08765],[124.842903,11.08462],[124.834373,11.08562],[124.835121,11.0869],[124.836021,11.08812],[124.837547,11.09033],[124.835419,11.09154],[124.832008,11.09194],[124.828346,11.09209],[124.825706,11.09492],[124.827827,11.09702],[124.842712,11.09732]]]]}},{"type":"Feature","properties":{"ID_0":177,"ISO":"PHL","NAME_0":"Philippines","ID_1":8037,"NAME_1":"Leyte","ID_2":803717,"NAME_2":"Dagami","ID_3":803717050,"NAME_3":"Salvacion","NL_NAME_3":null,"VARNAME_3":null,"TYPE_3":"Barangay","ENGTYPE_3":"Village","PROVINCE":"Leyte","REGION":"Region VIII (Eastern Visayas)","id":"barangay-0803717050","name":"Salvacion","barangayCode":"0803717050","population":null,"formattedPop":null,"densityCategory":"No data","vulnerabilityRating":"No data","healthRiskLevel":"No data","areaKm2":3.277358,"centerLat":11.055758,"centerLng":124.862892,"geometrySource":"all_barangay-2.csv detailed WKT","geometryMatchMethod":"unique_official_admin_names","boundaryPointCount":16},"geometry":{"type":"MultiPolygon","coordinates":[[[[124.879028,11.05859],[124.879051,11.0534],[124.878708,11.04765],[124.877098,11.04731],[124.866051,11.04446],[124.865921,11.04767],[124.867104,11.05157],[124.868973,11.0535],[124.868736,11.05577],[124.869247,11.05608],[124.870613,11.05877],[124.871483,11.06074],[124.873329,11.06147],[124.874428,11.06196],[124.876244,11.06039],[124.879028,11.05859]]]]}},{"type":"Feature","properties":{"ID_0":177,"ISO":"PHL","NAME_0":"Philippines","ID_1":8037,"NAME_1":"Leyte","ID_2":803717,"NAME_2":"Dagami","ID_3":803717051,"NAME_3":"San Benito","NL_NAME_3":null,"VARNAME_3":null,"TYPE_3":"Barangay","ENGTYPE_3":"Village","PROVINCE":"Leyte","REGION":"Region VIII (Eastern Visayas)","id":"barangay-0803717051","name":"San Benito","barangayCode":"0803717051","population":null,"formattedPop":null,"densityCategory":"No data","vulnerabilityRating":"No data","healthRiskLevel":"No data","areaKm2":1.04617,"centerLat":11.070709,"centerLng":124.903153,"geometrySource":"all_barangay-2.csv detailed WKT","geometryMatchMethod":"unique_official_admin_names","boundaryPointCount":28},"geometry":{"type":"MultiPolygon","coordinates":[[[[124.902763,11.07606],[124.905403,11.0771],[124.90683,11.07734],[124.907356,11.07577],[124.908051,11.07352],[124.909531,11.07231],[124.909698,11.07119],[124.908363,11.07146],[124.907082,11.07202],[124.906143,11.07204],[124.904411,11.07152],[124.902344,11.06999],[124.902161,11.06982],[124.900101,11.06762],[124.89901,11.07012],[124.897751,11.07125],[124.895844,11.07268],[124.894562,11.07288],[124.892593,11.07312],[124.893951,11.07564],[124.895058,11.07653],[124.896004,11.07619],[124.896843,11.07568],[124.897972,11.0762],[124.898987,11.07528],[124.900047,11.07505],[124.901253,11.07528],[124.902763,11.07606]]]]}},{"type":"Feature","properties":{"ID_0":177,"ISO":"PHL","NAME_0":"Philippines","ID_1":8037,"NAME_1":"Leyte","ID_2":803717,"NAME_2":"Dagami","ID_3":803717052,"NAME_3":"Santo Domingo","NL_NAME_3":null,"VARNAME_3":null,"TYPE_3":"Barangay","ENGTYPE_3":"Village","PROVINCE":"Leyte","REGION":"Region VIII (Eastern Visayas)","id":"barangay-0803717052","name":"Santo Domingo","barangayCode":"0803717052","population":null,"formattedPop":null,"densityCategory":"No data","vulnerabilityRating":"No data","healthRiskLevel":"No data","areaKm2":2.035624,"centerLat":11.104005,"centerLng":124.857495,"geometrySource":"all_barangay-2.csv detailed WKT","geometryMatchMethod":"unique_official_admin_names","boundaryPointCount":13},"geometry":{"type":"MultiPolygon","coordinates":[[[[124.86351,11.09718],[124.870453,11.09618],[124.865799,11.09418],[124.859894,11.09162],[124.859001,11.09055],[124.857101,11.09126],[124.852737,11.09365],[124.850288,11.09367],[124.848442,11.09506],[124.845383,11.09614],[124.848106,11.09683],[124.849983,11.09695],[124.86351,11.09718]]]]}},{"type":"Feature","properties":{"ID_0":177,"ISO":"PHL","NAME_0":"Philippines","ID_1":8037,"NAME_1":"Leyte","ID_2":803717,"NAME_2":"Dagami","ID_3":803717053,"NAME_3":"Sirab","NL_NAME_3":null,"VARNAME_3":null,"TYPE_3":"Barangay","ENGTYPE_3":"Village","PROVINCE":"Leyte","REGION":"Region VIII (Eastern Visayas)","id":"barangay-0803717053","name":"Sirab","barangayCode":"0803717053","population":null,"formattedPop":null,"densityCategory":"No data","vulnerabilityRating":"No data","healthRiskLevel":"No data","areaKm2":0.567385,"centerLat":11.07094,"centerLng":124.918135,"geometrySource":"all_barangay-2.csv detailed WKT","geometryMatchMethod":"unique_official_admin_names","boundaryPointCount":7},"geometry":{"type":"MultiPolygon","coordinates":[[[[124.924408,11.07668],[124.923866,11.07],[124.916199,11.07145],[124.91523,11.07284],[124.917793,11.07837],[124.922684,11.07548],[124.924408,11.07668]]]]}},{"type":"Feature","properties":{"ID_0":177,"ISO":"PHL","NAME_0":"Philippines","ID_1":8037,"NAME_1":"Leyte","ID_2":803717,"NAME_2":"Dagami","ID_3":803717054,"NAME_3":"Tagkip","NL_NAME_3":null,"VARNAME_3":null,"TYPE_3":"Barangay","ENGTYPE_3":"Village","PROVINCE":"Leyte","REGION":"Region VIII (Eastern Visayas)","id":"barangay-0803717054","name":"Tagkip","barangayCode":"0803717054","population":null,"formattedPop":null,"densityCategory":"No data","vulnerabilityRating":"No data","healthRiskLevel":"No data","areaKm2":4.758989,"centerLat":11.104021,"centerLng":124.874982,"geometrySource":"all_barangay-2.csv detailed WKT","geometryMatchMethod":"unique_official_admin_names","boundaryPointCount":17},"geometry":{"type":"MultiPolygon","coordinates":[[[[124.875137,11.09709],[124.889267,11.09668],[124.886932,11.09441],[124.884972,11.09281],[124.887749,11.09237],[124.888199,11.09114],[124.888634,11.09045],[124.887413,11.08971],[124.886063,11.08998],[124.885033,11.08938],[124.87635,11.08347],[124.873863,11.0857],[124.873947,11.08696],[124.87455,11.08994],[124.872368,11.09292],[124.870453,11.09618],[124.875137,11.09709]]]]}},{"type":"Feature","properties":{"ID_0":177,"ISO":"PHL","NAME_0":"Philippines","ID_1":8037,"NAME_1":"Leyte","ID_2":803717,"NAME_2":"Dagami","ID_3":803717055,"NAME_3":"Tin-ao","NL_NAME_3":null,"VARNAME_3":null,"TYPE_3":"Barangay","ENGTYPE_3":"Village","PROVINCE":"Leyte","REGION":"Region VIII (Eastern Visayas)","id":"barangay-0803717055","name":"Tin-ao","barangayCode":"0803717055","population":null,"formattedPop":null,"densityCategory":"No data","vulnerabilityRating":"No data","healthRiskLevel":"No data","areaKm2":2.133123,"centerLat":11.097556,"centerLng":124.93652,"geometrySource":"all_barangay-2.csv detailed WKT","geometryMatchMethod":"unique_official_admin_names","boundaryPointCount":5},"geometry":{"type":"MultiPolygon","coordinates":[[[[124.945137,11.09735],[124.946617,11.0912],[124.93248,11.08871],[124.932449,11.09769],[124.945137,11.09735]]]]}},{"type":"Feature","properties":{"ID_0":177,"ISO":"PHL","NAME_0":"Philippines","ID_1":8037,"NAME_1":"Leyte","ID_2":803717,"NAME_2":"Dagami","ID_3":803717056,"NAME_3":"Victoria","NL_NAME_3":null,"VARNAME_3":null,"TYPE_3":"Barangay","ENGTYPE_3":"Village","PROVINCE":"Leyte","REGION":"Region VIII (Eastern Visayas)","id":"barangay-0803717056","name":"Victoria","barangayCode":"0803717056","population":null,"formattedPop":null,"densityCategory":"No data","vulnerabilityRating":"No data","healthRiskLevel":"No data","areaKm2":1.828461,"centerLat":11.07773,"centerLng":124.927864,"geometrySource":"all_barangay-2.csv detailed WKT","geometryMatchMethod":"unique_official_admin_names","boundaryPointCount":9},"geometry":{"type":"MultiPolygon","coordinates":[[[[124.93248,11.08871],[124.933006,11.08122],[124.92852,11.07872],[124.924408,11.07668],[124.923737,11.08067],[124.92363,11.08327],[124.924187,11.0854],[124.928963,11.08789],[124.93248,11.08871]]]]}},{"type":"Feature","properties":{"ID_0":177,"ISO":"PHL","NAME_0":"Philippines","ID_1":8037,"NAME_1":"Leyte","ID_2":803717,"NAME_2":"Dagami","ID_3":803717057,"NAME_3":"Balugo","NL_NAME_3":null,"VARNAME_3":null,"TYPE_3":"Barangay","ENGTYPE_3":"Village","PROVINCE":"Leyte","REGION":"Region VIII (Eastern Visayas)","id":"barangay-0803717057","name":"Balugo","barangayCode":"0803717057","population":null,"formattedPop":null,"densityCategory":"No data","vulnerabilityRating":"No data","healthRiskLevel":"No data","areaKm2":1.389931,"centerLat":11.071158,"centerLng":124.889738,"geometrySource":"all_barangay-2.csv detailed WKT","geometryMatchMethod":"unique_official_admin_names","boundaryPointCount":8},"geometry":{"type":"MultiPolygon","coordinates":[[[[124.889511,11.07204],[124.89254,11.0679],[124.895813,11.06404],[124.895523,11.06191],[124.896362,11.05999],[124.893661,11.05765],[124.882797,11.0646],[124.889511,11.07204]]]]}},{"type":"Feature","properties":{"ID_0":177,"ISO":"PHL","NAME_0":"Philippines","ID_1":8037,"NAME_1":"Leyte","ID_2":803717,"NAME_2":"Dagami","ID_3":803717058,"NAME_3":"Cansamada West","NL_NAME_3":null,"VARNAME_3":null,"TYPE_3":"Barangay","ENGTYPE_3":"Village","PROVINCE":"Leyte","REGION":"Region VIII (Eastern Visayas)","id":"barangay-0803717058","name":"Cansamada West","barangayCode":"0803717058","population":null,"formattedPop":null,"densityCategory":"No data","vulnerabilityRating":"No data","healthRiskLevel":"No data","areaKm2":0.945907,"centerLat":11.07046,"centerLng":124.937972,"geometrySource":"all_barangay-2.csv detailed WKT","geometryMatchMethod":"unique_official_admin_names","boundaryPointCount":8},"geometry":{"type":"MultiPolygon","coordinates":[[[[124.935028,11.0779],[124.93512,11.07681],[124.936607,11.07422],[124.923866,11.07],[124.924408,11.07668],[124.92852,11.07872],[124.933006,11.08122],[124.935028,11.0779]]]]}},{"type":"Feature","properties":{"ID_0":177,"ISO":"PHL","NAME_0":"Philippines","ID_1":8037,"NAME_1":"Leyte","ID_2":803717,"NAME_2":"Dagami","ID_3":803717059,"NAME_3":"Capulhan","NL_NAME_3":null,"VARNAME_3":null,"TYPE_3":"Barangay","ENGTYPE_3":"Village","PROVINCE":"Leyte","REGION":"Region VIII (Eastern Visayas)","id":"barangay-0803717059","name":"Capulhan","barangayCode":"0803717059","population":null,"formattedPop":null,"densityCategory":"No data","vulnerabilityRating":"No data","healthRiskLevel":"No data","areaKm2":1.789676,"centerLat":11.05361,"centerLng":124.879598,"geometrySource":"all_barangay-2.csv detailed WKT","geometryMatchMethod":"unique_official_admin_names","boundaryPointCount":13},"geometry":{"type":"MultiPolygon","coordinates":[[[[124.890541,11.07293],[124.892593,11.07312],[124.894562,11.07288],[124.895844,11.07268],[124.897751,11.07125],[124.89901,11.07012],[124.900101,11.06762],[124.897949,11.06772],[124.896973,11.06665],[124.895813,11.06404],[124.89254,11.0679],[124.889511,11.07204],[124.890541,11.07293]]]]}},{"type":"Feature","properties":{"ID_0":177,"ISO":"PHL","NAME_0":"Philippines","ID_1":8037,"NAME_1":"Leyte","ID_2":803717,"NAME_2":"Dagami","ID_3":803717060,"NAME_3":"Lobe-lobe East","NL_NAME_3":null,"VARNAME_3":null,"TYPE_3":"Barangay","ENGTYPE_3":"Village","PROVINCE":"Leyte","REGION":"Region VIII (Eastern Visayas)","id":"barangay-0803717060","name":"Lobe-lobe East","barangayCode":"0803717060","population":null,"formattedPop":null,"densityCategory":"No data","vulnerabilityRating":"No data","healthRiskLevel":"No data","areaKm2":0.112642,"centerLat":11.020016,"centerLng":124.899002,"geometrySource":"all_barangay-2.csv detailed WKT","geometryMatchMethod":"unique_official_admin_names","boundaryPointCount":18},"geometry":{"type":"MultiPolygon","coordinates":[[[[124.8927,11.0279],[124.898323,11.02479],[124.903191,11.02483],[124.90815,11.02714],[124.907463,11.02538],[124.904579,11.01914],[124.903893,11.01995],[124.903023,11.01953],[124.901588,11.01912],[124.900993,11.01876],[124.900139,11.01986],[124.899399,11.02124],[124.898483,11.02078],[124.897324,11.02174],[124.89653,11.0229],[124.894333,11.02221],[124.892937,11.02151],[124.8927,11.0279]]]]}},{"type":"Feature","properties":{"ID_0":177,"ISO":"PHL","NAME_0":"Philippines","ID_1":8037,"NAME_1":"Leyte","ID_2":803717,"NAME_2":"Dagami","ID_3":803717061,"NAME_3":"Paraiso","NL_NAME_3":null,"VARNAME_3":null,"TYPE_3":"Barangay","ENGTYPE_3":"Village","PROVINCE":"Leyte","REGION":"Region VIII (Eastern Visayas)","id":"barangay-0803717061","name":"Paraiso","barangayCode":"0803717061","population":null,"formattedPop":null,"densityCategory":"No data","vulnerabilityRating":"No data","healthRiskLevel":"No data","areaKm2":1.555547,"centerLat":11.021329,"centerLng":124.889742,"geometrySource":"all_barangay-2.csv detailed WKT","geometryMatchMethod":"unique_official_admin_names","boundaryPointCount":9},"geometry":{"type":"MultiPolygon","coordinates":[[[[124.892036,11.03263],[124.8927,11.0279],[124.892937,11.02151],[124.882103,11.02148],[124.873367,11.02175],[124.877342,11.03408],[124.878807,11.03669],[124.883133,11.03541],[124.892036,11.03263]]]]}},{"type":"Feature","properties":{"ID_0":177,"ISO":"PHL","NAME_0":"Philippines","ID_1":8037,"NAME_1":"Leyte","ID_2":803717,"NAME_2":"Dagami","ID_3":803717062,"NAME_3":"Sampaguita","NL_NAME_3":null,"VARNAME_3":null,"TYPE_3":"Barangay","ENGTYPE_3":"Village","PROVINCE":"Leyte","REGION":"Region VIII (Eastern Visayas)","id":"barangay-0803717062","name":"Sampaguita","barangayCode":"0803717062","population":null,"formattedPop":null,"densityCategory":"No data","vulnerabilityRating":"No data","healthRiskLevel":"No data","areaKm2":1.199875,"centerLat":11.01928,"centerLng":124.908518,"geometrySource":"all_barangay-2.csv detailed WKT","geometryMatchMethod":"unique_official_admin_names","boundaryPointCount":5},"geometry":{"type":"MultiPolygon","coordinates":[[[[124.923401,11.03204],[124.919502,11.0243],[124.90815,11.02714],[124.911324,11.03246],[124.923401,11.03204]]]]}},{"type":"Feature","properties":{"ID_0":177,"ISO":"PHL","NAME_0":"Philippines","ID_1":8037,"NAME_1":"Leyte","ID_2":803717,"NAME_2":"Dagami","ID_3":803717063,"NAME_3":"Sawahon","NL_NAME_3":null,"VARNAME_3":null,"TYPE_3":"Barangay","ENGTYPE_3":"Village","PROVINCE":"Leyte","REGION":"Region VIII (Eastern Visayas)","id":"barangay-0803717063","name":"Sawahon","barangayCode":"0803717063","population":null,"formattedPop":null,"densityCategory":"No data","vulnerabilityRating":"No data","healthRiskLevel":"No data","areaKm2":0.559524,"centerLat":11.070695,"centerLng":124.87476,"geometrySource":"all_barangay-2.csv detailed WKT","geometryMatchMethod":"unique_official_admin_names","boundaryPointCount":9},"geometry":{"type":"MultiPolygon","coordinates":[[[[124.884819,11.0739],[124.871513,11.06654],[124.8703,11.06918],[124.869247,11.07276],[124.873299,11.07355],[124.873428,11.07532],[124.881073,11.07835],[124.883759,11.07687],[124.884819,11.0739]]]]}},{"type":"Feature","properties":{"ID_0":177,"ISO":"PHL","NAME_0":"Philippines","ID_1":8037,"NAME_1":"Leyte","ID_2":803717,"NAME_2":"Dagami","ID_3":803717064,"NAME_3":"Talinhugon","NL_NAME_3":null,"VARNAME_3":null,"TYPE_3":"Barangay","ENGTYPE_3":"Village","PROVINCE":"Leyte","REGION":"Region VIII (Eastern Visayas)","id":"barangay-0803717064","name":"Talinhugon","barangayCode":"0803717064","population":null,"formattedPop":null,"densityCategory":"No data","vulnerabilityRating":"No data","healthRiskLevel":"No data","areaKm2":0.51758,"centerLat":11.065733,"centerLng":124.918911,"geometrySource":"all_barangay-2.csv detailed WKT","geometryMatchMethod":"unique_official_admin_names","boundaryPointCount":5},"geometry":{"type":"MultiPolygon","coordinates":[[[[124.923866,11.07],[124.923988,11.06598],[124.918289,11.06497],[124.916199,11.07145],[124.923866,11.07]]]]}},{"type":"Feature","properties":{"ID_0":177,"ISO":"PHL","NAME_0":"Philippines","ID_1":8037,"NAME_1":"Leyte","ID_2":803717,"NAME_2":"Dagami","ID_3":803717065,"NAME_3":"Tuya","NL_NAME_3":null,"VARNAME_3":null,"TYPE_3":"Barangay","ENGTYPE_3":"Village","PROVINCE":"Leyte","REGION":"Region VIII (Eastern Visayas)","id":"barangay-0803717065","name":"Tuya","barangayCode":"0803717065","population":null,"formattedPop":null,"densityCategory":"No data","vulnerabilityRating":"No data","healthRiskLevel":"No data","areaKm2":0.919628,"centerLat":11.0852,"centerLng":124.943856,"geometrySource":"all_barangay-2.csv detailed WKT","geometryMatchMethod":"unique_official_admin_names","boundaryPointCount":11},"geometry":{"type":"MultiPolygon","coordinates":[[[[124.946617,11.0912],[124.951317,11.08157],[124.947594,11.0827],[124.947098,11.08372],[124.945717,11.08392],[124.943207,11.08356],[124.942017,11.08206],[124.940987,11.08168],[124.938667,11.08226],[124.94133,11.0862],[124.946617,11.0912]]]]}}]}
