{"type":"FeatureCollection","features":[{"type":"Feature","properties":{"ID_0":177,"ISO":"PHL","NAME_0":"Philippines","ID_1":3069,"NAME_1":"Tarlac","ID_2":306909,"NAME_2":"Moncada","ID_3":306909001,"NAME_3":"Ablang-Sapang","NL_NAME_3":null,"VARNAME_3":null,"TYPE_3":"Barangay","ENGTYPE_3":"Village","PROVINCE":"Tarlac","REGION":"Region III (Central Luzon)","id":"barangay-0306909001","name":"Ablang-Sapang","barangayCode":"0306909001","population":null,"formattedPop":null,"densityCategory":"No data","vulnerabilityRating":"No data","healthRiskLevel":"No data","areaKm2":21.863204,"centerLat":15.713107,"centerLng":120.498459,"geometrySource":"all_barangay-2.csv detailed WKT","geometryMatchMethod":"unique_official_admin_names","boundaryPointCount":70},"geometry":{"type":"MultiPolygon","coordinates":[[[[120.508369,15.74702],[120.512741,15.73945],[120.513718,15.73767],[120.516159,15.73371],[120.51899,15.72937],[120.52179,15.72482],[120.524727,15.71941],[120.525818,15.71537],[120.527107,15.71162],[120.529701,15.70726],[120.5345,15.69922],[120.533043,15.69957],[120.532372,15.69838],[120.532028,15.69767],[120.531212,15.69589],[120.53064,15.69502],[120.530327,15.69475],[120.529007,15.69377],[120.527931,15.69359],[120.525391,15.69462],[120.522591,15.69635],[120.5214,15.69784],[120.519661,15.69863],[120.518929,15.69864],[120.518059,15.69929],[120.517113,15.69923],[120.516472,15.69895],[120.515198,15.69933],[120.514397,15.7005],[120.514099,15.70132],[120.513657,15.70213],[120.512192,15.70251],[120.511429,15.70168],[120.510979,15.701],[120.509743,15.69996],[120.508461,15.69983],[120.506531,15.69975],[120.506264,15.70158],[120.506073,15.70261],[120.505676,15.70325],[120.505524,15.70385],[120.504623,15.70444],[120.502808,15.70522],[120.501587,15.70645],[120.500237,15.70823],[120.496361,15.71147],[120.495201,15.71351],[120.494034,15.71455],[120.493507,15.71544],[120.493553,15.71661],[120.493881,15.71739],[120.494186,15.71829],[120.494278,15.71951],[120.49398,15.72047],[120.492157,15.72137],[120.490822,15.72204],[120.489151,15.72302],[120.488136,15.72292],[120.487907,15.72414],[120.488342,15.72532],[120.488693,15.72647],[120.488533,15.7274],[120.48629,15.72838],[120.484993,15.72803],[120.484039,15.72821],[120.482628,15.72835],[120.482132,15.72845],[120.481071,15.72984],[120.500343,15.74228],[120.508369,15.74702]]]]}},{"type":"Feature","properties":{"ID_0":177,"ISO":"PHL","NAME_0":"Philippines","ID_1":3069,"NAME_1":"Tarlac","ID_2":306909,"NAME_2":"Moncada","ID_3":306909002,"NAME_3":"Aringin","NL_NAME_3":null,"VARNAME_3":null,"TYPE_3":"Barangay","ENGTYPE_3":"Village","PROVINCE":"Tarlac","REGION":"Region III (Central Luzon)","id":"barangay-0306909002","name":"Aringin","barangayCode":"0306909002","population":null,"formattedPop":null,"densityCategory":"No data","vulnerabilityRating":"No data","healthRiskLevel":"No data","areaKm2":0.926858,"centerLat":15.772494,"centerLng":120.581052,"geometrySource":"all_barangay-2.csv detailed WKT","geometryMatchMethod":"unique_official_admin_names","boundaryPointCount":20},"geometry":{"type":"MultiPolygon","coordinates":[[[[120.583557,15.7996],[120.588997,15.79192],[120.59214,15.78984],[120.596001,15.78834],[120.596992,15.78685],[120.595482,15.78458],[120.594368,15.78187],[120.593857,15.77919],[120.593826,15.77622],[120.591476,15.77672],[120.589394,15.77826],[120.588623,15.77981],[120.588417,15.78054],[120.58847,15.78183],[120.579758,15.78146],[120.576332,15.78792],[120.578712,15.79618],[120.581192,15.79695],[120.582512,15.79731],[120.583557,15.7996]]]]}},{"type":"Feature","properties":{"ID_0":177,"ISO":"PHL","NAME_0":"Philippines","ID_1":3069,"NAME_1":"Tarlac","ID_2":306909,"NAME_2":"Moncada","ID_3":306909003,"NAME_3":"Atencio","NL_NAME_3":null,"VARNAME_3":null,"TYPE_3":"Barangay","ENGTYPE_3":"Village","PROVINCE":"Tarlac","REGION":"Region III (Central Luzon)","id":"barangay-0306909003","name":"Atencio","barangayCode":"0306909003","population":null,"formattedPop":null,"densityCategory":"No data","vulnerabilityRating":"No data","healthRiskLevel":"No data","areaKm2":1.135746,"centerLat":15.761704,"centerLng":120.58355,"geometrySource":"all_barangay-2.csv detailed WKT","geometryMatchMethod":"unique_official_admin_names","boundaryPointCount":9},"geometry":{"type":"MultiPolygon","coordinates":[[[[120.576874,15.77798],[120.58696,15.7724],[120.583366,15.76718],[120.581047,15.76789],[120.579613,15.7685],[120.575539,15.77286],[120.575783,15.77405],[120.576309,15.77634],[120.576874,15.77798]]]]}},{"type":"Feature","properties":{"ID_0":177,"ISO":"PHL","NAME_0":"Philippines","ID_1":3069,"NAME_1":"Tarlac","ID_2":306909,"NAME_2":"Moncada","ID_3":306909004,"NAME_3":"Banaoang East","NL_NAME_3":null,"VARNAME_3":null,"TYPE_3":"Barangay","ENGTYPE_3":"Village","PROVINCE":"Tarlac","REGION":"Region III (Central Luzon)","id":"barangay-0306909004","name":"Banaoang East","barangayCode":"0306909004","population":null,"formattedPop":null,"densityCategory":"No data","vulnerabilityRating":"No data","healthRiskLevel":"No data","areaKm2":10.132922,"centerLat":15.733062,"centerLng":120.533644,"geometrySource":"all_barangay-2.csv detailed WKT","geometryMatchMethod":"unique_official_admin_names","boundaryPointCount":39},"geometry":{"type":"MultiPolygon","coordinates":[[[[120.537033,15.76422],[120.538307,15.75697],[120.539772,15.75041],[120.54071,15.74426],[120.541801,15.73879],[120.542603,15.73295],[120.544487,15.72601],[120.546516,15.72014],[120.548431,15.7139],[120.551643,15.70164],[120.55014,15.70118],[120.547157,15.70008],[120.546028,15.70266],[120.54512,15.70456],[120.543533,15.70646],[120.540154,15.70861],[120.538818,15.70994],[120.537491,15.71167],[120.536957,15.7144],[120.537659,15.71723],[120.536942,15.7206],[120.535797,15.72241],[120.533974,15.72416],[120.532867,15.7266],[120.531357,15.72888],[120.530151,15.73059],[120.527397,15.73421],[120.526657,15.73585],[120.525436,15.73891],[120.524559,15.74188],[120.524384,15.74376],[120.524307,15.74592],[120.523537,15.7487],[120.521111,15.7544],[120.524429,15.75634],[120.526047,15.75728],[120.527908,15.75845],[120.530609,15.76024],[120.537033,15.76422]]]]}},{"type":"Feature","properties":{"ID_0":177,"ISO":"PHL","NAME_0":"Philippines","ID_1":3069,"NAME_1":"Tarlac","ID_2":306909,"NAME_2":"Moncada","ID_3":306909005,"NAME_3":"Banaoang West","NL_NAME_3":null,"VARNAME_3":null,"TYPE_3":"Barangay","ENGTYPE_3":"Village","PROVINCE":"Tarlac","REGION":"Region III (Central Luzon)","id":"barangay-0306909005","name":"Banaoang West","barangayCode":"0306909005","population":null,"formattedPop":null,"densityCategory":"No data","vulnerabilityRating":"No data","healthRiskLevel":"No data","areaKm2":8.09697,"centerLat":15.729253,"centerLng":120.518208,"geometrySource":"all_barangay-2.csv detailed WKT","geometryMatchMethod":"unique_official_admin_names","boundaryPointCount":27},"geometry":{"type":"MultiPolygon","coordinates":[[[[120.521111,15.7544],[120.523537,15.7487],[120.524307,15.74592],[120.524384,15.74376],[120.524559,15.74188],[120.525436,15.73891],[120.526657,15.73585],[120.527397,15.73421],[120.530151,15.73059],[120.531357,15.72888],[120.532867,15.7266],[120.533974,15.72416],[120.535797,15.72241],[120.536942,15.7206],[120.537659,15.71723],[120.536957,15.7144],[120.527107,15.71162],[120.525818,15.71537],[120.524727,15.71941],[120.52179,15.72482],[120.51899,15.72937],[120.516159,15.73371],[120.513718,15.73767],[120.512741,15.73945],[120.508369,15.74702],[120.511971,15.74977],[120.521111,15.7544]]]]}},{"type":"Feature","properties":{"ID_0":177,"ISO":"PHL","NAME_0":"Philippines","ID_1":3069,"NAME_1":"Tarlac","ID_2":306909,"NAME_2":"Moncada","ID_3":306909006,"NAME_3":"Baquero Norte","NL_NAME_3":null,"VARNAME_3":null,"TYPE_3":"Barangay","ENGTYPE_3":"Village","PROVINCE":"Tarlac","REGION":"Region III (Central Luzon)","id":"barangay-0306909006","name":"Baquero Norte","barangayCode":"0306909006","population":null,"formattedPop":null,"densityCategory":"No data","vulnerabilityRating":"No data","healthRiskLevel":"No data","areaKm2":4.124742,"centerLat":15.723118,"centerLng":120.551194,"geometrySource":"all_barangay-2.csv detailed WKT","geometryMatchMethod":"unique_official_admin_names","boundaryPointCount":21},"geometry":{"type":"MultiPolygon","coordinates":[[[[120.55275,15.73751],[120.555222,15.73285],[120.555519,15.73057],[120.555794,15.72893],[120.556236,15.72772],[120.555206,15.72612],[120.554466,15.72486],[120.553726,15.72384],[120.552551,15.72281],[120.550598,15.72135],[120.546516,15.72014],[120.544487,15.72601],[120.542603,15.73295],[120.544296,15.73531],[120.544838,15.73557],[120.545517,15.73572],[120.547523,15.73627],[120.548462,15.73649],[120.5504,15.73676],[120.551567,15.73741],[120.55275,15.73751]]]]}},{"type":"Feature","properties":{"ID_0":177,"ISO":"PHL","NAME_0":"Philippines","ID_1":3069,"NAME_1":"Tarlac","ID_2":306909,"NAME_2":"Moncada","ID_3":306909007,"NAME_3":"Baquero Sur","NL_NAME_3":null,"VARNAME_3":null,"TYPE_3":"Barangay","ENGTYPE_3":"Village","PROVINCE":"Tarlac","REGION":"Region III (Central Luzon)","id":"barangay-0306909007","name":"Baquero Sur","barangayCode":"0306909007","population":null,"formattedPop":null,"densityCategory":"No data","vulnerabilityRating":"No data","healthRiskLevel":"No data","areaKm2":1.624713,"centerLat":15.708262,"centerLng":120.553784,"geometrySource":"all_barangay-2.csv detailed WKT","geometryMatchMethod":"unique_official_admin_names","boundaryPointCount":26},"geometry":{"type":"MultiPolygon","coordinates":[[[[120.556236,15.72772],[120.560226,15.71901],[120.564659,15.7094],[120.563828,15.70946],[120.56282,15.70948],[120.562347,15.70903],[120.562447,15.70801],[120.5625,15.70784],[120.562843,15.70673],[120.562317,15.70546],[120.561607,15.70494],[120.5606,15.70396],[120.559441,15.70405],[120.55793,15.70457],[120.556503,15.70451],[120.555077,15.70384],[120.553879,15.70293],[120.551643,15.70164],[120.548431,15.7139],[120.546516,15.72014],[120.550598,15.72135],[120.552551,15.72281],[120.553726,15.72384],[120.554466,15.72486],[120.555206,15.72612],[120.556236,15.72772]]]]}},{"type":"Feature","properties":{"ID_0":177,"ISO":"PHL","NAME_0":"Philippines","ID_1":3069,"NAME_1":"Tarlac","ID_2":306909,"NAME_2":"Moncada","ID_3":306909008,"NAME_3":"Burgos","NL_NAME_3":null,"VARNAME_3":null,"TYPE_3":"Barangay","ENGTYPE_3":"Village","PROVINCE":"Tarlac","REGION":"Region III (Central Luzon)","id":"barangay-0306909008","name":"Burgos","barangayCode":"0306909008","population":null,"formattedPop":null,"densityCategory":"No data","vulnerabilityRating":"No data","healthRiskLevel":"No data","areaKm2":2.398461,"centerLat":15.733229,"centerLng":120.581774,"geometrySource":"all_barangay-2.csv detailed WKT","geometryMatchMethod":"unique_official_admin_names","boundaryPointCount":18},"geometry":{"type":"MultiPolygon","coordinates":[[[[120.571854,15.74983],[120.574913,15.75205],[120.578537,15.75368],[120.580299,15.75461],[120.582161,15.75578],[120.583282,15.75729],[120.583649,15.7542],[120.584061,15.75173],[120.584663,15.74949],[120.585457,15.7455],[120.584488,15.74488],[120.58239,15.74475],[120.580338,15.7447],[120.578293,15.74445],[120.576424,15.7443],[120.573189,15.74346],[120.572327,15.74626],[120.571854,15.74983]]]]}},{"type":"Feature","properties":{"ID_0":177,"ISO":"PHL","NAME_0":"Philippines","ID_1":3069,"NAME_1":"Tarlac","ID_2":306909,"NAME_2":"Moncada","ID_3":306909009,"NAME_3":"Calamay","NL_NAME_3":null,"VARNAME_3":null,"TYPE_3":"Barangay","ENGTYPE_3":"Village","PROVINCE":"Tarlac","REGION":"Region III (Central Luzon)","id":"barangay-0306909009","name":"Calamay","barangayCode":"0306909009","population":null,"formattedPop":null,"densityCategory":"No data","vulnerabilityRating":"No data","healthRiskLevel":"No data","areaKm2":3.409766,"centerLat":15.772779,"centerLng":120.565436,"geometrySource":"all_barangay-2.csv detailed WKT","geometryMatchMethod":"unique_official_admin_names","boundaryPointCount":23},"geometry":{"type":"MultiPolygon","coordinates":[[[[120.578712,15.79618],[120.576332,15.78792],[120.57386,15.78646],[120.57061,15.78495],[120.56945,15.78461],[120.56852,15.78349],[120.568123,15.78208],[120.56543,15.78224],[120.562103,15.78197],[120.55941,15.78146],[120.552452,15.78136],[120.553947,15.78443],[120.555519,15.78713],[120.558434,15.79261],[120.560516,15.79307],[120.563606,15.79377],[120.565063,15.79416],[120.567146,15.79467],[120.569206,15.79451],[120.571777,15.79492],[120.573669,15.79526],[120.576027,15.79575],[120.578712,15.79618]]]]}},{"type":"Feature","properties":{"ID_0":177,"ISO":"PHL","NAME_0":"Philippines","ID_1":3069,"NAME_1":"Tarlac","ID_2":306909,"NAME_2":"Moncada","ID_3":306909010,"NAME_3":"Calapan","NL_NAME_3":null,"VARNAME_3":null,"TYPE_3":"Barangay","ENGTYPE_3":"Village","PROVINCE":"Tarlac","REGION":"Region III (Central Luzon)","id":"barangay-0306909010","name":"Calapan","barangayCode":"0306909010","population":null,"formattedPop":null,"densityCategory":"No data","vulnerabilityRating":"No data","healthRiskLevel":"No data","areaKm2":3.594767,"centerLat":15.698416,"centerLng":120.539571,"geometrySource":"all_barangay-2.csv detailed WKT","geometryMatchMethod":"unique_official_admin_names","boundaryPointCount":17},"geometry":{"type":"MultiPolygon","coordinates":[[[[120.527107,15.71162],[120.536957,15.7144],[120.537491,15.71167],[120.538818,15.70994],[120.540154,15.70861],[120.543533,15.70646],[120.54512,15.70456],[120.546028,15.70266],[120.547157,15.70008],[120.545471,15.70086],[120.543747,15.70099],[120.542259,15.70089],[120.539307,15.70126],[120.537918,15.7007],[120.5345,15.69922],[120.529701,15.70726],[120.527107,15.71162]]]]}},{"type":"Feature","properties":{"ID_0":177,"ISO":"PHL","NAME_0":"Philippines","ID_1":3069,"NAME_1":"Tarlac","ID_2":306909,"NAME_2":"Moncada","ID_3":306909011,"NAME_3":"Camangaan East","NL_NAME_3":null,"VARNAME_3":null,"TYPE_3":"Barangay","ENGTYPE_3":"Village","PROVINCE":"Tarlac","REGION":"Region III (Central Luzon)","id":"barangay-0306909011","name":"Camangaan East","barangayCode":"0306909011","population":null,"formattedPop":null,"densityCategory":"No data","vulnerabilityRating":"No data","healthRiskLevel":"No data","areaKm2":1.594102,"centerLat":15.71808,"centerLng":120.573083,"geometrySource":"all_barangay-2.csv detailed WKT","geometryMatchMethod":"unique_official_admin_names","boundaryPointCount":17},"geometry":{"type":"MultiPolygon","coordinates":[[[[120.58239,15.74475],[120.583893,15.73998],[120.584846,15.73639],[120.571983,15.73456],[120.565514,15.7342],[120.56617,15.7357],[120.566704,15.73661],[120.567123,15.73742],[120.567169,15.73823],[120.565323,15.74165],[120.566383,15.74281],[120.568161,15.74311],[120.573189,15.74346],[120.576424,15.7443],[120.578293,15.74445],[120.580338,15.7447],[120.58239,15.74475]]]]}},{"type":"Feature","properties":{"ID_0":177,"ISO":"PHL","NAME_0":"Philippines","ID_1":3069,"NAME_1":"Tarlac","ID_2":306909,"NAME_2":"Moncada","ID_3":306909012,"NAME_3":"Camangaan West","NL_NAME_3":null,"VARNAME_3":null,"TYPE_3":"Barangay","ENGTYPE_3":"Village","PROVINCE":"Tarlac","REGION":"Region III (Central Luzon)","id":"barangay-0306909012","name":"Camangaan West","barangayCode":"0306909012","population":null,"formattedPop":null,"densityCategory":"No data","vulnerabilityRating":"No data","healthRiskLevel":"No data","areaKm2":2.323946,"centerLat":15.713915,"centerLng":120.564775,"geometrySource":"all_barangay-2.csv detailed WKT","geometryMatchMethod":"unique_official_admin_names","boundaryPointCount":15},"geometry":{"type":"MultiPolygon","coordinates":[[[[120.571983,15.73456],[120.571297,15.73218],[120.569237,15.72751],[120.567932,15.7251],[120.566681,15.72377],[120.560226,15.71901],[120.556236,15.72772],[120.557426,15.73046],[120.558006,15.73108],[120.55938,15.73161],[120.560677,15.732],[120.561653,15.73236],[120.56353,15.73277],[120.565514,15.7342],[120.571983,15.73456]]]]}},{"type":"Feature","properties":{"ID_0":177,"ISO":"PHL","NAME_0":"Philippines","ID_1":3069,"NAME_1":"Tarlac","ID_2":306909,"NAME_2":"Moncada","ID_3":306909013,"NAME_3":"Camposanto 1 - Norte","NL_NAME_3":null,"VARNAME_3":null,"TYPE_3":"Barangay","ENGTYPE_3":"Village","PROVINCE":"Tarlac","REGION":"Region III (Central Luzon)","id":"barangay-0306909013","name":"Camposanto 1 - Norte","barangayCode":"0306909013","population":null,"formattedPop":null,"densityCategory":"No data","vulnerabilityRating":"No data","healthRiskLevel":"No data","areaKm2":3.352466,"centerLat":15.750842,"centerLng":120.560693,"geometrySource":"all_barangay-2.csv detailed WKT","geometryMatchMethod":"unique_official_admin_names","boundaryPointCount":21},"geometry":{"type":"MultiPolygon","coordinates":[[[[120.571198,15.7605],[120.571793,15.75855],[120.571777,15.75727],[120.571808,15.75496],[120.571007,15.75351],[120.569641,15.7532],[120.567383,15.75354],[120.562859,15.75429],[120.561256,15.75409],[120.559807,15.75347],[120.559509,15.7533],[120.55822,15.75246],[120.539772,15.75041],[120.538307,15.75697],[120.545227,15.75897],[120.552803,15.76119],[120.560516,15.7636],[120.566093,15.76626],[120.570236,15.76804],[120.57061,15.76483],[120.571198,15.7605]]]]}},{"type":"Feature","properties":{"ID_0":177,"ISO":"PHL","NAME_0":"Philippines","ID_1":3069,"NAME_1":"Tarlac","ID_2":306909,"NAME_2":"Moncada","ID_3":306909014,"NAME_3":"Camposanto 1 - Sur","NL_NAME_3":null,"VARNAME_3":null,"TYPE_3":"Barangay","ENGTYPE_3":"Village","PROVINCE":"Tarlac","REGION":"Region III (Central Luzon)","id":"barangay-0306909014","name":"Camposanto 1 - Sur","barangayCode":"0306909014","population":null,"formattedPop":null,"densityCategory":"No data","vulnerabilityRating":"No data","healthRiskLevel":"No data","areaKm2":0.243151,"centerLat":15.738379,"centerLng":120.570858,"geometrySource":"all_barangay-2.csv detailed WKT","geometryMatchMethod":"unique_official_admin_names","boundaryPointCount":8},"geometry":{"type":"MultiPolygon","coordinates":[[[[120.55822,15.75246],[120.556229,15.74877],[120.555191,15.74769],[120.553551,15.74433],[120.547157,15.744],[120.54071,15.74426],[120.539772,15.75041],[120.55822,15.75246]]]]}},{"type":"Feature","properties":{"ID_0":177,"ISO":"PHL","NAME_0":"Philippines","ID_1":3069,"NAME_1":"Tarlac","ID_2":306909,"NAME_2":"Moncada","ID_3":306909015,"NAME_3":"Camposanto 2","NL_NAME_3":null,"VARNAME_3":null,"TYPE_3":"Barangay","ENGTYPE_3":"Village","PROVINCE":"Tarlac","REGION":"Region III (Central Luzon)","id":"barangay-0306909015","name":"Camposanto 2","barangayCode":"0306909015","population":null,"formattedPop":null,"densityCategory":"No data","vulnerabilityRating":"No data","healthRiskLevel":"No data","areaKm2":2.532323,"centerLat":15.747816,"centerLng":120.552633,"geometrySource":"all_barangay-2.csv detailed WKT","geometryMatchMethod":"unique_official_admin_names","boundaryPointCount":33},"geometry":{"type":"MultiPolygon","coordinates":[[[[120.567383,15.75354],[120.567146,15.74967],[120.566612,15.74824],[120.566643,15.74714],[120.566383,15.74281],[120.565323,15.74165],[120.562843,15.7404],[120.560822,15.74001],[120.559174,15.73941],[120.557114,15.73873],[120.555351,15.73835],[120.554604,15.73811],[120.55275,15.73751],[120.551567,15.73741],[120.5504,15.73676],[120.548462,15.73649],[120.547523,15.73627],[120.545517,15.73572],[120.544838,15.73557],[120.544296,15.73531],[120.542603,15.73295],[120.541801,15.73879],[120.54071,15.74426],[120.547157,15.744],[120.553551,15.74433],[120.555191,15.74769],[120.556229,15.74877],[120.55822,15.75246],[120.559509,15.7533],[120.559807,15.75347],[120.561256,15.75409],[120.562859,15.75429],[120.567383,15.75354]]]]}},{"type":"Feature","properties":{"ID_0":177,"ISO":"PHL","NAME_0":"Philippines","ID_1":3069,"NAME_1":"Tarlac","ID_2":306909,"NAME_2":"Moncada","ID_3":306909016,"NAME_3":"Capaoayan","NL_NAME_3":null,"VARNAME_3":null,"TYPE_3":"Barangay","ENGTYPE_3":"Village","PROVINCE":"Tarlac","REGION":"Region III (Central Luzon)","id":"barangay-0306909016","name":"Capaoayan","barangayCode":"0306909016","population":null,"formattedPop":null,"densityCategory":"No data","vulnerabilityRating":"No data","healthRiskLevel":"No data","areaKm2":4.264697,"centerLat":15.739772,"centerLng":120.552121,"geometrySource":"all_barangay-2.csv detailed WKT","geometryMatchMethod":"unique_official_admin_names","boundaryPointCount":24},"geometry":{"type":"MultiPolygon","coordinates":[[[[120.565323,15.74165],[120.567169,15.73823],[120.567123,15.73742],[120.566704,15.73661],[120.56617,15.7357],[120.565514,15.7342],[120.56353,15.73277],[120.561653,15.73236],[120.560677,15.732],[120.55938,15.73161],[120.558006,15.73108],[120.557426,15.73046],[120.556236,15.72772],[120.555794,15.72893],[120.555519,15.73057],[120.555222,15.73285],[120.55275,15.73751],[120.554604,15.73811],[120.555351,15.73835],[120.557114,15.73873],[120.559174,15.73941],[120.560822,15.74001],[120.562843,15.7404],[120.565323,15.74165]]]]}},{"type":"Feature","properties":{"ID_0":177,"ISO":"PHL","NAME_0":"Philippines","ID_1":3069,"NAME_1":"Tarlac","ID_2":306909,"NAME_2":"Moncada","ID_3":306909017,"NAME_3":"Lapsing","NL_NAME_3":null,"VARNAME_3":null,"TYPE_3":"Barangay","ENGTYPE_3":"Village","PROVINCE":"Tarlac","REGION":"Region III (Central Luzon)","id":"barangay-0306909017","name":"Lapsing","barangayCode":"0306909017","population":null,"formattedPop":null,"densityCategory":"No data","vulnerabilityRating":"No data","healthRiskLevel":"No data","areaKm2":1.525718,"centerLat":15.756164,"centerLng":120.59287,"geometrySource":"all_barangay-2.csv detailed WKT","geometryMatchMethod":"unique_official_admin_names","boundaryPointCount":12},"geometry":{"type":"MultiPolygon","coordinates":[[[[120.579758,15.78146],[120.58062,15.77979],[120.581467,15.77896],[120.584061,15.77729],[120.585052,15.77598],[120.585907,15.77515],[120.587639,15.77348],[120.58696,15.7724],[120.576874,15.77798],[120.57769,15.77948],[120.578346,15.78036],[120.579758,15.78146]]]]}},{"type":"Feature","properties":{"ID_0":177,"ISO":"PHL","NAME_0":"Philippines","ID_1":3069,"NAME_1":"Tarlac","ID_2":306909,"NAME_2":"Moncada","ID_3":306909018,"NAME_3":"Mabini","NL_NAME_3":null,"VARNAME_3":null,"TYPE_3":"Barangay","ENGTYPE_3":"Village","PROVINCE":"Tarlac","REGION":"Region III (Central Luzon)","id":"barangay-0306909018","name":"Mabini","barangayCode":"0306909018","population":null,"formattedPop":null,"densityCategory":"No data","vulnerabilityRating":"No data","healthRiskLevel":"No data","areaKm2":1.108755,"centerLat":15.752608,"centerLng":120.580836,"geometrySource":"all_barangay-2.csv detailed WKT","geometryMatchMethod":"unique_official_admin_names","boundaryPointCount":15},"geometry":{"type":"MultiPolygon","coordinates":[[[[120.57016,15.77094],[120.573593,15.77197],[120.574387,15.77236],[120.575539,15.77286],[120.579613,15.7685],[120.581047,15.76789],[120.583366,15.76718],[120.587059,15.76581],[120.58461,15.76352],[120.583313,15.76193],[120.580299,15.76237],[120.571198,15.7605],[120.57061,15.76483],[120.570236,15.76804],[120.57016,15.77094]]]]}},{"type":"Feature","properties":{"ID_0":177,"ISO":"PHL","NAME_0":"Philippines","ID_1":3069,"NAME_1":"Tarlac","ID_2":306909,"NAME_2":"Moncada","ID_3":306909019,"NAME_3":"Maluac","NL_NAME_3":null,"VARNAME_3":null,"TYPE_3":"Barangay","ENGTYPE_3":"Village","PROVINCE":"Tarlac","REGION":"Region III (Central Luzon)","id":"barangay-0306909019","name":"Maluac","barangayCode":"0306909019","population":null,"formattedPop":null,"densityCategory":"No data","vulnerabilityRating":"No data","healthRiskLevel":"No data","areaKm2":1.121545,"centerLat":15.745478,"centerLng":120.583878,"geometrySource":"all_barangay-2.csv detailed WKT","geometryMatchMethod":"unique_official_admin_names","boundaryPointCount":31},"geometry":{"type":"MultiPolygon","coordinates":[[[[120.587059,15.76581],[120.590027,15.76744],[120.591553,15.76847],[120.594872,15.77114],[120.59581,15.76945],[120.595917,15.76835],[120.595627,15.76629],[120.595337,15.76503],[120.595062,15.7637],[120.594963,15.76283],[120.595062,15.76079],[120.595596,15.76009],[120.596359,15.75959],[120.597717,15.75909],[120.598686,15.75911],[120.599419,15.75892],[120.600967,15.75857],[120.601418,15.7577],[120.601509,15.75673],[120.598747,15.75655],[120.593964,15.75609],[120.59285,15.75627],[120.590271,15.75703],[120.587219,15.75782],[120.585716,15.75803],[120.584824,15.75813],[120.583282,15.75729],[120.583351,15.75902],[120.583313,15.76193],[120.58461,15.76352],[120.587059,15.76581]]]]}},{"type":"Feature","properties":{"ID_0":177,"ISO":"PHL","NAME_0":"Philippines","ID_1":3069,"NAME_1":"Tarlac","ID_2":306909,"NAME_2":"Moncada","ID_3":306909020,"NAME_3":"Poblacion 1","NL_NAME_3":null,"VARNAME_3":null,"TYPE_3":"Barangay","ENGTYPE_3":"Village","PROVINCE":"Tarlac","REGION":"Region III (Central Luzon)","id":"barangay-0306909020","name":"Poblacion 1","barangayCode":"0306909020","population":null,"formattedPop":null,"densityCategory":"No data","vulnerabilityRating":"No data","healthRiskLevel":"No data","areaKm2":0.212295,"centerLat":15.734907,"centerLng":120.573834,"geometrySource":"all_barangay-2.csv detailed WKT","geometryMatchMethod":"unique_official_admin_names","boundaryPointCount":7},"geometry":{"type":"MultiPolygon","coordinates":[[[[120.571007,15.75351],[120.571854,15.74983],[120.568626,15.74967],[120.567146,15.74967],[120.567383,15.75354],[120.569641,15.7532],[120.571007,15.75351]]]]}},{"type":"Feature","properties":{"ID_0":177,"ISO":"PHL","NAME_0":"Philippines","ID_1":3069,"NAME_1":"Tarlac","ID_2":306909,"NAME_2":"Moncada","ID_3":306909021,"NAME_3":"Poblacion 2","NL_NAME_3":null,"VARNAME_3":null,"TYPE_3":"Barangay","ENGTYPE_3":"Village","PROVINCE":"Tarlac","REGION":"Region III (Central Luzon)","id":"barangay-0306909021","name":"Poblacion 2","barangayCode":"0306909021","population":null,"formattedPop":null,"densityCategory":"No data","vulnerabilityRating":"No data","healthRiskLevel":"No data","areaKm2":0.250382,"centerLat":15.730227,"centerLng":120.573393,"geometrySource":"all_barangay-2.csv detailed WKT","geometryMatchMethod":"unique_official_admin_names","boundaryPointCount":5},"geometry":{"type":"MultiPolygon","coordinates":[[[[120.571854,15.74983],[120.572327,15.74626],[120.568626,15.74641],[120.568626,15.74967],[120.571854,15.74983]]]]}},{"type":"Feature","properties":{"ID_0":177,"ISO":"PHL","NAME_0":"Philippines","ID_1":3069,"NAME_1":"Tarlac","ID_2":306909,"NAME_2":"Moncada","ID_3":306909022,"NAME_3":"Poblacion 3","NL_NAME_3":null,"VARNAME_3":null,"TYPE_3":"Barangay","ENGTYPE_3":"Village","PROVINCE":"Tarlac","REGION":"Region III (Central Luzon)","id":"barangay-0306909022","name":"Poblacion 3","barangayCode":"0306909022","population":null,"formattedPop":null,"densityCategory":"No data","vulnerabilityRating":"No data","healthRiskLevel":"No data","areaKm2":0.088507,"centerLat":15.730962,"centerLng":120.569608,"geometrySource":"all_barangay-2.csv detailed WKT","geometryMatchMethod":"unique_official_admin_names","boundaryPointCount":5},"geometry":{"type":"MultiPolygon","coordinates":[[[[120.572327,15.74626],[120.573189,15.74346],[120.568161,15.74311],[120.568626,15.74641],[120.572327,15.74626]]]]}},{"type":"Feature","properties":{"ID_0":177,"ISO":"PHL","NAME_0":"Philippines","ID_1":3069,"NAME_1":"Tarlac","ID_2":306909,"NAME_2":"Moncada","ID_3":306909023,"NAME_3":"Poblacion 4","NL_NAME_3":null,"VARNAME_3":null,"TYPE_3":"Barangay","ENGTYPE_3":"Village","PROVINCE":"Tarlac","REGION":"Region III (Central Luzon)","id":"barangay-0306909023","name":"Poblacion 4","barangayCode":"0306909023","population":null,"formattedPop":null,"densityCategory":"No data","vulnerabilityRating":"No data","healthRiskLevel":"No data","areaKm2":0.124959,"centerLat":15.734554,"centerLng":120.570293,"geometrySource":"all_barangay-2.csv detailed WKT","geometryMatchMethod":"unique_official_admin_names","boundaryPointCount":8},"geometry":{"type":"MultiPolygon","coordinates":[[[[120.568626,15.74967],[120.568626,15.74641],[120.568161,15.74311],[120.566383,15.74281],[120.566643,15.74714],[120.566612,15.74824],[120.567146,15.74967],[120.568626,15.74967]]]]}},{"type":"Feature","properties":{"ID_0":177,"ISO":"PHL","NAME_0":"Philippines","ID_1":3069,"NAME_1":"Tarlac","ID_2":306909,"NAME_2":"Moncada","ID_3":306909024,"NAME_3":"Rizal","NL_NAME_3":null,"VARNAME_3":null,"TYPE_3":"Barangay","ENGTYPE_3":"Village","PROVINCE":"Tarlac","REGION":"Region III (Central Luzon)","id":"barangay-0306909024","name":"Rizal","barangayCode":"0306909024","population":null,"formattedPop":null,"densityCategory":"No data","vulnerabilityRating":"No data","healthRiskLevel":"No data","areaKm2":0.297734,"centerLat":15.744881,"centerLng":120.576233,"geometrySource":"all_barangay-2.csv detailed WKT","geometryMatchMethod":"unique_official_admin_names","boundaryPointCount":15},"geometry":{"type":"MultiPolygon","coordinates":[[[[120.583313,15.76193],[120.583351,15.75902],[120.583282,15.75729],[120.582161,15.75578],[120.580299,15.75461],[120.578537,15.75368],[120.574913,15.75205],[120.571854,15.74983],[120.571007,15.75351],[120.571808,15.75496],[120.571777,15.75727],[120.571793,15.75855],[120.571198,15.7605],[120.580299,15.76237],[120.583313,15.76193]]]]}},{"type":"Feature","properties":{"ID_0":177,"ISO":"PHL","NAME_0":"Philippines","ID_1":3069,"NAME_1":"Tarlac","ID_2":306909,"NAME_2":"Moncada","ID_3":306909025,"NAME_3":"San Juan","NL_NAME_3":null,"VARNAME_3":null,"TYPE_3":"Barangay","ENGTYPE_3":"Village","PROVINCE":"Tarlac","REGION":"Region III (Central Luzon)","id":"barangay-0306909025","name":"San Juan","barangayCode":"0306909025","population":null,"formattedPop":null,"densityCategory":"No data","vulnerabilityRating":"No data","healthRiskLevel":"No data","areaKm2":1.346842,"centerLat":15.776268,"centerLng":120.592754,"geometrySource":"all_barangay-2.csv detailed WKT","geometryMatchMethod":"unique_official_admin_names","boundaryPointCount":16},"geometry":{"type":"MultiPolygon","coordinates":[[[[120.58847,15.78183],[120.588417,15.78054],[120.588623,15.77981],[120.589394,15.77826],[120.591476,15.77672],[120.593826,15.77622],[120.59433,15.77235],[120.592957,15.77315],[120.590393,15.77314],[120.588997,15.77358],[120.587639,15.77348],[120.585907,15.77515],[120.585052,15.77598],[120.585037,15.77849],[120.585892,15.78016],[120.58847,15.78183]]]]}},{"type":"Feature","properties":{"ID_0":177,"ISO":"PHL","NAME_0":"Philippines","ID_1":3069,"NAME_1":"Tarlac","ID_2":306909,"NAME_2":"Moncada","ID_3":306909026,"NAME_3":"San Julian","NL_NAME_3":null,"VARNAME_3":null,"TYPE_3":"Barangay","ENGTYPE_3":"Village","PROVINCE":"Tarlac","REGION":"Region III (Central Luzon)","id":"barangay-0306909026","name":"San Julian","barangayCode":"0306909026","population":null,"formattedPop":null,"densityCategory":"No data","vulnerabilityRating":"No data","healthRiskLevel":"No data","areaKm2":1.59586,"centerLat":15.716794,"centerLng":120.582354,"geometrySource":"all_barangay-2.csv detailed WKT","geometryMatchMethod":"unique_official_admin_names","boundaryPointCount":16},"geometry":{"type":"MultiPolygon","coordinates":[[[[120.584846,15.73639],[120.585861,15.73192],[120.587349,15.73031],[120.588997,15.72927],[120.590569,15.72842],[120.590286,15.72355],[120.589188,15.72209],[120.587822,15.7214],[120.586166,15.72084],[120.584129,15.72084],[120.578041,15.71967],[120.57592,15.71945],[120.573547,15.73005],[120.571297,15.73218],[120.571983,15.73456],[120.584846,15.73639]]]]}},{"type":"Feature","properties":{"ID_0":177,"ISO":"PHL","NAME_0":"Philippines","ID_1":3069,"NAME_1":"Tarlac","ID_2":306909,"NAME_2":"Moncada","ID_3":306909027,"NAME_3":"San Leon","NL_NAME_3":null,"VARNAME_3":null,"TYPE_3":"Barangay","ENGTYPE_3":"Village","PROVINCE":"Tarlac","REGION":"Region III (Central Luzon)","id":"barangay-0306909027","name":"San Leon","barangayCode":"0306909027","population":null,"formattedPop":null,"densityCategory":"No data","vulnerabilityRating":"No data","healthRiskLevel":"No data","areaKm2":2.087705,"centerLat":15.783514,"centerLng":120.585545,"geometrySource":"all_barangay-2.csv detailed WKT","geometryMatchMethod":"unique_official_admin_names","boundaryPointCount":9},"geometry":{"type":"MultiPolygon","coordinates":[[[[120.579758,15.78146],[120.58847,15.78183],[120.585892,15.78016],[120.585037,15.77849],[120.585052,15.77598],[120.584061,15.77729],[120.581467,15.77896],[120.58062,15.77979],[120.579758,15.78146]]]]}},{"type":"Feature","properties":{"ID_0":177,"ISO":"PHL","NAME_0":"Philippines","ID_1":3069,"NAME_1":"Tarlac","ID_2":306909,"NAME_2":"Moncada","ID_3":306909028,"NAME_3":"San Pedro","NL_NAME_3":null,"VARNAME_3":null,"TYPE_3":"Barangay","ENGTYPE_3":"Village","PROVINCE":"Tarlac","REGION":"Region III (Central Luzon)","id":"barangay-0306909028","name":"San Pedro","barangayCode":"0306909028","population":null,"formattedPop":null,"densityCategory":"No data","vulnerabilityRating":"No data","healthRiskLevel":"No data","areaKm2":0.401635,"centerLat":15.764207,"centerLng":120.592712,"geometrySource":"all_barangay-2.csv detailed WKT","geometryMatchMethod":"unique_official_admin_names","boundaryPointCount":12},"geometry":{"type":"MultiPolygon","coordinates":[[[[120.587639,15.77348],[120.588997,15.77358],[120.590393,15.77314],[120.592957,15.77315],[120.59433,15.77235],[120.594872,15.77114],[120.591553,15.76847],[120.590027,15.76744],[120.587059,15.76581],[120.583366,15.76718],[120.58696,15.7724],[120.587639,15.77348]]]]}},{"type":"Feature","properties":{"ID_0":177,"ISO":"PHL","NAME_0":"Philippines","ID_1":3069,"NAME_1":"Tarlac","ID_2":306909,"NAME_2":"Moncada","ID_3":306909029,"NAME_3":"San Roque","NL_NAME_3":null,"VARNAME_3":null,"TYPE_3":"Barangay","ENGTYPE_3":"Village","PROVINCE":"Tarlac","REGION":"Region III (Central Luzon)","id":"barangay-0306909029","name":"San Roque","barangayCode":"0306909029","population":null,"formattedPop":null,"densityCategory":"No data","vulnerabilityRating":"No data","healthRiskLevel":"No data","areaKm2":5.268182,"centerLat":15.789456,"centerLng":120.571629,"geometrySource":"all_barangay-2.csv detailed WKT","geometryMatchMethod":"unique_official_admin_names","boundaryPointCount":27},"geometry":{"type":"MultiPolygon","coordinates":[[[[120.580193,15.81334],[120.583237,15.80123],[120.583557,15.7996],[120.582512,15.79731],[120.581192,15.79695],[120.578712,15.79618],[120.576027,15.79575],[120.573669,15.79526],[120.571777,15.79492],[120.569206,15.79451],[120.567146,15.79467],[120.565063,15.79416],[120.563606,15.79377],[120.560516,15.79307],[120.558434,15.79261],[120.560364,15.79609],[120.56189,15.80014],[120.562851,15.80252],[120.563507,15.80455],[120.564651,15.80917],[120.568176,15.8097],[120.569153,15.80978],[120.571037,15.81012],[120.573593,15.81103],[120.575607,15.81168],[120.577553,15.81257],[120.580193,15.81334]]]]}},{"type":"Feature","properties":{"ID_0":177,"ISO":"PHL","NAME_0":"Philippines","ID_1":3069,"NAME_1":"Tarlac","ID_2":306909,"NAME_2":"Moncada","ID_3":306909030,"NAME_3":"Santa Lucia East","NL_NAME_3":null,"VARNAME_3":null,"TYPE_3":"Barangay","ENGTYPE_3":"Village","PROVINCE":"Tarlac","REGION":"Region III (Central Luzon)","id":"barangay-0306909030","name":"Santa Lucia East","barangayCode":"0306909030","population":null,"formattedPop":null,"densityCategory":"No data","vulnerabilityRating":"No data","healthRiskLevel":"No data","areaKm2":1.524013,"centerLat":15.704137,"centerLng":120.586466,"geometrySource":"all_barangay-2.csv detailed WKT","geometryMatchMethod":"unique_official_admin_names","boundaryPointCount":43},"geometry":{"type":"MultiPolygon","coordinates":[[[[120.590569,15.72842],[120.592758,15.72779],[120.594078,15.72827],[120.595177,15.72844],[120.596672,15.72969],[120.596642,15.72856],[120.596359,15.72744],[120.596092,15.72649],[120.596039,15.72546],[120.596222,15.72422],[120.596497,15.72346],[120.597008,15.72237],[120.597954,15.72145],[120.598618,15.7196],[120.599998,15.71617],[120.600967,15.71496],[120.600853,15.71407],[120.600479,15.71317],[120.599983,15.71202],[120.59964,15.71143],[120.599083,15.71071],[120.598602,15.71021],[120.596603,15.71006],[120.595581,15.71044],[120.594833,15.71075],[120.593727,15.71093],[120.592018,15.71057],[120.591553,15.71023],[120.589706,15.70863],[120.588821,15.70782],[120.586937,15.7067],[120.584938,15.70671],[120.582443,15.70663],[120.582222,15.70737],[120.581573,15.70818],[120.580177,15.70884],[120.578041,15.71967],[120.584129,15.72084],[120.586166,15.72084],[120.587822,15.7214],[120.589188,15.72209],[120.590286,15.72355],[120.590569,15.72842]]]]}},{"type":"Feature","properties":{"ID_0":177,"ISO":"PHL","NAME_0":"Philippines","ID_1":3069,"NAME_1":"Tarlac","ID_2":306909,"NAME_2":"Moncada","ID_3":306909031,"NAME_3":"Santa Lucia West","NL_NAME_3":null,"VARNAME_3":null,"TYPE_3":"Barangay","ENGTYPE_3":"Village","PROVINCE":"Tarlac","REGION":"Region III (Central Luzon)","id":"barangay-0306909031","name":"Santa Lucia West","barangayCode":"0306909031","population":null,"formattedPop":null,"densityCategory":"No data","vulnerabilityRating":"No data","healthRiskLevel":"No data","areaKm2":2.164075,"centerLat":15.702809,"centerLng":120.567484,"geometrySource":"all_barangay-2.csv detailed WKT","geometryMatchMethod":"unique_official_admin_names","boundaryPointCount":21},"geometry":{"type":"MultiPolygon","coordinates":[[[[120.578041,15.71967],[120.580177,15.70884],[120.577744,15.70873],[120.574738,15.70929],[120.57267,15.71043],[120.571281,15.71113],[120.569077,15.71198],[120.56694,15.71212],[120.566803,15.71081],[120.567108,15.70991],[120.567001,15.70845],[120.5662,15.70838],[120.564659,15.7094],[120.560226,15.71901],[120.566681,15.72377],[120.567932,15.7251],[120.569237,15.72751],[120.571297,15.73218],[120.573547,15.73005],[120.57592,15.71945],[120.578041,15.71967]]]]}},{"type":"Feature","properties":{"ID_0":177,"ISO":"PHL","NAME_0":"Philippines","ID_1":3069,"NAME_1":"Tarlac","ID_2":306909,"NAME_2":"Moncada","ID_3":306909032,"NAME_3":"Santa Maria","NL_NAME_3":null,"VARNAME_3":null,"TYPE_3":"Barangay","ENGTYPE_3":"Village","PROVINCE":"Tarlac","REGION":"Region III (Central Luzon)","id":"barangay-0306909032","name":"Santa Maria","barangayCode":"0306909032","population":null,"formattedPop":null,"densityCategory":"No data","vulnerabilityRating":"No data","healthRiskLevel":"No data","areaKm2":2.600538,"centerLat":15.717976,"centerLng":120.592145,"geometrySource":"all_barangay-2.csv detailed WKT","geometryMatchMethod":"unique_official_admin_names","boundaryPointCount":24},"geometry":{"type":"MultiPolygon","coordinates":[[[[120.594093,15.74693],[120.593697,15.74132],[120.593536,15.74065],[120.592934,15.73806],[120.59259,15.73525],[120.59288,15.7343],[120.593613,15.73288],[120.595032,15.73205],[120.595947,15.73199],[120.596237,15.73109],[120.596672,15.72969],[120.595177,15.72844],[120.594078,15.72827],[120.592758,15.72779],[120.590569,15.72842],[120.588997,15.72927],[120.587349,15.73031],[120.585861,15.73192],[120.584846,15.73639],[120.583893,15.73998],[120.58239,15.74475],[120.584488,15.74488],[120.585457,15.7455],[120.594093,15.74693]]]]}},{"type":"Feature","properties":{"ID_0":177,"ISO":"PHL","NAME_0":"Philippines","ID_1":3069,"NAME_1":"Tarlac","ID_2":306909,"NAME_2":"Moncada","ID_3":306909033,"NAME_3":"Santa Monica","NL_NAME_3":null,"VARNAME_3":null,"TYPE_3":"Barangay","ENGTYPE_3":"Village","PROVINCE":"Tarlac","REGION":"Region III (Central Luzon)","id":"barangay-0306909033","name":"Santa Monica","barangayCode":"0306909033","population":null,"formattedPop":null,"densityCategory":"No data","vulnerabilityRating":"No data","healthRiskLevel":"No data","areaKm2":1.278933,"centerLat":15.805253,"centerLng":120.573638,"geometrySource":"all_barangay-2.csv detailed WKT","geometryMatchMethod":"unique_official_admin_names","boundaryPointCount":12},"geometry":{"type":"MultiPolygon","coordinates":[[[[120.573128,15.83393],[120.580193,15.81334],[120.577553,15.81257],[120.575607,15.81168],[120.573593,15.81103],[120.571037,15.81012],[120.569153,15.80978],[120.568176,15.8097],[120.564651,15.80917],[120.569283,15.81758],[120.573029,15.83228],[120.573128,15.83393]]]]}},{"type":"Feature","properties":{"ID_0":177,"ISO":"PHL","NAME_0":"Philippines","ID_1":3069,"NAME_1":"Tarlac","ID_2":306909,"NAME_2":"Moncada","ID_3":306909034,"NAME_3":"Tubectubang","NL_NAME_3":null,"VARNAME_3":null,"TYPE_3":"Barangay","ENGTYPE_3":"Village","PROVINCE":"Tarlac","REGION":"Region III (Central Luzon)","id":"barangay-0306909034","name":"Tubectubang","barangayCode":"0306909034","population":null,"formattedPop":null,"densityCategory":"No data","vulnerabilityRating":"No data","healthRiskLevel":"No data","areaKm2":3.03499,"centerLat":15.759747,"centerLng":120.563887,"geometrySource":"all_barangay-2.csv detailed WKT","geometryMatchMethod":"unique_official_admin_names","boundaryPointCount":21},"geometry":{"type":"MultiPolygon","coordinates":[[[[120.552452,15.78136],[120.55941,15.78146],[120.562103,15.78197],[120.56543,15.78224],[120.568123,15.78208],[120.57016,15.77094],[120.570236,15.76804],[120.566093,15.76626],[120.560516,15.7636],[120.552803,15.76119],[120.545227,15.75897],[120.538307,15.75697],[120.537033,15.76422],[120.539749,15.76618],[120.543411,15.76807],[120.546227,15.76958],[120.547928,15.77071],[120.550034,15.77298],[120.551102,15.77557],[120.551582,15.77783],[120.552452,15.78136]]]]}},{"type":"Feature","properties":{"ID_0":177,"ISO":"PHL","NAME_0":"Philippines","ID_1":3069,"NAME_1":"Tarlac","ID_2":306909,"NAME_2":"Moncada","ID_3":306909035,"NAME_3":"Tolega Norte","NL_NAME_3":null,"VARNAME_3":null,"TYPE_3":"Barangay","ENGTYPE_3":"Village","PROVINCE":"Tarlac","REGION":"Region III (Central Luzon)","id":"barangay-0306909035","name":"Tolega Norte","barangayCode":"0306909035","population":null,"formattedPop":null,"densityCategory":"No data","vulnerabilityRating":"No data","healthRiskLevel":"No data","areaKm2":1.458332,"centerLat":15.745974,"centerLng":120.595635,"geometrySource":"all_barangay-2.csv detailed WKT","geometryMatchMethod":"unique_official_admin_names","boundaryPointCount":17},"geometry":{"type":"MultiPolygon","coordinates":[[[[120.583282,15.75729],[120.584824,15.75813],[120.585716,15.75803],[120.587219,15.75782],[120.590271,15.75703],[120.59285,15.75627],[120.593964,15.75609],[120.598747,15.75655],[120.601509,15.75673],[120.601631,15.75358],[120.601646,15.74887],[120.594093,15.74693],[120.585457,15.7455],[120.584663,15.74949],[120.584061,15.75173],[120.583649,15.7542],[120.583282,15.75729]]]]}},{"type":"Feature","properties":{"ID_0":177,"ISO":"PHL","NAME_0":"Philippines","ID_1":3069,"NAME_1":"Tarlac","ID_2":306909,"NAME_2":"Moncada","ID_3":306909036,"NAME_3":"Tolega Sur","NL_NAME_3":null,"VARNAME_3":null,"TYPE_3":"Barangay","ENGTYPE_3":"Village","PROVINCE":"Tarlac","REGION":"Region III (Central Luzon)","id":"barangay-0306909036","name":"Tolega Sur","barangayCode":"0306909036","population":null,"formattedPop":null,"densityCategory":"No data","vulnerabilityRating":"No data","healthRiskLevel":"No data","areaKm2":1.729699,"centerLat":15.734706,"centerLng":120.593594,"geometrySource":"all_barangay-2.csv detailed WKT","geometryMatchMethod":"unique_official_admin_names","boundaryPointCount":18},"geometry":{"type":"MultiPolygon","coordinates":[[[[120.594093,15.74693],[120.601646,15.74887],[120.600548,15.74503],[120.600327,15.74382],[120.599663,15.74206],[120.598862,15.74059],[120.597572,15.73799],[120.596573,15.73591],[120.595901,15.73386],[120.595947,15.73199],[120.595032,15.73205],[120.593613,15.73288],[120.59288,15.7343],[120.59259,15.73525],[120.592934,15.73806],[120.593536,15.74065],[120.593697,15.74132],[120.594093,15.74693]]]]}},{"type":"Feature","properties":{"ID_0":177,"ISO":"PHL","NAME_0":"Philippines","ID_1":3069,"NAME_1":"Tarlac","ID_2":306909,"NAME_2":"Moncada","ID_3":306909038,"NAME_3":"Villa","NL_NAME_3":null,"VARNAME_3":null,"TYPE_3":"Barangay","ENGTYPE_3":"Village","PROVINCE":"Tarlac","REGION":"Region III (Central Luzon)","id":"barangay-0306909038","name":"Villa","barangayCode":"0306909038","population":null,"formattedPop":null,"densityCategory":"No data","vulnerabilityRating":"No data","healthRiskLevel":"No data","areaKm2":0.901522,"centerLat":15.766496,"centerLng":120.576874,"geometrySource":"all_barangay-2.csv detailed WKT","geometryMatchMethod":"unique_official_admin_names","boundaryPointCount":17},"geometry":{"type":"MultiPolygon","coordinates":[[[[120.576332,15.78792],[120.579758,15.78146],[120.578346,15.78036],[120.57769,15.77948],[120.576874,15.77798],[120.576309,15.77634],[120.575783,15.77405],[120.575539,15.77286],[120.574387,15.77236],[120.573593,15.77197],[120.57016,15.77094],[120.568123,15.78208],[120.56852,15.78349],[120.56945,15.78461],[120.57061,15.78495],[120.57386,15.78646],[120.576332,15.78792]]]]}}]}
