{"type":"FeatureCollection","features":[{"type":"Feature","properties":{"ID_0":177,"ISO":"PHL","NAME_0":"Philippines","ID_1":2015,"NAME_1":"Cagayan","ID_2":201523,"NAME_2":"Santa Ana","ID_3":201523001,"NAME_3":"Casagan","NL_NAME_3":null,"VARNAME_3":null,"TYPE_3":"Barangay","ENGTYPE_3":"Village","PROVINCE":"Cagayan","REGION":"Region II (Cagayan Valley)","id":"barangay-0201523001","name":"Casagan","barangayCode":"0201523001","population":null,"formattedPop":null,"densityCategory":"No data","vulnerabilityRating":"No data","healthRiskLevel":"No data","areaKm2":12.524022,"centerLat":18.479405,"centerLng":122.18556,"geometrySource":"all_barangay-2.csv detailed WKT","geometryMatchMethod":"unique_official_admin_names","boundaryPointCount":210},"geometry":{"type":"MultiPolygon","coordinates":[[[[122.191353,18.51222],[122.191391,18.51222],[122.191948,18.512779],[122.192497,18.512779],[122.19278,18.512501],[122.193336,18.512501],[122.193611,18.512779],[122.193611,18.51306],[122.193336,18.51333],[122.193336,18.513611],[122.192627,18.51432],[122.192223,18.514721],[122.192497,18.514999],[122.192497,18.51528],[122.19278,18.51556],[122.19278,18.51639],[122.193611,18.51722],[122.193893,18.516951],[122.195557,18.516951],[122.195557,18.51667],[122.195831,18.51639],[122.195831,18.516109],[122.196114,18.515829],[122.196114,18.514999],[122.195831,18.514721],[122.195831,18.51417],[122.196114,18.513889],[122.196114,18.513611],[122.195831,18.51333],[122.195267,18.51333],[122.195267,18.51194],[122.195549,18.511669],[122.195831,18.511391],[122.195923,18.511391],[122.196114,18.511391],[122.196617,18.51157],[122.197151,18.511641],[122.197563,18.511629],[122.197838,18.5116],[122.198334,18.511789],[122.198883,18.511971],[122.199043,18.51239],[122.199226,18.512791],[122.199493,18.5131],[122.199722,18.51333],[122.199722,18.513611],[122.200279,18.51417],[122.200279,18.514441],[122.200546,18.514721],[122.200546,18.514999],[122.200844,18.51528],[122.202217,18.51528],[122.202217,18.514999],[122.202499,18.514721],[122.203331,18.514721],[122.203613,18.514441],[122.203888,18.514441],[122.20417,18.514721],[122.20472,18.514721],[122.205063,18.515129],[122.205551,18.515381],[122.206253,18.51512],[122.206833,18.51502],[122.207314,18.51507],[122.20771,18.51523],[122.208107,18.51536],[122.208504,18.51557],[122.208893,18.515779],[122.209282,18.51582],[122.209633,18.515739],[122.209938,18.515551],[122.210228,18.51536],[122.210548,18.515289],[122.210892,18.515301],[122.211243,18.515409],[122.211601,18.515579],[122.21196,18.515829],[122.212349,18.516109],[122.212761,18.51642],[122.213112,18.5168],[122.213463,18.517151],[122.213593,18.517599],[122.213882,18.51795],[122.214439,18.51815],[122.214523,18.518591],[122.214539,18.51895],[122.214478,18.51932],[122.214272,18.519779],[122.214394,18.520269],[122.214951,18.520571],[122.215408,18.520781],[122.215828,18.52083],[122.216248,18.52083],[122.216682,18.52083],[122.217117,18.520849],[122.21756,18.520941],[122.217987,18.521139],[122.218529,18.521391],[122.21917,18.521641],[122.219582,18.52187],[122.219757,18.52206],[122.219994,18.522221],[122.220329,18.52235],[122.220749,18.52244],[122.221207,18.52244],[122.221642,18.522341],[122.222069,18.522249],[122.222511,18.522249],[122.222977,18.522329],[122.223473,18.522369],[122.22393,18.522341],[122.224297,18.522261],[122.224609,18.52223],[122.224907,18.522221],[122.22522,18.522039],[122.225563,18.52183],[122.22567,18.52166],[122.225723,18.521589],[122.225906,18.52133],[122.226143,18.52109],[122.226379,18.52087],[122.226662,18.5207],[122.226959,18.520571],[122.22728,18.52047],[122.2276,18.52033],[122.228012,18.52022],[122.228447,18.52002],[122.228928,18.51981],[122.229408,18.519621],[122.229843,18.51943],[122.230247,18.519251],[122.230667,18.51918],[122.23111,18.519171],[122.231537,18.519159],[122.231979,18.51914],[122.232399,18.519039],[122.232773,18.518841],[122.233147,18.5186],[122.233521,18.518339],[122.233917,18.518049],[122.23436,18.5177],[122.23481,18.517269],[122.235298,18.51679],[122.235802,18.51626],[122.236267,18.51568],[122.236748,18.515129],[122.237244,18.514669],[122.237663,18.514191],[122.238037,18.513729],[122.238358,18.5133],[122.238602,18.512899],[122.238777,18.51252],[122.238937,18.51215],[122.239159,18.51178],[122.239372,18.511351],[122.239563,18.51086],[122.239754,18.51038],[122.239952,18.50992],[122.240112,18.509501],[122.240257,18.50915],[122.240379,18.50882],[122.240547,18.50856],[122.240707,18.508301],[122.240807,18.508011],[122.240883,18.50771],[122.24102,18.507429],[122.241119,18.507139],[122.241226,18.50684],[122.241364,18.50655],[122.241417,18.506241],[122.241547,18.505951],[122.241661,18.505659],[122.24176,18.50536],[122.241898,18.505091],[122.241982,18.504789],[122.242142,18.50448],[122.242264,18.504089],[122.242416,18.50366],[122.242538,18.503201],[122.242722,18.50281],[122.242844,18.502411],[122.242981,18.502081],[122.24305,18.501659],[122.243118,18.501169],[122.24334,18.50065],[122.243584,18.500111],[122.243782,18.499571],[122.243973,18.4991],[122.244141,18.49869],[122.244247,18.498289],[122.244423,18.497931],[122.244553,18.49754],[122.244728,18.49715],[122.244904,18.49675],[122.24501,18.496309],[122.24514,18.49588],[122.245308,18.49548],[122.245422,18.49523],[122.243713,18.4944],[122.22081,18.48354],[122.210793,18.478331],[122.203796,18.474199],[122.19294,18.469299],[122.190353,18.46813],[122.174889,18.46114],[122.171387,18.46443],[122.164207,18.468479],[122.177994,18.49118],[122.181267,18.496651],[122.191353,18.51222]]]]}},{"type":"Feature","properties":{"ID_0":177,"ISO":"PHL","NAME_0":"Philippines","ID_1":2015,"NAME_1":"Cagayan","ID_2":201523,"NAME_2":"Santa Ana","ID_3":201523002,"NAME_3":"Casambalangan","NL_NAME_3":null,"VARNAME_3":null,"TYPE_3":"Barangay","ENGTYPE_3":"Village","PROVINCE":"Cagayan","REGION":"Region II (Cagayan Valley)","id":"barangay-0201523002","name":"Casambalangan","barangayCode":"0201523002","population":null,"formattedPop":null,"densityCategory":"No data","vulnerabilityRating":"No data","healthRiskLevel":"No data","areaKm2":19.652235,"centerLat":18.358906,"centerLng":122.14815,"geometrySource":"all_barangay-2.csv detailed WKT","geometryMatchMethod":"unique_official_admin_names","boundaryPointCount":109},"geometry":{"type":"MultiPolygon","coordinates":[[[[122.117477,18.37447],[122.117706,18.374491],[122.118027,18.37466],[122.11837,18.37479],[122.118698,18.375],[122.119041,18.37525],[122.119423,18.37549],[122.119743,18.375759],[122.120003,18.375959],[122.120049,18.376011],[122.120392,18.37624],[122.120712,18.37652],[122.121078,18.376789],[122.121452,18.377081],[122.121857,18.377279],[122.122253,18.377501],[122.122643,18.377701],[122.123093,18.37781],[122.12339,18.37792],[122.12355,18.377979],[122.124046,18.37817],[122.124519,18.37851],[122.125038,18.378851],[122.125343,18.379061],[122.126663,18.38028],[122.126953,18.38028],[122.12722,18.38056],[122.127502,18.38056],[122.128891,18.381941],[122.129448,18.38139],[122.129738,18.381399],[122.129753,18.38135],[122.130493,18.381651],[122.131851,18.38135],[122.132629,18.379749],[122.133461,18.379181],[122.134857,18.37911],[122.136398,18.37936],[122.138069,18.379721],[122.139542,18.38007],[122.14035,18.38003],[122.141617,18.379379],[122.143059,18.379271],[122.144287,18.379141],[122.145187,18.378321],[122.145218,18.3771],[122.145393,18.37541],[122.14595,18.37438],[122.146751,18.374189],[122.148857,18.37447],[122.150284,18.37476],[122.152237,18.37468],[122.15387,18.37389],[122.154953,18.372931],[122.15593,18.371241],[122.156273,18.37039],[122.15641,18.37026],[122.15715,18.36989],[122.157677,18.369591],[122.158203,18.36865],[122.158249,18.36676],[122.158371,18.365561],[122.158577,18.36503],[122.158897,18.36478],[122.159286,18.364759],[122.159668,18.364799],[122.160378,18.364981],[122.161247,18.365089],[122.162712,18.364771],[122.163757,18.36426],[122.164642,18.36389],[122.165573,18.363871],[122.166679,18.364019],[122.167679,18.364269],[122.169456,18.364811],[122.170319,18.364349],[122.170723,18.36392],[122.171387,18.36335],[122.172256,18.36257],[122.173347,18.3622],[122.175087,18.36208],[122.175087,18.362009],[122.175308,18.36149],[122.175453,18.36035],[122.17617,18.359171],[122.177368,18.358549],[122.178101,18.35737],[122.178421,18.355921],[122.179153,18.354799],[122.180038,18.352961],[122.179443,18.35063],[122.179169,18.349119],[122.179314,18.348209],[122.179138,18.34704],[122.179199,18.34498],[122.179428,18.34362],[122.179733,18.342239],[122.180023,18.34099],[122.180298,18.33996],[122.17968,18.338221],[122.179527,18.336889],[122.179947,18.33592],[122.18058,18.33411],[122.180428,18.3333],[122.180962,18.33226],[122.181686,18.330641],[122.18055,18.326059],[122.115997,18.373381],[122.117477,18.37447]]]]}},{"type":"Feature","properties":{"ID_0":177,"ISO":"PHL","NAME_0":"Philippines","ID_1":2015,"NAME_1":"Cagayan","ID_2":201523,"NAME_2":"Santa Ana","ID_3":201523003,"NAME_3":"Centro","NL_NAME_3":null,"VARNAME_3":null,"TYPE_3":"Barangay","ENGTYPE_3":"Village","PROVINCE":"Cagayan","REGION":"Region II (Cagayan Valley)","id":"barangay-0201523003","name":"Centro","barangayCode":"0201523003","population":null,"formattedPop":null,"densityCategory":"No data","vulnerabilityRating":"No data","healthRiskLevel":"No data","areaKm2":3.078082,"centerLat":18.45246,"centerLng":122.142912,"geometrySource":"all_barangay-2.csv detailed WKT","geometryMatchMethod":"unique_official_admin_names","boundaryPointCount":73},"geometry":{"type":"MultiPolygon","coordinates":[[[[122.154037,18.462429],[122.15078,18.44297],[122.147247,18.44249],[122.145927,18.443741],[122.136429,18.44346],[122.132683,18.441561],[122.130157,18.44179],[122.13047,18.442129],[122.131119,18.442551],[122.131653,18.443069],[122.131683,18.443741],[122.131813,18.44429],[122.132103,18.44467],[122.132393,18.44499],[122.132637,18.445299],[122.132874,18.445641],[122.133163,18.44602],[122.133507,18.446409],[122.133812,18.44685],[122.134064,18.44729],[122.134354,18.447821],[122.13459,18.44845],[122.134819,18.44898],[122.135063,18.449409],[122.135239,18.449829],[122.135353,18.45031],[122.135567,18.450741],[122.135834,18.451111],[122.13607,18.45142],[122.13623,18.45175],[122.136452,18.45207],[122.136726,18.452419],[122.136993,18.45282],[122.137238,18.45323],[122.137497,18.453609],[122.137733,18.45401],[122.137917,18.454491],[122.138092,18.455],[122.138344,18.455481],[122.138603,18.455959],[122.13884,18.45645],[122.138977,18.456961],[122.139229,18.457399],[122.139458,18.457769],[122.139481,18.457809],[122.139717,18.458059],[122.139717,18.459169],[122.139999,18.45944],[122.139999,18.459721],[122.140266,18.459999],[122.140266,18.461109],[122.140556,18.46139],[122.140556,18.46167],[122.140831,18.461941],[122.140831,18.46278],[122.141113,18.463051],[122.141113,18.463329],[122.141388,18.46361],[122.141388,18.46393],[122.142242,18.463631],[122.143372,18.463131],[122.143959,18.46233],[122.144463,18.46125],[122.145401,18.461121],[122.146317,18.461281],[122.147346,18.461439],[122.14782,18.461451],[122.150192,18.46048],[122.150948,18.46035],[122.151863,18.46072],[122.152672,18.461679],[122.153503,18.462061],[122.154037,18.462429]]]]}},{"type":"Feature","properties":{"ID_0":177,"ISO":"PHL","NAME_0":"Philippines","ID_1":2015,"NAME_1":"Cagayan","ID_2":201523,"NAME_2":"Santa Ana","ID_3":201523004,"NAME_3":"Diora-Zinungan","NL_NAME_3":null,"VARNAME_3":null,"TYPE_3":"Barangay","ENGTYPE_3":"Village","PROVINCE":"Cagayan","REGION":"Region II (Cagayan Valley)","id":"barangay-0201523004","name":"Diora-Zinungan","barangayCode":"0201523004","population":null,"formattedPop":null,"densityCategory":"No data","vulnerabilityRating":"No data","healthRiskLevel":"No data","areaKm2":9.783454,"centerLat":18.427399,"centerLng":122.147205,"geometrySource":"all_barangay-2.csv detailed WKT","geometryMatchMethod":"unique_official_admin_names","boundaryPointCount":100},"geometry":{"type":"MultiPolygon","coordinates":[[[[122.130157,18.44179],[122.132683,18.441561],[122.136429,18.44346],[122.145927,18.443741],[122.147247,18.44249],[122.15078,18.44297],[122.168312,18.432871],[122.168388,18.432831],[122.180183,18.425541],[122.166786,18.4137],[122.165779,18.414379],[122.165009,18.414789],[122.163071,18.41567],[122.161377,18.416229],[122.159439,18.416531],[122.158234,18.416349],[122.157158,18.41589],[122.155907,18.4156],[122.154778,18.41571],[122.153107,18.416861],[122.151314,18.41778],[122.147873,18.41815],[122.145767,18.418131],[122.144669,18.4181],[122.144096,18.41811],[122.142776,18.41835],[122.140572,18.41906],[122.139557,18.41968],[122.138573,18.42041],[122.138222,18.420731],[122.137733,18.42136],[122.136772,18.42201],[122.13562,18.42276],[122.135162,18.42366],[122.134727,18.424],[122.134171,18.423901],[122.133392,18.423941],[122.132767,18.42417],[122.132339,18.42407],[122.132088,18.423929],[122.131737,18.423929],[122.131477,18.42417],[122.130333,18.42448],[122.129311,18.423849],[122.128777,18.42345],[122.126671,18.421471],[122.126587,18.420071],[122.126389,18.42028],[122.126389,18.42111],[122.125832,18.421671],[122.125267,18.421671],[122.125,18.42194],[122.124718,18.422291],[122.124527,18.422831],[122.124481,18.423429],[122.124512,18.42404],[122.124657,18.42462],[122.124771,18.4252],[122.124947,18.425739],[122.124992,18.42631],[122.125008,18.426861],[122.125061,18.427401],[122.125221,18.427891],[122.125267,18.428341],[122.125282,18.42877],[122.12532,18.42915],[122.125458,18.429461],[122.12561,18.42976],[122.125832,18.43004],[122.126083,18.43037],[122.126106,18.430559],[122.126389,18.43083],[122.126389,18.43111],[122.126953,18.431669],[122.126953,18.43194],[122.127167,18.43218],[122.12722,18.43222],[122.12722,18.433331],[122.127502,18.433611],[122.127502,18.433889],[122.12722,18.43417],[122.12722,18.434441],[122.127083,18.434589],[122.126953,18.434719],[122.126953,18.4375],[122.12722,18.43778],[122.12722,18.438061],[122.128052,18.43889],[122.128151,18.43889],[122.128326,18.43889],[122.128609,18.439171],[122.128754,18.439171],[122.129173,18.439171],[122.129448,18.43944],[122.129608,18.439779],[122.1297,18.440109],[122.129723,18.440531],[122.129784,18.441059],[122.130013,18.44162],[122.130157,18.44179]]]]}},{"type":"Feature","properties":{"ID_0":177,"ISO":"PHL","NAME_0":"Philippines","ID_1":2015,"NAME_1":"Cagayan","ID_2":201523,"NAME_2":"Santa Ana","ID_3":201523005,"NAME_3":"Dungeg","NL_NAME_3":null,"VARNAME_3":null,"TYPE_3":"Barangay","ENGTYPE_3":"Village","PROVINCE":"Cagayan","REGION":"Region II (Cagayan Valley)","id":"barangay-0201523005","name":"Dungeg","barangayCode":"0201523005","population":null,"formattedPop":null,"densityCategory":"No data","vulnerabilityRating":"No data","healthRiskLevel":"No data","areaKm2":17.224464,"centerLat":18.445425,"centerLng":122.218456,"geometrySource":"all_barangay-2.csv detailed WKT","geometryMatchMethod":"unique_official_admin_names","boundaryPointCount":167},"geometry":{"type":"MultiPolygon","coordinates":[[[[122.177139,18.448629],[122.177849,18.44903],[122.195923,18.45878],[122.240891,18.47953],[122.241707,18.480671],[122.242828,18.48201],[122.24324,18.482981],[122.243599,18.483999],[122.244186,18.484909],[122.244171,18.48431],[122.244133,18.483641],[122.244049,18.48295],[122.244003,18.4823],[122.24366,18.48173],[122.243179,18.481211],[122.242706,18.48068],[122.242348,18.48011],[122.242058,18.479549],[122.241707,18.47908],[122.241348,18.4786],[122.24099,18.4781],[122.240837,18.47751],[122.240761,18.47691],[122.240578,18.476351],[122.240448,18.47574],[122.240593,18.475071],[122.240829,18.474461],[122.241058,18.473881],[122.241188,18.47331],[122.241371,18.472799],[122.241547,18.472321],[122.241814,18.471889],[122.242073,18.47143],[122.242348,18.470961],[122.242599,18.47043],[122.242821,18.46987],[122.243073,18.46932],[122.243393,18.468821],[122.243736,18.46838],[122.244118,18.467951],[122.244453,18.467489],[122.244743,18.46697],[122.245033,18.466459],[122.245331,18.466021],[122.245644,18.46571],[122.245979,18.4655],[122.246246,18.4653],[122.246513,18.46509],[122.246689,18.46479],[122.246857,18.46451],[122.246979,18.46422],[122.247147,18.463961],[122.247307,18.46369],[122.24749,18.46343],[122.247673,18.46316],[122.247864,18.46287],[122.248154,18.462589],[122.248497,18.462299],[122.248863,18.461929],[122.249153,18.46147],[122.249397,18.46097],[122.249611,18.460501],[122.249924,18.46019],[122.250214,18.45986],[122.250267,18.4597],[122.250366,18.459471],[122.250221,18.459061],[122.249931,18.458651],[122.249641,18.458241],[122.249496,18.45775],[122.249634,18.457199],[122.249512,18.45676],[122.249283,18.45632],[122.249092,18.45578],[122.249207,18.455111],[122.249367,18.454399],[122.249367,18.45368],[122.249229,18.45302],[122.249077,18.45241],[122.248917,18.45191],[122.248901,18.45146],[122.249031,18.451059],[122.249138,18.45067],[122.249207,18.4503],[122.24929,18.450081],[122.249321,18.44998],[122.249428,18.449671],[122.249519,18.449369],[122.249733,18.44911],[122.249977,18.44886],[122.250259,18.448601],[122.250557,18.448311],[122.250717,18.44817],[122.250877,18.44803],[122.251137,18.44776],[122.251259,18.44763],[122.251381,18.44751],[122.251633,18.447321],[122.251953,18.44721],[122.252274,18.44709],[122.252632,18.44681],[122.252983,18.44647],[122.253258,18.446421],[122.253517,18.4466],[122.25383,18.44693],[122.254349,18.447269],[122.254997,18.4475],[122.255493,18.44751],[122.255913,18.447399],[122.256264,18.44721],[122.256554,18.44697],[122.256737,18.44664],[122.256943,18.44631],[122.257103,18.445881],[122.257294,18.445499],[122.257507,18.445221],[122.257721,18.44496],[122.257896,18.44467],[122.258163,18.444361],[122.258522,18.444019],[122.258797,18.44363],[122.258728,18.443371],[122.192551,18.42905],[122.191719,18.428829],[122.191704,18.42956],[122.190987,18.430149],[122.189713,18.43083],[122.188629,18.43082],[122.187424,18.430771],[122.18634,18.43062],[122.185272,18.430161],[122.184021,18.429649],[122.18306,18.429411],[122.18219,18.42968],[122.182404,18.43037],[122.182823,18.431511],[122.183533,18.43252],[122.18425,18.433399],[122.18486,18.43399],[122.185471,18.43462],[122.186241,18.43565],[122.18676,18.43643],[122.187141,18.43745],[122.187637,18.438471],[122.187943,18.43972],[122.188026,18.440769],[122.188141,18.44199],[122.187363,18.44248],[122.186363,18.442301],[122.185158,18.442249],[122.184219,18.442539],[122.183441,18.442921],[122.182777,18.44338],[122.182007,18.443741],[122.181,18.44352],[122.179916,18.44286],[122.178947,18.44252],[122.177711,18.44277],[122.176712,18.443319],[122.175972,18.443939],[122.175858,18.444611],[122.175987,18.44557],[122.176308,18.446211],[122.176697,18.44692],[122.177147,18.447519],[122.177383,18.44812],[122.177139,18.448629]]]]}},{"type":"Feature","properties":{"ID_0":177,"ISO":"PHL","NAME_0":"Philippines","ID_1":2015,"NAME_1":"Cagayan","ID_2":201523,"NAME_2":"Santa Ana","ID_3":201523006,"NAME_3":"Kapanikian","NL_NAME_3":null,"VARNAME_3":null,"TYPE_3":"Barangay","ENGTYPE_3":"Village","PROVINCE":"Cagayan","REGION":"Region II (Cagayan Valley)","id":"barangay-0201523006","name":"Kapanikian","barangayCode":"0201523006","population":null,"formattedPop":null,"densityCategory":"No data","vulnerabilityRating":"No data","healthRiskLevel":"No data","areaKm2":4.482057,"centerLat":18.432419,"centerLng":122.180321,"geometrySource":"all_barangay-2.csv detailed WKT","geometryMatchMethod":"unique_official_admin_names","boundaryPointCount":67},"geometry":{"type":"MultiPolygon","coordinates":[[[[122.170311,18.458389],[122.170593,18.457899],[122.170822,18.45722],[122.171333,18.456261],[122.17157,18.455629],[122.171593,18.45504],[122.171623,18.45434],[122.171638,18.45381],[122.171623,18.45295],[122.171791,18.45212],[122.171806,18.451559],[122.172073,18.4505],[122.172211,18.449841],[122.172699,18.449141],[122.173737,18.448931],[122.174667,18.44882],[122.175728,18.448999],[122.176491,18.449051],[122.177139,18.448629],[122.177383,18.44812],[122.177147,18.447519],[122.176697,18.44692],[122.176308,18.446211],[122.175987,18.44557],[122.175858,18.444611],[122.175972,18.443939],[122.176712,18.443319],[122.177711,18.44277],[122.178947,18.44252],[122.179916,18.44286],[122.181,18.44352],[122.182007,18.443741],[122.182777,18.44338],[122.183441,18.442921],[122.184219,18.442539],[122.185158,18.442249],[122.186363,18.442301],[122.187363,18.44248],[122.188141,18.44199],[122.188026,18.440769],[122.187943,18.43972],[122.187637,18.438471],[122.187141,18.43745],[122.18676,18.43643],[122.186241,18.43565],[122.185471,18.43462],[122.18486,18.43399],[122.18425,18.433399],[122.183533,18.43252],[122.182823,18.431511],[122.182404,18.43037],[122.18219,18.42968],[122.18306,18.429411],[122.184021,18.429649],[122.185272,18.430161],[122.18634,18.43062],[122.187424,18.430771],[122.188629,18.43082],[122.189713,18.43083],[122.190987,18.430149],[122.191704,18.42956],[122.191719,18.428829],[122.191368,18.428591],[122.180183,18.425541],[122.168388,18.432831],[122.170242,18.4576],[122.170311,18.458389]]]]}},{"type":"Feature","properties":{"ID_0":177,"ISO":"PHL","NAME_0":"Philippines","ID_1":2015,"NAME_1":"Cagayan","ID_2":201523,"NAME_2":"Santa Ana","ID_3":201523007,"NAME_3":"Marede","NL_NAME_3":null,"VARNAME_3":null,"TYPE_3":"Barangay","ENGTYPE_3":"Village","PROVINCE":"Cagayan","REGION":"Region II (Cagayan Valley)","id":"barangay-0201523007","name":"Marede","barangayCode":"0201523007","population":null,"formattedPop":null,"densityCategory":"No data","vulnerabilityRating":"No data","healthRiskLevel":"No data","areaKm2":16.827381,"centerLat":18.465921,"centerLng":122.211718,"geometrySource":"all_barangay-2.csv detailed WKT","geometryMatchMethod":"unique_official_admin_names","boundaryPointCount":63},"geometry":{"type":"MultiPolygon","coordinates":[[[[122.245422,18.49523],[122.245491,18.495081],[122.245621,18.49464],[122.245773,18.49424],[122.245827,18.49383],[122.245827,18.493441],[122.245827,18.49308],[122.24585,18.492701],[122.245934,18.492279],[122.246094,18.49181],[122.246223,18.49128],[122.24646,18.490761],[122.246483,18.49036],[122.246407,18.489941],[122.246353,18.489429],[122.246338,18.48875],[122.246307,18.488199],[122.246223,18.48761],[122.246132,18.487249],[122.246094,18.48699],[122.245941,18.48678],[122.245453,18.486481],[122.245049,18.486219],[122.244751,18.48597],[122.244507,18.48571],[122.244324,18.485371],[122.244217,18.484961],[122.244186,18.484909],[122.243599,18.483999],[122.24324,18.482981],[122.242828,18.48201],[122.241707,18.480671],[122.240891,18.47953],[122.195923,18.45878],[122.177849,18.44903],[122.177139,18.448629],[122.176491,18.449051],[122.175728,18.448999],[122.174667,18.44882],[122.173737,18.448931],[122.172699,18.449141],[122.172211,18.449841],[122.172073,18.4505],[122.171806,18.451559],[122.171791,18.45212],[122.171623,18.45295],[122.171638,18.45381],[122.171623,18.45434],[122.171593,18.45504],[122.17157,18.455629],[122.171333,18.456261],[122.170822,18.45722],[122.170593,18.457899],[122.170311,18.458389],[122.170677,18.45867],[122.174889,18.46114],[122.190353,18.46813],[122.19294,18.469299],[122.203796,18.474199],[122.210793,18.478331],[122.22081,18.48354],[122.243713,18.4944],[122.245422,18.49523]]]]}},{"type":"Feature","properties":{"ID_0":177,"ISO":"PHL","NAME_0":"Philippines","ID_1":2015,"NAME_1":"Cagayan","ID_2":201523,"NAME_2":"Santa Ana","ID_3":201523008,"NAME_3":"Palawig","NL_NAME_3":null,"VARNAME_3":null,"TYPE_3":"Barangay","ENGTYPE_3":"Village","PROVINCE":"Cagayan","REGION":"Region II (Cagayan Valley)","id":"barangay-0201523008","name":"Palawig","barangayCode":"0201523008","population":null,"formattedPop":null,"densityCategory":"No data","vulnerabilityRating":"No data","healthRiskLevel":"No data","areaKm2":2.053445,"centerLat":18.469512,"centerLng":122.150254,"geometrySource":"all_barangay-2.csv detailed WKT","geometryMatchMethod":"unique_official_admin_names","boundaryPointCount":66},"geometry":{"type":"MultiPolygon","coordinates":[[[[122.147499,18.47961],[122.157623,18.47526],[122.156303,18.472731],[122.161072,18.470169],[122.156898,18.462561],[122.156677,18.462191],[122.155731,18.46217],[122.154892,18.46216],[122.154037,18.462429],[122.153503,18.462061],[122.152672,18.461679],[122.151863,18.46072],[122.150948,18.46035],[122.150192,18.46048],[122.14782,18.461451],[122.147346,18.461439],[122.146317,18.461281],[122.145401,18.461121],[122.144463,18.46125],[122.143959,18.46233],[122.143372,18.463131],[122.142242,18.463631],[122.141388,18.46393],[122.141388,18.46417],[122.14222,18.465],[122.142502,18.46472],[122.142776,18.46472],[122.143333,18.46417],[122.143608,18.46417],[122.144157,18.46472],[122.144157,18.465],[122.143608,18.465561],[122.143608,18.46583],[122.143333,18.46611],[122.143333,18.466391],[122.143059,18.466669],[122.143059,18.46833],[122.14328,18.468571],[122.143494,18.468901],[122.143677,18.46921],[122.143913,18.46946],[122.14415,18.469681],[122.144409,18.4699],[122.144592,18.470221],[122.144569,18.470779],[122.144661,18.471291],[122.144928,18.47172],[122.14518,18.472191],[122.145317,18.4727],[122.145538,18.473181],[122.145729,18.47364],[122.145866,18.4741],[122.146057,18.47451],[122.146111,18.47497],[122.146172,18.475451],[122.146111,18.475559],[122.146393,18.47583],[122.146393,18.47611],[122.146667,18.476391],[122.146667,18.47694],[122.146942,18.477221],[122.146942,18.478331],[122.147217,18.478609],[122.147217,18.47917],[122.147499,18.479441],[122.147499,18.47961]]]]}},{"type":"Feature","properties":{"ID_0":177,"ISO":"PHL","NAME_0":"Philippines","ID_1":2015,"NAME_1":"Cagayan","ID_2":201523,"NAME_2":"Santa Ana","ID_3":201523009,"NAME_3":"Batu-Parada","NL_NAME_3":null,"VARNAME_3":null,"TYPE_3":"Barangay","ENGTYPE_3":"Village","PROVINCE":"Cagayan","REGION":"Region II (Cagayan Valley)","id":"barangay-0201523009","name":"Batu-Parada","barangayCode":"0201523009","population":null,"formattedPop":null,"densityCategory":"No data","vulnerabilityRating":"No data","healthRiskLevel":"No data","areaKm2":2.00947,"centerLat":18.465963,"centerLng":122.162549,"geometrySource":"all_barangay-2.csv detailed WKT","geometryMatchMethod":"unique_official_admin_names","boundaryPointCount":27},"geometry":{"type":"MultiPolygon","coordinates":[[[[122.164207,18.468479],[122.171387,18.46443],[122.174889,18.46114],[122.170677,18.45867],[122.170311,18.458389],[122.169884,18.459681],[122.169098,18.460541],[122.168053,18.460951],[122.167023,18.461081],[122.166183,18.46106],[122.165428,18.46104],[122.164307,18.46088],[122.163658,18.460871],[122.162697,18.4615],[122.162102,18.46221],[122.161781,18.463289],[122.161263,18.4643],[122.160423,18.46435],[122.159882,18.46384],[122.159149,18.463461],[122.158707,18.462879],[122.158157,18.462219],[122.157333,18.4622],[122.156677,18.462191],[122.156898,18.462561],[122.161072,18.470169],[122.164207,18.468479]]]]}},{"type":"Feature","properties":{"ID_0":177,"ISO":"PHL","NAME_0":"Philippines","ID_1":2015,"NAME_1":"Cagayan","ID_2":201523,"NAME_2":"Santa Ana","ID_3":201523010,"NAME_3":"Patunungan","NL_NAME_3":null,"VARNAME_3":null,"TYPE_3":"Barangay","ENGTYPE_3":"Village","PROVINCE":"Cagayan","REGION":"Region II (Cagayan Valley)","id":"barangay-0201523010","name":"Patunungan","barangayCode":"0201523010","population":null,"formattedPop":null,"densityCategory":"No data","vulnerabilityRating":"No data","healthRiskLevel":"No data","areaKm2":194.33318,"centerLat":18.329632,"centerLng":122.266777,"geometrySource":"all_barangay-2.csv detailed WKT","geometryMatchMethod":"unique_official_admin_names","boundaryPointCount":628},"geometry":{"type":"MultiPolygon","coordinates":[[[[122.32695,18.248171],[122.328087,18.2481],[122.329079,18.2481],[122.329117,18.248091],[122.329857,18.24789],[122.330002,18.24769],[122.329857,18.247219],[122.329292,18.24667],[122.328369,18.245991],[122.327232,18.245649],[122.326309,18.245581],[122.325813,18.24552],[122.325462,18.24654],[122.325317,18.24708],[122.325394,18.247549],[122.325737,18.247959],[122.325912,18.24802],[122.326309,18.248171],[122.32695,18.248171]]],[[[122.283691,18.41515],[122.284103,18.41474],[122.284439,18.414339],[122.28479,18.41407],[122.285156,18.41395],[122.285507,18.41398],[122.285873,18.41411],[122.286346,18.414129],[122.286911,18.41407],[122.287399,18.41391],[122.287827,18.41379],[122.288254,18.41361],[122.288696,18.413441],[122.28923,18.41333],[122.289787,18.413231],[122.290329,18.413031],[122.290848,18.412781],[122.291367,18.412519],[122.291908,18.41226],[122.292419,18.412029],[122.292938,18.4119],[122.293404,18.411739],[122.293823,18.411591],[122.294189,18.411409],[122.294594,18.411249],[122.295013,18.4111],[122.295433,18.41091],[122.295807,18.410589],[122.29615,18.41017],[122.296379,18.40966],[122.296593,18.409149],[122.296913,18.40871],[122.296982,18.408331],[122.296997,18.40794],[122.296997,18.40744],[122.29705,18.407339],[122.29718,18.407021],[122.297508,18.4067],[122.297836,18.406389],[122.298203,18.40604],[122.298523,18.405569],[122.298698,18.40498],[122.298927,18.40451],[122.299103,18.40416],[122.299118,18.40377],[122.298973,18.4032],[122.298866,18.40271],[122.299026,18.402321],[122.299423,18.402031],[122.299767,18.40181],[122.299873,18.4016],[122.299858,18.40135],[122.299957,18.40103],[122.300072,18.40064],[122.300217,18.4002],[122.300262,18.39974],[122.300301,18.399309],[122.300377,18.39892],[122.300507,18.39855],[122.300636,18.398149],[122.30085,18.397739],[122.301102,18.397341],[122.301376,18.39695],[122.301643,18.39657],[122.301903,18.396191],[122.301941,18.396111],[122.302628,18.39543],[122.30278,18.395281],[122.30278,18.39521],[122.30278,18.39444],[122.302498,18.394171],[122.302498,18.39333],[122.302223,18.393061],[122.302223,18.39278],[122.30278,18.39222],[122.303337,18.39278],[122.303337,18.393061],[122.303886,18.39361],[122.304482,18.39407],[122.305153,18.394239],[122.305656,18.39406],[122.306137,18.393749],[122.306686,18.39345],[122.307266,18.393169],[122.307259,18.39329],[122.307503,18.393061],[122.307777,18.393061],[122.308609,18.39222],[122.308609,18.39167],[122.308891,18.39139],[122.309547,18.39205],[122.309669,18.39217],[122.309723,18.39222],[122.309723,18.3925],[122.309448,18.39278],[122.309448,18.393061],[122.309334,18.393169],[122.309227,18.39327],[122.309174,18.39333],[122.309174,18.39361],[122.308891,18.39389],[122.308891,18.395559],[122.309174,18.39583],[122.309723,18.39583],[122.309998,18.395559],[122.31028,18.395559],[122.310837,18.395],[122.311111,18.395],[122.313889,18.39222],[122.313889,18.391951],[122.314163,18.39167],[122.314163,18.391121],[122.314163,18.39061],[122.314163,18.39056],[122.31472,18.389999],[122.31472,18.389441],[122.314667,18.389391],[122.314201,18.388929],[122.313606,18.38833],[122.313606,18.387779],[122.31382,18.38744],[122.313728,18.386721],[122.313583,18.386061],[122.313316,18.385799],[122.313072,18.38558],[122.312813,18.385361],[122.312592,18.385139],[122.312286,18.385059],[122.31218,18.38508],[122.311813,18.385139],[122.311447,18.38509],[122.311417,18.38485],[122.31163,18.384501],[122.311821,18.384211],[122.31179,18.38398],[122.311707,18.383751],[122.311707,18.383659],[122.311707,18.383499],[122.311684,18.38324],[122.311523,18.38294],[122.31134,18.382641],[122.311287,18.382351],[122.311363,18.382059],[122.311409,18.3818],[122.311394,18.38159],[122.311394,18.38155],[122.311432,18.38121],[122.311577,18.38084],[122.311798,18.38072],[122.311996,18.380619],[122.312576,18.380489],[122.313164,18.380239],[122.313744,18.37993],[122.314301,18.37981],[122.314873,18.379869],[122.315514,18.37999],[122.3162,18.380159],[122.316849,18.380461],[122.317497,18.380711],[122.318153,18.38073],[122.318741,18.380541],[122.319298,18.380301],[122.319839,18.38006],[122.319977,18.37993],[122.320236,18.379669],[122.32048,18.37925],[122.320557,18.378839],[122.320648,18.37845],[122.320801,18.378059],[122.320923,18.377569],[122.321068,18.37698],[122.321167,18.37631],[122.321404,18.375719],[122.321663,18.375179],[122.321907,18.37468],[122.322113,18.37421],[122.322273,18.373819],[122.32235,18.373449],[122.322319,18.37302],[122.322411,18.37262],[122.322594,18.372259],[122.322693,18.37187],[122.322617,18.37146],[122.322617,18.371071],[122.322762,18.370741],[122.322937,18.37043],[122.323151,18.370199],[122.32338,18.369989],[122.323608,18.36978],[122.323891,18.36944],[122.324173,18.36944],[122.324226,18.369381],[122.325279,18.36833],[122.325279,18.367781],[122.324997,18.3675],[122.324997,18.366949],[122.324722,18.366671],[122.324722,18.36639],[122.324448,18.36611],[122.324448,18.365829],[122.324722,18.365549],[122.324753,18.365681],[122.324791,18.365511],[122.324883,18.36515],[122.324852,18.364771],[122.324837,18.36455],[122.32457,18.36417],[122.324303,18.36377],[122.324364,18.3633],[122.324501,18.362749],[122.32473,18.3622],[122.324989,18.36166],[122.325233,18.36112],[122.325363,18.360531],[122.3256,18.360041],[122.325851,18.359619],[122.326111,18.35924],[122.326347,18.358841],[122.326576,18.35836],[122.327072,18.35795],[122.327316,18.35762],[122.327461,18.35729],[122.327538,18.3568],[122.327553,18.35627],[122.327499,18.35568],[122.327454,18.355101],[122.32737,18.35462],[122.327209,18.354179],[122.327103,18.35371],[122.327164,18.35322],[122.327293,18.352739],[122.327469,18.35231],[122.327538,18.35187],[122.327629,18.35141],[122.327728,18.35095],[122.327766,18.35042],[122.327782,18.34993],[122.327744,18.349529],[122.32756,18.349251],[122.327278,18.349091],[122.326973,18.34894],[122.326591,18.34889],[122.326187,18.348841],[122.325851,18.34865],[122.325523,18.348339],[122.325211,18.34794],[122.32505,18.34746],[122.325043,18.347],[122.325172,18.3466],[122.325317,18.34621],[122.325493,18.345791],[122.325546,18.34531],[122.325539,18.344839],[122.325462,18.344419],[122.325104,18.34403],[122.324799,18.343651],[122.32473,18.34322],[122.325027,18.342779],[122.325592,18.342461],[122.326057,18.341949],[122.326393,18.341379],[122.326637,18.34079],[122.326828,18.34016],[122.326874,18.33952],[122.326843,18.33942],[122.326729,18.33894],[122.32666,18.338409],[122.326599,18.33795],[122.326576,18.337879],[122.326462,18.33757],[122.32637,18.33721],[122.326393,18.33684],[122.326477,18.33647],[122.326714,18.33617],[122.327003,18.33596],[122.32737,18.33585],[122.327766,18.3358],[122.328171,18.335699],[122.328522,18.335541],[122.32888,18.335369],[122.329277,18.335171],[122.329712,18.33494],[122.330139,18.33461],[122.33049,18.334209],[122.330757,18.333771],[122.330948,18.333321],[122.331161,18.332861],[122.331444,18.33242],[122.331642,18.331921],[122.331833,18.33144],[122.332069,18.33103],[122.332367,18.330709],[122.332687,18.330429],[122.333,18.33003],[122.333237,18.32937],[122.33345,18.3286],[122.333511,18.32782],[122.333519,18.32715],[122.333717,18.326599],[122.334,18.326099],[122.334091,18.32559],[122.334068,18.325109],[122.333977,18.324659],[122.334007,18.324261],[122.334183,18.32387],[122.334412,18.32342],[122.334503,18.3228],[122.334373,18.32221],[122.334137,18.32172],[122.333931,18.321369],[122.333893,18.321301],[122.333656,18.3209],[122.333412,18.320511],[122.333153,18.32012],[122.332771,18.319851],[122.332382,18.319611],[122.332024,18.319389],[122.33168,18.31913],[122.331337,18.31881],[122.331108,18.318331],[122.331108,18.31806],[122.330833,18.31778],[122.330833,18.317499],[122.330276,18.31694],[122.330658,18.316561],[122.330833,18.316389],[122.330833,18.316111],[122.331108,18.31583],[122.331108,18.315559],[122.33139,18.315281],[122.33139,18.315001],[122.331947,18.31444],[122.332779,18.31444],[122.333344,18.31389],[122.333611,18.31389],[122.334717,18.31278],[122.334999,18.31278],[122.335281,18.3125],[122.337219,18.3125],[122.337502,18.31278],[122.337784,18.31278],[122.338608,18.311951],[122.338608,18.31167],[122.33889,18.31139],[122.33889,18.309999],[122.338837,18.30994],[122.338608,18.309719],[122.338608,18.309441],[122.33889,18.30917],[122.33889,18.308319],[122.33889,18.30806],[122.338669,18.307831],[122.337502,18.306669],[122.337219,18.306669],[122.336937,18.30694],[122.33667,18.306669],[122.336388,18.30694],[122.335281,18.30694],[122.334999,18.306669],[122.334999,18.306391],[122.334442,18.30583],[122.334442,18.305],[122.333893,18.304449],[122.333893,18.30361],[122.333611,18.303329],[122.333344,18.303329],[122.333061,18.302641],[122.332787,18.302031],[122.332512,18.30147],[122.332268,18.30101],[122.332077,18.300579],[122.331879,18.3002],[122.331657,18.299879],[122.331573,18.29958],[122.331917,18.299089],[122.33242,18.29862],[122.332764,18.29821],[122.332878,18.297779],[122.33271,18.297409],[122.332474,18.29706],[122.33213,18.296709],[122.33165,18.29637],[122.3311,18.296009],[122.330521,18.29567],[122.329918,18.295361],[122.329323,18.295059],[122.328857,18.2946],[122.328537,18.294001],[122.3284,18.29331],[122.328133,18.29281],[122.327858,18.29232],[122.327652,18.29178],[122.327591,18.29121],[122.327667,18.29077],[122.327682,18.29071],[122.327904,18.290359],[122.328163,18.29006],[122.328484,18.28978],[122.328827,18.289511],[122.329224,18.28932],[122.329643,18.289181],[122.330093,18.28904],[122.33049,18.28874],[122.330582,18.28845],[122.330627,18.288309],[122.330406,18.287951],[122.330116,18.287609],[122.329857,18.287251],[122.329842,18.286791],[122.33017,18.28632],[122.330658,18.28602],[122.331093,18.28583],[122.331467,18.285749],[122.331802,18.285721],[122.332153,18.28565],[122.332603,18.285509],[122.332817,18.285391],[122.333153,18.285219],[122.333199,18.285179],[122.333687,18.284731],[122.334106,18.28417],[122.334267,18.28367],[122.333229,18.2831],[122.332947,18.28249],[122.33284,18.281639],[122.332626,18.28137],[122.33242,18.280991],[122.33226,18.28067],[122.332123,18.28034],[122.332024,18.279869],[122.331779,18.279421],[122.331619,18.279079],[122.331841,18.278641],[122.332314,18.277981],[122.332573,18.27737],[122.332672,18.276819],[122.332619,18.27632],[122.332367,18.275921],[122.332039,18.27561],[122.331573,18.27545],[122.331169,18.275249],[122.330856,18.27492],[122.330544,18.274469],[122.330292,18.273821],[122.33017,18.273439],[122.330261,18.273149],[122.330353,18.27269],[122.330437,18.27223],[122.330521,18.271879],[122.330513,18.271521],[122.330338,18.271179],[122.330101,18.27088],[122.329933,18.270611],[122.329712,18.27047],[122.329514,18.2703],[122.329224,18.270241],[122.328934,18.270121],[122.328697,18.269541],[122.328339,18.268841],[122.328163,18.26836],[122.328011,18.26804],[122.32785,18.267771],[122.327744,18.26742],[122.32756,18.267059],[122.327339,18.266689],[122.327026,18.26635],[122.326683,18.266041],[122.326317,18.265751],[122.326012,18.26543],[122.325737,18.26506],[122.325432,18.264709],[122.325089,18.26433],[122.324753,18.263889],[122.323334,18.26194],[122.323334,18.261669],[122.323059,18.261391],[122.323059,18.26111],[122.322777,18.26083],[122.322777,18.260559],[122.322502,18.260281],[122.322502,18.258051],[122.322021,18.25757],[122.321953,18.2575],[122.321114,18.2575],[122.320297,18.256689],[122.320267,18.25667],[122.320267,18.25639],[122.32,18.256109],[122.32,18.255831],[122.319717,18.25556],[122.319717,18.254999],[122.319443,18.254721],[122.319443,18.252501],[122.319717,18.25222],[122.32,18.25222],[122.320267,18.25194],[122.320267,18.25],[122.320557,18.24972],[122.320557,18.249451],[122.320831,18.24917],[122.320831,18.24861],[122.320557,18.248329],[122.320557,18.24778],[122.319168,18.246389],[122.318893,18.246389],[122.318611,18.246111],[122.318336,18.246111],[122.318047,18.245831],[122.31778,18.245831],[122.317497,18.24556],[122.317093,18.245081],[122.316811,18.244749],[122.316589,18.244471],[122.316383,18.24415],[122.316093,18.24387],[122.315819,18.243441],[122.315483,18.24312],[122.315033,18.24297],[122.314522,18.24309],[122.31398,18.24337],[122.313431,18.24332],[122.312927,18.24304],[122.312431,18.242701],[122.311897,18.24243],[122.311363,18.24214],[122.310783,18.241949],[122.310066,18.24201],[122.309593,18.241791],[122.309258,18.241249],[122.308899,18.24082],[122.30854,18.240511],[122.308128,18.24032],[122.307716,18.240191],[122.307411,18.239981],[122.307159,18.23974],[122.306923,18.23951],[122.306702,18.239281],[122.306534,18.239019],[122.306389,18.238741],[122.306236,18.238449],[122.305946,18.23757],[122.305809,18.23716],[122.305519,18.23608],[122.305267,18.23583],[122.305267,18.235559],[122.305557,18.235279],[122.305908,18.23399],[122.306007,18.2339],[122.306343,18.23365],[122.307037,18.23365],[122.307404,18.23358],[122.307693,18.23324],[122.307899,18.2327],[122.307899,18.232161],[122.307541,18.23188],[122.306831,18.231819],[122.305687,18.23209],[122.305206,18.2323],[122.305969,18.233391],[122.18055,18.326059],[122.181686,18.330641],[122.180962,18.33226],[122.180428,18.3333],[122.18058,18.33411],[122.179947,18.33592],[122.179527,18.336889],[122.17968,18.338221],[122.180298,18.33996],[122.180023,18.34099],[122.179733,18.342239],[122.179428,18.34362],[122.179199,18.34498],[122.179138,18.34704],[122.179314,18.348209],[122.179169,18.349119],[122.179443,18.35063],[122.180038,18.352961],[122.179153,18.354799],[122.178421,18.355921],[122.178101,18.35737],[122.177368,18.358549],[122.17617,18.359171],[122.175453,18.36035],[122.175308,18.36149],[122.175087,18.362009],[122.175087,18.36208],[122.173347,18.3622],[122.172256,18.36257],[122.171387,18.36335],[122.170723,18.36392],[122.170319,18.364349],[122.169456,18.364811],[122.191116,18.37105],[122.248611,18.38133],[122.284897,18.4132],[122.285027,18.4133],[122.284607,18.41363],[122.283943,18.414169],[122.283028,18.41503],[122.282562,18.41514],[122.282288,18.4151],[122.281937,18.415131],[122.280502,18.415859],[122.281036,18.415951],[122.281647,18.416031],[122.282173,18.415899],[122.2827,18.41576],[122.283203,18.41552],[122.283691,18.41515]]]]}},{"type":"Feature","properties":{"ID_0":177,"ISO":"PHL","NAME_0":"Philippines","ID_1":2015,"NAME_1":"Cagayan","ID_2":201523,"NAME_2":"Santa Ana","ID_3":201523011,"NAME_3":"Rapuli","NL_NAME_3":null,"VARNAME_3":null,"TYPE_3":"Barangay","ENGTYPE_3":"Village","PROVINCE":"Cagayan","REGION":"Region II (Cagayan Valley)","id":"barangay-0201523011","name":"Rapuli","barangayCode":"0201523011","population":null,"formattedPop":null,"densityCategory":"No data","vulnerabilityRating":"No data","healthRiskLevel":"No data","areaKm2":19.691068,"centerLat":18.395194,"centerLng":122.148448,"geometrySource":"all_barangay-2.csv detailed WKT","geometryMatchMethod":"unique_official_admin_names","boundaryPointCount":187},"geometry":{"type":"MultiPolygon","coordinates":[[[[122.166786,18.4137],[122.165756,18.394791],[122.169128,18.36508],[122.169456,18.364811],[122.167679,18.364269],[122.166679,18.364019],[122.165573,18.363871],[122.164642,18.36389],[122.163757,18.36426],[122.162712,18.364771],[122.161247,18.365089],[122.160378,18.364981],[122.159668,18.364799],[122.159286,18.364759],[122.158897,18.36478],[122.158577,18.36503],[122.158371,18.365561],[122.158249,18.36676],[122.158203,18.36865],[122.157677,18.369591],[122.15715,18.36989],[122.15641,18.37026],[122.156273,18.37039],[122.15593,18.371241],[122.154953,18.372931],[122.15387,18.37389],[122.152237,18.37468],[122.150284,18.37476],[122.148857,18.37447],[122.146751,18.374189],[122.14595,18.37438],[122.145393,18.37541],[122.145218,18.3771],[122.145187,18.378321],[122.144287,18.379141],[122.143059,18.379271],[122.141617,18.379379],[122.14035,18.38003],[122.139542,18.38007],[122.138069,18.379721],[122.136398,18.37936],[122.134857,18.37911],[122.133461,18.379181],[122.132629,18.379749],[122.131851,18.38135],[122.130493,18.381651],[122.129753,18.38135],[122.129738,18.381399],[122.129997,18.38167],[122.129997,18.381941],[122.130333,18.38228],[122.130569,18.38279],[122.130814,18.38331],[122.130997,18.38381],[122.131088,18.384211],[122.13092,18.384439],[122.130577,18.38459],[122.130127,18.384899],[122.129593,18.385441],[122.129707,18.38649],[122.129929,18.3869],[122.130074,18.387409],[122.130234,18.387899],[122.13031,18.38833],[122.130524,18.388651],[122.131104,18.38891],[122.131577,18.389059],[122.131691,18.389271],[122.131638,18.389589],[122.131477,18.389971],[122.131371,18.39039],[122.131393,18.3908],[122.13134,18.391211],[122.131157,18.391609],[122.130852,18.392],[122.130478,18.392389],[122.130043,18.39271],[122.129593,18.39295],[122.129143,18.393101],[122.128822,18.393311],[122.128563,18.393591],[122.128319,18.39395],[122.128059,18.39436],[122.127808,18.394751],[122.127609,18.39506],[122.127296,18.39542],[122.127083,18.395559],[122.126671,18.395691],[122.126091,18.395821],[122.125366,18.39694],[122.125153,18.398371],[122.124924,18.400249],[122.124977,18.40064],[122.124992,18.40106],[122.124924,18.40152],[122.124779,18.402],[122.124786,18.402519],[122.124947,18.40303],[122.125053,18.403589],[122.125259,18.4041],[122.12545,18.404619],[122.125671,18.4051],[122.125938,18.40554],[122.126228,18.405951],[122.126511,18.40633],[122.126831,18.406651],[122.127151,18.40694],[122.12748,18.40723],[122.127838,18.40752],[122.128311,18.407789],[122.128853,18.40806],[122.129448,18.408331],[122.130043,18.408621],[122.130623,18.408871],[122.130913,18.409309],[122.131401,18.409651],[122.132057,18.41],[122.132011,18.410419],[122.131989,18.410801],[122.132004,18.411131],[122.132111,18.411421],[122.132202,18.41177],[122.132217,18.41218],[122.132248,18.4126],[122.132332,18.412991],[122.132401,18.41316],[122.132462,18.413321],[122.1325,18.413651],[122.132469,18.41399],[122.132309,18.414339],[122.132057,18.414721],[122.131706,18.41514],[122.13134,18.415581],[122.13089,18.415899],[122.130447,18.416201],[122.129967,18.41643],[122.129517,18.4167],[122.129082,18.41704],[122.128647,18.41744],[122.128166,18.417839],[122.127747,18.41827],[122.12735,18.418671],[122.12706,18.419081],[122.126953,18.41917],[122.126953,18.419451],[122.126694,18.419701],[122.126663,18.41972],[122.126663,18.41976],[122.126663,18.42],[122.126587,18.420071],[122.126671,18.421471],[122.128777,18.42345],[122.129311,18.423849],[122.130333,18.42448],[122.131477,18.42417],[122.131737,18.423929],[122.132088,18.423929],[122.132339,18.42407],[122.132767,18.42417],[122.133392,18.423941],[122.134171,18.423901],[122.134727,18.424],[122.135162,18.42366],[122.13562,18.42276],[122.136772,18.42201],[122.137733,18.42136],[122.138222,18.420731],[122.138573,18.42041],[122.139557,18.41968],[122.140572,18.41906],[122.142776,18.41835],[122.144096,18.41811],[122.144669,18.4181],[122.145767,18.418131],[122.147873,18.41815],[122.151314,18.41778],[122.153107,18.416861],[122.154778,18.41571],[122.155907,18.4156],[122.157158,18.41589],[122.158234,18.416349],[122.159439,18.416531],[122.161377,18.416229],[122.163071,18.41567],[122.165009,18.414789],[122.165779,18.414379],[122.166786,18.4137]]]]}},{"type":"Feature","properties":{"ID_0":177,"ISO":"PHL","NAME_0":"Philippines","ID_1":2015,"NAME_1":"Cagayan","ID_2":201523,"NAME_2":"Santa Ana","ID_3":201523012,"NAME_3":"San Vicente","NL_NAME_3":null,"VARNAME_3":null,"TYPE_3":"Barangay","ENGTYPE_3":"Village","PROVINCE":"Cagayan","REGION":"Region II (Cagayan Valley)","id":"barangay-0201523012","name":"San Vicente","barangayCode":"0201523012","population":null,"formattedPop":null,"densityCategory":"No data","vulnerabilityRating":"No data","healthRiskLevel":"No data","areaKm2":55.034797,"centerLat":18.523441,"centerLng":122.170434,"geometrySource":"all_barangay-2.csv detailed WKT","geometryMatchMethod":"unique_official_admin_names","boundaryPointCount":862},"geometry":{"type":"MultiPolygon","coordinates":[[[[122.133057,18.512501],[122.135277,18.510281],[122.135559,18.510281],[122.135834,18.51],[122.136108,18.51],[122.136391,18.50972],[122.136948,18.50972],[122.137222,18.509451],[122.137497,18.509451],[122.138046,18.50889],[122.137497,18.508329],[122.137222,18.508329],[122.136391,18.5075],[122.136391,18.506941],[122.136108,18.50667],[122.136108,18.50528],[122.136391,18.504999],[122.136391,18.504721],[122.135933,18.504271],[122.135307,18.503639],[122.13472,18.503059],[122.13472,18.502781],[122.134163,18.50222],[122.133888,18.50222],[122.133614,18.502501],[122.133331,18.502781],[122.133331,18.50301],[122.133331,18.50333],[122.133133,18.503531],[122.133057,18.503611],[122.133057,18.503839],[122.133057,18.504721],[122.132767,18.504999],[122.132767,18.50528],[122.131767,18.506281],[122.131668,18.50639],[122.131668,18.506439],[122.131668,18.50667],[122.131477,18.506849],[122.131111,18.507219],[122.131111,18.5075],[122.130836,18.50778],[122.130836,18.50861],[122.131111,18.50889],[122.131111,18.509451],[122.131393,18.50972],[122.131393,18.51083],[122.131668,18.51111],[122.131668,18.512779],[122.131783,18.51289],[122.131943,18.51306],[122.132217,18.51306],[122.1325,18.51333],[122.132874,18.51296],[122.133057,18.512779],[122.133057,18.512501]]],[[[122.177063,18.51511],[122.177322,18.515079],[122.177567,18.515091],[122.177834,18.51502],[122.178101,18.51498],[122.178398,18.514959],[122.178673,18.51499],[122.178902,18.515091],[122.179138,18.515249],[122.17939,18.51544],[122.179688,18.515631],[122.18,18.51594],[122.180321,18.516319],[122.180687,18.51646],[122.181084,18.516411],[122.181396,18.51639],[122.181679,18.516439],[122.1819,18.516581],[122.182167,18.51664],[122.18222,18.51667],[122.183052,18.51667],[122.183327,18.516951],[122.183609,18.516951],[122.184723,18.518061],[122.184723,18.51833],[122.185837,18.51944],[122.185837,18.51972],[122.186943,18.52083],[122.187233,18.520559],[122.187233,18.52025],[122.187233,18.51972],[122.187492,18.519461],[122.188057,18.51889],[122.188606,18.51889],[122.188889,18.51861],[122.189163,18.51861],[122.189453,18.51833],[122.18972,18.51833],[122.190002,18.518061],[122.191109,18.518061],[122.191391,18.51778],[122.191391,18.5175],[122.191673,18.51722],[122.191391,18.516951],[122.191391,18.51639],[122.191673,18.516109],[122.191673,18.515829],[122.191109,18.51528],[122.191017,18.51528],[122.190826,18.51528],[122.190552,18.51556],[122.190552,18.51569],[122.190552,18.515829],[122.19046,18.515829],[122.190277,18.515829],[122.190002,18.516109],[122.189453,18.516109],[122.189163,18.51639],[122.188889,18.51639],[122.188332,18.515829],[122.188332,18.51556],[122.189163,18.514721],[122.189163,18.514441],[122.189453,18.51417],[122.189453,18.513889],[122.18972,18.513611],[122.18972,18.51333],[122.190002,18.51306],[122.190002,18.512779],[122.190277,18.512501],[122.190277,18.51194],[122.190826,18.51194],[122.191109,18.51222],[122.191353,18.51222],[122.181267,18.496651],[122.147049,18.503889],[122.147011,18.50399],[122.146957,18.504379],[122.14695,18.504801],[122.146942,18.505211],[122.146896,18.505619],[122.14679,18.50601],[122.146713,18.506451],[122.146797,18.50696],[122.147163,18.507389],[122.147621,18.507669],[122.148087,18.50782],[122.148163,18.507851],[122.148468,18.50798],[122.148827,18.50812],[122.149117,18.508301],[122.149429,18.50848],[122.14994,18.5086],[122.150467,18.50878],[122.151016,18.50893],[122.151497,18.50915],[122.15155,18.509171],[122.151947,18.509359],[122.152367,18.50963],[122.152702,18.51001],[122.152893,18.51049],[122.153267,18.510851],[122.153503,18.511021],[122.153717,18.51119],[122.154251,18.51144],[122.154831,18.51158],[122.15538,18.51153],[122.155823,18.511419],[122.156174,18.511379],[122.156464,18.511391],[122.156754,18.511471],[122.157112,18.511589],[122.157539,18.51157],[122.157967,18.511379],[122.158432,18.511181],[122.15892,18.511181],[122.159416,18.511311],[122.159927,18.51133],[122.160553,18.51111],[122.161942,18.512501],[122.161942,18.512779],[122.162216,18.51306],[122.162216,18.51333],[122.162216,18.51368],[122.162193,18.51412],[122.162071,18.51446],[122.161926,18.514709],[122.161758,18.51487],[122.161598,18.515011],[122.161377,18.51506],[122.161087,18.51498],[122.160721,18.51482],[122.160248,18.51474],[122.159843,18.514771],[122.159714,18.514771],[122.159187,18.515011],[122.158943,18.51548],[122.15889,18.51556],[122.15889,18.516109],[122.16111,18.51833],[122.16111,18.51861],[122.161942,18.51944],[122.163063,18.51944],[122.164169,18.520559],[122.164169,18.52083],[122.164436,18.521111],[122.165001,18.521111],[122.165283,18.521391],[122.165833,18.521391],[122.166107,18.521669],[122.167503,18.521669],[122.167961,18.521379],[122.168533,18.52112],[122.169067,18.520929],[122.169601,18.520901],[122.17009,18.52079],[122.170532,18.52059],[122.170982,18.52043],[122.171463,18.5203],[122.171928,18.520201],[122.17231,18.52006],[122.172707,18.519939],[122.173103,18.519739],[122.173523,18.519529],[122.173889,18.519199],[122.174263,18.518829],[122.17466,18.518431],[122.175262,18.51811],[122.175713,18.51774],[122.175827,18.5173],[122.175873,18.516859],[122.17601,18.516491],[122.176178,18.516171],[122.176376,18.515881],[122.176613,18.5156],[122.176819,18.51531],[122.177063,18.51511]]],[[[122.134163,18.58222],[122.134453,18.58194],[122.13472,18.58194],[122.135406,18.581249],[122.135834,18.58083],[122.136108,18.58083],[122.136391,18.58111],[122.136948,18.58111],[122.137062,18.581221],[122.137222,18.58139],[122.138611,18.58139],[122.139168,18.58083],[122.140213,18.57979],[122.140266,18.57972],[122.140831,18.57972],[122.141006,18.579889],[122.141113,18.58],[122.141228,18.58],[122.141388,18.58],[122.14167,18.57972],[122.14222,18.57972],[122.142502,18.58],[122.142776,18.58],[122.143333,18.579451],[122.143333,18.57917],[122.14389,18.578609],[122.144447,18.578609],[122.144997,18.57806],[122.145844,18.57806],[122.146111,18.578329],[122.146393,18.578329],[122.146942,18.57889],[122.147499,18.57889],[122.148888,18.58028],[122.149719,18.58028],[122.150002,18.580561],[122.150833,18.580561],[122.151108,18.58028],[122.151657,18.58028],[122.151947,18.580561],[122.153053,18.580561],[122.15361,18.58],[122.153893,18.58],[122.154167,18.57972],[122.154442,18.57972],[122.15583,18.58111],[122.156113,18.58111],[122.157501,18.57972],[122.157501,18.57917],[122.157501,18.578609],[122.157219,18.578329],[122.157219,18.57806],[122.156937,18.57778],[122.15667,18.57778],[122.156387,18.577511],[122.156113,18.577499],[122.15583,18.577221],[122.155281,18.577221],[122.154999,18.576941],[122.154442,18.576941],[122.153893,18.576389],[122.153893,18.57583],[122.15361,18.57556],[122.153893,18.575279],[122.153893,18.57444],[122.154167,18.574169],[122.154167,18.57361],[122.154442,18.57333],[122.154442,18.573059],[122.154716,18.572781],[122.154716,18.57222],[122.154999,18.571951],[122.155563,18.571951],[122.15583,18.571671],[122.156113,18.571671],[122.156387,18.57139],[122.156937,18.57139],[122.157219,18.57111],[122.15889,18.57111],[122.159447,18.570551],[122.159721,18.570551],[122.160553,18.569719],[122.160553,18.569441],[122.160004,18.56889],[122.159721,18.56889],[122.159447,18.568609],[122.159157,18.568609],[122.15889,18.568331],[122.158607,18.568331],[122.158333,18.56806],[122.156937,18.56806],[122.156387,18.567499],[122.156387,18.56583],[122.156113,18.565559],[122.156113,18.565281],[122.156387,18.565001],[122.156387,18.564171],[122.15667,18.56389],[122.15667,18.56333],[122.156387,18.563061],[122.156387,18.56222],[122.15667,18.561951],[122.15667,18.56167],[122.156937,18.56139],[122.156937,18.56028],[122.157219,18.559999],[122.156937,18.559719],[122.156937,18.558611],[122.157219,18.558331],[122.157219,18.55806],[122.157501,18.557779],[122.157501,18.55722],[122.157219,18.55694],[122.157219,18.556391],[122.157501,18.55611],[122.157501,18.55583],[122.157784,18.555559],[122.157784,18.555281],[122.158058,18.555],[122.157501,18.554449],[122.157501,18.554171],[122.157219,18.55389],[122.157219,18.55361],[122.156937,18.553329],[122.156937,18.553049],[122.15667,18.55278],[122.15667,18.552219],[122.156387,18.551941],[122.156387,18.55167],[122.156113,18.55139],[122.156113,18.55056],[122.15583,18.55028],[122.15583,18.549721],[122.155563,18.54944],[122.155563,18.54917],[122.155281,18.548889],[122.155281,18.54694],[122.155563,18.546671],[122.155563,18.54583],[122.156387,18.545],[122.156387,18.54472],[122.15583,18.54417],[122.155281,18.54417],[122.154999,18.544451],[122.154442,18.544451],[122.154167,18.54472],[122.153343,18.54472],[122.153053,18.544451],[122.152779,18.544451],[122.150002,18.54167],[122.150002,18.541389],[122.148331,18.539721],[122.148331,18.53944],[122.148064,18.539169],[122.148064,18.538891],[122.147781,18.53861],[122.147781,18.537781],[122.147362,18.53705],[122.146667,18.53583],[122.146667,18.534439],[122.146393,18.53417],[122.146393,18.53389],[122.146111,18.533609],[122.146111,18.532709],[122.146111,18.532499],[122.146217,18.532391],[122.146393,18.532221],[122.146393,18.53194],[122.146942,18.531389],[122.147537,18.530689],[122.148613,18.52944],[122.148613,18.527781],[122.149719,18.52667],[122.150002,18.52667],[122.150284,18.52639],[122.150558,18.52639],[122.150558,18.52667],[122.150688,18.5268],[122.150833,18.526951],[122.151108,18.526951],[122.152023,18.526039],[122.152489,18.52557],[122.152779,18.52528],[122.152779,18.525],[122.153053,18.524719],[122.153053,18.524441],[122.153343,18.52417],[122.153343,18.52389],[122.15361,18.523609],[122.15361,18.523331],[122.153893,18.52306],[122.153893,18.522779],[122.154167,18.522499],[122.154167,18.522221],[122.15361,18.521669],[122.153343,18.521669],[122.153053,18.52194],[122.152786,18.52194],[122.152496,18.52194],[122.152222,18.521669],[122.151947,18.521669],[122.151627,18.521351],[122.15139,18.521111],[122.151108,18.521111],[122.150833,18.521391],[122.150307,18.521391],[122.150002,18.521391],[122.14917,18.520559],[122.14917,18.520281],[122.148888,18.52],[122.148888,18.51944],[122.14917,18.519171],[122.14917,18.51861],[122.150002,18.51778],[122.150238,18.51778],[122.150284,18.51778],[122.150558,18.5175],[122.150558,18.516951],[122.150284,18.51667],[122.150284,18.51639],[122.14904,18.51515],[122.148613,18.514721],[122.148613,18.514441],[122.148331,18.51417],[122.148064,18.51417],[122.147781,18.513889],[122.147423,18.513889],[122.147217,18.513889],[122.146942,18.51417],[122.146942,18.514721],[122.147217,18.514999],[122.147217,18.51528],[122.147079,18.515421],[122.146111,18.51639],[122.145844,18.51639],[122.145554,18.51667],[122.145279,18.51667],[122.144722,18.51722],[122.144722,18.5175],[122.14222,18.52],[122.14167,18.52],[122.141388,18.520281],[122.141113,18.520281],[122.140831,18.52],[122.140556,18.520281],[122.140266,18.520281],[122.139999,18.52],[122.138344,18.52],[122.137978,18.51964],[122.137779,18.51944],[122.137589,18.51944],[122.137497,18.51944],[122.137413,18.51935],[122.136948,18.51889],[122.136673,18.51889],[122.136391,18.51861],[122.136108,18.51889],[122.135834,18.51889],[122.135559,18.519171],[122.135277,18.519171],[122.135002,18.51889],[122.134453,18.51889],[122.134163,18.51861],[122.133888,18.51861],[122.130569,18.515289],[122.129448,18.51417],[122.129448,18.51306],[122.127792,18.51141],[122.127747,18.511391],[122.127502,18.511391],[122.127274,18.51116],[122.126953,18.51083],[122.126663,18.51083],[122.125557,18.510281],[122.124733,18.509451],[122.124733,18.509411],[122.124733,18.509171],[122.123894,18.508329],[122.123611,18.508329],[122.123337,18.508051],[122.122223,18.508051],[122.121948,18.50778],[122.121674,18.50778],[122.121391,18.5075],[122.121109,18.5075],[122.120827,18.507219],[122.120651,18.507219],[122.120552,18.507219],[122.119164,18.505831],[122.119164,18.504881],[122.119164,18.504721],[122.118958,18.50452],[122.118332,18.503889],[122.118332,18.503611],[122.1175,18.502781],[122.1175,18.502501],[122.117218,18.50222],[122.116669,18.501671],[122.116669,18.50139],[122.116112,18.50083],[122.115837,18.50083],[122.115547,18.500561],[122.114998,18.500561],[122.114723,18.50083],[122.114441,18.50083],[122.113327,18.50194],[122.113327,18.502781],[122.113609,18.503059],[122.113609,18.503611],[122.113327,18.503889],[122.113327,18.504721],[122.113609,18.504999],[122.113609,18.50528],[122.113892,18.50556],[122.113892,18.506109],[122.114441,18.50667],[122.114441,18.506941],[122.114998,18.5075],[122.114998,18.50778],[122.116669,18.509451],[122.116669,18.50972],[122.116943,18.51],[122.116943,18.510559],[122.116669,18.51083],[122.116669,18.51111],[122.116112,18.511669],[122.116112,18.51194],[122.115837,18.51222],[122.114441,18.513611],[122.114723,18.513889],[122.114723,18.51417],[122.114998,18.514441],[122.114998,18.514721],[122.11528,18.514999],[122.114166,18.516109],[122.114166,18.516951],[122.113892,18.51722],[122.113892,18.5175],[122.114166,18.51778],[122.114166,18.518061],[122.114998,18.51889],[122.115547,18.51889],[122.116089,18.519421],[122.116867,18.52021],[122.1175,18.52083],[122.1175,18.521391],[122.115837,18.52306],[122.115547,18.52306],[122.11528,18.523331],[122.11528,18.52389],[122.117393,18.525999],[122.1175,18.52611],[122.1175,18.52639],[122.117767,18.52667],[122.1175,18.526951],[122.1175,18.52722],[122.117447,18.52726],[122.116386,18.52833],[122.116386,18.52861],[122.116112,18.528891],[122.116386,18.529169],[122.116669,18.529169],[122.116943,18.52944],[122.118332,18.52944],[122.119087,18.530199],[122.120277,18.531389],[122.120277,18.53167],[122.120049,18.5319],[122.120003,18.53194],[122.120003,18.532221],[122.117767,18.534439],[122.117767,18.534719],[122.116386,18.53611],[122.116386,18.53639],[122.116669,18.536671],[122.116669,18.536949],[122.1175,18.537781],[122.118332,18.537781],[122.118607,18.538059],[122.118889,18.538059],[122.119164,18.53833],[122.11972,18.53833],[122.119904,18.538509],[122.120277,18.538891],[122.120567,18.53957],[122.121063,18.539841],[122.121674,18.540279],[122.122223,18.540831],[122.12278,18.540831],[122.123047,18.541109],[122.124168,18.541109],[122.124443,18.541389],[122.124733,18.541389],[122.125557,18.542219],[122.125557,18.5425],[122.125832,18.54278],[122.125832,18.54389],[122.125557,18.54417],[122.125557,18.544241],[122.125557,18.544451],[122.125267,18.54472],[122.125267,18.545],[122.125832,18.545561],[122.125832,18.54611],[122.125557,18.546391],[122.125557,18.546671],[122.124443,18.547779],[122.123894,18.547779],[122.123611,18.547501],[122.123337,18.547501],[122.12278,18.54694],[122.122498,18.54694],[122.122223,18.546671],[122.121948,18.546671],[122.121674,18.546391],[122.121109,18.546391],[122.120827,18.54611],[122.120277,18.54611],[122.118607,18.544451],[122.118332,18.544451],[122.118057,18.54417],[122.1175,18.54472],[122.117233,18.54472],[122.116943,18.545],[122.116669,18.545],[122.116386,18.54528],[122.116112,18.54528],[122.115547,18.54583],[122.115547,18.546391],[122.114723,18.54722],[122.114166,18.54722],[122.113892,18.54694],[122.113327,18.54694],[122.113052,18.54722],[122.112503,18.54722],[122.111389,18.54833],[122.111107,18.54833],[122.110832,18.548611],[122.110832,18.548889],[122.111389,18.54944],[122.111389,18.549721],[122.111656,18.549999],[122.111389,18.55028],[122.111389,18.55056],[122.111107,18.550831],[122.111107,18.55139],[122.111389,18.55167],[122.111389,18.551941],[122.111954,18.5525],[122.112221,18.5525],[122.112778,18.553049],[122.113327,18.553329],[122.113327,18.55361],[122.112503,18.554449],[122.112221,18.554449],[122.111656,18.555],[122.111656,18.555559],[122.112221,18.55611],[122.111954,18.556391],[122.112228,18.557289],[122.112297,18.557619],[122.112373,18.55817],[122.112442,18.558781],[122.112373,18.55946],[122.112373,18.559799],[122.112297,18.56048],[122.112297,18.560949],[122.112587,18.561291],[122.112793,18.56156],[122.113007,18.56197],[122.112778,18.56222],[122.112503,18.56222],[122.112221,18.5625],[122.112221,18.56278],[122.113052,18.56361],[122.114723,18.56389],[122.11528,18.56333],[122.11528,18.563061],[122.115578,18.562759],[122.115837,18.5625],[122.116669,18.5625],[122.116943,18.56278],[122.117233,18.56278],[122.1175,18.563061],[122.1175,18.56361],[122.116943,18.564171],[122.116943,18.56444],[122.116257,18.56513],[122.115837,18.565559],[122.115837,18.56583],[122.115547,18.566111],[122.116112,18.566669],[122.115837,18.56694],[122.115837,18.567221],[122.11528,18.56778],[122.11528,18.568331],[122.115547,18.568609],[122.115837,18.568609],[122.116112,18.56889],[122.116386,18.568609],[122.116669,18.568609],[122.1175,18.569441],[122.117767,18.569441],[122.118057,18.56917],[122.120003,18.56917],[122.120911,18.569401],[122.121109,18.569441],[122.121391,18.569441],[122.121674,18.569719],[122.121674,18.57028],[122.121391,18.570551],[122.121109,18.570829],[122.121109,18.57111],[122.120827,18.57139],[122.120827,18.571671],[122.120277,18.57222],[122.120277,18.5725],[122.121109,18.57333],[122.121391,18.57333],[122.121674,18.57361],[122.121948,18.57333],[122.123337,18.57333],[122.123611,18.573059],[122.124443,18.573059],[122.124733,18.57333],[122.125,18.57333],[122.125267,18.573059],[122.125832,18.57361],[122.126106,18.57361],[122.126389,18.573891],[122.126106,18.574169],[122.126106,18.57444],[122.126389,18.57472],[122.126663,18.57472],[122.12722,18.575279],[122.127777,18.57472],[122.128326,18.57472],[122.128609,18.57444],[122.129173,18.57444],[122.129448,18.574169],[122.129997,18.574169],[122.13028,18.57444],[122.130547,18.57444],[122.130836,18.57472],[122.131111,18.57472],[122.131668,18.575279],[122.131943,18.575001],[122.132217,18.575279],[122.1325,18.575279],[122.132767,18.57556],[122.133057,18.57556],[122.133331,18.575279],[122.134163,18.575279],[122.134453,18.575001],[122.13472,18.575001],[122.135002,18.57472],[122.135277,18.57472],[122.135559,18.57444],[122.136108,18.57444],[122.136673,18.573891],[122.136948,18.573891],[122.137222,18.574169],[122.137779,18.574169],[122.139442,18.57583],[122.139442,18.576389],[122.138611,18.577221],[122.137779,18.577221],[122.137222,18.57778],[122.136948,18.57778],[122.135834,18.57889],[122.135559,18.57889],[122.134453,18.58],[122.134163,18.58],[122.133888,18.58028],[122.133614,18.58028],[122.133041,18.580851],[122.1325,18.58139],[122.133331,18.58222],[122.134163,18.58222]]],[[[122.139137,18.58433],[122.138512,18.584261],[122.137222,18.585279],[122.137222,18.58556],[122.136948,18.585831],[122.136948,18.586941],[122.137497,18.5875],[122.138031,18.5875],[122.138107,18.58744],[122.139076,18.58647],[122.139999,18.58556],[122.139999,18.585279],[122.139778,18.584961],[122.139572,18.584669],[122.139137,18.58433]]],[[[122.143333,18.592779],[122.143059,18.592501],[122.143059,18.59194],[122.142776,18.591669],[122.142776,18.591391],[122.140266,18.58889],[122.139717,18.58889],[122.139442,18.58861],[122.139168,18.58861],[122.138893,18.58889],[122.138344,18.58889],[122.138046,18.58917],[122.137779,18.58917],[122.137497,18.589451],[122.137497,18.58972],[122.137222,18.59],[122.137222,18.590281],[122.137497,18.590561],[122.137779,18.590561],[122.138046,18.59083],[122.138344,18.59083],[122.138611,18.59111],[122.139442,18.59111],[122.140266,18.59194],[122.140266,18.59222],[122.140556,18.592501],[122.140556,18.592779],[122.140831,18.59306],[122.141113,18.59306],[122.141388,18.592779],[122.141479,18.592779],[122.141937,18.592779],[122.142769,18.593611],[122.143333,18.59306],[122.143333,18.592779]]]]}},{"type":"Feature","properties":{"ID_0":177,"ISO":"PHL","NAME_0":"Philippines","ID_1":2015,"NAME_1":"Cagayan","ID_2":201523,"NAME_2":"Santa Ana","ID_3":201523013,"NAME_3":"Santa Clara","NL_NAME_3":null,"VARNAME_3":null,"TYPE_3":"Barangay","ENGTYPE_3":"Village","PROVINCE":"Cagayan","REGION":"Region II (Cagayan Valley)","id":"barangay-0201523013","name":"Santa Clara","barangayCode":"0201523013","population":null,"formattedPop":null,"densityCategory":"No data","vulnerabilityRating":"No data","healthRiskLevel":"No data","areaKm2":63.834814,"centerLat":18.405193,"centerLng":122.218272,"geometrySource":"all_barangay-2.csv detailed WKT","geometryMatchMethod":"unique_official_admin_names","boundaryPointCount":121},"geometry":{"type":"MultiPolygon","coordinates":[[[[122.191719,18.428829],[122.192551,18.42905],[122.258728,18.443371],[122.258667,18.443159],[122.258522,18.442671],[122.258331,18.442249],[122.258102,18.4419],[122.257843,18.44158],[122.257591,18.44128],[122.257553,18.441231],[122.257263,18.440809],[122.257057,18.4403],[122.257042,18.43965],[122.257202,18.438869],[122.257591,18.438141],[122.258072,18.4377],[122.25853,18.43758],[122.258842,18.43759],[122.258942,18.43759],[122.259163,18.437441],[122.259109,18.43709],[122.259071,18.436939],[122.259018,18.436701],[122.259033,18.43626],[122.259209,18.43581],[122.259483,18.43541],[122.259872,18.435141],[122.260277,18.43494],[122.260674,18.43475],[122.261131,18.434641],[122.261574,18.434561],[122.261993,18.434429],[122.262199,18.434361],[122.26239,18.434299],[122.262718,18.43417],[122.262978,18.433821],[122.2631,18.433281],[122.263069,18.4331],[122.263046,18.43298],[122.263023,18.432779],[122.262863,18.43228],[122.262627,18.43181],[122.262398,18.4314],[122.262207,18.431009],[122.262062,18.43063],[122.262039,18.430241],[122.26223,18.42985],[122.262512,18.429489],[122.262901,18.429211],[122.26326,18.429029],[122.263351,18.428989],[122.263771,18.428921],[122.264214,18.429041],[122.264389,18.42911],[122.264557,18.42918],[122.26503,18.429279],[122.265457,18.42923],[122.265808,18.42901],[122.266129,18.428711],[122.26622,18.42861],[122.266457,18.42835],[122.266792,18.42795],[122.267151,18.427521],[122.267464,18.427031],[122.267921,18.42659],[122.268539,18.42631],[122.269203,18.42605],[122.269928,18.425859],[122.270729,18.42585],[122.271378,18.42576],[122.271851,18.42552],[122.272263,18.42522],[122.272621,18.424879],[122.27298,18.42452],[122.273361,18.424141],[122.273827,18.423809],[122.27446,18.4237],[122.275131,18.42326],[122.275574,18.42263],[122.275581,18.422041],[122.275543,18.42153],[122.275467,18.42108],[122.27533,18.420679],[122.275291,18.420271],[122.275337,18.419901],[122.275513,18.419571],[122.27562,18.419201],[122.275627,18.418631],[122.27607,18.418249],[122.276367,18.417931],[122.276314,18.41769],[122.276237,18.41745],[122.276398,18.417231],[122.276688,18.417049],[122.277184,18.416981],[122.277634,18.41688],[122.278008,18.4167],[122.278374,18.416599],[122.278687,18.41643],[122.27903,18.41638],[122.279388,18.416321],[122.279808,18.41609],[122.280373,18.41584],[122.280502,18.415859],[122.281937,18.415131],[122.282288,18.4151],[122.282562,18.41514],[122.283028,18.41503],[122.283943,18.414169],[122.284607,18.41363],[122.285027,18.4133],[122.284897,18.4132],[122.248611,18.38133],[122.191116,18.37105],[122.169456,18.364811],[122.169128,18.36508],[122.165756,18.394791],[122.166786,18.4137],[122.180183,18.425541],[122.191368,18.428591],[122.191719,18.428829]]]]}},{"type":"Feature","properties":{"ID_0":177,"ISO":"PHL","NAME_0":"Philippines","ID_1":2015,"NAME_1":"Cagayan","ID_2":201523,"NAME_2":"Santa Ana","ID_3":201523014,"NAME_3":"Santa Cruz","NL_NAME_3":null,"VARNAME_3":null,"TYPE_3":"Barangay","ENGTYPE_3":"Village","PROVINCE":"Cagayan","REGION":"Region II (Cagayan Valley)","id":"barangay-0201523014","name":"Santa Cruz","barangayCode":"0201523014","population":null,"formattedPop":null,"densityCategory":"No data","vulnerabilityRating":"No data","healthRiskLevel":"No data","areaKm2":4.589122,"centerLat":18.486206,"centerLng":122.158418,"geometrySource":"all_barangay-2.csv detailed WKT","geometryMatchMethod":"unique_official_admin_names","boundaryPointCount":39},"geometry":{"type":"MultiPolygon","coordinates":[[[[122.177994,18.49118],[122.164207,18.468479],[122.161072,18.470169],[122.156303,18.472731],[122.157623,18.47526],[122.147499,18.47961],[122.147499,18.479719],[122.147781,18.48],[122.147781,18.48056],[122.148064,18.480829],[122.148064,18.482161],[122.148041,18.482229],[122.147781,18.4825],[122.147972,18.4827],[122.148064,18.48278],[122.147942,18.482889],[122.147781,18.483061],[122.147781,18.48333],[122.147987,18.483549],[122.148064,18.48361],[122.148064,18.48377],[122.148064,18.48472],[122.148331,18.485001],[122.148331,18.488331],[122.147781,18.48889],[122.147781,18.48917],[122.148331,18.489719],[122.148331,18.49111],[122.148613,18.49139],[122.148613,18.49222],[122.148643,18.492241],[122.148888,18.4925],[122.148888,18.492781],[122.14917,18.493059],[122.149437,18.493059],[122.150002,18.49361],[122.150002,18.49556],[122.149918,18.495741],[122.177994,18.49118]]]]}},{"type":"Feature","properties":{"ID_0":177,"ISO":"PHL","NAME_0":"Philippines","ID_1":2015,"NAME_1":"Cagayan","ID_2":201523,"NAME_2":"Santa Ana","ID_3":201523015,"NAME_3":"Visitacion","NL_NAME_3":null,"VARNAME_3":null,"TYPE_3":"Barangay","ENGTYPE_3":"Village","PROVINCE":"Cagayan","REGION":"Region II (Cagayan Valley)","id":"barangay-0201523015","name":"Visitacion","barangayCode":"0201523015","population":null,"formattedPop":null,"densityCategory":"No data","vulnerabilityRating":"No data","healthRiskLevel":"No data","areaKm2":9.050699,"centerLat":18.44457,"centerLng":122.16163,"geometrySource":"all_barangay-2.csv detailed WKT","geometryMatchMethod":"unique_official_admin_names","boundaryPointCount":28},"geometry":{"type":"MultiPolygon","coordinates":[[[[122.156677,18.462191],[122.157333,18.4622],[122.158157,18.462219],[122.158707,18.462879],[122.159149,18.463461],[122.159882,18.46384],[122.160423,18.46435],[122.161263,18.4643],[122.161781,18.463289],[122.162102,18.46221],[122.162697,18.4615],[122.163658,18.460871],[122.164307,18.46088],[122.165428,18.46104],[122.166183,18.46106],[122.167023,18.461081],[122.168053,18.460951],[122.169098,18.460541],[122.169884,18.459681],[122.170311,18.458389],[122.170242,18.4576],[122.168388,18.432831],[122.168312,18.432871],[122.15078,18.44297],[122.154037,18.462429],[122.154892,18.46216],[122.155731,18.46217],[122.156677,18.462191]]]]}},{"type":"Feature","properties":{"ID_0":177,"ISO":"PHL","NAME_0":"Philippines","ID_1":2015,"NAME_1":"Cagayan","ID_2":201523,"NAME_2":"Santa Ana","ID_3":201523016,"NAME_3":"Tangatan","NL_NAME_3":null,"VARNAME_3":null,"TYPE_3":"Barangay","ENGTYPE_3":"Village","PROVINCE":"Cagayan","REGION":"Region II (Cagayan Valley)","id":"barangay-0201523016","name":"Tangatan","barangayCode":"0201523016","population":null,"formattedPop":null,"densityCategory":"No data","vulnerabilityRating":"No data","healthRiskLevel":"No data","areaKm2":0.611901,"centerLat":18.498222,"centerLng":122.153041,"geometrySource":"all_barangay-2.csv detailed WKT","geometryMatchMethod":"unique_official_admin_names","boundaryPointCount":23},"geometry":{"type":"MultiPolygon","coordinates":[[[[122.181267,18.496651],[122.177994,18.49118],[122.149918,18.495741],[122.14978,18.49605],[122.149727,18.496639],[122.149712,18.49724],[122.149651,18.497829],[122.149437,18.49835],[122.1492,18.498819],[122.148979,18.499241],[122.148758,18.49959],[122.148613,18.499901],[122.148613,18.50024],[122.148552,18.50062],[122.148453,18.50112],[122.148117,18.501591],[122.147774,18.501989],[122.147491,18.50242],[122.147293,18.50285],[122.147217,18.50326],[122.147148,18.503639],[122.147049,18.503889],[122.181267,18.496651]]]]}}]}
