{"type":"FeatureCollection","features":[{"type":"Feature","properties":{"ID_0":177,"ISO":"PHL","NAME_0":"Philippines","ID_1":2015,"NAME_1":"Cagayan","ID_2":201514,"NAME_2":"Gonzaga","ID_3":201514001,"NAME_3":"Amunitan","NL_NAME_3":null,"VARNAME_3":null,"TYPE_3":"Barangay","ENGTYPE_3":"Village","PROVINCE":"Cagayan","REGION":"Region II (Cagayan Valley)","id":"barangay-0201514001","name":"Amunitan","barangayCode":"0201514001","population":null,"formattedPop":null,"densityCategory":"No data","vulnerabilityRating":"No data","healthRiskLevel":"No data","areaKm2":6.633281,"centerLat":18.313294,"centerLng":122.071384,"geometrySource":"all_barangay-2.csv detailed WKT","geometryMatchMethod":"unique_official_admin_names","boundaryPointCount":165},"geometry":{"type":"MultiPolygon","coordinates":[[[[122.06356,18.336294],[122.064072,18.336849],[122.064217,18.336939],[122.064262,18.338186],[122.064575,18.338655],[122.064987,18.338743],[122.065567,18.338364],[122.066078,18.337671],[122.06691,18.337112],[122.067398,18.336443],[122.067154,18.33604],[122.06723,18.335394],[122.066978,18.335194],[122.066864,18.33497],[122.066673,18.334347],[122.066963,18.3339],[122.06752,18.333609],[122.067535,18.333414],[122.067543,18.333227],[122.06723,18.331911],[122.067307,18.331087],[122.067528,18.330841],[122.067894,18.330595],[122.06823,18.330303],[122.068504,18.329813],[122.068741,18.329323],[122.069237,18.328629],[122.069786,18.32818],[122.070137,18.327911],[122.070061,18.327377],[122.069939,18.327044],[122.070015,18.32653],[122.070496,18.325279],[122.070892,18.32501],[122.071297,18.325233],[122.071861,18.325523],[122.07225,18.3251],[122.072754,18.324495],[122.073006,18.324003],[122.073349,18.323824],[122.074097,18.324181],[122.074585,18.324247],[122.074944,18.323753],[122.075531,18.323351],[122.076019,18.321877],[122.076141,18.321053],[122.076164,18.320673],[122.076286,18.320068],[122.076805,18.319489],[122.077553,18.319107],[122.077751,18.318439],[122.078743,18.318148],[122.079552,18.317945],[122.079819,18.317228],[122.079742,18.316784],[122.079262,18.316273],[122.079185,18.315668],[122.079918,18.315153],[122.079819,18.314732],[122.079796,18.31435],[122.111412,18.280186],[122.127556,18.263437],[122.146194,18.230696],[122.158226,18.205864],[122.173607,18.179043],[122.160698,18.180161],[122.158997,18.180353],[122.13295,18.224018],[122.10025,18.263863],[122.065636,18.306479],[122.065369,18.306814],[122.064766,18.307486],[122.064247,18.308155],[122.063622,18.30858],[122.063011,18.30809],[122.062431,18.3078],[122.062019,18.308382],[122.061317,18.308987],[122.060654,18.309612],[122.060364,18.309992],[122.060333,18.310415],[122.060707,18.311195],[122.060677,18.311977],[122.059418,18.311979],[122.057999,18.311893],[122.056404,18.312342],[122.055702,18.313437],[122.055595,18.314285],[122.054626,18.314913],[122.053871,18.315025],[122.053459,18.315159],[122.052513,18.315294],[122.051231,18.314674],[122.050041,18.314631],[122.049385,18.314964],[122.047897,18.315594],[122.047821,18.315657],[122.046837,18.316444],[122.046463,18.31745],[122.046242,18.317812],[122.046638,18.31772],[122.047211,18.31739],[122.047829,18.31724],[122.048462,18.31724],[122.049004,18.31745],[122.049408,18.31785],[122.049721,18.31834],[122.050018,18.31883],[122.050323,18.3193],[122.050697,18.3197],[122.051109,18.320061],[122.051521,18.32041],[122.051918,18.320761],[122.052139,18.32102],[122.052254,18.32115],[122.052521,18.32155],[122.05278,18.321911],[122.053017,18.322281],[122.053162,18.32272],[122.053337,18.323111],[122.053543,18.323429],[122.053703,18.32374],[122.053787,18.32403],[122.053787,18.32431],[122.053703,18.324591],[122.053581,18.32486],[122.053383,18.325109],[122.053177,18.32534],[122.052994,18.3256],[122.052788,18.32584],[122.052551,18.32616],[122.052307,18.326571],[122.052078,18.32703],[122.05204,18.3274],[122.052017,18.32757],[122.052238,18.328159],[122.052582,18.32872],[122.053062,18.32914],[122.053619,18.32946],[122.054199,18.329741],[122.054733,18.32991],[122.05481,18.329941],[122.055473,18.33],[122.056122,18.33007],[122.056709,18.33029],[122.057259,18.330549],[122.0578,18.33083],[122.058327,18.331091],[122.05883,18.331341],[122.059303,18.331579],[122.059769,18.33177],[122.060257,18.332001],[122.060341,18.332069],[122.060722,18.33242],[122.062401,18.333509],[122.06263,18.333561],[122.062897,18.3337],[122.063187,18.333891],[122.063454,18.334101],[122.063492,18.334129],[122.063751,18.334391],[122.063759,18.334629],[122.063759,18.334841],[122.063629,18.335779],[122.06356,18.336294]]]]}},{"type":"Feature","properties":{"ID_0":177,"ISO":"PHL","NAME_0":"Philippines","ID_1":2015,"NAME_1":"Cagayan","ID_2":201514,"NAME_2":"Gonzaga","ID_3":201514002,"NAME_3":"Batangan","NL_NAME_3":null,"VARNAME_3":null,"TYPE_3":"Barangay","ENGTYPE_3":"Village","PROVINCE":"Cagayan","REGION":"Region II (Cagayan Valley)","id":"barangay-0201514002","name":"Batangan","barangayCode":"0201514002","population":null,"formattedPop":null,"densityCategory":"No data","vulnerabilityRating":"No data","healthRiskLevel":"No data","areaKm2":1.320592,"centerLat":18.287284,"centerLng":122.008508,"geometrySource":"all_barangay-2.csv detailed WKT","geometryMatchMethod":"unique_official_admin_names","boundaryPointCount":81},"geometry":{"type":"MultiPolygon","coordinates":[[[[122.02327,18.296602],[122.023277,18.296362],[122.023468,18.295919],[122.023827,18.295433],[122.0243,18.294712],[122.02449,18.293814],[122.024895,18.293392],[122.024765,18.29314],[122.025085,18.292906],[122.024155,18.292328],[121.999443,18.276953],[121.996307,18.284189],[121.997017,18.2845],[121.998512,18.2845],[121.999153,18.28437],[122.0,18.28417],[122.001389,18.284439],[122.001663,18.284719],[122.00222,18.284719],[122.002777,18.28528],[122.003326,18.28528],[122.003609,18.285],[122.004448,18.285],[122.004723,18.28528],[122.004997,18.28528],[122.00528,18.285561],[122.005577,18.285601],[122.005966,18.285801],[122.006378,18.28599],[122.006783,18.2862],[122.00721,18.28636],[122.007637,18.28647],[122.008034,18.28665],[122.008423,18.2868],[122.008888,18.286779],[122.009323,18.286909],[122.009727,18.28706],[122.010117,18.287239],[122.010513,18.28747],[122.01091,18.28767],[122.011307,18.28784],[122.011597,18.28808],[122.011772,18.288401],[122.011879,18.288811],[122.011971,18.28927],[122.0121,18.289789],[122.012154,18.28986],[122.012459,18.290239],[122.012772,18.290581],[122.012978,18.290819],[122.013138,18.291031],[122.013298,18.291229],[122.013428,18.291479],[122.013542,18.29179],[122.013527,18.29192],[122.013527,18.2922],[122.013573,18.29262],[122.013779,18.292971],[122.014053,18.29327],[122.014374,18.29353],[122.01474,18.29376],[122.015129,18.29398],[122.015602,18.29417],[122.015732,18.29421],[122.016121,18.29434],[122.016777,18.29442],[122.017471,18.294519],[122.018089,18.294729],[122.018677,18.29496],[122.019157,18.295],[122.019447,18.29528],[122.020279,18.29528],[122.020554,18.295561],[122.020844,18.295561],[122.021111,18.29583],[122.021393,18.29583],[122.021667,18.29611],[122.022499,18.29611],[122.022781,18.296391],[122.023064,18.296391],[122.02327,18.296602]]]]}},{"type":"Feature","properties":{"ID_0":177,"ISO":"PHL","NAME_0":"Philippines","ID_1":2015,"NAME_1":"Cagayan","ID_2":201514,"NAME_2":"Gonzaga","ID_3":201514003,"NAME_3":"Baua","NL_NAME_3":null,"VARNAME_3":null,"TYPE_3":"Barangay","ENGTYPE_3":"Village","PROVINCE":"Cagayan","REGION":"Region II (Cagayan Valley)","id":"barangay-0201514003","name":"Baua","barangayCode":"0201514003","population":null,"formattedPop":null,"densityCategory":"No data","vulnerabilityRating":"No data","healthRiskLevel":"No data","areaKm2":3.697023,"centerLat":18.3506,"centerLng":122.090594,"geometrySource":"all_barangay-2.csv detailed WKT","geometryMatchMethod":"unique_official_admin_names","boundaryPointCount":75},"geometry":{"type":"MultiPolygon","coordinates":[[[[122.078873,18.34865],[122.079163,18.34881],[122.079491,18.34889],[122.079842,18.34898],[122.080177,18.34918],[122.080528,18.34947],[122.080833,18.349859],[122.081131,18.350281],[122.081444,18.350651],[122.081757,18.35095],[122.081947,18.35128],[122.08181,18.351789],[122.081787,18.35227],[122.081993,18.35268],[122.082253,18.353109],[122.082443,18.353609],[122.08239,18.35413],[122.082268,18.35467],[122.082283,18.35523],[122.082222,18.35528],[122.082222,18.35585],[122.082222,18.35639],[122.083054,18.35722],[122.083054,18.3575],[122.082779,18.35778],[122.083168,18.358351],[122.083809,18.358761],[122.084442,18.358891],[122.084999,18.358891],[122.085281,18.35861],[122.085564,18.35861],[122.085831,18.35833],[122.085831,18.358061],[122.086937,18.356951],[122.087219,18.356951],[122.08815,18.35672],[122.089996,18.355829],[122.090553,18.35639],[122.091499,18.356834],[122.09214,18.356544],[122.093277,18.355116],[122.093834,18.354532],[122.095299,18.353548],[122.096413,18.352966],[122.097389,18.352161],[122.099113,18.351198],[122.101349,18.351328],[122.100525,18.350281],[122.101082,18.349501],[122.101822,18.34823],[122.102104,18.347778],[122.100021,18.346266],[122.099533,18.345753],[122.098686,18.344908],[122.097237,18.343704],[122.094978,18.342171],[122.093376,18.341034],[122.091927,18.340145],[122.089287,18.338774],[122.086281,18.337282],[122.081741,18.335032],[122.08094,18.33655],[122.080544,18.338516],[122.080063,18.339922],[122.07914,18.340235],[122.078674,18.340393],[122.0784,18.341173],[122.078842,18.341799],[122.079758,18.343025],[122.080429,18.34561],[122.08036,18.346235],[122.079941,18.347107],[122.079552,18.34782],[122.079018,18.348515],[122.078873,18.34865]]]]}},{"type":"Feature","properties":{"ID_0":177,"ISO":"PHL","NAME_0":"Philippines","ID_1":2015,"NAME_1":"Cagayan","ID_2":201514,"NAME_2":"Gonzaga","ID_3":201514004,"NAME_3":"Cabanbanan Norte","NL_NAME_3":null,"VARNAME_3":null,"TYPE_3":"Barangay","ENGTYPE_3":"Village","PROVINCE":"Cagayan","REGION":"Region II (Cagayan Valley)","id":"barangay-0201514004","name":"Cabanbanan Norte","barangayCode":"0201514004","population":null,"formattedPop":null,"densityCategory":"No data","vulnerabilityRating":"No data","healthRiskLevel":"No data","areaKm2":3.515081,"centerLat":18.257129,"centerLng":121.953394,"geometrySource":"all_barangay-2.csv detailed WKT","geometryMatchMethod":"unique_official_admin_names","boundaryPointCount":43},"geometry":{"type":"MultiPolygon","coordinates":[[[[121.944603,18.26602],[121.952873,18.260378],[121.951668,18.257299],[121.950882,18.255924],[121.950089,18.256807],[121.949707,18.257044],[121.949226,18.257002],[121.948929,18.256475],[121.948662,18.256132],[121.947746,18.255819],[121.947403,18.255753],[121.946846,18.25539],[121.945396,18.25499],[121.944435,18.255022],[121.944077,18.254889],[121.943611,18.254915],[121.943253,18.25499],[121.942787,18.254694],[121.942184,18.254633],[121.941689,18.254797],[121.941559,18.254383],[121.941261,18.25395],[121.941025,18.253881],[121.940567,18.254002],[121.940201,18.25396],[121.939995,18.254494],[121.939804,18.254911],[121.939178,18.255033],[121.938797,18.255152],[121.93837,18.255548],[121.937759,18.255808],[121.937546,18.256018],[121.93721,18.256044],[121.93692,18.255957],[121.936607,18.25605],[121.936348,18.256285],[121.936028,18.256195],[121.935448,18.254894],[121.93409,18.256638],[121.933197,18.257816],[121.932289,18.258785],[121.931854,18.259443],[121.944603,18.26602]]]]}},{"type":"Feature","properties":{"ID_0":177,"ISO":"PHL","NAME_0":"Philippines","ID_1":2015,"NAME_1":"Cagayan","ID_2":201514,"NAME_2":"Gonzaga","ID_3":201514005,"NAME_3":"Cabanbanan Sur","NL_NAME_3":null,"VARNAME_3":null,"TYPE_3":"Barangay","ENGTYPE_3":"Village","PROVINCE":"Cagayan","REGION":"Region II (Cagayan Valley)","id":"barangay-0201514005","name":"Cabanbanan Sur","barangayCode":"0201514005","population":null,"formattedPop":null,"densityCategory":"No data","vulnerabilityRating":"No data","healthRiskLevel":"No data","areaKm2":0.92029,"centerLat":18.246745,"centerLng":121.943337,"geometrySource":"all_barangay-2.csv detailed WKT","geometryMatchMethod":"unique_official_admin_names","boundaryPointCount":79},"geometry":{"type":"MultiPolygon","coordinates":[[[[121.935448,18.254894],[121.936028,18.256195],[121.936348,18.256285],[121.936607,18.25605],[121.93692,18.255957],[121.93721,18.256044],[121.937546,18.256018],[121.937759,18.255808],[121.93837,18.255548],[121.938797,18.255152],[121.939178,18.255033],[121.939804,18.254911],[121.939995,18.254494],[121.940201,18.25396],[121.940567,18.254002],[121.941025,18.253881],[121.941261,18.25395],[121.941559,18.254383],[121.941689,18.254797],[121.942184,18.254633],[121.942787,18.254694],[121.943253,18.25499],[121.943611,18.254915],[121.944077,18.254889],[121.944435,18.255022],[121.945396,18.25499],[121.946846,18.25539],[121.947403,18.255753],[121.947746,18.255819],[121.948662,18.256132],[121.948929,18.256475],[121.949226,18.257002],[121.949707,18.257044],[121.950089,18.256807],[121.950882,18.255924],[121.950752,18.255026],[121.950943,18.254379],[121.950859,18.25378],[121.952042,18.251471],[121.952324,18.250565],[121.9524,18.249844],[121.952873,18.247852],[121.953079,18.245771],[121.952362,18.244343],[121.951752,18.244209],[121.951157,18.244011],[121.95118,18.243641],[121.951439,18.243389],[121.951424,18.242821],[121.950851,18.242279],[121.94989,18.24159],[121.949226,18.24119],[121.948387,18.241329],[121.948013,18.242041],[121.947823,18.242451],[121.94767,18.243019],[121.947357,18.24332],[121.946983,18.243389],[121.946281,18.24349],[121.945236,18.243429],[121.94487,18.24334],[121.944603,18.24325],[121.944374,18.24325],[121.943237,18.24486],[121.942139,18.24641],[121.94146,18.247421],[121.94091,18.247761],[121.940292,18.247341],[121.939346,18.246523],[121.938591,18.246431],[121.937828,18.246548],[121.936974,18.247103],[121.936852,18.248852],[121.936905,18.249565],[121.936279,18.250341],[121.93605,18.251268],[121.936455,18.251616],[121.9366,18.253616],[121.935448,18.254894]]]]}},{"type":"Feature","properties":{"ID_0":177,"ISO":"PHL","NAME_0":"Philippines","ID_1":2015,"NAME_1":"Cagayan","ID_2":201514,"NAME_2":"Gonzaga","ID_3":201514006,"NAME_3":"Cabiraoan","NL_NAME_3":null,"VARNAME_3":null,"TYPE_3":"Barangay","ENGTYPE_3":"Village","PROVINCE":"Cagayan","REGION":"Region II (Cagayan Valley)","id":"barangay-0201514006","name":"Cabiraoan","barangayCode":"0201514006","population":null,"formattedPop":null,"densityCategory":"No data","vulnerabilityRating":"No data","healthRiskLevel":"No data","areaKm2":119.277622,"centerLat":18.237608,"centerLng":122.170601,"geometrySource":"all_barangay-2.csv detailed WKT","geometryMatchMethod":"unique_official_admin_names","boundaryPointCount":42},"geometry":{"type":"MultiPolygon","coordinates":[[[[122.088043,18.328794],[122.112099,18.318016],[122.119484,18.314257],[122.13176,18.306177],[122.148285,18.294409],[122.264893,18.174309],[122.264771,18.17421],[122.264343,18.17366],[122.263977,18.17312],[122.263702,18.172779],[122.263977,18.17244],[122.264168,18.172171],[122.264343,18.171761],[122.264297,18.171261],[122.264137,18.17074],[122.263893,18.170271],[122.263672,18.16992],[122.263634,18.169849],[122.263428,18.169451],[122.263321,18.16922],[122.174911,18.17893],[122.173607,18.179043],[122.158226,18.205864],[122.146194,18.230696],[122.127556,18.263437],[122.111412,18.280186],[122.079796,18.31435],[122.079819,18.314732],[122.079918,18.315153],[122.079185,18.315668],[122.079262,18.316273],[122.079742,18.316784],[122.079819,18.317228],[122.079552,18.317945],[122.078743,18.318148],[122.077751,18.318439],[122.077553,18.319107],[122.076805,18.319489],[122.076286,18.320068],[122.076164,18.320673],[122.076141,18.321053],[122.088043,18.328794]]]]}},{"type":"Feature","properties":{"ID_0":177,"ISO":"PHL","NAME_0":"Philippines","ID_1":2015,"NAME_1":"Cagayan","ID_2":201514,"NAME_2":"Gonzaga","ID_3":201514007,"NAME_3":"Callao","NL_NAME_3":null,"VARNAME_3":null,"TYPE_3":"Barangay","ENGTYPE_3":"Village","PROVINCE":"Cagayan","REGION":"Region II (Cagayan Valley)","id":"barangay-0201514007","name":"Callao","barangayCode":"0201514007","population":null,"formattedPop":null,"densityCategory":"No data","vulnerabilityRating":"No data","healthRiskLevel":"No data","areaKm2":4.293931,"centerLat":18.271365,"centerLng":121.977665,"geometrySource":"all_barangay-2.csv detailed WKT","geometryMatchMethod":"unique_official_admin_names","boundaryPointCount":96},"geometry":{"type":"MultiPolygon","coordinates":[[[[121.943489,18.270155],[121.943817,18.27034],[121.944099,18.270479],[121.944672,18.270889],[121.944969,18.27096],[121.945236,18.271021],[121.945518,18.27116],[121.945953,18.271839],[121.946022,18.27198],[121.946228,18.272381],[121.94651,18.27265],[121.950058,18.27265],[121.950409,18.272579],[121.950546,18.272551],[121.951218,18.27248],[121.951973,18.27248],[121.952667,18.272409],[121.95327,18.2724],[121.953781,18.27243],[121.954277,18.272551],[121.954803,18.27289],[121.95639,18.27272],[121.958237,18.273001],[121.959511,18.273001],[121.961067,18.27327],[121.962067,18.27327],[121.963097,18.273569],[121.964157,18.273911],[121.964638,18.27463],[121.964867,18.275],[121.96566,18.27561],[121.966293,18.276291],[121.967079,18.2771],[121.967216,18.27717],[121.967644,18.277439],[121.96801,18.27755],[121.968353,18.277651],[121.969627,18.27771],[121.970482,18.277849],[121.971397,18.278049],[121.972054,18.278049],[121.973183,18.278259],[121.974167,18.278391],[121.97538,18.278601],[121.976158,18.27866],[121.97715,18.27907],[121.977943,18.279341],[121.978569,18.279551],[121.978783,18.279751],[121.978996,18.279961],[121.979279,18.280161],[121.979568,18.28043],[121.980057,18.281179],[121.980202,18.28145],[121.980698,18.28179],[121.981552,18.282129],[121.982758,18.282129],[121.983292,18.282112],[121.983429,18.281408],[121.983253,18.281042],[121.9832,18.28079],[121.9832,18.280466],[121.983292,18.280281],[121.983505,18.280231],[121.983849,18.280737],[121.983994,18.280827],[121.984093,18.280619],[121.983963,18.27986],[121.983856,18.279007],[121.983841,18.278517],[121.983826,18.277439],[121.984024,18.275309],[121.984062,18.27467],[121.984169,18.273539],[121.98436,18.272776],[121.984589,18.271643],[121.984848,18.270926],[121.985107,18.270277],[121.985275,18.269697],[121.985481,18.269005],[121.985641,18.267874],[121.985939,18.266718],[121.985832,18.265518],[121.985825,18.264412],[121.985703,18.26446],[121.985191,18.264189],[121.984924,18.263638],[121.98465,18.26235],[121.984695,18.261679],[121.984901,18.260801],[121.976334,18.260565],[121.96714,18.260469],[121.959793,18.260422],[121.952873,18.260378],[121.944603,18.26602],[121.943489,18.270155]]]]}},{"type":"Feature","properties":{"ID_0":177,"ISO":"PHL","NAME_0":"Philippines","ID_1":2015,"NAME_1":"Cagayan","ID_2":201514,"NAME_2":"Gonzaga","ID_3":201514008,"NAME_3":"Calayan","NL_NAME_3":null,"VARNAME_3":null,"TYPE_3":"Barangay","ENGTYPE_3":"Village","PROVINCE":"Cagayan","REGION":"Region II (Cagayan Valley)","id":"barangay-0201514008","name":"Calayan","barangayCode":"0201514008","population":null,"formattedPop":null,"densityCategory":"No data","vulnerabilityRating":"No data","healthRiskLevel":"No data","areaKm2":4.968463,"centerLat":18.279156,"centerLng":122.011874,"geometrySource":"all_barangay-2.csv detailed WKT","geometryMatchMethod":"unique_official_admin_names","boundaryPointCount":28},"geometry":{"type":"MultiPolygon","coordinates":[[[[122.030731,18.280672],[122.030045,18.280008],[122.003571,18.263973],[122.002296,18.267977],[122.002052,18.268465],[122.001076,18.271311],[121.999443,18.276953],[122.024155,18.292328],[122.025085,18.292906],[122.02549,18.292604],[122.025002,18.291431],[122.024483,18.290052],[122.024445,18.288626],[122.024887,18.287535],[122.026001,18.288008],[122.026459,18.288443],[122.027115,18.287834],[122.027435,18.286957],[122.02774,18.285868],[122.027634,18.285154],[122.026863,18.284149],[122.026535,18.283136],[122.026939,18.282972],[122.02803,18.282776],[122.028656,18.282272],[122.02932,18.281725],[122.029648,18.28112],[122.030731,18.280672]]]]}},{"type":"Feature","properties":{"ID_0":177,"ISO":"PHL","NAME_0":"Philippines","ID_1":2015,"NAME_1":"Cagayan","ID_2":201514,"NAME_2":"Gonzaga","ID_3":201514009,"NAME_3":"Caroan","NL_NAME_3":null,"VARNAME_3":null,"TYPE_3":"Barangay","ENGTYPE_3":"Village","PROVINCE":"Cagayan","REGION":"Region II (Cagayan Valley)","id":"barangay-0201514009","name":"Caroan","barangayCode":"0201514009","population":null,"formattedPop":null,"densityCategory":"No data","vulnerabilityRating":"No data","healthRiskLevel":"No data","areaKm2":0.774525,"centerLat":18.268171,"centerLng":121.911063,"geometrySource":"all_barangay-2.csv detailed WKT","geometryMatchMethod":"unique_official_admin_names","boundaryPointCount":54},"geometry":{"type":"MultiPolygon","coordinates":[[[[121.903877,18.268141],[121.904121,18.26844],[121.904312,18.26873],[121.904572,18.26897],[121.904922,18.269171],[121.905319,18.26935],[121.905807,18.269461],[121.906303,18.2696],[121.906891,18.26972],[121.907539,18.269871],[121.908287,18.26993],[121.90905,18.269951],[121.909821,18.269939],[121.910606,18.269899],[121.9114,18.26989],[121.91214,18.26976],[121.912804,18.269569],[121.913406,18.269409],[121.913971,18.269239],[121.91452,18.269199],[121.915047,18.269251],[121.916344,18.269251],[121.918037,18.269251],[121.919319,18.26911],[121.921028,18.268841],[121.923286,18.26803],[121.924858,18.26803],[121.926697,18.267759],[121.927979,18.267759],[121.928398,18.267712],[121.928177,18.267143],[121.927368,18.265051],[121.926598,18.265711],[121.92585,18.266701],[121.925209,18.267269],[121.924332,18.26741],[121.921669,18.26688],[121.919899,18.266729],[121.918831,18.26667],[121.918007,18.26684],[121.917213,18.267071],[121.916656,18.267281],[121.915894,18.26758],[121.914619,18.267929],[121.912247,18.26815],[121.910431,18.26837],[121.909027,18.26799],[121.907944,18.267981],[121.906853,18.268061],[121.9058,18.26779],[121.905159,18.267851],[121.904533,18.26762],[121.904114,18.26766],[121.903877,18.268141]]]]}},{"type":"Feature","properties":{"ID_0":177,"ISO":"PHL","NAME_0":"Philippines","ID_1":2015,"NAME_1":"Cagayan","ID_2":201514,"NAME_2":"Gonzaga","ID_3":201514010,"NAME_3":"Casitan","NL_NAME_3":null,"VARNAME_3":null,"TYPE_3":"Barangay","ENGTYPE_3":"Village","PROVINCE":"Cagayan","REGION":"Region II (Cagayan Valley)","id":"barangay-0201514010","name":"Casitan","barangayCode":"0201514010","population":null,"formattedPop":null,"densityCategory":"No data","vulnerabilityRating":"No data","healthRiskLevel":"No data","areaKm2":4.642621,"centerLat":18.264781,"centerLng":121.94656,"geometrySource":"all_barangay-2.csv detailed WKT","geometryMatchMethod":"unique_official_admin_names","boundaryPointCount":28},"geometry":{"type":"MultiPolygon","coordinates":[[[[121.928398,18.267712],[121.930389,18.267481],[121.931808,18.267349],[121.933647,18.26708],[121.939331,18.26708],[121.941307,18.267349],[121.941689,18.26844],[121.941689,18.268841],[121.941833,18.26899],[121.942253,18.26939],[121.943108,18.269939],[121.943489,18.270155],[121.944603,18.26602],[121.931854,18.259443],[121.930916,18.259016],[121.930534,18.259226],[121.930443,18.259666],[121.929733,18.25943],[121.92907,18.26005],[121.928864,18.26021],[121.928413,18.26079],[121.928413,18.261789],[121.928711,18.263321],[121.928467,18.264099],[121.927589,18.26486],[121.927368,18.265051],[121.928177,18.267143],[121.928398,18.267712]]]]}},{"type":"Feature","properties":{"ID_0":177,"ISO":"PHL","NAME_0":"Philippines","ID_1":2015,"NAME_1":"Cagayan","ID_2":201514,"NAME_2":"Gonzaga","ID_3":201514011,"NAME_3":"Flourishing","NL_NAME_3":null,"VARNAME_3":null,"TYPE_3":"Barangay","ENGTYPE_3":"Village","PROVINCE":"Cagayan","REGION":"Region II (Cagayan Valley)","id":"barangay-0201514011","name":"Flourishing","barangayCode":"0201514011","population":null,"formattedPop":null,"densityCategory":"No data","vulnerabilityRating":"No data","healthRiskLevel":"No data","areaKm2":2.954339,"centerLat":18.249386,"centerLng":121.997992,"geometrySource":"all_barangay-2.csv detailed WKT","geometryMatchMethod":"unique_official_admin_names","boundaryPointCount":30},"geometry":{"type":"MultiPolygon","coordinates":[[[[121.988457,18.256105],[121.994705,18.257965],[121.995819,18.258434],[121.997437,18.258827],[122.003571,18.263973],[122.007118,18.252886],[122.009872,18.242266],[122.008675,18.242334],[122.007492,18.242298],[122.006355,18.242035],[122.005249,18.24147],[122.004059,18.240908],[122.002899,18.240458],[122.001183,18.240223],[121.999252,18.240196],[121.997955,18.240509],[121.995842,18.241316],[121.993469,18.242584],[121.991982,18.243916],[121.991386,18.244938],[121.991081,18.246048],[121.99057,18.247829],[121.989906,18.24901],[121.9897,18.249981],[121.989586,18.251091],[121.989326,18.251991],[121.988541,18.252947],[121.988312,18.254009],[121.988464,18.25523],[121.988457,18.256105]]]]}},{"type":"Feature","properties":{"ID_0":177,"ISO":"PHL","NAME_0":"Philippines","ID_1":2015,"NAME_1":"Cagayan","ID_2":201514,"NAME_2":"Gonzaga","ID_3":201514012,"NAME_3":"Ipil","NL_NAME_3":null,"VARNAME_3":null,"TYPE_3":"Barangay","ENGTYPE_3":"Village","PROVINCE":"Cagayan","REGION":"Region II (Cagayan Valley)","id":"barangay-0201514012","name":"Ipil","barangayCode":"0201514012","population":null,"formattedPop":null,"densityCategory":"No data","vulnerabilityRating":"No data","healthRiskLevel":"No data","areaKm2":7.609162,"centerLat":18.305428,"centerLng":122.058608,"geometrySource":"all_barangay-2.csv detailed WKT","geometryMatchMethod":"unique_official_admin_names","boundaryPointCount":64},"geometry":{"type":"MultiPolygon","coordinates":[[[[122.032883,18.310497],[122.033119,18.31052],[122.033279,18.31053],[122.03389,18.31056],[122.034157,18.31056],[122.035004,18.31139],[122.035004,18.31167],[122.035278,18.311951],[122.035553,18.311951],[122.03611,18.3125],[122.036392,18.3125],[122.036667,18.31278],[122.036942,18.31278],[122.037781,18.31361],[122.038612,18.31361],[122.039719,18.31472],[122.039711,18.31485],[122.040001,18.315491],[122.040466,18.31601],[122.041092,18.31638],[122.041801,18.316641],[122.042603,18.31662],[122.043221,18.317011],[122.043861,18.31708],[122.044456,18.31703],[122.045013,18.31719],[122.045593,18.317419],[122.045914,18.31768],[122.046097,18.317841],[122.046204,18.31782],[122.046242,18.317812],[122.046463,18.31745],[122.046837,18.316444],[122.047821,18.315657],[122.047897,18.315594],[122.049385,18.314964],[122.050041,18.314631],[122.051231,18.314674],[122.052513,18.315294],[122.053459,18.315159],[122.053871,18.315025],[122.054626,18.314913],[122.055595,18.314285],[122.055702,18.313437],[122.056404,18.312342],[122.057999,18.311893],[122.059418,18.311979],[122.060677,18.311977],[122.060707,18.311195],[122.060333,18.310415],[122.060364,18.309992],[122.060654,18.309612],[122.061317,18.308987],[122.062019,18.308382],[122.062431,18.3078],[122.063011,18.30809],[122.063622,18.30858],[122.064247,18.308155],[122.064766,18.307486],[122.065369,18.306814],[122.065636,18.306479],[122.061562,18.304144],[122.049942,18.293154],[122.032883,18.310497]]]]}},{"type":"Feature","properties":{"ID_0":177,"ISO":"PHL","NAME_0":"Philippines","ID_1":2015,"NAME_1":"Cagayan","ID_2":201514,"NAME_2":"Gonzaga","ID_3":201514013,"NAME_3":"Isca","NL_NAME_3":null,"VARNAME_3":null,"TYPE_3":"Barangay","ENGTYPE_3":"Village","PROVINCE":"Cagayan","REGION":"Region II (Cagayan Valley)","id":"barangay-0201514013","name":"Isca","barangayCode":"0201514013","population":null,"formattedPop":null,"densityCategory":"No data","vulnerabilityRating":"No data","healthRiskLevel":"No data","areaKm2":16.884759,"centerLat":18.21229,"centerLng":121.984557,"geometrySource":"all_barangay-2.csv detailed WKT","geometryMatchMethod":"unique_official_admin_names","boundaryPointCount":42},"geometry":{"type":"MultiPolygon","coordinates":[[[[121.971153,18.24704],[121.97477,18.250874],[121.977882,18.255251],[122.004433,18.19858],[121.973587,18.203541],[121.972809,18.21283],[121.973557,18.21365],[121.973412,18.21484],[121.97274,18.21587],[121.972656,18.2174],[121.972771,18.21884],[121.973137,18.22014],[121.973701,18.22126],[121.975128,18.222691],[121.97541,18.22422],[121.974854,18.224819],[121.974167,18.225901],[121.974297,18.227791],[121.97451,18.22925],[121.974297,18.23037],[121.973587,18.23197],[121.972717,18.233509],[121.972588,18.23472],[121.972603,18.23575],[121.972054,18.236179],[121.971313,18.235821],[121.970093,18.235161],[121.96888,18.234461],[121.968086,18.23385],[121.967751,18.233669],[121.966789,18.234221],[121.966187,18.235319],[121.965378,18.23646],[121.965584,18.237579],[121.966438,18.23863],[121.967651,18.23983],[121.968132,18.241199],[121.967346,18.241091],[121.966469,18.24045],[121.964432,18.239889],[121.965172,18.240543],[121.971153,18.24704]]]]}},{"type":"Feature","properties":{"ID_0":177,"ISO":"PHL","NAME_0":"Philippines","ID_1":2015,"NAME_1":"Cagayan","ID_2":201514,"NAME_2":"Gonzaga","ID_3":201514014,"NAME_3":"Magrafil","NL_NAME_3":null,"VARNAME_3":null,"TYPE_3":"Barangay","ENGTYPE_3":"Village","PROVINCE":"Cagayan","REGION":"Region II (Cagayan Valley)","id":"barangay-0201514014","name":"Magrafil","barangayCode":"0201514014","population":null,"formattedPop":null,"densityCategory":"No data","vulnerabilityRating":"No data","healthRiskLevel":"No data","areaKm2":64.936157,"centerLat":18.232125,"centerLng":122.119294,"geometrySource":"all_barangay-2.csv detailed WKT","geometryMatchMethod":"unique_official_admin_names","boundaryPointCount":115},"geometry":{"type":"MultiPolygon","coordinates":[[[[122.065636,18.306479],[122.10025,18.263863],[122.13295,18.224018],[122.158997,18.180353],[122.113167,18.185551],[122.112717,18.18561],[122.108559,18.210754],[122.108131,18.212107],[122.106552,18.216169],[122.104927,18.221249],[122.103889,18.224583],[122.102463,18.228987],[122.101547,18.231461],[122.100861,18.233051],[122.099327,18.234591],[122.097755,18.235556],[122.096901,18.236547],[122.096329,18.237858],[122.096565,18.23859],[122.096313,18.239428],[122.09626,18.240103],[122.096039,18.24221],[122.095291,18.243362],[122.094391,18.244078],[122.093819,18.2446],[122.093102,18.244688],[122.093033,18.245245],[122.092163,18.246447],[122.091095,18.247028],[122.089554,18.24762],[122.088844,18.248169],[122.087578,18.248941],[122.087006,18.249348],[122.086662,18.250074],[122.085846,18.251619],[122.084435,18.253227],[122.083786,18.254585],[122.083488,18.2551],[122.081757,18.258207],[122.080811,18.261044],[122.080177,18.262094],[122.079788,18.263121],[122.078979,18.264954],[122.077789,18.265533],[122.076622,18.266361],[122.075958,18.267145],[122.075577,18.268284],[122.075401,18.269423],[122.074837,18.270069],[122.072189,18.272104],[122.072456,18.274359],[122.072281,18.275431],[122.071312,18.2761],[122.070366,18.276817],[122.06971,18.277866],[122.069138,18.278872],[122.0681,18.279409],[122.067299,18.279768],[122.065674,18.279436],[122.064751,18.279037],[122.064285,18.279348],[122.064117,18.27984],[122.062996,18.280289],[122.061836,18.279598],[122.061447,18.279556],[122.060966,18.279779],[122.060745,18.279938],[122.060158,18.279915],[122.059608,18.28014],[122.059181,18.280474],[122.058746,18.280409],[122.058167,18.280411],[122.05761,18.280767],[122.056984,18.280903],[122.056107,18.280951],[122.054916,18.281712],[122.05426,18.282869],[122.053665,18.284166],[122.053009,18.284838],[122.052261,18.284458],[122.051003,18.284285],[122.050591,18.283995],[122.049355,18.282904],[122.048386,18.28257],[122.047676,18.282372],[122.046562,18.281881],[122.046051,18.28126],[122.04567,18.280499],[122.04528,18.279964],[122.04351,18.27807],[122.043182,18.278143],[122.042534,18.278519],[122.041878,18.278687],[122.041656,18.27809],[122.041794,18.277233],[122.041245,18.277033],[122.040321,18.277136],[122.039116,18.277287],[122.0383,18.277134],[122.037819,18.278107],[122.038002,18.278587],[122.038086,18.278662],[122.038284,18.278839],[122.038681,18.279343],[122.038635,18.279596],[122.038467,18.280062],[122.038277,18.280176],[122.037865,18.279928],[122.037544,18.279631],[122.037193,18.27968],[122.037064,18.279888],[122.036926,18.280329],[122.049942,18.293154],[122.061562,18.304144],[122.065636,18.306479]]]]}},{"type":"Feature","properties":{"ID_0":177,"ISO":"PHL","NAME_0":"Philippines","ID_1":2015,"NAME_1":"Cagayan","ID_2":201514,"NAME_2":"Gonzaga","ID_3":201514015,"NAME_3":"Minanga","NL_NAME_3":null,"VARNAME_3":null,"TYPE_3":"Barangay","ENGTYPE_3":"Village","PROVINCE":"Cagayan","REGION":"Region II (Cagayan Valley)","id":"barangay-0201514015","name":"Minanga","barangayCode":"0201514015","population":null,"formattedPop":null,"densityCategory":"No data","vulnerabilityRating":"No data","healthRiskLevel":"No data","areaKm2":0.30966,"centerLat":18.281542,"centerLng":121.988118,"geometrySource":"all_barangay-2.csv detailed WKT","geometryMatchMethod":"unique_official_admin_names","boundaryPointCount":41},"geometry":{"type":"MultiPolygon","coordinates":[[[[121.983292,18.282112],[121.984818,18.282061],[121.987083,18.28253],[121.988289,18.28281],[121.989067,18.28315],[121.990784,18.28315],[121.991631,18.283211],[121.992264,18.28335],[121.992477,18.283421],[121.993469,18.283421],[121.994247,18.283621],[121.994888,18.28376],[121.995598,18.284031],[121.996239,18.284161],[121.996307,18.284189],[121.999443,18.276953],[122.001076,18.271311],[121.985641,18.267874],[121.985481,18.269005],[121.985275,18.269697],[121.985107,18.270277],[121.984848,18.270926],[121.984589,18.271643],[121.98436,18.272776],[121.984169,18.273539],[121.984062,18.27467],[121.984024,18.275309],[121.983826,18.277439],[121.983841,18.278517],[121.983856,18.279007],[121.983963,18.27986],[121.984093,18.280619],[121.983994,18.280827],[121.983849,18.280737],[121.983505,18.280231],[121.983292,18.280281],[121.9832,18.280466],[121.9832,18.28079],[121.983253,18.281042],[121.983429,18.281408],[121.983292,18.282112]]]]}},{"type":"Feature","properties":{"ID_0":177,"ISO":"PHL","NAME_0":"Philippines","ID_1":2015,"NAME_1":"Cagayan","ID_2":201514,"NAME_2":"Gonzaga","ID_3":201514016,"NAME_3":"Rebecca","NL_NAME_3":null,"VARNAME_3":null,"TYPE_3":"Barangay","ENGTYPE_3":"Village","PROVINCE":"Cagayan","REGION":"Region II (Cagayan Valley)","id":"barangay-0201514016","name":"Rebecca","barangayCode":"0201514016","population":null,"formattedPop":null,"densityCategory":"No data","vulnerabilityRating":"No data","healthRiskLevel":"No data","areaKm2":2.992869,"centerLat":18.246778,"centerLng":121.960288,"geometrySource":"all_barangay-2.csv detailed WKT","geometryMatchMethod":"unique_official_admin_names","boundaryPointCount":33},"geometry":{"type":"MultiPolygon","coordinates":[[[[121.950882,18.255924],[121.951668,18.257299],[121.961929,18.251816],[121.971153,18.24704],[121.965172,18.240543],[121.964432,18.239889],[121.964203,18.23991],[121.964027,18.23992],[121.963287,18.240431],[121.962723,18.24095],[121.961227,18.24201],[121.960747,18.242041],[121.960114,18.24193],[121.959312,18.241819],[121.958351,18.24198],[121.957619,18.242849],[121.95694,18.24354],[121.95636,18.2435],[121.955383,18.24305],[121.95472,18.24287],[121.954071,18.24296],[121.95295,18.243561],[121.951752,18.244209],[121.952362,18.244343],[121.953079,18.245771],[121.952873,18.247852],[121.9524,18.249844],[121.952324,18.250565],[121.952042,18.251471],[121.950859,18.25378],[121.950943,18.254379],[121.950752,18.255026],[121.950882,18.255924]]]]}},{"type":"Feature","properties":{"ID_0":177,"ISO":"PHL","NAME_0":"Philippines","ID_1":2015,"NAME_1":"Cagayan","ID_2":201514,"NAME_2":"Gonzaga","ID_3":201514017,"NAME_3":"Paradise","NL_NAME_3":null,"VARNAME_3":null,"TYPE_3":"Barangay","ENGTYPE_3":"Village","PROVINCE":"Cagayan","REGION":"Region II (Cagayan Valley)","id":"barangay-0201514017","name":"Paradise","barangayCode":"0201514017","population":null,"formattedPop":null,"densityCategory":"No data","vulnerabilityRating":"No data","healthRiskLevel":"No data","areaKm2":0.365597,"centerLat":18.262872,"centerLng":121.995806,"geometrySource":"all_barangay-2.csv detailed WKT","geometryMatchMethod":"unique_official_admin_names","boundaryPointCount":18},"geometry":{"type":"MultiPolygon","coordinates":[[[[122.002296,18.267977],[121.99968,18.263802],[121.996399,18.261795],[121.994591,18.260759],[121.993713,18.260124],[121.989243,18.257511],[121.988281,18.257362],[121.988052,18.257158],[121.987656,18.258444],[121.987206,18.259579],[121.986778,18.260874],[121.991447,18.261887],[121.99279,18.262699],[121.993752,18.262938],[121.99511,18.263565],[121.995697,18.26425],[122.002052,18.268465],[122.002296,18.267977]]]]}},{"type":"Feature","properties":{"ID_0":177,"ISO":"PHL","NAME_0":"Philippines","ID_1":2015,"NAME_1":"Cagayan","ID_2":201514,"NAME_2":"Gonzaga","ID_3":201514018,"NAME_3":"Pateng","NL_NAME_3":null,"VARNAME_3":null,"TYPE_3":"Barangay","ENGTYPE_3":"Village","PROVINCE":"Cagayan","REGION":"Region II (Cagayan Valley)","id":"barangay-0201514018","name":"Pateng","barangayCode":"0201514018","population":null,"formattedPop":null,"densityCategory":"No data","vulnerabilityRating":"No data","healthRiskLevel":"No data","areaKm2":34.395546,"centerLat":18.214408,"centerLng":122.016124,"geometrySource":"all_barangay-2.csv detailed WKT","geometryMatchMethod":"unique_official_admin_names","boundaryPointCount":81},"geometry":{"type":"MultiPolygon","coordinates":[[[[121.985825,18.264412],[121.986504,18.262169],[121.986778,18.260874],[121.987206,18.259579],[121.987656,18.258444],[121.988052,18.257158],[121.988266,18.256569],[121.988457,18.256105],[121.988464,18.25523],[121.988312,18.254009],[121.988541,18.252947],[121.989326,18.251991],[121.989586,18.251091],[121.9897,18.249981],[121.989906,18.24901],[121.99057,18.247829],[121.991081,18.246048],[121.991386,18.244938],[121.991982,18.243916],[121.993469,18.242584],[121.995842,18.241316],[121.997955,18.240509],[121.999252,18.240196],[122.001183,18.240223],[122.002899,18.240458],[122.004059,18.240908],[122.005249,18.24147],[122.006355,18.242035],[122.007492,18.242298],[122.008675,18.242334],[122.009872,18.242266],[122.014755,18.242315],[122.016632,18.24225],[122.018204,18.242004],[122.020004,18.241638],[122.021248,18.241095],[122.022202,18.239494],[122.022385,18.238432],[122.023239,18.236647],[122.024048,18.235876],[122.025131,18.23522],[122.027084,18.233032],[122.02758,18.231804],[122.027542,18.229589],[122.027237,18.228094],[122.027191,18.225788],[122.027885,18.224813],[122.028549,18.22423],[122.029228,18.223993],[122.030624,18.224001],[122.031754,18.223804],[122.032639,18.223103],[122.033272,18.221621],[122.033485,18.220236],[122.033775,18.21781],[122.034126,18.216515],[122.034233,18.215084],[122.03463,18.213465],[122.035507,18.212051],[122.035355,18.210831],[122.034637,18.208462],[122.034332,18.207197],[122.034462,18.206064],[122.03289,18.195982],[122.004433,18.19858],[121.977882,18.255251],[121.97477,18.250874],[121.971153,18.24704],[121.961929,18.251816],[121.951668,18.257299],[121.952873,18.260378],[121.959793,18.260422],[121.96714,18.260469],[121.976334,18.260565],[121.984901,18.260801],[121.984695,18.261679],[121.98465,18.26235],[121.984924,18.263638],[121.985191,18.264189],[121.985703,18.26446],[121.985825,18.264412]]]]}},{"type":"Feature","properties":{"ID_0":177,"ISO":"PHL","NAME_0":"Philippines","ID_1":2015,"NAME_1":"Cagayan","ID_2":201514,"NAME_2":"Gonzaga","ID_3":201514019,"NAME_3":"Progressive","NL_NAME_3":null,"VARNAME_3":null,"TYPE_3":"Barangay","ENGTYPE_3":"Village","PROVINCE":"Cagayan","REGION":"Region II (Cagayan Valley)","id":"barangay-0201514019","name":"Progressive","barangayCode":"0201514019","population":null,"formattedPop":null,"densityCategory":"No data","vulnerabilityRating":"No data","healthRiskLevel":"No data","areaKm2":2.101327,"centerLat":18.269674,"centerLng":121.992667,"geometrySource":"all_barangay-2.csv detailed WKT","geometryMatchMethod":"unique_official_admin_names","boundaryPointCount":14},"geometry":{"type":"MultiPolygon","coordinates":[[[[122.002052,18.268465],[121.995697,18.26425],[121.99511,18.263565],[121.993752,18.262938],[121.99279,18.262699],[121.991447,18.261887],[121.986778,18.260874],[121.986504,18.262169],[121.985825,18.264412],[121.985832,18.265518],[121.985939,18.266718],[121.985641,18.267874],[122.001076,18.271311],[122.002052,18.268465]]]]}},{"type":"Feature","properties":{"ID_0":177,"ISO":"PHL","NAME_0":"Philippines","ID_1":2015,"NAME_1":"Cagayan","ID_2":201514,"NAME_2":"Gonzaga","ID_3":201514020,"NAME_3":"San Jose","NL_NAME_3":null,"VARNAME_3":null,"TYPE_3":"Barangay","ENGTYPE_3":"Village","PROVINCE":"Cagayan","REGION":"Region II (Cagayan Valley)","id":"barangay-0201514020","name":"San Jose","barangayCode":"0201514020","population":null,"formattedPop":null,"densityCategory":"No data","vulnerabilityRating":"No data","healthRiskLevel":"No data","areaKm2":15.773561,"centerLat":18.350101,"centerLng":122.12675,"geometrySource":"all_barangay-2.csv detailed WKT","geometryMatchMethod":"unique_official_admin_names","boundaryPointCount":144},"geometry":{"type":"MultiPolygon","coordinates":[[[[122.090553,18.35639],[122.089706,18.35688],[122.088608,18.35722],[122.086937,18.357861],[122.086853,18.358179],[122.0868,18.358339],[122.087227,18.358471],[122.088303,18.35848],[122.08876,18.358681],[122.089333,18.35898],[122.089943,18.359381],[122.090622,18.35973],[122.091301,18.3601],[122.091927,18.360519],[122.092583,18.36091],[122.093201,18.36129],[122.093727,18.361679],[122.094162,18.36207],[122.094521,18.362431],[122.094841,18.362749],[122.095177,18.363041],[122.095543,18.363319],[122.095947,18.3636],[122.096336,18.363911],[122.096443,18.36404],[122.096657,18.364309],[122.096931,18.364691],[122.097183,18.365009],[122.097397,18.36529],[122.097603,18.365549],[122.097794,18.365801],[122.097954,18.366051],[122.097977,18.366381],[122.097847,18.3668],[122.097794,18.36729],[122.097778,18.36788],[122.097771,18.36853],[122.097717,18.369181],[122.097527,18.369711],[122.09742,18.37019],[122.097504,18.37076],[122.097549,18.371361],[122.097412,18.371861],[122.097298,18.372271],[122.097252,18.372669],[122.097237,18.373119],[122.097229,18.373619],[122.097229,18.37418],[122.097267,18.374769],[122.09742,18.37537],[122.097504,18.375999],[122.097557,18.37661],[122.097679,18.376989],[122.09774,18.377171],[122.097977,18.377621],[122.098267,18.377831],[122.098457,18.378031],[122.098618,18.378241],[122.098747,18.37849],[122.098862,18.37878],[122.0989,18.37912],[122.098961,18.37948],[122.099068,18.37989],[122.099022,18.3804],[122.099182,18.380951],[122.099449,18.38138],[122.099709,18.381769],[122.099937,18.38217],[122.100258,18.3825],[122.100639,18.382839],[122.101097,18.383181],[122.101639,18.383511],[122.102333,18.38365],[122.103043,18.38376],[122.103767,18.38357],[122.104378,18.383221],[122.104881,18.382811],[122.105339,18.38246],[122.105766,18.38221],[122.106163,18.382],[122.106537,18.38195],[122.10688,18.381981],[122.107132,18.382099],[122.107307,18.382219],[122.107521,18.38237],[122.107903,18.38261],[122.108467,18.38299],[122.109207,18.38328],[122.109962,18.383289],[122.110603,18.38308],[122.110893,18.382589],[122.110802,18.382021],[122.110519,18.381571],[122.110207,18.381201],[122.109901,18.38092],[122.109612,18.380699],[122.109367,18.38048],[122.109161,18.38023],[122.10894,18.379919],[122.108742,18.37953],[122.108749,18.379089],[122.108932,18.37866],[122.109123,18.378269],[122.1092,18.377859],[122.109306,18.377529],[122.109451,18.377239],[122.109581,18.37697],[122.109734,18.376711],[122.109917,18.376471],[122.110138,18.37623],[122.110352,18.375959],[122.110672,18.37571],[122.111099,18.375521],[122.111526,18.375299],[122.111954,18.375111],[122.112373,18.37495],[122.112793,18.374781],[122.113258,18.374729],[122.113792,18.37472],[122.11438,18.37471],[122.11499,18.37466],[122.115578,18.37451],[122.116112,18.374491],[122.116577,18.37455],[122.116966,18.37447],[122.117348,18.374451],[122.117477,18.37447],[122.115997,18.373381],[122.18055,18.326059],[122.109566,18.350695],[122.103348,18.348461],[122.101822,18.34823],[122.101082,18.349501],[122.100525,18.350281],[122.101349,18.351328],[122.099113,18.351198],[122.097389,18.352161],[122.096413,18.352966],[122.095299,18.353548],[122.093834,18.354532],[122.093277,18.355116],[122.09214,18.356544],[122.091499,18.356834],[122.090553,18.35639]]]]}},{"type":"Feature","properties":{"ID_0":177,"ISO":"PHL","NAME_0":"Philippines","ID_1":2015,"NAME_1":"Cagayan","ID_2":201514,"NAME_2":"Gonzaga","ID_3":201514021,"NAME_3":"Santa Clara","NL_NAME_3":null,"VARNAME_3":null,"TYPE_3":"Barangay","ENGTYPE_3":"Village","PROVINCE":"Cagayan","REGION":"Region II (Cagayan Valley)","id":"barangay-0201514021","name":"Santa Clara","barangayCode":"0201514021","population":null,"formattedPop":null,"densityCategory":"No data","vulnerabilityRating":"No data","healthRiskLevel":"No data","areaKm2":77.875551,"centerLat":18.230724,"centerLng":122.061359,"geometrySource":"all_barangay-2.csv detailed WKT","geometryMatchMethod":"unique_official_admin_names","boundaryPointCount":154},"geometry":{"type":"MultiPolygon","coordinates":[[[[122.036926,18.280329],[122.037064,18.279888],[122.037193,18.27968],[122.037544,18.279631],[122.037865,18.279928],[122.038277,18.280176],[122.038467,18.280062],[122.038635,18.279596],[122.038681,18.279343],[122.038284,18.278839],[122.038086,18.278662],[122.038002,18.278587],[122.037819,18.278107],[122.0383,18.277134],[122.039116,18.277287],[122.040321,18.277136],[122.041245,18.277033],[122.041794,18.277233],[122.041656,18.27809],[122.041878,18.278687],[122.042534,18.278519],[122.043182,18.278143],[122.04351,18.27807],[122.04528,18.279964],[122.04567,18.280499],[122.046051,18.28126],[122.046562,18.281881],[122.047676,18.282372],[122.048386,18.28257],[122.049355,18.282904],[122.050591,18.283995],[122.051003,18.284285],[122.052261,18.284458],[122.053009,18.284838],[122.053665,18.284166],[122.05426,18.282869],[122.054916,18.281712],[122.056107,18.280951],[122.056984,18.280903],[122.05761,18.280767],[122.058167,18.280411],[122.058746,18.280409],[122.059181,18.280474],[122.059608,18.28014],[122.060158,18.279915],[122.060745,18.279938],[122.060966,18.279779],[122.061447,18.279556],[122.061836,18.279598],[122.062996,18.280289],[122.064117,18.27984],[122.064285,18.279348],[122.064751,18.279037],[122.065674,18.279436],[122.067299,18.279768],[122.0681,18.279409],[122.069138,18.278872],[122.06971,18.277866],[122.070366,18.276817],[122.071312,18.2761],[122.072281,18.275431],[122.072456,18.274359],[122.072189,18.272104],[122.074837,18.270069],[122.075401,18.269423],[122.075577,18.268284],[122.075958,18.267145],[122.076622,18.266361],[122.077789,18.265533],[122.078979,18.264954],[122.079788,18.263121],[122.080177,18.262094],[122.080811,18.261044],[122.081757,18.258207],[122.083488,18.2551],[122.083786,18.254585],[122.084435,18.253227],[122.085846,18.251619],[122.086662,18.250074],[122.087006,18.249348],[122.087578,18.248941],[122.088844,18.248169],[122.089554,18.24762],[122.091095,18.247028],[122.092163,18.246447],[122.093033,18.245245],[122.093102,18.244688],[122.093819,18.2446],[122.094391,18.244078],[122.095291,18.243362],[122.096039,18.24221],[122.09626,18.240103],[122.096313,18.239428],[122.096565,18.23859],[122.096329,18.237858],[122.096901,18.236547],[122.097755,18.235556],[122.099327,18.234591],[122.100861,18.233051],[122.101547,18.231461],[122.102463,18.228987],[122.103889,18.224583],[122.104927,18.221249],[122.106552,18.216169],[122.108131,18.212107],[122.108559,18.210754],[122.112717,18.18561],[122.035088,18.19578],[122.03289,18.195982],[122.034462,18.206064],[122.034332,18.207197],[122.034637,18.208462],[122.035355,18.210831],[122.035507,18.212051],[122.03463,18.213465],[122.034233,18.215084],[122.034126,18.216515],[122.033775,18.21781],[122.033485,18.220236],[122.033272,18.221621],[122.032639,18.223103],[122.031754,18.223804],[122.030624,18.224001],[122.029228,18.223993],[122.028549,18.22423],[122.027885,18.224813],[122.027191,18.225788],[122.027237,18.228094],[122.027542,18.229589],[122.02758,18.231804],[122.027084,18.233032],[122.025131,18.23522],[122.024048,18.235876],[122.023239,18.236647],[122.022385,18.238432],[122.022202,18.239494],[122.021248,18.241095],[122.020004,18.241638],[122.018204,18.242004],[122.016632,18.24225],[122.014755,18.242315],[122.009872,18.242266],[122.007118,18.252886],[122.003571,18.263973],[122.030045,18.280008],[122.030731,18.280672],[122.031555,18.281008],[122.032379,18.281208],[122.032684,18.280605],[122.032967,18.279797],[122.033669,18.279373],[122.034653,18.279408],[122.035942,18.280458],[122.036926,18.280329]]]]}},{"type":"Feature","properties":{"ID_0":177,"ISO":"PHL","NAME_0":"Philippines","ID_1":2015,"NAME_1":"Cagayan","ID_2":201514,"NAME_2":"Gonzaga","ID_3":201514022,"NAME_3":"Santa Cruz","NL_NAME_3":null,"VARNAME_3":null,"TYPE_3":"Barangay","ENGTYPE_3":"Village","PROVINCE":"Cagayan","REGION":"Region II (Cagayan Valley)","id":"barangay-0201514022","name":"Santa Cruz","barangayCode":"0201514022","population":null,"formattedPop":null,"densityCategory":"No data","vulnerabilityRating":"No data","healthRiskLevel":"No data","areaKm2":3.081447,"centerLat":18.338524,"centerLng":122.07195,"geometrySource":"all_barangay-2.csv detailed WKT","geometryMatchMethod":"unique_official_admin_names","boundaryPointCount":124},"geometry":{"type":"MultiPolygon","coordinates":[[[[122.06356,18.336294],[122.063507,18.33666],[122.063477,18.33704],[122.063316,18.33733],[122.063148,18.337601],[122.063019,18.337891],[122.062843,18.338181],[122.062714,18.33856],[122.062531,18.33898],[122.062424,18.33951],[122.0625,18.340281],[122.0625,18.341391],[122.062767,18.34194],[122.062927,18.3421],[122.063301,18.34247],[122.064453,18.343611],[122.06472,18.343611],[122.065002,18.343889],[122.065277,18.343889],[122.065712,18.34404],[122.066101,18.344139],[122.066467,18.34417],[122.066818,18.3442],[122.067123,18.34432],[122.067383,18.344431],[122.067436,18.34444],[122.067657,18.344509],[122.067886,18.3447],[122.068169,18.344931],[122.068512,18.34515],[122.068909,18.345341],[122.069237,18.345551],[122.069588,18.345739],[122.069962,18.345819],[122.070374,18.345831],[122.070763,18.345869],[122.071136,18.346001],[122.07151,18.34614],[122.071877,18.3463],[122.072311,18.346371],[122.072777,18.34643],[122.07325,18.346569],[122.073753,18.34667],[122.074257,18.34679],[122.074753,18.346979],[122.075203,18.34721],[122.075668,18.347429],[122.07618,18.347589],[122.076668,18.347799],[122.077118,18.348049],[122.077568,18.34827],[122.078056,18.34837],[122.078499,18.348511],[122.078873,18.34865],[122.079018,18.348515],[122.079552,18.34782],[122.079941,18.347107],[122.08036,18.346235],[122.080429,18.34561],[122.079758,18.343025],[122.078842,18.341799],[122.0784,18.341173],[122.078674,18.340393],[122.07914,18.340235],[122.080063,18.339922],[122.080544,18.338516],[122.08094,18.33655],[122.081741,18.335032],[122.08223,18.334072],[122.082886,18.33309],[122.083908,18.332529],[122.084778,18.332035],[122.08532,18.331388],[122.08551,18.330809],[122.085953,18.330294],[122.0868,18.329758],[122.087364,18.329287],[122.088043,18.328794],[122.076141,18.321053],[122.076019,18.321877],[122.075531,18.323351],[122.074944,18.323753],[122.074585,18.324247],[122.074097,18.324181],[122.073349,18.323824],[122.073006,18.324003],[122.072754,18.324495],[122.07225,18.3251],[122.071861,18.325523],[122.071297,18.325233],[122.070892,18.32501],[122.070496,18.325279],[122.070015,18.32653],[122.069939,18.327044],[122.070061,18.327377],[122.070137,18.327911],[122.069786,18.32818],[122.069237,18.328629],[122.068741,18.329323],[122.068504,18.329813],[122.06823,18.330303],[122.067894,18.330595],[122.067528,18.330841],[122.067307,18.331087],[122.06723,18.331911],[122.067543,18.333227],[122.067535,18.333414],[122.06752,18.333609],[122.066963,18.3339],[122.066673,18.334347],[122.066864,18.33497],[122.066978,18.335194],[122.06723,18.335394],[122.067154,18.33604],[122.067398,18.336443],[122.06691,18.337112],[122.066078,18.337671],[122.065567,18.338364],[122.064987,18.338743],[122.064575,18.338655],[122.064262,18.338186],[122.064217,18.336939],[122.064072,18.336849],[122.06356,18.336294]]]]}},{"type":"Feature","properties":{"ID_0":177,"ISO":"PHL","NAME_0":"Philippines","ID_1":2015,"NAME_1":"Cagayan","ID_2":201514,"NAME_2":"Gonzaga","ID_3":201514023,"NAME_3":"Santa Maria","NL_NAME_3":null,"VARNAME_3":null,"TYPE_3":"Barangay","ENGTYPE_3":"Village","PROVINCE":"Cagayan","REGION":"Region II (Cagayan Valley)","id":"barangay-0201514023","name":"Santa Maria","barangayCode":"0201514023","population":null,"formattedPop":null,"densityCategory":"No data","vulnerabilityRating":"No data","healthRiskLevel":"No data","areaKm2":136.175212,"centerLat":18.267172,"centerLng":122.211934,"geometrySource":"all_barangay-2.csv detailed WKT","geometryMatchMethod":"unique_official_admin_names","boundaryPointCount":173},"geometry":{"type":"MultiPolygon","coordinates":[[[[122.101822,18.34823],[122.103348,18.348461],[122.109566,18.350695],[122.18055,18.326059],[122.305969,18.233391],[122.305206,18.2323],[122.305061,18.232361],[122.304558,18.23229],[122.304283,18.23222],[122.304077,18.231461],[122.304031,18.231291],[122.303864,18.231079],[122.303711,18.23086],[122.303596,18.2306],[122.30352,18.23023],[122.303497,18.230089],[122.303436,18.229401],[122.303429,18.229191],[122.303307,18.229151],[122.303207,18.22912],[122.301018,18.22912],[122.300591,18.229191],[122.300087,18.228991],[122.300049,18.228939],[122.299667,18.22858],[122.299454,18.2281],[122.29895,18.227501],[122.298813,18.226959],[122.299301,18.22648],[122.299942,18.225941],[122.300217,18.22526],[122.300217,18.22431],[122.300613,18.224039],[122.300858,18.22361],[122.301193,18.223261],[122.301514,18.22291],[122.301804,18.22253],[122.302101,18.22216],[122.302322,18.22175],[122.302597,18.22135],[122.30278,18.220961],[122.302803,18.22093],[122.303017,18.220591],[122.303177,18.22028],[122.303284,18.21998],[122.303329,18.219669],[122.303307,18.219339],[122.302513,18.21875],[122.30246,18.218559],[122.302368,18.218201],[122.302338,18.217899],[122.301804,18.217859],[122.301224,18.21804],[122.300613,18.218189],[122.30011,18.21797],[122.299667,18.2176],[122.299232,18.217279],[122.298851,18.216961],[122.2985,18.216669],[122.298149,18.216391],[122.297798,18.21612],[122.297478,18.21578],[122.297127,18.21542],[122.296883,18.21497],[122.296738,18.214451],[122.296471,18.21349],[122.296547,18.21295],[122.296188,18.212749],[122.294342,18.21213],[122.293991,18.211929],[122.293983,18.211149],[122.293823,18.210819],[122.293617,18.210501],[122.293533,18.210091],[122.293472,18.209709],[122.293228,18.20953],[122.292831,18.209379],[122.292297,18.20932],[122.291832,18.209431],[122.291443,18.20944],[122.291107,18.209379],[122.290871,18.209209],[122.290672,18.209021],[122.290482,18.208799],[122.290321,18.208509],[122.290283,18.20812],[122.290337,18.207661],[122.290558,18.20718],[122.290771,18.206631],[122.290741,18.205959],[122.290413,18.20521],[122.289963,18.204599],[122.289864,18.20417],[122.289787,18.2038],[122.289612,18.203449],[122.289551,18.203051],[122.289322,18.202709],[122.289146,18.2022],[122.288979,18.201651],[122.288742,18.20117],[122.288567,18.20079],[122.288452,18.20046],[122.288223,18.2001],[122.287827,18.199739],[122.287514,18.19939],[122.287064,18.199221],[122.286583,18.199089],[122.286049,18.199011],[122.285561,18.198851],[122.283607,18.19824],[122.281967,18.197571],[122.279984,18.196341],[122.278351,18.19492],[122.277901,18.193489],[122.27758,18.193279],[122.274033,18.191151],[122.272263,18.18952],[122.270271,18.18837],[122.268951,18.18767],[122.26844,18.18755],[122.268013,18.18725],[122.26757,18.186939],[122.267143,18.18663],[122.266739,18.18626],[122.26638,18.185829],[122.266098,18.185341],[122.266144,18.184799],[122.26638,18.184231],[122.26635,18.183611],[122.265984,18.183189],[122.265404,18.183121],[122.265121,18.18321],[122.264687,18.183081],[122.264557,18.182671],[122.264343,18.181311],[122.26413,18.18009],[122.264198,18.17873],[122.264343,18.177851],[122.264771,18.17717],[122.265831,18.17676],[122.266968,18.175409],[122.266968,18.17473],[122.266823,18.17432],[122.266403,18.17425],[122.265617,18.17448],[122.265121,18.17448],[122.264893,18.174309],[122.148285,18.294409],[122.13176,18.306177],[122.119484,18.314257],[122.112099,18.318016],[122.088043,18.328794],[122.087364,18.329287],[122.0868,18.329758],[122.085953,18.330294],[122.08551,18.330809],[122.08532,18.331388],[122.084778,18.332035],[122.083908,18.332529],[122.082886,18.33309],[122.08223,18.334072],[122.081741,18.335032],[122.086281,18.337282],[122.089287,18.338774],[122.091927,18.340145],[122.093376,18.341034],[122.094978,18.342171],[122.097237,18.343704],[122.098686,18.344908],[122.099533,18.345753],[122.100021,18.346266],[122.102104,18.347778],[122.101822,18.34823]]]]}},{"type":"Feature","properties":{"ID_0":177,"ISO":"PHL","NAME_0":"Philippines","ID_1":2015,"NAME_1":"Cagayan","ID_2":201514,"NAME_2":"Gonzaga","ID_3":201514024,"NAME_3":"Smart","NL_NAME_3":null,"VARNAME_3":null,"TYPE_3":"Barangay","ENGTYPE_3":"Village","PROVINCE":"Cagayan","REGION":"Region II (Cagayan Valley)","id":"barangay-0201514024","name":"Smart","barangayCode":"0201514024","population":null,"formattedPop":null,"densityCategory":"No data","vulnerabilityRating":"No data","healthRiskLevel":"No data","areaKm2":0.597857,"centerLat":18.258839,"centerLng":121.995224,"geometrySource":"all_barangay-2.csv detailed WKT","geometryMatchMethod":"unique_official_admin_names","boundaryPointCount":15},"geometry":{"type":"MultiPolygon","coordinates":[[[[122.003571,18.263973],[121.997437,18.258827],[121.995819,18.258434],[121.994705,18.257965],[121.988457,18.256105],[121.988266,18.256569],[121.988052,18.257158],[121.988281,18.257362],[121.989243,18.257511],[121.993713,18.260124],[121.994591,18.260759],[121.996399,18.261795],[121.99968,18.263802],[122.002296,18.267977],[122.003571,18.263973]]]]}},{"type":"Feature","properties":{"ID_0":177,"ISO":"PHL","NAME_0":"Philippines","ID_1":2015,"NAME_1":"Cagayan","ID_2":201514,"NAME_2":"Gonzaga","ID_3":201514025,"NAME_3":"Tapel","NL_NAME_3":null,"VARNAME_3":null,"TYPE_3":"Barangay","ENGTYPE_3":"Village","PROVINCE":"Cagayan","REGION":"Region II (Cagayan Valley)","id":"barangay-0201514025","name":"Tapel","barangayCode":"0201514025","population":null,"formattedPop":null,"densityCategory":"No data","vulnerabilityRating":"No data","healthRiskLevel":"No data","areaKm2":11.360285,"centerLat":18.291275,"centerLng":122.042879,"geometrySource":"all_barangay-2.csv detailed WKT","geometryMatchMethod":"unique_official_admin_names","boundaryPointCount":77},"geometry":{"type":"MultiPolygon","coordinates":[[[[122.02327,18.296602],[122.0233,18.296637],[122.023331,18.296671],[122.023888,18.296671],[122.02417,18.29694],[122.024368,18.29702],[122.024696,18.29715],[122.025002,18.2974],[122.025139,18.29751],[122.025574,18.297779],[122.025864,18.298149],[122.02597,18.29866],[122.025963,18.299271],[122.02594,18.299589],[122.025909,18.29998],[122.026062,18.300711],[122.0261,18.30146],[122.02607,18.30224],[122.02597,18.303011],[122.026123,18.30369],[122.026337,18.30431],[122.026382,18.30497],[122.026443,18.305639],[122.026833,18.306299],[122.027237,18.30687],[122.027634,18.3074],[122.028061,18.30784],[122.028526,18.308229],[122.029083,18.30854],[122.029701,18.30879],[122.030251,18.30892],[122.03067,18.30909],[122.031036,18.309],[122.031403,18.30896],[122.03167,18.309191],[122.031807,18.309521],[122.031883,18.30969],[122.032204,18.31019],[122.032692,18.31048],[122.032883,18.310497],[122.049942,18.293154],[122.036926,18.280329],[122.035942,18.280458],[122.034653,18.279408],[122.033669,18.279373],[122.032967,18.279797],[122.032684,18.280605],[122.032379,18.281208],[122.031555,18.281008],[122.030731,18.280672],[122.029648,18.28112],[122.02932,18.281725],[122.028656,18.282272],[122.02803,18.282776],[122.026939,18.282972],[122.026535,18.283136],[122.026863,18.284149],[122.027634,18.285154],[122.02774,18.285868],[122.027435,18.286957],[122.027115,18.287834],[122.026459,18.288443],[122.026001,18.288008],[122.024887,18.287535],[122.024445,18.288626],[122.024483,18.290052],[122.025002,18.291431],[122.02549,18.292604],[122.025085,18.292906],[122.024765,18.29314],[122.024895,18.293392],[122.02449,18.293814],[122.0243,18.294712],[122.023827,18.295433],[122.023468,18.295919],[122.023277,18.296362],[122.02327,18.296602]]]]}}]}
