{"type":"FeatureCollection","features":[{"type":"Feature","properties":{"ID_0":177,"ISO":"PHL","NAME_0":"Philippines","ID_1":1033,"NAME_1":"La Union","ID_2":103318,"NAME_2":"Santol","ID_3":103318002,"NAME_3":"Corrooy","NL_NAME_3":null,"VARNAME_3":null,"TYPE_3":"Barangay","ENGTYPE_3":"Village","PROVINCE":"La Union","REGION":"Region I (Ilocos Region)","id":"barangay-0103318002","name":"Corrooy","barangayCode":"0103318002","population":null,"formattedPop":null,"densityCategory":"No data","vulnerabilityRating":"No data","healthRiskLevel":"No data","areaKm2":8.627023,"centerLat":16.791329,"centerLng":120.459978,"geometrySource":"all_barangay-2.csv detailed WKT","geometryMatchMethod":"unique_official_admin_names","boundaryPointCount":22},"geometry":{"type":"MultiPolygon","coordinates":[[[[120.444237,16.802191],[120.466461,16.79221],[120.47924,16.786579],[120.477478,16.782539],[120.472481,16.772209],[120.469147,16.772881],[120.465477,16.774839],[120.461807,16.77614],[120.458923,16.77569],[120.454964,16.7759],[120.4534,16.778311],[120.452087,16.7794],[120.449203,16.779831],[120.446838,16.780479],[120.44606,16.782669],[120.443962,16.784639],[120.44239,16.78529],[120.439217,16.7866],[120.442032,16.792669],[120.442162,16.79364],[120.443108,16.79723],[120.444237,16.802191]]]]}},{"type":"Feature","properties":{"ID_0":177,"ISO":"PHL","NAME_0":"Philippines","ID_1":1033,"NAME_1":"La Union","ID_2":103318,"NAME_2":"Santol","ID_3":103318003,"NAME_3":"Lettac Norte","NL_NAME_3":null,"VARNAME_3":null,"TYPE_3":"Barangay","ENGTYPE_3":"Village","PROVINCE":"La Union","REGION":"Region I (Ilocos Region)","id":"barangay-0103318003","name":"Lettac Norte","barangayCode":"0103318003","population":null,"formattedPop":null,"densityCategory":"No data","vulnerabilityRating":"No data","healthRiskLevel":"No data","areaKm2":6.759758,"centerLat":16.771546,"centerLng":120.440261,"geometrySource":"all_barangay-2.csv detailed WKT","geometryMatchMethod":"unique_official_admin_names","boundaryPointCount":22},"geometry":{"type":"MultiPolygon","coordinates":[[[[120.439217,16.7866],[120.44239,16.78529],[120.443962,16.784639],[120.44606,16.782669],[120.446838,16.780479],[120.449203,16.779831],[120.452087,16.7794],[120.4534,16.778311],[120.454964,16.7759],[120.446838,16.75766],[120.445107,16.755951],[120.442749,16.75572],[120.439072,16.757021],[120.434593,16.75897],[120.432243,16.76116],[120.43119,16.76335],[120.432022,16.765989],[120.434502,16.77231],[120.43647,16.778151],[120.436913,16.77948],[120.438133,16.78396],[120.439217,16.7866]]]]}},{"type":"Feature","properties":{"ID_0":177,"ISO":"PHL","NAME_0":"Philippines","ID_1":1033,"NAME_1":"La Union","ID_2":103318,"NAME_2":"Santol","ID_3":103318004,"NAME_3":"Lettac Sur","NL_NAME_3":null,"VARNAME_3":null,"TYPE_3":"Barangay","ENGTYPE_3":"Village","PROVINCE":"La Union","REGION":"Region I (Ilocos Region)","id":"barangay-0103318004","name":"Lettac Sur","barangayCode":"0103318004","population":null,"formattedPop":null,"densityCategory":"No data","vulnerabilityRating":"No data","healthRiskLevel":"No data","areaKm2":11.530444,"centerLat":16.73621,"centerLng":120.459819,"geometrySource":"all_barangay-2.csv detailed WKT","geometryMatchMethod":"unique_official_admin_names","boundaryPointCount":20},"geometry":{"type":"MultiPolygon","coordinates":[[[[120.43119,16.76335],[120.432243,16.76116],[120.434593,16.75897],[120.439072,16.757021],[120.442749,16.75572],[120.445107,16.755951],[120.446838,16.75766],[120.457527,16.752871],[120.467506,16.75139],[120.471184,16.750099],[120.475906,16.748159],[120.48848,16.74231],[120.481232,16.72439],[120.475212,16.728149],[120.455093,16.737329],[120.439018,16.745831],[120.434174,16.748791],[120.431427,16.75028],[120.426537,16.75322],[120.43119,16.76335]]]]}},{"type":"Feature","properties":{"ID_0":177,"ISO":"PHL","NAME_0":"Philippines","ID_1":1033,"NAME_1":"La Union","ID_2":103318,"NAME_2":"Santol","ID_3":103318005,"NAME_3":"Mangaan","NL_NAME_3":null,"VARNAME_3":null,"TYPE_3":"Barangay","ENGTYPE_3":"Village","PROVINCE":"La Union","REGION":"Region I (Ilocos Region)","id":"barangay-0103318005","name":"Mangaan","barangayCode":"0103318005","population":null,"formattedPop":null,"densityCategory":"No data","vulnerabilityRating":"No data","healthRiskLevel":"No data","areaKm2":6.123238,"centerLat":16.74793,"centerLng":120.47172,"geometrySource":"all_barangay-2.csv detailed WKT","geometryMatchMethod":"unique_official_admin_names","boundaryPointCount":11},"geometry":{"type":"MultiPolygon","coordinates":[[[[120.469849,16.7659],[120.494759,16.75738],[120.48848,16.74231],[120.475906,16.748159],[120.471184,16.750099],[120.467506,16.75139],[120.457527,16.752871],[120.459923,16.75684],[120.462303,16.75948],[120.466003,16.763229],[120.469849,16.7659]]]]}},{"type":"Feature","properties":{"ID_0":177,"ISO":"PHL","NAME_0":"Philippines","ID_1":1033,"NAME_1":"La Union","ID_2":103318,"NAME_2":"Santol","ID_3":103318008,"NAME_3":"Paagan","NL_NAME_3":null,"VARNAME_3":null,"TYPE_3":"Barangay","ENGTYPE_3":"Village","PROVINCE":"La Union","REGION":"Region I (Ilocos Region)","id":"barangay-0103318008","name":"Paagan","barangayCode":"0103318008","population":null,"formattedPop":null,"densityCategory":"No data","vulnerabilityRating":"No data","healthRiskLevel":"No data","areaKm2":8.477157,"centerLat":16.802199,"centerLng":120.469126,"geometrySource":"all_barangay-2.csv detailed WKT","geometryMatchMethod":"unique_official_admin_names","boundaryPointCount":16},"geometry":{"type":"MultiPolygon","coordinates":[[[[120.448891,16.81794],[120.457687,16.81455],[120.479813,16.80554],[120.488228,16.80195],[120.487053,16.80084],[120.485786,16.799129],[120.484627,16.797331],[120.483833,16.795931],[120.482826,16.79402],[120.482224,16.79286],[120.47924,16.786579],[120.466461,16.79221],[120.444237,16.802191],[120.44545,16.803711],[120.446983,16.80995],[120.448891,16.81794]]]]}},{"type":"Feature","properties":{"ID_0":177,"ISO":"PHL","NAME_0":"Philippines","ID_1":1033,"NAME_1":"La Union","ID_2":103318,"NAME_2":"Santol","ID_3":103318010,"NAME_3":"Poblacion","NL_NAME_3":null,"VARNAME_3":null,"TYPE_3":"Barangay","ENGTYPE_3":"Village","PROVINCE":"La Union","REGION":"Region I (Ilocos Region)","id":"barangay-0103318010","name":"Poblacion","barangayCode":"0103318010","population":null,"formattedPop":null,"densityCategory":"No data","vulnerabilityRating":"No data","healthRiskLevel":"No data","areaKm2":8.225071,"centerLat":16.768433,"centerLng":120.468085,"geometrySource":"all_barangay-2.csv detailed WKT","geometryMatchMethod":"unique_official_admin_names","boundaryPointCount":13},"geometry":{"type":"MultiPolygon","coordinates":[[[[120.472481,16.772209],[120.469849,16.7659],[120.466003,16.763229],[120.462303,16.75948],[120.459923,16.75684],[120.457527,16.752871],[120.446838,16.75766],[120.454964,16.7759],[120.458923,16.77569],[120.461807,16.77614],[120.465477,16.774839],[120.469147,16.772881],[120.472481,16.772209]]]]}},{"type":"Feature","properties":{"ID_0":177,"ISO":"PHL","NAME_0":"Philippines","ID_1":1033,"NAME_1":"La Union","ID_2":103318,"NAME_2":"Santol","ID_3":103318011,"NAME_3":"Puguil","NL_NAME_3":null,"VARNAME_3":null,"TYPE_3":"Barangay","ENGTYPE_3":"Village","PROVINCE":"La Union","REGION":"Region I (Ilocos Region)","id":"barangay-0103318011","name":"Puguil","barangayCode":"0103318011","population":null,"formattedPop":null,"densityCategory":"No data","vulnerabilityRating":"No data","healthRiskLevel":"No data","areaKm2":25.675037,"centerLat":16.762954,"centerLng":120.506971,"geometrySource":"all_barangay-2.csv detailed WKT","geometryMatchMethod":"unique_official_admin_names","boundaryPointCount":23},"geometry":{"type":"MultiPolygon","coordinates":[[[[120.499397,16.797899],[120.534988,16.78385],[120.53524,16.781969],[120.535248,16.781931],[120.535088,16.780979],[120.534782,16.779751],[120.534958,16.778669],[120.52887,16.7458],[120.519859,16.749519],[120.511902,16.751961],[120.494759,16.75738],[120.469849,16.7659],[120.472481,16.772209],[120.477478,16.782539],[120.47924,16.786579],[120.482224,16.79286],[120.482826,16.79402],[120.483833,16.795931],[120.484627,16.797331],[120.485786,16.799129],[120.487053,16.80084],[120.488228,16.80195],[120.499397,16.797899]]]]}},{"type":"Feature","properties":{"ID_0":177,"ISO":"PHL","NAME_0":"Philippines","ID_1":1033,"NAME_1":"La Union","ID_2":103318,"NAME_2":"Santol","ID_3":103318012,"NAME_3":"Ramot","NL_NAME_3":null,"VARNAME_3":null,"TYPE_3":"Barangay","ENGTYPE_3":"Village","PROVINCE":"La Union","REGION":"Region I (Ilocos Region)","id":"barangay-0103318012","name":"Ramot","barangayCode":"0103318012","population":null,"formattedPop":null,"densityCategory":"No data","vulnerabilityRating":"No data","healthRiskLevel":"No data","areaKm2":10.189491,"centerLat":16.728157,"centerLng":120.491884,"geometrySource":"all_barangay-2.csv detailed WKT","geometryMatchMethod":"unique_official_admin_names","boundaryPointCount":10},"geometry":{"type":"MultiPolygon","coordinates":[[[[120.511902,16.751961],[120.500237,16.71641],[120.492683,16.719521],[120.489258,16.720869],[120.486687,16.72183],[120.484779,16.72274],[120.481232,16.72439],[120.48848,16.74231],[120.494759,16.75738],[120.511902,16.751961]]]]}},{"type":"Feature","properties":{"ID_0":177,"ISO":"PHL","NAME_0":"Philippines","ID_1":1033,"NAME_1":"La Union","ID_2":103318,"NAME_2":"Santol","ID_3":103318013,"NAME_3":"Sapdaan","NL_NAME_3":null,"VARNAME_3":null,"TYPE_3":"Barangay","ENGTYPE_3":"Village","PROVINCE":"La Union","REGION":"Region I (Ilocos Region)","id":"barangay-0103318013","name":"Sapdaan","barangayCode":"0103318013","population":null,"formattedPop":null,"densityCategory":"No data","vulnerabilityRating":"No data","healthRiskLevel":"No data","areaKm2":8.84724,"centerLat":16.690679,"centerLng":120.543984,"geometrySource":"all_barangay-2.csv detailed WKT","geometryMatchMethod":"unique_official_admin_names","boundaryPointCount":44},"geometry":{"type":"MultiPolygon","coordinates":[[[[120.52887,16.7458],[120.544968,16.7402],[120.544289,16.73925],[120.543602,16.736931],[120.544212,16.734831],[120.54422,16.734739],[120.54425,16.734221],[120.544189,16.73278],[120.544243,16.731409],[120.544182,16.729309],[120.543503,16.727039],[120.543442,16.72683],[120.543297,16.72641],[120.542633,16.725189],[120.541519,16.723789],[120.540901,16.723141],[120.540291,16.7225],[120.538933,16.72106],[120.537781,16.72028],[120.536324,16.71953],[120.534752,16.719219],[120.533691,16.719009],[120.533478,16.7188],[120.53196,16.717291],[120.532013,16.71633],[120.532089,16.715561],[120.532509,16.715059],[120.533417,16.7146],[120.535187,16.71401],[120.535957,16.713671],[120.536621,16.713209],[120.537697,16.712099],[120.5383,16.711069],[120.538918,16.70982],[120.539337,16.7089],[120.539673,16.708099],[120.540802,16.70579],[120.535789,16.707081],[120.53302,16.70731],[120.530327,16.708139],[120.527267,16.70899],[120.524811,16.709471],[120.523201,16.709669],[120.52887,16.7458]]]]}},{"type":"Feature","properties":{"ID_0":177,"ISO":"PHL","NAME_0":"Philippines","ID_1":1033,"NAME_1":"La Union","ID_2":103318,"NAME_2":"Santol","ID_3":103318014,"NAME_3":"Sasaba","NL_NAME_3":null,"VARNAME_3":null,"TYPE_3":"Barangay","ENGTYPE_3":"Village","PROVINCE":"La Union","REGION":"Region I (Ilocos Region)","id":"barangay-0103318014","name":"Sasaba","barangayCode":"0103318014","population":null,"formattedPop":null,"densityCategory":"No data","vulnerabilityRating":"No data","healthRiskLevel":"No data","areaKm2":9.061003,"centerLat":16.710866,"centerLng":120.518603,"geometrySource":"all_barangay-2.csv detailed WKT","geometryMatchMethod":"unique_official_admin_names","boundaryPointCount":14},"geometry":{"type":"MultiPolygon","coordinates":[[[[120.52887,16.7458],[120.523201,16.709669],[120.519989,16.7101],[120.515991,16.710329],[120.513908,16.71084],[120.511627,16.711241],[120.509407,16.71229],[120.508812,16.712601],[120.50631,16.713921],[120.5028,16.714701],[120.500237,16.71641],[120.511902,16.751961],[120.519859,16.749519],[120.52887,16.7458]]]]}},{"type":"Feature","properties":{"ID_0":177,"ISO":"PHL","NAME_0":"Philippines","ID_1":1033,"NAME_1":"La Union","ID_2":103318,"NAME_2":"Santol","ID_3":103318015,"NAME_3":"Tubaday","NL_NAME_3":null,"VARNAME_3":null,"TYPE_3":"Barangay","ENGTYPE_3":"Village","PROVINCE":"La Union","REGION":"Region I (Ilocos Region)","id":"barangay-0103318015","name":"Tubaday","barangayCode":"0103318015","population":null,"formattedPop":null,"densityCategory":"No data","vulnerabilityRating":"No data","healthRiskLevel":"No data","areaKm2":10.654941,"centerLat":16.740701,"centerLng":120.535432,"geometrySource":"all_barangay-2.csv detailed WKT","geometryMatchMethod":"unique_official_admin_names","boundaryPointCount":45},"geometry":{"type":"MultiPolygon","coordinates":[[[[120.534958,16.778669],[120.536438,16.77651],[120.537132,16.77614],[120.538361,16.77611],[120.539047,16.776159],[120.540359,16.776461],[120.540916,16.77668],[120.541748,16.77714],[120.542442,16.77758],[120.543442,16.77809],[120.544571,16.778139],[120.545357,16.77759],[120.545807,16.777149],[120.546333,16.7763],[120.546791,16.7752],[120.547241,16.774191],[120.547539,16.77342],[120.547867,16.772369],[120.548042,16.77187],[120.548401,16.770889],[120.548759,16.7703],[120.549049,16.76985],[120.549522,16.769569],[120.549553,16.769489],[120.549187,16.768921],[120.548309,16.76775],[120.54686,16.766211],[120.544487,16.764059],[120.542671,16.762131],[120.542686,16.761629],[120.542709,16.760679],[120.545029,16.75935],[120.546051,16.758591],[120.54747,16.75631],[120.549423,16.753],[120.550209,16.752081],[120.550774,16.75091],[120.550293,16.74913],[120.550171,16.748779],[120.549149,16.745911],[120.546333,16.74188],[120.545769,16.741329],[120.544968,16.7402],[120.52887,16.7458],[120.534958,16.778669]]]]}}]}
