{"type":"FeatureCollection","features":[{"type":"Feature","properties":{"ID_0":177,"ISO":"PHL","NAME_0":"Philippines","ID_1":9083,"NAME_1":"Zamboanga Sibugay","ID_2":908303,"NAME_2":"Diplahan","ID_3":908303001,"NAME_3":"Balangao","NL_NAME_3":null,"VARNAME_3":null,"TYPE_3":"Barangay","ENGTYPE_3":"Village","PROVINCE":"Zamboanga Sibugay","REGION":"Region IX (Zamboanga Peninsula)","id":"barangay-0908303001","name":"Balangao","barangayCode":"0908303001","population":null,"formattedPop":null,"densityCategory":"No data","vulnerabilityRating":"No data","healthRiskLevel":"No data","areaKm2":12.76131,"centerLat":7.807713,"centerLng":122.976964,"geometrySource":"all_barangay-2.csv detailed WKT","geometryMatchMethod":"unique_official_admin_names","boundaryPointCount":37},"geometry":{"type":"MultiPolygon","coordinates":[[[[122.952797,7.82671],[122.954697,7.82574],[122.956589,7.82532],[122.958313,7.82531],[122.962097,7.82596],[122.993057,7.82587],[123.001167,7.81298],[123.004593,7.81344],[123.006439,7.81418],[123.005951,7.78988],[122.967056,7.7957],[122.96537,7.79308],[122.963127,7.79496],[122.961731,7.79608],[122.960037,7.79662],[122.956497,7.79614],[122.955383,7.79589],[122.953773,7.79576],[122.952133,7.79715],[122.950882,7.79823],[122.949982,7.79889],[122.948883,7.80122],[122.947807,7.80375],[122.940369,7.81155],[122.939537,7.81508],[122.939529,7.81618],[122.940773,7.81909],[122.94223,7.82067],[122.942497,7.82202],[122.942909,7.8227],[122.943909,7.82316],[122.946007,7.82331],[122.947929,7.8237],[122.948898,7.8238],[122.95089,7.82495],[122.951393,7.8254],[122.952797,7.82671]]]]}},{"type":"Feature","properties":{"ID_0":177,"ISO":"PHL","NAME_0":"Philippines","ID_1":9083,"NAME_1":"Zamboanga Sibugay","ID_2":908303,"NAME_2":"Diplahan","ID_3":908303003,"NAME_3":"Pilar","NL_NAME_3":null,"VARNAME_3":null,"TYPE_3":"Barangay","ENGTYPE_3":"Village","PROVINCE":"Zamboanga Sibugay","REGION":"Region IX (Zamboanga Peninsula)","id":"barangay-0908303003","name":"Pilar","barangayCode":"0908303003","population":null,"formattedPop":null,"densityCategory":"No data","vulnerabilityRating":"No data","healthRiskLevel":"No data","areaKm2":5.402064,"centerLat":7.750817,"centerLng":122.959369,"geometrySource":"all_barangay-2.csv detailed WKT","geometryMatchMethod":"unique_official_admin_names","boundaryPointCount":9},"geometry":{"type":"MultiPolygon","coordinates":[[[[123.004143,7.70525],[123.003563,7.66481],[122.987442,7.66157],[122.985588,7.6898],[122.984703,7.69333],[122.980377,7.69821],[122.978981,7.70267],[122.977257,7.70509],[123.004143,7.70525]]]]}},{"type":"Feature","properties":{"ID_0":177,"ISO":"PHL","NAME_0":"Philippines","ID_1":9083,"NAME_1":"Zamboanga Sibugay","ID_2":908303,"NAME_2":"Diplahan","ID_3":908303004,"NAME_3":"Poblacion","NL_NAME_3":null,"VARNAME_3":null,"TYPE_3":"Barangay","ENGTYPE_3":"Village","PROVINCE":"Zamboanga Sibugay","REGION":"Region IX (Zamboanga Peninsula)","id":"barangay-0908303004","name":"Poblacion","barangayCode":"0908303004","population":null,"formattedPop":null,"densityCategory":"No data","vulnerabilityRating":"No data","healthRiskLevel":"No data","areaKm2":6.694043,"centerLat":7.68555,"centerLng":122.981243,"geometrySource":"all_barangay-2.csv detailed WKT","geometryMatchMethod":"unique_official_admin_names","boundaryPointCount":17},"geometry":{"type":"MultiPolygon","coordinates":[[[[122.977257,7.70509],[122.978981,7.70267],[122.980377,7.69821],[122.984703,7.69333],[122.985588,7.6898],[122.987442,7.66157],[122.984718,7.66159],[122.969933,7.66892],[122.954231,7.67639],[122.942513,7.68215],[122.938721,7.68389],[122.941299,7.70048],[122.948822,7.70718],[122.950508,7.70676],[122.954788,7.70606],[122.96344,7.70554],[122.977257,7.70509]]]]}},{"type":"Feature","properties":{"ID_0":177,"ISO":"PHL","NAME_0":"Philippines","ID_1":9083,"NAME_1":"Zamboanga Sibugay","ID_2":908303,"NAME_2":"Diplahan","ID_3":908303005,"NAME_3":"Ditay","NL_NAME_3":null,"VARNAME_3":null,"TYPE_3":"Barangay","ENGTYPE_3":"Village","PROVINCE":"Zamboanga Sibugay","REGION":"Region IX (Zamboanga Peninsula)","id":"barangay-0908303005","name":"Ditay","barangayCode":"0908303005","population":null,"formattedPop":null,"densityCategory":"No data","vulnerabilityRating":"No data","healthRiskLevel":"No data","areaKm2":16.033638,"centerLat":7.818083,"centerLng":122.934954,"geometrySource":"all_barangay-2.csv detailed WKT","geometryMatchMethod":"unique_official_admin_names","boundaryPointCount":20},"geometry":{"type":"MultiPolygon","coordinates":[[[[122.916618,7.82438],[122.936829,7.82465],[122.942047,7.82494],[122.946541,7.82588],[122.951027,7.82617],[122.952797,7.82671],[122.951393,7.8254],[122.95089,7.82495],[122.948898,7.8238],[122.947929,7.8237],[122.946007,7.82331],[122.943909,7.82316],[122.942909,7.8227],[122.942497,7.82202],[122.94223,7.82067],[122.940773,7.81909],[122.939529,7.81618],[122.936394,7.81593],[122.917374,7.81483],[122.916618,7.82438]]]]}},{"type":"Feature","properties":{"ID_0":177,"ISO":"PHL","NAME_0":"Philippines","ID_1":9083,"NAME_1":"Zamboanga Sibugay","ID_2":908303,"NAME_2":"Diplahan","ID_3":908303006,"NAME_3":"Gaulan","NL_NAME_3":null,"VARNAME_3":null,"TYPE_3":"Barangay","ENGTYPE_3":"Village","PROVINCE":"Zamboanga Sibugay","REGION":"Region IX (Zamboanga Peninsula)","id":"barangay-0908303006","name":"Gaulan","barangayCode":"0908303006","population":null,"formattedPop":null,"densityCategory":"No data","vulnerabilityRating":"No data","healthRiskLevel":"No data","areaKm2":6.414788,"centerLat":7.765736,"centerLng":122.983705,"geometrySource":"all_barangay-2.csv detailed WKT","geometryMatchMethod":"unique_official_admin_names","boundaryPointCount":33},"geometry":{"type":"MultiPolygon","coordinates":[[[[122.967056,7.7957],[122.966599,7.79112],[122.967552,7.78955],[122.967247,7.7846],[122.967888,7.78083],[122.9655,7.77056],[122.96508,7.76881],[122.96344,7.76242],[122.95813,7.76712],[122.953827,7.77092],[122.948959,7.77473],[122.948143,7.77605],[122.943817,7.78118],[122.943878,7.78122],[122.948387,7.78297],[122.947487,7.78525],[122.947449,7.78631],[122.947128,7.78776],[122.946297,7.79176],[122.947739,7.79338],[122.948982,7.79441],[122.950493,7.79528],[122.950623,7.79553],[122.951347,7.79652],[122.952133,7.79715],[122.953773,7.79576],[122.955383,7.79589],[122.956497,7.79614],[122.960037,7.79662],[122.961731,7.79608],[122.963127,7.79496],[122.96537,7.79308],[122.967056,7.7957]]]]}},{"type":"Feature","properties":{"ID_0":177,"ISO":"PHL","NAME_0":"Philippines","ID_1":9083,"NAME_1":"Zamboanga Sibugay","ID_2":908303,"NAME_2":"Diplahan","ID_3":908303007,"NAME_3":"Goling","NL_NAME_3":null,"VARNAME_3":null,"TYPE_3":"Barangay","ENGTYPE_3":"Village","PROVINCE":"Zamboanga Sibugay","REGION":"Region IX (Zamboanga Peninsula)","id":"barangay-0908303007","name":"Goling","barangayCode":"0908303007","population":null,"formattedPop":null,"densityCategory":"No data","vulnerabilityRating":"No data","healthRiskLevel":"No data","areaKm2":2.633581,"centerLat":7.733158,"centerLng":122.983353,"geometrySource":"all_barangay-2.csv detailed WKT","geometryMatchMethod":"unique_official_admin_names","boundaryPointCount":13},"geometry":{"type":"MultiPolygon","coordinates":[[[[122.96344,7.76242],[122.964943,7.76129],[122.969612,7.75647],[122.981438,7.74933],[122.981453,7.73862],[122.973,7.73774],[122.951347,7.73867],[122.953056,7.7516],[122.953308,7.75693],[122.953941,7.76663],[122.953827,7.77092],[122.95813,7.76712],[122.96344,7.76242]]]]}},{"type":"Feature","properties":{"ID_0":177,"ISO":"PHL","NAME_0":"Philippines","ID_1":9083,"NAME_1":"Zamboanga Sibugay","ID_2":908303,"NAME_2":"Diplahan","ID_3":908303008,"NAME_3":"Guinoman","NL_NAME_3":null,"VARNAME_3":null,"TYPE_3":"Barangay","ENGTYPE_3":"Village","PROVINCE":"Zamboanga Sibugay","REGION":"Region IX (Zamboanga Peninsula)","id":"barangay-0908303008","name":"Guinoman","barangayCode":"0908303008","population":null,"formattedPop":null,"densityCategory":"No data","vulnerabilityRating":"No data","healthRiskLevel":"No data","areaKm2":36.395491,"centerLat":7.847619,"centerLng":122.943037,"geometrySource":"all_barangay-2.csv detailed WKT","geometryMatchMethod":"unique_official_admin_names","boundaryPointCount":13},"geometry":{"type":"MultiPolygon","coordinates":[[[[122.993057,7.82587],[122.962097,7.82596],[122.958313,7.82531],[122.956589,7.82532],[122.954697,7.82574],[122.952797,7.82671],[122.951027,7.82617],[122.946541,7.82588],[122.942047,7.82494],[122.936829,7.82465],[122.916618,7.82438],[122.91584,7.83192],[122.993057,7.82587]]]]}},{"type":"Feature","properties":{"ID_0":177,"ISO":"PHL","NAME_0":"Philippines","ID_1":9083,"NAME_1":"Zamboanga Sibugay","ID_2":908303,"NAME_2":"Diplahan","ID_3":908303010,"NAME_3":"Kauswagan","NL_NAME_3":null,"VARNAME_3":null,"TYPE_3":"Barangay","ENGTYPE_3":"Village","PROVINCE":"Zamboanga Sibugay","REGION":"Region IX (Zamboanga Peninsula)","id":"barangay-0908303010","name":"Kauswagan","barangayCode":"0908303010","population":null,"formattedPop":null,"densityCategory":"No data","vulnerabilityRating":"No data","healthRiskLevel":"No data","areaKm2":1.17162,"centerLat":7.699883,"centerLng":122.988796,"geometrySource":"all_barangay-2.csv detailed WKT","geometryMatchMethod":"unique_official_admin_names","boundaryPointCount":12},"geometry":{"type":"MultiPolygon","coordinates":[[[[122.965317,7.71815],[122.970573,7.72062],[122.986488,7.71722],[122.997559,7.71469],[123.004677,7.71526],[123.004143,7.70525],[122.977257,7.70509],[122.96344,7.70554],[122.954788,7.70606],[122.950508,7.70676],[122.948822,7.70718],[122.965317,7.71815]]]]}},{"type":"Feature","properties":{"ID_0":177,"ISO":"PHL","NAME_0":"Philippines","ID_1":9083,"NAME_1":"Zamboanga Sibugay","ID_2":908303,"NAME_2":"Diplahan","ID_3":908303011,"NAME_3":"Lindang","NL_NAME_3":null,"VARNAME_3":null,"TYPE_3":"Barangay","ENGTYPE_3":"Village","PROVINCE":"Zamboanga Sibugay","REGION":"Region IX (Zamboanga Peninsula)","id":"barangay-0908303011","name":"Lindang","barangayCode":"0908303011","population":null,"formattedPop":null,"densityCategory":"No data","vulnerabilityRating":"No data","healthRiskLevel":"No data","areaKm2":2.016922,"centerLat":7.730086,"centerLng":122.967352,"geometrySource":"all_barangay-2.csv detailed WKT","geometryMatchMethod":"unique_official_admin_names","boundaryPointCount":15},"geometry":{"type":"MultiPolygon","coordinates":[[[[122.948959,7.77473],[122.953827,7.77092],[122.953941,7.76663],[122.953308,7.75693],[122.953056,7.7516],[122.951347,7.73867],[122.938797,7.73966],[122.940269,7.74854],[122.939537,7.75863],[122.943001,7.76187],[122.944138,7.76747],[122.945084,7.76823],[122.946823,7.76948],[122.947983,7.77292],[122.948959,7.77473]]]]}},{"type":"Feature","properties":{"ID_0":177,"ISO":"PHL","NAME_0":"Philippines","ID_1":9083,"NAME_1":"Zamboanga Sibugay","ID_2":908303,"NAME_2":"Diplahan","ID_3":908303012,"NAME_3":"Lobing","NL_NAME_3":null,"VARNAME_3":null,"TYPE_3":"Barangay","ENGTYPE_3":"Village","PROVINCE":"Zamboanga Sibugay","REGION":"Region IX (Zamboanga Peninsula)","id":"barangay-0908303012","name":"Lobing","barangayCode":"0908303012","population":null,"formattedPop":null,"densityCategory":"No data","vulnerabilityRating":"No data","healthRiskLevel":"No data","areaKm2":4.521,"centerLat":7.696412,"centerLng":122.962751,"geometrySource":"all_barangay-2.csv detailed WKT","geometryMatchMethod":"unique_official_admin_names","boundaryPointCount":11},"geometry":{"type":"MultiPolygon","coordinates":[[[[122.930168,7.71294],[122.9366,7.70699],[122.948822,7.70718],[122.941299,7.70048],[122.938721,7.68389],[122.926193,7.69006],[122.919617,7.69273],[122.926323,7.699],[122.926308,7.70085],[122.924797,7.71706],[122.930168,7.71294]]]]}},{"type":"Feature","properties":{"ID_0":177,"ISO":"PHL","NAME_0":"Philippines","ID_1":9083,"NAME_1":"Zamboanga Sibugay","ID_2":908303,"NAME_2":"Diplahan","ID_3":908303015,"NAME_3":"Paradise","NL_NAME_3":null,"VARNAME_3":null,"TYPE_3":"Barangay","ENGTYPE_3":"Village","PROVINCE":"Zamboanga Sibugay","REGION":"Region IX (Zamboanga Peninsula)","id":"barangay-0908303015","name":"Paradise","barangayCode":"0908303015","population":null,"formattedPop":null,"densityCategory":"No data","vulnerabilityRating":"No data","healthRiskLevel":"No data","areaKm2":3.782119,"centerLat":7.766247,"centerLng":122.965749,"geometrySource":"all_barangay-2.csv detailed WKT","geometryMatchMethod":"unique_official_admin_names","boundaryPointCount":26},"geometry":{"type":"MultiPolygon","coordinates":[[[[122.952133,7.79715],[122.951347,7.79652],[122.950623,7.79553],[122.950493,7.79528],[122.948982,7.79441],[122.947739,7.79338],[122.946297,7.79176],[122.947128,7.78776],[122.947449,7.78631],[122.947487,7.78525],[122.948387,7.78297],[122.943878,7.78122],[122.943817,7.78118],[122.937157,7.77604],[122.920227,7.77644],[122.918427,7.79183],[122.918427,7.792918],[122.918419,7.79617],[122.921867,7.79642],[122.923737,7.79491],[122.926247,7.79313],[122.928436,7.78863],[122.92939,7.7927],[122.931282,7.79554],[122.934113,7.79457],[122.952133,7.79715]]]]}},{"type":"Feature","properties":{"ID_0":177,"ISO":"PHL","NAME_0":"Philippines","ID_1":9083,"NAME_1":"Zamboanga Sibugay","ID_2":908303,"NAME_2":"Diplahan","ID_3":908303016,"NAME_3":"Sampoli A","NL_NAME_3":null,"VARNAME_3":null,"TYPE_3":"Barangay","ENGTYPE_3":"Village","PROVINCE":"Zamboanga Sibugay","REGION":"Region IX (Zamboanga Peninsula)","id":"barangay-0908303016","name":"Sampoli A","barangayCode":"0908303016","population":null,"formattedPop":null,"densityCategory":"No data","vulnerabilityRating":"No data","healthRiskLevel":"No data","areaKm2":2.603626,"centerLat":7.783902,"centerLng":122.971454,"geometrySource":"all_barangay-2.csv detailed WKT","geometryMatchMethod":"unique_official_admin_names","boundaryPointCount":18},"geometry":{"type":"MultiPolygon","coordinates":[[[[122.952133,7.79715],[122.934113,7.79457],[122.93367,7.79955],[122.934464,7.80018],[122.935966,7.80054],[122.937202,7.80185],[122.938271,7.80233],[122.939598,7.80354],[122.940063,7.80567],[122.940453,7.80749],[122.940712,7.80877],[122.940514,7.81066],[122.940369,7.81155],[122.947807,7.80375],[122.948883,7.80122],[122.949982,7.79889],[122.950882,7.79823],[122.952133,7.79715]]]]}},{"type":"Feature","properties":{"ID_0":177,"ISO":"PHL","NAME_0":"Philippines","ID_1":9083,"NAME_1":"Zamboanga Sibugay","ID_2":908303,"NAME_2":"Diplahan","ID_3":908303017,"NAME_3":"Songcuya","NL_NAME_3":null,"VARNAME_3":null,"TYPE_3":"Barangay","ENGTYPE_3":"Village","PROVINCE":"Zamboanga Sibugay","REGION":"Region IX (Zamboanga Peninsula)","id":"barangay-0908303017","name":"Songcuya","barangayCode":"0908303017","population":null,"formattedPop":null,"densityCategory":"No data","vulnerabilityRating":"No data","healthRiskLevel":"No data","areaKm2":3.373811,"centerLat":7.720114,"centerLng":122.963018,"geometrySource":"all_barangay-2.csv detailed WKT","geometryMatchMethod":"unique_official_admin_names","boundaryPointCount":10},"geometry":{"type":"MultiPolygon","coordinates":[[[[122.922836,7.74227],[122.938797,7.73966],[122.951347,7.73867],[122.941963,7.72668],[122.94146,7.72648],[122.938492,7.72308],[122.930168,7.71294],[122.924797,7.71706],[122.924049,7.7242],[122.922836,7.74227]]]]}},{"type":"Feature","properties":{"ID_0":177,"ISO":"PHL","NAME_0":"Philippines","ID_1":9083,"NAME_1":"Zamboanga Sibugay","ID_2":908303,"NAME_2":"Diplahan","ID_3":908303018,"NAME_3":"Santa Cruz","NL_NAME_3":null,"VARNAME_3":null,"TYPE_3":"Barangay","ENGTYPE_3":"Village","PROVINCE":"Zamboanga Sibugay","REGION":"Region IX (Zamboanga Peninsula)","id":"barangay-0908303018","name":"Santa Cruz","barangayCode":"0908303018","population":null,"formattedPop":null,"densityCategory":"No data","vulnerabilityRating":"No data","healthRiskLevel":"No data","areaKm2":2.015744,"centerLat":7.71275,"centerLng":122.99507,"geometrySource":"all_barangay-2.csv detailed WKT","geometryMatchMethod":"unique_official_admin_names","boundaryPointCount":8},"geometry":{"type":"MultiPolygon","coordinates":[[[[122.981453,7.73862],[123.004753,7.74161],[123.004623,7.73083],[122.991341,7.72745],[122.980637,7.72849],[122.976913,7.73109],[122.973,7.73774],[122.981453,7.73862]]]]}},{"type":"Feature","properties":{"ID_0":177,"ISO":"PHL","NAME_0":"Philippines","ID_1":9083,"NAME_1":"Zamboanga Sibugay","ID_2":908303,"NAME_2":"Diplahan","ID_3":908303019,"NAME_3":"Butong","NL_NAME_3":null,"VARNAME_3":null,"TYPE_3":"Barangay","ENGTYPE_3":"Village","PROVINCE":"Zamboanga Sibugay","REGION":"Region IX (Zamboanga Peninsula)","id":"barangay-0908303019","name":"Butong","barangayCode":"0908303019","population":null,"formattedPop":null,"densityCategory":"No data","vulnerabilityRating":"No data","healthRiskLevel":"No data","areaKm2":2.111298,"centerLat":7.703781,"centerLng":123.000432,"geometrySource":"all_barangay-2.csv detailed WKT","geometryMatchMethod":"unique_official_admin_names","boundaryPointCount":8},"geometry":{"type":"MultiPolygon","coordinates":[[[[123.004623,7.73083],[123.004677,7.71526],[122.997559,7.71469],[122.986488,7.71722],[122.970573,7.72062],[122.980637,7.72849],[122.991341,7.72745],[123.004623,7.73083]]]]}},{"type":"Feature","properties":{"ID_0":177,"ISO":"PHL","NAME_0":"Philippines","ID_1":9083,"NAME_1":"Zamboanga Sibugay","ID_2":908303,"NAME_2":"Diplahan","ID_3":908303025,"NAME_3":"Sampoli B","NL_NAME_3":null,"VARNAME_3":null,"TYPE_3":"Barangay","ENGTYPE_3":"Village","PROVINCE":"Zamboanga Sibugay","REGION":"Region IX (Zamboanga Peninsula)","id":"barangay-0908303025","name":"Sampoli B","barangayCode":"0908303025","population":null,"formattedPop":null,"densityCategory":"No data","vulnerabilityRating":"No data","healthRiskLevel":"No data","areaKm2":3.139104,"centerLat":7.784191,"centerLng":122.959512,"geometrySource":"all_barangay-2.csv detailed WKT","geometryMatchMethod":"unique_official_admin_names","boundaryPointCount":23},"geometry":{"type":"MultiPolygon","coordinates":[[[[122.940369,7.81155],[122.940514,7.81066],[122.940712,7.80877],[122.940453,7.80749],[122.940063,7.80567],[122.939598,7.80354],[122.938271,7.80233],[122.937202,7.80185],[122.935966,7.80054],[122.934464,7.80018],[122.93367,7.79955],[122.934113,7.79457],[122.931282,7.79554],[122.92939,7.7927],[122.928436,7.78863],[122.926247,7.79313],[122.923737,7.79491],[122.921867,7.79642],[122.918419,7.79617],[122.918266,7.79922],[122.935623,7.80972],[122.939537,7.81508],[122.940369,7.81155]]]]}},{"type":"Feature","properties":{"ID_0":177,"ISO":"PHL","NAME_0":"Philippines","ID_1":9083,"NAME_1":"Zamboanga Sibugay","ID_2":908303,"NAME_2":"Diplahan","ID_3":908303026,"NAME_3":"Luop","NL_NAME_3":null,"VARNAME_3":null,"TYPE_3":"Barangay","ENGTYPE_3":"Village","PROVINCE":"Zamboanga Sibugay","REGION":"Region IX (Zamboanga Peninsula)","id":"barangay-0908303026","name":"Luop","barangayCode":"0908303026","population":null,"formattedPop":null,"densityCategory":"No data","vulnerabilityRating":"No data","healthRiskLevel":"No data","areaKm2":2.567109,"centerLat":7.739996,"centerLng":122.950061,"geometrySource":"all_barangay-2.csv detailed WKT","geometryMatchMethod":"unique_official_admin_names","boundaryPointCount":17},"geometry":{"type":"MultiPolygon","coordinates":[[[[122.943817,7.78118],[122.948143,7.77605],[122.948959,7.77473],[122.947983,7.77292],[122.946823,7.76948],[122.945084,7.76823],[122.944138,7.76747],[122.943001,7.76187],[122.939537,7.75863],[122.940269,7.74854],[122.938797,7.73966],[122.922836,7.74227],[122.921677,7.75909],[122.920471,7.77191],[122.920227,7.77644],[122.937157,7.77604],[122.943817,7.78118]]]]}},{"type":"Feature","properties":{"ID_0":177,"ISO":"PHL","NAME_0":"Philippines","ID_1":9083,"NAME_1":"Zamboanga Sibugay","ID_2":908303,"NAME_2":"Diplahan","ID_3":908303027,"NAME_3":"Manangon","NL_NAME_3":null,"VARNAME_3":null,"TYPE_3":"Barangay","ENGTYPE_3":"Village","PROVINCE":"Zamboanga Sibugay","REGION":"Region IX (Zamboanga Peninsula)","id":"barangay-0908303027","name":"Manangon","barangayCode":"0908303027","population":null,"formattedPop":null,"densityCategory":"No data","vulnerabilityRating":"No data","healthRiskLevel":"No data","areaKm2":1.476497,"centerLat":7.737793,"centerLng":122.972928,"geometrySource":"all_barangay-2.csv detailed WKT","geometryMatchMethod":"unique_official_admin_names","boundaryPointCount":13},"geometry":{"type":"MultiPolygon","coordinates":[[[[123.005157,7.7661],[123.004753,7.74161],[122.981453,7.73862],[122.981438,7.74933],[122.969612,7.75647],[122.964943,7.76129],[122.96344,7.76242],[122.96508,7.76881],[122.9655,7.77056],[122.972343,7.76941],[122.975693,7.76941],[122.985199,7.76824],[123.005157,7.7661]]]]}},{"type":"Feature","properties":{"ID_0":177,"ISO":"PHL","NAME_0":"Philippines","ID_1":9083,"NAME_1":"Zamboanga Sibugay","ID_2":908303,"NAME_2":"Diplahan","ID_3":908303028,"NAME_3":"Mejo","NL_NAME_3":null,"VARNAME_3":null,"TYPE_3":"Barangay","ENGTYPE_3":"Village","PROVINCE":"Zamboanga Sibugay","REGION":"Region IX (Zamboanga Peninsula)","id":"barangay-0908303028","name":"Mejo","barangayCode":"0908303028","population":null,"formattedPop":null,"densityCategory":"No data","vulnerabilityRating":"No data","healthRiskLevel":"No data","areaKm2":2.373314,"centerLat":7.703877,"centerLng":122.974572,"geometrySource":"all_barangay-2.csv detailed WKT","geometryMatchMethod":"unique_official_admin_names","boundaryPointCount":10},"geometry":{"type":"MultiPolygon","coordinates":[[[[122.941963,7.72668],[122.951477,7.72254],[122.956383,7.72024],[122.965317,7.71815],[122.948822,7.70718],[122.9366,7.70699],[122.930168,7.71294],[122.938492,7.72308],[122.94146,7.72648],[122.941963,7.72668]]]]}},{"type":"Feature","properties":{"ID_0":177,"ISO":"PHL","NAME_0":"Philippines","ID_1":9083,"NAME_1":"Zamboanga Sibugay","ID_2":908303,"NAME_2":"Diplahan","ID_3":908303029,"NAME_3":"Natan","NL_NAME_3":null,"VARNAME_3":null,"TYPE_3":"Barangay","ENGTYPE_3":"Village","PROVINCE":"Zamboanga Sibugay","REGION":"Region IX (Zamboanga Peninsula)","id":"barangay-0908303029","name":"Natan","barangayCode":"0908303029","population":null,"formattedPop":null,"densityCategory":"No data","vulnerabilityRating":"No data","healthRiskLevel":"No data","areaKm2":2.608431,"centerLat":7.792574,"centerLng":122.946464,"geometrySource":"all_barangay-2.csv detailed WKT","geometryMatchMethod":"unique_official_admin_names","boundaryPointCount":7},"geometry":{"type":"MultiPolygon","coordinates":[[[[122.939537,7.81508],[122.935623,7.80972],[122.918266,7.79922],[122.917374,7.81483],[122.936394,7.81593],[122.939529,7.81618],[122.939537,7.81508]]]]}},{"type":"Feature","properties":{"ID_0":177,"ISO":"PHL","NAME_0":"Philippines","ID_1":9083,"NAME_1":"Zamboanga Sibugay","ID_2":908303,"NAME_2":"Diplahan","ID_3":908303030,"NAME_3":"Tinongtongan","NL_NAME_3":null,"VARNAME_3":null,"TYPE_3":"Barangay","ENGTYPE_3":"Village","PROVINCE":"Zamboanga Sibugay","REGION":"Region IX (Zamboanga Peninsula)","id":"barangay-0908303030","name":"Tinongtongan","barangayCode":"0908303030","population":null,"formattedPop":null,"densityCategory":"No data","vulnerabilityRating":"No data","healthRiskLevel":"No data","areaKm2":2.884587,"centerLat":7.715135,"centerLng":122.980303,"geometrySource":"all_barangay-2.csv detailed WKT","geometryMatchMethod":"unique_official_admin_names","boundaryPointCount":10},"geometry":{"type":"MultiPolygon","coordinates":[[[[122.951347,7.73867],[122.973,7.73774],[122.976913,7.73109],[122.980637,7.72849],[122.970573,7.72062],[122.965317,7.71815],[122.956383,7.72024],[122.951477,7.72254],[122.941963,7.72668],[122.951347,7.73867]]]]}},{"type":"Feature","properties":{"ID_0":177,"ISO":"PHL","NAME_0":"Philippines","ID_1":9083,"NAME_1":"Zamboanga Sibugay","ID_2":908303,"NAME_2":"Diplahan","ID_3":908303031,"NAME_3":"Tuno","NL_NAME_3":null,"VARNAME_3":null,"TYPE_3":"Barangay","ENGTYPE_3":"Village","PROVINCE":"Zamboanga Sibugay","REGION":"Region IX (Zamboanga Peninsula)","id":"barangay-0908303031","name":"Tuno","barangayCode":"0908303031","population":null,"formattedPop":null,"densityCategory":"No data","vulnerabilityRating":"No data","healthRiskLevel":"No data","areaKm2":1.226184,"centerLat":7.745578,"centerLng":122.975389,"geometrySource":"all_barangay-2.csv detailed WKT","geometryMatchMethod":"unique_official_admin_names","boundaryPointCount":12},"geometry":{"type":"MultiPolygon","coordinates":[[[[123.005951,7.78988],[123.005157,7.7661],[122.985199,7.76824],[122.975693,7.76941],[122.972343,7.76941],[122.9655,7.77056],[122.967888,7.78083],[122.967247,7.7846],[122.967552,7.78955],[122.966599,7.79112],[122.967056,7.7957],[123.005951,7.78988]]]]}}]}
