{"type":"FeatureCollection","features":[{"type":"Feature","properties":{"ID_0":177,"ISO":"PHL","NAME_0":"Philippines","ID_1":10042,"NAME_1":"Misamis Occidental","ID_2":1004201,"NAME_2":"Aloran","ID_3":1004201001,"NAME_3":"Balintonga","NL_NAME_3":null,"VARNAME_3":null,"TYPE_3":"Barangay","ENGTYPE_3":"Village","PROVINCE":"Misamis Occidental","REGION":"Region X (Northern Mindanao)","id":"barangay-1004201001","name":"Balintonga","barangayCode":"1004201001","population":null,"formattedPop":null,"densityCategory":"No data","vulnerabilityRating":"No data","healthRiskLevel":"No data","areaKm2":5.964815,"centerLat":8.407079,"centerLng":123.74745,"geometrySource":"all_barangay-2.csv detailed WKT","geometryMatchMethod":"unique_official_admin_names","boundaryPointCount":41},"geometry":{"type":"MultiPolygon","coordinates":[[[[123.768753,8.42319],[123.771812,8.41698],[123.771667,8.41547],[123.771263,8.41543],[123.769836,8.41578],[123.769371,8.41609],[123.767479,8.41572],[123.766647,8.41495],[123.765846,8.41484],[123.765228,8.41451],[123.7649,8.41325],[123.764397,8.41245],[123.764099,8.41241],[123.762787,8.41211],[123.761917,8.41178],[123.761269,8.41127],[123.760689,8.41137],[123.760071,8.41115],[123.760071,8.41068],[123.760223,8.41043],[123.760139,8.40957],[123.75898,8.40953],[123.758102,8.40926],[123.758003,8.40905],[123.758209,8.40833],[123.758293,8.4078],[123.757446,8.40746],[123.756653,8.40724],[123.75563,8.40698],[123.754898,8.40672],[123.754211,8.40592],[123.753273,8.40599],[123.753014,8.40584],[123.752502,8.40465],[123.752029,8.40425],[123.751373,8.40464],[123.751198,8.40475],[123.749847,8.40344],[123.748352,8.40375],[123.765099,8.41967],[123.768753,8.42319]]]]}},{"type":"Feature","properties":{"ID_0":177,"ISO":"PHL","NAME_0":"Philippines","ID_1":10042,"NAME_1":"Misamis Occidental","ID_2":1004201,"NAME_2":"Aloran","ID_3":1004201002,"NAME_3":"Banisilon","NL_NAME_3":null,"VARNAME_3":null,"TYPE_3":"Barangay","ENGTYPE_3":"Village","PROVINCE":"Misamis Occidental","REGION":"Region X (Northern Mindanao)","id":"barangay-1004201002","name":"Banisilon","barangayCode":"1004201002","population":null,"formattedPop":null,"densityCategory":"No data","vulnerabilityRating":"No data","healthRiskLevel":"No data","areaKm2":1.569779,"centerLat":8.391919,"centerLng":123.819076,"geometrySource":"all_barangay-2.csv detailed WKT","geometryMatchMethod":"unique_official_admin_names","boundaryPointCount":27},"geometry":{"type":"MultiPolygon","coordinates":[[[[123.832542,8.40289],[123.832733,8.40091],[123.832817,8.39995],[123.832787,8.39788],[123.832413,8.39628],[123.829979,8.39277],[123.828369,8.39075],[123.827469,8.39011],[123.826134,8.38979],[123.825256,8.39014],[123.824608,8.39027],[123.823769,8.39047],[123.82312,8.39028],[123.822746,8.38977],[123.82196,8.38907],[123.821564,8.38954],[123.820839,8.3891],[123.82,8.38873],[123.819031,8.38847],[123.817688,8.38813],[123.816994,8.38794],[123.816383,8.3874],[123.815727,8.38703],[123.815292,8.38685],[123.813667,8.38526],[123.811028,8.39304],[123.832542,8.40289]]]]}},{"type":"Feature","properties":{"ID_0":177,"ISO":"PHL","NAME_0":"Philippines","ID_1":10042,"NAME_1":"Misamis Occidental","ID_2":1004201,"NAME_2":"Aloran","ID_3":1004201003,"NAME_3":"Burgos","NL_NAME_3":null,"VARNAME_3":null,"TYPE_3":"Barangay","ENGTYPE_3":"Village","PROVINCE":"Misamis Occidental","REGION":"Region X (Northern Mindanao)","id":"barangay-1004201003","name":"Burgos","barangayCode":"1004201003","population":null,"formattedPop":null,"densityCategory":"No data","vulnerabilityRating":"No data","healthRiskLevel":"No data","areaKm2":1.153505,"centerLat":8.393359,"centerLng":123.808853,"geometrySource":"all_barangay-2.csv detailed WKT","geometryMatchMethod":"unique_official_admin_names","boundaryPointCount":14},"geometry":{"type":"MultiPolygon","coordinates":[[[[123.789299,8.39463],[123.799477,8.4031],[123.805443,8.39431],[123.806969,8.39109],[123.782303,8.37925],[123.780807,8.38196],[123.780769,8.38368],[123.781059,8.3848],[123.781601,8.38599],[123.783203,8.38812],[123.78479,8.39003],[123.785919,8.39119],[123.786652,8.39191],[123.789299,8.39463]]]]}},{"type":"Feature","properties":{"ID_0":177,"ISO":"PHL","NAME_0":"Philippines","ID_1":10042,"NAME_1":"Misamis Occidental","ID_2":1004201,"NAME_2":"Aloran","ID_3":1004201004,"NAME_3":"Calube","NL_NAME_3":null,"VARNAME_3":null,"TYPE_3":"Barangay","ENGTYPE_3":"Village","PROVINCE":"Misamis Occidental","REGION":"Region X (Northern Mindanao)","id":"barangay-1004201004","name":"Calube","barangayCode":"1004201004","population":null,"formattedPop":null,"densityCategory":"No data","vulnerabilityRating":"No data","healthRiskLevel":"No data","areaKm2":2.974035,"centerLat":8.385459,"centerLng":123.793192,"geometrySource":"all_barangay-2.csv detailed WKT","geometryMatchMethod":"unique_official_admin_names","boundaryPointCount":16},"geometry":{"type":"MultiPolygon","coordinates":[[[[123.807678,8.40919],[123.808884,8.40736],[123.81089,8.40407],[123.812897,8.3994],[123.811081,8.39844],[123.810387,8.39814],[123.808907,8.39755],[123.808067,8.39707],[123.807213,8.39616],[123.806702,8.39537],[123.806412,8.39486],[123.805443,8.39431],[123.799477,8.4031],[123.804817,8.40759],[123.807098,8.4082],[123.807678,8.40919]]]]}},{"type":"Feature","properties":{"ID_0":177,"ISO":"PHL","NAME_0":"Philippines","ID_1":10042,"NAME_1":"Misamis Occidental","ID_2":1004201,"NAME_2":"Aloran","ID_3":1004201005,"NAME_3":"Caputol","NL_NAME_3":null,"VARNAME_3":null,"TYPE_3":"Barangay","ENGTYPE_3":"Village","PROVINCE":"Misamis Occidental","REGION":"Region X (Northern Mindanao)","id":"barangay-1004201005","name":"Caputol","barangayCode":"1004201005","population":null,"formattedPop":null,"densityCategory":"No data","vulnerabilityRating":"No data","healthRiskLevel":"No data","areaKm2":3.279438,"centerLat":8.411123,"centerLng":123.777956,"geometrySource":"all_barangay-2.csv detailed WKT","geometryMatchMethod":"unique_official_admin_names","boundaryPointCount":44},"geometry":{"type":"MultiPolygon","coordinates":[[[[123.800041,8.41853],[123.801277,8.41487],[123.799316,8.41455],[123.797897,8.4133],[123.796021,8.41252],[123.793953,8.41152],[123.790787,8.41062],[123.790283,8.41044],[123.789482,8.41014],[123.788567,8.40952],[123.787529,8.4084],[123.787086,8.40753],[123.786072,8.40723],[123.785133,8.40744],[123.783127,8.40846],[123.782402,8.40769],[123.780479,8.40671],[123.779167,8.40648],[123.77829,8.40629],[123.776009,8.40472],[123.775352,8.40414],[123.775131,8.40399],[123.771873,8.40321],[123.772621,8.40533],[123.774223,8.40743],[123.776688,8.40914],[123.778473,8.41103],[123.779922,8.41215],[123.78196,8.41325],[123.783333,8.41395],[123.785263,8.41484],[123.787041,8.41558],[123.788528,8.41624],[123.790237,8.41626],[123.79129,8.41592],[123.792374,8.41572],[123.793167,8.41677],[123.79332,8.41677],[123.793907,8.41721],[123.794594,8.41769],[123.79612,8.41829],[123.796661,8.41851],[123.799026,8.41985],[123.800041,8.41853]]]]}},{"type":"Feature","properties":{"ID_0":177,"ISO":"PHL","NAME_0":"Philippines","ID_1":10042,"NAME_1":"Misamis Occidental","ID_2":1004201,"NAME_2":"Aloran","ID_3":1004201006,"NAME_3":"Casusan","NL_NAME_3":null,"VARNAME_3":null,"TYPE_3":"Barangay","ENGTYPE_3":"Village","PROVINCE":"Misamis Occidental","REGION":"Region X (Northern Mindanao)","id":"barangay-1004201006","name":"Casusan","barangayCode":"1004201006","population":null,"formattedPop":null,"densityCategory":"No data","vulnerabilityRating":"No data","healthRiskLevel":"No data","areaKm2":1.463844,"centerLat":8.400468,"centerLng":123.821613,"geometrySource":"all_barangay-2.csv detailed WKT","geometryMatchMethod":"unique_official_admin_names","boundaryPointCount":30},"geometry":{"type":"MultiPolygon","coordinates":[[[[123.832062,8.40519],[123.832542,8.40289],[123.811028,8.39304],[123.806969,8.39109],[123.805443,8.39431],[123.806412,8.39486],[123.806702,8.39537],[123.807213,8.39616],[123.808067,8.39707],[123.808907,8.39755],[123.810387,8.39814],[123.811081,8.39844],[123.812897,8.3994],[123.813744,8.39927],[123.814598,8.39931],[123.815247,8.39979],[123.815903,8.40049],[123.816483,8.40058],[123.817238,8.40113],[123.818123,8.40166],[123.819382,8.40197],[123.821373,8.40242],[123.822517,8.40274],[123.824547,8.40312],[123.826897,8.40346],[123.827293,8.40428],[123.827827,8.40452],[123.828857,8.40467],[123.82991,8.4048],[123.832062,8.40519]]]]}},{"type":"Feature","properties":{"ID_0":177,"ISO":"PHL","NAME_0":"Philippines","ID_1":10042,"NAME_1":"Misamis Occidental","ID_2":1004201,"NAME_2":"Aloran","ID_3":1004201007,"NAME_3":"Conat","NL_NAME_3":null,"VARNAME_3":null,"TYPE_3":"Barangay","ENGTYPE_3":"Village","PROVINCE":"Misamis Occidental","REGION":"Region X (Northern Mindanao)","id":"barangay-1004201007","name":"Conat","barangayCode":"1004201007","population":null,"formattedPop":null,"densityCategory":"No data","vulnerabilityRating":"No data","healthRiskLevel":"No data","areaKm2":1.977259,"centerLat":8.442778,"centerLng":123.817749,"geometrySource":"all_barangay-2.csv detailed WKT","geometryMatchMethod":"unique_official_admin_names","boundaryPointCount":37},"geometry":{"type":"MultiPolygon","coordinates":[[[[123.81604,8.45892],[123.81559,8.45834],[123.815491,8.45791],[123.815308,8.45716],[123.815437,8.45612],[123.816002,8.45438],[123.817543,8.45189],[123.81913,8.44981],[123.820869,8.44794],[123.821053,8.44772],[123.818626,8.44641],[123.818138,8.44633],[123.817978,8.4463],[123.816978,8.44614],[123.815102,8.44622],[123.814163,8.44618],[123.814056,8.44618],[123.813248,8.44615],[123.812103,8.44567],[123.811119,8.44526],[123.812447,8.44691],[123.812721,8.44885],[123.813141,8.45006],[123.813629,8.45032],[123.814232,8.45079],[123.814262,8.45149],[123.814293,8.45207],[123.814453,8.45334],[123.814453,8.45341],[123.814659,8.45508],[123.814659,8.45664],[123.814758,8.45784],[123.81514,8.45881],[123.815224,8.45884],[123.815437,8.45889],[123.815552,8.45891],[123.81604,8.45892]]]]}},{"type":"Feature","properties":{"ID_0":177,"ISO":"PHL","NAME_0":"Philippines","ID_1":10042,"NAME_1":"Misamis Occidental","ID_2":1004201,"NAME_2":"Aloran","ID_3":1004201008,"NAME_3":"Culpan","NL_NAME_3":null,"VARNAME_3":null,"TYPE_3":"Barangay","ENGTYPE_3":"Village","PROVINCE":"Misamis Occidental","REGION":"Region X (Northern Mindanao)","id":"barangay-1004201008","name":"Culpan","barangayCode":"1004201008","population":null,"formattedPop":null,"densityCategory":"No data","vulnerabilityRating":"No data","healthRiskLevel":"No data","areaKm2":2.252643,"centerLat":8.426967,"centerLng":123.781942,"geometrySource":"all_barangay-2.csv detailed WKT","geometryMatchMethod":"unique_official_admin_names","boundaryPointCount":35},"geometry":{"type":"MultiPolygon","coordinates":[[[[123.79261,8.44136],[123.796143,8.42883],[123.794983,8.42729],[123.794067,8.42645],[123.793709,8.42576],[123.79335,8.42546],[123.792007,8.42494],[123.791237,8.42427],[123.790703,8.42351],[123.789688,8.42378],[123.788986,8.42428],[123.787613,8.42401],[123.787392,8.42436],[123.787247,8.42476],[123.786407,8.42431],[123.786049,8.42388],[123.785393,8.4239],[123.784851,8.42382],[123.783943,8.42342],[123.777603,8.43661],[123.778221,8.43795],[123.778732,8.43908],[123.779602,8.4397],[123.780586,8.43993],[123.781197,8.44012],[123.782043,8.44086],[123.782799,8.44159],[123.784027,8.44247],[123.785339,8.44267],[123.786003,8.44261],[123.787117,8.4427],[123.788208,8.44312],[123.788933,8.44313],[123.791077,8.44184],[123.79261,8.44136]]]]}},{"type":"Feature","properties":{"ID_0":177,"ISO":"PHL","NAME_0":"Philippines","ID_1":10042,"NAME_1":"Misamis Occidental","ID_2":1004201,"NAME_2":"Aloran","ID_3":1004201009,"NAME_3":"Dalisay","NL_NAME_3":null,"VARNAME_3":null,"TYPE_3":"Barangay","ENGTYPE_3":"Village","PROVINCE":"Misamis Occidental","REGION":"Region X (Northern Mindanao)","id":"barangay-1004201009","name":"Dalisay","barangayCode":"1004201009","population":null,"formattedPop":null,"densityCategory":"No data","vulnerabilityRating":"No data","healthRiskLevel":"No data","areaKm2":0.241887,"centerLat":8.417915,"centerLng":123.819781,"geometrySource":"all_barangay-2.csv detailed WKT","geometryMatchMethod":"unique_official_admin_names","boundaryPointCount":27},"geometry":{"type":"MultiPolygon","coordinates":[[[[123.815269,8.41775],[123.812347,8.41626],[123.81144,8.41519],[123.810677,8.41467],[123.809921,8.41364],[123.808907,8.41232],[123.807678,8.40919],[123.807098,8.4082],[123.804817,8.40759],[123.801903,8.4135],[123.804077,8.41401],[123.80455,8.41409],[123.805351,8.41461],[123.806396,8.4152],[123.806831,8.41557],[123.807564,8.41598],[123.808319,8.41614],[123.809227,8.41641],[123.810127,8.41679],[123.811142,8.41729],[123.811691,8.41759],[123.812767,8.41798],[123.813927,8.41826],[123.814331,8.41856],[123.81498,8.41894],[123.81617,8.4185],[123.815269,8.41775]]]]}},{"type":"Feature","properties":{"ID_0":177,"ISO":"PHL","NAME_0":"Philippines","ID_1":10042,"NAME_1":"Misamis Occidental","ID_2":1004201,"NAME_2":"Aloran","ID_3":1004201010,"NAME_3":"Dullan","NL_NAME_3":null,"VARNAME_3":null,"TYPE_3":"Barangay","ENGTYPE_3":"Village","PROVINCE":"Misamis Occidental","REGION":"Region X (Northern Mindanao)","id":"barangay-1004201010","name":"Dullan","barangayCode":"1004201010","population":null,"formattedPop":null,"densityCategory":"No data","vulnerabilityRating":"No data","healthRiskLevel":"No data","areaKm2":1.356454,"centerLat":8.405909,"centerLng":123.820824,"geometrySource":"all_barangay-2.csv detailed WKT","geometryMatchMethod":"unique_official_admin_names","boundaryPointCount":48},"geometry":{"type":"MultiPolygon","coordinates":[[[[123.833923,8.40946],[123.833351,8.40874],[123.831871,8.40688],[123.832062,8.40519],[123.82991,8.4048],[123.828857,8.40467],[123.827827,8.40452],[123.827293,8.40428],[123.826897,8.40346],[123.824547,8.40312],[123.822517,8.40274],[123.821373,8.40242],[123.819382,8.40197],[123.818123,8.40166],[123.817238,8.40113],[123.816483,8.40058],[123.815903,8.40049],[123.815247,8.39979],[123.814598,8.39931],[123.813744,8.39927],[123.812897,8.3994],[123.81089,8.40407],[123.812523,8.40493],[123.812866,8.40511],[123.813789,8.40517],[123.814827,8.40566],[123.816177,8.40612],[123.817467,8.40629],[123.818062,8.40732],[123.818336,8.40823],[123.819527,8.40874],[123.820328,8.40887],[123.821243,8.40991],[123.82206,8.41012],[123.823288,8.41045],[123.824257,8.41078],[123.826317,8.41159],[123.826683,8.41138],[123.828217,8.41266],[123.828659,8.41256],[123.828857,8.41251],[123.82943,8.41241],[123.830261,8.41226],[123.830971,8.41213],[123.831787,8.41196],[123.832153,8.41182],[123.832443,8.41171],[123.833923,8.40946]]]]}},{"type":"Feature","properties":{"ID_0":177,"ISO":"PHL","NAME_0":"Philippines","ID_1":10042,"NAME_1":"Misamis Occidental","ID_2":1004201,"NAME_2":"Aloran","ID_3":1004201011,"NAME_3":"Ibabao","NL_NAME_3":null,"VARNAME_3":null,"TYPE_3":"Barangay","ENGTYPE_3":"Village","PROVINCE":"Misamis Occidental","REGION":"Region X (Northern Mindanao)","id":"barangay-1004201011","name":"Ibabao","barangayCode":"1004201011","population":null,"formattedPop":null,"densityCategory":"No data","vulnerabilityRating":"No data","healthRiskLevel":"No data","areaKm2":0.118537,"centerLat":8.415535,"centerLng":123.818182,"geometrySource":"all_barangay-2.csv detailed WKT","geometryMatchMethod":"unique_official_admin_names","boundaryPointCount":16},"geometry":{"type":"MultiPolygon","coordinates":[[[[123.815422,8.41488],[123.815109,8.41339],[123.814171,8.41228],[123.813293,8.41164],[123.812103,8.41075],[123.811089,8.41015],[123.810287,8.40967],[123.808884,8.40736],[123.807678,8.40919],[123.808907,8.41232],[123.809921,8.41364],[123.810677,8.41467],[123.81144,8.41519],[123.812347,8.41626],[123.815269,8.41775],[123.815422,8.41488]]]]}},{"type":"Feature","properties":{"ID_0":177,"ISO":"PHL","NAME_0":"Philippines","ID_1":10042,"NAME_1":"Misamis Occidental","ID_2":1004201,"NAME_2":"Aloran","ID_3":1004201012,"NAME_3":"Tubod","NL_NAME_3":null,"VARNAME_3":null,"TYPE_3":"Barangay","ENGTYPE_3":"Village","PROVINCE":"Misamis Occidental","REGION":"Region X (Northern Mindanao)","id":"barangay-1004201012","name":"Tubod","barangayCode":"1004201012","population":null,"formattedPop":null,"densityCategory":"No data","vulnerabilityRating":"No data","healthRiskLevel":"No data","areaKm2":1.112469,"centerLat":8.413243,"centerLng":123.807982,"geometrySource":"all_barangay-2.csv detailed WKT","geometryMatchMethod":"unique_official_admin_names","boundaryPointCount":24},"geometry":{"type":"MultiPolygon","coordinates":[[[[123.801903,8.4135],[123.804817,8.40759],[123.799477,8.4031],[123.799423,8.40526],[123.799797,8.40641],[123.800278,8.40714],[123.800499,8.40768],[123.800529,8.4084],[123.800201,8.40915],[123.79995,8.40926],[123.79882,8.40924],[123.798309,8.40945],[123.79657,8.409],[123.795273,8.40916],[123.794357,8.40937],[123.7929,8.40957],[123.791451,8.40984],[123.790787,8.41062],[123.793953,8.41152],[123.796021,8.41252],[123.797897,8.4133],[123.799316,8.41455],[123.801277,8.41487],[123.801903,8.4135]]]]}},{"type":"Feature","properties":{"ID_0":177,"ISO":"PHL","NAME_0":"Philippines","ID_1":10042,"NAME_1":"Misamis Occidental","ID_2":1004201,"NAME_2":"Aloran","ID_3":1004201013,"NAME_3":"Labo","NL_NAME_3":null,"VARNAME_3":null,"TYPE_3":"Barangay","ENGTYPE_3":"Village","PROVINCE":"Misamis Occidental","REGION":"Region X (Northern Mindanao)","id":"barangay-1004201013","name":"Labo","barangayCode":"1004201013","population":null,"formattedPop":null,"densityCategory":"No data","vulnerabilityRating":"No data","healthRiskLevel":"No data","areaKm2":2.207735,"centerLat":8.405927,"centerLng":123.811421,"geometrySource":"all_barangay-2.csv detailed WKT","geometryMatchMethod":"unique_official_admin_names","boundaryPointCount":30},"geometry":{"type":"MultiPolygon","coordinates":[[[[123.823448,8.41415],[123.824257,8.41078],[123.823288,8.41045],[123.82206,8.41012],[123.821243,8.40991],[123.820328,8.40887],[123.819527,8.40874],[123.818336,8.40823],[123.818062,8.40732],[123.817467,8.40629],[123.816177,8.40612],[123.814827,8.40566],[123.813789,8.40517],[123.812866,8.40511],[123.812523,8.40493],[123.81089,8.40407],[123.808884,8.40736],[123.810287,8.40967],[123.811089,8.41015],[123.812103,8.41075],[123.813293,8.41164],[123.814171,8.41228],[123.815109,8.41339],[123.815422,8.41488],[123.816544,8.41535],[123.817284,8.41482],[123.818542,8.41475],[123.819763,8.41453],[123.821487,8.41499],[123.823448,8.41415]]]]}},{"type":"Feature","properties":{"ID_0":177,"ISO":"PHL","NAME_0":"Philippines","ID_1":10042,"NAME_1":"Misamis Occidental","ID_2":1004201,"NAME_2":"Aloran","ID_3":1004201014,"NAME_3":"Lawa-an","NL_NAME_3":null,"VARNAME_3":null,"TYPE_3":"Barangay","ENGTYPE_3":"Village","PROVINCE":"Misamis Occidental","REGION":"Region X (Northern Mindanao)","id":"barangay-1004201014","name":"Lawa-an","barangayCode":"1004201014","population":null,"formattedPop":null,"densityCategory":"No data","vulnerabilityRating":"No data","healthRiskLevel":"No data","areaKm2":1.80046,"centerLat":8.419055,"centerLng":123.807729,"geometrySource":"all_barangay-2.csv detailed WKT","geometryMatchMethod":"unique_official_admin_names","boundaryPointCount":11},"geometry":{"type":"MultiPolygon","coordinates":[[[[123.806961,8.42204],[123.807823,8.41758],[123.806808,8.41728],[123.805473,8.41644],[123.80423,8.41578],[123.803658,8.41534],[123.801903,8.4135],[123.801277,8.41487],[123.800041,8.41853],[123.804138,8.42107],[123.806961,8.42204]]]]}},{"type":"Feature","properties":{"ID_0":177,"ISO":"PHL","NAME_0":"Philippines","ID_1":10042,"NAME_1":"Misamis Occidental","ID_2":1004201,"NAME_2":"Aloran","ID_3":1004201015,"NAME_3":"Lobogon","NL_NAME_3":null,"VARNAME_3":null,"TYPE_3":"Barangay","ENGTYPE_3":"Village","PROVINCE":"Misamis Occidental","REGION":"Region X (Northern Mindanao)","id":"barangay-1004201015","name":"Lobogon","barangayCode":"1004201015","population":null,"formattedPop":null,"densityCategory":"No data","vulnerabilityRating":"No data","healthRiskLevel":"No data","areaKm2":0.835458,"centerLat":8.413323,"centerLng":123.831672,"geometrySource":"all_barangay-2.csv detailed WKT","geometryMatchMethod":"unique_official_admin_names","boundaryPointCount":44},"geometry":{"type":"MultiPolygon","coordinates":[[[[123.837807,8.42392],[123.837822,8.42351],[123.836922,8.41956],[123.836227,8.41686],[123.835747,8.41521],[123.835602,8.4136],[123.835876,8.41214],[123.836037,8.41138],[123.836159,8.41089],[123.836502,8.40861],[123.836357,8.40798],[123.83609,8.40722],[123.835457,8.40701],[123.83532,8.40618],[123.835388,8.40473],[123.835449,8.40441],[123.835037,8.40463],[123.834953,8.40481],[123.833519,8.40571],[123.833549,8.40642],[123.833862,8.40738],[123.834244,8.40871],[123.834084,8.40908],[123.834007,8.40922],[123.833923,8.40946],[123.832443,8.41171],[123.832153,8.41182],[123.831787,8.41196],[123.830971,8.41213],[123.830261,8.41226],[123.82943,8.41241],[123.828857,8.41251],[123.828659,8.41256],[123.828217,8.41266],[123.826683,8.41138],[123.826317,8.41159],[123.824257,8.41078],[123.823448,8.41415],[123.823341,8.41757],[123.822868,8.41846],[123.821541,8.42071],[123.837601,8.42401],[123.837738,8.42396],[123.837807,8.42392]]]]}},{"type":"Feature","properties":{"ID_0":177,"ISO":"PHL","NAME_0":"Philippines","ID_1":10042,"NAME_1":"Misamis Occidental","ID_2":1004201,"NAME_2":"Aloran","ID_3":1004201016,"NAME_3":"Lumbayao","NL_NAME_3":null,"VARNAME_3":null,"TYPE_3":"Barangay","ENGTYPE_3":"Village","PROVINCE":"Misamis Occidental","REGION":"Region X (Northern Mindanao)","id":"barangay-1004201016","name":"Lumbayao","barangayCode":"1004201016","population":null,"formattedPop":null,"densityCategory":"No data","vulnerabilityRating":"No data","healthRiskLevel":"No data","areaKm2":0.873415,"centerLat":8.422586,"centerLng":123.807145,"geometrySource":"all_barangay-2.csv detailed WKT","geometryMatchMethod":"unique_official_admin_names","boundaryPointCount":25},"geometry":{"type":"MultiPolygon","coordinates":[[[[123.816948,8.43031],[123.817993,8.42886],[123.81871,8.42801],[123.819283,8.42744],[123.819893,8.42728],[123.820137,8.42624],[123.819237,8.42537],[123.818703,8.42481],[123.818024,8.42301],[123.817657,8.42209],[123.816719,8.42149],[123.815849,8.42107],[123.814293,8.42046],[123.813103,8.41979],[123.811478,8.41864],[123.810364,8.41823],[123.809303,8.4176],[123.807823,8.41758],[123.806961,8.42204],[123.81012,8.42397],[123.812393,8.42535],[123.814117,8.42676],[123.814377,8.42767],[123.81543,8.42962],[123.816948,8.43031]]]]}},{"type":"Feature","properties":{"ID_0":177,"ISO":"PHL","NAME_0":"Philippines","ID_1":10042,"NAME_1":"Misamis Occidental","ID_2":1004201,"NAME_2":"Aloran","ID_3":1004201017,"NAME_3":"Makawa","NL_NAME_3":null,"VARNAME_3":null,"TYPE_3":"Barangay","ENGTYPE_3":"Village","PROVINCE":"Misamis Occidental","REGION":"Region X (Northern Mindanao)","id":"barangay-1004201017","name":"Makawa","barangayCode":"1004201017","population":null,"formattedPop":null,"densityCategory":"No data","vulnerabilityRating":"No data","healthRiskLevel":"No data","areaKm2":2.089323,"centerLat":8.395864,"centerLng":123.835376,"geometrySource":"all_barangay-2.csv detailed WKT","geometryMatchMethod":"unique_official_admin_names","boundaryPointCount":43},"geometry":{"type":"MultiPolygon","coordinates":[[[[123.833923,8.40946],[123.834007,8.40922],[123.834084,8.40908],[123.834244,8.40871],[123.833862,8.40738],[123.833549,8.40642],[123.833519,8.40571],[123.834953,8.40481],[123.835037,8.40463],[123.835449,8.40441],[123.835739,8.40299],[123.836502,8.40154],[123.83741,8.39953],[123.838097,8.39821],[123.838593,8.39666],[123.838867,8.39578],[123.839981,8.39461],[123.841263,8.39361],[123.841614,8.39325],[123.841881,8.39286],[123.842178,8.39253],[123.842407,8.3922],[123.842583,8.39188],[123.842697,8.39157],[123.843063,8.39056],[123.843063,8.38878],[123.843063,8.38869],[123.843201,8.38751],[123.843239,8.3862],[123.843246,8.38589],[123.843269,8.3853],[123.843269,8.38456],[123.835648,8.38241],[123.829979,8.39277],[123.832413,8.39628],[123.832787,8.39788],[123.832817,8.39995],[123.832733,8.40091],[123.832542,8.40289],[123.832062,8.40519],[123.831871,8.40688],[123.833351,8.40874],[123.833923,8.40946]]]]}},{"type":"Feature","properties":{"ID_0":177,"ISO":"PHL","NAME_0":"Philippines","ID_1":10042,"NAME_1":"Misamis Occidental","ID_2":1004201,"NAME_2":"Aloran","ID_3":1004201018,"NAME_3":"Manamong","NL_NAME_3":null,"VARNAME_3":null,"TYPE_3":"Barangay","ENGTYPE_3":"Village","PROVINCE":"Misamis Occidental","REGION":"Region X (Northern Mindanao)","id":"barangay-1004201018","name":"Manamong","barangayCode":"1004201018","population":null,"formattedPop":null,"densityCategory":"No data","vulnerabilityRating":"No data","healthRiskLevel":"No data","areaKm2":10.641293,"centerLat":8.368849,"centerLng":123.718026,"geometrySource":"all_barangay-2.csv detailed WKT","geometryMatchMethod":"unique_official_admin_names","boundaryPointCount":20},"geometry":{"type":"MultiPolygon","coordinates":[[[[123.783127,8.40846],[123.786339,8.40084],[123.783829,8.40042],[123.781967,8.40012],[123.779137,8.39966],[123.77787,8.39911],[123.776237,8.39823],[123.775002,8.39847],[123.774094,8.39889],[123.772697,8.39884],[123.772919,8.40146],[123.771873,8.40321],[123.775131,8.40399],[123.775352,8.40414],[123.776009,8.40472],[123.77829,8.40629],[123.779167,8.40648],[123.780479,8.40671],[123.782402,8.40769],[123.783127,8.40846]]]]}},{"type":"Feature","properties":{"ID_0":177,"ISO":"PHL","NAME_0":"Philippines","ID_1":10042,"NAME_1":"Misamis Occidental","ID_2":1004201,"NAME_2":"Aloran","ID_3":1004201019,"NAME_3":"Matipaz","NL_NAME_3":null,"VARNAME_3":null,"TYPE_3":"Barangay","ENGTYPE_3":"Village","PROVINCE":"Misamis Occidental","REGION":"Region X (Northern Mindanao)","id":"barangay-1004201019","name":"Matipaz","barangayCode":"1004201019","population":null,"formattedPop":null,"densityCategory":"No data","vulnerabilityRating":"No data","healthRiskLevel":"No data","areaKm2":1.855071,"centerLat":8.423431,"centerLng":123.801363,"geometrySource":"all_barangay-2.csv detailed WKT","geometryMatchMethod":"unique_official_admin_names","boundaryPointCount":20},"geometry":{"type":"MultiPolygon","coordinates":[[[[123.81543,8.42962],[123.814377,8.42767],[123.814117,8.42676],[123.812393,8.42535],[123.81012,8.42397],[123.806961,8.42204],[123.804138,8.42107],[123.800041,8.41853],[123.799026,8.41985],[123.797562,8.42445],[123.801033,8.42594],[123.802094,8.42664],[123.803543,8.42748],[123.805641,8.4283],[123.807053,8.42822],[123.808434,8.42806],[123.809837,8.42848],[123.811974,8.42874],[123.813477,8.42877],[123.81543,8.42962]]]]}},{"type":"Feature","properties":{"ID_0":177,"ISO":"PHL","NAME_0":"Philippines","ID_1":10042,"NAME_1":"Misamis Occidental","ID_2":1004201,"NAME_2":"Aloran","ID_3":1004201020,"NAME_3":"Maular","NL_NAME_3":null,"VARNAME_3":null,"TYPE_3":"Barangay","ENGTYPE_3":"Village","PROVINCE":"Misamis Occidental","REGION":"Region X (Northern Mindanao)","id":"barangay-1004201020","name":"Maular","barangayCode":"1004201020","population":null,"formattedPop":null,"densityCategory":"No data","vulnerabilityRating":"No data","healthRiskLevel":"No data","areaKm2":2.907188,"centerLat":8.426659,"centerLng":123.798327,"geometrySource":"all_barangay-2.csv detailed WKT","geometryMatchMethod":"unique_official_admin_names","boundaryPointCount":47},"geometry":{"type":"MultiPolygon","coordinates":[[[[123.809998,8.43427],[123.811913,8.4354],[123.813904,8.43552],[123.815079,8.43483],[123.816231,8.43494],[123.81778,8.43539],[123.819252,8.4364],[123.819939,8.43704],[123.820686,8.43743],[123.821297,8.43713],[123.821693,8.43682],[123.822273,8.43579],[123.821373,8.43474],[123.8209,8.43402],[123.82058,8.43314],[123.820221,8.43207],[123.819397,8.43134],[123.816948,8.43031],[123.81543,8.42962],[123.813477,8.42877],[123.811974,8.42874],[123.809837,8.42848],[123.808434,8.42806],[123.807053,8.42822],[123.805641,8.4283],[123.803543,8.42748],[123.802094,8.42664],[123.801033,8.42594],[123.797562,8.42445],[123.796143,8.42883],[123.797737,8.42846],[123.798149,8.42865],[123.79921,8.43006],[123.799751,8.43082],[123.800507,8.43134],[123.800987,8.4316],[123.802322,8.43248],[123.803093,8.43278],[123.803741,8.43326],[123.80471,8.43359],[123.805511,8.43353],[123.806084,8.43387],[123.806412,8.43449],[123.806999,8.43504],[123.807823,8.4348],[123.808983,8.43446],[123.809998,8.43427]]]]}},{"type":"Feature","properties":{"ID_0":177,"ISO":"PHL","NAME_0":"Philippines","ID_1":10042,"NAME_1":"Misamis Occidental","ID_2":1004201,"NAME_2":"Aloran","ID_3":1004201021,"NAME_3":"Mitazan","NL_NAME_3":null,"VARNAME_3":null,"TYPE_3":"Barangay","ENGTYPE_3":"Village","PROVINCE":"Misamis Occidental","REGION":"Region X (Northern Mindanao)","id":"barangay-1004201021","name":"Mitazan","barangayCode":"1004201021","population":null,"formattedPop":null,"densityCategory":"No data","vulnerabilityRating":"No data","healthRiskLevel":"No data","areaKm2":3.148846,"centerLat":8.394598,"centerLng":123.790401,"geometrySource":"all_barangay-2.csv detailed WKT","geometryMatchMethod":"unique_official_admin_names","boundaryPointCount":22},"geometry":{"type":"MultiPolygon","coordinates":[[[[123.799477,8.4031],[123.789299,8.39463],[123.786339,8.40084],[123.789238,8.40324],[123.790154,8.40408],[123.790802,8.40401],[123.791748,8.40438],[123.792107,8.40539],[123.792618,8.40579],[123.793747,8.40591],[123.795273,8.40607],[123.796898,8.4067],[123.798309,8.40945],[123.79882,8.40924],[123.79995,8.40926],[123.800201,8.40915],[123.800529,8.4084],[123.800499,8.40768],[123.800278,8.40714],[123.799797,8.40641],[123.799423,8.40526],[123.799477,8.4031]]]]}},{"type":"Feature","properties":{"ID_0":177,"ISO":"PHL","NAME_0":"Philippines","ID_1":10042,"NAME_1":"Misamis Occidental","ID_2":1004201,"NAME_2":"Aloran","ID_3":1004201022,"NAME_3":"Mohon","NL_NAME_3":null,"VARNAME_3":null,"TYPE_3":"Barangay","ENGTYPE_3":"Village","PROVINCE":"Misamis Occidental","REGION":"Region X (Northern Mindanao)","id":"barangay-1004201022","name":"Mohon","barangayCode":"1004201022","population":null,"formattedPop":null,"densityCategory":"No data","vulnerabilityRating":"No data","healthRiskLevel":"No data","areaKm2":2.251818,"centerLat":8.386645,"centerLng":123.825668,"geometrySource":"barangays.geojson simplified fallback","geometryMatchMethod":"simplified_fallback","boundaryPointCount":4},"geometry":{"type":"Polygon","coordinates":[[[123.83013443300001,8.394293865000066],[123.83877060100008,8.38456631400004],[123.81290037200006,8.385356803000036],[123.83013443300001,8.394293865000066]]]}},{"type":"Feature","properties":{"ID_0":177,"ISO":"PHL","NAME_0":"Philippines","ID_1":10042,"NAME_1":"Misamis Occidental","ID_2":1004201,"NAME_2":"Aloran","ID_3":1004201023,"NAME_3":"Monterico","NL_NAME_3":null,"VARNAME_3":null,"TYPE_3":"Barangay","ENGTYPE_3":"Village","PROVINCE":"Misamis Occidental","REGION":"Region X (Northern Mindanao)","id":"barangay-1004201023","name":"Monterico","barangayCode":"1004201023","population":null,"formattedPop":null,"densityCategory":"No data","vulnerabilityRating":"No data","healthRiskLevel":"No data","areaKm2":4.554092,"centerLat":8.396524,"centerLng":123.747502,"geometrySource":"all_barangay-2.csv detailed WKT","geometryMatchMethod":"unique_official_admin_names","boundaryPointCount":129},"geometry":{"type":"MultiPolygon","coordinates":[[[[123.797562,8.42445],[123.799026,8.41985],[123.796661,8.41851],[123.79612,8.41829],[123.794594,8.41769],[123.793907,8.41721],[123.79332,8.41677],[123.793167,8.41677],[123.792374,8.41572],[123.79129,8.41592],[123.790237,8.41626],[123.788528,8.41624],[123.787041,8.41558],[123.785263,8.41484],[123.783333,8.41395],[123.78196,8.41325],[123.779922,8.41215],[123.778473,8.41103],[123.776688,8.40914],[123.774223,8.40743],[123.772621,8.40533],[123.771873,8.40321],[123.77095,8.40288],[123.76899,8.40146],[123.768372,8.40141],[123.767387,8.40158],[123.766876,8.40194],[123.764923,8.40095],[123.763763,8.39993],[123.763062,8.39957],[123.761787,8.39834],[123.761543,8.39798],[123.760986,8.3974],[123.759178,8.39691],[123.758591,8.39676],[123.75692,8.39624],[123.752937,8.39556],[123.752037,8.39537],[123.750107,8.39485],[123.748833,8.39405],[123.748001,8.39289],[123.745743,8.39169],[123.743629,8.39095],[123.743118,8.3908],[123.741188,8.39035],[123.739227,8.39],[123.737953,8.38992],[123.735329,8.38943],[123.725456,8.38918],[123.729607,8.3918],[123.731827,8.39337],[123.733612,8.39385],[123.740494,8.39783],[123.74337,8.39986],[123.748352,8.40375],[123.749847,8.40344],[123.751198,8.40475],[123.751373,8.40464],[123.752029,8.40425],[123.752502,8.40465],[123.753014,8.40584],[123.753273,8.40599],[123.754211,8.40592],[123.754898,8.40672],[123.75563,8.40698],[123.756653,8.40724],[123.757446,8.40746],[123.758293,8.4078],[123.758209,8.40833],[123.758003,8.40905],[123.758102,8.40926],[123.75898,8.40953],[123.760139,8.40957],[123.760223,8.41043],[123.760071,8.41068],[123.760071,8.41115],[123.760689,8.41137],[123.761269,8.41127],[123.761917,8.41178],[123.762787,8.41211],[123.764099,8.41241],[123.764397,8.41245],[123.7649,8.41325],[123.765228,8.41451],[123.765846,8.41484],[123.766647,8.41495],[123.767479,8.41572],[123.769371,8.41609],[123.769836,8.41578],[123.771263,8.41543],[123.771667,8.41547],[123.771812,8.41698],[123.773262,8.417],[123.773659,8.41664],[123.774429,8.41683],[123.774643,8.41723],[123.774933,8.41813],[123.775261,8.41896],[123.775551,8.41922],[123.775993,8.41908],[123.776932,8.41851],[123.778389,8.41878],[123.778526,8.41932],[123.778816,8.42001],[123.779221,8.42008],[123.780006,8.41938],[123.780998,8.41942],[123.781258,8.41993],[123.781616,8.42098],[123.782173,8.42174],[123.783943,8.42342],[123.784851,8.42382],[123.785393,8.4239],[123.786049,8.42388],[123.786407,8.42431],[123.787247,8.42476],[123.787392,8.42436],[123.787613,8.42401],[123.788986,8.42428],[123.789688,8.42378],[123.790703,8.42351],[123.791237,8.42427],[123.792007,8.42494],[123.79335,8.42546],[123.793709,8.42576],[123.794067,8.42645],[123.794983,8.42729],[123.796143,8.42883],[123.797562,8.42445]]]]}},{"type":"Feature","properties":{"ID_0":177,"ISO":"PHL","NAME_0":"Philippines","ID_1":10042,"NAME_1":"Misamis Occidental","ID_2":1004201,"NAME_2":"Aloran","ID_3":1004201024,"NAME_3":"Nabuna","NL_NAME_3":null,"VARNAME_3":null,"TYPE_3":"Barangay","ENGTYPE_3":"Village","PROVINCE":"Misamis Occidental","REGION":"Region X (Northern Mindanao)","id":"barangay-1004201024","name":"Nabuna","barangayCode":"1004201024","population":null,"formattedPop":null,"densityCategory":"No data","vulnerabilityRating":"No data","healthRiskLevel":"No data","areaKm2":2.734826,"centerLat":8.3969,"centerLng":123.782991,"geometrySource":"all_barangay-2.csv detailed WKT","geometryMatchMethod":"unique_official_admin_names","boundaryPointCount":26},"geometry":{"type":"MultiPolygon","coordinates":[[[[123.798309,8.40945],[123.796898,8.4067],[123.795273,8.40607],[123.793747,8.40591],[123.792618,8.40579],[123.792107,8.40539],[123.791748,8.40438],[123.790802,8.40401],[123.790154,8.40408],[123.789238,8.40324],[123.786339,8.40084],[123.783127,8.40846],[123.785133,8.40744],[123.786072,8.40723],[123.787086,8.40753],[123.787529,8.4084],[123.788567,8.40952],[123.789482,8.41014],[123.790283,8.41044],[123.790787,8.41062],[123.791451,8.40984],[123.7929,8.40957],[123.794357,8.40937],[123.795273,8.40916],[123.79657,8.409],[123.798309,8.40945]]]]}},{"type":"Feature","properties":{"ID_0":177,"ISO":"PHL","NAME_0":"Philippines","ID_1":10042,"NAME_1":"Misamis Occidental","ID_2":1004201,"NAME_2":"Aloran","ID_3":1004201025,"NAME_3":"Palayan","NL_NAME_3":null,"VARNAME_3":null,"TYPE_3":"Barangay","ENGTYPE_3":"Village","PROVINCE":"Misamis Occidental","REGION":"Region X (Northern Mindanao)","id":"barangay-1004201025","name":"Palayan","barangayCode":"1004201025","population":null,"formattedPop":null,"densityCategory":"No data","vulnerabilityRating":"No data","healthRiskLevel":"No data","areaKm2":1.048744,"centerLat":8.419269,"centerLng":123.818782,"geometrySource":"all_barangay-2.csv detailed WKT","geometryMatchMethod":"unique_official_admin_names","boundaryPointCount":40},"geometry":{"type":"MultiPolygon","coordinates":[[[[123.821541,8.42071],[123.820389,8.42061],[123.819603,8.42029],[123.818481,8.42008],[123.817863,8.41999],[123.816963,8.41964],[123.81617,8.4185],[123.81498,8.41894],[123.814331,8.41856],[123.813927,8.41826],[123.812767,8.41798],[123.811691,8.41759],[123.811142,8.41729],[123.810127,8.41679],[123.809227,8.41641],[123.808319,8.41614],[123.807564,8.41598],[123.806831,8.41557],[123.806396,8.4152],[123.805351,8.41461],[123.80455,8.41409],[123.804077,8.41401],[123.801903,8.4135],[123.803658,8.41534],[123.80423,8.41578],[123.805473,8.41644],[123.806808,8.41728],[123.807823,8.41758],[123.809303,8.4176],[123.810364,8.41823],[123.811478,8.41864],[123.813103,8.41979],[123.814293,8.42046],[123.815849,8.42107],[123.816719,8.42149],[123.817657,8.42209],[123.818588,8.42186],[123.81942,8.42178],[123.820847,8.42146],[123.821541,8.42071]]]]}},{"type":"Feature","properties":{"ID_0":177,"ISO":"PHL","NAME_0":"Philippines","ID_1":10042,"NAME_1":"Misamis Occidental","ID_2":1004201,"NAME_2":"Aloran","ID_3":1004201026,"NAME_3":"Pelong","NL_NAME_3":null,"VARNAME_3":null,"TYPE_3":"Barangay","ENGTYPE_3":"Village","PROVINCE":"Misamis Occidental","REGION":"Region X (Northern Mindanao)","id":"barangay-1004201026","name":"Pelong","barangayCode":"1004201026","population":null,"formattedPop":null,"densityCategory":"No data","vulnerabilityRating":"No data","healthRiskLevel":"No data","areaKm2":2.017918,"centerLat":8.434668,"centerLng":123.801196,"geometrySource":"all_barangay-2.csv detailed WKT","geometryMatchMethod":"unique_official_admin_names","boundaryPointCount":42},"geometry":{"type":"MultiPolygon","coordinates":[[[[123.821053,8.44772],[123.821823,8.44681],[123.823486,8.44536],[123.824738,8.44425],[123.8255,8.44307],[123.825829,8.44176],[123.825867,8.44128],[123.826057,8.44084],[123.826149,8.44034],[123.826332,8.43983],[123.8256,8.43909],[123.823776,8.43928],[123.823067,8.44013],[123.822388,8.44028],[123.821739,8.44004],[123.821487,8.43873],[123.82209,8.43828],[123.821693,8.43682],[123.821297,8.43713],[123.820686,8.43743],[123.819939,8.43704],[123.819252,8.4364],[123.81778,8.43539],[123.816231,8.43494],[123.815079,8.43483],[123.813904,8.43552],[123.811913,8.4354],[123.809998,8.43427],[123.80526,8.44671],[123.807213,8.44561],[123.809097,8.44523],[123.811119,8.44526],[123.812103,8.44567],[123.813248,8.44615],[123.814056,8.44618],[123.814163,8.44618],[123.815102,8.44622],[123.816978,8.44614],[123.817978,8.4463],[123.818138,8.44633],[123.818626,8.44641],[123.821053,8.44772]]]]}},{"type":"Feature","properties":{"ID_0":177,"ISO":"PHL","NAME_0":"Philippines","ID_1":10042,"NAME_1":"Misamis Occidental","ID_2":1004201,"NAME_2":"Aloran","ID_3":1004201027,"NAME_3":"Ospital","NL_NAME_3":null,"VARNAME_3":null,"TYPE_3":"Barangay","ENGTYPE_3":"Village","PROVINCE":"Misamis Occidental","REGION":"Region X (Northern Mindanao)","id":"barangay-1004201027","name":"Ospital","barangayCode":"1004201027","population":null,"formattedPop":null,"densityCategory":"No data","vulnerabilityRating":"No data","healthRiskLevel":"No data","areaKm2":0.081404,"centerLat":8.414732,"centerLng":123.82209,"geometrySource":"all_barangay-2.csv detailed WKT","geometryMatchMethod":"unique_official_admin_names","boundaryPointCount":18},"geometry":{"type":"MultiPolygon","coordinates":[[[[123.821541,8.42071],[123.822868,8.41846],[123.823341,8.41757],[123.823448,8.41415],[123.821487,8.41499],[123.819763,8.41453],[123.818542,8.41475],[123.817284,8.41482],[123.816544,8.41535],[123.815422,8.41488],[123.815269,8.41775],[123.81617,8.4185],[123.816963,8.41964],[123.817863,8.41999],[123.818481,8.42008],[123.819603,8.42029],[123.820389,8.42061],[123.821541,8.42071]]]]}},{"type":"Feature","properties":{"ID_0":177,"ISO":"PHL","NAME_0":"Philippines","ID_1":10042,"NAME_1":"Misamis Occidental","ID_2":1004201,"NAME_2":"Aloran","ID_3":1004201028,"NAME_3":"Roxas","NL_NAME_3":null,"VARNAME_3":null,"TYPE_3":"Barangay","ENGTYPE_3":"Village","PROVINCE":"Misamis Occidental","REGION":"Region X (Northern Mindanao)","id":"barangay-1004201028","name":"Roxas","barangayCode":"1004201028","population":null,"formattedPop":null,"densityCategory":"No data","vulnerabilityRating":"No data","healthRiskLevel":"No data","areaKm2":9.08089,"centerLat":8.37795,"centerLng":123.696369,"geometrySource":"all_barangay-2.csv detailed WKT","geometryMatchMethod":"unique_official_admin_names","boundaryPointCount":120},"geometry":{"type":"MultiPolygon","coordinates":[[[[123.771873,8.40321],[123.772919,8.40146],[123.772697,8.39884],[123.7715,8.39894],[123.770699,8.39882],[123.769257,8.39852],[123.767868,8.39779],[123.766739,8.39681],[123.76561,8.39601],[123.764961,8.39604],[123.763977,8.39606],[123.763527,8.39602],[123.762772,8.39555],[123.762589,8.39548],[123.761467,8.39475],[123.76078,8.39381],[123.760231,8.39291],[123.759804,8.39204],[123.758667,8.39167],[123.758186,8.39106],[123.757828,8.39055],[123.757057,8.38919],[123.756523,8.38897],[123.755676,8.38871],[123.754784,8.3882],[123.7547,8.38733],[123.754303,8.38701],[123.753242,8.38639],[123.752617,8.38567],[123.751984,8.38505],[123.750992,8.38368],[123.750443,8.38307],[123.749458,8.38205],[123.747833,8.38218],[123.747169,8.38067],[123.746407,8.37955],[123.744072,8.37738],[123.741447,8.37678],[123.739563,8.37658],[123.738548,8.37668],[123.737312,8.37674],[123.736038,8.37619],[123.734032,8.37448],[123.732727,8.37307],[123.731049,8.3712],[123.729012,8.36856],[123.727959,8.36773],[123.720642,8.3649],[123.709579,8.36167],[123.704697,8.36033],[123.70295,8.36003],[123.701637,8.36023],[123.700523,8.35986],[123.69706,8.35811],[123.695099,8.35805],[123.693748,8.35829],[123.691307,8.35909],[123.689308,8.35957],[123.685089,8.35992],[123.680183,8.35962],[123.677628,8.35941],[123.67395,8.35934],[123.671768,8.35943],[123.669518,8.36001],[123.659813,8.36166],[123.660454,8.37219],[123.676323,8.37131],[123.681778,8.37108],[123.689011,8.37144],[123.699348,8.37259],[123.705673,8.37376],[123.707207,8.37432],[123.7099,8.37527],[123.711433,8.37493],[123.712372,8.37419],[123.714447,8.37393],[123.716232,8.37516],[123.717056,8.37592],[123.719276,8.37712],[123.720367,8.37756],[123.721687,8.37726],[123.724007,8.37792],[123.726562,8.37935],[123.728058,8.3813],[123.728928,8.38184],[123.729507,8.38206],[123.730713,8.38376],[123.731621,8.38452],[123.73217,8.3851],[123.732643,8.38596],[123.733551,8.38626],[123.734253,8.3863],[123.734901,8.38795],[123.735329,8.38943],[123.737953,8.38992],[123.739227,8.39],[123.741188,8.39035],[123.743118,8.3908],[123.743629,8.39095],[123.745743,8.39169],[123.748001,8.39289],[123.748833,8.39405],[123.750107,8.39485],[123.752037,8.39537],[123.752937,8.39556],[123.75692,8.39624],[123.758591,8.39676],[123.759178,8.39691],[123.760986,8.3974],[123.761543,8.39798],[123.761787,8.39834],[123.763062,8.39957],[123.763763,8.39993],[123.764923,8.40095],[123.766876,8.40194],[123.767387,8.40158],[123.768372,8.40141],[123.76899,8.40146],[123.77095,8.40288],[123.771873,8.40321]]]]}},{"type":"Feature","properties":{"ID_0":177,"ISO":"PHL","NAME_0":"Philippines","ID_1":10042,"NAME_1":"Misamis Occidental","ID_2":1004201,"NAME_2":"Aloran","ID_3":1004201029,"NAME_3":"San Pedro","NL_NAME_3":null,"VARNAME_3":null,"TYPE_3":"Barangay","ENGTYPE_3":"Village","PROVINCE":"Misamis Occidental","REGION":"Region X (Northern Mindanao)","id":"barangay-1004201029","name":"San Pedro","barangayCode":"1004201029","population":null,"formattedPop":null,"densityCategory":"No data","vulnerabilityRating":"No data","healthRiskLevel":"No data","areaKm2":10.120521,"centerLat":8.377,"centerLng":123.717369,"geometrySource":"all_barangay-2.csv detailed WKT","geometryMatchMethod":"unique_official_admin_names","boundaryPointCount":70},"geometry":{"type":"MultiPolygon","coordinates":[[[[123.744072,8.37738],[123.744438,8.37412],[123.742767,8.37196],[123.742119,8.37145],[123.7407,8.37058],[123.740013,8.36992],[123.739899,8.36921],[123.739647,8.36845],[123.73848,8.36686],[123.737427,8.36557],[123.736588,8.36477],[123.735428,8.36372],[123.73484,8.36318],[123.733856,8.36288],[123.732513,8.3629],[123.731712,8.36272],[123.729271,8.36201],[123.728607,8.36208],[123.727448,8.36228],[123.726318,8.36245],[123.724937,8.36211],[123.723923,8.3616],[123.721809,8.36204],[123.720573,8.36175],[123.719467,8.3617],[123.7174,8.36136],[123.715767,8.3598],[123.714523,8.35904],[123.71209,8.3583],[123.708603,8.35701],[123.704117,8.35575],[123.700478,8.35517],[123.695641,8.35548],[123.691963,8.35527],[123.687134,8.35504],[123.680794,8.35476],[123.677223,8.35483],[123.672096,8.35478],[123.668022,8.35506],[123.663147,8.35444],[123.659286,8.35436],[123.659813,8.36166],[123.669518,8.36001],[123.671768,8.35943],[123.67395,8.35934],[123.677628,8.35941],[123.680183,8.35962],[123.685089,8.35992],[123.689308,8.35957],[123.691307,8.35909],[123.693748,8.35829],[123.695099,8.35805],[123.69706,8.35811],[123.700523,8.35986],[123.701637,8.36023],[123.70295,8.36003],[123.704697,8.36033],[123.709579,8.36167],[123.720642,8.3649],[123.727959,8.36773],[123.729012,8.36856],[123.731049,8.3712],[123.732727,8.37307],[123.734032,8.37448],[123.736038,8.37619],[123.737312,8.37674],[123.738548,8.37668],[123.739563,8.37658],[123.741447,8.37678],[123.744072,8.37738]]]]}},{"type":"Feature","properties":{"ID_0":177,"ISO":"PHL","NAME_0":"Philippines","ID_1":10042,"NAME_1":"Misamis Occidental","ID_2":1004201,"NAME_2":"Aloran","ID_3":1004201030,"NAME_3":"Santa Ana","NL_NAME_3":null,"VARNAME_3":null,"TYPE_3":"Barangay","ENGTYPE_3":"Village","PROVINCE":"Misamis Occidental","REGION":"Region X (Northern Mindanao)","id":"barangay-1004201030","name":"Santa Ana","barangayCode":"1004201030","population":null,"formattedPop":null,"densityCategory":"No data","vulnerabilityRating":"No data","healthRiskLevel":"No data","areaKm2":2.402613,"centerLat":8.433284,"centerLng":123.777864,"geometrySource":"all_barangay-2.csv detailed WKT","geometryMatchMethod":"unique_official_admin_names","boundaryPointCount":28},"geometry":{"type":"MultiPolygon","coordinates":[[[[123.777603,8.43661],[123.783943,8.42342],[123.782173,8.42174],[123.781616,8.42098],[123.781258,8.41993],[123.780998,8.41942],[123.780006,8.41938],[123.779221,8.42008],[123.778816,8.42001],[123.778526,8.41932],[123.778389,8.41878],[123.776932,8.41851],[123.775993,8.41908],[123.775551,8.41922],[123.775261,8.41896],[123.774933,8.41813],[123.774643,8.41723],[123.774429,8.41683],[123.773659,8.41664],[123.773262,8.417],[123.771812,8.41698],[123.768753,8.42319],[123.771896,8.4274],[123.772598,8.42938],[123.773087,8.43094],[123.774986,8.43273],[123.775864,8.43382],[123.777603,8.43661]]]]}},{"type":"Feature","properties":{"ID_0":177,"ISO":"PHL","NAME_0":"Philippines","ID_1":10042,"NAME_1":"Misamis Occidental","ID_2":1004201,"NAME_2":"Aloran","ID_3":1004201031,"NAME_3":"Sinampongan","NL_NAME_3":null,"VARNAME_3":null,"TYPE_3":"Barangay","ENGTYPE_3":"Village","PROVINCE":"Misamis Occidental","REGION":"Region X (Northern Mindanao)","id":"barangay-1004201031","name":"Sinampongan","barangayCode":"1004201031","population":null,"formattedPop":null,"densityCategory":"No data","vulnerabilityRating":"No data","healthRiskLevel":"No data","areaKm2":4.524975,"centerLat":8.384953,"centerLng":123.691179,"geometrySource":"all_barangay-2.csv detailed WKT","geometryMatchMethod":"unique_official_admin_names","boundaryPointCount":34},"geometry":{"type":"MultiPolygon","coordinates":[[[[123.735329,8.38943],[123.734901,8.38795],[123.734253,8.3863],[123.733551,8.38626],[123.732643,8.38596],[123.73217,8.3851],[123.731621,8.38452],[123.730713,8.38376],[123.729507,8.38206],[123.728928,8.38184],[123.728058,8.3813],[123.726562,8.37935],[123.724007,8.37792],[123.721687,8.37726],[123.720367,8.37756],[123.719276,8.37712],[123.717056,8.37592],[123.716232,8.37516],[123.714447,8.37393],[123.712372,8.37419],[123.711433,8.37493],[123.7099,8.37527],[123.707207,8.37432],[123.705673,8.37376],[123.699348,8.37259],[123.689011,8.37144],[123.681778,8.37108],[123.676323,8.37131],[123.660454,8.37219],[123.660233,8.37994],[123.716667,8.38021],[123.722054,8.38574],[123.725456,8.38918],[123.735329,8.38943]]]]}},{"type":"Feature","properties":{"ID_0":177,"ISO":"PHL","NAME_0":"Philippines","ID_1":10042,"NAME_1":"Misamis Occidental","ID_2":1004201,"NAME_2":"Aloran","ID_3":1004201032,"NAME_3":"Taguanao","NL_NAME_3":null,"VARNAME_3":null,"TYPE_3":"Barangay","ENGTYPE_3":"Village","PROVINCE":"Misamis Occidental","REGION":"Region X (Northern Mindanao)","id":"barangay-1004201032","name":"Taguanao","barangayCode":"1004201032","population":null,"formattedPop":null,"densityCategory":"No data","vulnerabilityRating":"No data","healthRiskLevel":"No data","areaKm2":2.163218,"centerLat":8.378575,"centerLng":123.794916,"geometrySource":"all_barangay-2.csv detailed WKT","geometryMatchMethod":"unique_official_admin_names","boundaryPointCount":25},"geometry":{"type":"MultiPolygon","coordinates":[[[[123.811028,8.39304],[123.813667,8.38526],[123.815651,8.38099],[123.805878,8.37727],[123.801018,8.37522],[123.796982,8.37286],[123.792511,8.37024],[123.787888,8.36837],[123.783974,8.36694],[123.77887,8.365],[123.773773,8.36402],[123.769333,8.3638],[123.760986,8.36275],[123.765137,8.36505],[123.767326,8.36682],[123.770088,8.36825],[123.771767,8.36909],[123.773911,8.37018],[123.776421,8.37185],[123.778297,8.37348],[123.779694,8.37486],[123.781593,8.37745],[123.782303,8.37925],[123.806969,8.39109],[123.811028,8.39304]]]]}},{"type":"Feature","properties":{"ID_0":177,"ISO":"PHL","NAME_0":"Philippines","ID_1":10042,"NAME_1":"Misamis Occidental","ID_2":1004201,"NAME_2":"Aloran","ID_3":1004201033,"NAME_3":"Tawi-tawi","NL_NAME_3":null,"VARNAME_3":null,"TYPE_3":"Barangay","ENGTYPE_3":"Village","PROVINCE":"Misamis Occidental","REGION":"Region X (Northern Mindanao)","id":"barangay-1004201033","name":"Tawi-tawi","barangayCode":"1004201033","population":null,"formattedPop":null,"densityCategory":"No data","vulnerabilityRating":"No data","healthRiskLevel":"No data","areaKm2":1.40605,"centerLat":8.422354,"centerLng":123.831674,"geometrySource":"all_barangay-2.csv detailed WKT","geometryMatchMethod":"unique_official_admin_names","boundaryPointCount":35},"geometry":{"type":"MultiPolygon","coordinates":[[[[123.834961,8.43215],[123.83519,8.43203],[123.835564,8.43173],[123.83593,8.43143],[123.836311,8.43113],[123.836662,8.43081],[123.836884,8.43043],[123.836983,8.43],[123.837158,8.4296],[123.837219,8.42909],[123.837257,8.42859],[123.837387,8.42814],[123.837563,8.42765],[123.837646,8.42749],[123.83783,8.42714],[123.837936,8.42661],[123.837807,8.42611],[123.837784,8.42564],[123.837791,8.42539],[123.837807,8.42392],[123.837738,8.42396],[123.837601,8.42401],[123.821541,8.42071],[123.820847,8.42146],[123.81942,8.42178],[123.818588,8.42186],[123.817657,8.42209],[123.818024,8.42301],[123.818703,8.42481],[123.819237,8.42537],[123.820137,8.42624],[123.823807,8.42752],[123.825661,8.42809],[123.83091,8.43053],[123.834961,8.43215]]]]}},{"type":"Feature","properties":{"ID_0":177,"ISO":"PHL","NAME_0":"Philippines","ID_1":10042,"NAME_1":"Misamis Occidental","ID_2":1004201,"NAME_2":"Aloran","ID_3":1004201034,"NAME_3":"Toril","NL_NAME_3":null,"VARNAME_3":null,"TYPE_3":"Barangay","ENGTYPE_3":"Village","PROVINCE":"Misamis Occidental","REGION":"Region X (Northern Mindanao)","id":"barangay-1004201034","name":"Toril","barangayCode":"1004201034","population":null,"formattedPop":null,"densityCategory":"No data","vulnerabilityRating":"No data","healthRiskLevel":"No data","areaKm2":2.354929,"centerLat":8.402835,"centerLng":123.779997,"geometrySource":"all_barangay-2.csv detailed WKT","geometryMatchMethod":"unique_official_admin_names","boundaryPointCount":76},"geometry":{"type":"MultiPolygon","coordinates":[[[[123.786339,8.40084],[123.784599,8.39903],[123.7826,8.39801],[123.779137,8.39639],[123.778061,8.39581],[123.776817,8.39505],[123.776093,8.39443],[123.774857,8.39341],[123.7733,8.39265],[123.771332,8.39126],[123.769402,8.3901],[123.768677,8.38955],[123.767853,8.38861],[123.767303,8.38764],[123.766541,8.38717],[123.765373,8.3868],[123.764526,8.38625],[123.764389,8.38607],[123.76355,8.38556],[123.761726,8.38518],[123.760818,8.38485],[123.758667,8.38376],[123.757843,8.3836],[123.757111,8.38356],[123.756187,8.38294],[123.75602,8.38244],[123.755913,8.38208],[123.75296,8.37997],[123.751694,8.37939],[123.74939,8.37858],[123.748222,8.37806],[123.746078,8.37722],[123.745064,8.37692],[123.744072,8.37738],[123.746407,8.37955],[123.747169,8.38067],[123.747833,8.38218],[123.749458,8.38205],[123.750443,8.38307],[123.750992,8.38368],[123.751984,8.38505],[123.752617,8.38567],[123.753242,8.38639],[123.754303,8.38701],[123.7547,8.38733],[123.754784,8.3882],[123.755676,8.38871],[123.756523,8.38897],[123.757057,8.38919],[123.757828,8.39055],[123.758186,8.39106],[123.758667,8.39167],[123.759804,8.39204],[123.760231,8.39291],[123.76078,8.39381],[123.761467,8.39475],[123.762589,8.39548],[123.762772,8.39555],[123.763527,8.39602],[123.763977,8.39606],[123.764961,8.39604],[123.76561,8.39601],[123.766739,8.39681],[123.767868,8.39779],[123.769257,8.39852],[123.770699,8.39882],[123.7715,8.39894],[123.772697,8.39884],[123.774094,8.39889],[123.775002,8.39847],[123.776237,8.39823],[123.77787,8.39911],[123.779137,8.39966],[123.781967,8.40012],[123.783829,8.40042],[123.786339,8.40084]]]]}},{"type":"Feature","properties":{"ID_0":177,"ISO":"PHL","NAME_0":"Philippines","ID_1":10042,"NAME_1":"Misamis Occidental","ID_2":1004201,"NAME_2":"Aloran","ID_3":1004201035,"NAME_3":"Tuburan","NL_NAME_3":null,"VARNAME_3":null,"TYPE_3":"Barangay","ENGTYPE_3":"Village","PROVINCE":"Misamis Occidental","REGION":"Region X (Northern Mindanao)","id":"barangay-1004201035","name":"Tuburan","barangayCode":"1004201035","population":null,"formattedPop":null,"densityCategory":"No data","vulnerabilityRating":"No data","healthRiskLevel":"No data","areaKm2":1.499808,"centerLat":8.432129,"centerLng":123.828281,"geometrySource":"all_barangay-2.csv detailed WKT","geometryMatchMethod":"unique_official_admin_names","boundaryPointCount":51},"geometry":{"type":"MultiPolygon","coordinates":[[[[123.826332,8.43983],[123.82653,8.43912],[123.826881,8.4386],[123.827263,8.43816],[123.827637,8.43782],[123.828003,8.43756],[123.8283,8.43727],[123.828613,8.43697],[123.828903,8.43666],[123.829201,8.43636],[123.829514,8.43606],[123.829811,8.43577],[123.830162,8.43552],[123.83049,8.43524],[123.830803,8.43495],[123.831123,8.43468],[123.831451,8.43444],[123.831787,8.43417],[123.832153,8.43391],[123.832558,8.43369],[123.833,8.43351],[123.833397,8.43326],[123.833794,8.43303],[123.834129,8.43277],[123.834457,8.4325],[123.834801,8.43224],[123.834961,8.43215],[123.83091,8.43053],[123.825661,8.42809],[123.823807,8.42752],[123.820137,8.42624],[123.819893,8.42728],[123.819283,8.42744],[123.81871,8.42801],[123.817993,8.42886],[123.816948,8.43031],[123.819397,8.43134],[123.820221,8.43207],[123.82058,8.43314],[123.8209,8.43402],[123.821373,8.43474],[123.822273,8.43579],[123.821693,8.43682],[123.82209,8.43828],[123.821487,8.43873],[123.821739,8.44004],[123.822388,8.44028],[123.823067,8.44013],[123.823776,8.43928],[123.8256,8.43909],[123.826332,8.43983]]]]}},{"type":"Feature","properties":{"ID_0":177,"ISO":"PHL","NAME_0":"Philippines","ID_1":10042,"NAME_1":"Misamis Occidental","ID_2":1004201,"NAME_2":"Aloran","ID_3":1004201036,"NAME_3":"Zamora","NL_NAME_3":null,"VARNAME_3":null,"TYPE_3":"Barangay","ENGTYPE_3":"Village","PROVINCE":"Misamis Occidental","REGION":"Region X (Northern Mindanao)","id":"barangay-1004201036","name":"Zamora","barangayCode":"1004201036","population":null,"formattedPop":null,"densityCategory":"No data","vulnerabilityRating":"No data","healthRiskLevel":"No data","areaKm2":1.757868,"centerLat":8.44094,"centerLng":123.797725,"geometrySource":"all_barangay-2.csv detailed WKT","geometryMatchMethod":"unique_official_admin_names","boundaryPointCount":28},"geometry":{"type":"MultiPolygon","coordinates":[[[[123.80526,8.44671],[123.809998,8.43427],[123.808983,8.43446],[123.807823,8.4348],[123.806999,8.43504],[123.806412,8.43449],[123.806084,8.43387],[123.805511,8.43353],[123.80471,8.43359],[123.803741,8.43326],[123.803093,8.43278],[123.802322,8.43248],[123.800987,8.4316],[123.800507,8.43134],[123.799751,8.43082],[123.79921,8.43006],[123.798149,8.42865],[123.797737,8.42846],[123.796143,8.42883],[123.79261,8.44136],[123.793732,8.44221],[123.795113,8.44321],[123.797539,8.44417],[123.798737,8.44448],[123.800583,8.44503],[123.801407,8.44545],[123.803192,8.44651],[123.80526,8.44671]]]]}},{"type":"Feature","properties":{"ID_0":177,"ISO":"PHL","NAME_0":"Philippines","ID_1":10042,"NAME_1":"Misamis Occidental","ID_2":1004201,"NAME_2":"Aloran","ID_3":1004201037,"NAME_3":"Macubon","NL_NAME_3":null,"VARNAME_3":null,"TYPE_3":"Barangay","ENGTYPE_3":"Village","PROVINCE":"Misamis Occidental","REGION":"Region X (Northern Mindanao)","id":"barangay-1004201037","name":"Macubon","barangayCode":"1004201037","population":null,"formattedPop":null,"densityCategory":"No data","vulnerabilityRating":"No data","healthRiskLevel":"No data","areaKm2":9.876927,"centerLat":8.360935,"centerLng":123.721428,"geometrySource":"all_barangay-2.csv detailed WKT","geometryMatchMethod":"unique_official_admin_names","boundaryPointCount":44},"geometry":{"type":"MultiPolygon","coordinates":[[[[123.782303,8.37925],[123.781593,8.37745],[123.779694,8.37486],[123.778297,8.37348],[123.776421,8.37185],[123.773911,8.37018],[123.771767,8.36909],[123.770088,8.36825],[123.767326,8.36682],[123.765137,8.36505],[123.760986,8.36275],[123.750938,8.36029],[123.744667,8.35823],[123.73423,8.35533],[123.735062,8.35849],[123.736153,8.3595],[123.737099,8.36048],[123.738876,8.36193],[123.740089,8.36273],[123.742233,8.36382],[123.745003,8.36482],[123.747948,8.36588],[123.75061,8.36627],[123.752457,8.36722],[123.754387,8.36813],[123.756653,8.3693],[123.758179,8.37025],[123.759644,8.37098],[123.7612,8.37157],[123.762367,8.37201],[123.764771,8.37278],[123.766037,8.37312],[123.768341,8.37425],[123.770477,8.37581],[123.771751,8.37682],[123.771927,8.37686],[123.77343,8.37688],[123.774078,8.37728],[123.775139,8.37822],[123.776154,8.37898],[123.77739,8.37996],[123.778839,8.38141],[123.780807,8.38196],[123.782303,8.37925]]]]}},{"type":"Feature","properties":{"ID_0":177,"ISO":"PHL","NAME_0":"Philippines","ID_1":10042,"NAME_1":"Misamis Occidental","ID_2":1004201,"NAME_2":"Aloran","ID_3":1004201038,"NAME_3":"Tugaya","NL_NAME_3":null,"VARNAME_3":null,"TYPE_3":"Barangay","ENGTYPE_3":"Village","PROVINCE":"Misamis Occidental","REGION":"Region X (Northern Mindanao)","id":"barangay-1004201038","name":"Tugaya","barangayCode":"1004201038","population":null,"formattedPop":null,"densityCategory":"No data","vulnerabilityRating":"No data","healthRiskLevel":"No data","areaKm2":2.513231,"centerLat":8.376619,"centerLng":123.770055,"geometrySource":"all_barangay-2.csv detailed WKT","geometryMatchMethod":"unique_official_admin_names","boundaryPointCount":117},"geometry":{"type":"MultiPolygon","coordinates":[[[[123.789299,8.39463],[123.786652,8.39191],[123.785919,8.39119],[123.78479,8.39003],[123.783203,8.38812],[123.781601,8.38599],[123.781059,8.3848],[123.780769,8.38368],[123.780807,8.38196],[123.778839,8.38141],[123.77739,8.37996],[123.776154,8.37898],[123.775139,8.37822],[123.774078,8.37728],[123.77343,8.37688],[123.771927,8.37686],[123.771751,8.37682],[123.770477,8.37581],[123.768341,8.37425],[123.766037,8.37312],[123.764771,8.37278],[123.762367,8.37201],[123.7612,8.37157],[123.759644,8.37098],[123.758179,8.37025],[123.756653,8.3693],[123.754387,8.36813],[123.752457,8.36722],[123.75061,8.36627],[123.747948,8.36588],[123.745003,8.36482],[123.742233,8.36382],[123.740089,8.36273],[123.738876,8.36193],[123.737099,8.36048],[123.736153,8.3595],[123.735062,8.35849],[123.73423,8.35533],[123.724289,8.35291],[123.718971,8.35099],[123.715843,8.34992],[123.660156,8.34851],[123.659286,8.35436],[123.663147,8.35444],[123.668022,8.35506],[123.672096,8.35478],[123.677223,8.35483],[123.680794,8.35476],[123.687134,8.35504],[123.691963,8.35527],[123.695641,8.35548],[123.700478,8.35517],[123.704117,8.35575],[123.708603,8.35701],[123.71209,8.3583],[123.714523,8.35904],[123.715767,8.3598],[123.7174,8.36136],[123.719467,8.3617],[123.720573,8.36175],[123.721809,8.36204],[123.723923,8.3616],[123.724937,8.36211],[123.726318,8.36245],[123.727448,8.36228],[123.728607,8.36208],[123.729271,8.36201],[123.731712,8.36272],[123.732513,8.3629],[123.733856,8.36288],[123.73484,8.36318],[123.735428,8.36372],[123.736588,8.36477],[123.737427,8.36557],[123.73848,8.36686],[123.739647,8.36845],[123.739899,8.36921],[123.740013,8.36992],[123.7407,8.37058],[123.742119,8.37145],[123.742767,8.37196],[123.744438,8.37412],[123.744072,8.37738],[123.745064,8.37692],[123.746078,8.37722],[123.748222,8.37806],[123.74939,8.37858],[123.751694,8.37939],[123.75296,8.37997],[123.755913,8.38208],[123.75602,8.38244],[123.756187,8.38294],[123.757111,8.38356],[123.757843,8.3836],[123.758667,8.38376],[123.760818,8.38485],[123.761726,8.38518],[123.76355,8.38556],[123.764389,8.38607],[123.764526,8.38625],[123.765373,8.3868],[123.766541,8.38717],[123.767303,8.38764],[123.767853,8.38861],[123.768677,8.38955],[123.769402,8.3901],[123.771332,8.39126],[123.7733,8.39265],[123.774857,8.39341],[123.776093,8.39443],[123.776817,8.39505],[123.778061,8.39581],[123.779137,8.39639],[123.7826,8.39801],[123.784599,8.39903],[123.786339,8.40084],[123.789299,8.39463]]]]}}]}
