{"type":"FeatureCollection","features":[{"type":"Feature","properties":{"ID_0":177,"ISO":"PHL","NAME_0":"Philippines","ID_1":5020,"NAME_1":"Catanduanes","ID_2":502002,"NAME_2":"Baras","ID_3":502002001,"NAME_3":"Abihao","NL_NAME_3":null,"VARNAME_3":null,"TYPE_3":"Barangay","ENGTYPE_3":"Village","PROVINCE":"Catanduanes","REGION":"Region V (Bicol Region)","id":"barangay-0502002001","name":"Abihao","barangayCode":"0502002001","population":null,"formattedPop":null,"densityCategory":"No data","vulnerabilityRating":"No data","healthRiskLevel":"No data","areaKm2":1.902868,"centerLat":13.661315,"centerLng":124.393533,"geometrySource":"all_barangay-2.csv detailed WKT","geometryMatchMethod":"unique_official_admin_names","boundaryPointCount":23},"geometry":{"type":"MultiPolygon","coordinates":[[[[124.394867,13.65691],[124.395821,13.65557],[124.397751,13.65285],[124.397583,13.65284],[124.397057,13.65299],[124.396606,13.65333],[124.396133,13.65372],[124.395653,13.65411],[124.395073,13.65444],[124.394463,13.65471],[124.393806,13.65486],[124.393158,13.65476],[124.392479,13.65473],[124.391808,13.65478],[124.391167,13.65497],[124.390587,13.6551],[124.390099,13.65481],[124.389732,13.65432],[124.389442,13.65382],[124.389168,13.6533],[124.383652,13.656],[124.38723,13.65887],[124.394867,13.65691]]]]}},{"type":"Feature","properties":{"ID_0":177,"ISO":"PHL","NAME_0":"Philippines","ID_1":5020,"NAME_1":"Catanduanes","ID_2":502002,"NAME_2":"Baras","ID_3":502002002,"NAME_3":"Agban","NL_NAME_3":null,"VARNAME_3":null,"TYPE_3":"Barangay","ENGTYPE_3":"Village","PROVINCE":"Catanduanes","REGION":"Region V (Bicol Region)","id":"barangay-0502002002","name":"Agban","barangayCode":"0502002002","population":null,"formattedPop":null,"densityCategory":"No data","vulnerabilityRating":"No data","healthRiskLevel":"No data","areaKm2":9.488548,"centerLat":13.717616,"centerLng":124.358088,"geometrySource":"all_barangay-2.csv detailed WKT","geometryMatchMethod":"unique_official_admin_names","boundaryPointCount":75},"geometry":{"type":"MultiPolygon","coordinates":[[[[124.401321,13.71943],[124.401123,13.71902],[124.40097,13.71895],[124.40097,13.71888],[124.40062,13.71881],[124.4002,13.71853],[124.400131,13.71826],[124.400131,13.71805],[124.400131,13.71771],[124.399986,13.71737],[124.399933,13.71723],[124.39978,13.71709],[124.399361,13.71682],[124.398102,13.71654],[124.397537,13.7162],[124.397186,13.71592],[124.396629,13.71551],[124.396133,13.7153],[124.395714,13.71523],[124.395157,13.71523],[124.394737,13.71572],[124.394577,13.71591],[124.394524,13.71599],[124.394241,13.71627],[124.39389,13.71654],[124.393753,13.71682],[124.393753,13.71737],[124.393822,13.71771],[124.393822,13.7184],[124.394043,13.71874],[124.394524,13.71922],[124.395088,13.7195],[124.395233,13.7195],[124.395859,13.71936],[124.396057,13.71936],[124.396347,13.7195],[124.396698,13.71963],[124.397186,13.71998],[124.397537,13.72018],[124.397751,13.72032],[124.398102,13.72046],[124.398453,13.72073],[124.398872,13.72094],[124.399223,13.72101],[124.399567,13.72108],[124.399986,13.72128],[124.400902,13.72108],[124.401466,13.72039],[124.401466,13.71984],[124.401321,13.71943]]],[[[124.385834,13.71197],[124.386208,13.71169],[124.384392,13.71173],[124.331009,13.71],[124.325844,13.72224],[124.316116,13.74531],[124.358879,13.72456],[124.373894,13.71961],[124.386017,13.719],[124.385689,13.71843],[124.385452,13.71787],[124.3853,13.71737],[124.385208,13.71687],[124.385063,13.71643],[124.38501,13.71607],[124.385002,13.71571],[124.385002,13.71532],[124.385002,13.71491],[124.385002,13.71446],[124.385002,13.71399],[124.385017,13.71351],[124.385117,13.71307],[124.3853,13.71267],[124.385551,13.71231],[124.385834,13.71197]]]]}},{"type":"Feature","properties":{"ID_0":177,"ISO":"PHL","NAME_0":"Philippines","ID_1":5020,"NAME_1":"Catanduanes","ID_2":502002,"NAME_2":"Baras","ID_3":502002003,"NAME_3":"Bagong Sirang","NL_NAME_3":null,"VARNAME_3":null,"TYPE_3":"Barangay","ENGTYPE_3":"Village","PROVINCE":"Catanduanes","REGION":"Region V (Bicol Region)","id":"barangay-0502002003","name":"Bagong Sirang","barangayCode":"0502002003","population":null,"formattedPop":null,"densityCategory":"No data","vulnerabilityRating":"No data","healthRiskLevel":"No data","areaKm2":0.547874,"centerLat":13.66356,"centerLng":124.373631,"geometrySource":"all_barangay-2.csv detailed WKT","geometryMatchMethod":"unique_official_admin_names","boundaryPointCount":30},"geometry":{"type":"MultiPolygon","coordinates":[[[[124.375664,13.66693],[124.380119,13.66457],[124.37838,13.65844],[124.378326,13.65851],[124.378059,13.6589],[124.377823,13.6593],[124.377632,13.65974],[124.377502,13.66019],[124.377411,13.66062],[124.377403,13.66096],[124.377869,13.66137],[124.378036,13.66168],[124.378021,13.66193],[124.377838,13.6621],[124.377571,13.6622],[124.377274,13.66217],[124.377007,13.66202],[124.37677,13.66184],[124.376556,13.66165],[124.376373,13.66142],[124.376091,13.66123],[124.37574,13.66106],[124.375641,13.66102],[124.374443,13.66208],[124.372383,13.66265],[124.369667,13.66271],[124.367943,13.66246],[124.367821,13.66565],[124.371132,13.66606],[124.375664,13.66693]]]]}},{"type":"Feature","properties":{"ID_0":177,"ISO":"PHL","NAME_0":"Philippines","ID_1":5020,"NAME_1":"Catanduanes","ID_2":502002,"NAME_2":"Baras","ID_3":502002004,"NAME_3":"Benticayan","NL_NAME_3":null,"VARNAME_3":null,"TYPE_3":"Barangay","ENGTYPE_3":"Village","PROVINCE":"Catanduanes","REGION":"Region V (Bicol Region)","id":"barangay-0502002004","name":"Benticayan","barangayCode":"0502002004","population":null,"formattedPop":null,"densityCategory":"No data","vulnerabilityRating":"No data","healthRiskLevel":"No data","areaKm2":8.23563,"centerLat":13.691539,"centerLng":124.369868,"geometrySource":"all_barangay-2.csv detailed WKT","geometryMatchMethod":"unique_official_admin_names","boundaryPointCount":51},"geometry":{"type":"MultiPolygon","coordinates":[[[[124.396408,13.70405],[124.396461,13.7039],[124.396446,13.70386],[124.396179,13.70354],[124.395599,13.70342],[124.39521,13.70311],[124.394859,13.70275],[124.394547,13.7025],[124.394119,13.7024],[124.393723,13.702],[124.393242,13.70161],[124.392776,13.70137],[124.392387,13.70111],[124.392021,13.70082],[124.39164,13.70052],[124.391212,13.70021],[124.390846,13.6998],[124.390617,13.69934],[124.39061,13.69878],[124.390472,13.69819],[124.390427,13.69761],[124.390488,13.69738],[124.390572,13.69704],[124.390709,13.69644],[124.390968,13.69578],[124.390892,13.69517],[124.391006,13.6946],[124.391167,13.6941],[124.391197,13.69366],[124.390938,13.69318],[124.390663,13.69281],[124.390533,13.69253],[124.390556,13.69229],[124.390739,13.69214],[124.390907,13.69201],[124.391121,13.69192],[124.391342,13.69181],[124.391632,13.69177],[124.391434,13.6906],[124.38942,13.68796],[124.389442,13.68793],[124.383781,13.68152],[124.379448,13.68337],[124.37867,13.6837],[124.375809,13.68466],[124.354942,13.69167],[124.33535,13.69839],[124.345863,13.6991],[124.362,13.69838],[124.388062,13.70295],[124.396408,13.70405]]]]}},{"type":"Feature","properties":{"ID_0":177,"ISO":"PHL","NAME_0":"Philippines","ID_1":5020,"NAME_1":"Catanduanes","ID_2":502002,"NAME_2":"Baras","ID_3":502002005,"NAME_3":"Buenavista","NL_NAME_3":null,"VARNAME_3":null,"TYPE_3":"Barangay","ENGTYPE_3":"Village","PROVINCE":"Catanduanes","REGION":"Region V (Bicol Region)","id":"barangay-0502002005","name":"Buenavista","barangayCode":"0502002005","population":null,"formattedPop":null,"densityCategory":"No data","vulnerabilityRating":"No data","healthRiskLevel":"No data","areaKm2":0.112539,"centerLat":13.65933,"centerLng":124.366676,"geometrySource":"all_barangay-2.csv detailed WKT","geometryMatchMethod":"unique_official_admin_names","boundaryPointCount":16},"geometry":{"type":"MultiPolygon","coordinates":[[[[124.369537,13.66071],[124.369247,13.65756],[124.368874,13.65723],[124.368393,13.65688],[124.36792,13.65652],[124.367462,13.65617],[124.366852,13.6562],[124.366638,13.65652],[124.366524,13.65709],[124.366669,13.6575],[124.366669,13.65764],[124.366814,13.65792],[124.366814,13.65833],[124.366768,13.6584],[124.36795,13.66082],[124.369537,13.66071]]]]}},{"type":"Feature","properties":{"ID_0":177,"ISO":"PHL","NAME_0":"Philippines","ID_1":5020,"NAME_1":"Catanduanes","ID_2":502002,"NAME_2":"Baras","ID_3":502002006,"NAME_3":"Caragumihan","NL_NAME_3":null,"VARNAME_3":null,"TYPE_3":"Barangay","ENGTYPE_3":"Village","PROVINCE":"Catanduanes","REGION":"Region V (Bicol Region)","id":"barangay-0502002006","name":"Caragumihan","barangayCode":"0502002006","population":null,"formattedPop":null,"densityCategory":"No data","vulnerabilityRating":"No data","healthRiskLevel":"No data","areaKm2":3.601448,"centerLat":13.673092,"centerLng":124.356218,"geometrySource":"all_barangay-2.csv detailed WKT","geometryMatchMethod":"unique_official_admin_names","boundaryPointCount":7},"geometry":{"type":"MultiPolygon","coordinates":[[[[124.33535,13.69839],[124.35054,13.68628],[124.352142,13.68488],[124.367989,13.67344],[124.367821,13.66565],[124.345879,13.68462],[124.33535,13.69839]]]]}},{"type":"Feature","properties":{"ID_0":177,"ISO":"PHL","NAME_0":"Philippines","ID_1":5020,"NAME_1":"Catanduanes","ID_2":502002,"NAME_2":"Baras","ID_3":502002007,"NAME_3":"Batolinao","NL_NAME_3":null,"VARNAME_3":null,"TYPE_3":"Barangay","ENGTYPE_3":"Village","PROVINCE":"Catanduanes","REGION":"Region V (Bicol Region)","id":"barangay-0502002007","name":"Batolinao","barangayCode":"0502002007","population":null,"formattedPop":null,"densityCategory":"No data","vulnerabilityRating":"No data","healthRiskLevel":"No data","areaKm2":1.512319,"centerLat":13.638951,"centerLng":124.338827,"geometrySource":"all_barangay-2.csv detailed WKT","geometryMatchMethod":"unique_official_admin_names","boundaryPointCount":18},"geometry":{"type":"MultiPolygon","coordinates":[[[[124.335533,13.65935],[124.347069,13.64739],[124.346977,13.64717],[124.346916,13.64669],[124.346786,13.6462],[124.346687,13.64573],[124.346672,13.64525],[124.346657,13.64478],[124.346603,13.64431],[124.346443,13.64389],[124.346382,13.64346],[124.346283,13.64308],[124.346077,13.64274],[124.345779,13.642473],[124.339302,13.64325],[124.333961,13.64388],[124.33461,13.6507],[124.335533,13.65935]]]]}},{"type":"Feature","properties":{"ID_0":177,"ISO":"PHL","NAME_0":"Philippines","ID_1":5020,"NAME_1":"Catanduanes","ID_2":502002,"NAME_2":"Baras","ID_3":502002008,"NAME_3":"Danao","NL_NAME_3":null,"VARNAME_3":null,"TYPE_3":"Barangay","ENGTYPE_3":"Village","PROVINCE":"Catanduanes","REGION":"Region V (Bicol Region)","id":"barangay-0502002008","name":"Danao","barangayCode":"0502002008","population":null,"formattedPop":null,"densityCategory":"No data","vulnerabilityRating":"No data","healthRiskLevel":"No data","areaKm2":0.576036,"centerLat":13.651009,"centerLng":124.381686,"geometrySource":"all_barangay-2.csv detailed WKT","geometryMatchMethod":"unique_official_admin_names","boundaryPointCount":80},"geometry":{"type":"MultiPolygon","coordinates":[[[[124.384453,13.63722],[124.38472,13.63694],[124.385002,13.63694],[124.385277,13.63667],[124.385559,13.63667],[124.386108,13.63611],[124.386108,13.63583],[124.385277,13.635],[124.385002,13.635],[124.38472,13.63472],[124.384453,13.63472],[124.384163,13.635],[124.383614,13.635],[124.383438,13.63517],[124.383331,13.63528],[124.382767,13.63528],[124.382713,13.63534],[124.381943,13.63611],[124.381943,13.63639],[124.382217,13.63667],[124.382217,13.63694],[124.383057,13.63778],[124.383057,13.63806],[124.382767,13.63833],[124.382767,13.63917],[124.383057,13.63944],[124.383057,13.63972],[124.383331,13.64],[124.383331,13.64028],[124.383888,13.64083],[124.383888,13.64139],[124.384163,13.64167],[124.38472,13.64222],[124.385559,13.64139],[124.385559,13.64083],[124.38472,13.64],[124.38472,13.63972],[124.384453,13.63944],[124.38472,13.63917],[124.38472,13.6375],[124.384453,13.63722]]],[[[124.377617,13.65191],[124.38353,13.64837],[124.383438,13.64837],[124.382927,13.64845],[124.382362,13.64854],[124.381821,13.64822],[124.381538,13.64763],[124.381607,13.64704],[124.381577,13.64655],[124.381409,13.64621],[124.381241,13.64595],[124.381119,13.6457],[124.380966,13.64545],[124.380707,13.64528],[124.380386,13.64514],[124.380051,13.64493],[124.379723,13.64472],[124.379349,13.64447],[124.378868,13.64409],[124.378342,13.64375],[124.377968,13.64375],[124.37764,13.64391],[124.377357,13.6441],[124.377121,13.64426],[124.377022,13.64466],[124.377167,13.64541],[124.377487,13.64602],[124.377861,13.64653],[124.378014,13.64692],[124.378067,13.64709],[124.37793,13.64769],[124.377579,13.64824],[124.377548,13.64877],[124.377731,13.64927],[124.377777,13.64978],[124.377747,13.6503],[124.377647,13.65083],[124.377533,13.65136],[124.377617,13.65191]]]]}},{"type":"Feature","properties":{"ID_0":177,"ISO":"PHL","NAME_0":"Philippines","ID_1":5020,"NAME_1":"Catanduanes","ID_2":502002,"NAME_2":"Baras","ID_3":502002009,"NAME_3":"Sagrada","NL_NAME_3":null,"VARNAME_3":null,"TYPE_3":"Barangay","ENGTYPE_3":"Village","PROVINCE":"Catanduanes","REGION":"Region V (Bicol Region)","id":"barangay-0502002009","name":"Sagrada","barangayCode":"0502002009","population":null,"formattedPop":null,"densityCategory":"No data","vulnerabilityRating":"No data","healthRiskLevel":"No data","areaKm2":0.965883,"centerLat":13.662857,"centerLng":124.352606,"geometrySource":"all_barangay-2.csv detailed WKT","geometryMatchMethod":"unique_official_admin_names","boundaryPointCount":13},"geometry":{"type":"MultiPolygon","coordinates":[[[[124.341377,13.67541],[124.343491,13.68013],[124.35994,13.65475],[124.359497,13.65451],[124.359161,13.65419],[124.35891,13.65388],[124.358727,13.65353],[124.358513,13.65322],[124.358231,13.65293],[124.357971,13.65259],[124.357773,13.65216],[124.357643,13.65187],[124.341377,13.67541]]]]}},{"type":"Feature","properties":{"ID_0":177,"ISO":"PHL","NAME_0":"Philippines","ID_1":5020,"NAME_1":"Catanduanes","ID_2":502002,"NAME_2":"Baras","ID_3":502002010,"NAME_3":"Ginitligan","NL_NAME_3":null,"VARNAME_3":null,"TYPE_3":"Barangay","ENGTYPE_3":"Village","PROVINCE":"Catanduanes","REGION":"Region V (Bicol Region)","id":"barangay-0502002010","name":"Ginitligan","barangayCode":"0502002010","population":null,"formattedPop":null,"densityCategory":"No data","vulnerabilityRating":"No data","healthRiskLevel":"No data","areaKm2":13.64155,"centerLat":13.73359,"centerLng":124.356321,"geometrySource":"all_barangay-2.csv detailed WKT","geometryMatchMethod":"unique_official_admin_names","boundaryPointCount":70},"geometry":{"type":"MultiPolygon","coordinates":[[[[124.398338,13.73755],[124.398262,13.73735],[124.398102,13.73674],[124.397797,13.73623],[124.397278,13.73608],[124.396713,13.73589],[124.396187,13.73553],[124.395737,13.73509],[124.395317,13.73469],[124.395027,13.7342],[124.394867,13.73369],[124.394661,13.73328],[124.39444,13.73309],[124.394363,13.73302],[124.394051,13.73279],[124.393677,13.7325],[124.393349,13.73223],[124.392998,13.732],[124.392593,13.73188],[124.392326,13.73155],[124.392059,13.73111],[124.391747,13.73071],[124.39122,13.73057],[124.390572,13.73047],[124.389954,13.73031],[124.389267,13.7302],[124.388962,13.72993],[124.388947,13.72958],[124.389091,13.72923],[124.389183,13.72874],[124.389519,13.72849],[124.389442,13.72806],[124.389587,13.72791],[124.390556,13.72694],[124.391937,13.72694],[124.392776,13.72611],[124.393059,13.72611],[124.392967,13.72573],[124.392754,13.72534],[124.39254,13.72496],[124.392113,13.72448],[124.391983,13.72427],[124.391983,13.72401],[124.392021,13.72356],[124.391823,13.72303],[124.391663,13.72249],[124.39196,13.72224],[124.392387,13.72193],[124.392433,13.72147],[124.392143,13.72097],[124.391724,13.72051],[124.391434,13.71996],[124.39109,13.71949],[124.390648,13.71919],[124.39061,13.71917],[124.390053,13.71898],[124.389511,13.71909],[124.388992,13.71928],[124.388474,13.71942],[124.387947,13.71949],[124.387466,13.71966],[124.386963,13.71955],[124.386459,13.71933],[124.386017,13.719],[124.373894,13.71961],[124.358879,13.72456],[124.316116,13.74531],[124.368736,13.74009],[124.396561,13.7373],[124.398338,13.73755]]]]}},{"type":"Feature","properties":{"ID_0":177,"ISO":"PHL","NAME_0":"Philippines","ID_1":5020,"NAME_1":"Catanduanes","ID_2":502002,"NAME_2":"Baras","ID_3":502002011,"NAME_3":"Guinsaanan","NL_NAME_3":null,"VARNAME_3":null,"TYPE_3":"Barangay","ENGTYPE_3":"Village","PROVINCE":"Catanduanes","REGION":"Region V (Bicol Region)","id":"barangay-0502002011","name":"Guinsaanan","barangayCode":"0502002011","population":null,"formattedPop":null,"densityCategory":"No data","vulnerabilityRating":"No data","healthRiskLevel":"No data","areaKm2":3.05107,"centerLat":13.668099,"centerLng":124.401342,"geometrySource":"all_barangay-2.csv detailed WKT","geometryMatchMethod":"unique_official_admin_names","boundaryPointCount":99},"geometry":{"type":"MultiPolygon","coordinates":[[[[124.406357,13.67118],[124.406563,13.67112],[124.406967,13.67111],[124.407463,13.67111],[124.408012,13.67106],[124.408539,13.67083],[124.408997,13.67057],[124.409409,13.67035],[124.409729,13.67015],[124.410049,13.67],[124.410393,13.66988],[124.410744,13.66975],[124.411133,13.66972],[124.411507,13.66975],[124.411903,13.66985],[124.41227,13.66996],[124.412727,13.67002],[124.413292,13.67013],[124.413887,13.66995],[124.414413,13.66968],[124.414909,13.66943],[124.415428,13.66916],[124.415939,13.66884],[124.416359,13.66833],[124.416679,13.66777],[124.416893,13.66723],[124.416946,13.66671],[124.416847,13.66621],[124.416656,13.66575],[124.416473,13.66531],[124.416397,13.66485],[124.416344,13.66441],[124.416191,13.66403],[124.415916,13.66371],[124.415573,13.66347],[124.415222,13.66348],[124.415176,13.66348],[124.41478,13.66362],[124.414391,13.66378],[124.413979,13.6638],[124.413551,13.66369],[124.413147,13.66373],[124.412781,13.66392],[124.412422,13.6642],[124.412048,13.66437],[124.411659,13.66435],[124.411362,13.6641],[124.411179,13.66369],[124.411133,13.66316],[124.411179,13.6626],[124.411293,13.66204],[124.411201,13.66154],[124.410889,13.66116],[124.410522,13.66082],[124.410088,13.6605],[124.409622,13.66017],[124.409027,13.65996],[124.408401,13.66],[124.407837,13.6602],[124.407356,13.66036],[124.406967,13.66053],[124.406563,13.66056],[124.405922,13.66013],[124.405212,13.65982],[124.404823,13.65959],[124.404327,13.65922],[124.403938,13.6587],[124.403511,13.65835],[124.40303,13.65811],[124.402473,13.65809],[124.401833,13.65801],[124.401268,13.65769],[124.400978,13.65715],[124.401291,13.65654],[124.401817,13.6561],[124.402039,13.6559],[124.402237,13.65572],[124.402443,13.65514],[124.402412,13.65458],[124.402107,13.65413],[124.401642,13.65385],[124.401131,13.65361],[124.400612,13.65339],[124.400497,13.65337],[124.400078,13.65322],[124.399483,13.65325],[124.398987,13.65315],[124.398529,13.65303],[124.398087,13.65287],[124.397751,13.65285],[124.395821,13.65557],[124.394867,13.65691],[124.386108,13.66617],[124.385628,13.66669],[124.387321,13.67149],[124.403679,13.67182],[124.405098,13.67033],[124.405746,13.67112],[124.406357,13.67118]]]]}},{"type":"Feature","properties":{"ID_0":177,"ISO":"PHL","NAME_0":"Philippines","ID_1":5020,"NAME_1":"Catanduanes","ID_2":502002,"NAME_2":"Baras","ID_3":502002012,"NAME_3":"J. M. Alberto","NL_NAME_3":null,"VARNAME_3":null,"TYPE_3":"Barangay","ENGTYPE_3":"Village","PROVINCE":"Catanduanes","REGION":"Region V (Bicol Region)","id":"barangay-0502002012","name":"J. M. Alberto","barangayCode":"0502002012","population":null,"formattedPop":null,"densityCategory":"No data","vulnerabilityRating":"No data","healthRiskLevel":"No data","areaKm2":9.677006,"centerLat":13.703135,"centerLng":124.360074,"geometrySource":"all_barangay-2.csv detailed WKT","geometryMatchMethod":"unique_official_admin_names","boundaryPointCount":51},"geometry":{"type":"MultiPolygon","coordinates":[[[[124.331009,13.71],[124.384392,13.71173],[124.386208,13.71169],[124.386597,13.71144],[124.386932,13.71113],[124.387222,13.71081],[124.387466,13.71051],[124.387627,13.71019],[124.387962,13.70997],[124.388283,13.70996],[124.388741,13.70986],[124.389511,13.70958],[124.390213,13.70961],[124.390633,13.70974],[124.3909,13.70971],[124.391243,13.70971],[124.391663,13.70972],[124.392189,13.70971],[124.392776,13.70968],[124.393379,13.70963],[124.393829,13.70981],[124.394623,13.71013],[124.395332,13.71034],[124.39579,13.71028],[124.396217,13.71017],[124.396744,13.70994],[124.397278,13.70964],[124.397636,13.70916],[124.397758,13.7085],[124.397667,13.70794],[124.397308,13.7076],[124.396843,13.70735],[124.396797,13.70711],[124.396927,13.70675],[124.397247,13.70623],[124.397346,13.70554],[124.397034,13.7053],[124.396713,13.70476],[124.396423,13.70439],[124.396317,13.70427],[124.396408,13.70405],[124.388062,13.70295],[124.362,13.69838],[124.345863,13.6991],[124.33535,13.69839],[124.3349,13.69973],[124.334824,13.69996],[124.333923,13.70267],[124.332039,13.7074],[124.331978,13.70756],[124.331009,13.71]]]]}},{"type":"Feature","properties":{"ID_0":177,"ISO":"PHL","NAME_0":"Philippines","ID_1":5020,"NAME_1":"Catanduanes","ID_2":502002,"NAME_2":"Baras","ID_3":502002013,"NAME_3":"Macutal","NL_NAME_3":null,"VARNAME_3":null,"TYPE_3":"Barangay","ENGTYPE_3":"Village","PROVINCE":"Catanduanes","REGION":"Region V (Bicol Region)","id":"barangay-0502002013","name":"Macutal","barangayCode":"0502002013","population":null,"formattedPop":null,"densityCategory":"No data","vulnerabilityRating":"No data","healthRiskLevel":"No data","areaKm2":2.788669,"centerLat":13.681021,"centerLng":124.355161,"geometrySource":"all_barangay-2.csv detailed WKT","geometryMatchMethod":"unique_official_admin_names","boundaryPointCount":8},"geometry":{"type":"MultiPolygon","coordinates":[[[[124.33535,13.69839],[124.354942,13.69167],[124.375809,13.68466],[124.37867,13.6837],[124.367989,13.67344],[124.352142,13.68488],[124.35054,13.68628],[124.33535,13.69839]]]]}},{"type":"Feature","properties":{"ID_0":177,"ISO":"PHL","NAME_0":"Philippines","ID_1":5020,"NAME_1":"Catanduanes","ID_2":502002,"NAME_2":"Baras","ID_3":502002014,"NAME_3":"Moning","NL_NAME_3":null,"VARNAME_3":null,"TYPE_3":"Barangay","ENGTYPE_3":"Village","PROVINCE":"Catanduanes","REGION":"Region V (Bicol Region)","id":"barangay-0502002014","name":"Moning","barangayCode":"0502002014","population":null,"formattedPop":null,"densityCategory":"No data","vulnerabilityRating":"No data","healthRiskLevel":"No data","areaKm2":0.590495,"centerLat":13.655789,"centerLng":124.356782,"geometrySource":"all_barangay-2.csv detailed WKT","geometryMatchMethod":"unique_official_admin_names","boundaryPointCount":16},"geometry":{"type":"MultiPolygon","coordinates":[[[[124.341377,13.67541],[124.357643,13.65187],[124.357567,13.65171],[124.357353,13.65129],[124.357147,13.65097],[124.356934,13.65067],[124.356689,13.65039],[124.356453,13.65011],[124.356003,13.65001],[124.355469,13.65],[124.354889,13.64999],[124.354286,13.64993],[124.353767,13.64978],[124.338013,13.67313],[124.338692,13.67803],[124.341377,13.67541]]]]}},{"type":"Feature","properties":{"ID_0":177,"ISO":"PHL","NAME_0":"Philippines","ID_1":5020,"NAME_1":"Catanduanes","ID_2":502002,"NAME_2":"Baras","ID_3":502002015,"NAME_3":"Nagbarorong","NL_NAME_3":null,"VARNAME_3":null,"TYPE_3":"Barangay","ENGTYPE_3":"Village","PROVINCE":"Catanduanes","REGION":"Region V (Bicol Region)","id":"barangay-0502002015","name":"Nagbarorong","barangayCode":"0502002015","population":null,"formattedPop":null,"densityCategory":"No data","vulnerabilityRating":"No data","healthRiskLevel":"No data","areaKm2":1.276103,"centerLat":13.667439,"centerLng":124.355644,"geometrySource":"all_barangay-2.csv detailed WKT","geometryMatchMethod":"unique_official_admin_names","boundaryPointCount":6},"geometry":{"type":"MultiPolygon","coordinates":[[[[124.345879,13.68462],[124.367821,13.66565],[124.363899,13.66492],[124.359894,13.66401],[124.345047,13.68329],[124.345879,13.68462]]]]}},{"type":"Feature","properties":{"ID_0":177,"ISO":"PHL","NAME_0":"Philippines","ID_1":5020,"NAME_1":"Catanduanes","ID_2":502002,"NAME_2":"Baras","ID_3":502002016,"NAME_3":"Osmeña","NL_NAME_3":null,"VARNAME_3":"Osmena","TYPE_3":"Barangay","ENGTYPE_3":"Village","PROVINCE":"Catanduanes","REGION":"Region V (Bicol Region)","id":"barangay-0502002016","name":"Osmeña","barangayCode":"0502002016","population":null,"formattedPop":null,"densityCategory":"No data","vulnerabilityRating":"No data","healthRiskLevel":"No data","areaKm2":0.808024,"centerLat":13.665233,"centerLng":124.353605,"geometrySource":"all_barangay-2.csv detailed WKT","geometryMatchMethod":"unique_official_admin_names","boundaryPointCount":15},"geometry":{"type":"MultiPolygon","coordinates":[[[[124.345047,13.68329],[124.359894,13.66401],[124.362717,13.65921],[124.363297,13.65815],[124.363052,13.65803],[124.362534,13.65764],[124.362083,13.6572],[124.361702,13.65668],[124.361359,13.65611],[124.360931,13.6556],[124.36042,13.65521],[124.359993,13.65477],[124.35994,13.65475],[124.343491,13.68013],[124.345047,13.68329]]]]}},{"type":"Feature","properties":{"ID_0":177,"ISO":"PHL","NAME_0":"Philippines","ID_1":5020,"NAME_1":"Catanduanes","ID_2":502002,"NAME_2":"Baras","ID_3":502002017,"NAME_3":"P. Teston","NL_NAME_3":null,"VARNAME_3":null,"TYPE_3":"Barangay","ENGTYPE_3":"Village","PROVINCE":"Catanduanes","REGION":"Region V (Bicol Region)","id":"barangay-0502002017","name":"P. Teston","barangayCode":"0502002017","population":null,"formattedPop":null,"densityCategory":"No data","vulnerabilityRating":"No data","healthRiskLevel":"No data","areaKm2":0.979209,"centerLat":13.663355,"centerLng":124.382828,"geometrySource":"all_barangay-2.csv detailed WKT","geometryMatchMethod":"unique_official_admin_names","boundaryPointCount":10},"geometry":{"type":"MultiPolygon","coordinates":[[[[124.385628,13.66669],[124.386108,13.66617],[124.394867,13.65691],[124.38723,13.65887],[124.383652,13.656],[124.378639,13.65803],[124.378609,13.6581],[124.37838,13.65844],[124.380119,13.66457],[124.385628,13.66669]]]]}},{"type":"Feature","properties":{"ID_0":177,"ISO":"PHL","NAME_0":"Philippines","ID_1":5020,"NAME_1":"Catanduanes","ID_2":502002,"NAME_2":"Baras","ID_3":502002018,"NAME_3":"Paniquihan","NL_NAME_3":null,"VARNAME_3":null,"TYPE_3":"Barangay","ENGTYPE_3":"Village","PROVINCE":"Catanduanes","REGION":"Region V (Bicol Region)","id":"barangay-0502002018","name":"Paniquihan","barangayCode":"0502002018","population":null,"formattedPop":null,"densityCategory":"No data","vulnerabilityRating":"No data","healthRiskLevel":"No data","areaKm2":1.604649,"centerLat":13.673871,"centerLng":124.382727,"geometrySource":"all_barangay-2.csv detailed WKT","geometryMatchMethod":"unique_official_admin_names","boundaryPointCount":8},"geometry":{"type":"MultiPolygon","coordinates":[[[[124.383781,13.68152],[124.38784,13.6771],[124.38781,13.67674],[124.387321,13.67149],[124.385628,13.66669],[124.380119,13.66457],[124.375664,13.66693],[124.383781,13.68152]]]]}},{"type":"Feature","properties":{"ID_0":177,"ISO":"PHL","NAME_0":"Philippines","ID_1":5020,"NAME_1":"Catanduanes","ID_2":502002,"NAME_2":"Baras","ID_3":502002019,"NAME_3":"Eastern Poblacion","NL_NAME_3":null,"VARNAME_3":null,"TYPE_3":"Barangay","ENGTYPE_3":"Village","PROVINCE":"Catanduanes","REGION":"Region V (Bicol Region)","id":"barangay-0502002019","name":"Eastern Poblacion","barangayCode":"0502002019","population":null,"formattedPop":null,"densityCategory":"No data","vulnerabilityRating":"No data","healthRiskLevel":"No data","areaKm2":0.028798,"centerLat":13.65901,"centerLng":124.371789,"geometrySource":"all_barangay-2.csv detailed WKT","geometryMatchMethod":"unique_official_admin_names","boundaryPointCount":9},"geometry":{"type":"MultiPolygon","coordinates":[[[[124.373802,13.65915],[124.373573,13.65883],[124.373108,13.65853],[124.372566,13.65828],[124.371933,13.65809],[124.371429,13.65809],[124.371269,13.66054],[124.373001,13.66029],[124.373802,13.65915]]]]}},{"type":"Feature","properties":{"ID_0":177,"ISO":"PHL","NAME_0":"Philippines","ID_1":5020,"NAME_1":"Catanduanes","ID_2":502002,"NAME_2":"Baras","ID_3":502002020,"NAME_3":"Puraran","NL_NAME_3":null,"VARNAME_3":null,"TYPE_3":"Barangay","ENGTYPE_3":"Village","PROVINCE":"Catanduanes","REGION":"Region V (Bicol Region)","id":"barangay-0502002020","name":"Puraran","barangayCode":"0502002020","population":null,"formattedPop":null,"densityCategory":"No data","vulnerabilityRating":"No data","healthRiskLevel":"No data","areaKm2":0.982632,"centerLat":13.684957,"centerLng":124.390543,"geometrySource":"all_barangay-2.csv detailed WKT","geometryMatchMethod":"unique_official_admin_names","boundaryPointCount":26},"geometry":{"type":"MultiPolygon","coordinates":[[[[124.391632,13.69177],[124.391953,13.69201],[124.392326,13.69235],[124.392677,13.69245],[124.393082,13.69264],[124.393509,13.6928],[124.394188,13.69264],[124.394943,13.69234],[124.395309,13.69216],[124.395416,13.69165],[124.395538,13.69115],[124.395638,13.69065],[124.395782,13.69015],[124.395973,13.68968],[124.396294,13.68937],[124.396744,13.68914],[124.397247,13.68896],[124.397743,13.68888],[124.396179,13.68686],[124.395714,13.68666],[124.38784,13.6771],[124.383781,13.68152],[124.389442,13.68793],[124.38942,13.68796],[124.391434,13.6906],[124.391632,13.69177]]]]}},{"type":"Feature","properties":{"ID_0":177,"ISO":"PHL","NAME_0":"Philippines","ID_1":5020,"NAME_1":"Catanduanes","ID_2":502002,"NAME_2":"Baras","ID_3":502002021,"NAME_3":"Putsan","NL_NAME_3":null,"VARNAME_3":null,"TYPE_3":"Barangay","ENGTYPE_3":"Village","PROVINCE":"Catanduanes","REGION":"Region V (Bicol Region)","id":"barangay-0502002021","name":"Putsan","barangayCode":"0502002021","population":null,"formattedPop":null,"densityCategory":"No data","vulnerabilityRating":"No data","healthRiskLevel":"No data","areaKm2":0.660683,"centerLat":13.656455,"centerLng":124.383618,"geometrySource":"all_barangay-2.csv detailed WKT","geometryMatchMethod":"unique_official_admin_names","boundaryPointCount":43},"geometry":{"type":"MultiPolygon","coordinates":[[[[124.378639,13.65803],[124.383652,13.656],[124.389168,13.6533],[124.388931,13.65279],[124.388634,13.65223],[124.388046,13.65199],[124.38739,13.65187],[124.386917,13.65197],[124.386436,13.65192],[124.386162,13.65174],[124.385963,13.6515],[124.385857,13.65124],[124.385803,13.65098],[124.385643,13.65076],[124.385353,13.65044],[124.385063,13.65004],[124.384911,13.64967],[124.384743,13.64936],[124.38459,13.64907],[124.384399,13.64884],[124.384163,13.64861],[124.38385,13.6484],[124.38353,13.64837],[124.377617,13.65191],[124.377663,13.65216],[124.37767,13.65222],[124.377533,13.6525],[124.377533,13.65277],[124.377403,13.65318],[124.376968,13.65387],[124.376663,13.65417],[124.376389,13.65444],[124.376663,13.65472],[124.376907,13.65514],[124.377296,13.65544],[124.377724,13.65563],[124.37809,13.65588],[124.378357,13.65628],[124.378433,13.65637],[124.378632,13.6567],[124.378838,13.65716],[124.378807,13.65765],[124.378639,13.65803]]]]}},{"type":"Feature","properties":{"ID_0":177,"ISO":"PHL","NAME_0":"Philippines","ID_1":5020,"NAME_1":"Catanduanes","ID_2":502002,"NAME_2":"Baras","ID_3":502002022,"NAME_3":"Quezon","NL_NAME_3":null,"VARNAME_3":null,"TYPE_3":"Barangay","ENGTYPE_3":"Village","PROVINCE":"Catanduanes","REGION":"Region V (Bicol Region)","id":"barangay-0502002022","name":"Quezon","barangayCode":"0502002022","population":null,"formattedPop":null,"densityCategory":"No data","vulnerabilityRating":"No data","healthRiskLevel":"No data","areaKm2":0.01434,"centerLat":13.660071,"centerLng":124.368734,"geometrySource":"all_barangay-2.csv detailed WKT","geometryMatchMethod":"unique_official_admin_names","boundaryPointCount":18},"geometry":{"type":"MultiPolygon","coordinates":[[[[124.367821,13.66565],[124.367943,13.66246],[124.36795,13.66082],[124.366768,13.6584],[124.366669,13.65861],[124.366669,13.65889],[124.366386,13.65917],[124.365837,13.65917],[124.365547,13.65889],[124.36528,13.65889],[124.364899,13.65879],[124.364304,13.6586],[124.363678,13.65833],[124.363297,13.65815],[124.362717,13.65921],[124.359894,13.66401],[124.363899,13.66492],[124.367821,13.66565]]]]}},{"type":"Feature","properties":{"ID_0":177,"ISO":"PHL","NAME_0":"Philippines","ID_1":5020,"NAME_1":"Catanduanes","ID_2":502002,"NAME_2":"Baras","ID_3":502002023,"NAME_3":"Rizal","NL_NAME_3":null,"VARNAME_3":null,"TYPE_3":"Barangay","ENGTYPE_3":"Village","PROVINCE":"Catanduanes","REGION":"Region V (Bicol Region)","id":"barangay-0502002023","name":"Rizal","barangayCode":"0502002023","population":null,"formattedPop":null,"densityCategory":"No data","vulnerabilityRating":"No data","healthRiskLevel":"No data","areaKm2":0.926584,"centerLat":13.677375,"centerLng":124.375097,"geometrySource":"barangays.geojson simplified fallback","geometryMatchMethod":"simplified_fallback","boundaryPointCount":5},"geometry":{"type":"Polygon","coordinates":[[[124.38116209300006,13.68110376800007],[124.376589,13.671329279000076],[124.36930335800002,13.67502445100007],[124.372789366,13.682300444000077],[124.38116209300006,13.68110376800007]]]}},{"type":"Feature","properties":{"ID_0":177,"ISO":"PHL","NAME_0":"Philippines","ID_1":5020,"NAME_1":"Catanduanes","ID_2":502002,"NAME_2":"Baras","ID_3":502002024,"NAME_3":"Salvacion","NL_NAME_3":null,"VARNAME_3":null,"TYPE_3":"Barangay","ENGTYPE_3":"Village","PROVINCE":"Catanduanes","REGION":"Region V (Bicol Region)","id":"barangay-0502002024","name":"Salvacion","barangayCode":"0502002024","population":null,"formattedPop":null,"densityCategory":"No data","vulnerabilityRating":"No data","healthRiskLevel":"No data","areaKm2":0.50775,"centerLat":13.631363,"centerLng":124.344793,"geometrySource":"all_barangay-2.csv detailed WKT","geometryMatchMethod":"unique_official_admin_names","boundaryPointCount":50},"geometry":{"type":"MultiPolygon","coordinates":[[[[124.345779,13.642473],[124.345329,13.64217],[124.344872,13.64178],[124.344276,13.64141],[124.343674,13.64114],[124.343246,13.64087],[124.34285,13.64061],[124.342491,13.64027],[124.342163,13.63991],[124.341988,13.63945],[124.342079,13.6389],[124.342522,13.63831],[124.34301,13.6378],[124.343132,13.63766],[124.343422,13.63732],[124.343826,13.63699],[124.344147,13.63671],[124.344383,13.63645],[124.344589,13.63625],[124.344803,13.63611],[124.344994,13.63597],[124.345222,13.63579],[124.345497,13.63554],[124.345779,13.63519],[124.345833,13.63456],[124.34584,13.63401],[124.345886,13.6336],[124.346077,13.63325],[124.346169,13.63293],[124.346336,13.63268],[124.346481,13.63242],[124.346657,13.6322],[124.346802,13.63194],[124.346947,13.63166],[124.347099,13.63136],[124.347237,13.63101],[124.347412,13.63063],[124.347603,13.63019],[124.347908,13.62975],[124.348312,13.62931],[124.348671,13.62879],[124.348824,13.62815],[124.348633,13.62751],[124.348457,13.62715],[124.348373,13.62693],[124.348259,13.62677],[124.33004,13.62774],[124.333961,13.64388],[124.339302,13.64325],[124.345779,13.642473]]]]}},{"type":"Feature","properties":{"ID_0":177,"ISO":"PHL","NAME_0":"Philippines","ID_1":5020,"NAME_1":"Catanduanes","ID_2":502002,"NAME_2":"Baras","ID_3":502002025,"NAME_3":"San Lorenzo","NL_NAME_3":null,"VARNAME_3":null,"TYPE_3":"Barangay","ENGTYPE_3":"Village","PROVINCE":"Catanduanes","REGION":"Region V (Bicol Region)","id":"barangay-0502002025","name":"San Lorenzo","barangayCode":"0502002025","population":null,"formattedPop":null,"densityCategory":"No data","vulnerabilityRating":"No data","healthRiskLevel":"No data","areaKm2":0.030426,"centerLat":13.659627,"centerLng":124.369877,"geometrySource":"all_barangay-2.csv detailed WKT","geometryMatchMethod":"unique_official_admin_names","boundaryPointCount":17},"geometry":{"type":"MultiPolygon","coordinates":[[[[124.375641,13.66102],[124.375359,13.66089],[124.374992,13.6607],[124.374649,13.66051],[124.37439,13.66019],[124.374161,13.65972],[124.373894,13.65926],[124.373802,13.65915],[124.373001,13.66029],[124.371269,13.66054],[124.369537,13.66071],[124.36795,13.66082],[124.367943,13.66246],[124.369667,13.66271],[124.372383,13.66265],[124.374443,13.66208],[124.375641,13.66102]]]]}},{"type":"Feature","properties":{"ID_0":177,"ISO":"PHL","NAME_0":"Philippines","ID_1":5020,"NAME_1":"Catanduanes","ID_2":502002,"NAME_2":"Baras","ID_3":502002026,"NAME_3":"San Miguel","NL_NAME_3":null,"VARNAME_3":null,"TYPE_3":"Barangay","ENGTYPE_3":"Village","PROVINCE":"Catanduanes","REGION":"Region V (Bicol Region)","id":"barangay-0502002026","name":"San Miguel","barangayCode":"0502002026","population":null,"formattedPop":null,"densityCategory":"No data","vulnerabilityRating":"No data","healthRiskLevel":"No data","areaKm2":2.787368,"centerLat":13.680952,"centerLng":124.401364,"geometrySource":"barangays.geojson simplified fallback","geometryMatchMethod":"simplified_fallback","boundaryPointCount":22},"geometry":{"type":"MultiPolygon","coordinates":[[[[124.40472611300004,13.68828923500007],[124.40443104200006,13.688351706000049],[124.40455071200006,13.68847488800003],[124.40472611300004,13.68828923500007]]],[[[124.40449963000003,13.688881108000032],[124.40434346900008,13.689029461000075],[124.40449615900002,13.689086779000036],[124.40449963000003,13.688881108000032]]],[[[124.40783777200011,13.689057990000038],[124.40812967600004,13.688752435000026],[124.40762365900002,13.688735827000073],[124.40783777200011,13.689057990000038]]],[[[124.40372573500008,13.689072428000031],[124.40349669900002,13.689182006000067],[124.40382984100006,13.689175264000028],[124.40372573500008,13.689072428000031]]],[[[124.38937513100007,13.677423327000042],[124.40578904400002,13.686957244000041],[124.40803244400001,13.688588631000073],[124.4108473020001,13.68448707500005],[124.40945421200001,13.675352659000055],[124.38937513100007,13.677423327000042]]]]}},{"type":"Feature","properties":{"ID_0":177,"ISO":"PHL","NAME_0":"Philippines","ID_1":5020,"NAME_1":"Catanduanes","ID_2":502002,"NAME_2":"Baras","ID_3":502002027,"NAME_3":"Santa Maria","NL_NAME_3":null,"VARNAME_3":null,"TYPE_3":"Barangay","ENGTYPE_3":"Village","PROVINCE":"Catanduanes","REGION":"Region V (Bicol Region)","id":"barangay-0502002027","name":"Santa Maria","barangayCode":"0502002027","population":null,"formattedPop":null,"densityCategory":"No data","vulnerabilityRating":"No data","healthRiskLevel":"No data","areaKm2":1.709554,"centerLat":13.659798,"centerLng":124.345315,"geometrySource":"all_barangay-2.csv detailed WKT","geometryMatchMethod":"unique_official_admin_names","boundaryPointCount":8},"geometry":{"type":"MultiPolygon","coordinates":[[[[124.337677,13.68561],[124.33535,13.69839],[124.345879,13.68462],[124.345047,13.68329],[124.343491,13.68013],[124.341377,13.67541],[124.338692,13.67803],[124.337677,13.68561]]]]}},{"type":"Feature","properties":{"ID_0":177,"ISO":"PHL","NAME_0":"Philippines","ID_1":5020,"NAME_1":"Catanduanes","ID_2":502002,"NAME_2":"Baras","ID_3":502002028,"NAME_3":"Tilod","NL_NAME_3":null,"VARNAME_3":null,"TYPE_3":"Barangay","ENGTYPE_3":"Village","PROVINCE":"Catanduanes","REGION":"Region V (Bicol Region)","id":"barangay-0502002028","name":"Tilod","barangayCode":"0502002028","population":null,"formattedPop":null,"densityCategory":"No data","vulnerabilityRating":"No data","healthRiskLevel":"No data","areaKm2":2.11266,"centerLat":13.651319,"centerLng":124.342581,"geometrySource":"all_barangay-2.csv detailed WKT","geometryMatchMethod":"unique_official_admin_names","boundaryPointCount":26},"geometry":{"type":"MultiPolygon","coordinates":[[[[124.338013,13.67313],[124.353767,13.64978],[124.353729,13.64976],[124.353172,13.64972],[124.352661,13.64968],[124.35228,13.64952],[124.351936,13.64942],[124.351707,13.64926],[124.351532,13.64904],[124.351196,13.64888],[124.35083,13.64873],[124.350433,13.64861],[124.350014,13.64852],[124.349564,13.64847],[124.349098,13.64857],[124.348633,13.64861],[124.348167,13.64861],[124.347771,13.64855],[124.347504,13.64828],[124.347282,13.64796],[124.347137,13.64756],[124.347069,13.64739],[124.335533,13.65935],[124.335991,13.66296],[124.337082,13.66896],[124.338013,13.67313]]]]}},{"type":"Feature","properties":{"ID_0":177,"ISO":"PHL","NAME_0":"Philippines","ID_1":5020,"NAME_1":"Catanduanes","ID_2":502002,"NAME_2":"Baras","ID_3":502002029,"NAME_3":"Western Poblacion","NL_NAME_3":null,"VARNAME_3":null,"TYPE_3":"Barangay","ENGTYPE_3":"Village","PROVINCE":"Catanduanes","REGION":"Region V (Bicol Region)","id":"barangay-0502002029","name":"Western Poblacion","barangayCode":"0502002029","population":null,"formattedPop":null,"densityCategory":"No data","vulnerabilityRating":"No data","healthRiskLevel":"No data","areaKm2":0.022863,"centerLat":13.658687,"centerLng":124.368914,"geometrySource":"all_barangay-2.csv detailed WKT","geometryMatchMethod":"unique_official_admin_names","boundaryPointCount":9},"geometry":{"type":"MultiPolygon","coordinates":[[[[124.371269,13.66054],[124.371429,13.65809],[124.371193,13.65809],[124.370461,13.6582],[124.36985,13.65799],[124.369339,13.65763],[124.369247,13.65756],[124.369537,13.66071],[124.371269,13.66054]]]]}}]}
