{"type":"FeatureCollection","features":[{"type":"Feature","properties":{"ID_0":177,"ISO":"PHL","NAME_0":"Philippines","ID_1":5017,"NAME_1":"Camarines Sur","ID_2":501722,"NAME_2":"Minalabac","ID_3":501722001,"NAME_3":"Antipolo","NL_NAME_3":null,"VARNAME_3":null,"TYPE_3":"Barangay","ENGTYPE_3":"Village","PROVINCE":"Camarines Sur","REGION":"Region V (Bicol Region)","id":"barangay-0501722001","name":"Antipolo","barangayCode":"0501722001","population":null,"formattedPop":null,"densityCategory":"No data","vulnerabilityRating":"No data","healthRiskLevel":"No data","areaKm2":8.241221,"centerLat":13.522886,"centerLng":123.16218,"geometrySource":"all_barangay-2.csv detailed WKT","geometryMatchMethod":"unique_official_admin_names","boundaryPointCount":24},"geometry":{"type":"MultiPolygon","coordinates":[[[[123.155548,13.54561],[123.168022,13.54213],[123.174759,13.53967],[123.171722,13.53314],[123.168922,13.52654],[123.165733,13.51903],[123.162842,13.51202],[123.160454,13.50763],[123.159866,13.50717],[123.142021,13.50146],[123.141968,13.50274],[123.1418,13.5067],[123.141617,13.50858],[123.141693,13.51185],[123.141769,13.51581],[123.141998,13.51787],[123.142548,13.52145],[123.143112,13.52555],[123.143593,13.52704],[123.144531,13.53088],[123.145927,13.53404],[123.148453,13.53812],[123.150032,13.53981],[123.155548,13.54561]]]]}},{"type":"Feature","properties":{"ID_0":177,"ISO":"PHL","NAME_0":"Philippines","ID_1":5017,"NAME_1":"Camarines Sur","ID_2":501722,"NAME_2":"Minalabac","ID_3":501722002,"NAME_3":"Bagolatao","NL_NAME_3":null,"VARNAME_3":null,"TYPE_3":"Barangay","ENGTYPE_3":"Village","PROVINCE":"Camarines Sur","REGION":"Region V (Bicol Region)","id":"barangay-0501722002","name":"Bagolatao","barangayCode":"0501722002","population":null,"formattedPop":null,"densityCategory":"No data","vulnerabilityRating":"No data","healthRiskLevel":"No data","areaKm2":3.807038,"centerLat":13.46325,"centerLng":123.16058,"geometrySource":"all_barangay-2.csv detailed WKT","geometryMatchMethod":"unique_official_admin_names","boundaryPointCount":61},"geometry":{"type":"MultiPolygon","coordinates":[[[[123.179024,13.47236],[123.183807,13.46808],[123.189758,13.46192],[123.180023,13.45502],[123.169067,13.44725],[123.168793,13.44752],[123.16848,13.44791],[123.168198,13.44827],[123.167847,13.44855],[123.167542,13.44881],[123.167152,13.44897],[123.166786,13.44918],[123.166397,13.44938],[123.165962,13.44947],[123.165573,13.44959],[123.16523,13.44973],[123.164917,13.44988],[123.164619,13.45003],[123.164299,13.45021],[123.163918,13.4503],[123.163559,13.45044],[123.163231,13.4506],[123.162987,13.45082],[123.16275,13.45107],[123.162498,13.45133],[123.162216,13.45161],[123.161903,13.45192],[123.16156,13.45221],[123.161186,13.45246],[123.160797,13.45268],[123.1604,13.45289],[123.16011,13.45323],[123.15979,13.45358],[123.159401,13.45394],[123.158997,13.45433],[123.158577,13.45469],[123.158142,13.455],[123.157692,13.45524],[123.157219,13.45543],[123.156738,13.45562],[123.15625,13.45583],[123.155724,13.45599],[123.155113,13.45595],[123.154457,13.45592],[123.153839,13.45615],[123.153267,13.45649],[123.152718,13.45672],[123.152184,13.4569],[123.151642,13.45701],[123.151176,13.45716],[123.150711,13.45721],[123.150261,13.45716],[123.150208,13.45713],[123.149437,13.46156],[123.147682,13.46681],[123.146309,13.47291],[123.145554,13.47911],[123.144493,13.48483],[123.143333,13.49165],[123.16243,13.48074],[123.179024,13.47236]]]]}},{"type":"Feature","properties":{"ID_0":177,"ISO":"PHL","NAME_0":"Philippines","ID_1":5017,"NAME_1":"Camarines Sur","ID_2":501722,"NAME_2":"Minalabac","ID_3":501722003,"NAME_3":"Bagongbong","NL_NAME_3":null,"VARNAME_3":null,"TYPE_3":"Barangay","ENGTYPE_3":"Village","PROVINCE":"Camarines Sur","REGION":"Region V (Bicol Region)","id":"barangay-0501722003","name":"Bagongbong","barangayCode":"0501722003","population":null,"formattedPop":null,"densityCategory":"No data","vulnerabilityRating":"No data","healthRiskLevel":"No data","areaKm2":3.504022,"centerLat":13.542549,"centerLng":123.187245,"geometrySource":"all_barangay-2.csv detailed WKT","geometryMatchMethod":"unique_official_admin_names","boundaryPointCount":19},"geometry":{"type":"MultiPolygon","coordinates":[[[[123.189827,13.56261],[123.192909,13.55179],[123.193962,13.55112],[123.195229,13.54697],[123.196411,13.54515],[123.196281,13.54344],[123.193398,13.54375],[123.192337,13.54202],[123.194061,13.54066],[123.194267,13.5385],[123.194748,13.53624],[123.194901,13.53293],[123.188522,13.53307],[123.187187,13.53978],[123.179817,13.53992],[123.178123,13.54918],[123.181297,13.56174],[123.188293,13.56298],[123.189827,13.56261]]]]}},{"type":"Feature","properties":{"ID_0":177,"ISO":"PHL","NAME_0":"Philippines","ID_1":5017,"NAME_1":"Camarines Sur","ID_2":501722,"NAME_2":"Minalabac","ID_3":501722004,"NAME_3":"Baliuag Nuevo","NL_NAME_3":null,"VARNAME_3":null,"TYPE_3":"Barangay","ENGTYPE_3":"Village","PROVINCE":"Camarines Sur","REGION":"Region V (Bicol Region)","id":"barangay-0501722004","name":"Baliuag Nuevo","barangayCode":"0501722004","population":null,"formattedPop":null,"densityCategory":"No data","vulnerabilityRating":"No data","healthRiskLevel":"No data","areaKm2":5.242125,"centerLat":13.504907,"centerLng":123.193278,"geometrySource":"all_barangay-2.csv detailed WKT","geometryMatchMethod":"unique_official_admin_names","boundaryPointCount":42},"geometry":{"type":"MultiPolygon","coordinates":[[[[123.200119,13.52979],[123.201317,13.52882],[123.202087,13.52694],[123.200867,13.52493],[123.199799,13.52371],[123.199509,13.5222],[123.200684,13.52011],[123.200684,13.51799],[123.198639,13.51532],[123.198257,13.51358],[123.200974,13.51132],[123.203934,13.51116],[123.20285,13.50822],[123.203346,13.50518],[123.19738,13.50052],[123.192947,13.497],[123.188187,13.49419],[123.18261,13.49076],[123.178261,13.48882],[123.178703,13.49079],[123.179031,13.49225],[123.178772,13.494],[123.178032,13.49481],[123.178223,13.49526],[123.178169,13.4963],[123.178108,13.49807],[123.17807,13.49993],[123.178238,13.50167],[123.178627,13.50273],[123.179787,13.50363],[123.180489,13.50482],[123.180107,13.50618],[123.180061,13.50728],[123.181877,13.50837],[123.181374,13.51892],[123.187523,13.52377],[123.190826,13.52622],[123.194473,13.52869],[123.195343,13.5291],[123.196877,13.5299],[123.198929,13.53064],[123.200119,13.52979]]]]}},{"type":"Feature","properties":{"ID_0":177,"ISO":"PHL","NAME_0":"Philippines","ID_1":5017,"NAME_1":"Camarines Sur","ID_2":501722,"NAME_2":"Minalabac","ID_3":501722005,"NAME_3":"Baliuag Viejo","NL_NAME_3":null,"VARNAME_3":null,"TYPE_3":"Barangay","ENGTYPE_3":"Village","PROVINCE":"Camarines Sur","REGION":"Region V (Bicol Region)","id":"barangay-0501722005","name":"Baliuag Viejo","barangayCode":"0501722005","population":null,"formattedPop":null,"densityCategory":"No data","vulnerabilityRating":"No data","healthRiskLevel":"No data","areaKm2":6.052894,"centerLat":13.517624,"centerLng":123.211971,"geometrySource":"all_barangay-2.csv detailed WKT","geometryMatchMethod":"unique_official_admin_names","boundaryPointCount":58},"geometry":{"type":"MultiPolygon","coordinates":[[[[123.214729,13.52581],[123.215683,13.5251],[123.21666,13.52489],[123.217987,13.52423],[123.218727,13.52288],[123.219994,13.52182],[123.220009,13.5215],[123.22049,13.52039],[123.221619,13.5194],[123.222679,13.51944],[123.224228,13.51902],[123.224854,13.51897],[123.225906,13.51758],[123.22657,13.51678],[123.227074,13.51466],[123.228447,13.51383],[123.228188,13.51131],[123.229401,13.50935],[123.230278,13.50846],[123.231934,13.5078],[123.225906,13.50487],[123.217537,13.50277],[123.215393,13.5021],[123.213043,13.50185],[123.2099,13.50298],[123.207314,13.50261],[123.205353,13.50044],[123.20504,13.50092],[123.204857,13.5011],[123.204323,13.50247],[123.204193,13.5042],[123.203346,13.50518],[123.20285,13.50822],[123.203934,13.51116],[123.200974,13.51132],[123.198257,13.51358],[123.198639,13.51532],[123.200684,13.51799],[123.200684,13.52011],[123.199509,13.5222],[123.199799,13.52371],[123.200867,13.52493],[123.202087,13.52694],[123.201317,13.52882],[123.200119,13.52979],[123.200432,13.53017],[123.20269,13.53082],[123.204567,13.52961],[123.20636,13.52859],[123.207787,13.52914],[123.208366,13.52918],[123.209633,13.5282],[123.210938,13.52835],[123.212227,13.52794],[123.212646,13.52669],[123.212387,13.52522],[123.213364,13.52504],[123.214729,13.52581]]]]}},{"type":"Feature","properties":{"ID_0":177,"ISO":"PHL","NAME_0":"Philippines","ID_1":5017,"NAME_1":"Camarines Sur","ID_2":501722,"NAME_2":"Minalabac","ID_3":501722006,"NAME_3":"Catanusan","NL_NAME_3":null,"VARNAME_3":null,"TYPE_3":"Barangay","ENGTYPE_3":"Village","PROVINCE":"Camarines Sur","REGION":"Region V (Bicol Region)","id":"barangay-0501722006","name":"Catanusan","barangayCode":"0501722006","population":null,"formattedPop":null,"densityCategory":"No data","vulnerabilityRating":"No data","healthRiskLevel":"No data","areaKm2":7.202022,"centerLat":13.53669,"centerLng":123.210732,"geometrySource":"all_barangay-2.csv detailed WKT","geometryMatchMethod":"unique_official_admin_names","boundaryPointCount":63},"geometry":{"type":"MultiPolygon","coordinates":[[[[123.224342,13.54854],[123.225456,13.54526],[123.226112,13.54146],[123.227226,13.53648],[123.227623,13.53287],[123.224762,13.53172],[123.222816,13.52857],[123.221817,13.52723],[123.219833,13.52612],[123.218513,13.52615],[123.216827,13.52625],[123.216026,13.52676],[123.215118,13.5262],[123.214729,13.52581],[123.213364,13.52504],[123.212387,13.52522],[123.212646,13.52669],[123.212227,13.52794],[123.210938,13.52835],[123.209633,13.5282],[123.208366,13.52918],[123.207787,13.52914],[123.20636,13.52859],[123.204567,13.52961],[123.20269,13.53082],[123.200432,13.53017],[123.200119,13.52979],[123.198929,13.53064],[123.196877,13.5299],[123.195343,13.5291],[123.194473,13.52869],[123.192627,13.52897],[123.192421,13.53061],[123.193024,13.53157],[123.194901,13.53293],[123.194748,13.53624],[123.194267,13.5385],[123.194061,13.54066],[123.192337,13.54202],[123.193398,13.54375],[123.196281,13.54344],[123.196411,13.54515],[123.195229,13.54697],[123.19651,13.54618],[123.198624,13.54678],[123.198761,13.54558],[123.197609,13.54492],[123.197708,13.54426],[123.199738,13.54344],[123.200478,13.54218],[123.202209,13.54184],[123.20372,13.54325],[123.204933,13.54408],[123.206337,13.54492],[123.207336,13.54658],[123.208099,13.54681],[123.210068,13.54583],[123.213242,13.54622],[123.216751,13.54615],[123.218742,13.5464],[123.220322,13.54746],[123.223061,13.54826],[123.224342,13.54854]]]]}},{"type":"Feature","properties":{"ID_0":177,"ISO":"PHL","NAME_0":"Philippines","ID_1":5017,"NAME_1":"Camarines Sur","ID_2":501722,"NAME_2":"Minalabac","ID_3":501722007,"NAME_3":"Del Carmen-Del Rosario","NL_NAME_3":null,"VARNAME_3":null,"TYPE_3":"Barangay","ENGTYPE_3":"Village","PROVINCE":"Camarines Sur","REGION":"Region V (Bicol Region)","id":"barangay-0501722007","name":"Del Carmen-Del Rosario","barangayCode":"0501722007","population":null,"formattedPop":null,"densityCategory":"No data","vulnerabilityRating":"No data","healthRiskLevel":"No data","areaKm2":4.548196,"centerLat":13.569593,"centerLng":123.192775,"geometrySource":"all_barangay-2.csv detailed WKT","geometryMatchMethod":"unique_official_admin_names","boundaryPointCount":10},"geometry":{"type":"MultiPolygon","coordinates":[[[[123.19426,13.56576],[123.196167,13.56358],[123.189827,13.56261],[123.187576,13.56553],[123.185944,13.56952],[123.186256,13.56935],[123.189308,13.56826],[123.191147,13.56699],[123.1931,13.56663],[123.19426,13.56576]]]]}},{"type":"Feature","properties":{"ID_0":177,"ISO":"PHL","NAME_0":"Philippines","ID_1":5017,"NAME_1":"Camarines Sur","ID_2":501722,"NAME_2":"Minalabac","ID_3":501722008,"NAME_3":"Del Socorro","NL_NAME_3":null,"VARNAME_3":null,"TYPE_3":"Barangay","ENGTYPE_3":"Village","PROVINCE":"Camarines Sur","REGION":"Region V (Bicol Region)","id":"barangay-0501722008","name":"Del Socorro","barangayCode":"0501722008","population":null,"formattedPop":null,"densityCategory":"No data","vulnerabilityRating":"No data","healthRiskLevel":"No data","areaKm2":9.724603,"centerLat":13.483941,"centerLng":123.167416,"geometrySource":"all_barangay-2.csv detailed WKT","geometryMatchMethod":"unique_official_admin_names","boundaryPointCount":8},"geometry":{"type":"MultiPolygon","coordinates":[[[[123.159866,13.50717],[123.178261,13.48882],[123.179024,13.47236],[123.16243,13.48074],[123.143333,13.49165],[123.141983,13.49871],[123.142021,13.50146],[123.159866,13.50717]]]]}},{"type":"Feature","properties":{"ID_0":177,"ISO":"PHL","NAME_0":"Philippines","ID_1":5017,"NAME_1":"Camarines Sur","ID_2":501722,"NAME_2":"Minalabac","ID_3":501722009,"NAME_3":"Hamoraon","NL_NAME_3":null,"VARNAME_3":null,"TYPE_3":"Barangay","ENGTYPE_3":"Village","PROVINCE":"Camarines Sur","REGION":"Region V (Bicol Region)","id":"barangay-0501722009","name":"Hamoraon","barangayCode":"0501722009","population":null,"formattedPop":null,"densityCategory":"No data","vulnerabilityRating":"No data","healthRiskLevel":"No data","areaKm2":2.803375,"centerLat":13.421883,"centerLng":123.205166,"geometrySource":"all_barangay-2.csv detailed WKT","geometryMatchMethod":"unique_official_admin_names","boundaryPointCount":76},"geometry":{"type":"MultiPolygon","coordinates":[[[[123.205338,13.4319],[123.206871,13.42914],[123.208931,13.4252],[123.210938,13.42166],[123.212547,13.41848],[123.213577,13.41655],[123.214127,13.41547],[123.214943,13.4143],[123.215637,13.41229],[123.214867,13.41141],[123.21418,13.41037],[123.213463,13.40966],[123.211952,13.40931],[123.210854,13.40975],[123.210022,13.41054],[123.207741,13.41162],[123.206871,13.411],[123.205559,13.41056],[123.20443,13.4101],[123.203377,13.40965],[123.202011,13.40825],[123.199272,13.40716],[123.199173,13.40666],[123.199043,13.40722],[123.199074,13.40767],[123.199173,13.40845],[123.199074,13.40886],[123.199577,13.40926],[123.199707,13.41006],[123.200233,13.41023],[123.200378,13.41063],[123.200523,13.41092],[123.200546,13.41116],[123.200523,13.41137],[123.200417,13.41155],[123.200439,13.41183],[123.200607,13.4123],[123.200737,13.41293],[123.200859,13.41351],[123.20105,13.41386],[123.20108,13.41391],[123.20121,13.4143],[123.201317,13.41468],[123.201309,13.41508],[123.201187,13.41546],[123.201118,13.41586],[123.201073,13.41622],[123.200928,13.41652],[123.200684,13.41678],[123.200546,13.41702],[123.200546,13.41743],[123.200531,13.41789],[123.200302,13.41829],[123.200211,13.41866],[123.200058,13.41901],[123.199921,13.4194],[123.199707,13.41978],[123.199463,13.42014],[123.199203,13.42052],[123.198929,13.42088],[123.198677,13.42121],[123.198479,13.42153],[123.198303,13.42184],[123.198082,13.42209],[123.197838,13.42231],[123.197571,13.42252],[123.197304,13.42278],[123.197067,13.42319],[123.19677,13.42359],[123.196419,13.42395],[123.196129,13.42434],[123.195862,13.42474],[123.195572,13.42516],[123.19529,13.4256],[123.195267,13.42565],[123.205338,13.4319]]]]}},{"type":"Feature","properties":{"ID_0":177,"ISO":"PHL","NAME_0":"Philippines","ID_1":5017,"NAME_1":"Camarines Sur","ID_2":501722,"NAME_2":"Minalabac","ID_3":501722010,"NAME_3":"Hobo","NL_NAME_3":null,"VARNAME_3":null,"TYPE_3":"Barangay","ENGTYPE_3":"Village","PROVINCE":"Camarines Sur","REGION":"Region V (Bicol Region)","id":"barangay-0501722010","name":"Hobo","barangayCode":"0501722010","population":null,"formattedPop":null,"densityCategory":"No data","vulnerabilityRating":"No data","healthRiskLevel":"No data","areaKm2":5.151595,"centerLat":13.505361,"centerLng":123.177779,"geometrySource":"all_barangay-2.csv detailed WKT","geometryMatchMethod":"unique_official_admin_names","boundaryPointCount":20},"geometry":{"type":"MultiPolygon","coordinates":[[[[123.181374,13.51892],[123.181877,13.50837],[123.180061,13.50728],[123.180107,13.50618],[123.180489,13.50482],[123.179787,13.50363],[123.178627,13.50273],[123.178238,13.50167],[123.17807,13.49993],[123.178108,13.49807],[123.178169,13.4963],[123.178223,13.49526],[123.178032,13.49481],[123.178772,13.494],[123.179031,13.49225],[123.178703,13.49079],[123.178261,13.48882],[123.159866,13.50717],[123.166931,13.50974],[123.181374,13.51892]]]]}},{"type":"Feature","properties":{"ID_0":177,"ISO":"PHL","NAME_0":"Philippines","ID_1":5017,"NAME_1":"Camarines Sur","ID_2":501722,"NAME_2":"Minalabac","ID_3":501722011,"NAME_3":"Irayang Solong","NL_NAME_3":null,"VARNAME_3":null,"TYPE_3":"Barangay","ENGTYPE_3":"Village","PROVINCE":"Camarines Sur","REGION":"Region V (Bicol Region)","id":"barangay-0501722011","name":"Irayang Solong","barangayCode":"0501722011","population":null,"formattedPop":null,"densityCategory":"No data","vulnerabilityRating":"No data","healthRiskLevel":"No data","areaKm2":4.719777,"centerLat":13.551513,"centerLng":123.169836,"geometrySource":"all_barangay-2.csv detailed WKT","geometryMatchMethod":"unique_official_admin_names","boundaryPointCount":14},"geometry":{"type":"MultiPolygon","coordinates":[[[[123.161507,13.56008],[123.175812,13.56148],[123.181107,13.56194],[123.181297,13.56174],[123.178123,13.54918],[123.179817,13.53992],[123.174759,13.53967],[123.168022,13.54213],[123.155548,13.54561],[123.158752,13.54936],[123.159348,13.55194],[123.160278,13.5552],[123.16098,13.55765],[123.161507,13.56008]]]]}},{"type":"Feature","properties":{"ID_0":177,"ISO":"PHL","NAME_0":"Philippines","ID_1":5017,"NAME_1":"Camarines Sur","ID_2":501722,"NAME_2":"Minalabac","ID_3":501722012,"NAME_3":"Magadap","NL_NAME_3":null,"VARNAME_3":null,"TYPE_3":"Barangay","ENGTYPE_3":"Village","PROVINCE":"Camarines Sur","REGION":"Region V (Bicol Region)","id":"barangay-0501722012","name":"Magadap","barangayCode":"0501722012","population":null,"formattedPop":null,"densityCategory":"No data","vulnerabilityRating":"No data","healthRiskLevel":"No data","areaKm2":8.279401,"centerLat":13.483698,"centerLng":123.199176,"geometrySource":"all_barangay-2.csv detailed WKT","geometryMatchMethod":"unique_official_admin_names","boundaryPointCount":34},"geometry":{"type":"MultiPolygon","coordinates":[[[[123.204857,13.5011],[123.20488,13.49516],[123.208794,13.49094],[123.21032,13.49044],[123.211678,13.48939],[123.211578,13.48782],[123.211739,13.48665],[123.21376,13.48724],[123.214127,13.48704],[123.214943,13.48654],[123.216133,13.48528],[123.215927,13.48372],[123.217117,13.48243],[123.214912,13.48108],[123.209373,13.47782],[123.206238,13.47637],[123.202927,13.47381],[123.200577,13.47149],[123.199753,13.47072],[123.197983,13.46991],[123.19603,13.46832],[123.191101,13.46401],[123.189758,13.46192],[123.183807,13.46808],[123.179024,13.47236],[123.178261,13.48882],[123.18261,13.49076],[123.188187,13.49419],[123.192947,13.497],[123.19738,13.50052],[123.203346,13.50518],[123.204193,13.5042],[123.204323,13.50247],[123.204857,13.5011]]]]}},{"type":"Feature","properties":{"ID_0":177,"ISO":"PHL","NAME_0":"Philippines","ID_1":5017,"NAME_1":"Camarines Sur","ID_2":501722,"NAME_2":"Minalabac","ID_3":501722013,"NAME_3":"Malitbog","NL_NAME_3":null,"VARNAME_3":null,"TYPE_3":"Barangay","ENGTYPE_3":"Village","PROVINCE":"Camarines Sur","REGION":"Region V (Bicol Region)","id":"barangay-0501722013","name":"Malitbog","barangayCode":"0501722013","population":null,"formattedPop":null,"densityCategory":"No data","vulnerabilityRating":"No data","healthRiskLevel":"No data","areaKm2":3.28917,"centerLat":13.561046,"centerLng":123.206971,"geometrySource":"all_barangay-2.csv detailed WKT","geometryMatchMethod":"unique_official_admin_names","boundaryPointCount":16},"geometry":{"type":"MultiPolygon","coordinates":[[[[123.204117,13.5635],[123.212532,13.56176],[123.221497,13.56543],[123.221771,13.56055],[123.222763,13.55441],[123.224342,13.54854],[123.223061,13.54826],[123.220322,13.54746],[123.218742,13.5464],[123.216751,13.54615],[123.213242,13.54622],[123.210068,13.54583],[123.208099,13.54681],[123.207191,13.55199],[123.2061,13.55663],[123.204117,13.5635]]]]}},{"type":"Feature","properties":{"ID_0":177,"ISO":"PHL","NAME_0":"Philippines","ID_1":5017,"NAME_1":"Camarines Sur","ID_2":501722,"NAME_2":"Minalabac","ID_3":501722014,"NAME_3":"Manapao","NL_NAME_3":null,"VARNAME_3":null,"TYPE_3":"Barangay","ENGTYPE_3":"Village","PROVINCE":"Camarines Sur","REGION":"Region V (Bicol Region)","id":"barangay-0501722014","name":"Manapao","barangayCode":"0501722014","population":null,"formattedPop":null,"densityCategory":"No data","vulnerabilityRating":"No data","healthRiskLevel":"No data","areaKm2":8.833309,"centerLat":13.551393,"centerLng":123.234602,"geometrySource":"all_barangay-2.csv detailed WKT","geometryMatchMethod":"unique_official_admin_names","boundaryPointCount":31},"geometry":{"type":"MultiPolygon","coordinates":[[[[123.235382,13.57161],[123.23912,13.56506],[123.245064,13.55421],[123.2425,13.54974],[123.240883,13.54814],[123.239967,13.54777],[123.239166,13.5473],[123.23822,13.54644],[123.237267,13.54494],[123.236961,13.54404],[123.237267,13.54345],[123.235977,13.54226],[123.235008,13.54058],[123.234627,13.53889],[123.23336,13.5373],[123.232079,13.53785],[123.232094,13.53602],[123.233009,13.53513],[123.230911,13.5348],[123.230133,13.53355],[123.228844,13.53297],[123.227623,13.53287],[123.227226,13.53648],[123.226112,13.54146],[123.225456,13.54526],[123.224342,13.54854],[123.222763,13.55441],[123.221771,13.56055],[123.221497,13.56543],[123.229973,13.56937],[123.235382,13.57161]]]]}},{"type":"Feature","properties":{"ID_0":177,"ISO":"PHL","NAME_0":"Philippines","ID_1":5017,"NAME_1":"Camarines Sur","ID_2":501722,"NAME_2":"Minalabac","ID_3":501722015,"NAME_3":"Mataoroc","NL_NAME_3":null,"VARNAME_3":null,"TYPE_3":"Barangay","ENGTYPE_3":"Village","PROVINCE":"Camarines Sur","REGION":"Region V (Bicol Region)","id":"barangay-0501722015","name":"Mataoroc","barangayCode":"0501722015","population":null,"formattedPop":null,"densityCategory":"No data","vulnerabilityRating":"No data","healthRiskLevel":"No data","areaKm2":4.937859,"centerLat":13.531683,"centerLng":123.240065,"geometrySource":"all_barangay-2.csv detailed WKT","geometryMatchMethod":"unique_official_admin_names","boundaryPointCount":59},"geometry":{"type":"MultiPolygon","coordinates":[[[[123.251282,13.54405],[123.253517,13.54],[123.256752,13.53468],[123.259209,13.53012],[123.261147,13.52756],[123.262741,13.5226],[123.247673,13.5147],[123.239754,13.51081],[123.231934,13.5078],[123.230278,13.50846],[123.229401,13.50935],[123.228188,13.51131],[123.228447,13.51383],[123.227074,13.51466],[123.22657,13.51678],[123.225906,13.51758],[123.224854,13.51897],[123.224228,13.51902],[123.222679,13.51944],[123.221619,13.5194],[123.22049,13.52039],[123.220009,13.5215],[123.219994,13.52182],[123.218727,13.52288],[123.217987,13.52423],[123.21666,13.52489],[123.215683,13.5251],[123.214729,13.52581],[123.215118,13.5262],[123.216026,13.52676],[123.216827,13.52625],[123.218513,13.52615],[123.219833,13.52612],[123.221817,13.52723],[123.222816,13.52857],[123.224762,13.53172],[123.227623,13.53287],[123.228844,13.53297],[123.230133,13.53355],[123.230911,13.5348],[123.233009,13.53513],[123.232094,13.53602],[123.232079,13.53785],[123.23336,13.5373],[123.234627,13.53889],[123.235008,13.54058],[123.235977,13.54226],[123.237267,13.54345],[123.236961,13.54404],[123.237267,13.54494],[123.23822,13.54644],[123.239166,13.5473],[123.239967,13.54777],[123.240883,13.54814],[123.2425,13.54974],[123.245064,13.55421],[123.247192,13.55148],[123.249413,13.54682],[123.251282,13.54405]]]]}},{"type":"Feature","properties":{"ID_0":177,"ISO":"PHL","NAME_0":"Philippines","ID_1":5017,"NAME_1":"Camarines Sur","ID_2":501722,"NAME_2":"Minalabac","ID_3":501722016,"NAME_3":"Sagrada","NL_NAME_3":null,"VARNAME_3":null,"TYPE_3":"Barangay","ENGTYPE_3":"Village","PROVINCE":"Camarines Sur","REGION":"Region V (Bicol Region)","id":"barangay-0501722016","name":"Sagrada","barangayCode":"0501722016","population":null,"formattedPop":null,"densityCategory":"No data","vulnerabilityRating":"No data","healthRiskLevel":"No data","areaKm2":5.771489,"centerLat":13.515716,"centerLng":123.24462,"geometrySource":"all_barangay-2.csv detailed WKT","geometryMatchMethod":"unique_official_admin_names","boundaryPointCount":27},"geometry":{"type":"MultiPolygon","coordinates":[[[[123.264427,13.51785],[123.26342,13.51678],[123.260948,13.5151],[123.259613,13.51266],[123.257729,13.51138],[123.257057,13.51012],[123.255371,13.50936],[123.253113,13.50819],[123.252678,13.50716],[123.251137,13.50585],[123.250053,13.50516],[123.24688,13.50429],[123.242996,13.50326],[123.240501,13.50269],[123.238159,13.50128],[123.237411,13.50055],[123.236656,13.49999],[123.236053,13.50028],[123.235077,13.50045],[123.234688,13.50098],[123.233841,13.50017],[123.233208,13.50082],[123.231934,13.5078],[123.239754,13.51081],[123.247673,13.5147],[123.262741,13.5226],[123.264427,13.51785]]]]}},{"type":"Feature","properties":{"ID_0":177,"ISO":"PHL","NAME_0":"Philippines","ID_1":5017,"NAME_1":"Camarines Sur","ID_2":501722,"NAME_2":"Minalabac","ID_3":501722017,"NAME_3":"Salingogon","NL_NAME_3":null,"VARNAME_3":null,"TYPE_3":"Barangay","ENGTYPE_3":"Village","PROVINCE":"Camarines Sur","REGION":"Region V (Bicol Region)","id":"barangay-0501722017","name":"Salingogon","barangayCode":"0501722017","population":null,"formattedPop":null,"densityCategory":"No data","vulnerabilityRating":"No data","healthRiskLevel":"No data","areaKm2":8.603092,"centerLat":13.449781,"centerLng":123.190442,"geometrySource":"all_barangay-2.csv detailed WKT","geometryMatchMethod":"unique_official_admin_names","boundaryPointCount":32},"geometry":{"type":"MultiPolygon","coordinates":[[[[123.20137,13.4438],[123.203506,13.43665],[123.204689,13.43379],[123.205338,13.4319],[123.195267,13.42565],[123.195023,13.42608],[123.194763,13.42659],[123.19445,13.42703],[123.194077,13.42743],[123.193657,13.42778],[123.193207,13.42811],[123.192841,13.42846],[123.192574,13.42883],[123.192352,13.42918],[123.1922,13.42951],[123.192001,13.4298],[123.191833,13.43011],[123.191643,13.43043],[123.191399,13.43074],[123.191147,13.43106],[123.190872,13.43134],[123.190567,13.43157],[123.190277,13.43181],[123.19001,13.43207],[123.189751,13.43237],[123.189529,13.43271],[123.189301,13.43306],[123.189079,13.43342],[123.18885,13.43377],[123.18866,13.43396],[123.196861,13.44111],[123.20137,13.4438]]]]}},{"type":"Feature","properties":{"ID_0":177,"ISO":"PHL","NAME_0":"Philippines","ID_1":5017,"NAME_1":"Camarines Sur","ID_2":501722,"NAME_2":"Minalabac","ID_3":501722018,"NAME_3":"San Antonio","NL_NAME_3":null,"VARNAME_3":null,"TYPE_3":"Barangay","ENGTYPE_3":"Village","PROVINCE":"Camarines Sur","REGION":"Region V (Bicol Region)","id":"barangay-0501722018","name":"San Antonio","barangayCode":"0501722018","population":null,"formattedPop":null,"densityCategory":"No data","vulnerabilityRating":"No data","healthRiskLevel":"No data","areaKm2":3.248679,"centerLat":13.451774,"centerLng":123.17601,"geometrySource":"all_barangay-2.csv detailed WKT","geometryMatchMethod":"unique_official_admin_names","boundaryPointCount":61},"geometry":{"type":"MultiPolygon","coordinates":[[[[123.189758,13.46192],[123.191109,13.45797],[123.192757,13.45478],[123.195557,13.45206],[123.197289,13.44937],[123.199013,13.44836],[123.20137,13.4438],[123.196861,13.44111],[123.18866,13.43396],[123.188568,13.43406],[123.188217,13.43428],[123.187828,13.43449],[123.187431,13.43472],[123.186996,13.43491],[123.186531,13.43506],[123.186111,13.43529],[123.185722,13.43556],[123.185349,13.43583],[123.184967,13.43611],[123.184593,13.43636],[123.184174,13.43656],[123.183739,13.43676],[123.183357,13.4371],[123.182983,13.43749],[123.182587,13.43789],[123.182213,13.43833],[123.181793,13.43875],[123.18132,13.43913],[123.180794,13.43944],[123.180267,13.43972],[123.179779,13.43997],[123.179329,13.44027],[123.178864,13.44055],[123.178337,13.44082],[123.177818,13.44107],[123.177277,13.44131],[123.176773,13.44154],[123.176338,13.44182],[123.175903,13.44204],[123.175507,13.44225],[123.17514,13.44245],[123.174927,13.44276],[123.174713,13.44306],[123.174469,13.44333],[123.174232,13.44361],[123.173927,13.44388],[123.173553,13.4441],[123.173111,13.44428],[123.172707,13.44451],[123.17234,13.44475],[123.172012,13.44504],[123.171692,13.44536],[123.171349,13.4457],[123.170937,13.446],[123.170509,13.44629],[123.170029,13.44653],[123.169571,13.44683],[123.169167,13.44717],[123.169067,13.44725],[123.180023,13.45502],[123.189758,13.46192]]]]}},{"type":"Feature","properties":{"ID_0":177,"ISO":"PHL","NAME_0":"Philippines","ID_1":5017,"NAME_1":"Camarines Sur","ID_2":501722,"NAME_2":"Minalabac","ID_3":501722019,"NAME_3":"San Felipe-Santiago","NL_NAME_3":null,"VARNAME_3":null,"TYPE_3":"Barangay","ENGTYPE_3":"Village","PROVINCE":"Camarines Sur","REGION":"Region V (Bicol Region)","id":"barangay-0501722019","name":"San Felipe-Santiago","barangayCode":"0501722019","population":null,"formattedPop":null,"densityCategory":"No data","vulnerabilityRating":"No data","healthRiskLevel":"No data","areaKm2":1.302791,"centerLat":13.558573,"centerLng":123.18329,"geometrySource":"all_barangay-2.csv detailed WKT","geometryMatchMethod":"unique_official_admin_names","boundaryPointCount":8},"geometry":{"type":"MultiPolygon","coordinates":[[[[123.185944,13.56952],[123.187576,13.56553],[123.189827,13.56261],[123.188293,13.56298],[123.181297,13.56174],[123.183357,13.56521],[123.183777,13.5659],[123.185944,13.56952]]]]}},{"type":"Feature","properties":{"ID_0":177,"ISO":"PHL","NAME_0":"Philippines","ID_1":5017,"NAME_1":"Camarines Sur","ID_2":501722,"NAME_2":"Minalabac","ID_3":501722020,"NAME_3":"San Francisco","NL_NAME_3":null,"VARNAME_3":null,"TYPE_3":"Barangay","ENGTYPE_3":"Village","PROVINCE":"Camarines Sur","REGION":"Region V (Bicol Region)","id":"barangay-0501722020","name":"San Francisco","barangayCode":"0501722020","population":null,"formattedPop":null,"densityCategory":"No data","vulnerabilityRating":"No data","healthRiskLevel":"No data","areaKm2":0.056097,"centerLat":13.568873,"centerLng":123.183498,"geometrySource":"all_barangay-2.csv detailed WKT","geometryMatchMethod":"unique_official_admin_names","boundaryPointCount":14},"geometry":{"type":"MultiPolygon","coordinates":[[[[123.185944,13.56952],[123.183777,13.5659],[123.183357,13.56521],[123.181297,13.56174],[123.181107,13.56194],[123.175812,13.56148],[123.161507,13.56008],[123.161682,13.56496],[123.161888,13.56583],[123.161972,13.56729],[123.174492,13.56798],[123.18261,13.56806],[123.184517,13.56877],[123.185944,13.56952]]]]}},{"type":"Feature","properties":{"ID_0":177,"ISO":"PHL","NAME_0":"Philippines","ID_1":5017,"NAME_1":"Camarines Sur","ID_2":501722,"NAME_2":"Minalabac","ID_3":501722021,"NAME_3":"San Jose","NL_NAME_3":null,"VARNAME_3":null,"TYPE_3":"Barangay","ENGTYPE_3":"Village","PROVINCE":"Camarines Sur","REGION":"Region V (Bicol Region)","id":"barangay-0501722021","name":"San Jose","barangayCode":"0501722021","population":null,"formattedPop":null,"densityCategory":"No data","vulnerabilityRating":"No data","healthRiskLevel":"No data","areaKm2":5.698929,"centerLat":13.501885,"centerLng":123.221301,"geometrySource":"all_barangay-2.csv detailed WKT","geometryMatchMethod":"unique_official_admin_names","boundaryPointCount":41},"geometry":{"type":"MultiPolygon","coordinates":[[[[123.233208,13.50082],[123.231323,13.4995],[123.22953,13.49822],[123.229889,13.49769],[123.228653,13.4963],[123.227852,13.49562],[123.22699,13.49499],[123.226357,13.49471],[123.225647,13.49666],[123.223297,13.49688],[123.222183,13.49582],[123.219704,13.49313],[123.221184,13.49108],[123.221489,13.4896],[123.221382,13.48724],[123.221497,13.48537],[123.221184,13.48448],[123.219276,13.48346],[123.217117,13.48243],[123.215927,13.48372],[123.216133,13.48528],[123.214943,13.48654],[123.214127,13.48704],[123.21376,13.48724],[123.211739,13.48665],[123.211578,13.48782],[123.211678,13.48939],[123.21032,13.49044],[123.208794,13.49094],[123.20488,13.49516],[123.204857,13.5011],[123.20504,13.50092],[123.205353,13.50044],[123.207314,13.50261],[123.2099,13.50298],[123.213043,13.50185],[123.215393,13.5021],[123.217537,13.50277],[123.225906,13.50487],[123.231934,13.5078],[123.233208,13.50082]]]]}},{"type":"Feature","properties":{"ID_0":177,"ISO":"PHL","NAME_0":"Philippines","ID_1":5017,"NAME_1":"Camarines Sur","ID_2":501722,"NAME_2":"Minalabac","ID_3":501722022,"NAME_3":"San Juan-San Lorenzo","NL_NAME_3":null,"VARNAME_3":null,"TYPE_3":"Barangay","ENGTYPE_3":"Village","PROVINCE":"Camarines Sur","REGION":"Region V (Bicol Region)","id":"barangay-0501722022","name":"San Juan-San Lorenzo","barangayCode":"0501722022","population":null,"formattedPop":null,"densityCategory":"No data","vulnerabilityRating":"No data","healthRiskLevel":"No data","areaKm2":1.963094,"centerLat":13.570073,"centerLng":123.178088,"geometrySource":"all_barangay-2.csv detailed WKT","geometryMatchMethod":"unique_official_admin_names","boundaryPointCount":17},"geometry":{"type":"MultiPolygon","coordinates":[[[[123.181717,13.57679],[123.181923,13.57587],[123.182602,13.57309],[123.184258,13.57097],[123.185829,13.56963],[123.185944,13.56952],[123.184517,13.56877],[123.18261,13.56806],[123.174492,13.56798],[123.161972,13.56729],[123.162659,13.57025],[123.164291,13.57191],[123.173828,13.57502],[123.175659,13.57559],[123.180183,13.5762],[123.181091,13.57665],[123.181717,13.57679]]]]}},{"type":"Feature","properties":{"ID_0":177,"ISO":"PHL","NAME_0":"Philippines","ID_1":5017,"NAME_1":"Camarines Sur","ID_2":501722,"NAME_2":"Minalabac","ID_3":501722023,"NAME_3":"Taban","NL_NAME_3":null,"VARNAME_3":null,"TYPE_3":"Barangay","ENGTYPE_3":"Village","PROVINCE":"Camarines Sur","REGION":"Region V (Bicol Region)","id":"barangay-0501722023","name":"Taban","barangayCode":"0501722023","population":null,"formattedPop":null,"densityCategory":"No data","vulnerabilityRating":"No data","healthRiskLevel":"No data","areaKm2":1.960352,"centerLat":13.550537,"centerLng":123.202857,"geometrySource":"all_barangay-2.csv detailed WKT","geometryMatchMethod":"unique_official_admin_names","boundaryPointCount":23},"geometry":{"type":"MultiPolygon","coordinates":[[[[123.19426,13.56576],[123.204117,13.5635],[123.2061,13.55663],[123.207191,13.55199],[123.208099,13.54681],[123.207336,13.54658],[123.206337,13.54492],[123.204933,13.54408],[123.20372,13.54325],[123.202209,13.54184],[123.200478,13.54218],[123.199738,13.54344],[123.197708,13.54426],[123.197609,13.54492],[123.198761,13.54558],[123.198624,13.54678],[123.19651,13.54618],[123.195229,13.54697],[123.193962,13.55112],[123.192909,13.55179],[123.189827,13.56261],[123.196167,13.56358],[123.19426,13.56576]]]]}},{"type":"Feature","properties":{"ID_0":177,"ISO":"PHL","NAME_0":"Philippines","ID_1":5017,"NAME_1":"Camarines Sur","ID_2":501722,"NAME_2":"Minalabac","ID_3":501722024,"NAME_3":"Tariric","NL_NAME_3":null,"VARNAME_3":null,"TYPE_3":"Barangay","ENGTYPE_3":"Village","PROVINCE":"Camarines Sur","REGION":"Region V (Bicol Region)","id":"barangay-0501722024","name":"Tariric","barangayCode":"0501722024","population":null,"formattedPop":null,"densityCategory":"No data","vulnerabilityRating":"No data","healthRiskLevel":"No data","areaKm2":7.133553,"centerLat":13.571145,"centerLng":123.223095,"geometrySource":"all_barangay-2.csv detailed WKT","geometryMatchMethod":"unique_official_admin_names","boundaryPointCount":35},"geometry":{"type":"MultiPolygon","coordinates":[[[[123.226112,13.59169],[123.226997,13.58923],[123.228439,13.58566],[123.229279,13.58426],[123.232018,13.57752],[123.23378,13.57436],[123.235382,13.57161],[123.229973,13.56937],[123.221497,13.56543],[123.212532,13.56176],[123.204117,13.5635],[123.19426,13.56576],[123.1931,13.56663],[123.191147,13.56699],[123.189308,13.56826],[123.186256,13.56935],[123.185944,13.56952],[123.185829,13.56963],[123.184258,13.57097],[123.182602,13.57309],[123.181923,13.57587],[123.181717,13.57679],[123.182404,13.57674],[123.185852,13.57793],[123.189369,13.57902],[123.197853,13.58206],[123.200462,13.58279],[123.203613,13.58385],[123.207542,13.58477],[123.211288,13.58618],[123.21244,13.58622],[123.213478,13.58637],[123.217796,13.58851],[123.221184,13.58964],[123.226112,13.59169]]]]}},{"type":"Feature","properties":{"ID_0":177,"ISO":"PHL","NAME_0":"Philippines","ID_1":5017,"NAME_1":"Camarines Sur","ID_2":501722,"NAME_2":"Minalabac","ID_3":501722025,"NAME_3":"Timbang","NL_NAME_3":null,"VARNAME_3":null,"TYPE_3":"Barangay","ENGTYPE_3":"Village","PROVINCE":"Camarines Sur","REGION":"Region V (Bicol Region)","id":"barangay-0501722025","name":"Timbang","barangayCode":"0501722025","population":null,"formattedPop":null,"densityCategory":"No data","vulnerabilityRating":"No data","healthRiskLevel":"No data","areaKm2":5.146189,"centerLat":13.52504,"centerLng":123.181625,"geometrySource":"all_barangay-2.csv detailed WKT","geometryMatchMethod":"unique_official_admin_names","boundaryPointCount":20},"geometry":{"type":"MultiPolygon","coordinates":[[[[123.179817,13.53992],[123.187187,13.53978],[123.188522,13.53307],[123.194901,13.53293],[123.193024,13.53157],[123.192421,13.53061],[123.192627,13.52897],[123.194473,13.52869],[123.190826,13.52622],[123.187523,13.52377],[123.181374,13.51892],[123.166931,13.50974],[123.159866,13.50717],[123.160454,13.50763],[123.162842,13.51202],[123.165733,13.51903],[123.168922,13.52654],[123.171722,13.53314],[123.174759,13.53967],[123.179817,13.53992]]]]}}]}
