{"type":"FeatureCollection","features":[{"type":"Feature","properties":{"ID_0":177,"ISO":"PHL","NAME_0":"Philippines","ID_1":2050,"NAME_1":"Nueva Vizcaya","ID_2":205004,"NAME_2":"Bambang","ID_3":205004001,"NAME_3":"Abian","NL_NAME_3":null,"VARNAME_3":null,"TYPE_3":"Barangay","ENGTYPE_3":"Village","PROVINCE":"Nueva Vizcaya","REGION":"Region II (Cagayan Valley)","id":"barangay-0205004001","name":"Abian","barangayCode":"0205004001","population":null,"formattedPop":null,"densityCategory":"No data","vulnerabilityRating":"No data","healthRiskLevel":"No data","areaKm2":4.133285,"centerLat":16.429861,"centerLng":121.132483,"geometrySource":"all_barangay-2.csv detailed WKT","geometryMatchMethod":"unique_official_admin_names","boundaryPointCount":26},"geometry":{"type":"MultiPolygon","coordinates":[[[[121.114067,16.441931],[121.144997,16.438141],[121.143806,16.42462],[121.134857,16.417139],[121.117012,16.41732],[121.117363,16.418409],[121.11808,16.41964],[121.119263,16.421221],[121.119797,16.422501],[121.119186,16.42338],[121.117943,16.42403],[121.116241,16.42487],[121.115189,16.42544],[121.114182,16.426081],[121.113731,16.426649],[121.113197,16.42808],[121.1129,16.429461],[121.112823,16.43049],[121.112823,16.432249],[121.113029,16.43375],[121.113197,16.434311],[121.113571,16.435209],[121.114014,16.436359],[121.114349,16.437731],[121.114441,16.438959],[121.114067,16.441931]]]]}},{"type":"Feature","properties":{"ID_0":177,"ISO":"PHL","NAME_0":"Philippines","ID_1":2050,"NAME_1":"Nueva Vizcaya","ID_2":205004,"NAME_2":"Bambang","ID_3":205004002,"NAME_3":"Abinganan","NL_NAME_3":null,"VARNAME_3":null,"TYPE_3":"Barangay","ENGTYPE_3":"Village","PROVINCE":"Nueva Vizcaya","REGION":"Region II (Cagayan Valley)","id":"barangay-0205004002","name":"Abinganan","barangayCode":"0205004002","population":null,"formattedPop":null,"densityCategory":"No data","vulnerabilityRating":"No data","healthRiskLevel":"No data","areaKm2":27.35118,"centerLat":16.417868,"centerLng":121.170364,"geometrySource":"all_barangay-2.csv detailed WKT","geometryMatchMethod":"unique_official_admin_names","boundaryPointCount":14},"geometry":{"type":"MultiPolygon","coordinates":[[[[121.182213,16.43384],[121.215637,16.42906],[121.225868,16.427151],[121.244812,16.42515],[121.255623,16.4251],[121.262306,16.424009],[121.273247,16.415199],[121.206863,16.40346],[121.133614,16.404869],[121.136917,16.410139],[121.134857,16.417139],[121.143806,16.42462],[121.144997,16.438141],[121.182213,16.43384]]]]}},{"type":"Feature","properties":{"ID_0":177,"ISO":"PHL","NAME_0":"Philippines","ID_1":2050,"NAME_1":"Nueva Vizcaya","ID_2":205004,"NAME_2":"Bambang","ID_3":205004003,"NAME_3":"Aliaga","NL_NAME_3":null,"VARNAME_3":null,"TYPE_3":"Barangay","ENGTYPE_3":"Village","PROVINCE":"Nueva Vizcaya","REGION":"Region II (Cagayan Valley)","id":"barangay-0205004003","name":"Aliaga","barangayCode":"0205004003","population":null,"formattedPop":null,"densityCategory":"No data","vulnerabilityRating":"No data","healthRiskLevel":"No data","areaKm2":9.028225,"centerLat":16.369385,"centerLng":121.073678,"geometrySource":"all_barangay-2.csv detailed WKT","geometryMatchMethod":"unique_official_admin_names","boundaryPointCount":31},"geometry":{"type":"MultiPolygon","coordinates":[[[[121.084793,16.376699],[121.085373,16.37566],[121.085442,16.375071],[121.086273,16.37365],[121.087257,16.372549],[121.087624,16.371481],[121.086967,16.37001],[121.086082,16.368561],[121.086037,16.366859],[121.086746,16.36475],[121.087143,16.36301],[121.086639,16.36125],[121.085312,16.359819],[121.083969,16.359119],[121.082657,16.358931],[121.081711,16.359079],[121.080994,16.359091],[121.079391,16.357121],[121.079193,16.35495],[121.078262,16.353621],[121.077087,16.352949],[121.075912,16.35243],[121.074707,16.35218],[121.073601,16.351601],[121.072037,16.35067],[121.070602,16.35042],[121.068626,16.350719],[121.067734,16.35088],[121.067291,16.3508],[121.061073,16.36846],[121.084793,16.376699]]]]}},{"type":"Feature","properties":{"ID_0":177,"ISO":"PHL","NAME_0":"Philippines","ID_1":2050,"NAME_1":"Nueva Vizcaya","ID_2":205004,"NAME_2":"Bambang","ID_3":205004005,"NAME_3":"Almaguer North","NL_NAME_3":null,"VARNAME_3":null,"TYPE_3":"Barangay","ENGTYPE_3":"Village","PROVINCE":"Nueva Vizcaya","REGION":"Region II (Cagayan Valley)","id":"barangay-0205004005","name":"Almaguer North","barangayCode":"0205004005","population":null,"formattedPop":null,"densityCategory":"No data","vulnerabilityRating":"No data","healthRiskLevel":"No data","areaKm2":5.158147,"centerLat":16.368151,"centerLng":121.092966,"geometrySource":"all_barangay-2.csv detailed WKT","geometryMatchMethod":"unique_official_admin_names","boundaryPointCount":23},"geometry":{"type":"MultiPolygon","coordinates":[[[[121.100677,16.37328],[121.106842,16.353861],[121.087967,16.35623],[121.08017,16.35745],[121.079391,16.357121],[121.080994,16.359091],[121.081711,16.359079],[121.082657,16.358931],[121.083969,16.359119],[121.085312,16.359819],[121.086639,16.36125],[121.087143,16.36301],[121.086746,16.36475],[121.086037,16.366859],[121.086082,16.368561],[121.086967,16.37001],[121.087624,16.371481],[121.087257,16.372549],[121.086273,16.37365],[121.085442,16.375071],[121.085373,16.37566],[121.084793,16.376699],[121.100677,16.37328]]]]}},{"type":"Feature","properties":{"ID_0":177,"ISO":"PHL","NAME_0":"Philippines","ID_1":2050,"NAME_1":"Nueva Vizcaya","ID_2":205004,"NAME_2":"Bambang","ID_3":205004006,"NAME_3":"Almaguer South","NL_NAME_3":null,"VARNAME_3":null,"TYPE_3":"Barangay","ENGTYPE_3":"Village","PROVINCE":"Nueva Vizcaya","REGION":"Region II (Cagayan Valley)","id":"barangay-0205004006","name":"Almaguer South","barangayCode":"0205004006","population":null,"formattedPop":null,"densityCategory":"No data","vulnerabilityRating":"No data","healthRiskLevel":"No data","areaKm2":5.669215,"centerLat":16.340578,"centerLng":121.091315,"geometrySource":"all_barangay-2.csv detailed WKT","geometryMatchMethod":"unique_official_admin_names","boundaryPointCount":34},"geometry":{"type":"MultiPolygon","coordinates":[[[[121.106842,16.353861],[121.10759,16.33279],[121.098289,16.332331],[121.087044,16.32967],[121.086197,16.33078],[121.086617,16.3314],[121.087914,16.33201],[121.089767,16.33238],[121.09111,16.3326],[121.092453,16.33304],[121.093742,16.33404],[121.09417,16.33497],[121.09388,16.33606],[121.09301,16.336611],[121.091629,16.33675],[121.089577,16.337259],[121.089073,16.3388],[121.089798,16.340981],[121.090408,16.342939],[121.090698,16.345341],[121.090973,16.34753],[121.091057,16.34943],[121.090317,16.35108],[121.088676,16.35124],[121.086937,16.35071],[121.085159,16.350349],[121.083862,16.350439],[121.083389,16.351009],[121.083366,16.35161],[121.08474,16.352671],[121.086823,16.354111],[121.087624,16.355181],[121.087967,16.35623],[121.106842,16.353861]]]]}},{"type":"Feature","properties":{"ID_0":177,"ISO":"PHL","NAME_0":"Philippines","ID_1":2050,"NAME_1":"Nueva Vizcaya","ID_2":205004,"NAME_2":"Bambang","ID_3":205004007,"NAME_3":"Banggot","NL_NAME_3":null,"VARNAME_3":null,"TYPE_3":"Barangay","ENGTYPE_3":"Village","PROVINCE":"Nueva Vizcaya","REGION":"Region II (Cagayan Valley)","id":"barangay-0205004007","name":"Banggot","barangayCode":"0205004007","population":null,"formattedPop":null,"densityCategory":"No data","vulnerabilityRating":"No data","healthRiskLevel":"No data","areaKm2":0.600905,"centerLat":16.384619,"centerLng":121.109412,"geometrySource":"all_barangay-2.csv detailed WKT","geometryMatchMethod":"unique_official_admin_names","boundaryPointCount":5},"geometry":{"type":"MultiPolygon","coordinates":[[[[121.100121,16.393999],[121.111603,16.39613],[121.11821,16.386169],[121.100418,16.38615],[121.100121,16.393999]]]]}},{"type":"Feature","properties":{"ID_0":177,"ISO":"PHL","NAME_0":"Philippines","ID_1":2050,"NAME_1":"Nueva Vizcaya","ID_2":205004,"NAME_2":"Bambang","ID_3":205004008,"NAME_3":"Barat","NL_NAME_3":null,"VARNAME_3":null,"TYPE_3":"Barangay","ENGTYPE_3":"Village","PROVINCE":"Nueva Vizcaya","REGION":"Region II (Cagayan Valley)","id":"barangay-0205004008","name":"Barat","barangayCode":"0205004008","population":null,"formattedPop":null,"densityCategory":"No data","vulnerabilityRating":"No data","healthRiskLevel":"No data","areaKm2":5.623663,"centerLat":16.376345,"centerLng":121.055019,"geometrySource":"all_barangay-2.csv detailed WKT","geometryMatchMethod":"unique_official_admin_names","boundaryPointCount":27},"geometry":{"type":"MultiPolygon","coordinates":[[[[121.032356,16.428909],[121.035919,16.422979],[121.041321,16.412201],[121.051178,16.396839],[121.05426,16.39333],[121.058098,16.390961],[121.059479,16.389521],[121.061508,16.38895],[121.06427,16.38883],[121.067039,16.3894],[121.069687,16.391029],[121.072021,16.39216],[121.074982,16.39292],[121.077759,16.393579],[121.079453,16.394421],[121.08033,16.395861],[121.081169,16.397791],[121.08223,16.39966],[121.083511,16.40093],[121.085182,16.40234],[121.08503,16.3927],[121.084793,16.376699],[121.061073,16.36846],[121.044838,16.365129],[121.043991,16.3885],[121.032188,16.40251],[121.032356,16.428909]]]]}},{"type":"Feature","properties":{"ID_0":177,"ISO":"PHL","NAME_0":"Philippines","ID_1":2050,"NAME_1":"Nueva Vizcaya","ID_2":205004,"NAME_2":"Bambang","ID_3":205004009,"NAME_3":"Buag","NL_NAME_3":null,"VARNAME_3":null,"TYPE_3":"Barangay","ENGTYPE_3":"Village","PROVINCE":"Nueva Vizcaya","REGION":"Region II (Cagayan Valley)","id":"barangay-0205004009","name":"Buag","barangayCode":"0205004009","population":null,"formattedPop":null,"densityCategory":"No data","vulnerabilityRating":"No data","healthRiskLevel":"No data","areaKm2":1.023255,"centerLat":16.383227,"centerLng":121.100337,"geometrySource":"all_barangay-2.csv detailed WKT","geometryMatchMethod":"unique_official_admin_names","boundaryPointCount":5},"geometry":{"type":"MultiPolygon","coordinates":[[[[121.11821,16.386169],[121.110741,16.371861],[121.100677,16.37328],[121.100418,16.38615],[121.11821,16.386169]]]]}},{"type":"Feature","properties":{"ID_0":177,"ISO":"PHL","NAME_0":"Philippines","ID_1":2050,"NAME_1":"Nueva Vizcaya","ID_2":205004,"NAME_2":"Bambang","ID_3":205004010,"NAME_3":"Calaocan","NL_NAME_3":null,"VARNAME_3":null,"TYPE_3":"Barangay","ENGTYPE_3":"Village","PROVINCE":"Nueva Vizcaya","REGION":"Region II (Cagayan Valley)","id":"barangay-0205004010","name":"Calaocan","barangayCode":"0205004010","population":null,"formattedPop":null,"densityCategory":"No data","vulnerabilityRating":"No data","healthRiskLevel":"No data","areaKm2":1.863596,"centerLat":16.392378,"centerLng":121.116402,"geometrySource":"all_barangay-2.csv detailed WKT","geometryMatchMethod":"unique_official_admin_names","boundaryPointCount":12},"geometry":{"type":"MultiPolygon","coordinates":[[[[121.099701,16.406191],[121.100121,16.393999],[121.08503,16.3927],[121.085182,16.40234],[121.087082,16.403669],[121.088219,16.403681],[121.089737,16.40312],[121.091629,16.40271],[121.093964,16.402809],[121.096512,16.40373],[121.09832,16.404961],[121.099701,16.406191]]]]}},{"type":"Feature","properties":{"ID_0":177,"ISO":"PHL","NAME_0":"Philippines","ID_1":2050,"NAME_1":"Nueva Vizcaya","ID_2":205004,"NAME_2":"Bambang","ID_3":205004011,"NAME_3":"Dullao","NL_NAME_3":null,"VARNAME_3":null,"TYPE_3":"Barangay","ENGTYPE_3":"Village","PROVINCE":"Nueva Vizcaya","REGION":"Region II (Cagayan Valley)","id":"barangay-0205004011","name":"Dullao","barangayCode":"0205004011","population":null,"formattedPop":null,"densityCategory":"No data","vulnerabilityRating":"No data","healthRiskLevel":"No data","areaKm2":23.879659,"centerLat":16.355714,"centerLng":121.14819,"geometrySource":"all_barangay-2.csv detailed WKT","geometryMatchMethod":"unique_official_admin_names","boundaryPointCount":29},"geometry":{"type":"MultiPolygon","coordinates":[[[[121.160538,16.37208],[121.160957,16.37151],[121.161339,16.37108],[121.16291,16.37055],[121.164574,16.370331],[121.166191,16.370581],[121.166733,16.370951],[121.167397,16.371929],[121.167686,16.37248],[121.168541,16.37253],[121.16925,16.371031],[121.170097,16.369341],[121.17186,16.36763],[121.17321,16.36714],[121.174492,16.36668],[121.175041,16.366289],[121.175262,16.365511],[121.174454,16.36537],[121.172836,16.365191],[121.171989,16.36455],[121.172623,16.36278],[121.172989,16.361549],[121.173424,16.360399],[121.173637,16.359501],[121.173103,16.35807],[121.128853,16.35556],[121.127609,16.368099],[121.1287,16.370581],[121.160538,16.37208]]]]}},{"type":"Feature","properties":{"ID_0":177,"ISO":"PHL","NAME_0":"Philippines","ID_1":2050,"NAME_1":"Nueva Vizcaya","ID_2":205004,"NAME_2":"Bambang","ID_3":205004012,"NAME_3":"Homestead","NL_NAME_3":null,"VARNAME_3":null,"TYPE_3":"Barangay","ENGTYPE_3":"Village","PROVINCE":"Nueva Vizcaya","REGION":"Region II (Cagayan Valley)","id":"barangay-0205004012","name":"Homestead","barangayCode":"0205004012","population":null,"formattedPop":null,"densityCategory":"No data","vulnerabilityRating":"No data","healthRiskLevel":"No data","areaKm2":1.421497,"centerLat":16.392677,"centerLng":121.105852,"geometrySource":"all_barangay-2.csv detailed WKT","geometryMatchMethod":"unique_official_admin_names","boundaryPointCount":13},"geometry":{"type":"MultiPolygon","coordinates":[[[[121.111847,16.410089],[121.111649,16.404449],[121.111603,16.39613],[121.100121,16.393999],[121.099701,16.406191],[121.100639,16.40667],[121.102074,16.40737],[121.103233,16.407539],[121.104462,16.407181],[121.106171,16.40696],[121.107903,16.407379],[121.109688,16.40836],[121.111847,16.410089]]]]}},{"type":"Feature","properties":{"ID_0":177,"ISO":"PHL","NAME_0":"Philippines","ID_1":2050,"NAME_1":"Nueva Vizcaya","ID_2":205004,"NAME_2":"Bambang","ID_3":205004013,"NAME_3":"Indiana","NL_NAME_3":null,"VARNAME_3":null,"TYPE_3":"Barangay","ENGTYPE_3":"Village","PROVINCE":"Nueva Vizcaya","REGION":"Region II (Cagayan Valley)","id":"barangay-0205004013","name":"Indiana","barangayCode":"0205004013","population":null,"formattedPop":null,"densityCategory":"No data","vulnerabilityRating":"No data","healthRiskLevel":"No data","areaKm2":8.578909,"centerLat":16.339704,"centerLng":121.066521,"geometrySource":"all_barangay-2.csv detailed WKT","geometryMatchMethod":"unique_official_admin_names","boundaryPointCount":72},"geometry":{"type":"MultiPolygon","coordinates":[[[[121.087967,16.35623],[121.087624,16.355181],[121.086823,16.354111],[121.08474,16.352671],[121.083366,16.35161],[121.083389,16.351009],[121.083862,16.350439],[121.085159,16.350349],[121.086937,16.35071],[121.088676,16.35124],[121.090317,16.35108],[121.091057,16.34943],[121.090973,16.34753],[121.090698,16.345341],[121.090408,16.342939],[121.089798,16.340981],[121.089073,16.3388],[121.089577,16.337259],[121.091629,16.33675],[121.09301,16.336611],[121.09388,16.33606],[121.09417,16.33497],[121.093742,16.33404],[121.092453,16.33304],[121.09111,16.3326],[121.089767,16.33238],[121.087914,16.33201],[121.086617,16.3314],[121.086197,16.33078],[121.087044,16.32967],[121.057129,16.3298],[121.055069,16.329041],[121.054901,16.328991],[121.053322,16.32902],[121.052116,16.329571],[121.050987,16.32955],[121.050323,16.328421],[121.049667,16.32815],[121.047661,16.32852],[121.04673,16.328449],[121.045509,16.327921],[121.045097,16.32774],[121.043472,16.32744],[121.039711,16.33049],[121.047173,16.342291],[121.047859,16.342369],[121.0494,16.342079],[121.051628,16.341761],[121.053284,16.342159],[121.054123,16.343281],[121.055367,16.34371],[121.056557,16.343361],[121.058342,16.343821],[121.060097,16.345051],[121.0616,16.345869],[121.063469,16.34734],[121.064529,16.34951],[121.065178,16.349779],[121.067291,16.3508],[121.067734,16.35088],[121.068626,16.350719],[121.070602,16.35042],[121.072037,16.35067],[121.073601,16.351601],[121.074707,16.35218],[121.075912,16.35243],[121.077087,16.352949],[121.078262,16.353621],[121.079193,16.35495],[121.079391,16.357121],[121.08017,16.35745],[121.087967,16.35623]]]]}},{"type":"Feature","properties":{"ID_0":177,"ISO":"PHL","NAME_0":"Philippines","ID_1":2050,"NAME_1":"Nueva Vizcaya","ID_2":205004,"NAME_2":"Bambang","ID_3":205004014,"NAME_3":"Mabuslo","NL_NAME_3":null,"VARNAME_3":null,"TYPE_3":"Barangay","ENGTYPE_3":"Village","PROVINCE":"Nueva Vizcaya","REGION":"Region II (Cagayan Valley)","id":"barangay-0205004014","name":"Mabuslo","barangayCode":"0205004014","population":null,"formattedPop":null,"densityCategory":"No data","vulnerabilityRating":"No data","healthRiskLevel":"No data","areaKm2":8.881067,"centerLat":16.390126,"centerLng":121.170694,"geometrySource":"all_barangay-2.csv detailed WKT","geometryMatchMethod":"unique_official_admin_names","boundaryPointCount":36},"geometry":{"type":"MultiPolygon","coordinates":[[[[121.273247,16.415199],[121.290657,16.3999],[121.2369,16.37005],[121.181282,16.339239],[121.176941,16.345699],[121.177017,16.347589],[121.173424,16.35684],[121.173103,16.35807],[121.173637,16.359501],[121.173424,16.360399],[121.172989,16.361549],[121.172623,16.36278],[121.171989,16.36455],[121.172836,16.365191],[121.174454,16.36537],[121.175262,16.365511],[121.175041,16.366289],[121.174492,16.36668],[121.17321,16.36714],[121.17186,16.36763],[121.170097,16.369341],[121.16925,16.371031],[121.168541,16.37253],[121.167686,16.37248],[121.167397,16.371929],[121.166733,16.370951],[121.166191,16.370581],[121.164574,16.370331],[121.16291,16.37055],[121.161339,16.37108],[121.160957,16.37151],[121.160538,16.37208],[121.191002,16.381849],[121.206818,16.400391],[121.206863,16.40346],[121.273247,16.415199]]]]}},{"type":"Feature","properties":{"ID_0":177,"ISO":"PHL","NAME_0":"Philippines","ID_1":2050,"NAME_1":"Nueva Vizcaya","ID_2":205004,"NAME_2":"Bambang","ID_3":205004015,"NAME_3":"Macate","NL_NAME_3":null,"VARNAME_3":null,"TYPE_3":"Barangay","ENGTYPE_3":"Village","PROVINCE":"Nueva Vizcaya","REGION":"Region II (Cagayan Valley)","id":"barangay-0205004015","name":"Macate","barangayCode":"0205004015","population":null,"formattedPop":null,"densityCategory":"No data","vulnerabilityRating":"No data","healthRiskLevel":"No data","areaKm2":4.965158,"centerLat":16.412897,"centerLng":121.118869,"geometrySource":"all_barangay-2.csv detailed WKT","geometryMatchMethod":"unique_official_admin_names","boundaryPointCount":11},"geometry":{"type":"MultiPolygon","coordinates":[[[[121.134857,16.417139],[121.136917,16.410139],[121.133614,16.404869],[121.111649,16.404449],[121.111847,16.410089],[121.11203,16.41032],[121.113068,16.411699],[121.115089,16.41424],[121.11676,16.41675],[121.117012,16.41732],[121.134857,16.417139]]]]}},{"type":"Feature","properties":{"ID_0":177,"ISO":"PHL","NAME_0":"Philippines","ID_1":2050,"NAME_1":"Nueva Vizcaya","ID_2":205004,"NAME_2":"Bambang","ID_3":205004016,"NAME_3":"Manamtam","NL_NAME_3":null,"VARNAME_3":null,"TYPE_3":"Barangay","ENGTYPE_3":"Village","PROVINCE":"Nueva Vizcaya","REGION":"Region II (Cagayan Valley)","id":"barangay-0205004016","name":"Manamtam","barangayCode":"0205004016","population":null,"formattedPop":null,"densityCategory":"No data","vulnerabilityRating":"No data","healthRiskLevel":"No data","areaKm2":8.707285,"centerLat":16.405842,"centerLng":121.066201,"geometrySource":"all_barangay-2.csv detailed WKT","geometryMatchMethod":"unique_official_admin_names","boundaryPointCount":33},"geometry":{"type":"MultiPolygon","coordinates":[[[[121.0672,16.434811],[121.077606,16.420481],[121.083191,16.413441],[121.090584,16.40877],[121.099701,16.406191],[121.09832,16.404961],[121.096512,16.40373],[121.093964,16.402809],[121.091629,16.40271],[121.089737,16.40312],[121.088219,16.403681],[121.087082,16.403669],[121.085182,16.40234],[121.083511,16.40093],[121.08223,16.39966],[121.081169,16.397791],[121.08033,16.395861],[121.079453,16.394421],[121.077759,16.393579],[121.074982,16.39292],[121.072021,16.39216],[121.069687,16.391029],[121.067039,16.3894],[121.06427,16.38883],[121.061508,16.38895],[121.059479,16.389521],[121.058098,16.390961],[121.05426,16.39333],[121.051178,16.396839],[121.041321,16.412201],[121.035919,16.422979],[121.032356,16.428909],[121.0672,16.434811]]]]}},{"type":"Feature","properties":{"ID_0":177,"ISO":"PHL","NAME_0":"Philippines","ID_1":2050,"NAME_1":"Nueva Vizcaya","ID_2":205004,"NAME_2":"Bambang","ID_3":205004017,"NAME_3":"Mauan","NL_NAME_3":null,"VARNAME_3":null,"TYPE_3":"Barangay","ENGTYPE_3":"Village","PROVINCE":"Nueva Vizcaya","REGION":"Region II (Cagayan Valley)","id":"barangay-0205004017","name":"Mauan","barangayCode":"0205004017","population":null,"formattedPop":null,"densityCategory":"No data","vulnerabilityRating":"No data","healthRiskLevel":"No data","areaKm2":11.132441,"centerLat":16.349678,"centerLng":121.040464,"geometrySource":"all_barangay-2.csv detailed WKT","geometryMatchMethod":"unique_official_admin_names","boundaryPointCount":21},"geometry":{"type":"MultiPolygon","coordinates":[[[[121.044838,16.365129],[121.061073,16.36846],[121.067291,16.3508],[121.065178,16.349779],[121.064529,16.34951],[121.063469,16.34734],[121.0616,16.345869],[121.060097,16.345051],[121.058342,16.343821],[121.056557,16.343361],[121.055367,16.34371],[121.054123,16.343281],[121.053284,16.342159],[121.051628,16.341761],[121.0494,16.342079],[121.047859,16.342369],[121.047173,16.342291],[121.039711,16.33049],[121.023209,16.34561],[121.045311,16.35894],[121.044838,16.365129]]]]}},{"type":"Feature","properties":{"ID_0":177,"ISO":"PHL","NAME_0":"Philippines","ID_1":2050,"NAME_1":"Nueva Vizcaya","ID_2":205004,"NAME_2":"Bambang","ID_3":205004018,"NAME_3":"Salinas","NL_NAME_3":null,"VARNAME_3":null,"TYPE_3":"Barangay","ENGTYPE_3":"Village","PROVINCE":"Nueva Vizcaya","REGION":"Region II (Cagayan Valley)","id":"barangay-0205004018","name":"Salinas","barangayCode":"0205004018","population":null,"formattedPop":null,"densityCategory":"No data","vulnerabilityRating":"No data","healthRiskLevel":"No data","areaKm2":15.643329,"centerLat":16.369536,"centerLng":121.015562,"geometrySource":"all_barangay-2.csv detailed WKT","geometryMatchMethod":"unique_official_admin_names","boundaryPointCount":9},"geometry":{"type":"MultiPolygon","coordinates":[[[[120.97242,16.392851],[121.032188,16.40251],[121.043991,16.3885],[121.044838,16.365129],[121.045311,16.35894],[121.023209,16.34561],[121.012917,16.357491],[120.997887,16.36813],[120.97242,16.392851]]]]}},{"type":"Feature","properties":{"ID_0":177,"ISO":"PHL","NAME_0":"Philippines","ID_1":2050,"NAME_1":"Nueva Vizcaya","ID_2":205004,"NAME_2":"Bambang","ID_3":205004020,"NAME_3":"San Antonio North","NL_NAME_3":null,"VARNAME_3":null,"TYPE_3":"Barangay","ENGTYPE_3":"Village","PROVINCE":"Nueva Vizcaya","REGION":"Region II (Cagayan Valley)","id":"barangay-0205004020","name":"San Antonio North","barangayCode":"0205004020","population":null,"formattedPop":null,"densityCategory":"No data","vulnerabilityRating":"No data","healthRiskLevel":"No data","areaKm2":4.968982,"centerLat":16.363015,"centerLng":121.114202,"geometrySource":"all_barangay-2.csv detailed WKT","geometryMatchMethod":"unique_official_admin_names","boundaryPointCount":8},"geometry":{"type":"MultiPolygon","coordinates":[[[[121.110741,16.371861],[121.121368,16.37281],[121.1287,16.370581],[121.127609,16.368099],[121.128853,16.35556],[121.106842,16.353861],[121.100677,16.37328],[121.110741,16.371861]]]]}},{"type":"Feature","properties":{"ID_0":177,"ISO":"PHL","NAME_0":"Philippines","ID_1":2050,"NAME_1":"Nueva Vizcaya","ID_2":205004,"NAME_2":"Bambang","ID_3":205004021,"NAME_3":"San Antonio South","NL_NAME_3":null,"VARNAME_3":null,"TYPE_3":"Barangay","ENGTYPE_3":"Village","PROVINCE":"Nueva Vizcaya","REGION":"Region II (Cagayan Valley)","id":"barangay-0205004021","name":"San Antonio South","barangayCode":"0205004021","population":null,"formattedPop":null,"densityCategory":"No data","vulnerabilityRating":"No data","healthRiskLevel":"No data","areaKm2":4.442664,"centerLat":16.347861,"centerLng":121.111734,"geometrySource":"all_barangay-2.csv detailed WKT","geometryMatchMethod":"unique_official_admin_names","boundaryPointCount":10},"geometry":{"type":"MultiPolygon","coordinates":[[[[121.128853,16.35556],[121.173103,16.35807],[121.173424,16.35684],[121.177017,16.347589],[121.176941,16.345699],[121.181282,16.339239],[121.132111,16.334459],[121.10759,16.33279],[121.106842,16.353861],[121.128853,16.35556]]]]}},{"type":"Feature","properties":{"ID_0":177,"ISO":"PHL","NAME_0":"Philippines","ID_1":2050,"NAME_1":"Nueva Vizcaya","ID_2":205004,"NAME_2":"Bambang","ID_3":205004022,"NAME_3":"San Fernando","NL_NAME_3":null,"VARNAME_3":null,"TYPE_3":"Barangay","ENGTYPE_3":"Village","PROVINCE":"Nueva Vizcaya","REGION":"Region II (Cagayan Valley)","id":"barangay-0205004022","name":"San Fernando","barangayCode":"0205004022","population":null,"formattedPop":null,"densityCategory":"No data","vulnerabilityRating":"No data","healthRiskLevel":"No data","areaKm2":9.140706,"centerLat":16.389933,"centerLng":121.142103,"geometrySource":"all_barangay-2.csv detailed WKT","geometryMatchMethod":"unique_official_admin_names","boundaryPointCount":12},"geometry":{"type":"MultiPolygon","coordinates":[[[[121.133614,16.404869],[121.206863,16.40346],[121.206818,16.400391],[121.191002,16.381849],[121.160538,16.37208],[121.1287,16.370581],[121.121368,16.37281],[121.110741,16.371861],[121.11821,16.386169],[121.111603,16.39613],[121.111649,16.404449],[121.133614,16.404869]]]]}},{"type":"Feature","properties":{"ID_0":177,"ISO":"PHL","NAME_0":"Philippines","ID_1":2050,"NAME_1":"Nueva Vizcaya","ID_2":205004,"NAME_2":"Bambang","ID_3":205004023,"NAME_3":"San Leonardo","NL_NAME_3":null,"VARNAME_3":null,"TYPE_3":"Barangay","ENGTYPE_3":"Village","PROVINCE":"Nueva Vizcaya","REGION":"Region II (Cagayan Valley)","id":"barangay-0205004023","name":"San Leonardo","barangayCode":"0205004023","population":null,"formattedPop":null,"densityCategory":"No data","vulnerabilityRating":"No data","healthRiskLevel":"No data","areaKm2":4.717533,"centerLat":16.393561,"centerLng":121.088164,"geometrySource":"all_barangay-2.csv detailed WKT","geometryMatchMethod":"unique_official_admin_names","boundaryPointCount":6},"geometry":{"type":"MultiPolygon","coordinates":[[[[121.100121,16.393999],[121.100418,16.38615],[121.100677,16.37328],[121.084793,16.376699],[121.08503,16.3927],[121.100121,16.393999]]]]}},{"type":"Feature","properties":{"ID_0":177,"ISO":"PHL","NAME_0":"Philippines","ID_1":2050,"NAME_1":"Nueva Vizcaya","ID_2":205004,"NAME_2":"Bambang","ID_3":205004024,"NAME_3":"Santo Domingo","NL_NAME_3":null,"VARNAME_3":null,"TYPE_3":"Barangay","ENGTYPE_3":"Village","PROVINCE":"Nueva Vizcaya","REGION":"Region II (Cagayan Valley)","id":"barangay-0205004024","name":"Santo Domingo","barangayCode":"0205004024","population":null,"formattedPop":null,"densityCategory":"No data","vulnerabilityRating":"No data","healthRiskLevel":"No data","areaKm2":10.843905,"centerLat":16.416142,"centerLng":121.097707,"geometrySource":"all_barangay-2.csv detailed WKT","geometryMatchMethod":"unique_official_admin_names","boundaryPointCount":35},"geometry":{"type":"MultiPolygon","coordinates":[[[[121.113029,16.43375],[121.112823,16.432249],[121.112823,16.43049],[121.1129,16.429461],[121.113197,16.42808],[121.113731,16.426649],[121.114182,16.426081],[121.115189,16.42544],[121.116241,16.42487],[121.117943,16.42403],[121.119186,16.42338],[121.119797,16.422501],[121.119263,16.421221],[121.11808,16.41964],[121.117363,16.418409],[121.117012,16.41732],[121.11676,16.41675],[121.115089,16.41424],[121.113068,16.411699],[121.11203,16.41032],[121.111847,16.410089],[121.109688,16.40836],[121.107903,16.407379],[121.106171,16.40696],[121.104462,16.407181],[121.103233,16.407539],[121.102074,16.40737],[121.100639,16.40667],[121.099701,16.406191],[121.090584,16.40877],[121.083191,16.413441],[121.077606,16.420481],[121.0672,16.434811],[121.091209,16.434641],[121.113029,16.43375]]]]}},{"type":"Feature","properties":{"ID_0":177,"ISO":"PHL","NAME_0":"Philippines","ID_1":2050,"NAME_1":"Nueva Vizcaya","ID_2":205004,"NAME_2":"Bambang","ID_3":205004025,"NAME_3":"Pallas","NL_NAME_3":null,"VARNAME_3":null,"TYPE_3":"Barangay","ENGTYPE_3":"Village","PROVINCE":"Nueva Vizcaya","REGION":"Region II (Cagayan Valley)","id":"barangay-0205004025","name":"Pallas","barangayCode":"0205004025","population":null,"formattedPop":null,"densityCategory":"No data","vulnerabilityRating":"No data","healthRiskLevel":"No data","areaKm2":39.429092,"centerLat":16.413212,"centerLng":121.030575,"geometrySource":"all_barangay-2.csv detailed WKT","geometryMatchMethod":"unique_official_admin_names","boundaryPointCount":7},"geometry":{"type":"MultiPolygon","coordinates":[[[[121.032417,16.45219],[121.032356,16.428909],[121.032188,16.40251],[120.97242,16.392851],[121.001053,16.437901],[121.027908,16.45289],[121.032417,16.45219]]]]}},{"type":"Feature","properties":{"ID_0":177,"ISO":"PHL","NAME_0":"Philippines","ID_1":2050,"NAME_1":"Nueva Vizcaya","ID_2":205004,"NAME_2":"Bambang","ID_3":205004026,"NAME_3":"Magsaysay Hills","NL_NAME_3":null,"VARNAME_3":null,"TYPE_3":"Barangay","ENGTYPE_3":"Village","PROVINCE":"Nueva Vizcaya","REGION":"Region II (Cagayan Valley)","id":"barangay-0205004026","name":"Magsaysay Hills","barangayCode":"0205004026","population":null,"formattedPop":null,"densityCategory":"No data","vulnerabilityRating":"No data","healthRiskLevel":"No data","areaKm2":2.853668,"centerLat":16.37723,"centerLng":121.115042,"geometrySource":"all_barangay-2.csv detailed WKT","geometryMatchMethod":"unique_official_admin_names","boundaryPointCount":11},"geometry":{"type":"MultiPolygon","coordinates":[[[[121.114067,16.441931],[121.114441,16.438959],[121.114349,16.437731],[121.114014,16.436359],[121.113571,16.435209],[121.113197,16.434311],[121.113029,16.43375],[121.091209,16.434641],[121.0672,16.434811],[121.069687,16.447371],[121.114067,16.441931]]]]}},{"type":"Feature","properties":{"ID_0":177,"ISO":"PHL","NAME_0":"Philippines","ID_1":2050,"NAME_1":"Nueva Vizcaya","ID_2":205004,"NAME_2":"Bambang","ID_3":205004027,"NAME_3":"Santo Domingo West","NL_NAME_3":null,"VARNAME_3":null,"TYPE_3":"Barangay","ENGTYPE_3":"Village","PROVINCE":"Nueva Vizcaya","REGION":"Region II (Cagayan Valley)","id":"barangay-0205004027","name":"Santo Domingo West","barangayCode":"0205004027","population":null,"formattedPop":null,"densityCategory":"No data","vulnerabilityRating":"No data","healthRiskLevel":"No data","areaKm2":9.745547,"centerLat":16.432598,"centerLng":121.072623,"geometrySource":"all_barangay-2.csv detailed WKT","geometryMatchMethod":"unique_official_admin_names","boundaryPointCount":5},"geometry":{"type":"MultiPolygon","coordinates":[[[[121.069687,16.447371],[121.0672,16.434811],[121.032356,16.428909],[121.032417,16.45219],[121.069687,16.447371]]]]}}]}
