{"type":"FeatureCollection","features":[{"type":"Feature","properties":{"ID_0":177,"ISO":"PHL","NAME_0":"Philippines","ID_1":5016,"NAME_1":"Camarines Norte","ID_2":501608,"NAME_2":"Paracale","ID_3":501608001,"NAME_3":"Awitan","NL_NAME_3":null,"VARNAME_3":null,"TYPE_3":"Barangay","ENGTYPE_3":"Village","PROVINCE":"Camarines Norte","REGION":"Region V (Bicol Region)","id":"barangay-0501608001","name":"Awitan","barangayCode":"0501608001","population":null,"formattedPop":null,"densityCategory":"No data","vulnerabilityRating":"No data","healthRiskLevel":"No data","areaKm2":1.263741,"centerLat":14.220725,"centerLng":122.855374,"geometrySource":"all_barangay-2.csv detailed WKT","geometryMatchMethod":"unique_official_admin_names","boundaryPointCount":39},"geometry":{"type":"MultiPolygon","coordinates":[[[[122.86084,14.20784],[122.855423,14.20668],[122.852959,14.20616],[122.849922,14.20512],[122.847061,14.20406],[122.845421,14.20343],[122.844353,14.20247],[122.842613,14.20124],[122.840607,14.19969],[122.838562,14.19919],[122.837097,14.19845],[122.834412,14.19823],[122.832283,14.19835],[122.828438,14.19896],[122.829132,14.20076],[122.829483,14.20226],[122.830322,14.20384],[122.831734,14.20473],[122.832512,14.20501],[122.833679,14.2059],[122.835228,14.20535],[122.837273,14.20569],[122.840202,14.20659],[122.841858,14.20724],[122.844513,14.20822],[122.847427,14.2092],[122.84906,14.20937],[122.850357,14.21034],[122.851837,14.21123],[122.854477,14.21196],[122.856331,14.21237],[122.857697,14.21237],[122.859459,14.21254],[122.86187,14.2124],[122.86216,14.21225],[122.86219,14.21105],[122.861389,14.20993],[122.861237,14.20889],[122.86084,14.20784]]]]}},{"type":"Feature","properties":{"ID_0":177,"ISO":"PHL","NAME_0":"Philippines","ID_1":5016,"NAME_1":"Camarines Norte","ID_2":501608,"NAME_2":"Paracale","ID_3":501608002,"NAME_3":"Bagumbayan","NL_NAME_3":null,"VARNAME_3":null,"TYPE_3":"Barangay","ENGTYPE_3":"Village","PROVINCE":"Camarines Norte","REGION":"Region V (Bicol Region)","id":"barangay-0501608002","name":"Bagumbayan","barangayCode":"0501608002","population":null,"formattedPop":null,"densityCategory":"No data","vulnerabilityRating":"No data","healthRiskLevel":"No data","areaKm2":8.580793,"centerLat":14.300264,"centerLng":122.777666,"geometrySource":"all_barangay-2.csv detailed WKT","geometryMatchMethod":"unique_official_admin_names","boundaryPointCount":189},"geometry":{"type":"MultiPolygon","coordinates":[[[[122.76712,14.32095],[122.767357,14.32106],[122.76786,14.32117],[122.768417,14.32124],[122.769012,14.32121],[122.769638,14.32125],[122.770279,14.32116],[122.770973,14.32107],[122.771713,14.32104],[122.772491,14.32104],[122.773262,14.32094],[122.773903,14.32073],[122.774406,14.32051],[122.774818,14.32018],[122.775093,14.31977],[122.775307,14.31936],[122.775497,14.31902],[122.775612,14.31872],[122.77565,14.31853],[122.775673,14.31841],[122.775742,14.31803],[122.775917,14.31765],[122.776123,14.31727],[122.776367,14.31688],[122.776627,14.31646],[122.776947,14.31604],[122.777321,14.31562],[122.777451,14.3155],[122.777733,14.31524],[122.778061,14.31476],[122.778152,14.3144],[122.778214,14.31413],[122.778519,14.31362],[122.778633,14.31354],[122.779007,14.31323],[122.779541,14.31294],[122.779991,14.31259],[122.780357,14.31224],[122.780724,14.31188],[122.781067,14.31153],[122.78141,14.3112],[122.781601,14.31085],[122.781616,14.31046],[122.78157,14.31005],[122.781548,14.30963],[122.781563,14.30916],[122.781593,14.30858],[122.781609,14.30845],[122.78167,14.308],[122.781807,14.30764],[122.781998,14.3074],[122.782227,14.3072],[122.782478,14.30696],[122.782768,14.3067],[122.783127,14.30645],[122.783531,14.30618],[122.783989,14.30592],[122.784462,14.30566],[122.784897,14.30539],[122.784943,14.30537],[122.785469,14.30514],[122.785988,14.305],[122.78614,14.30498],[122.786438,14.30494],[122.786812,14.30511],[122.787148,14.30528],[122.78746,14.3055],[122.787697,14.30583],[122.787819,14.30628],[122.78801,14.30731],[122.788567,14.308],[122.788513,14.30855],[122.788429,14.30903],[122.788986,14.30958],[122.789482,14.31012],[122.789833,14.31054],[122.790047,14.31095],[122.790611,14.31129],[122.791031,14.31129],[122.791451,14.31108],[122.791878,14.31067],[122.792229,14.31019],[122.792297,14.3101],[122.792717,14.30951],[122.793213,14.30855],[122.793587,14.3079],[122.793747,14.30741],[122.793991,14.30698],[122.794289,14.30657],[122.794594,14.30613],[122.794868,14.30574],[122.795059,14.3054],[122.795189,14.30505],[122.795189,14.30464],[122.795059,14.30419],[122.79493,14.30367],[122.794777,14.30313],[122.794724,14.30254],[122.794647,14.30191],[122.794083,14.3011],[122.793808,14.30068],[122.793533,14.3],[122.793457,14.29938],[122.793114,14.29869],[122.792732,14.29839],[122.792679,14.29835],[122.792122,14.2978],[122.79142,14.29739],[122.790863,14.29719],[122.790443,14.29664],[122.789871,14.29623],[122.789169,14.29602],[122.78875,14.29616],[122.788544,14.29643],[122.788544,14.29684],[122.788597,14.29712],[122.788651,14.29716],[122.789101,14.2976],[122.789589,14.29767],[122.78994,14.29773],[122.790291,14.29787],[122.791023,14.29856],[122.791443,14.29863],[122.791641,14.29863],[122.791924,14.29876],[122.792213,14.29918],[122.792633,14.29952],[122.79277,14.3002],[122.792976,14.30075],[122.792908,14.30123],[122.792633,14.30144],[122.792213,14.30144],[122.791718,14.30116],[122.79129,14.30089],[122.790497,14.30096],[122.790077,14.30096],[122.789726,14.30082],[122.789452,14.30048],[122.789238,14.30034],[122.789017,14.29966],[122.788887,14.29918],[122.788673,14.29863],[122.788193,14.29773],[122.787903,14.29739],[122.787689,14.29712],[122.787552,14.29657],[122.787521,14.2964],[122.787483,14.29616],[122.787064,14.29478],[122.786499,14.2943],[122.786362,14.29417],[122.785751,14.29399],[122.785652,14.29396],[122.785454,14.29389],[122.785049,14.29325],[122.784767,14.29256],[122.784698,14.29146],[122.784912,14.29064],[122.784866,14.29015],[122.784088,14.29025],[122.7827,14.29006],[122.781227,14.28941],[122.780197,14.2875],[122.779449,14.28633],[122.777893,14.28552],[122.777061,14.28455],[122.774902,14.28404],[122.77375,14.2842],[122.772614,14.28429],[122.771347,14.28414],[122.770416,14.28374],[122.769928,14.28607],[122.769386,14.28763],[122.768852,14.28928],[122.767662,14.29099],[122.765701,14.29455],[122.766258,14.29785],[122.766472,14.30042],[122.767067,14.30277],[122.767448,14.30499],[122.767181,14.30669],[122.767326,14.30908],[122.76664,14.31113],[122.765411,14.31308],[122.765358,14.31574],[122.76696,14.31684],[122.767372,14.31877],[122.767403,14.32022],[122.76712,14.32095]]]]}},{"type":"Feature","properties":{"ID_0":177,"ISO":"PHL","NAME_0":"Philippines","ID_1":5016,"NAME_1":"Camarines Norte","ID_2":501608,"NAME_2":"Paracale","ID_3":501608003,"NAME_3":"Bakal","NL_NAME_3":null,"VARNAME_3":null,"TYPE_3":"Barangay","ENGTYPE_3":"Village","PROVINCE":"Camarines Norte","REGION":"Region V (Bicol Region)","id":"barangay-0501608003","name":"Bakal","barangayCode":"0501608003","population":null,"formattedPop":null,"densityCategory":"No data","vulnerabilityRating":"No data","healthRiskLevel":"No data","areaKm2":4.238967,"centerLat":14.274507,"centerLng":122.842086,"geometrySource":"all_barangay-2.csv detailed WKT","geometryMatchMethod":"unique_official_admin_names","boundaryPointCount":63},"geometry":{"type":"MultiPolygon","coordinates":[[[[122.834457,14.28449],[122.834572,14.28447],[122.834976,14.28436],[122.835426,14.28429],[122.835899,14.2842],[122.836349,14.28421],[122.836777,14.28421],[122.837212,14.2842],[122.837631,14.28419],[122.838058,14.28417],[122.838493,14.28411],[122.838921,14.28398],[122.839363,14.28392],[122.839813,14.2839],[122.840271,14.2839],[122.840736,14.28389],[122.841217,14.28387],[122.841698,14.28378],[122.842194,14.28369],[122.842697,14.28366],[122.843231,14.28358],[122.844948,14.28277],[122.84565,14.28236],[122.84642,14.28208],[122.847191,14.2816],[122.84832,14.28105],[122.848808,14.28057],[122.849297,14.27954],[122.849792,14.27872],[122.850143,14.27803],[122.850456,14.27747],[122.849709,14.27734],[122.848701,14.27672],[122.84761,14.2759],[122.846947,14.27427],[122.845978,14.27281],[122.845993,14.27167],[122.845161,14.27007],[122.84536,14.26876],[122.845306,14.26719],[122.845367,14.26533],[122.844139,14.26455],[122.843147,14.2639],[122.842491,14.26466],[122.842247,14.26589],[122.841003,14.26635],[122.83976,14.26651],[122.838509,14.26668],[122.837357,14.26698],[122.836594,14.2671],[122.835732,14.26722],[122.838173,14.27247],[122.838539,14.27395],[122.838333,14.27558],[122.837929,14.27726],[122.837517,14.27884],[122.836861,14.28008],[122.836273,14.28104],[122.836327,14.28104],[122.836037,14.28198],[122.835472,14.28309],[122.83506,14.2837],[122.834457,14.28449]]]]}},{"type":"Feature","properties":{"ID_0":177,"ISO":"PHL","NAME_0":"Philippines","ID_1":5016,"NAME_1":"Camarines Norte","ID_2":501608,"NAME_2":"Paracale","ID_3":501608004,"NAME_3":"Batobalani","NL_NAME_3":null,"VARNAME_3":null,"TYPE_3":"Barangay","ENGTYPE_3":"Village","PROVINCE":"Camarines Norte","REGION":"Region V (Bicol Region)","id":"barangay-0501608004","name":"Batobalani","barangayCode":"0501608004","population":null,"formattedPop":null,"densityCategory":"No data","vulnerabilityRating":"No data","healthRiskLevel":"No data","areaKm2":21.435288,"centerLat":14.218518,"centerLng":122.710059,"geometrySource":"all_barangay-2.csv detailed WKT","geometryMatchMethod":"unique_official_admin_names","boundaryPointCount":37},"geometry":{"type":"MultiPolygon","coordinates":[[[[122.757469,14.24384],[122.762917,14.24178],[122.757263,14.23794],[122.753922,14.23681],[122.751228,14.23416],[122.746277,14.2297],[122.744247,14.22819],[122.742249,14.22656],[122.740181,14.22507],[122.73777,14.22298],[122.73613,14.22161],[122.734367,14.21943],[122.733017,14.21725],[122.731506,14.22144],[122.728218,14.22783],[122.725616,14.23449],[122.723953,14.23944],[122.726646,14.2406],[122.728958,14.24039],[122.730301,14.24109],[122.732063,14.24122],[122.733711,14.24045],[122.735191,14.24056],[122.736153,14.24093],[122.73764,14.24209],[122.738724,14.24268],[122.739967,14.24292],[122.740646,14.24224],[122.742287,14.2418],[122.745293,14.2413],[122.746223,14.24326],[122.746483,14.24568],[122.748558,14.2514],[122.751427,14.25047],[122.753937,14.24872],[122.755836,14.24726],[122.757469,14.24384]]]]}},{"type":"Feature","properties":{"ID_0":177,"ISO":"PHL","NAME_0":"Philippines","ID_1":5016,"NAME_1":"Camarines Norte","ID_2":501608,"NAME_2":"Paracale","ID_3":501608005,"NAME_3":"Calaburnay","NL_NAME_3":null,"VARNAME_3":null,"TYPE_3":"Barangay","ENGTYPE_3":"Village","PROVINCE":"Camarines Norte","REGION":"Region V (Bicol Region)","id":"barangay-0501608005","name":"Calaburnay","barangayCode":"0501608005","population":null,"formattedPop":null,"densityCategory":"No data","vulnerabilityRating":"No data","healthRiskLevel":"No data","areaKm2":6.28573,"centerLat":14.24082,"centerLng":122.811373,"geometrySource":"all_barangay-2.csv detailed WKT","geometryMatchMethod":"unique_official_admin_names","boundaryPointCount":60},"geometry":{"type":"MultiPolygon","coordinates":[[[[122.794548,14.25222],[122.795067,14.25261],[122.79557,14.25316],[122.796059,14.25392],[122.79641,14.25433],[122.796913,14.25467],[122.796982,14.25473],[122.797462,14.25508],[122.797737,14.25543],[122.797737,14.25604],[122.79789,14.25646],[122.79789,14.25666],[122.799011,14.25694],[122.800003,14.25666],[122.800346,14.25646],[122.801048,14.25632],[122.801964,14.25618],[122.802803,14.25618],[122.803223,14.25625],[122.803497,14.25604],[122.803719,14.25577],[122.804001,14.2555],[122.804413,14.25529],[122.804909,14.25522],[122.805191,14.25474],[122.805191,14.25448],[122.805122,14.2545],[122.806084,14.25342],[122.808151,14.25263],[122.809967,14.25079],[122.81163,14.2487],[122.812447,14.24657],[122.814796,14.24585],[122.815521,14.24524],[122.817703,14.24418],[122.818253,14.24407],[122.819557,14.24422],[122.822227,14.23818],[122.822113,14.23013],[122.820717,14.22956],[122.818764,14.22878],[122.817009,14.22802],[122.814583,14.2275],[122.811539,14.22673],[122.808807,14.22596],[122.805077,14.22491],[122.8032,14.2273],[122.802483,14.2289],[122.802391,14.23245],[122.802551,14.23549],[122.803879,14.23761],[122.803787,14.23941],[122.804039,14.24184],[122.802803,14.24347],[122.802322,14.24498],[122.80101,14.24607],[122.800453,14.24794],[122.798576,14.25028],[122.795036,14.25155],[122.794548,14.25222]]]]}},{"type":"Feature","properties":{"ID_0":177,"ISO":"PHL","NAME_0":"Philippines","ID_1":5016,"NAME_1":"Camarines Norte","ID_2":501608,"NAME_2":"Paracale","ID_3":501608006,"NAME_3":"Capacuan","NL_NAME_3":null,"VARNAME_3":null,"TYPE_3":"Barangay","ENGTYPE_3":"Village","PROVINCE":"Camarines Norte","REGION":"Region V (Bicol Region)","id":"barangay-0501608006","name":"Capacuan","barangayCode":"0501608006","population":null,"formattedPop":null,"densityCategory":"No data","vulnerabilityRating":"No data","healthRiskLevel":"No data","areaKm2":3.716935,"centerLat":14.248269,"centerLng":122.736308,"geometrySource":"all_barangay-2.csv detailed WKT","geometryMatchMethod":"unique_official_admin_names","boundaryPointCount":30},"geometry":{"type":"MultiPolygon","coordinates":[[[[122.748558,14.2514],[122.746483,14.24568],[122.746223,14.24326],[122.745293,14.2413],[122.742287,14.2418],[122.740646,14.24224],[122.739967,14.24292],[122.738724,14.24268],[122.73764,14.24209],[122.736153,14.24093],[122.735191,14.24056],[122.733711,14.24045],[122.732063,14.24122],[122.730301,14.24109],[122.728958,14.24039],[122.726646,14.2406],[122.723953,14.23944],[122.723923,14.24305],[122.724823,14.24473],[122.72715,14.24705],[122.731369,14.25031],[122.735657,14.25299],[122.739449,14.25596],[122.738533,14.25994],[122.740799,14.25914],[122.743156,14.2579],[122.743851,14.25628],[122.744171,14.25448],[122.746178,14.25357],[122.748558,14.2514]]]]}},{"type":"Feature","properties":{"ID_0":177,"ISO":"PHL","NAME_0":"Philippines","ID_1":5016,"NAME_1":"Camarines Norte","ID_2":501608,"NAME_2":"Paracale","ID_3":501608007,"NAME_3":"Casalugan","NL_NAME_3":null,"VARNAME_3":null,"TYPE_3":"Barangay","ENGTYPE_3":"Village","PROVINCE":"Camarines Norte","REGION":"Region V (Bicol Region)","id":"barangay-0501608007","name":"Casalugan","barangayCode":"0501608007","population":null,"formattedPop":null,"densityCategory":"No data","vulnerabilityRating":"No data","healthRiskLevel":"No data","areaKm2":7.180835,"centerLat":14.296458,"centerLng":122.761903,"geometrySource":"all_barangay-2.csv detailed WKT","geometryMatchMethod":"unique_official_admin_names","boundaryPointCount":85},"geometry":{"type":"MultiPolygon","coordinates":[[[[122.757759,14.32634],[122.758118,14.32607],[122.758522,14.32578],[122.75882,14.32544],[122.75901,14.32505],[122.759163,14.32465],[122.7593,14.32426],[122.759483,14.3239],[122.759666,14.32355],[122.759827,14.3231],[122.760063,14.32261],[122.760384,14.32213],[122.760712,14.32183],[122.760834,14.32172],[122.761322,14.3214],[122.76181,14.32116],[122.762299,14.321],[122.762787,14.32082],[122.763283,14.32061],[122.763763,14.32042],[122.764252,14.32038],[122.764671,14.3205],[122.765053,14.32063],[122.765419,14.32071],[122.765823,14.32064],[122.766212,14.32063],[122.766586,14.32075],[122.766983,14.32089],[122.76712,14.32095],[122.767403,14.32022],[122.767372,14.31877],[122.76696,14.31684],[122.765358,14.31574],[122.765411,14.31308],[122.76664,14.31113],[122.767326,14.30908],[122.767181,14.30669],[122.767448,14.30499],[122.767067,14.30277],[122.766472,14.30042],[122.766258,14.29785],[122.765701,14.29455],[122.767662,14.29099],[122.768852,14.28928],[122.769386,14.28763],[122.769928,14.28607],[122.770416,14.28374],[122.769524,14.2822],[122.76844,14.28114],[122.766953,14.28064],[122.765198,14.27991],[122.763443,14.27941],[122.762093,14.27927],[122.761017,14.27913],[122.75927,14.2784],[122.757919,14.27768],[122.755943,14.27749],[122.752632,14.27705],[122.750526,14.27655],[122.748657,14.27655],[122.747513,14.27639],[122.746651,14.27604],[122.747627,14.27762],[122.748421,14.27893],[122.747643,14.2814],[122.748154,14.28369],[122.748306,14.28586],[122.749237,14.28835],[122.751678,14.28997],[122.753532,14.29068],[122.7565,14.29119],[122.759079,14.29095],[122.760071,14.29342],[122.758087,14.29488],[122.756104,14.29694],[122.755737,14.29947],[122.754646,14.30197],[122.754807,14.30469],[122.755157,14.30732],[122.755051,14.31014],[122.754929,14.3134],[122.755203,14.31603],[122.757683,14.32609],[122.757683,14.32615],[122.757759,14.32634]]]]}},{"type":"Feature","properties":{"ID_0":177,"ISO":"PHL","NAME_0":"Philippines","ID_1":5016,"NAME_1":"Camarines Norte","ID_2":501608,"NAME_2":"Paracale","ID_3":501608008,"NAME_3":"Dagang","NL_NAME_3":null,"VARNAME_3":null,"TYPE_3":"Barangay","ENGTYPE_3":"Village","PROVINCE":"Camarines Norte","REGION":"Region V (Bicol Region)","id":"barangay-0501608008","name":"Dagang","barangayCode":"0501608008","population":null,"formattedPop":null,"densityCategory":"No data","vulnerabilityRating":"No data","healthRiskLevel":"No data","areaKm2":2.836677,"centerLat":14.238951,"centerLng":122.757397,"geometrySource":"all_barangay-2.csv detailed WKT","geometryMatchMethod":"unique_official_admin_names","boundaryPointCount":13},"geometry":{"type":"MultiPolygon","coordinates":[[[[122.768692,14.23697],[122.766922,14.23458],[122.764702,14.23268],[122.761726,14.23187],[122.757019,14.22821],[122.751228,14.23416],[122.753922,14.23681],[122.757263,14.23794],[122.762917,14.24178],[122.764511,14.24142],[122.765869,14.24067],[122.767693,14.23894],[122.768692,14.23697]]]]}},{"type":"Feature","properties":{"ID_0":177,"ISO":"PHL","NAME_0":"Philippines","ID_1":5016,"NAME_1":"Camarines Norte","ID_2":501608,"NAME_2":"Paracale","ID_3":501608009,"NAME_3":"Dalnac","NL_NAME_3":null,"VARNAME_3":null,"TYPE_3":"Barangay","ENGTYPE_3":"Village","PROVINCE":"Camarines Norte","REGION":"Region V (Bicol Region)","id":"barangay-0501608009","name":"Dalnac","barangayCode":"0501608009","population":null,"formattedPop":null,"densityCategory":"No data","vulnerabilityRating":"No data","healthRiskLevel":"No data","areaKm2":4.511344,"centerLat":14.210723,"centerLng":122.768,"geometrySource":"all_barangay-2.csv detailed WKT","geometryMatchMethod":"unique_official_admin_names","boundaryPointCount":29},"geometry":{"type":"MultiPolygon","coordinates":[[[[122.757019,14.22821],[122.76458,14.22439],[122.7668,14.2224],[122.769417,14.22184],[122.772057,14.22157],[122.767883,14.21936],[122.763847,14.21785],[122.760353,14.21605],[122.758614,14.21413],[122.756531,14.211],[122.754967,14.20791],[122.754097,14.20395],[122.753937,14.20073],[122.75309,14.19792],[122.74543,14.19829],[122.740601,14.19838],[122.737938,14.2045],[122.736908,14.20747],[122.738503,14.20993],[122.741127,14.21195],[122.742737,14.21311],[122.74456,14.2143],[122.746147,14.21522],[122.748032,14.21726],[122.749313,14.22029],[122.749718,14.22288],[122.751122,14.22398],[122.752502,14.22492],[122.757019,14.22821]]]]}},{"type":"Feature","properties":{"ID_0":177,"ISO":"PHL","NAME_0":"Philippines","ID_1":5016,"NAME_1":"Camarines Norte","ID_2":501608,"NAME_2":"Paracale","ID_3":501608010,"NAME_3":"Dancalan","NL_NAME_3":null,"VARNAME_3":null,"TYPE_3":"Barangay","ENGTYPE_3":"Village","PROVINCE":"Camarines Norte","REGION":"Region V (Bicol Region)","id":"barangay-0501608010","name":"Dancalan","barangayCode":"0501608010","population":null,"formattedPop":null,"densityCategory":"No data","vulnerabilityRating":"No data","healthRiskLevel":"No data","areaKm2":4.606349,"centerLat":14.228299,"centerLng":122.846316,"geometrySource":"all_barangay-2.csv detailed WKT","geometryMatchMethod":"unique_official_admin_names","boundaryPointCount":55},"geometry":{"type":"MultiPolygon","coordinates":[[[[122.863129,14.22668],[122.863861,14.2259],[122.865189,14.22346],[122.865593,14.22153],[122.865334,14.22037],[122.865402,14.21921],[122.865158,14.21814],[122.864479,14.21688],[122.864143,14.21634],[122.863571,14.21536],[122.862556,14.21392],[122.86187,14.2124],[122.859459,14.21254],[122.857697,14.21237],[122.856331,14.21237],[122.854477,14.21196],[122.851837,14.21123],[122.850357,14.21034],[122.84906,14.20937],[122.847427,14.2092],[122.844513,14.20822],[122.841858,14.20724],[122.840202,14.20659],[122.837273,14.20569],[122.835228,14.20535],[122.833679,14.2059],[122.832512,14.20501],[122.831734,14.20473],[122.830833,14.20582],[122.83007,14.20657],[122.830139,14.20752],[122.829697,14.20902],[122.829559,14.20989],[122.829247,14.21097],[122.82843,14.21289],[122.83094,14.2141],[122.83313,14.2158],[122.834648,14.2175],[122.836166,14.21982],[122.837608,14.22004],[122.838142,14.22063],[122.838692,14.22232],[122.839783,14.22109],[122.840729,14.2194],[122.84169,14.21974],[122.843224,14.22042],[122.843224,14.22155],[122.845131,14.22032],[122.845818,14.2211],[122.847481,14.22212],[122.848503,14.2229],[122.855377,14.225],[122.857384,14.2255],[122.860619,14.22579],[122.863129,14.22668]]]]}},{"type":"Feature","properties":{"ID_0":177,"ISO":"PHL","NAME_0":"Philippines","ID_1":5016,"NAME_1":"Camarines Norte","ID_2":501608,"NAME_2":"Paracale","ID_3":501608011,"NAME_3":"Gumaus","NL_NAME_3":null,"VARNAME_3":null,"TYPE_3":"Barangay","ENGTYPE_3":"Village","PROVINCE":"Camarines Norte","REGION":"Region V (Bicol Region)","id":"barangay-0501608011","name":"Gumaus","barangayCode":"0501608011","population":null,"formattedPop":null,"densityCategory":"No data","vulnerabilityRating":"No data","healthRiskLevel":"No data","areaKm2":16.240286,"centerLat":14.295465,"centerLng":122.741126,"geometrySource":"all_barangay-2.csv detailed WKT","geometryMatchMethod":"unique_official_admin_names","boundaryPointCount":137},"geometry":{"type":"MultiPolygon","coordinates":[[[[122.720306,14.31316],[122.720444,14.31311],[122.720863,14.31303],[122.721252,14.31289],[122.721657,14.31278],[122.722023,14.31259],[122.722359,14.31237],[122.722641,14.31209],[122.722931,14.31179],[122.723282,14.31156],[122.723778,14.31144],[122.724327,14.31137],[122.72493,14.3113],[122.725502,14.31142],[122.725983,14.31161],[122.726341,14.31184],[122.726669,14.31205],[122.727013,14.31205],[122.727341,14.31193],[122.727692,14.31192],[122.728088,14.31196],[122.7285,14.3119],[122.728973,14.31178],[122.729431,14.31161],[122.729843,14.31152],[122.730179,14.31148],[122.730499,14.31149],[122.730843,14.31153],[122.731232,14.31154],[122.731651,14.31142],[122.732109,14.31127],[122.732567,14.31117],[122.73304,14.31115],[122.733498,14.31115],[122.733978,14.31114],[122.734497,14.31109],[122.735512,14.3111],[122.736633,14.31144],[122.737473,14.31165],[122.7379,14.31192],[122.738953,14.31233],[122.739647,14.31288],[122.740067,14.31288],[122.740219,14.31316],[122.740143,14.31357],[122.739937,14.31384],[122.739792,14.31412],[122.739937,14.31446],[122.740387,14.31489],[122.740807,14.31526],[122.741158,14.3156],[122.741447,14.3159],[122.74173,14.31617],[122.741989,14.31645],[122.742241,14.31676],[122.742508,14.31712],[122.742813,14.31755],[122.743187,14.31798],[122.743584,14.31834],[122.743919,14.31868],[122.744133,14.31906],[122.744186,14.31949],[122.744179,14.31999],[122.744202,14.32059],[122.744141,14.32113],[122.74411,14.32122],[122.744003,14.32155],[122.743736,14.32197],[122.743591,14.32245],[122.743767,14.32288],[122.744049,14.32325],[122.744186,14.32348],[122.744293,14.32363],[122.744347,14.32389],[122.744537,14.32465],[122.744751,14.32506],[122.745308,14.32554],[122.745941,14.32609],[122.746513,14.3265],[122.746933,14.32678],[122.747559,14.32691],[122.748337,14.32717],[122.748734,14.32728],[122.749153,14.32739],[122.74958,14.32746],[122.750038,14.32756],[122.750526,14.32779],[122.751068,14.32802],[122.751678,14.32797],[122.752243,14.32777],[122.752777,14.32753],[122.753311,14.32729],[122.753822,14.32707],[122.754356,14.32694],[122.754852,14.32682],[122.755363,14.32689],[122.755943,14.32698],[122.756538,14.32702],[122.757141,14.32677],[122.75766,14.32642],[122.757759,14.32634],[122.757683,14.32615],[122.757683,14.32609],[122.755203,14.31603],[122.754929,14.3134],[122.755051,14.31014],[122.755157,14.30732],[122.754807,14.30469],[122.754646,14.30197],[122.755737,14.29947],[122.756104,14.29694],[122.758087,14.29488],[122.760071,14.29342],[122.759079,14.29095],[122.7565,14.29119],[122.753532,14.29068],[122.751678,14.28997],[122.749237,14.28835],[122.748306,14.28586],[122.748154,14.28369],[122.747643,14.2814],[122.748421,14.27893],[122.747627,14.27762],[122.746651,14.27604],[122.744102,14.27587],[122.741753,14.27351],[122.738853,14.27111],[122.736526,14.26752],[122.734917,14.27362],[122.733727,14.27687],[122.732033,14.27996],[122.729668,14.28944],[122.728256,14.29378],[122.726669,14.29846],[122.723259,14.30924],[122.720657,14.3128],[122.720306,14.31316]]]]}},{"type":"Feature","properties":{"ID_0":177,"ISO":"PHL","NAME_0":"Philippines","ID_1":5016,"NAME_1":"Camarines Norte","ID_2":501608,"NAME_2":"Paracale","ID_3":501608012,"NAME_3":"Labnig","NL_NAME_3":null,"VARNAME_3":null,"TYPE_3":"Barangay","ENGTYPE_3":"Village","PROVINCE":"Camarines Norte","REGION":"Region V (Bicol Region)","id":"barangay-0501608012","name":"Labnig","barangayCode":"0501608012","population":null,"formattedPop":null,"densityCategory":"No data","vulnerabilityRating":"No data","healthRiskLevel":"No data","areaKm2":5.459104,"centerLat":14.271641,"centerLng":122.818634,"geometrySource":"all_barangay-2.csv detailed WKT","geometryMatchMethod":"unique_official_admin_names","boundaryPointCount":121},"geometry":{"type":"MultiPolygon","coordinates":[[[[122.800323,14.27142],[122.800293,14.27112],[122.80024,14.27155],[122.800323,14.27142]]],[[[122.838539,14.27395],[122.838173,14.27247],[122.835732,14.26722],[122.828819,14.26581],[122.828239,14.26341],[122.826317,14.25851],[122.821312,14.25924],[122.819557,14.26033],[122.818497,14.26191],[122.81562,14.26251],[122.812958,14.26358],[122.8106,14.26467],[122.808006,14.26521],[122.806213,14.26614],[122.804718,14.26548],[122.804237,14.26564],[122.803833,14.26589],[122.803757,14.26657],[122.803413,14.26767],[122.802994,14.2687],[122.802139,14.26959],[122.802002,14.27055],[122.801857,14.27179],[122.801788,14.27282],[122.801933,14.27446],[122.802208,14.27529],[122.802361,14.27643],[122.802696,14.2769],[122.802803,14.277],[122.803078,14.27731],[122.803459,14.27767],[122.804047,14.27797],[122.804832,14.27797],[122.805099,14.27779],[122.805252,14.27769],[122.80574,14.27728],[122.806091,14.27687],[122.806519,14.27639],[122.80722,14.27564],[122.807991,14.27509],[122.808762,14.27468],[122.810028,14.27454],[122.810661,14.27426],[122.811783,14.27399],[122.812843,14.27372],[122.813751,14.27358],[122.814377,14.27358],[122.815826,14.27337],[122.816353,14.27338],[122.816856,14.27347],[122.817337,14.27359],[122.817787,14.27366],[122.818199,14.27378],[122.818588,14.27394],[122.81897,14.27417],[122.819366,14.27441],[122.819717,14.27471],[122.820084,14.275],[122.820396,14.2753],[122.820618,14.27552],[122.820686,14.27559],[122.8209,14.27589],[122.821083,14.27617],[122.82122,14.27645],[122.821419,14.2767],[122.821632,14.27694],[122.821823,14.27722],[122.822037,14.2775],[122.822289,14.27779],[122.822548,14.27807],[122.822769,14.27836],[122.822906,14.27868],[122.822899,14.27905],[122.822861,14.27942],[122.822861,14.27982],[122.822906,14.28017],[122.822922,14.28029],[122.822884,14.28076],[122.822601,14.28118],[122.822197,14.28155],[122.821907,14.2819],[122.821907,14.28228],[122.822128,14.28261],[122.822456,14.28285],[122.822853,14.28309],[122.82325,14.28336],[122.823647,14.28368],[122.824043,14.28401],[122.824463,14.28431],[122.82489,14.28458],[122.825317,14.28481],[122.825737,14.28507],[122.826141,14.28539],[122.826622,14.28567],[122.82724,14.28583],[122.827827,14.28575],[122.8284,14.28556],[122.829002,14.28538],[122.829689,14.28532],[122.830391,14.28531],[122.831093,14.28529],[122.831757,14.28522],[122.832382,14.28504],[122.833008,14.28482],[122.833603,14.28463],[122.834137,14.28456],[122.834457,14.28449],[122.83506,14.2837],[122.835472,14.28309],[122.836037,14.28198],[122.836327,14.28104],[122.836273,14.28104],[122.836861,14.28008],[122.837517,14.27884],[122.837929,14.27726],[122.838333,14.27558],[122.838539,14.27395]]]]}},{"type":"Feature","properties":{"ID_0":177,"ISO":"PHL","NAME_0":"Philippines","ID_1":5016,"NAME_1":"Camarines Norte","ID_2":501608,"NAME_2":"Paracale","ID_3":501608013,"NAME_3":"Macolabo Island","NL_NAME_3":null,"VARNAME_3":null,"TYPE_3":"Barangay","ENGTYPE_3":"Village","PROVINCE":"Camarines Norte","REGION":"Region V (Bicol Region)","id":"barangay-0501608013","name":"Macolabo Island","barangayCode":"0501608013","population":null,"formattedPop":null,"densityCategory":"No data","vulnerabilityRating":"No data","healthRiskLevel":"No data","areaKm2":3.07822,"centerLat":14.401348,"centerLng":122.812105,"geometrySource":"all_barangay-2.csv detailed WKT","geometryMatchMethod":"unique_official_admin_names","boundaryPointCount":27},"geometry":{"type":"MultiPolygon","coordinates":[[[[122.822227,14.23818],[122.828102,14.23717],[122.828362,14.23393],[122.828949,14.23096],[122.83049,14.22828],[122.831642,14.22616],[122.833061,14.2248],[122.83403,14.22236],[122.835403,14.22089],[122.836166,14.21982],[122.834648,14.2175],[122.83313,14.2158],[122.83094,14.2141],[122.82843,14.21289],[122.824966,14.21449],[122.820923,14.21653],[122.816544,14.21912],[122.811081,14.22187],[122.805077,14.22491],[122.808807,14.22596],[122.811539,14.22673],[122.814583,14.2275],[122.817009,14.22802],[122.818764,14.22878],[122.820717,14.22956],[122.822113,14.23013],[122.822227,14.23818]]]]}},{"type":"Feature","properties":{"ID_0":177,"ISO":"PHL","NAME_0":"Philippines","ID_1":5016,"NAME_1":"Camarines Norte","ID_2":501608,"NAME_2":"Paracale","ID_3":501608014,"NAME_3":"Malacbang","NL_NAME_3":null,"VARNAME_3":null,"TYPE_3":"Barangay","ENGTYPE_3":"Village","PROVINCE":"Camarines Norte","REGION":"Region V (Bicol Region)","id":"barangay-0501608014","name":"Malacbang","barangayCode":"0501608014","population":null,"formattedPop":null,"densityCategory":"No data","vulnerabilityRating":"No data","healthRiskLevel":"No data","areaKm2":10.193272,"centerLat":14.220933,"centerLng":122.797562,"geometrySource":"all_barangay-2.csv detailed WKT","geometryMatchMethod":"unique_official_admin_names","boundaryPointCount":73},"geometry":{"type":"MultiPolygon","coordinates":[[[[122.805077,14.22491],[122.811081,14.22187],[122.816544,14.21912],[122.820923,14.21653],[122.824966,14.21449],[122.82843,14.21289],[122.829247,14.21097],[122.829559,14.20989],[122.829697,14.20902],[122.830139,14.20752],[122.83007,14.20657],[122.830833,14.20582],[122.831734,14.20473],[122.830322,14.20384],[122.829483,14.20226],[122.829132,14.20076],[122.828438,14.19896],[122.827057,14.19924],[122.825592,14.19939],[122.823311,14.19879],[122.820686,14.19871],[122.817337,14.19932],[122.814178,14.19988],[122.810493,14.20087],[122.807327,14.20172],[122.80471,14.20287],[122.800941,14.20438],[122.799271,14.20517],[122.796303,14.20507],[122.79525,14.2052],[122.793137,14.20415],[122.791039,14.20383],[122.789368,14.20281],[122.787956,14.20207],[122.785507,14.20088],[122.784103,14.19984],[122.781303,14.19996],[122.778839,14.19979],[122.776329,14.19968],[122.772293,14.19883],[122.768944,14.19804],[122.766472,14.19775],[122.764008,14.19767],[122.75985,14.19798],[122.756866,14.19828],[122.75309,14.19792],[122.753937,14.20073],[122.754097,14.20395],[122.754967,14.20791],[122.756531,14.211],[122.758614,14.21413],[122.760353,14.21605],[122.763847,14.21785],[122.767883,14.21936],[122.772057,14.22157],[122.774117,14.22046],[122.777451,14.22022],[122.779327,14.21898],[122.781212,14.21816],[122.783478,14.21755],[122.785103,14.21851],[122.786613,14.22041],[122.788132,14.22136],[122.79052,14.22169],[122.793159,14.22151],[122.795036,14.22005],[122.79705,14.21828],[122.798927,14.21776],[122.801323,14.21746],[122.803108,14.21881],[122.803123,14.22052],[122.80368,14.22256],[122.805077,14.22491]]]]}},{"type":"Feature","properties":{"ID_0":177,"ISO":"PHL","NAME_0":"Philippines","ID_1":5016,"NAME_1":"Camarines Norte","ID_2":501608,"NAME_2":"Paracale","ID_3":501608015,"NAME_3":"Malaguit","NL_NAME_3":null,"VARNAME_3":null,"TYPE_3":"Barangay","ENGTYPE_3":"Village","PROVINCE":"Camarines Norte","REGION":"Region V (Bicol Region)","id":"barangay-0501608015","name":"Malaguit","barangayCode":"0501608015","population":null,"formattedPop":null,"densityCategory":"No data","vulnerabilityRating":"No data","healthRiskLevel":"No data","areaKm2":4.968527,"centerLat":14.270055,"centerLng":122.795944,"geometrySource":"all_barangay-2.csv detailed WKT","geometryMatchMethod":"unique_official_admin_names","boundaryPointCount":131},"geometry":{"type":"MultiPolygon","coordinates":[[[[122.79229,14.28357],[122.793213,14.2839],[122.793716,14.28407],[122.794197,14.28436],[122.79464,14.28467],[122.795013,14.28501],[122.795357,14.28534],[122.795731,14.28566],[122.796204,14.28595],[122.796661,14.28628],[122.796753,14.28636],[122.797119,14.28665],[122.797234,14.28675],[122.797539,14.28703],[122.797852,14.28746],[122.798027,14.28796],[122.79834,14.2884],[122.798729,14.28876],[122.799103,14.28901],[122.799438,14.28915],[122.799797,14.28928],[122.800301,14.28934],[122.800873,14.28943],[122.801491,14.28953],[122.802132,14.28947],[122.80275,14.28936],[122.803307,14.28914],[122.803818,14.28887],[122.804237,14.28854],[122.804527,14.28812],[122.804619,14.28763],[122.80452,14.2871],[122.804459,14.28655],[122.80442,14.28609],[122.804413,14.28603],[122.80439,14.28554],[122.804619,14.28514],[122.80497,14.28482],[122.805397,14.2846],[122.805901,14.2845],[122.806351,14.28444],[122.806732,14.28432],[122.807007,14.2841],[122.807259,14.28383],[122.807388,14.28345],[122.807297,14.28293],[122.806892,14.2815],[122.806267,14.28088],[122.805489,14.2804],[122.804581,14.27992],[122.804024,14.27992],[122.80352,14.27971],[122.803253,14.27957],[122.802963,14.27909],[122.802116,14.27889],[122.801407,14.27882],[122.800636,14.27841],[122.800163,14.27809],[122.800011,14.278],[122.79966,14.27745],[122.799591,14.27683],[122.799873,14.27635],[122.799927,14.27631],[122.800079,14.27621],[122.800293,14.27601],[122.800217,14.27532],[122.800011,14.27475],[122.79985,14.27435],[122.799667,14.2739],[122.799683,14.27342],[122.799667,14.2729],[122.799797,14.27236],[122.800056,14.27187],[122.80024,14.27155],[122.800293,14.27112],[122.80027,14.27085],[122.800003,14.2703],[122.799789,14.26988],[122.799828,14.26958],[122.800056,14.26937],[122.800369,14.26919],[122.800537,14.2691],[122.800774,14.2673],[122.800392,14.26561],[122.799843,14.26379],[122.799362,14.26207],[122.798439,14.25957],[122.798424,14.25937],[122.79718,14.25968],[122.796623,14.25954],[122.796272,14.25927],[122.796127,14.25886],[122.79641,14.25838],[122.796547,14.25824],[122.796913,14.25803],[122.797112,14.25797],[122.797256,14.2579],[122.797394,14.2579],[122.797394,14.25776],[122.797333,14.25755],[122.797112,14.25707],[122.797043,14.2568],[122.796761,14.25659],[122.796341,14.25604],[122.795921,14.2557],[122.795776,14.2555],[122.795486,14.25495],[122.795219,14.25433],[122.794868,14.25392],[122.794518,14.25344],[122.794243,14.25303],[122.794037,14.25292],[122.793503,14.25371],[122.792587,14.25574],[122.791351,14.25727],[122.789124,14.25923],[122.787903,14.26161],[122.787468,14.26349],[122.786507,14.26641],[122.786003,14.26769],[122.785469,14.26933],[122.785263,14.27149],[122.785332,14.27348],[122.788513,14.27465],[122.790131,14.276982],[122.792969,14.28108],[122.793137,14.28122],[122.792999,14.28174],[122.79287,14.28256],[122.792519,14.28327],[122.79229,14.28357]]]]}},{"type":"Feature","properties":{"ID_0":177,"ISO":"PHL","NAME_0":"Philippines","ID_1":5016,"NAME_1":"Camarines Norte","ID_2":501608,"NAME_2":"Paracale","ID_3":501608016,"NAME_3":"Mampungo","NL_NAME_3":null,"VARNAME_3":null,"TYPE_3":"Barangay","ENGTYPE_3":"Village","PROVINCE":"Camarines Norte","REGION":"Region V (Bicol Region)","id":"barangay-0501608016","name":"Mampungo","barangayCode":"0501608016","population":null,"formattedPop":null,"densityCategory":"No data","vulnerabilityRating":"No data","healthRiskLevel":"No data","areaKm2":5.276495,"centerLat":14.240372,"centerLng":122.844675,"geometrySource":"all_barangay-2.csv detailed WKT","geometryMatchMethod":"unique_official_admin_names","boundaryPointCount":67},"geometry":{"type":"MultiPolygon","coordinates":[[[[122.850456,14.27747],[122.850563,14.27728],[122.851257,14.27632],[122.851624,14.2755],[122.851624,14.27476],[122.851624,14.2744],[122.851547,14.27385],[122.851761,14.27358],[122.852043,14.27323],[122.852333,14.27241],[122.852531,14.27165],[122.852814,14.27083],[122.853233,14.27049],[122.853577,14.27021],[122.85408,14.26973],[122.854286,14.26884],[122.854149,14.26788],[122.854218,14.2674],[122.854431,14.26733],[122.854782,14.2674],[122.854919,14.26809],[122.855133,14.26877],[122.855339,14.26932],[122.855652,14.26952],[122.855827,14.26856],[122.855927,14.26648],[122.855026,14.2654],[122.853912,14.2642],[122.852768,14.26307],[122.853653,14.26034],[122.855614,14.25585],[122.856537,14.25402],[122.85865,14.25275],[122.859993,14.25149],[122.860153,14.24943],[122.861687,14.24766],[122.863579,14.24505],[122.864304,14.242],[122.86438,14.23846],[122.863983,14.23603],[122.863617,14.23403],[122.862862,14.23204],[122.863129,14.22668],[122.860619,14.22579],[122.857384,14.2255],[122.855377,14.225],[122.848503,14.2229],[122.848251,14.2339],[122.848488,14.2355],[122.848534,14.23773],[122.848381,14.24009],[122.848602,14.24287],[122.84864,14.24537],[122.848686,14.24667],[122.848846,14.25064],[122.848869,14.26431],[122.845367,14.26533],[122.845306,14.26719],[122.84536,14.26876],[122.845161,14.27007],[122.845993,14.27167],[122.845978,14.27281],[122.846947,14.27427],[122.84761,14.2759],[122.848701,14.27672],[122.849709,14.27734],[122.850456,14.27747]]]]}},{"type":"Feature","properties":{"ID_0":177,"ISO":"PHL","NAME_0":"Philippines","ID_1":5016,"NAME_1":"Camarines Norte","ID_2":501608,"NAME_2":"Paracale","ID_3":501608017,"NAME_3":"Mangkasay","NL_NAME_3":null,"VARNAME_3":null,"TYPE_3":"Barangay","ENGTYPE_3":"Village","PROVINCE":"Camarines Norte","REGION":"Region V (Bicol Region)","id":"barangay-0501608017","name":"Mangkasay","barangayCode":"0501608017","population":null,"formattedPop":null,"densityCategory":"No data","vulnerabilityRating":"No data","healthRiskLevel":"No data","areaKm2":4.810371,"centerLat":14.253707,"centerLng":122.818092,"geometrySource":"all_barangay-2.csv detailed WKT","geometryMatchMethod":"unique_official_admin_names","boundaryPointCount":146},"geometry":{"type":"MultiPolygon","coordinates":[[[[122.804253,14.26275],[122.803551,14.26206],[122.803413,14.26261],[122.803268,14.2633],[122.803268,14.26453],[122.803131,14.26536],[122.803413,14.26536],[122.803688,14.26467],[122.803688,14.26412],[122.80397,14.26385],[122.804253,14.2633],[122.804253,14.26275]]],[[[122.806213,14.26614],[122.808006,14.26521],[122.8106,14.26467],[122.812958,14.26358],[122.81562,14.26251],[122.818497,14.26191],[122.819557,14.26033],[122.821312,14.25924],[122.826317,14.25851],[122.831772,14.25487],[122.83609,14.25265],[122.839447,14.24893],[122.843773,14.24764],[122.848686,14.24667],[122.84864,14.24537],[122.848602,14.24287],[122.848381,14.24009],[122.848534,14.23773],[122.848488,14.2355],[122.848251,14.2339],[122.848503,14.2229],[122.847481,14.22212],[122.845818,14.2211],[122.845131,14.22032],[122.843224,14.22155],[122.843224,14.22042],[122.84169,14.21974],[122.840729,14.2194],[122.839783,14.22109],[122.838692,14.22232],[122.838142,14.22063],[122.837608,14.22004],[122.836166,14.21982],[122.835403,14.22089],[122.83403,14.22236],[122.833061,14.2248],[122.831642,14.22616],[122.83049,14.22828],[122.828949,14.23096],[122.828362,14.23393],[122.828102,14.23717],[122.822227,14.23818],[122.819557,14.24422],[122.818253,14.24407],[122.817703,14.24418],[122.815521,14.24524],[122.814796,14.24585],[122.812447,14.24657],[122.81163,14.2487],[122.809967,14.25079],[122.808151,14.25263],[122.806084,14.25342],[122.805122,14.2545],[122.805191,14.25448],[122.805901,14.25408],[122.806747,14.25428],[122.807243,14.25456],[122.807869,14.25483],[122.808502,14.2549],[122.808922,14.2549],[122.809059,14.25517],[122.809059,14.25566],[122.80899,14.25627],[122.808922,14.25668],[122.808746,14.2567],[122.808327,14.25731],[122.808296,14.25812],[122.80851,14.25847],[122.808647,14.25895],[122.808647,14.25922],[122.808441,14.25929],[122.807663,14.25936],[122.807114,14.2595],[122.806541,14.2597],[122.80619,14.25943],[122.805977,14.25915],[122.805489,14.25915],[122.804863,14.25936],[122.804497,14.25991],[122.804077,14.261],[122.804222,14.26162],[122.804588,14.26187],[122.805222,14.26214],[122.805641,14.26248],[122.805847,14.26276],[122.806343,14.26283],[122.806763,14.26289],[122.806908,14.26303],[122.806839,14.26317],[122.806763,14.26344],[122.806908,14.26413],[122.806633,14.26468],[122.806633,14.26536],[122.806213,14.2655],[122.80571,14.26543],[122.804871,14.26543],[122.804718,14.26548],[122.806213,14.26614]]],[[[122.800453,14.25861],[122.800308,14.25861],[122.799797,14.25884],[122.799377,14.25904],[122.799026,14.25922],[122.798424,14.25937],[122.798439,14.25957],[122.799362,14.26207],[122.799843,14.26379],[122.800392,14.26561],[122.800774,14.2673],[122.800537,14.2691],[122.800667,14.26902],[122.800957,14.26882],[122.801224,14.2686],[122.801453,14.26838],[122.801613,14.26813],[122.801697,14.26784],[122.801804,14.26755],[122.801941,14.26724],[122.802063,14.26682],[122.802101,14.26668],[122.802223,14.26628],[122.802353,14.26563],[122.802727,14.2638],[122.802597,14.26312],[122.802673,14.26223],[122.802879,14.2614],[122.803299,14.26092],[122.803368,14.26003],[122.803017,14.25969],[122.802406,14.25899],[122.801849,14.25884],[122.801331,14.25867],[122.800812,14.25861],[122.800453,14.25861]]]]}},{"type":"Feature","properties":{"ID_0":177,"ISO":"PHL","NAME_0":"Philippines","ID_1":5016,"NAME_1":"Camarines Norte","ID_2":501608,"NAME_2":"Paracale","ID_3":501608018,"NAME_3":"Maybato","NL_NAME_3":null,"VARNAME_3":null,"TYPE_3":"Barangay","ENGTYPE_3":"Village","PROVINCE":"Camarines Norte","REGION":"Region V (Bicol Region)","id":"barangay-0501608018","name":"Maybato","barangayCode":"0501608018","population":null,"formattedPop":null,"densityCategory":"No data","vulnerabilityRating":"No data","healthRiskLevel":"No data","areaKm2":9.30651,"centerLat":14.215526,"centerLng":122.7448,"geometrySource":"all_barangay-2.csv detailed WKT","geometryMatchMethod":"unique_official_admin_names","boundaryPointCount":22},"geometry":{"type":"MultiPolygon","coordinates":[[[[122.757019,14.22821],[122.752502,14.22492],[122.751122,14.22398],[122.749718,14.22288],[122.749313,14.22029],[122.748032,14.21726],[122.746147,14.21522],[122.74456,14.2143],[122.742737,14.21311],[122.741127,14.21195],[122.738503,14.20993],[122.736908,14.20747],[122.733017,14.21725],[122.734367,14.21943],[122.73613,14.22161],[122.73777,14.22298],[122.740181,14.22507],[122.742249,14.22656],[122.744247,14.22819],[122.746277,14.2297],[122.751228,14.23416],[122.757019,14.22821]]]]}},{"type":"Feature","properties":{"ID_0":177,"ISO":"PHL","NAME_0":"Philippines","ID_1":5016,"NAME_1":"Camarines Norte","ID_2":501608,"NAME_2":"Paracale","ID_3":501608019,"NAME_3":"Palanas","NL_NAME_3":null,"VARNAME_3":null,"TYPE_3":"Barangay","ENGTYPE_3":"Village","PROVINCE":"Camarines Norte","REGION":"Region V (Bicol Region)","id":"barangay-0501608019","name":"Palanas","barangayCode":"0501608019","population":null,"formattedPop":null,"densityCategory":"No data","vulnerabilityRating":"No data","healthRiskLevel":"No data","areaKm2":0.401381,"centerLat":14.280915,"centerLng":122.792947,"geometrySource":"all_barangay-2.csv detailed WKT","geometryMatchMethod":"unique_official_admin_names","boundaryPointCount":38},"geometry":{"type":"MultiPolygon","coordinates":[[[[122.790672,14.28205],[122.790894,14.28179],[122.791237,14.28165],[122.791656,14.28179],[122.791939,14.28214],[122.792084,14.28296],[122.79229,14.28357],[122.792519,14.28327],[122.79287,14.28256],[122.792999,14.28174],[122.793137,14.28122],[122.792969,14.28108],[122.790131,14.276982],[122.789986,14.27701],[122.789848,14.277044],[122.789719,14.277085],[122.789589,14.277133],[122.789467,14.277188],[122.789337,14.277249],[122.789223,14.277317],[122.789101,14.277391],[122.788994,14.277471],[122.788887,14.277557],[122.78878,14.277649],[122.788681,14.277745],[122.788589,14.277847],[122.788506,14.277953],[122.788422,14.278064],[122.788345,14.27818],[122.788277,14.278298],[122.788216,14.278421],[122.788155,14.278546],[122.788109,14.278675],[122.788071,14.278779],[122.788712,14.27918],[122.789726,14.28003],[122.790497,14.28142],[122.790672,14.28205]]]]}},{"type":"Feature","properties":{"ID_0":177,"ISO":"PHL","NAME_0":"Philippines","ID_1":5016,"NAME_1":"Camarines Norte","ID_2":501608,"NAME_2":"Paracale","ID_3":501608020,"NAME_3":"Pinagbirayan Malaki","NL_NAME_3":null,"VARNAME_3":null,"TYPE_3":"Barangay","ENGTYPE_3":"Village","PROVINCE":"Camarines Norte","REGION":"Region V (Bicol Region)","id":"barangay-0501608020","name":"Pinagbirayan Malaki","barangayCode":"0501608020","population":null,"formattedPop":null,"densityCategory":"No data","vulnerabilityRating":"No data","healthRiskLevel":"No data","areaKm2":5.598123,"centerLat":14.241521,"centerLng":122.789139,"geometrySource":"all_barangay-2.csv detailed WKT","geometryMatchMethod":"unique_official_admin_names","boundaryPointCount":60},"geometry":{"type":"MultiPolygon","coordinates":[[[[122.795036,14.25155],[122.798576,14.25028],[122.800453,14.24794],[122.80101,14.24607],[122.802322,14.24498],[122.802803,14.24347],[122.804039,14.24184],[122.803787,14.23941],[122.803879,14.23761],[122.802551,14.23549],[122.802391,14.23245],[122.802483,14.2289],[122.8032,14.2273],[122.805077,14.22491],[122.80368,14.22256],[122.803123,14.22052],[122.803108,14.21881],[122.801323,14.21746],[122.798927,14.21776],[122.79705,14.21828],[122.795036,14.22005],[122.793159,14.22151],[122.79052,14.22169],[122.788132,14.22136],[122.786613,14.22041],[122.785103,14.21851],[122.783478,14.21755],[122.781212,14.21816],[122.779327,14.21898],[122.777451,14.22022],[122.774117,14.22046],[122.772057,14.22157],[122.774048,14.22309],[122.77504,14.22324],[122.776207,14.22326],[122.777199,14.22386],[122.777603,14.22475],[122.77755,14.22563],[122.778664,14.22701],[122.780884,14.22909],[122.781509,14.23183],[122.783684,14.23224],[122.78405,14.23626],[122.783287,14.24015],[122.782402,14.24329],[122.780884,14.24571],[122.779373,14.24802],[122.778419,14.24892],[122.777138,14.25017],[122.779228,14.24932],[122.780739,14.24896],[122.782806,14.24925],[122.785217,14.24964],[122.786636,14.24993],[122.788399,14.24994],[122.789612,14.25022],[122.791382,14.25042],[122.792824,14.25061],[122.793907,14.25097],[122.795036,14.25155]]]]}},{"type":"Feature","properties":{"ID_0":177,"ISO":"PHL","NAME_0":"Philippines","ID_1":5016,"NAME_1":"Camarines Norte","ID_2":501608,"NAME_2":"Paracale","ID_3":501608021,"NAME_3":"Pinagbirayan Munti","NL_NAME_3":null,"VARNAME_3":null,"TYPE_3":"Barangay","ENGTYPE_3":"Village","PROVINCE":"Camarines Norte","REGION":"Region V (Bicol Region)","id":"barangay-0501608021","name":"Pinagbirayan Munti","barangayCode":"0501608021","population":null,"formattedPop":null,"densityCategory":"No data","vulnerabilityRating":"No data","healthRiskLevel":"No data","areaKm2":3.33894,"centerLat":14.228728,"centerLng":122.769302,"geometrySource":"all_barangay-2.csv detailed WKT","geometryMatchMethod":"unique_official_admin_names","boundaryPointCount":26},"geometry":{"type":"MultiPolygon","coordinates":[[[[122.768692,14.23697],[122.770172,14.23625],[122.771278,14.23513],[122.772919,14.23465],[122.774117,14.23457],[122.776062,14.23385],[122.778084,14.23283],[122.779747,14.23211],[122.781509,14.23183],[122.780884,14.22909],[122.778664,14.22701],[122.77755,14.22563],[122.777603,14.22475],[122.777199,14.22386],[122.776207,14.22326],[122.77504,14.22324],[122.774048,14.22309],[122.772057,14.22157],[122.769417,14.22184],[122.7668,14.2224],[122.76458,14.22439],[122.757019,14.22821],[122.761726,14.23187],[122.764702,14.23268],[122.766922,14.23458],[122.768692,14.23697]]]]}},{"type":"Feature","properties":{"ID_0":177,"ISO":"PHL","NAME_0":"Philippines","ID_1":5016,"NAME_1":"Camarines Norte","ID_2":501608,"NAME_2":"Paracale","ID_3":501608022,"NAME_3":"Poblacion Norte","NL_NAME_3":null,"VARNAME_3":null,"TYPE_3":"Barangay","ENGTYPE_3":"Village","PROVINCE":"Camarines Norte","REGION":"Region V (Bicol Region)","id":"barangay-0501608022","name":"Poblacion Norte","barangayCode":"0501608022","population":null,"formattedPop":null,"densityCategory":"No data","vulnerabilityRating":"No data","healthRiskLevel":"No data","areaKm2":0.187013,"centerLat":14.281567,"centerLng":122.788655,"geometrySource":"all_barangay-2.csv detailed WKT","geometryMatchMethod":"unique_official_admin_names","boundaryPointCount":24},"geometry":{"type":"MultiPolygon","coordinates":[[[[122.786911,14.28499],[122.787086,14.28481],[122.787788,14.28412],[122.788422,14.28364],[122.788841,14.28344],[122.789902,14.28282],[122.790604,14.28214],[122.790672,14.28205],[122.790497,14.28142],[122.789726,14.28003],[122.788712,14.27918],[122.788071,14.278779],[122.787376,14.27834],[122.785873,14.27784],[122.783997,14.27755],[122.78289,14.278],[122.78228,14.27841],[122.781723,14.2792],[122.781189,14.28061],[122.781242,14.28132],[122.783943,14.28272],[122.78569,14.28368],[122.786697,14.28456],[122.786911,14.28499]]]]}},{"type":"Feature","properties":{"ID_0":177,"ISO":"PHL","NAME_0":"Philippines","ID_1":5016,"NAME_1":"Camarines Norte","ID_2":501608,"NAME_2":"Paracale","ID_3":501608023,"NAME_3":"Poblacion Sur","NL_NAME_3":null,"VARNAME_3":null,"TYPE_3":"Barangay","ENGTYPE_3":"Village","PROVINCE":"Camarines Norte","REGION":"Region V (Bicol Region)","id":"barangay-0501608023","name":"Poblacion Sur","barangayCode":"0501608023","population":null,"formattedPop":null,"densityCategory":"No data","vulnerabilityRating":"No data","healthRiskLevel":"No data","areaKm2":0.20114,"centerLat":14.278853,"centerLng":122.78568,"geometrySource":"all_barangay-2.csv detailed WKT","geometryMatchMethod":"unique_official_admin_names","boundaryPointCount":24},"geometry":{"type":"MultiPolygon","coordinates":[[[[122.784866,14.29015],[122.784843,14.28968],[122.785187,14.28845],[122.785606,14.28749],[122.785828,14.28666],[122.786247,14.2857],[122.786911,14.28499],[122.786697,14.28456],[122.78569,14.28368],[122.783943,14.28272],[122.781242,14.28132],[122.779999,14.28167],[122.778618,14.28202],[122.778152,14.28287],[122.777878,14.28363],[122.778152,14.28457],[122.777061,14.28455],[122.777893,14.28552],[122.779449,14.28633],[122.780197,14.2875],[122.781227,14.28941],[122.7827,14.29006],[122.784088,14.29025],[122.784866,14.29015]]]]}},{"type":"Feature","properties":{"ID_0":177,"ISO":"PHL","NAME_0":"Philippines","ID_1":5016,"NAME_1":"Camarines Norte","ID_2":501608,"NAME_2":"Paracale","ID_3":501608024,"NAME_3":"Tabas","NL_NAME_3":null,"VARNAME_3":null,"TYPE_3":"Barangay","ENGTYPE_3":"Village","PROVINCE":"Camarines Norte","REGION":"Region V (Bicol Region)","id":"barangay-0501608024","name":"Tabas","barangayCode":"0501608024","population":null,"formattedPop":null,"densityCategory":"No data","vulnerabilityRating":"No data","healthRiskLevel":"No data","areaKm2":5.377878,"centerLat":14.256971,"centerLng":122.839392,"geometrySource":"all_barangay-2.csv detailed WKT","geometryMatchMethod":"unique_official_admin_names","boundaryPointCount":22},"geometry":{"type":"MultiPolygon","coordinates":[[[[122.835732,14.26722],[122.836594,14.2671],[122.837357,14.26698],[122.838509,14.26668],[122.83976,14.26651],[122.841003,14.26635],[122.842247,14.26589],[122.842491,14.26466],[122.843147,14.2639],[122.844139,14.26455],[122.845367,14.26533],[122.848869,14.26431],[122.848846,14.25064],[122.848686,14.24667],[122.843773,14.24764],[122.839447,14.24893],[122.83609,14.25265],[122.831772,14.25487],[122.826317,14.25851],[122.828239,14.26341],[122.828819,14.26581],[122.835732,14.26722]]]]}},{"type":"Feature","properties":{"ID_0":177,"ISO":"PHL","NAME_0":"Philippines","ID_1":5016,"NAME_1":"Camarines Norte","ID_2":501608,"NAME_2":"Paracale","ID_3":501608025,"NAME_3":"Talusan","NL_NAME_3":null,"VARNAME_3":null,"TYPE_3":"Barangay","ENGTYPE_3":"Village","PROVINCE":"Camarines Norte","REGION":"Region V (Bicol Region)","id":"barangay-0501608025","name":"Talusan","barangayCode":"0501608025","population":null,"formattedPop":null,"densityCategory":"No data","vulnerabilityRating":"No data","healthRiskLevel":"No data","areaKm2":2.543686,"centerLat":14.246573,"centerLng":122.772733,"geometrySource":"all_barangay-2.csv detailed WKT","geometryMatchMethod":"unique_official_admin_names","boundaryPointCount":29},"geometry":{"type":"MultiPolygon","coordinates":[[[[122.777138,14.25017],[122.778419,14.24892],[122.779373,14.24802],[122.780884,14.24571],[122.782402,14.24329],[122.783287,14.24015],[122.78405,14.23626],[122.783684,14.23224],[122.781509,14.23183],[122.779747,14.23211],[122.778084,14.23283],[122.776062,14.23385],[122.774117,14.23457],[122.772919,14.23465],[122.771278,14.23513],[122.770172,14.23625],[122.768692,14.23697],[122.767693,14.23894],[122.765869,14.24067],[122.764511,14.24142],[122.762917,14.24178],[122.757469,14.24384],[122.761818,14.24533],[122.76519,14.2473],[122.767258,14.24935],[122.770203,14.2504],[122.772377,14.25097],[122.775017,14.251],[122.777138,14.25017]]]]}},{"type":"Feature","properties":{"ID_0":177,"ISO":"PHL","NAME_0":"Philippines","ID_1":5016,"NAME_1":"Camarines Norte","ID_2":501608,"NAME_2":"Paracale","ID_3":501608026,"NAME_3":"Tawig","NL_NAME_3":null,"VARNAME_3":null,"TYPE_3":"Barangay","ENGTYPE_3":"Village","PROVINCE":"Camarines Norte","REGION":"Region V (Bicol Region)","id":"barangay-0501608026","name":"Tawig","barangayCode":"0501608026","population":null,"formattedPop":null,"densityCategory":"No data","vulnerabilityRating":"No data","healthRiskLevel":"No data","areaKm2":9.993824,"centerLat":14.261122,"centerLng":122.754206,"geometrySource":"all_barangay-2.csv detailed WKT","geometryMatchMethod":"unique_official_admin_names","boundaryPointCount":47},"geometry":{"type":"MultiPolygon","coordinates":[[[[122.746651,14.27604],[122.747513,14.27639],[122.748657,14.27655],[122.750526,14.27655],[122.752632,14.27705],[122.755943,14.27749],[122.758171,14.27646],[122.760162,14.27588],[122.761787,14.27486],[122.763298,14.27278],[122.764427,14.27068],[122.765198,14.26877],[122.766602,14.26614],[122.76738,14.26412],[122.768532,14.26167],[122.768929,14.25997],[122.770302,14.25976],[122.771317,14.25754],[122.773216,14.25608],[122.774597,14.25608],[122.77562,14.25494],[122.776894,14.25379],[122.775742,14.25228],[122.777138,14.25017],[122.775017,14.251],[122.772377,14.25097],[122.770203,14.2504],[122.767258,14.24935],[122.76519,14.2473],[122.761818,14.24533],[122.757469,14.24384],[122.755836,14.24726],[122.753937,14.24872],[122.751427,14.25047],[122.748558,14.2514],[122.746178,14.25357],[122.744171,14.25448],[122.743851,14.25628],[122.743156,14.2579],[122.740799,14.25914],[122.738533,14.25994],[122.737267,14.26355],[122.736526,14.26752],[122.738853,14.27111],[122.741753,14.27351],[122.744102,14.27587],[122.746651,14.27604]]]]}},{"type":"Feature","properties":{"ID_0":177,"ISO":"PHL","NAME_0":"Philippines","ID_1":5016,"NAME_1":"Camarines Norte","ID_2":501608,"NAME_2":"Paracale","ID_3":501608027,"NAME_3":"Tugos","NL_NAME_3":null,"VARNAME_3":null,"TYPE_3":"Barangay","ENGTYPE_3":"Village","PROVINCE":"Camarines Norte","REGION":"Region V (Bicol Region)","id":"barangay-0501608027","name":"Tugos","barangayCode":"0501608027","population":null,"formattedPop":null,"densityCategory":"No data","vulnerabilityRating":"No data","healthRiskLevel":"No data","areaKm2":5.787457,"centerLat":14.267178,"centerLng":122.77871,"geometrySource":"all_barangay-2.csv detailed WKT","geometryMatchMethod":"unique_official_admin_names","boundaryPointCount":137},"geometry":{"type":"MultiPolygon","coordinates":[[[[122.770416,14.28374],[122.771347,14.28414],[122.772614,14.28429],[122.77375,14.2842],[122.774902,14.28404],[122.777061,14.28455],[122.778152,14.28457],[122.777878,14.28363],[122.778152,14.28287],[122.778618,14.28202],[122.779999,14.28167],[122.781242,14.28132],[122.781189,14.28061],[122.781723,14.2792],[122.78228,14.27841],[122.78289,14.278],[122.783997,14.27755],[122.785873,14.27784],[122.787376,14.27834],[122.788071,14.278779],[122.788109,14.278675],[122.788155,14.278546],[122.788216,14.278421],[122.788277,14.278298],[122.788345,14.27818],[122.788422,14.278064],[122.788506,14.277953],[122.788589,14.277847],[122.788681,14.277745],[122.78878,14.277649],[122.788887,14.277557],[122.788994,14.277471],[122.789101,14.277391],[122.789223,14.277317],[122.789337,14.277249],[122.789467,14.277188],[122.789589,14.277133],[122.789719,14.277085],[122.789848,14.277044],[122.789986,14.27701],[122.790131,14.276982],[122.788513,14.27465],[122.785332,14.27348],[122.785263,14.27149],[122.785469,14.26933],[122.786003,14.26769],[122.786507,14.26641],[122.787468,14.26349],[122.787903,14.26161],[122.789124,14.25923],[122.791351,14.25727],[122.792587,14.25574],[122.793503,14.25371],[122.794037,14.25292],[122.793739,14.25275],[122.792763,14.25261],[122.792198,14.25248],[122.791977,14.2522],[122.79142,14.25193],[122.790932,14.2522],[122.790443,14.25255],[122.79023,14.25303],[122.78981,14.25337],[122.789528,14.25385],[122.789108,14.25419],[122.78833,14.25426],[122.787697,14.25447],[122.786987,14.25453],[122.786507,14.25467],[122.786293,14.25515],[122.785942,14.2555],[122.785744,14.25536],[122.785454,14.25515],[122.784821,14.25529],[122.784264,14.25515],[122.78405,14.25474],[122.78405,14.25447],[122.784264,14.25419],[122.784821,14.25419],[122.785591,14.25378],[122.786087,14.25337],[122.786636,14.25268],[122.787209,14.25234],[122.787773,14.25241],[122.788261,14.25268],[122.788887,14.25234],[122.789528,14.25179],[122.789879,14.25145],[122.790443,14.25131],[122.790718,14.25083],[122.791702,14.25076],[122.792549,14.2509],[122.792969,14.25124],[122.79332,14.25138],[122.794022,14.25172],[122.794441,14.25213],[122.794548,14.25222],[122.795036,14.25155],[122.793907,14.25097],[122.792824,14.25061],[122.791382,14.25042],[122.789612,14.25022],[122.788399,14.24994],[122.786636,14.24993],[122.785217,14.24964],[122.782806,14.24925],[122.780739,14.24896],[122.779228,14.24932],[122.777138,14.25017],[122.775742,14.25228],[122.776894,14.25379],[122.77562,14.25494],[122.774597,14.25608],[122.773216,14.25608],[122.771317,14.25754],[122.770302,14.25976],[122.768929,14.25997],[122.768532,14.26167],[122.76738,14.26412],[122.766602,14.26614],[122.765198,14.26877],[122.764427,14.27068],[122.763298,14.27278],[122.761787,14.27486],[122.760162,14.27588],[122.758171,14.27646],[122.755943,14.27749],[122.757919,14.27768],[122.75927,14.2784],[122.761017,14.27913],[122.762093,14.27927],[122.763443,14.27941],[122.765198,14.27991],[122.766953,14.28064],[122.76844,14.28114],[122.769524,14.2822],[122.770416,14.28374]]]]}}]}
