{"type":"FeatureCollection","features":[{"type":"Feature","properties":{"ID_0":177,"ISO":"PHL","NAME_0":"Philippines","ID_1":10043,"NAME_1":"Misamis Oriental","ID_2":1004311,"NAME_2":"Jasaan","ID_3":1004311001,"NAME_3":"Aplaya","NL_NAME_3":null,"VARNAME_3":null,"TYPE_3":"Barangay","ENGTYPE_3":"Village","PROVINCE":"Misamis Oriental","REGION":"Region X (Northern Mindanao)","id":"barangay-1004311001","name":"Aplaya","barangayCode":"1004311001","population":null,"formattedPop":null,"densityCategory":"No data","vulnerabilityRating":"No data","healthRiskLevel":"No data","areaKm2":3.220232,"centerLat":8.606624,"centerLng":124.772476,"geometrySource":"all_barangay-2.csv detailed WKT","geometryMatchMethod":"unique_official_admin_names","boundaryPointCount":66},"geometry":{"type":"MultiPolygon","coordinates":[[[[124.760559,8.61584],[124.76078,8.61593],[124.760963,8.61598],[124.76107,8.61601],[124.762817,8.61612],[124.771637,8.61712],[124.781883,8.6179],[124.788719,8.61803],[124.792282,8.60934],[124.79409,8.6017],[124.789207,8.60181],[124.789047,8.60182],[124.785896,8.60189],[124.778267,8.60163],[124.777077,8.60077],[124.775673,8.59986],[124.775146,8.5992],[124.774651,8.59863],[124.773468,8.59801],[124.772499,8.59764],[124.772453,8.59763],[124.771851,8.59756],[124.770897,8.59749],[124.770157,8.59749],[124.769981,8.59752],[124.769157,8.59833],[124.769157,8.59861],[124.768333,8.59944],[124.767776,8.59944],[124.767502,8.59972],[124.76722,8.59972],[124.766937,8.6],[124.766388,8.6],[124.765831,8.60056],[124.765266,8.60056],[124.764717,8.60111],[124.764717,8.60222],[124.764442,8.6025],[124.764442,8.60278],[124.763611,8.60361],[124.763611,8.60417],[124.763344,8.60444],[124.763344,8.60528],[124.762497,8.60611],[124.762222,8.60611],[124.761108,8.60722],[124.761108,8.6075],[124.760559,8.60806],[124.760559,8.60861],[124.760277,8.60889],[124.760277,8.60944],[124.760559,8.60972],[124.760559,8.61028],[124.760803,8.61052],[124.760834,8.61056],[124.760834,8.61111],[124.760559,8.61139],[124.760559,8.61167],[124.760277,8.61194],[124.760277,8.61222],[124.760162,8.61234],[124.760002,8.6125],[124.760002,8.61472],[124.760277,8.615],[124.760277,8.61556],[124.760559,8.61584]]]]}},{"type":"Feature","properties":{"ID_0":177,"ISO":"PHL","NAME_0":"Philippines","ID_1":10043,"NAME_1":"Misamis Oriental","ID_2":1004311,"NAME_2":"Jasaan","ID_3":1004311002,"NAME_3":"Bobontugan","NL_NAME_3":null,"VARNAME_3":null,"TYPE_3":"Barangay","ENGTYPE_3":"Village","PROVINCE":"Misamis Oriental","REGION":"Region X (Northern Mindanao)","id":"barangay-1004311002","name":"Bobontugan","barangayCode":"1004311002","population":null,"formattedPop":null,"densityCategory":"No data","vulnerabilityRating":"No data","healthRiskLevel":"No data","areaKm2":1.50244,"centerLat":8.660392,"centerLng":124.747168,"geometrySource":"all_barangay-2.csv detailed WKT","geometryMatchMethod":"unique_official_admin_names","boundaryPointCount":46},"geometry":{"type":"MultiPolygon","coordinates":[[[[124.750633,8.66131],[124.750763,8.66043],[124.750908,8.65929],[124.750687,8.65813],[124.751442,8.65647],[124.749458,8.6564],[124.748161,8.65582],[124.747833,8.65504],[124.747612,8.6544],[124.747589,8.65433],[124.747429,8.65388],[124.747238,8.65372],[124.746887,8.65343],[124.745651,8.65233],[124.744392,8.65142],[124.743233,8.65083],[124.743019,8.65077],[124.742264,8.65054],[124.742012,8.65098],[124.742233,8.65153],[124.742287,8.65188],[124.741669,8.6523],[124.741524,8.65313],[124.741943,8.65389],[124.741943,8.65511],[124.741943,8.65833],[124.741669,8.65861],[124.741669,8.65917],[124.741386,8.65944],[124.741386,8.66],[124.741112,8.66028],[124.741112,8.66056],[124.740837,8.66083],[124.740837,8.66111],[124.740547,8.66139],[124.740547,8.66167],[124.74028,8.66194],[124.74028,8.66278],[124.739998,8.66306],[124.739998,8.66351],[124.740303,8.66342],[124.740913,8.66322],[124.741119,8.66316],[124.743439,8.66248],[124.74778,8.66213],[124.750633,8.66131]]]]}},{"type":"Feature","properties":{"ID_0":177,"ISO":"PHL","NAME_0":"Philippines","ID_1":10043,"NAME_1":"Misamis Oriental","ID_2":1004311,"NAME_2":"Jasaan","ID_3":1004311003,"NAME_3":"Corrales","NL_NAME_3":null,"VARNAME_3":null,"TYPE_3":"Barangay","ENGTYPE_3":"Village","PROVINCE":"Misamis Oriental","REGION":"Region X (Northern Mindanao)","id":"barangay-1004311003","name":"Corrales","barangayCode":"1004311003","population":null,"formattedPop":null,"densityCategory":"No data","vulnerabilityRating":"No data","healthRiskLevel":"No data","areaKm2":5.137245,"centerLat":8.610515,"centerLng":124.797479,"geometrySource":"all_barangay-2.csv detailed WKT","geometryMatchMethod":"unique_official_admin_names","boundaryPointCount":16},"geometry":{"type":"MultiPolygon","coordinates":[[[[124.788719,8.61803],[124.797783,8.61807],[124.802063,8.61781],[124.805161,8.61696],[124.813026,8.61606],[124.819473,8.61608],[124.82505,8.60681],[124.825302,8.60637],[124.825783,8.60579],[124.827202,8.60205],[124.797836,8.60182],[124.796051,8.60176],[124.795883,8.60176],[124.79409,8.6017],[124.792282,8.60934],[124.788719,8.61803]]]]}},{"type":"Feature","properties":{"ID_0":177,"ISO":"PHL","NAME_0":"Philippines","ID_1":10043,"NAME_1":"Misamis Oriental","ID_2":1004311,"NAME_2":"Jasaan","ID_3":1004311004,"NAME_3":"Danao","NL_NAME_3":null,"VARNAME_3":null,"TYPE_3":"Barangay","ENGTYPE_3":"Village","PROVINCE":"Misamis Oriental","REGION":"Region X (Northern Mindanao)","id":"barangay-1004311004","name":"Danao","barangayCode":"1004311004","population":null,"formattedPop":null,"densityCategory":"No data","vulnerabilityRating":"No data","healthRiskLevel":"No data","areaKm2":2.848546,"centerLat":8.700801,"centerLng":124.754895,"geometrySource":"all_barangay-2.csv detailed WKT","geometryMatchMethod":"unique_official_admin_names","boundaryPointCount":31},"geometry":{"type":"MultiPolygon","coordinates":[[[[124.771378,8.69878],[124.778763,8.69019],[124.764778,8.69203],[124.759811,8.69201],[124.754204,8.69217],[124.750687,8.69161],[124.747467,8.69224],[124.747627,8.69324],[124.74752,8.6946],[124.746986,8.69458],[124.746223,8.69468],[124.745857,8.69473],[124.744583,8.69478],[124.742973,8.69486],[124.74292,8.69483],[124.741821,8.695],[124.741364,8.69525],[124.741386,8.69528],[124.741386,8.69583],[124.742233,8.69667],[124.742233,8.69694],[124.743057,8.69778],[124.743057,8.69833],[124.743332,8.69861],[124.743332,8.69917],[124.743393,8.69923],[124.743607,8.69944],[124.743607,8.69972],[124.74382,8.69993],[124.748039,8.69881],[124.771378,8.69878]]]]}},{"type":"Feature","properties":{"ID_0":177,"ISO":"PHL","NAME_0":"Philippines","ID_1":10043,"NAME_1":"Misamis Oriental","ID_2":1004311,"NAME_2":"Jasaan","ID_3":1004311005,"NAME_3":"Jampason","NL_NAME_3":null,"VARNAME_3":null,"TYPE_3":"Barangay","ENGTYPE_3":"Village","PROVINCE":"Misamis Oriental","REGION":"Region X (Northern Mindanao)","id":"barangay-1004311005","name":"Jampason","barangayCode":"1004311005","population":null,"formattedPop":null,"densityCategory":"No data","vulnerabilityRating":"No data","healthRiskLevel":"No data","areaKm2":2.230149,"centerLat":8.674517,"centerLng":124.745353,"geometrySource":"all_barangay-2.csv detailed WKT","geometryMatchMethod":"unique_official_admin_names","boundaryPointCount":63},"geometry":{"type":"MultiPolygon","coordinates":[[[[124.756554,8.67487],[124.755707,8.67332],[124.754936,8.67127],[124.753807,8.66819],[124.753197,8.66697],[124.752197,8.66491],[124.75148,8.66325],[124.751389,8.66305],[124.750633,8.66131],[124.74778,8.66213],[124.743439,8.66248],[124.741119,8.66316],[124.740913,8.66322],[124.740303,8.66342],[124.739998,8.66351],[124.739998,8.66389],[124.74028,8.66417],[124.74028,8.66611],[124.739998,8.66639],[124.739998,8.66778],[124.739723,8.66806],[124.739723,8.66861],[124.739594,8.66966],[124.739166,8.67056],[124.738892,8.67167],[124.738892,8.67222],[124.738609,8.6725],[124.738892,8.67472],[124.738892,8.67667],[124.739166,8.67694],[124.739166,8.67806],[124.739441,8.67833],[124.739723,8.67832],[124.740372,8.67832],[124.740761,8.67834],[124.742073,8.6788],[124.74221,8.67885],[124.742287,8.67899],[124.742401,8.67917],[124.74276,8.67938],[124.743156,8.67963],[124.743507,8.67968],[124.743668,8.67971],[124.744087,8.67935],[124.744148,8.67925],[124.744186,8.67919],[124.744888,8.67836],[124.745758,8.67789],[124.74617,8.67763],[124.746643,8.67739],[124.746849,8.67729],[124.747467,8.67727],[124.748154,8.67651],[124.748558,8.67632],[124.749474,8.67638],[124.750298,8.67692],[124.751198,8.67709],[124.751541,8.67678],[124.752052,8.67658],[124.752724,8.6763],[124.753761,8.6761],[124.754807,8.67542],[124.756554,8.67487]]]]}},{"type":"Feature","properties":{"ID_0":177,"ISO":"PHL","NAME_0":"Philippines","ID_1":10043,"NAME_1":"Misamis Oriental","ID_2":1004311,"NAME_2":"Jasaan","ID_3":1004311006,"NAME_3":"Kimaya","NL_NAME_3":null,"VARNAME_3":null,"TYPE_3":"Barangay","ENGTYPE_3":"Village","PROVINCE":"Misamis Oriental","REGION":"Region X (Northern Mindanao)","id":"barangay-1004311006","name":"Kimaya","barangayCode":"1004311006","population":null,"formattedPop":null,"densityCategory":"No data","vulnerabilityRating":"No data","healthRiskLevel":"No data","areaKm2":1.779909,"centerLat":8.648678,"centerLng":124.765066,"geometrySource":"all_barangay-2.csv detailed WKT","geometryMatchMethod":"unique_official_admin_names","boundaryPointCount":31},"geometry":{"type":"MultiPolygon","coordinates":[[[[124.759048,8.65511],[124.759277,8.65517],[124.760483,8.65457],[124.762772,8.65163],[124.764748,8.6475],[124.767357,8.64352],[124.762497,8.63954],[124.762497,8.64056],[124.762222,8.64083],[124.762222,8.64111],[124.761948,8.64139],[124.761948,8.64167],[124.761391,8.64222],[124.761391,8.6425],[124.760002,8.64389],[124.75972,8.64389],[124.759453,8.64417],[124.759163,8.64417],[124.758614,8.64472],[124.758331,8.64472],[124.757767,8.64528],[124.757767,8.64556],[124.75663,8.6467],[124.756248,8.64735],[124.75621,8.6474],[124.756813,8.64826],[124.757217,8.64876],[124.757553,8.64964],[124.757988,8.65133],[124.758461,8.65274],[124.759048,8.65511]]]]}},{"type":"Feature","properties":{"ID_0":177,"ISO":"PHL","NAME_0":"Philippines","ID_1":10043,"NAME_1":"Misamis Oriental","ID_2":1004311,"NAME_2":"Jasaan","ID_3":1004311007,"NAME_3":"Lower Jasaan","NL_NAME_3":null,"VARNAME_3":null,"TYPE_3":"Barangay","ENGTYPE_3":"Village","PROVINCE":"Misamis Oriental","REGION":"Region X (Northern Mindanao)","id":"barangay-1004311007","name":"Lower Jasaan","barangayCode":"1004311007","population":null,"formattedPop":null,"densityCategory":"No data","vulnerabilityRating":"No data","healthRiskLevel":"No data","areaKm2":1.36508,"centerLat":8.650878,"centerLng":124.74908,"geometrySource":"all_barangay-2.csv detailed WKT","geometryMatchMethod":"unique_official_admin_names","boundaryPointCount":80},"geometry":{"type":"MultiPolygon","coordinates":[[[[124.753029,8.65627],[124.753227,8.6535],[124.753273,8.64931],[124.753471,8.64698],[124.753166,8.6468],[124.752777,8.64674],[124.752563,8.6466],[124.752434,8.64625],[124.752296,8.64559],[124.75206,8.64528],[124.751999,8.64522],[124.752007,8.64466],[124.751938,8.64404],[124.751587,8.64411],[124.751312,8.64445],[124.750816,8.64473],[124.750557,8.645],[124.750557,8.64583],[124.750519,8.64587],[124.75,8.64639],[124.749443,8.64583],[124.749443,8.64556],[124.749733,8.64528],[124.749733,8.645],[124.75,8.64472],[124.75,8.64444],[124.750267,8.64418],[124.750267,8.64411],[124.750267,8.64389],[124.749168,8.64278],[124.748894,8.64278],[124.748611,8.6425],[124.748337,8.6425],[124.748047,8.64222],[124.747887,8.64222],[124.74778,8.64222],[124.747269,8.64274],[124.746948,8.64306],[124.746948,8.64333],[124.745827,8.64444],[124.745697,8.64444],[124.745552,8.64444],[124.74472,8.64528],[124.744743,8.64557],[124.744453,8.64583],[124.744453,8.64589],[124.744453,8.64639],[124.744164,8.64667],[124.744164,8.64722],[124.743889,8.6475],[124.744171,8.64814],[124.744797,8.64841],[124.745354,8.64841],[124.745911,8.6482],[124.746246,8.64848],[124.746597,8.64945],[124.746597,8.65112],[124.746117,8.65146],[124.745354,8.6516],[124.745071,8.65112],[124.744583,8.65049],[124.743683,8.65022],[124.742989,8.65022],[124.742363,8.65035],[124.742264,8.65054],[124.743019,8.65077],[124.743233,8.65083],[124.744392,8.65142],[124.745651,8.65233],[124.746887,8.65343],[124.747238,8.65372],[124.747429,8.65388],[124.747589,8.65433],[124.747612,8.6544],[124.747833,8.65504],[124.748161,8.65582],[124.749458,8.6564],[124.751442,8.65647],[124.752487,8.65611],[124.753029,8.65627]]]]}},{"type":"Feature","properties":{"ID_0":177,"ISO":"PHL","NAME_0":"Philippines","ID_1":10043,"NAME_1":"Misamis Oriental","ID_2":1004311,"NAME_2":"Jasaan","ID_3":1004311008,"NAME_3":"Luz Banzon","NL_NAME_3":null,"VARNAME_3":null,"TYPE_3":"Barangay","ENGTYPE_3":"Village","PROVINCE":"Misamis Oriental","REGION":"Region X (Northern Mindanao)","id":"barangay-1004311008","name":"Luz Banzon","barangayCode":"1004311008","population":null,"formattedPop":null,"densityCategory":"No data","vulnerabilityRating":"No data","healthRiskLevel":"No data","areaKm2":6.715471,"centerLat":8.640362,"centerLng":124.783333,"geometrySource":"all_barangay-2.csv detailed WKT","geometryMatchMethod":"unique_official_admin_names","boundaryPointCount":49},"geometry":{"type":"MultiPolygon","coordinates":[[[[124.802841,8.64168],[124.806122,8.63657],[124.812119,8.62826],[124.807999,8.62841],[124.804268,8.62867],[124.79924,8.62827],[124.795242,8.62813],[124.791367,8.62846],[124.787628,8.62866],[124.784019,8.62903],[124.779877,8.629],[124.775291,8.62955],[124.772758,8.62986],[124.770714,8.62987],[124.770248,8.62965],[124.769562,8.62933],[124.768333,8.62906],[124.766373,8.6287],[124.763947,8.6283],[124.762749,8.62819],[124.762177,8.62811],[124.761581,8.62803],[124.761108,8.62866],[124.760788,8.62898],[124.760002,8.62977],[124.760002,8.6306],[124.760521,8.63215],[124.760559,8.63226],[124.760277,8.63337],[124.760277,8.63417],[124.760834,8.63472],[124.760834,8.635],[124.760002,8.63583],[124.760002,8.63639],[124.760834,8.63722],[124.761391,8.63722],[124.762497,8.63833],[124.762497,8.63874],[124.762497,8.63954],[124.767357,8.64352],[124.768433,8.64284],[124.769386,8.6423],[124.771111,8.64176],[124.773132,8.64166],[124.776039,8.64138],[124.782318,8.64143],[124.792328,8.6416],[124.799667,8.64173],[124.802841,8.64168]]]]}},{"type":"Feature","properties":{"ID_0":177,"ISO":"PHL","NAME_0":"Philippines","ID_1":10043,"NAME_1":"Misamis Oriental","ID_2":1004311,"NAME_2":"Jasaan","ID_3":1004311009,"NAME_3":"Natubo","NL_NAME_3":null,"VARNAME_3":null,"TYPE_3":"Barangay","ENGTYPE_3":"Village","PROVINCE":"Misamis Oriental","REGION":"Region X (Northern Mindanao)","id":"barangay-1004311009","name":"Natubo","barangayCode":"1004311009","population":null,"formattedPop":null,"densityCategory":"No data","vulnerabilityRating":"No data","healthRiskLevel":"No data","areaKm2":12.012699,"centerLat":8.664581,"centerLng":124.784823,"geometrySource":"all_barangay-2.csv detailed WKT","geometryMatchMethod":"unique_official_admin_names","boundaryPointCount":45},"geometry":{"type":"MultiPolygon","coordinates":[[[[124.802231,8.66843],[124.802307,8.65577],[124.802841,8.64168],[124.799667,8.64173],[124.792328,8.6416],[124.782318,8.64143],[124.776039,8.64138],[124.773132,8.64166],[124.771111,8.64176],[124.769386,8.6423],[124.768433,8.64284],[124.767357,8.64352],[124.764748,8.6475],[124.762772,8.65163],[124.760483,8.65457],[124.761597,8.65502],[124.762466,8.65647],[124.763206,8.65753],[124.764641,8.65905],[124.765808,8.66054],[124.767441,8.66228],[124.770088,8.66526],[124.772614,8.66788],[124.772743,8.67036],[124.773262,8.67168],[124.774651,8.675],[124.775978,8.67615],[124.778732,8.67831],[124.781097,8.67979],[124.782562,8.6806],[124.783791,8.68122],[124.784973,8.68148],[124.785912,8.68168],[124.786453,8.68222],[124.78804,8.68258],[124.788963,8.68252],[124.790314,8.68259],[124.791183,8.68272],[124.792801,8.68272],[124.794357,8.68228],[124.795761,8.68137],[124.79837,8.67931],[124.799858,8.68012],[124.80088,8.6838],[124.802231,8.66843]]]]}},{"type":"Feature","properties":{"ID_0":177,"ISO":"PHL","NAME_0":"Philippines","ID_1":10043,"NAME_1":"Misamis Oriental","ID_2":1004311,"NAME_2":"Jasaan","ID_3":1004311010,"NAME_3":"San Antonio","NL_NAME_3":null,"VARNAME_3":null,"TYPE_3":"Barangay","ENGTYPE_3":"Village","PROVINCE":"Misamis Oriental","REGION":"Region X (Northern Mindanao)","id":"barangay-1004311010","name":"San Antonio","barangayCode":"1004311010","population":null,"formattedPop":null,"densityCategory":"No data","vulnerabilityRating":"No data","healthRiskLevel":"No data","areaKm2":3.852375,"centerLat":8.68927,"centerLng":124.75258,"geometrySource":"all_barangay-2.csv detailed WKT","geometryMatchMethod":"unique_official_admin_names","boundaryPointCount":72},"geometry":{"type":"MultiPolygon","coordinates":[[[[124.764778,8.69203],[124.762367,8.68837],[124.759956,8.68501],[124.757889,8.68223],[124.757874,8.68106],[124.757133,8.67798],[124.756554,8.67487],[124.754807,8.67542],[124.753761,8.6761],[124.752724,8.6763],[124.752052,8.67658],[124.751541,8.67678],[124.751198,8.67709],[124.750298,8.67692],[124.749474,8.67638],[124.748558,8.67632],[124.748154,8.67651],[124.747467,8.67727],[124.746849,8.67729],[124.746643,8.67739],[124.74617,8.67763],[124.745758,8.67789],[124.744888,8.67836],[124.744186,8.67919],[124.744148,8.67925],[124.744087,8.67935],[124.743668,8.67971],[124.743507,8.67968],[124.743156,8.67963],[124.74276,8.67938],[124.742401,8.67917],[124.742287,8.67899],[124.74221,8.67885],[124.742073,8.6788],[124.740761,8.67834],[124.740372,8.67832],[124.739723,8.67832],[124.739441,8.67833],[124.739441,8.67889],[124.739723,8.67917],[124.739723,8.68139],[124.739998,8.68167],[124.739998,8.6825],[124.74028,8.68278],[124.74028,8.68472],[124.740547,8.685],[124.740547,8.68583],[124.74028,8.68611],[124.74028,8.68917],[124.740242,8.69004],[124.740242,8.69108],[124.74028,8.6925],[124.74028,8.69333],[124.740837,8.69389],[124.740837,8.69417],[124.741112,8.69444],[124.741112,8.695],[124.741364,8.69525],[124.741821,8.695],[124.74292,8.69483],[124.742973,8.69486],[124.744583,8.69478],[124.745857,8.69473],[124.746223,8.69468],[124.746986,8.69458],[124.74752,8.6946],[124.747627,8.69324],[124.747467,8.69224],[124.750687,8.69161],[124.754204,8.69217],[124.759811,8.69201],[124.764778,8.69203]]]]}},{"type":"Feature","properties":{"ID_0":177,"ISO":"PHL","NAME_0":"Philippines","ID_1":10043,"NAME_1":"Misamis Oriental","ID_2":1004311,"NAME_2":"Jasaan","ID_3":1004311011,"NAME_3":"San Isidro","NL_NAME_3":null,"VARNAME_3":null,"TYPE_3":"Barangay","ENGTYPE_3":"Village","PROVINCE":"Misamis Oriental","REGION":"Region X (Northern Mindanao)","id":"barangay-1004311011","name":"San Isidro","barangayCode":"1004311011","population":null,"formattedPop":null,"densityCategory":"No data","vulnerabilityRating":"No data","healthRiskLevel":"No data","areaKm2":5.6241,"centerLat":8.624088,"centerLng":124.79415,"geometrySource":"all_barangay-2.csv detailed WKT","geometryMatchMethod":"unique_official_admin_names","boundaryPointCount":20},"geometry":{"type":"MultiPolygon","coordinates":[[[[124.812119,8.62826],[124.814194,8.62482],[124.819473,8.61608],[124.813026,8.61606],[124.805161,8.61696],[124.802063,8.61781],[124.797783,8.61807],[124.788719,8.61803],[124.787483,8.62027],[124.786568,8.62244],[124.785721,8.62487],[124.786667,8.62663],[124.7873,8.62796],[124.787628,8.62866],[124.791367,8.62846],[124.795242,8.62813],[124.79924,8.62827],[124.804268,8.62867],[124.807999,8.62841],[124.812119,8.62826]]]]}},{"type":"Feature","properties":{"ID_0":177,"ISO":"PHL","NAME_0":"Philippines","ID_1":10043,"NAME_1":"Misamis Oriental","ID_2":1004311,"NAME_2":"Jasaan","ID_3":1004311012,"NAME_3":"San Nicolas","NL_NAME_3":null,"VARNAME_3":null,"TYPE_3":"Barangay","ENGTYPE_3":"Village","PROVINCE":"Misamis Oriental","REGION":"Region X (Northern Mindanao)","id":"barangay-1004311012","name":"San Nicolas","barangayCode":"1004311012","population":null,"formattedPop":null,"densityCategory":"No data","vulnerabilityRating":"No data","healthRiskLevel":"No data","areaKm2":3.361757,"centerLat":8.675247,"centerLng":124.759726,"geometrySource":"all_barangay-2.csv detailed WKT","geometryMatchMethod":"unique_official_admin_names","boundaryPointCount":64},"geometry":{"type":"MultiPolygon","coordinates":[[[[124.778763,8.69019],[124.787323,8.68985],[124.801239,8.689],[124.801521,8.6853],[124.80088,8.6838],[124.799858,8.68012],[124.79837,8.67931],[124.795761,8.68137],[124.794357,8.68228],[124.792801,8.68272],[124.791183,8.68272],[124.790314,8.68259],[124.788963,8.68252],[124.78804,8.68258],[124.786453,8.68222],[124.785912,8.68168],[124.784973,8.68148],[124.783791,8.68122],[124.782562,8.6806],[124.781097,8.67979],[124.778732,8.67831],[124.775978,8.67615],[124.774651,8.675],[124.773262,8.67168],[124.772743,8.67036],[124.772614,8.66788],[124.770088,8.66526],[124.767441,8.66228],[124.765808,8.66054],[124.764641,8.65905],[124.763206,8.65753],[124.762466,8.65647],[124.761597,8.65502],[124.760483,8.65457],[124.759277,8.65517],[124.759048,8.65511],[124.757896,8.65584],[124.756844,8.65645],[124.755074,8.65739],[124.75412,8.65752],[124.753807,8.657],[124.753632,8.65701],[124.753029,8.65627],[124.752487,8.65611],[124.751442,8.65647],[124.750687,8.65813],[124.750908,8.65929],[124.750763,8.66043],[124.750633,8.66131],[124.751389,8.66305],[124.75148,8.66325],[124.752197,8.66491],[124.753197,8.66697],[124.753807,8.66819],[124.754936,8.67127],[124.755707,8.67332],[124.756554,8.67487],[124.757133,8.67798],[124.757874,8.68106],[124.757889,8.68223],[124.759956,8.68501],[124.762367,8.68837],[124.764778,8.69203],[124.778763,8.69019]]]]}},{"type":"Feature","properties":{"ID_0":177,"ISO":"PHL","NAME_0":"Philippines","ID_1":10043,"NAME_1":"Misamis Oriental","ID_2":1004311,"NAME_2":"Jasaan","ID_3":1004311013,"NAME_3":"Solana","NL_NAME_3":null,"VARNAME_3":null,"TYPE_3":"Barangay","ENGTYPE_3":"Village","PROVINCE":"Misamis Oriental","REGION":"Region X (Northern Mindanao)","id":"barangay-1004311013","name":"Solana","barangayCode":"1004311013","population":null,"formattedPop":null,"densityCategory":"No data","vulnerabilityRating":"No data","healthRiskLevel":"No data","areaKm2":4.420689,"centerLat":8.62375,"centerLng":124.770171,"geometrySource":"all_barangay-2.csv detailed WKT","geometryMatchMethod":"unique_official_admin_names","boundaryPointCount":46},"geometry":{"type":"MultiPolygon","coordinates":[[[[124.787628,8.62866],[124.7873,8.62796],[124.786667,8.62663],[124.785721,8.62487],[124.786568,8.62244],[124.787483,8.62027],[124.788719,8.61803],[124.781883,8.6179],[124.771637,8.61712],[124.762817,8.61612],[124.76107,8.61601],[124.760963,8.61598],[124.76078,8.61593],[124.760559,8.61584],[124.760559,8.61639],[124.760834,8.61667],[124.760834,8.61778],[124.761108,8.61806],[124.761108,8.61861],[124.761391,8.61889],[124.761391,8.61893],[124.761391,8.62056],[124.761673,8.62083],[124.761673,8.62139],[124.761948,8.62167],[124.761948,8.6225],[124.762222,8.62278],[124.762222,8.62444],[124.76223,8.6245],[124.762497,8.62588],[124.762497,8.62672],[124.761948,8.62755],[124.761581,8.62803],[124.762177,8.62811],[124.762749,8.62819],[124.763947,8.6283],[124.766373,8.6287],[124.768333,8.62906],[124.769562,8.62933],[124.770248,8.62965],[124.770714,8.62987],[124.772758,8.62986],[124.775291,8.62955],[124.779877,8.629],[124.784019,8.62903],[124.787628,8.62866]]]]}},{"type":"Feature","properties":{"ID_0":177,"ISO":"PHL","NAME_0":"Philippines","ID_1":10043,"NAME_1":"Misamis Oriental","ID_2":1004311,"NAME_2":"Jasaan","ID_3":1004311014,"NAME_3":"Upper Jasaan","NL_NAME_3":null,"VARNAME_3":null,"TYPE_3":"Barangay","ENGTYPE_3":"Village","PROVINCE":"Misamis Oriental","REGION":"Region X (Northern Mindanao)","id":"barangay-1004311014","name":"Upper Jasaan","barangayCode":"1004311014","population":null,"formattedPop":null,"densityCategory":"No data","vulnerabilityRating":"No data","healthRiskLevel":"No data","areaKm2":2.36747,"centerLat":8.660049,"centerLng":124.759882,"geometrySource":"all_barangay-2.csv detailed WKT","geometryMatchMethod":"unique_official_admin_names","boundaryPointCount":27},"geometry":{"type":"MultiPolygon","coordinates":[[[[124.759048,8.65511],[124.758461,8.65274],[124.757988,8.65133],[124.757553,8.64964],[124.757217,8.64876],[124.756813,8.64826],[124.75621,8.6474],[124.755547,8.64819],[124.755142,8.64819],[124.75486,8.64806],[124.754471,8.64741],[124.75444,8.64736],[124.754173,8.64709],[124.754028,8.64681],[124.753677,8.64688],[124.753166,8.6468],[124.753471,8.64698],[124.753273,8.64931],[124.753227,8.6535],[124.753029,8.65627],[124.753632,8.65701],[124.753807,8.657],[124.75412,8.65752],[124.755074,8.65739],[124.756844,8.65645],[124.757896,8.65584],[124.759048,8.65511]]]]}},{"type":"Feature","properties":{"ID_0":177,"ISO":"PHL","NAME_0":"Philippines","ID_1":10043,"NAME_1":"Misamis Oriental","ID_2":1004311,"NAME_2":"Jasaan","ID_3":1004311015,"NAME_3":"I. S. Cruz","NL_NAME_3":null,"VARNAME_3":null,"TYPE_3":"Barangay","ENGTYPE_3":"Village","PROVINCE":"Misamis Oriental","REGION":"Region X (Northern Mindanao)","id":"barangay-1004311015","name":"I. S. Cruz","barangayCode":"1004311015","population":null,"formattedPop":null,"densityCategory":"No data","vulnerabilityRating":"No data","healthRiskLevel":"No data","areaKm2":8.3917,"centerLat":8.689904,"centerLng":124.779907,"geometrySource":"all_barangay-2.csv detailed WKT","geometryMatchMethod":"unique_official_admin_names","boundaryPointCount":8},"geometry":{"type":"MultiPolygon","coordinates":[[[[124.792107,8.69902],[124.800087,8.69897],[124.801239,8.689],[124.787323,8.68985],[124.778763,8.69019],[124.771378,8.69878],[124.781616,8.69879],[124.792107,8.69902]]]]}}]}
