{"type":"FeatureCollection","features":[{"type":"Feature","properties":{"ID_0":177,"ISO":"PHL","NAME_0":"Philippines","ID_1":9072,"NAME_1":"Zamboanga del Norte","ID_2":907225,"NAME_2":"Godod","ID_3":907225001,"NAME_3":"Baluno","NL_NAME_3":null,"VARNAME_3":null,"TYPE_3":"Barangay","ENGTYPE_3":"Village","PROVINCE":"Zamboanga del Norte","REGION":"Region IX (Zamboanga Peninsula)","id":"barangay-0907225001","name":"Baluno","barangayCode":"0907225001","population":null,"formattedPop":null,"densityCategory":"No data","vulnerabilityRating":"No data","healthRiskLevel":"No data","areaKm2":18.732278,"centerLat":8.040512,"centerLng":122.855365,"geometrySource":"all_barangay-2.csv detailed WKT","geometryMatchMethod":"unique_official_admin_names","boundaryPointCount":17},"geometry":{"type":"MultiPolygon","coordinates":[[[[122.869949,8.03477],[122.872253,8.03082],[122.873367,8.02833],[122.873528,8.02721],[122.873596,8.0239],[122.87307,8.02088],[122.870872,8.01721],[122.873573,8.01291],[122.874207,8.01007],[122.877792,8.00719],[122.880287,8.00378],[122.877647,8.00133],[122.87986,7.99926],[122.832314,7.99609],[122.829323,8.03395],[122.839157,8.0341],[122.869949,8.03477]]]]}},{"type":"Feature","properties":{"ID_0":177,"ISO":"PHL","NAME_0":"Philippines","ID_1":9072,"NAME_1":"Zamboanga del Norte","ID_2":907225,"NAME_2":"Godod","ID_3":907225002,"NAME_3":"Banuangan","NL_NAME_3":null,"VARNAME_3":null,"TYPE_3":"Barangay","ENGTYPE_3":"Village","PROVINCE":"Zamboanga del Norte","REGION":"Region IX (Zamboanga Peninsula)","id":"barangay-0907225002","name":"Banuangan","barangayCode":"0907225002","population":null,"formattedPop":null,"densityCategory":"No data","vulnerabilityRating":"No data","healthRiskLevel":"No data","areaKm2":15.591519,"centerLat":7.972377,"centerLng":122.764713,"geometrySource":"all_barangay-2.csv detailed WKT","geometryMatchMethod":"unique_official_admin_names","boundaryPointCount":28},"geometry":{"type":"MultiPolygon","coordinates":[[[[122.779793,7.96658],[122.779671,7.96519],[122.780312,7.96255],[122.778587,7.95856],[122.779694,7.95717],[122.780746,7.95485],[122.780533,7.9536],[122.777893,7.95284],[122.774872,7.9511],[122.773987,7.94876],[122.772652,7.94672],[122.772797,7.94317],[122.77282,7.94256],[122.768509,7.94255],[122.76799,7.94255],[122.767639,7.94255],[122.766518,7.94255],[122.753273,7.9434],[122.73838,7.94131],[122.730164,7.94032],[122.730026,7.9403],[122.722092,7.93934],[122.718468,7.96112],[122.717957,7.96271],[122.754379,7.97687],[122.766724,7.97188],[122.76696,7.97179],[122.779793,7.96658]]]]}},{"type":"Feature","properties":{"ID_0":177,"ISO":"PHL","NAME_0":"Philippines","ID_1":9072,"NAME_1":"Zamboanga del Norte","ID_2":907225,"NAME_2":"Godod","ID_3":907225003,"NAME_3":"Bunawan","NL_NAME_3":null,"VARNAME_3":null,"TYPE_3":"Barangay","ENGTYPE_3":"Village","PROVINCE":"Zamboanga del Norte","REGION":"Region IX (Zamboanga Peninsula)","id":"barangay-0907225003","name":"Bunawan","barangayCode":"0907225003","population":null,"formattedPop":null,"densityCategory":"No data","vulnerabilityRating":"No data","healthRiskLevel":"No data","areaKm2":20.539409,"centerLat":7.9661,"centerLng":122.876804,"geometrySource":"all_barangay-2.csv detailed WKT","geometryMatchMethod":"unique_official_admin_names","boundaryPointCount":41},"geometry":{"type":"MultiPolygon","coordinates":[[[[122.88636,7.97298],[122.885513,7.97097],[122.888206,7.96776],[122.886711,7.96527],[122.885788,7.96174],[122.88707,7.95899],[122.886513,7.95457],[122.886574,7.94968],[122.889191,7.94584],[122.891838,7.94201],[122.890541,7.93828],[122.892097,7.93461],[122.889877,7.93058],[122.89045,7.92608],[122.891724,7.92255],[122.88166,7.92458],[122.871803,7.92572],[122.8647,7.92828],[122.857178,7.93098],[122.85833,7.93575],[122.860718,7.94088],[122.860931,7.94636],[122.864258,7.94966],[122.864967,7.95295],[122.866676,7.95631],[122.863907,7.95629],[122.864548,7.95856],[122.8657,7.96147],[122.862244,7.96322],[122.863541,7.96594],[122.86541,7.96633],[122.866798,7.96774],[122.867249,7.9656],[122.869583,7.96543],[122.870407,7.96832],[122.871651,7.97268],[122.874023,7.97301],[122.874367,7.97137],[122.876587,7.97128],[122.877327,7.97235],[122.88636,7.97298]]]]}},{"type":"Feature","properties":{"ID_0":177,"ISO":"PHL","NAME_0":"Philippines","ID_1":9072,"NAME_1":"Zamboanga del Norte","ID_2":907225,"NAME_2":"Godod","ID_3":907225004,"NAME_3":"Dilucot","NL_NAME_3":null,"VARNAME_3":null,"TYPE_3":"Barangay","ENGTYPE_3":"Village","PROVINCE":"Zamboanga del Norte","REGION":"Region IX (Zamboanga Peninsula)","id":"barangay-0907225004","name":"Dilucot","barangayCode":"0907225004","population":null,"formattedPop":null,"densityCategory":"No data","vulnerabilityRating":"No data","healthRiskLevel":"No data","areaKm2":17.679923,"centerLat":7.96543,"centerLng":122.843207,"geometrySource":"all_barangay-2.csv detailed WKT","geometryMatchMethod":"unique_official_admin_names","boundaryPointCount":36},"geometry":{"type":"MultiPolygon","coordinates":[[[[122.871651,7.97268],[122.870407,7.96832],[122.869583,7.96543],[122.867249,7.9656],[122.866798,7.96774],[122.86541,7.96633],[122.863541,7.96594],[122.862244,7.96322],[122.8657,7.96147],[122.864548,7.95856],[122.863907,7.95629],[122.866676,7.95631],[122.864967,7.95295],[122.864258,7.94966],[122.860931,7.94636],[122.860718,7.94088],[122.85833,7.93575],[122.857178,7.93098],[122.816422,7.93823],[122.815887,7.93832],[122.812752,7.93894],[122.809738,7.93953],[122.812149,7.94395],[122.812187,7.94403],[122.812767,7.94508],[122.815804,7.94667],[122.818207,7.94793],[122.822411,7.95142],[122.82283,7.95542],[122.827438,7.95665],[122.827766,7.95832],[122.83107,7.96167],[122.833481,7.9667],[122.834,7.96835],[122.83503,7.97162],[122.871651,7.97268]]]]}},{"type":"Feature","properties":{"ID_0":177,"ISO":"PHL","NAME_0":"Philippines","ID_1":9072,"NAME_1":"Zamboanga del Norte","ID_2":907225,"NAME_2":"Godod","ID_3":907225005,"NAME_3":"Dipopor","NL_NAME_3":null,"VARNAME_3":null,"TYPE_3":"Barangay","ENGTYPE_3":"Village","PROVINCE":"Zamboanga del Norte","REGION":"Region IX (Zamboanga Peninsula)","id":"barangay-0907225005","name":"Dipopor","barangayCode":"0907225005","population":null,"formattedPop":null,"densityCategory":"No data","vulnerabilityRating":"No data","healthRiskLevel":"No data","areaKm2":9.356167,"centerLat":8.005882,"centerLng":122.802741,"geometrySource":"all_barangay-2.csv detailed WKT","geometryMatchMethod":"unique_official_admin_names","boundaryPointCount":21},"geometry":{"type":"MultiPolygon","coordinates":[[[[122.807907,7.99272],[122.831047,7.99175],[122.830559,7.98654],[122.831833,7.98227],[122.833717,7.97732],[122.827827,7.97661],[122.821999,7.97707],[122.816978,7.97747],[122.81488,7.97692],[122.81266,7.97635],[122.805367,7.97414],[122.801376,7.9736],[122.801102,7.97356],[122.796623,7.97296],[122.79216,7.9774],[122.791054,7.97784],[122.788132,7.979],[122.785294,7.97962],[122.783852,7.98164],[122.789291,7.99692],[122.807907,7.99272]]]]}},{"type":"Feature","properties":{"ID_0":177,"ISO":"PHL","NAME_0":"Philippines","ID_1":9072,"NAME_1":"Zamboanga del Norte","ID_2":907225,"NAME_2":"Godod","ID_3":907225006,"NAME_3":"Guisapong","NL_NAME_3":null,"VARNAME_3":null,"TYPE_3":"Barangay","ENGTYPE_3":"Village","PROVINCE":"Zamboanga del Norte","REGION":"Region IX (Zamboanga Peninsula)","id":"barangay-0907225006","name":"Guisapong","barangayCode":"0907225006","population":null,"formattedPop":null,"densityCategory":"No data","vulnerabilityRating":"No data","healthRiskLevel":"No data","areaKm2":5.827623,"centerLat":8.04585,"centerLng":122.775723,"geometrySource":"all_barangay-2.csv detailed WKT","geometryMatchMethod":"unique_official_admin_names","boundaryPointCount":10},"geometry":{"type":"MultiPolygon","coordinates":[[[[122.769722,8.01415],[122.788979,8.01542],[122.789291,7.99692],[122.783852,7.98164],[122.782043,7.98351],[122.780769,7.98676],[122.77681,7.98805],[122.772797,7.98941],[122.771851,7.99152],[122.769722,8.01415]]]]}},{"type":"Feature","properties":{"ID_0":177,"ISO":"PHL","NAME_0":"Philippines","ID_1":9072,"NAME_1":"Zamboanga del Norte","ID_2":907225,"NAME_2":"Godod","ID_3":907225007,"NAME_3":"Limbonga","NL_NAME_3":null,"VARNAME_3":null,"TYPE_3":"Barangay","ENGTYPE_3":"Village","PROVINCE":"Zamboanga del Norte","REGION":"Region IX (Zamboanga Peninsula)","id":"barangay-0907225007","name":"Limbonga","barangayCode":"0907225007","population":null,"formattedPop":null,"densityCategory":"No data","vulnerabilityRating":"No data","healthRiskLevel":"No data","areaKm2":7.600747,"centerLat":8.011068,"centerLng":122.756173,"geometrySource":"all_barangay-2.csv detailed WKT","geometryMatchMethod":"unique_official_admin_names","boundaryPointCount":33},"geometry":{"type":"MultiPolygon","coordinates":[[[[122.752693,8.03234],[122.753464,8.01387],[122.754242,7.99178],[122.752136,7.99133],[122.74984,7.99147],[122.747467,7.99346],[122.743637,7.99564],[122.741219,7.99799],[122.740494,8.0011],[122.739281,8.00411],[122.737701,8.00628],[122.734306,8.00582],[122.731773,8.00426],[122.730591,8.00517],[122.728378,8.00421],[122.727676,8.00673],[122.72541,8.00883],[122.726433,8.01156],[122.724907,8.01289],[122.724289,8.01619],[122.721481,8.0146],[122.718117,8.01343],[122.716667,8.01576],[122.716827,8.01894],[122.716057,8.02124],[122.713402,8.02366],[122.7146,8.02679],[122.713623,8.0301],[122.71537,8.03101],[122.716629,8.03163],[122.73642,8.03216],[122.749512,8.03251],[122.752693,8.03234]]]]}},{"type":"Feature","properties":{"ID_0":177,"ISO":"PHL","NAME_0":"Philippines","ID_1":9072,"NAME_1":"Zamboanga del Norte","ID_2":907225,"NAME_2":"Godod","ID_3":907225008,"NAME_3":"Lomogom","NL_NAME_3":null,"VARNAME_3":null,"TYPE_3":"Barangay","ENGTYPE_3":"Village","PROVINCE":"Zamboanga del Norte","REGION":"Region IX (Zamboanga Peninsula)","id":"barangay-0907225008","name":"Lomogom","barangayCode":"0907225008","population":null,"formattedPop":null,"densityCategory":"No data","vulnerabilityRating":"No data","healthRiskLevel":"No data","areaKm2":11.081873,"centerLat":8.008175,"centerLng":122.902492,"geometrySource":"all_barangay-2.csv detailed WKT","geometryMatchMethod":"unique_official_admin_names","boundaryPointCount":34},"geometry":{"type":"MultiPolygon","coordinates":[[[[122.905182,8.01165],[122.907494,8.00829],[122.909233,8.00669],[122.909393,8.00156],[122.900627,8.00096],[122.87986,7.99926],[122.877647,8.00133],[122.880287,8.00378],[122.877792,8.00719],[122.874207,8.01007],[122.873573,8.01291],[122.870872,8.01721],[122.87307,8.02088],[122.873596,8.0239],[122.873528,8.02721],[122.873367,8.02833],[122.876503,8.02811],[122.878227,8.02536],[122.87812,8.0219],[122.880798,8.02031],[122.884079,8.01809],[122.887741,8.01858],[122.888344,8.01731],[122.886383,8.01602],[122.885277,8.01391],[122.88855,8.01169],[122.889732,8.01415],[122.892021,8.016],[122.893578,8.01469],[122.892853,8.01139],[122.896103,8.01084],[122.898102,8.01349],[122.902481,8.01237],[122.905182,8.01165]]]]}},{"type":"Feature","properties":{"ID_0":177,"ISO":"PHL","NAME_0":"Philippines","ID_1":9072,"NAME_1":"Zamboanga del Norte","ID_2":907225,"NAME_2":"Godod","ID_3":907225009,"NAME_3":"Mauswagon","NL_NAME_3":null,"VARNAME_3":null,"TYPE_3":"Barangay","ENGTYPE_3":"Village","PROVINCE":"Zamboanga del Norte","REGION":"Region IX (Zamboanga Peninsula)","id":"barangay-0907225009","name":"Mauswagon","barangayCode":"0907225009","population":null,"formattedPop":null,"densityCategory":"No data","vulnerabilityRating":"No data","healthRiskLevel":"No data","areaKm2":9.96206,"centerLat":8.038188,"centerLng":122.820212,"geometrySource":"all_barangay-2.csv detailed WKT","geometryMatchMethod":"unique_official_admin_names","boundaryPointCount":7},"geometry":{"type":"MultiPolygon","coordinates":[[[[122.829323,8.03395],[122.832314,7.99609],[122.831047,7.99175],[122.807907,7.99272],[122.806664,8.03361],[122.822571,8.03406],[122.829323,8.03395]]]]}},{"type":"Feature","properties":{"ID_0":177,"ISO":"PHL","NAME_0":"Philippines","ID_1":9072,"NAME_1":"Zamboanga del Norte","ID_2":907225,"NAME_2":"Godod","ID_3":907225010,"NAME_3":"Miampic","NL_NAME_3":null,"VARNAME_3":null,"TYPE_3":"Barangay","ENGTYPE_3":"Village","PROVINCE":"Zamboanga del Norte","REGION":"Region IX (Zamboanga Peninsula)","id":"barangay-0907225010","name":"Miampic","barangayCode":"0907225010","population":null,"formattedPop":null,"densityCategory":"No data","vulnerabilityRating":"No data","healthRiskLevel":"No data","areaKm2":14.223207,"centerLat":7.976579,"centerLng":122.736949,"geometrySource":"all_barangay-2.csv detailed WKT","geometryMatchMethod":"unique_official_admin_names","boundaryPointCount":60},"geometry":{"type":"MultiPolygon","coordinates":[[[[122.716827,8.01894],[122.716667,8.01576],[122.718117,8.01343],[122.721481,8.0146],[122.724289,8.01619],[122.724907,8.01289],[122.726433,8.01156],[122.72541,8.00883],[122.727676,8.00673],[122.728378,8.00421],[122.730591,8.00517],[122.731773,8.00426],[122.734306,8.00582],[122.737701,8.00628],[122.739281,8.00411],[122.740494,8.0011],[122.741219,7.99799],[122.743637,7.99564],[122.747467,7.99346],[122.74984,7.99147],[122.752136,7.99133],[122.754242,7.99178],[122.754379,7.97687],[122.717957,7.96271],[122.71698,7.96442],[122.715286,7.96591],[122.715073,7.96711],[122.714722,7.96913],[122.714928,7.96985],[122.715286,7.97115],[122.714363,7.97331],[122.712738,7.97235],[122.71254,7.9756],[122.713348,7.9781],[122.713959,7.9811],[122.711998,7.98214],[122.711792,7.98525],[122.70993,7.98564],[122.710548,7.98833],[122.711578,7.99048],[122.71138,7.99248],[122.713448,7.99374],[122.714493,7.99569],[122.713142,7.99754],[122.714279,7.99911],[122.714012,8.00029],[122.716217,8.00238],[122.714897,8.00406],[122.712624,8.00429],[122.71006,8.00474],[122.708069,8.0057],[122.708717,8.00919],[122.709358,8.01176],[122.711601,8.0116],[122.712883,8.01139],[122.714157,8.01386],[122.712997,8.01569],[122.712486,8.01766],[122.715431,8.01837],[122.716827,8.01894]]]]}},{"type":"Feature","properties":{"ID_0":177,"ISO":"PHL","NAME_0":"Philippines","ID_1":9072,"NAME_1":"Zamboanga del Norte","ID_2":907225,"NAME_2":"Godod","ID_3":907225011,"NAME_3":"Poblacion","NL_NAME_3":null,"VARNAME_3":null,"TYPE_3":"Barangay","ENGTYPE_3":"Village","PROVINCE":"Zamboanga del Norte","REGION":"Region IX (Zamboanga Peninsula)","id":"barangay-0907225011","name":"Poblacion","barangayCode":"0907225011","population":null,"formattedPop":null,"densityCategory":"No data","vulnerabilityRating":"No data","healthRiskLevel":"No data","areaKm2":19.600247,"centerLat":8.004895,"centerLng":122.845233,"geometrySource":"all_barangay-2.csv detailed WKT","geometryMatchMethod":"unique_official_admin_names","boundaryPointCount":28},"geometry":{"type":"MultiPolygon","coordinates":[[[[122.832314,7.99609],[122.87986,7.99926],[122.880211,7.99567],[122.879028,7.99313],[122.879143,7.99023],[122.881523,7.98785],[122.881866,7.98526],[122.880997,7.98398],[122.879837,7.98544],[122.878082,7.9865],[122.877563,7.98354],[122.876152,7.98194],[122.877419,7.98041],[122.876907,7.97793],[122.877029,7.97453],[122.877327,7.97235],[122.876587,7.97128],[122.874367,7.97137],[122.874023,7.97301],[122.871651,7.97268],[122.83503,7.97162],[122.83477,7.97266],[122.834389,7.97414],[122.833717,7.97732],[122.831833,7.98227],[122.830559,7.98654],[122.831047,7.99175],[122.832314,7.99609]]]]}},{"type":"Feature","properties":{"ID_0":177,"ISO":"PHL","NAME_0":"Philippines","ID_1":9072,"NAME_1":"Zamboanga del Norte","ID_2":907225,"NAME_2":"Godod","ID_3":907225012,"NAME_3":"Raba","NL_NAME_3":null,"VARNAME_3":null,"TYPE_3":"Barangay","ENGTYPE_3":"Village","PROVINCE":"Zamboanga del Norte","REGION":"Region IX (Zamboanga Peninsula)","id":"barangay-0907225012","name":"Raba","barangayCode":"0907225012","population":null,"formattedPop":null,"densityCategory":"No data","vulnerabilityRating":"No data","healthRiskLevel":"No data","areaKm2":8.927128,"centerLat":8.006836,"centerLng":122.777582,"geometrySource":"all_barangay-2.csv detailed WKT","geometryMatchMethod":"unique_official_admin_names","boundaryPointCount":21},"geometry":{"type":"MultiPolygon","coordinates":[[[[122.769722,8.01415],[122.771851,7.99152],[122.772797,7.98941],[122.77681,7.98805],[122.780769,7.98676],[122.782043,7.98351],[122.783852,7.98164],[122.785294,7.97962],[122.788132,7.979],[122.788269,7.97511],[122.786987,7.97328],[122.785782,7.97153],[122.784264,7.97046],[122.782692,7.96935],[122.779793,7.96658],[122.76696,7.97179],[122.766724,7.97188],[122.754379,7.97687],[122.754242,7.99178],[122.753464,8.01387],[122.769722,8.01415]]]]}},{"type":"Feature","properties":{"ID_0":177,"ISO":"PHL","NAME_0":"Philippines","ID_1":9072,"NAME_1":"Zamboanga del Norte","ID_2":907225,"NAME_2":"Godod","ID_3":907225013,"NAME_3":"Rambon","NL_NAME_3":null,"VARNAME_3":null,"TYPE_3":"Barangay","ENGTYPE_3":"Village","PROVINCE":"Zamboanga del Norte","REGION":"Region IX (Zamboanga Peninsula)","id":"barangay-0907225013","name":"Rambon","barangayCode":"0907225013","population":null,"formattedPop":null,"densityCategory":"No data","vulnerabilityRating":"No data","healthRiskLevel":"No data","areaKm2":10.81004,"centerLat":8.029234,"centerLng":122.799212,"geometrySource":"all_barangay-2.csv detailed WKT","geometryMatchMethod":"unique_official_admin_names","boundaryPointCount":7},"geometry":{"type":"MultiPolygon","coordinates":[[[[122.806664,8.03361],[122.807907,7.99272],[122.789291,7.99692],[122.788979,8.01542],[122.787956,8.03285],[122.800133,8.03356],[122.806664,8.03361]]]]}},{"type":"Feature","properties":{"ID_0":177,"ISO":"PHL","NAME_0":"Philippines","ID_1":9072,"NAME_1":"Zamboanga del Norte","ID_2":907225,"NAME_2":"Godod","ID_3":907225014,"NAME_3":"San Pedro","NL_NAME_3":null,"VARNAME_3":null,"TYPE_3":"Barangay","ENGTYPE_3":"Village","PROVINCE":"Zamboanga del Norte","REGION":"Region IX (Zamboanga Peninsula)","id":"barangay-0907225014","name":"San Pedro","barangayCode":"0907225014","population":null,"formattedPop":null,"densityCategory":"No data","vulnerabilityRating":"No data","healthRiskLevel":"No data","areaKm2":20.460721,"centerLat":7.948056,"centerLng":122.928484,"geometrySource":"all_barangay-2.csv detailed WKT","geometryMatchMethod":"unique_official_admin_names","boundaryPointCount":57},"geometry":{"type":"MultiPolygon","coordinates":[[[[122.900627,8.00096],[122.909393,8.00156],[122.912521,8.00014],[122.913437,7.99356],[122.914673,7.99008],[122.917992,7.98797],[122.92025,7.98545],[122.923439,7.98392],[122.925621,7.98117],[122.926048,7.97723],[122.929497,7.97751],[122.930153,7.97547],[122.932266,7.97466],[122.934212,7.97221],[122.937317,7.97176],[122.939522,7.97042],[122.938232,7.96813],[122.939919,7.96535],[122.940598,7.96116],[122.940041,7.95775],[122.938232,7.95467],[122.940117,7.95242],[122.940201,7.95047],[122.938362,7.94892],[122.938301,7.9467],[122.936241,7.94443],[122.934486,7.94223],[122.933372,7.93861],[122.930183,7.93807],[122.927689,7.93475],[122.927094,7.93101],[122.928802,7.92592],[122.929543,7.92131],[122.927994,7.91679],[122.924278,7.91708],[122.9198,7.91787],[122.915863,7.91856],[122.904243,7.92046],[122.892822,7.92232],[122.892227,7.92244],[122.891724,7.92255],[122.89045,7.92608],[122.889877,7.93058],[122.892097,7.93461],[122.890541,7.93828],[122.891838,7.94201],[122.889191,7.94584],[122.886574,7.94968],[122.886513,7.95457],[122.88707,7.95899],[122.885788,7.96174],[122.886711,7.96527],[122.888206,7.96776],[122.885513,7.97097],[122.88636,7.97298],[122.90432,7.97413],[122.900627,8.00096]]]]}},{"type":"Feature","properties":{"ID_0":177,"ISO":"PHL","NAME_0":"Philippines","ID_1":9072,"NAME_1":"Zamboanga del Norte","ID_2":907225,"NAME_2":"Godod","ID_3":907225015,"NAME_3":"Sarawagan","NL_NAME_3":null,"VARNAME_3":null,"TYPE_3":"Barangay","ENGTYPE_3":"Village","PROVINCE":"Zamboanga del Norte","REGION":"Region IX (Zamboanga Peninsula)","id":"barangay-0907225015","name":"Sarawagan","barangayCode":"0907225015","population":null,"formattedPop":null,"densityCategory":"No data","vulnerabilityRating":"No data","healthRiskLevel":"No data","areaKm2":5.499749,"centerLat":8.042261,"centerLng":122.764248,"geometrySource":"all_barangay-2.csv detailed WKT","geometryMatchMethod":"unique_official_admin_names","boundaryPointCount":7},"geometry":{"type":"MultiPolygon","coordinates":[[[[122.787956,8.03285],[122.788979,8.01542],[122.769722,8.01415],[122.753464,8.01387],[122.752693,8.03234],[122.780373,8.0331],[122.787956,8.03285]]]]}},{"type":"Feature","properties":{"ID_0":177,"ISO":"PHL","NAME_0":"Philippines","ID_1":9072,"NAME_1":"Zamboanga del Norte","ID_2":907225,"NAME_2":"Godod","ID_3":907225016,"NAME_3":"Sianan","NL_NAME_3":null,"VARNAME_3":null,"TYPE_3":"Barangay","ENGTYPE_3":"Village","PROVINCE":"Zamboanga del Norte","REGION":"Region IX (Zamboanga Peninsula)","id":"barangay-0907225016","name":"Sianan","barangayCode":"0907225016","population":null,"formattedPop":null,"densityCategory":"No data","vulnerabilityRating":"No data","healthRiskLevel":"No data","areaKm2":20.657166,"centerLat":7.990281,"centerLng":122.892529,"geometrySource":"all_barangay-2.csv detailed WKT","geometryMatchMethod":"unique_official_admin_names","boundaryPointCount":19},"geometry":{"type":"MultiPolygon","coordinates":[[[[122.900627,8.00096],[122.90432,7.97413],[122.88636,7.97298],[122.877327,7.97235],[122.877029,7.97453],[122.876907,7.97793],[122.877419,7.98041],[122.876152,7.98194],[122.877563,7.98354],[122.878082,7.9865],[122.879837,7.98544],[122.880997,7.98398],[122.881866,7.98526],[122.881523,7.98785],[122.879143,7.99023],[122.879028,7.99313],[122.880211,7.99567],[122.87986,7.99926],[122.900627,8.00096]]]]}},{"type":"Feature","properties":{"ID_0":177,"ISO":"PHL","NAME_0":"Philippines","ID_1":9072,"NAME_1":"Zamboanga del Norte","ID_2":907225,"NAME_2":"Godod","ID_3":907225017,"NAME_3":"Sioran","NL_NAME_3":null,"VARNAME_3":null,"TYPE_3":"Barangay","ENGTYPE_3":"Village","PROVINCE":"Zamboanga del Norte","REGION":"Region IX (Zamboanga Peninsula)","id":"barangay-0907225017","name":"Sioran","barangayCode":"0907225017","population":null,"formattedPop":null,"densityCategory":"No data","vulnerabilityRating":"No data","healthRiskLevel":"No data","areaKm2":21.013586,"centerLat":7.972229,"centerLng":122.802945,"geometrySource":"all_barangay-2.csv detailed WKT","geometryMatchMethod":"unique_official_admin_names","boundaryPointCount":52},"geometry":{"type":"MultiPolygon","coordinates":[[[[122.788132,7.979],[122.791054,7.97784],[122.79216,7.9774],[122.796623,7.97296],[122.801102,7.97356],[122.801376,7.9736],[122.805367,7.97414],[122.81266,7.97635],[122.81488,7.97692],[122.816978,7.97747],[122.821999,7.97707],[122.827827,7.97661],[122.833717,7.97732],[122.834389,7.97414],[122.83477,7.97266],[122.83503,7.97162],[122.834,7.96835],[122.833481,7.9667],[122.83107,7.96167],[122.827766,7.95832],[122.827438,7.95665],[122.82283,7.95542],[122.822411,7.95142],[122.818207,7.94793],[122.815804,7.94667],[122.812767,7.94508],[122.812187,7.94403],[122.812149,7.94395],[122.809738,7.93953],[122.802292,7.94097],[122.798332,7.94189],[122.787239,7.94196],[122.777687,7.94236],[122.77282,7.94256],[122.772797,7.94317],[122.772652,7.94672],[122.773987,7.94876],[122.774872,7.9511],[122.777893,7.95284],[122.780533,7.9536],[122.780746,7.95485],[122.779694,7.95717],[122.778587,7.95856],[122.780312,7.96255],[122.779671,7.96519],[122.779793,7.96658],[122.782692,7.96935],[122.784264,7.97046],[122.785782,7.97153],[122.786987,7.97328],[122.788269,7.97511],[122.788132,7.979]]]]}}]}
