{"type":"FeatureCollection","features":[{"type":"Feature","properties":{"ID_0":177,"ISO":"PHL","NAME_0":"Philippines","ID_1":10043,"NAME_1":"Misamis Oriental","ID_2":1004301,"NAME_2":"Alubijid","ID_3":1004301001,"NAME_3":"Baybay","NL_NAME_3":null,"VARNAME_3":null,"TYPE_3":"Barangay","ENGTYPE_3":"Village","PROVINCE":"Misamis Oriental","REGION":"Region X (Northern Mindanao)","id":"barangay-1004301001","name":"Baybay","barangayCode":"1004301001","population":null,"formattedPop":null,"densityCategory":"No data","vulnerabilityRating":"No data","healthRiskLevel":"No data","areaKm2":2.293306,"centerLat":8.583319,"centerLng":124.477248,"geometrySource":"all_barangay-2.csv detailed WKT","geometryMatchMethod":"unique_official_admin_names","boundaryPointCount":99},"geometry":{"type":"MultiPolygon","coordinates":[[[[124.470161,8.59447],[124.470657,8.59435],[124.471046,8.59396],[124.471458,8.59333],[124.471672,8.59326],[124.471809,8.59292],[124.471947,8.59229],[124.471947,8.59181],[124.471672,8.59153],[124.47139,8.59125],[124.470909,8.59111],[124.47049,8.59084],[124.470207,8.59056],[124.470421,8.59028],[124.47139,8.59028],[124.471878,8.59007],[124.47229,8.59007],[124.472588,8.59002],[124.473343,8.59056],[124.47361,8.59083],[124.474167,8.59083],[124.475563,8.58944],[124.47583,8.58944],[124.476112,8.58917],[124.477028,8.58875],[124.478058,8.58889],[124.478333,8.58861],[124.479446,8.58861],[124.479721,8.58833],[124.480278,8.58833],[124.480553,8.58806],[124.483047,8.58806],[124.48333,8.58833],[124.483612,8.58833],[124.483887,8.58861],[124.484169,8.58861],[124.484444,8.58833],[124.484734,8.58833],[124.485001,8.58806],[124.485558,8.58806],[124.486107,8.5875],[124.486389,8.5875],[124.486656,8.58722],[124.486656,8.58694],[124.487778,8.58583],[124.488052,8.58583],[124.488121,8.58577],[124.488243,8.58506],[124.488167,8.58418],[124.488197,8.58361],[124.488136,8.58302],[124.487717,8.5822],[124.487343,8.58188],[124.48674,8.58175],[124.486252,8.58258],[124.486366,8.58382],[124.48629,8.58425],[124.486038,8.5844],[124.485809,8.58441],[124.485153,8.58446],[124.484833,8.58459],[124.484528,8.58453],[124.4841,8.58413],[124.483833,8.5839],[124.48349,8.5835],[124.483147,8.58296],[124.482941,8.58275],[124.482826,8.58207],[124.482903,8.58105],[124.482971,8.57984],[124.477997,8.58145],[124.474808,8.58249],[124.474693,8.58261],[124.474358,8.5827],[124.473923,8.58297],[124.473587,8.58337],[124.473389,8.58385],[124.473343,8.58466],[124.47364,8.58545],[124.473808,8.58577],[124.474251,8.58685],[124.474327,8.58712],[124.474083,8.58809],[124.473572,8.58818],[124.472954,8.58833],[124.472519,8.58848],[124.472191,8.5886],[124.471733,8.58884],[124.471352,8.58911],[124.470421,8.59001],[124.470154,8.59046],[124.469971,8.59107],[124.46991,8.59157],[124.469887,8.59182],[124.469971,8.59279],[124.469994,8.59329],[124.470413,8.59394],[124.470161,8.59428],[124.470161,8.59447]]]]}},{"type":"Feature","properties":{"ID_0":177,"ISO":"PHL","NAME_0":"Philippines","ID_1":10043,"NAME_1":"Misamis Oriental","ID_2":1004301,"NAME_2":"Alubijid","ID_3":1004301002,"NAME_3":"Benigwayan","NL_NAME_3":null,"VARNAME_3":null,"TYPE_3":"Barangay","ENGTYPE_3":"Village","PROVINCE":"Misamis Oriental","REGION":"Region X (Northern Mindanao)","id":"barangay-1004301002","name":"Benigwayan","barangayCode":"1004301002","population":null,"formattedPop":null,"densityCategory":"No data","vulnerabilityRating":"No data","healthRiskLevel":"No data","areaKm2":4.454689,"centerLat":8.548249,"centerLng":124.446236,"geometrySource":"all_barangay-2.csv detailed WKT","geometryMatchMethod":"unique_official_admin_names","boundaryPointCount":46},"geometry":{"type":"MultiPolygon","coordinates":[[[[124.462624,8.57134],[124.465851,8.57082],[124.469063,8.57041],[124.469193,8.57053],[124.469307,8.57103],[124.46946,8.5713],[124.470108,8.57139],[124.470451,8.57131],[124.471199,8.57076],[124.471497,8.57044],[124.471817,8.5703],[124.472351,8.57029],[124.472511,8.57029],[124.473442,8.57064],[124.472969,8.5701],[124.464317,8.54975],[124.462387,8.5486],[124.462791,8.54213],[124.459579,8.5413],[124.459351,8.53819],[124.460953,8.5373],[124.459122,8.53297],[124.455673,8.53186],[124.447273,8.52953],[124.443283,8.52852],[124.442413,8.52824],[124.441353,8.52808],[124.440048,8.52788],[124.438889,8.52966],[124.43499,8.53382],[124.435738,8.53588],[124.437317,8.54041],[124.442551,8.55758],[124.44841,8.57296],[124.451797,8.56952],[124.452454,8.56928],[124.453217,8.56922],[124.454178,8.56924],[124.455963,8.56926],[124.457161,8.56937],[124.457336,8.56934],[124.458519,8.56898],[124.461487,8.56842],[124.461983,8.56934],[124.462181,8.57003],[124.462624,8.57134]]]]}},{"type":"Feature","properties":{"ID_0":177,"ISO":"PHL","NAME_0":"Philippines","ID_1":10043,"NAME_1":"Misamis Oriental","ID_2":1004301,"NAME_2":"Alubijid","ID_3":1004301003,"NAME_3":"Calatcat","NL_NAME_3":null,"VARNAME_3":null,"TYPE_3":"Barangay","ENGTYPE_3":"Village","PROVINCE":"Misamis Oriental","REGION":"Region X (Northern Mindanao)","id":"barangay-1004301003","name":"Calatcat","barangayCode":"1004301003","population":null,"formattedPop":null,"densityCategory":"No data","vulnerabilityRating":"No data","healthRiskLevel":"No data","areaKm2":3.483033,"centerLat":8.556076,"centerLng":124.474206,"geometrySource":"all_barangay-2.csv detailed WKT","geometryMatchMethod":"unique_official_admin_names","boundaryPointCount":42},"geometry":{"type":"MultiPolygon","coordinates":[[[[124.480453,8.56561],[124.480423,8.5652],[124.480637,8.56477],[124.481163,8.56433],[124.48127,8.56404],[124.481308,8.56392],[124.481819,8.56363],[124.481812,8.56343],[124.481712,8.56315],[124.482529,8.56239],[124.482773,8.56187],[124.482903,8.56129],[124.483047,8.5606],[124.48381,8.55941],[124.484016,8.55884],[124.484413,8.55831],[124.485672,8.55795],[124.485962,8.55766],[124.485977,8.5573],[124.48555,8.55655],[124.486237,8.55563],[124.486923,8.55459],[124.480713,8.54437],[124.479843,8.54473],[124.464317,8.54975],[124.472969,8.5701],[124.473442,8.57064],[124.474648,8.57078],[124.474876,8.57078],[124.475609,8.57058],[124.476158,8.57019],[124.476334,8.57004],[124.476784,8.56961],[124.477219,8.56898],[124.47744,8.56758],[124.477737,8.56655],[124.477898,8.56621],[124.478027,8.56607],[124.478317,8.56619],[124.4785,8.5663],[124.479782,8.56571],[124.480453,8.56561]]]]}},{"type":"Feature","properties":{"ID_0":177,"ISO":"PHL","NAME_0":"Philippines","ID_1":10043,"NAME_1":"Misamis Oriental","ID_2":1004301,"NAME_2":"Alubijid","ID_3":1004301004,"NAME_3":"Lagtang","NL_NAME_3":null,"VARNAME_3":null,"TYPE_3":"Barangay","ENGTYPE_3":"Village","PROVINCE":"Misamis Oriental","REGION":"Region X (Northern Mindanao)","id":"barangay-1004301004","name":"Lagtang","barangayCode":"1004301004","population":null,"formattedPop":null,"densityCategory":"No data","vulnerabilityRating":"No data","healthRiskLevel":"No data","areaKm2":2.821805,"centerLat":8.563396,"centerLng":124.487689,"geometrySource":"all_barangay-2.csv detailed WKT","geometryMatchMethod":"unique_official_admin_names","boundaryPointCount":47},"geometry":{"type":"MultiPolygon","coordinates":[[[[124.481934,8.56936],[124.482803,8.56947],[124.483994,8.56972],[124.485283,8.57028],[124.486137,8.57096],[124.487,8.57213],[124.487267,8.5724],[124.488251,8.57286],[124.490273,8.57345],[124.491287,8.57388],[124.491997,8.57468],[124.492859,8.57604],[124.493279,8.57629],[124.494667,8.57629],[124.49601,8.57622],[124.496696,8.57627],[124.498291,8.57652],[124.499046,8.57647],[124.499893,8.57668],[124.495087,8.56751],[124.486923,8.55459],[124.486237,8.55563],[124.48555,8.55655],[124.485977,8.5573],[124.485962,8.55766],[124.485672,8.55795],[124.484413,8.55831],[124.484016,8.55884],[124.48381,8.55941],[124.483047,8.5606],[124.482903,8.56129],[124.482773,8.56187],[124.482529,8.56239],[124.481712,8.56315],[124.481812,8.56343],[124.481819,8.56363],[124.481308,8.56392],[124.48127,8.56404],[124.481163,8.56433],[124.480637,8.56477],[124.480423,8.5652],[124.480453,8.56561],[124.480667,8.56649],[124.480873,8.56714],[124.480988,8.56754],[124.481308,8.56845],[124.481934,8.56936]]]]}},{"type":"Feature","properties":{"ID_0":177,"ISO":"PHL","NAME_0":"Philippines","ID_1":10043,"NAME_1":"Misamis Oriental","ID_2":1004301,"NAME_2":"Alubijid","ID_3":1004301005,"NAME_3":"Lanao","NL_NAME_3":null,"VARNAME_3":null,"TYPE_3":"Barangay","ENGTYPE_3":"Village","PROVINCE":"Misamis Oriental","REGION":"Region X (Northern Mindanao)","id":"barangay-1004301005","name":"Lanao","barangayCode":"1004301005","population":null,"formattedPop":null,"densityCategory":"No data","vulnerabilityRating":"No data","healthRiskLevel":"No data","areaKm2":0.931186,"centerLat":8.574035,"centerLng":124.466106,"geometrySource":"all_barangay-2.csv detailed WKT","geometryMatchMethod":"unique_official_admin_names","boundaryPointCount":35},"geometry":{"type":"MultiPolygon","coordinates":[[[[124.474808,8.58249],[124.474098,8.57436],[124.473839,8.57297],[124.473778,8.57251],[124.473717,8.57206],[124.473663,8.57143],[124.473518,8.57091],[124.473442,8.57064],[124.472511,8.57029],[124.472351,8.57029],[124.471817,8.5703],[124.471497,8.57044],[124.471199,8.57076],[124.470451,8.57131],[124.470108,8.57139],[124.46946,8.5713],[124.469307,8.57103],[124.469193,8.57053],[124.469063,8.57041],[124.465851,8.57082],[124.462624,8.57134],[124.463074,8.57288],[124.463593,8.57479],[124.461067,8.57584],[124.460487,8.57591],[124.459297,8.57596],[124.457237,8.57586],[124.450829,8.57602],[124.453697,8.57956],[124.45491,8.58103],[124.455048,8.5812],[124.456673,8.58316],[124.467712,8.57981],[124.469543,8.58399],[124.474808,8.58249]]]]}},{"type":"Feature","properties":{"ID_0":177,"ISO":"PHL","NAME_0":"Philippines","ID_1":10043,"NAME_1":"Misamis Oriental","ID_2":1004301,"NAME_2":"Alubijid","ID_3":1004301006,"NAME_3":"Loguilo","NL_NAME_3":null,"VARNAME_3":null,"TYPE_3":"Barangay","ENGTYPE_3":"Village","PROVINCE":"Misamis Oriental","REGION":"Region X (Northern Mindanao)","id":"barangay-1004301006","name":"Loguilo","barangayCode":"1004301006","population":null,"formattedPop":null,"densityCategory":"No data","vulnerabilityRating":"No data","healthRiskLevel":"No data","areaKm2":3.537499,"centerLat":8.575078,"centerLng":124.48888,"geometrySource":"all_barangay-2.csv detailed WKT","geometryMatchMethod":"unique_official_admin_names","boundaryPointCount":105},"geometry":{"type":"MultiPolygon","coordinates":[[[[124.488121,8.58577],[124.488892,8.585],[124.489166,8.585],[124.489723,8.58444],[124.489998,8.58444],[124.49028,8.58417],[124.491112,8.58417],[124.491669,8.58361],[124.491943,8.58361],[124.492233,8.58333],[124.4925,8.58333],[124.492767,8.58306],[124.493057,8.58306],[124.493332,8.58278],[124.493607,8.58278],[124.493889,8.5825],[124.494164,8.58278],[124.494453,8.5825],[124.49472,8.5825],[124.495003,8.58222],[124.495277,8.58222],[124.495552,8.58194],[124.495827,8.58194],[124.496109,8.58167],[124.496391,8.58167],[124.496674,8.58139],[124.496948,8.58139],[124.497223,8.58111],[124.49778,8.58111],[124.498047,8.58083],[124.498611,8.58083],[124.498894,8.58056],[124.499168,8.58056],[124.499443,8.58028],[124.499733,8.58028],[124.5,8.58],[124.500267,8.58],[124.500557,8.57972],[124.500832,8.57972],[124.501266,8.57928],[124.500214,8.57724],[124.499893,8.57668],[124.499046,8.57647],[124.498291,8.57652],[124.496696,8.57627],[124.49601,8.57622],[124.494667,8.57629],[124.493279,8.57629],[124.492859,8.57604],[124.491997,8.57468],[124.491287,8.57388],[124.490273,8.57345],[124.488251,8.57286],[124.487267,8.5724],[124.487,8.57213],[124.486137,8.57096],[124.485283,8.57028],[124.483994,8.56972],[124.482803,8.56947],[124.481934,8.56936],[124.481354,8.5696],[124.480713,8.57026],[124.480392,8.57082],[124.479187,8.57182],[124.478409,8.57219],[124.47831,8.57281],[124.478249,8.57315],[124.478058,8.57385],[124.477707,8.5741],[124.477348,8.57456],[124.477371,8.57514],[124.478691,8.57547],[124.478973,8.57559],[124.47937,8.57607],[124.479668,8.57679],[124.480186,8.57742],[124.480957,8.57763],[124.481651,8.57787],[124.481773,8.57789],[124.481987,8.57803],[124.48246,8.57876],[124.482971,8.57984],[124.482903,8.58105],[124.482826,8.58207],[124.482941,8.58275],[124.483147,8.58296],[124.48349,8.5835],[124.483833,8.5839],[124.4841,8.58413],[124.484528,8.58453],[124.484833,8.58459],[124.485153,8.58446],[124.485809,8.58441],[124.486038,8.5844],[124.48629,8.58425],[124.486366,8.58382],[124.486252,8.58258],[124.48674,8.58175],[124.487343,8.58188],[124.487717,8.5822],[124.488136,8.58302],[124.488197,8.58361],[124.488167,8.58418],[124.488243,8.58506],[124.488121,8.58577]]]]}},{"type":"Feature","properties":{"ID_0":177,"ISO":"PHL","NAME_0":"Philippines","ID_1":10043,"NAME_1":"Misamis Oriental","ID_2":1004301,"NAME_2":"Alubijid","ID_3":1004301007,"NAME_3":"Lourdes","NL_NAME_3":null,"VARNAME_3":null,"TYPE_3":"Barangay","ENGTYPE_3":"Village","PROVINCE":"Misamis Oriental","REGION":"Region X (Northern Mindanao)","id":"barangay-1004301007","name":"Lourdes","barangayCode":"1004301007","population":null,"formattedPop":null,"densityCategory":"No data","vulnerabilityRating":"No data","healthRiskLevel":"No data","areaKm2":10.876175,"centerLat":8.520018,"centerLng":124.430274,"geometrySource":"all_barangay-2.csv detailed WKT","geometryMatchMethod":"unique_official_admin_names","boundaryPointCount":28},"geometry":{"type":"MultiPolygon","coordinates":[[[[124.447273,8.52953],[124.443413,8.51713],[124.443481,8.5166],[124.443367,8.51634],[124.442902,8.51608],[124.442131,8.51593],[124.442001,8.51565],[124.442146,8.51521],[124.442284,8.51507],[124.442581,8.51469],[124.44252,8.51456],[124.445976,8.51502],[124.433807,8.50374],[124.433273,8.49519],[124.430389,8.49742],[124.429062,8.49853],[124.424103,8.50208],[124.420677,8.50348],[124.418678,8.50431],[124.428711,8.51727],[124.431732,8.52495],[124.43499,8.53382],[124.438889,8.52966],[124.440048,8.52788],[124.441353,8.52808],[124.442413,8.52824],[124.443283,8.52852],[124.447273,8.52953]]]]}},{"type":"Feature","properties":{"ID_0":177,"ISO":"PHL","NAME_0":"Philippines","ID_1":10043,"NAME_1":"Misamis Oriental","ID_2":1004301,"NAME_2":"Alubijid","ID_3":1004301008,"NAME_3":"Lumbo","NL_NAME_3":null,"VARNAME_3":null,"TYPE_3":"Barangay","ENGTYPE_3":"Village","PROVINCE":"Misamis Oriental","REGION":"Region X (Northern Mindanao)","id":"barangay-1004301008","name":"Lumbo","barangayCode":"1004301008","population":null,"formattedPop":null,"densityCategory":"No data","vulnerabilityRating":"No data","healthRiskLevel":"No data","areaKm2":2.005764,"centerLat":8.568556,"centerLng":124.457871,"geometrySource":"all_barangay-2.csv detailed WKT","geometryMatchMethod":"unique_official_admin_names","boundaryPointCount":21},"geometry":{"type":"MultiPolygon","coordinates":[[[[124.450829,8.57602],[124.457237,8.57586],[124.459297,8.57596],[124.460487,8.57591],[124.461067,8.57584],[124.463593,8.57479],[124.463074,8.57288],[124.462624,8.57134],[124.462181,8.57003],[124.461983,8.56934],[124.461487,8.56842],[124.458519,8.56898],[124.457336,8.56934],[124.457161,8.56937],[124.455963,8.56926],[124.454178,8.56924],[124.453217,8.56922],[124.452454,8.56928],[124.451797,8.56952],[124.44841,8.57296],[124.450829,8.57602]]]]}},{"type":"Feature","properties":{"ID_0":177,"ISO":"PHL","NAME_0":"Philippines","ID_1":10043,"NAME_1":"Misamis Oriental","ID_2":1004301,"NAME_2":"Alubijid","ID_3":1004301009,"NAME_3":"Molocboloc","NL_NAME_3":null,"VARNAME_3":null,"TYPE_3":"Barangay","ENGTYPE_3":"Village","PROVINCE":"Misamis Oriental","REGION":"Region X (Northern Mindanao)","id":"barangay-1004301009","name":"Molocboloc","barangayCode":"1004301009","population":null,"formattedPop":null,"densityCategory":"No data","vulnerabilityRating":"No data","healthRiskLevel":"No data","areaKm2":1.458433,"centerLat":8.58606,"centerLng":124.465954,"geometrySource":"all_barangay-2.csv detailed WKT","geometryMatchMethod":"unique_official_admin_names","boundaryPointCount":44},"geometry":{"type":"MultiPolygon","coordinates":[[[[124.469849,8.59869],[124.469818,8.5985],[124.469467,8.59802],[124.469467,8.59753],[124.46933,8.59705],[124.46933,8.59629],[124.469612,8.59566],[124.469612,8.59497],[124.469681,8.59476],[124.469818,8.59455],[124.470161,8.59447],[124.470161,8.59428],[124.470413,8.59394],[124.469994,8.59329],[124.469971,8.59279],[124.469887,8.59182],[124.46991,8.59157],[124.469971,8.59107],[124.470154,8.59046],[124.470421,8.59001],[124.471352,8.58911],[124.471733,8.58884],[124.472191,8.5886],[124.472519,8.58848],[124.472954,8.58833],[124.473572,8.58818],[124.474083,8.58809],[124.474327,8.58712],[124.474251,8.58685],[124.473808,8.58577],[124.47364,8.58545],[124.473343,8.58466],[124.473389,8.58385],[124.473587,8.58337],[124.473923,8.58297],[124.474358,8.5827],[124.474693,8.58261],[124.474808,8.58249],[124.469543,8.58399],[124.467712,8.57981],[124.456673,8.58316],[124.457863,8.58467],[124.458344,8.58529],[124.469849,8.59869]]]]}},{"type":"Feature","properties":{"ID_0":177,"ISO":"PHL","NAME_0":"Philippines","ID_1":10043,"NAME_1":"Misamis Oriental","ID_2":1004301,"NAME_2":"Alubijid","ID_3":1004301010,"NAME_3":"Poblacion","NL_NAME_3":null,"VARNAME_3":null,"TYPE_3":"Barangay","ENGTYPE_3":"Village","PROVINCE":"Misamis Oriental","REGION":"Region X (Northern Mindanao)","id":"barangay-1004301010","name":"Poblacion","barangayCode":"1004301010","population":null,"formattedPop":null,"densityCategory":"No data","vulnerabilityRating":"No data","healthRiskLevel":"No data","areaKm2":1.414831,"centerLat":8.570064,"centerLng":124.471911,"geometrySource":"all_barangay-2.csv detailed WKT","geometryMatchMethod":"unique_official_admin_names","boundaryPointCount":52},"geometry":{"type":"MultiPolygon","coordinates":[[[[124.482971,8.57984],[124.48246,8.57876],[124.481987,8.57803],[124.481773,8.57789],[124.481651,8.57787],[124.480957,8.57763],[124.480186,8.57742],[124.479668,8.57679],[124.47937,8.57607],[124.478973,8.57559],[124.478691,8.57547],[124.477371,8.57514],[124.477348,8.57456],[124.477707,8.5741],[124.478058,8.57385],[124.478249,8.57315],[124.47831,8.57281],[124.478409,8.57219],[124.479187,8.57182],[124.480392,8.57082],[124.480713,8.57026],[124.481354,8.5696],[124.481934,8.56936],[124.481308,8.56845],[124.480988,8.56754],[124.480873,8.56714],[124.480667,8.56649],[124.480453,8.56561],[124.479782,8.56571],[124.4785,8.5663],[124.478317,8.56619],[124.478027,8.56607],[124.477898,8.56621],[124.477737,8.56655],[124.47744,8.56758],[124.477219,8.56898],[124.476784,8.56961],[124.476334,8.57004],[124.476158,8.57019],[124.475609,8.57058],[124.474876,8.57078],[124.474648,8.57078],[124.473442,8.57064],[124.473518,8.57091],[124.473663,8.57143],[124.473717,8.57206],[124.473778,8.57251],[124.473839,8.57297],[124.474098,8.57436],[124.474808,8.58249],[124.477997,8.58145],[124.482971,8.57984]]]]}},{"type":"Feature","properties":{"ID_0":177,"ISO":"PHL","NAME_0":"Philippines","ID_1":10043,"NAME_1":"Misamis Oriental","ID_2":1004301,"NAME_2":"Alubijid","ID_3":1004301011,"NAME_3":"Sampatulog","NL_NAME_3":null,"VARNAME_3":null,"TYPE_3":"Barangay","ENGTYPE_3":"Village","PROVINCE":"Misamis Oriental","REGION":"Region X (Northern Mindanao)","id":"barangay-1004301011","name":"Sampatulog","barangayCode":"1004301011","population":null,"formattedPop":null,"densityCategory":"No data","vulnerabilityRating":"No data","healthRiskLevel":"No data","areaKm2":4.271788,"centerLat":8.534795,"centerLng":124.461214,"geometrySource":"all_barangay-2.csv detailed WKT","geometryMatchMethod":"unique_official_admin_names","boundaryPointCount":22},"geometry":{"type":"MultiPolygon","coordinates":[[[[124.459122,8.53297],[124.462029,8.5318],[124.470963,8.52888],[124.469589,8.52662],[124.465683,8.52054],[124.462791,8.51644],[124.459084,8.51624],[124.457863,8.51609],[124.445976,8.51502],[124.44252,8.51456],[124.442581,8.51469],[124.442284,8.51507],[124.442146,8.51521],[124.442001,8.51565],[124.442131,8.51593],[124.442902,8.51608],[124.443367,8.51634],[124.443481,8.5166],[124.443413,8.51713],[124.447273,8.52953],[124.455673,8.53186],[124.459122,8.53297]]]]}},{"type":"Feature","properties":{"ID_0":177,"ISO":"PHL","NAME_0":"Philippines","ID_1":10043,"NAME_1":"Misamis Oriental","ID_2":1004301,"NAME_2":"Alubijid","ID_3":1004301012,"NAME_3":"Sungay","NL_NAME_3":null,"VARNAME_3":null,"TYPE_3":"Barangay","ENGTYPE_3":"Village","PROVINCE":"Misamis Oriental","REGION":"Region X (Northern Mindanao)","id":"barangay-1004301012","name":"Sungay","barangayCode":"1004301012","population":null,"formattedPop":null,"densityCategory":"No data","vulnerabilityRating":"No data","healthRiskLevel":"No data","areaKm2":13.107586,"centerLat":8.45192,"centerLng":124.409035,"geometrySource":"all_barangay-2.csv detailed WKT","geometryMatchMethod":"unique_official_admin_names","boundaryPointCount":20},"geometry":{"type":"MultiPolygon","coordinates":[[[[124.429291,8.46744],[124.413147,8.44327],[124.409729,8.43873],[124.406967,8.44215],[124.403687,8.44512],[124.38488,8.46078],[124.387299,8.46542],[124.389488,8.46971],[124.390984,8.47402],[124.401253,8.47177],[124.401543,8.47178],[124.402428,8.47159],[124.426872,8.46875],[124.427628,8.46873],[124.428123,8.46865],[124.428574,8.46819],[124.42881,8.46806],[124.428993,8.468],[124.42894,8.46793],[124.429291,8.46744]]]]}},{"type":"Feature","properties":{"ID_0":177,"ISO":"PHL","NAME_0":"Philippines","ID_1":10043,"NAME_1":"Misamis Oriental","ID_2":1004301,"NAME_2":"Alubijid","ID_3":1004301013,"NAME_3":"Talaba","NL_NAME_3":null,"VARNAME_3":null,"TYPE_3":"Barangay","ENGTYPE_3":"Village","PROVINCE":"Misamis Oriental","REGION":"Region X (Northern Mindanao)","id":"barangay-1004301013","name":"Talaba","barangayCode":"1004301013","population":null,"formattedPop":null,"densityCategory":"No data","vulnerabilityRating":"No data","healthRiskLevel":"No data","areaKm2":4.272188,"centerLat":8.547003,"centerLng":124.467105,"geometrySource":"all_barangay-2.csv detailed WKT","geometryMatchMethod":"unique_official_admin_names","boundaryPointCount":12},"geometry":{"type":"MultiPolygon","coordinates":[[[[124.480713,8.54437],[124.470963,8.52888],[124.462029,8.5318],[124.459122,8.53297],[124.460953,8.5373],[124.459351,8.53819],[124.459579,8.5413],[124.462791,8.54213],[124.462387,8.5486],[124.464317,8.54975],[124.479843,8.54473],[124.480713,8.54437]]]]}},{"type":"Feature","properties":{"ID_0":177,"ISO":"PHL","NAME_0":"Philippines","ID_1":10043,"NAME_1":"Misamis Oriental","ID_2":1004301,"NAME_2":"Alubijid","ID_3":1004301014,"NAME_3":"Taparak","NL_NAME_3":null,"VARNAME_3":null,"TYPE_3":"Barangay","ENGTYPE_3":"Village","PROVINCE":"Misamis Oriental","REGION":"Region X (Northern Mindanao)","id":"barangay-1004301014","name":"Taparak","barangayCode":"1004301014","population":null,"formattedPop":null,"densityCategory":"No data","vulnerabilityRating":"No data","healthRiskLevel":"No data","areaKm2":22.229066,"centerLat":8.483987,"centerLng":124.419988,"geometrySource":"all_barangay-2.csv detailed WKT","geometryMatchMethod":"unique_official_admin_names","boundaryPointCount":28},"geometry":{"type":"MultiPolygon","coordinates":[[[[124.411812,8.51249],[124.418678,8.50431],[124.420677,8.50348],[124.424103,8.50208],[124.429062,8.49853],[124.430389,8.49742],[124.433273,8.49519],[124.447929,8.49423],[124.429291,8.46744],[124.42894,8.46793],[124.428993,8.468],[124.42881,8.46806],[124.428574,8.46819],[124.428123,8.46865],[124.427628,8.46873],[124.426872,8.46875],[124.402428,8.47159],[124.401543,8.47178],[124.401253,8.47177],[124.390984,8.47402],[124.393028,8.47806],[124.393829,8.47667],[124.396896,8.48164],[124.403603,8.49529],[124.406158,8.50036],[124.409233,8.50727],[124.410133,8.51018],[124.411812,8.51249]]]]}},{"type":"Feature","properties":{"ID_0":177,"ISO":"PHL","NAME_0":"Philippines","ID_1":10043,"NAME_1":"Misamis Oriental","ID_2":1004301,"NAME_2":"Alubijid","ID_3":1004301015,"NAME_3":"Tugasnon","NL_NAME_3":null,"VARNAME_3":null,"TYPE_3":"Barangay","ENGTYPE_3":"Village","PROVINCE":"Misamis Oriental","REGION":"Region X (Northern Mindanao)","id":"barangay-1004301015","name":"Tugasnon","barangayCode":"1004301015","population":null,"formattedPop":null,"densityCategory":"No data","vulnerabilityRating":"No data","healthRiskLevel":"No data","areaKm2":9.279381,"centerLat":8.510171,"centerLng":124.453539,"geometrySource":"all_barangay-2.csv detailed WKT","geometryMatchMethod":"unique_official_admin_names","boundaryPointCount":9},"geometry":{"type":"MultiPolygon","coordinates":[[[[124.445976,8.51502],[124.457863,8.51609],[124.459084,8.51624],[124.462791,8.51644],[124.45256,8.50074],[124.447929,8.49423],[124.433273,8.49519],[124.433807,8.50374],[124.445976,8.51502]]]]}},{"type":"Feature","properties":{"ID_0":177,"ISO":"PHL","NAME_0":"Philippines","ID_1":10043,"NAME_1":"Misamis Oriental","ID_2":1004301,"NAME_2":"Alubijid","ID_3":1004301016,"NAME_3":"Tula","NL_NAME_3":null,"VARNAME_3":null,"TYPE_3":"Barangay","ENGTYPE_3":"Village","PROVINCE":"Misamis Oriental","REGION":"Region X (Northern Mindanao)","id":"barangay-1004301016","name":"Tula","barangayCode":"1004301016","population":null,"formattedPop":null,"densityCategory":"No data","vulnerabilityRating":"No data","healthRiskLevel":"No data","areaKm2":30.617917,"centerLat":8.414977,"centerLng":124.422303,"geometrySource":"all_barangay-2.csv detailed WKT","geometryMatchMethod":"unique_official_admin_names","boundaryPointCount":24},"geometry":{"type":"MultiPolygon","coordinates":[[[[124.38488,8.46078],[124.403687,8.44512],[124.406967,8.44215],[124.409729,8.43873],[124.407806,8.43512],[124.407761,8.43502],[124.403107,8.42632],[124.402039,8.42669],[124.401978,8.42671],[124.40033,8.42726],[124.395538,8.42808],[124.394203,8.42851],[124.391518,8.42937],[124.389473,8.4296],[124.387383,8.42982],[124.381508,8.43127],[124.380371,8.43165],[124.379402,8.43197],[124.377052,8.43245],[124.374443,8.43298],[124.372993,8.43337],[124.371407,8.4338],[124.375389,8.44169],[124.38488,8.46078]]]]}}]}
