{"type":"FeatureCollection","features":[{"type":"Feature","properties":{"ID_0":177,"ISO":"PHL","NAME_0":"Philippines","ID_1":2031,"NAME_1":"Isabela","ID_2":203119,"NAME_2":"Mallig","ID_3":203119001,"NAME_3":"San Pedro","NL_NAME_3":null,"VARNAME_3":null,"TYPE_3":"Barangay","ENGTYPE_3":"Village","PROVINCE":"Isabela","REGION":"Region II (Cagayan Valley)","id":"barangay-0203119001","name":"San Pedro","barangayCode":"0203119001","population":null,"formattedPop":null,"densityCategory":"No data","vulnerabilityRating":"No data","healthRiskLevel":"No data","areaKm2":6.337607,"centerLat":17.233998,"centerLng":121.609851,"geometrySource":"all_barangay-2.csv detailed WKT","geometryMatchMethod":"unique_official_admin_names","boundaryPointCount":30},"geometry":{"type":"MultiPolygon","coordinates":[[[[121.61937,17.20982],[121.620399,17.20812],[121.619507,17.206579],[121.618011,17.20545],[121.616737,17.20425],[121.616287,17.202921],[121.616928,17.20122],[121.61718,17.20009],[121.61747,17.19883],[121.61853,17.197491],[121.618858,17.196159],[121.618111,17.194321],[121.617729,17.194031],[121.616692,17.191629],[121.615936,17.19022],[121.615387,17.18936],[121.614464,17.1882],[121.5933,17.189859],[121.592827,17.1998],[121.592697,17.20587],[121.592041,17.20997],[121.594749,17.210251],[121.596207,17.20932],[121.596916,17.208851],[121.597366,17.209961],[121.59803,17.210541],[121.598824,17.2101],[121.599907,17.210369],[121.601158,17.21006],[121.61937,17.20982]]]]}},{"type":"Feature","properties":{"ID_0":177,"ISO":"PHL","NAME_0":"Philippines","ID_1":2031,"NAME_1":"Isabela","ID_2":203119,"NAME_2":"Mallig","ID_3":203119002,"NAME_3":"Binmonton","NL_NAME_3":null,"VARNAME_3":null,"TYPE_3":"Barangay","ENGTYPE_3":"Village","PROVINCE":"Isabela","REGION":"Region II (Cagayan Valley)","id":"barangay-0203119002","name":"Binmonton","barangayCode":"0203119002","population":null,"formattedPop":null,"densityCategory":"No data","vulnerabilityRating":"No data","healthRiskLevel":"No data","areaKm2":4.611606,"centerLat":17.237096,"centerLng":121.586944,"geometrySource":"all_barangay-2.csv detailed WKT","geometryMatchMethod":"unique_official_admin_names","boundaryPointCount":29},"geometry":{"type":"MultiPolygon","coordinates":[[[[121.592041,17.20997],[121.592697,17.20587],[121.592827,17.1998],[121.5933,17.189859],[121.582947,17.18902],[121.582176,17.189631],[121.580544,17.190559],[121.578117,17.192051],[121.577187,17.192671],[121.575691,17.193871],[121.573387,17.19553],[121.571564,17.19696],[121.569962,17.19912],[121.569611,17.20166],[121.569321,17.203131],[121.567436,17.203569],[121.564789,17.202579],[121.564293,17.203291],[121.564041,17.20488],[121.564011,17.20533],[121.564148,17.206829],[121.566742,17.20788],[121.567413,17.20826],[121.567787,17.208941],[121.589279,17.210091],[121.590302,17.210649],[121.590927,17.21093],[121.591698,17.21104],[121.592041,17.20997]]]]}},{"type":"Feature","properties":{"ID_0":177,"ISO":"PHL","NAME_0":"Philippines","ID_1":2031,"NAME_1":"Isabela","ID_2":203119,"NAME_2":"Mallig","ID_3":203119003,"NAME_3":"Casili","NL_NAME_3":null,"VARNAME_3":null,"TYPE_3":"Barangay","ENGTYPE_3":"Village","PROVINCE":"Isabela","REGION":"Region II (Cagayan Valley)","id":"barangay-0203119003","name":"Casili","barangayCode":"0203119003","population":null,"formattedPop":null,"densityCategory":"No data","vulnerabilityRating":"No data","healthRiskLevel":"No data","areaKm2":1.947285,"centerLat":17.210136,"centerLng":121.605716,"geometrySource":"all_barangay-2.csv detailed WKT","geometryMatchMethod":"unique_official_admin_names","boundaryPointCount":60},"geometry":{"type":"MultiPolygon","coordinates":[[[[121.5933,17.189859],[121.593491,17.189199],[121.594353,17.187811],[121.595367,17.18734],[121.596771,17.18689],[121.597961,17.18594],[121.599152,17.185209],[121.600693,17.184521],[121.602493,17.18359],[121.602631,17.181971],[121.603203,17.180849],[121.603371,17.17939],[121.603203,17.178391],[121.60273,17.177259],[121.602448,17.1768],[121.602272,17.175409],[121.602379,17.17469],[121.603142,17.1733],[121.604828,17.17197],[121.606049,17.17107],[121.607193,17.170931],[121.609222,17.17025],[121.610367,17.169451],[121.610626,17.168871],[121.60672,17.16923],[121.601051,17.16893],[121.598701,17.16843],[121.594772,17.168091],[121.59407,17.16832],[121.59304,17.16869],[121.592773,17.16954],[121.591782,17.169609],[121.591042,17.17037],[121.591293,17.171789],[121.590584,17.17305],[121.590263,17.17399],[121.590317,17.17425],[121.590988,17.17473],[121.591827,17.175011],[121.591637,17.17552],[121.591209,17.176399],[121.591728,17.177509],[121.592712,17.177971],[121.592796,17.17841],[121.592827,17.179211],[121.592697,17.17942],[121.591881,17.17992],[121.592323,17.180651],[121.593018,17.18112],[121.592506,17.182341],[121.591812,17.18317],[121.591003,17.183981],[121.589867,17.18524],[121.589394,17.18516],[121.588318,17.18627],[121.586937,17.18656],[121.5849,17.186781],[121.583527,17.187719],[121.582947,17.18902],[121.5933,17.189859]]]]}},{"type":"Feature","properties":{"ID_0":177,"ISO":"PHL","NAME_0":"Philippines","ID_1":2031,"NAME_1":"Isabela","ID_2":203119,"NAME_2":"Mallig","ID_3":203119004,"NAME_3":"Centro I","NL_NAME_3":null,"VARNAME_3":null,"TYPE_3":"Barangay","ENGTYPE_3":"Village","PROVINCE":"Isabela","REGION":"Region II (Cagayan Valley)","id":"barangay-0203119004","name":"Centro I","barangayCode":"0203119004","population":null,"formattedPop":null,"densityCategory":"No data","vulnerabilityRating":"No data","healthRiskLevel":"No data","areaKm2":1.922395,"centerLat":17.218367,"centerLng":121.612761,"geometrySource":"all_barangay-2.csv detailed WKT","geometryMatchMethod":"unique_official_admin_names","boundaryPointCount":28},"geometry":{"type":"MultiPolygon","coordinates":[[[[121.614464,17.1882],[121.614288,17.187229],[121.614548,17.186729],[121.615608,17.185471],[121.615448,17.184759],[121.615143,17.183929],[121.615356,17.182159],[121.615097,17.180759],[121.614822,17.18041],[121.614067,17.178789],[121.613609,17.17778],[121.606773,17.177151],[121.602448,17.1768],[121.60273,17.177259],[121.603203,17.178391],[121.603371,17.17939],[121.603203,17.180849],[121.602631,17.181971],[121.602493,17.18359],[121.600693,17.184521],[121.599152,17.185209],[121.597961,17.18594],[121.596771,17.18689],[121.595367,17.18734],[121.594353,17.187811],[121.593491,17.189199],[121.5933,17.189859],[121.614464,17.1882]]]]}},{"type":"Feature","properties":{"ID_0":177,"ISO":"PHL","NAME_0":"Philippines","ID_1":2031,"NAME_1":"Isabela","ID_2":203119,"NAME_2":"Mallig","ID_3":203119005,"NAME_3":"Holy Friday","NL_NAME_3":null,"VARNAME_3":null,"TYPE_3":"Barangay","ENGTYPE_3":"Village","PROVINCE":"Isabela","REGION":"Region II (Cagayan Valley)","id":"barangay-0203119005","name":"Holy Friday","barangayCode":"0203119005","population":null,"formattedPop":null,"densityCategory":"No data","vulnerabilityRating":"No data","healthRiskLevel":"No data","areaKm2":5.501792,"centerLat":17.179801,"centerLng":121.649759,"geometrySource":"all_barangay-2.csv detailed WKT","geometryMatchMethod":"unique_official_admin_names","boundaryPointCount":98},"geometry":{"type":"MultiPolygon","coordinates":[[[[121.621719,17.163349],[121.644508,17.165541],[121.644798,17.16411],[121.644638,17.16275],[121.645332,17.161011],[121.64798,17.158501],[121.649193,17.15624],[121.650383,17.15399],[121.651962,17.1514],[121.654343,17.149281],[121.655571,17.14909],[121.657028,17.14839],[121.658989,17.14616],[121.659866,17.14403],[121.660263,17.14225],[121.662956,17.14098],[121.664001,17.1408],[121.664436,17.137569],[121.664886,17.135599],[121.667427,17.13452],[121.671097,17.13414],[121.672546,17.13365],[121.673309,17.132351],[121.674828,17.13166],[121.676857,17.13133],[121.6772,17.129089],[121.676567,17.12628],[121.67614,17.12434],[121.676842,17.122101],[121.675346,17.121929],[121.673813,17.123289],[121.672783,17.12389],[121.671577,17.124519],[121.669899,17.12571],[121.667267,17.126699],[121.666039,17.12715],[121.66404,17.127211],[121.662827,17.12676],[121.662163,17.125589],[121.662117,17.124281],[121.662437,17.122219],[121.663162,17.12059],[121.662827,17.119301],[121.661034,17.11799],[121.659698,17.11776],[121.657913,17.11837],[121.657013,17.11882],[121.655647,17.11973],[121.654022,17.120701],[121.652206,17.12043],[121.652168,17.120729],[121.651917,17.122259],[121.652252,17.12343],[121.651947,17.124161],[121.651176,17.12426],[121.649261,17.1238],[121.648369,17.124069],[121.648041,17.125441],[121.649063,17.126101],[121.649857,17.12664],[121.651009,17.128111],[121.651489,17.128719],[121.653038,17.13002],[121.654968,17.131689],[121.655113,17.133711],[121.654648,17.136009],[121.654083,17.137819],[121.652618,17.13975],[121.651443,17.13954],[121.649651,17.139071],[121.647476,17.13933],[121.646393,17.139351],[121.6436,17.139441],[121.64222,17.13896],[121.640892,17.139759],[121.640717,17.141279],[121.641121,17.14225],[121.641327,17.14307],[121.64061,17.14312],[121.639603,17.14341],[121.637604,17.143221],[121.636299,17.142611],[121.635986,17.14336],[121.63678,17.14459],[121.636398,17.145149],[121.634911,17.145651],[121.633507,17.145399],[121.632751,17.144171],[121.631882,17.143641],[121.629913,17.14324],[121.628448,17.14262],[121.626808,17.14216],[121.62516,17.15486],[121.624924,17.156269],[121.624588,17.15876],[121.623741,17.1609],[121.622383,17.162609],[121.621719,17.163349]]]]}},{"type":"Feature","properties":{"ID_0":177,"ISO":"PHL","NAME_0":"Philippines","ID_1":2031,"NAME_1":"Isabela","ID_2":203119,"NAME_2":"Mallig","ID_3":203119006,"NAME_3":"Maligaya","NL_NAME_3":null,"VARNAME_3":null,"TYPE_3":"Barangay","ENGTYPE_3":"Village","PROVINCE":"Isabela","REGION":"Region II (Cagayan Valley)","id":"barangay-0203119006","name":"Maligaya","barangayCode":"0203119006","population":null,"formattedPop":null,"densityCategory":"No data","vulnerabilityRating":"No data","healthRiskLevel":"No data","areaKm2":6.74075,"centerLat":17.181245,"centerLng":121.622221,"geometrySource":"all_barangay-2.csv detailed WKT","geometryMatchMethod":"unique_official_admin_names","boundaryPointCount":35},"geometry":{"type":"MultiPolygon","coordinates":[[[[121.62516,17.15486],[121.626808,17.14216],[121.625076,17.142139],[121.624077,17.1429],[121.622871,17.142799],[121.620903,17.14197],[121.620529,17.142401],[121.621101,17.14439],[121.620567,17.144461],[121.619614,17.14608],[121.618584,17.146839],[121.617821,17.14584],[121.61795,17.144341],[121.617287,17.142731],[121.616371,17.143431],[121.615913,17.145109],[121.61528,17.14666],[121.613029,17.146721],[121.612968,17.145],[121.613136,17.14323],[121.612213,17.14279],[121.611,17.142851],[121.610107,17.14422],[121.608887,17.145901],[121.607018,17.146139],[121.605278,17.14691],[121.603653,17.147909],[121.602966,17.14954],[121.603661,17.15085],[121.603241,17.15176],[121.602707,17.152679],[121.601379,17.153299],[121.601227,17.153549],[121.601212,17.154779],[121.62516,17.15486]]]]}},{"type":"Feature","properties":{"ID_0":177,"ISO":"PHL","NAME_0":"Philippines","ID_1":2031,"NAME_1":"Isabela","ID_2":203119,"NAME_2":"Mallig","ID_3":203119007,"NAME_3":"Manano","NL_NAME_3":null,"VARNAME_3":null,"TYPE_3":"Barangay","ENGTYPE_3":"Village","PROVINCE":"Isabela","REGION":"Region II (Cagayan Valley)","id":"barangay-0203119007","name":"Manano","barangayCode":"0203119007","population":null,"formattedPop":null,"densityCategory":"No data","vulnerabilityRating":"No data","healthRiskLevel":"No data","areaKm2":17.812012,"centerLat":17.197119,"centerLng":121.673927,"geometrySource":"all_barangay-2.csv detailed WKT","geometryMatchMethod":"unique_official_admin_names","boundaryPointCount":58},"geometry":{"type":"MultiPolygon","coordinates":[[[[121.683388,17.178391],[121.685791,17.15056],[121.68605,17.127541],[121.685883,17.12768],[121.684753,17.1285],[121.683228,17.128241],[121.681892,17.12726],[121.681023,17.12677],[121.680191,17.12579],[121.678383,17.123581],[121.676842,17.122101],[121.67614,17.12434],[121.676567,17.12628],[121.6772,17.129089],[121.676857,17.13133],[121.674828,17.13166],[121.673309,17.132351],[121.672546,17.13365],[121.671097,17.13414],[121.667427,17.13452],[121.664886,17.135599],[121.664436,17.137569],[121.664001,17.1408],[121.662956,17.14098],[121.660263,17.14225],[121.659866,17.14403],[121.658989,17.14616],[121.657028,17.14839],[121.655571,17.14909],[121.654343,17.149281],[121.651962,17.1514],[121.650383,17.15399],[121.649193,17.15624],[121.64798,17.158501],[121.645332,17.161011],[121.644638,17.16275],[121.644798,17.16411],[121.644508,17.165541],[121.645363,17.165911],[121.645668,17.16633],[121.644478,17.167089],[121.643677,17.16758],[121.643478,17.168221],[121.643761,17.168909],[121.644043,17.170469],[121.64418,17.171631],[121.644279,17.17308],[121.644653,17.17424],[121.64505,17.17495],[121.64592,17.175711],[121.64624,17.1759],[121.646744,17.176781],[121.647232,17.177481],[121.64756,17.17841],[121.648117,17.17984],[121.648277,17.18045],[121.648117,17.181271],[121.683388,17.178391]]]]}},{"type":"Feature","properties":{"ID_0":177,"ISO":"PHL","NAME_0":"Philippines","ID_1":2031,"NAME_1":"Isabela","ID_2":203119,"NAME_2":"Mallig","ID_3":203119008,"NAME_3":"Olango","NL_NAME_3":null,"VARNAME_3":null,"TYPE_3":"Barangay","ENGTYPE_3":"Village","PROVINCE":"Isabela","REGION":"Region II (Cagayan Valley)","id":"barangay-0203119008","name":"Olango","barangayCode":"0203119008","population":null,"formattedPop":null,"densityCategory":"No data","vulnerabilityRating":"No data","healthRiskLevel":"No data","areaKm2":6.378496,"centerLat":17.201489,"centerLng":121.633812,"geometrySource":"all_barangay-2.csv detailed WKT","geometryMatchMethod":"unique_official_admin_names","boundaryPointCount":59},"geometry":{"type":"MultiPolygon","coordinates":[[[[121.640152,17.187651],[121.641144,17.187241],[121.642853,17.18751],[121.643707,17.1873],[121.644234,17.187149],[121.644524,17.186529],[121.643997,17.185579],[121.643661,17.185011],[121.645233,17.183559],[121.64669,17.18297],[121.647743,17.18228],[121.648117,17.181271],[121.648277,17.18045],[121.648117,17.17984],[121.64756,17.17841],[121.647232,17.177481],[121.646744,17.176781],[121.64624,17.1759],[121.64592,17.175711],[121.64505,17.17495],[121.644653,17.17424],[121.644279,17.17308],[121.64418,17.171631],[121.644043,17.170469],[121.643761,17.168909],[121.643478,17.168221],[121.643677,17.16758],[121.644478,17.167089],[121.645668,17.16633],[121.645363,17.165911],[121.644508,17.165541],[121.621719,17.163349],[121.620506,17.164101],[121.617691,17.164471],[121.615952,17.16432],[121.614349,17.16588],[121.613983,17.16671],[121.614594,17.16778],[121.614677,17.168949],[121.614838,17.17075],[121.614639,17.17148],[121.615097,17.17322],[121.614906,17.174129],[121.614243,17.175119],[121.613739,17.176451],[121.613747,17.1768],[121.613609,17.17778],[121.614067,17.178789],[121.614822,17.18041],[121.615097,17.180759],[121.615356,17.182159],[121.615143,17.183929],[121.615448,17.184759],[121.615608,17.185471],[121.614548,17.186729],[121.614288,17.187229],[121.614464,17.1882],[121.639801,17.188021],[121.640152,17.187651]]]]}},{"type":"Feature","properties":{"ID_0":177,"ISO":"PHL","NAME_0":"Philippines","ID_1":2031,"NAME_1":"Isabela","ID_2":203119,"NAME_2":"Mallig","ID_3":203119009,"NAME_3":"Centro II","NL_NAME_3":null,"VARNAME_3":null,"TYPE_3":"Barangay","ENGTYPE_3":"Village","PROVINCE":"Isabela","REGION":"Region II (Cagayan Valley)","id":"barangay-0203119009","name":"Centro II","barangayCode":"0203119009","population":null,"formattedPop":null,"densityCategory":"No data","vulnerabilityRating":"No data","healthRiskLevel":"No data","areaKm2":0.846753,"centerLat":17.208683,"centerLng":121.614706,"geometrySource":"all_barangay-2.csv detailed WKT","geometryMatchMethod":"unique_official_admin_names","boundaryPointCount":24},"geometry":{"type":"MultiPolygon","coordinates":[[[[121.613609,17.17778],[121.613747,17.1768],[121.613739,17.176451],[121.614243,17.175119],[121.614906,17.174129],[121.615097,17.17322],[121.614639,17.17148],[121.614838,17.17075],[121.614677,17.168949],[121.614594,17.16778],[121.613983,17.16671],[121.612503,17.16861],[121.610626,17.168871],[121.610367,17.169451],[121.609222,17.17025],[121.607193,17.170931],[121.606049,17.17107],[121.604828,17.17197],[121.603142,17.1733],[121.602379,17.17469],[121.602272,17.175409],[121.602448,17.1768],[121.606773,17.177151],[121.613609,17.17778]]]]}},{"type":"Feature","properties":{"ID_0":177,"ISO":"PHL","NAME_0":"Philippines","ID_1":2031,"NAME_1":"Isabela","ID_2":203119,"NAME_2":"Mallig","ID_3":203119010,"NAME_3":"Rang-ayan","NL_NAME_3":null,"VARNAME_3":null,"TYPE_3":"Barangay","ENGTYPE_3":"Village","PROVINCE":"Isabela","REGION":"Region II (Cagayan Valley)","id":"barangay-0203119010","name":"Rang-ayan","barangayCode":"0203119010","population":null,"formattedPop":null,"densityCategory":"No data","vulnerabilityRating":"No data","healthRiskLevel":"No data","areaKm2":8.555171,"centerLat":17.187502,"centerLng":121.575483,"geometrySource":"all_barangay-2.csv detailed WKT","geometryMatchMethod":"unique_official_admin_names","boundaryPointCount":73},"geometry":{"type":"MultiPolygon","coordinates":[[[[121.601212,17.154779],[121.601227,17.153549],[121.601379,17.153299],[121.602707,17.152679],[121.603241,17.15176],[121.603661,17.15085],[121.602966,17.14954],[121.603653,17.147909],[121.605278,17.14691],[121.607018,17.146139],[121.605797,17.145189],[121.604797,17.145041],[121.603333,17.14588],[121.601936,17.145901],[121.601768,17.14415],[121.601387,17.142719],[121.600563,17.14217],[121.599533,17.142481],[121.599083,17.144039],[121.599792,17.14584],[121.600456,17.14731],[121.598839,17.1486],[121.598007,17.14761],[121.597794,17.14682],[121.596687,17.143801],[121.595428,17.1423],[121.594528,17.142139],[121.593231,17.142139],[121.592812,17.141331],[121.5923,17.13942],[121.591316,17.13858],[121.588478,17.13903],[121.587852,17.13875],[121.586014,17.137251],[121.584213,17.136419],[121.58358,17.136669],[121.583923,17.13788],[121.584709,17.139021],[121.585533,17.14003],[121.585167,17.14089],[121.583923,17.14106],[121.582283,17.142031],[121.581444,17.141451],[121.580406,17.13883],[121.579826,17.1378],[121.577713,17.137671],[121.576309,17.13776],[121.574913,17.13735],[121.574539,17.13682],[121.572403,17.13703],[121.571136,17.138029],[121.571938,17.13933],[121.573723,17.1408],[121.575127,17.14238],[121.575073,17.143579],[121.574837,17.14489],[121.572906,17.1464],[121.572273,17.14566],[121.571533,17.14394],[121.56987,17.142469],[121.569061,17.141581],[121.568413,17.140499],[121.567703,17.139071],[121.565086,17.13975],[121.560501,17.139931],[121.560478,17.140751],[121.55999,17.14333],[121.560089,17.14625],[121.560287,17.14922],[121.559891,17.15135],[121.5597,17.153839],[121.57225,17.15613],[121.601212,17.154779]]]]}},{"type":"Feature","properties":{"ID_0":177,"ISO":"PHL","NAME_0":"Philippines","ID_1":2031,"NAME_1":"Isabela","ID_2":203119,"NAME_2":"Mallig","ID_3":203119011,"NAME_3":"San Jose Norte I","NL_NAME_3":null,"VARNAME_3":null,"TYPE_3":"Barangay","ENGTYPE_3":"Village","PROVINCE":"Isabela","REGION":"Region II (Cagayan Valley)","id":"barangay-0203119011","name":"San Jose Norte I","barangayCode":"0203119011","population":null,"formattedPop":null,"densityCategory":"No data","vulnerabilityRating":"No data","healthRiskLevel":"No data","areaKm2":8.517779,"centerLat":17.210197,"centerLng":121.570383,"geometrySource":"all_barangay-2.csv detailed WKT","geometryMatchMethod":"unique_official_admin_names","boundaryPointCount":59},"geometry":{"type":"MultiPolygon","coordinates":[[[[121.582947,17.18902],[121.583527,17.187719],[121.5849,17.186781],[121.586937,17.18656],[121.588318,17.18627],[121.589394,17.18516],[121.589867,17.18524],[121.591003,17.183981],[121.591812,17.18317],[121.592506,17.182341],[121.593018,17.18112],[121.592323,17.180651],[121.591881,17.17992],[121.592697,17.17942],[121.592827,17.179211],[121.592796,17.17841],[121.592712,17.177971],[121.591728,17.177509],[121.591209,17.176399],[121.591637,17.17552],[121.591827,17.175011],[121.590988,17.17473],[121.590317,17.17425],[121.590263,17.17399],[121.590584,17.17305],[121.591293,17.171789],[121.591042,17.17037],[121.591782,17.169609],[121.592773,17.16954],[121.59304,17.16869],[121.59407,17.16832],[121.594772,17.168091],[121.586838,17.167459],[121.583908,17.167139],[121.584824,17.169689],[121.584084,17.17058],[121.583519,17.171169],[121.581139,17.17028],[121.578873,17.170521],[121.578201,17.170469],[121.577393,17.17144],[121.575249,17.17065],[121.574654,17.172701],[121.573212,17.17428],[121.571854,17.17807],[121.570763,17.178801],[121.568901,17.179291],[121.567268,17.1807],[121.566177,17.18117],[121.562729,17.18084],[121.56028,17.180599],[121.558701,17.180531],[121.557663,17.179979],[121.556297,17.178829],[121.556953,17.180349],[121.556572,17.183081],[121.555801,17.188641],[121.582176,17.189631],[121.582947,17.18902]]]]}},{"type":"Feature","properties":{"ID_0":177,"ISO":"PHL","NAME_0":"Philippines","ID_1":2031,"NAME_1":"Isabela","ID_2":203119,"NAME_2":"Mallig","ID_3":203119012,"NAME_3":"San Jose Sur","NL_NAME_3":null,"VARNAME_3":null,"TYPE_3":"Barangay","ENGTYPE_3":"Village","PROVINCE":"Isabela","REGION":"Region II (Cagayan Valley)","id":"barangay-0203119012","name":"San Jose Sur","barangayCode":"0203119012","population":null,"formattedPop":null,"densityCategory":"No data","vulnerabilityRating":"No data","healthRiskLevel":"No data","areaKm2":3.98324,"centerLat":17.190548,"centerLng":121.594627,"geometrySource":"all_barangay-2.csv detailed WKT","geometryMatchMethod":"unique_official_admin_names","boundaryPointCount":34},"geometry":{"type":"MultiPolygon","coordinates":[[[[121.594772,17.168091],[121.595917,17.16695],[121.596519,17.165939],[121.597237,17.164619],[121.597107,17.162661],[121.596031,17.161169],[121.595093,17.159599],[121.593552,17.15897],[121.593063,17.15848],[121.593987,17.15708],[121.594673,17.15662],[121.595947,17.15674],[121.597656,17.15801],[121.598686,17.157631],[121.599007,17.156441],[121.599678,17.15531],[121.600838,17.154869],[121.601212,17.154779],[121.57225,17.15613],[121.5597,17.153839],[121.557426,17.15624],[121.557343,17.157],[121.557213,17.15799],[121.556747,17.158751],[121.556458,17.159571],[121.556068,17.16065],[121.554993,17.163361],[121.554848,17.16548],[121.566422,17.16769],[121.573891,17.167669],[121.580078,17.16724],[121.583908,17.167139],[121.586838,17.167459],[121.594772,17.168091]]]]}},{"type":"Feature","properties":{"ID_0":177,"ISO":"PHL","NAME_0":"Philippines","ID_1":2031,"NAME_1":"Isabela","ID_2":203119,"NAME_2":"Mallig","ID_3":203119013,"NAME_3":"Siempre Viva Norte","NL_NAME_3":null,"VARNAME_3":null,"TYPE_3":"Barangay","ENGTYPE_3":"Village","PROVINCE":"Isabela","REGION":"Region II (Cagayan Valley)","id":"barangay-0203119013","name":"Siempre Viva Norte","barangayCode":"0203119013","population":null,"formattedPop":null,"densityCategory":"No data","vulnerabilityRating":"No data","healthRiskLevel":"No data","areaKm2":6.048833,"centerLat":17.237929,"centerLng":121.633834,"geometrySource":"all_barangay-2.csv detailed WKT","geometryMatchMethod":"unique_official_admin_names","boundaryPointCount":27},"geometry":{"type":"MultiPolygon","coordinates":[[[[121.643822,17.212469],[121.643127,17.20821],[121.64315,17.2057],[121.643204,17.20072],[121.643517,17.19618],[121.643066,17.194281],[121.641998,17.193541],[121.640533,17.193279],[121.63987,17.193199],[121.639816,17.19301],[121.638649,17.19475],[121.637962,17.19528],[121.625343,17.19626],[121.624573,17.196899],[121.623367,17.197121],[121.623123,17.19714],[121.61853,17.197491],[121.61747,17.19883],[121.61718,17.20009],[121.616928,17.20122],[121.616287,17.202921],[121.616737,17.20425],[121.618011,17.20545],[121.619507,17.206579],[121.620399,17.20812],[121.61937,17.20982],[121.643822,17.212469]]]]}},{"type":"Feature","properties":{"ID_0":177,"ISO":"PHL","NAME_0":"Philippines","ID_1":2031,"NAME_1":"Isabela","ID_2":203119,"NAME_2":"Mallig","ID_3":203119014,"NAME_3":"Trinidad","NL_NAME_3":null,"VARNAME_3":null,"TYPE_3":"Barangay","ENGTYPE_3":"Village","PROVINCE":"Isabela","REGION":"Region II (Cagayan Valley)","id":"barangay-0203119014","name":"Trinidad","barangayCode":"0203119014","population":null,"formattedPop":null,"densityCategory":"No data","vulnerabilityRating":"No data","healthRiskLevel":"No data","areaKm2":14.023598,"centerLat":17.225699,"centerLng":121.670356,"geometrySource":"all_barangay-2.csv detailed WKT","geometryMatchMethod":"unique_official_admin_names","boundaryPointCount":30},"geometry":{"type":"MultiPolygon","coordinates":[[[[121.685883,17.21681],[121.685158,17.202431],[121.683388,17.178391],[121.648117,17.181271],[121.647743,17.18228],[121.64669,17.18297],[121.645233,17.183559],[121.643661,17.185011],[121.643997,17.185579],[121.644524,17.186529],[121.644234,17.187149],[121.643707,17.1873],[121.642853,17.18751],[121.641144,17.187241],[121.640152,17.187651],[121.639526,17.1889],[121.638359,17.18968],[121.638351,17.19095],[121.638908,17.19195],[121.639816,17.19301],[121.63987,17.193199],[121.640533,17.193279],[121.641998,17.193541],[121.643066,17.194281],[121.643517,17.19618],[121.643204,17.20072],[121.64315,17.2057],[121.643127,17.20821],[121.643822,17.212469],[121.685883,17.21681]]]]}},{"type":"Feature","properties":{"ID_0":177,"ISO":"PHL","NAME_0":"Philippines","ID_1":2031,"NAME_1":"Isabela","ID_2":203119,"NAME_2":"Mallig","ID_3":203119015,"NAME_3":"Victoria","NL_NAME_3":null,"VARNAME_3":null,"TYPE_3":"Barangay","ENGTYPE_3":"Village","PROVINCE":"Isabela","REGION":"Region II (Cagayan Valley)","id":"barangay-0203119015","name":"Victoria","barangayCode":"0203119015","population":null,"formattedPop":null,"densityCategory":"No data","vulnerabilityRating":"No data","healthRiskLevel":"No data","areaKm2":3.230657,"centerLat":17.195921,"centerLng":121.612842,"geometrySource":"all_barangay-2.csv detailed WKT","geometryMatchMethod":"unique_official_admin_names","boundaryPointCount":35},"geometry":{"type":"MultiPolygon","coordinates":[[[[121.610626,17.168871],[121.612503,17.16861],[121.613983,17.16671],[121.614349,17.16588],[121.615952,17.16432],[121.617691,17.164471],[121.620506,17.164101],[121.621719,17.163349],[121.622383,17.162609],[121.623741,17.1609],[121.624588,17.15876],[121.624924,17.156269],[121.62516,17.15486],[121.601212,17.154779],[121.600838,17.154869],[121.599678,17.15531],[121.599007,17.156441],[121.598686,17.157631],[121.597656,17.15801],[121.595947,17.15674],[121.594673,17.15662],[121.593987,17.15708],[121.593063,17.15848],[121.593552,17.15897],[121.595093,17.159599],[121.596031,17.161169],[121.597107,17.162661],[121.597237,17.164619],[121.596519,17.165939],[121.595917,17.16695],[121.594772,17.168091],[121.598701,17.16843],[121.601051,17.16893],[121.60672,17.16923],[121.610626,17.168871]]]]}},{"type":"Feature","properties":{"ID_0":177,"ISO":"PHL","NAME_0":"Philippines","ID_1":2031,"NAME_1":"Isabela","ID_2":203119,"NAME_2":"Mallig","ID_3":203119016,"NAME_3":"San Jose Norte II","NL_NAME_3":null,"VARNAME_3":null,"TYPE_3":"Barangay","ENGTYPE_3":"Village","PROVINCE":"Isabela","REGION":"Region II (Cagayan Valley)","id":"barangay-0203119016","name":"San Jose Norte II","barangayCode":"0203119016","population":null,"formattedPop":null,"densityCategory":"No data","vulnerabilityRating":"No data","healthRiskLevel":"No data","areaKm2":2.748413,"centerLat":17.20352,"centerLng":121.588113,"geometrySource":"all_barangay-2.csv detailed WKT","geometryMatchMethod":"unique_official_admin_names","boundaryPointCount":34},"geometry":{"type":"MultiPolygon","coordinates":[[[[121.583908,17.167139],[121.580078,17.16724],[121.573891,17.167669],[121.566422,17.16769],[121.554848,17.16548],[121.554703,17.1689],[121.554703,17.16894],[121.554718,17.16905],[121.555023,17.17145],[121.55545,17.172661],[121.554916,17.17387],[121.554367,17.17626],[121.554878,17.177891],[121.556297,17.178829],[121.557663,17.179979],[121.558701,17.180531],[121.56028,17.180599],[121.562729,17.18084],[121.566177,17.18117],[121.567268,17.1807],[121.568901,17.179291],[121.570763,17.178801],[121.571854,17.17807],[121.573212,17.17428],[121.574654,17.172701],[121.575249,17.17065],[121.577393,17.17144],[121.578201,17.170469],[121.578873,17.170521],[121.581139,17.17028],[121.583519,17.171169],[121.584084,17.17058],[121.584824,17.169689],[121.583908,17.167139]]]]}},{"type":"Feature","properties":{"ID_0":177,"ISO":"PHL","NAME_0":"Philippines","ID_1":2031,"NAME_1":"Isabela","ID_2":203119,"NAME_2":"Mallig","ID_3":203119017,"NAME_3":"San Ramon","NL_NAME_3":null,"VARNAME_3":null,"TYPE_3":"Barangay","ENGTYPE_3":"Village","PROVINCE":"Isabela","REGION":"Region II (Cagayan Valley)","id":"barangay-0203119017","name":"San Ramon","barangayCode":"0203119017","population":null,"formattedPop":null,"densityCategory":"No data","vulnerabilityRating":"No data","healthRiskLevel":"No data","areaKm2":11.240042,"centerLat":17.228238,"centerLng":121.567735,"geometrySource":"all_barangay-2.csv detailed WKT","geometryMatchMethod":"unique_official_admin_names","boundaryPointCount":34},"geometry":{"type":"MultiPolygon","coordinates":[[[[121.552696,17.20797],[121.567787,17.208941],[121.567413,17.20826],[121.566742,17.20788],[121.564148,17.206829],[121.564011,17.20533],[121.564041,17.20488],[121.564293,17.203291],[121.564789,17.202579],[121.567436,17.203569],[121.569321,17.203131],[121.569611,17.20166],[121.569962,17.19912],[121.571564,17.19696],[121.573387,17.19553],[121.575691,17.193871],[121.577187,17.192671],[121.578117,17.192051],[121.580544,17.190559],[121.582176,17.189631],[121.555801,17.188641],[121.555634,17.18927],[121.555313,17.19047],[121.555122,17.191799],[121.554909,17.19346],[121.554314,17.19512],[121.554123,17.196951],[121.554108,17.19862],[121.553879,17.199909],[121.553711,17.200781],[121.553711,17.20347],[121.553711,17.204281],[121.553307,17.206791],[121.552696,17.20797]]]]}},{"type":"Feature","properties":{"ID_0":177,"ISO":"PHL","NAME_0":"Philippines","ID_1":2031,"NAME_1":"Isabela","ID_2":203119,"NAME_2":"Mallig","ID_3":203119018,"NAME_3":"Siempre Viva Sur","NL_NAME_3":null,"VARNAME_3":null,"TYPE_3":"Barangay","ENGTYPE_3":"Village","PROVINCE":"Isabela","REGION":"Region II (Cagayan Valley)","id":"barangay-0203119018","name":"Siempre Viva Sur","barangayCode":"0203119018","population":null,"formattedPop":null,"densityCategory":"No data","vulnerabilityRating":"No data","healthRiskLevel":"No data","areaKm2":5.772567,"centerLat":17.21845,"centerLng":121.635959,"geometrySource":"all_barangay-2.csv detailed WKT","geometryMatchMethod":"unique_official_admin_names","boundaryPointCount":22},"geometry":{"type":"MultiPolygon","coordinates":[[[[121.639816,17.19301],[121.638908,17.19195],[121.638351,17.19095],[121.638359,17.18968],[121.639526,17.1889],[121.640152,17.187651],[121.639801,17.188021],[121.614464,17.1882],[121.615387,17.18936],[121.615936,17.19022],[121.616692,17.191629],[121.617729,17.194031],[121.618111,17.194321],[121.618858,17.196159],[121.61853,17.197491],[121.623123,17.19714],[121.623367,17.197121],[121.624573,17.196899],[121.625343,17.19626],[121.637962,17.19528],[121.638649,17.19475],[121.639816,17.19301]]]]}}]}
