{"type":"FeatureCollection","features":[{"type":"Feature","properties":{"ID_0":177,"ISO":"PHL","NAME_0":"Philippines","ID_1":1028,"NAME_1":"Ilocos Norte","ID_2":102821,"NAME_2":"Sarrat","ID_3":102821001,"NAME_3":"San Agustin","NL_NAME_3":null,"VARNAME_3":null,"TYPE_3":"Barangay","ENGTYPE_3":"Village","PROVINCE":"Ilocos Norte","REGION":"Region I (Ilocos Region)","id":"barangay-0102821001","name":"San Agustin","barangayCode":"0102821001","population":null,"formattedPop":null,"densityCategory":"No data","vulnerabilityRating":"No data","healthRiskLevel":"No data","areaKm2":0.185763,"centerLat":18.160198,"centerLng":120.644385,"geometrySource":"all_barangay-2.csv detailed WKT","geometryMatchMethod":"unique_official_admin_names","boundaryPointCount":11},"geometry":{"type":"MultiPolygon","coordinates":[[[[120.646347,18.16396],[120.645798,18.161489],[120.644814,18.157631],[120.644318,18.157631],[120.641121,18.15782],[120.641006,18.158279],[120.640846,18.158689],[120.640442,18.159889],[120.64164,18.160469],[120.643982,18.16498],[120.646347,18.16396]]]]}},{"type":"Feature","properties":{"ID_0":177,"ISO":"PHL","NAME_0":"Philippines","ID_1":1028,"NAME_1":"Ilocos Norte","ID_2":102821,"NAME_2":"Sarrat","ID_3":102821002,"NAME_3":"San Andres","NL_NAME_3":null,"VARNAME_3":null,"TYPE_3":"Barangay","ENGTYPE_3":"Village","PROVINCE":"Ilocos Norte","REGION":"Region I (Ilocos Region)","id":"barangay-0102821002","name":"San Andres","barangayCode":"0102821002","population":null,"formattedPop":null,"densityCategory":"No data","vulnerabilityRating":"No data","healthRiskLevel":"No data","areaKm2":9.605676,"centerLat":18.170416,"centerLng":120.669415,"geometrySource":"all_barangay-2.csv detailed WKT","geometryMatchMethod":"unique_official_admin_names","boundaryPointCount":34},"geometry":{"type":"MultiPolygon","coordinates":[[[[120.668182,18.187469],[120.672073,18.18898],[120.678322,18.191759],[120.679382,18.188],[120.679604,18.185921],[120.680191,18.18301],[120.680717,18.179979],[120.681778,18.17585],[120.680153,18.17309],[120.678261,18.17083],[120.676468,18.16921],[120.674927,18.16781],[120.673988,18.165911],[120.672272,18.16366],[120.669884,18.16254],[120.666634,18.161909],[120.664497,18.160761],[120.66227,18.160549],[120.659973,18.16041],[120.656982,18.16041],[120.656372,18.160879],[120.653839,18.16251],[120.651627,18.16346],[120.650208,18.1637],[120.651581,18.167191],[120.653137,18.172239],[120.6548,18.177191],[120.656219,18.179211],[120.657578,18.181061],[120.658188,18.18269],[120.658569,18.184799],[120.662903,18.18618],[120.666969,18.187241],[120.668182,18.187469]]]]}},{"type":"Feature","properties":{"ID_0":177,"ISO":"PHL","NAME_0":"Philippines","ID_1":1028,"NAME_1":"Ilocos Norte","ID_2":102821,"NAME_2":"Sarrat","ID_3":102821003,"NAME_3":"San Antonio","NL_NAME_3":null,"VARNAME_3":null,"TYPE_3":"Barangay","ENGTYPE_3":"Village","PROVINCE":"Ilocos Norte","REGION":"Region I (Ilocos Region)","id":"barangay-0102821003","name":"San Antonio","barangayCode":"0102821003","population":null,"formattedPop":null,"densityCategory":"No data","vulnerabilityRating":"No data","healthRiskLevel":"No data","areaKm2":2.525218,"centerLat":18.143222,"centerLng":120.63361,"geometrySource":"all_barangay-2.csv detailed WKT","geometryMatchMethod":"unique_official_admin_names","boundaryPointCount":22},"geometry":{"type":"MultiPolygon","coordinates":[[[[120.625648,18.152941],[120.640427,18.15048],[120.64006,18.14953],[120.639526,18.147739],[120.639023,18.145901],[120.638901,18.144819],[120.640106,18.143419],[120.641228,18.142269],[120.642151,18.140961],[120.641617,18.13913],[120.640717,18.138241],[120.638924,18.136391],[120.637863,18.13488],[120.637062,18.133511],[120.620399,18.137011],[120.62114,18.14006],[120.621803,18.141199],[120.622131,18.14283],[120.62294,18.145281],[120.623352,18.14629],[120.624573,18.15044],[120.625648,18.152941]]]]}},{"type":"Feature","properties":{"ID_0":177,"ISO":"PHL","NAME_0":"Philippines","ID_1":1028,"NAME_1":"Ilocos Norte","ID_2":102821,"NAME_2":"Sarrat","ID_3":102821004,"NAME_3":"San Bernabe","NL_NAME_3":null,"VARNAME_3":null,"TYPE_3":"Barangay","ENGTYPE_3":"Village","PROVINCE":"Ilocos Norte","REGION":"Region I (Ilocos Region)","id":"barangay-0102821004","name":"San Bernabe","barangayCode":"0102821004","population":null,"formattedPop":null,"densityCategory":"No data","vulnerabilityRating":"No data","healthRiskLevel":"No data","areaKm2":2.106662,"centerLat":18.09983,"centerLng":120.618863,"geometrySource":"all_barangay-2.csv detailed WKT","geometryMatchMethod":"unique_official_admin_names","boundaryPointCount":31},"geometry":{"type":"MultiPolygon","coordinates":[[[[120.608437,18.111851],[120.628616,18.11055],[120.625183,18.104429],[120.624588,18.103571],[120.624367,18.10273],[120.624077,18.10182],[120.623962,18.10104],[120.624107,18.099739],[120.62471,18.09831],[120.624718,18.09767],[120.624367,18.096741],[120.623047,18.095539],[120.622162,18.094231],[120.622383,18.092939],[120.62381,18.09222],[120.625381,18.091209],[120.623383,18.088949],[120.622612,18.087721],[120.621178,18.0865],[120.620247,18.085649],[120.619247,18.0849],[120.618896,18.087151],[120.618317,18.089809],[120.618423,18.09129],[120.618347,18.092541],[120.61731,18.09746],[120.616653,18.1],[120.614227,18.103121],[120.613243,18.105431],[120.609894,18.11039],[120.608437,18.111851]]]]}},{"type":"Feature","properties":{"ID_0":177,"ISO":"PHL","NAME_0":"Philippines","ID_1":1028,"NAME_1":"Ilocos Norte","ID_2":102821,"NAME_2":"Sarrat","ID_3":102821005,"NAME_3":"San Cristobal","NL_NAME_3":null,"VARNAME_3":null,"TYPE_3":"Barangay","ENGTYPE_3":"Village","PROVINCE":"Ilocos Norte","REGION":"Region I (Ilocos Region)","id":"barangay-0102821005","name":"San Cristobal","barangayCode":"0102821005","population":null,"formattedPop":null,"densityCategory":"No data","vulnerabilityRating":"No data","healthRiskLevel":"No data","areaKm2":3.056312,"centerLat":18.152242,"centerLng":120.670871,"geometrySource":"all_barangay-2.csv detailed WKT","geometryMatchMethod":"unique_official_admin_names","boundaryPointCount":38},"geometry":{"type":"MultiPolygon","coordinates":[[[[120.685547,18.16254],[120.685547,18.162201],[120.684708,18.16124],[120.683159,18.15905],[120.681778,18.15774],[120.679787,18.15538],[120.678207,18.153999],[120.675858,18.15206],[120.674843,18.151649],[120.673622,18.150721],[120.671677,18.150721],[120.670372,18.151171],[120.66832,18.15172],[120.666542,18.15254],[120.665062,18.15398],[120.661903,18.15427],[120.657921,18.154499],[120.652107,18.154671],[120.653214,18.157089],[120.653557,18.15778],[120.656372,18.160879],[120.656982,18.16041],[120.659973,18.16041],[120.66227,18.160549],[120.664497,18.160761],[120.666634,18.161909],[120.669884,18.16254],[120.672272,18.16366],[120.673988,18.165911],[120.674927,18.16781],[120.676468,18.16921],[120.678261,18.17083],[120.680153,18.17309],[120.681778,18.17585],[120.682716,18.172899],[120.684097,18.169189],[120.685188,18.16416],[120.685547,18.16254]]]]}},{"type":"Feature","properties":{"ID_0":177,"ISO":"PHL","NAME_0":"Philippines","ID_1":1028,"NAME_1":"Ilocos Norte","ID_2":102821,"NAME_2":"Sarrat","ID_3":102821006,"NAME_3":"San Felipe","NL_NAME_3":null,"VARNAME_3":null,"TYPE_3":"Barangay","ENGTYPE_3":"Village","PROVINCE":"Ilocos Norte","REGION":"Region I (Ilocos Region)","id":"barangay-0102821006","name":"San Felipe","barangayCode":"0102821006","population":null,"formattedPop":null,"densityCategory":"No data","vulnerabilityRating":"No data","healthRiskLevel":"No data","areaKm2":2.198251,"centerLat":18.116365,"centerLng":120.64112,"geometrySource":"all_barangay-2.csv detailed WKT","geometryMatchMethod":"unique_official_admin_names","boundaryPointCount":43},"geometry":{"type":"MultiPolygon","coordinates":[[[[120.645683,18.122511],[120.645073,18.120741],[120.644463,18.118059],[120.64386,18.11587],[120.644089,18.113689],[120.645409,18.112101],[120.648521,18.11121],[120.653313,18.11042],[120.657387,18.10993],[120.662422,18.110229],[120.665779,18.110331],[120.6689,18.11063],[120.672699,18.112261],[120.672203,18.10877],[120.672836,18.1049],[120.673424,18.100599],[120.673843,18.096821],[120.669609,18.102909],[120.666473,18.105181],[120.663963,18.106171],[120.659698,18.107],[120.654388,18.107269],[120.650833,18.107719],[120.646263,18.107809],[120.645042,18.107861],[120.641441,18.10792],[120.639702,18.1091],[120.638153,18.110451],[120.637108,18.11104],[120.634102,18.111771],[120.632179,18.11195],[120.630142,18.113279],[120.63131,18.115191],[120.63208,18.11709],[120.632736,18.11816],[120.636124,18.122299],[120.636749,18.123131],[120.639099,18.1273],[120.639832,18.127171],[120.640343,18.12653],[120.641663,18.12536],[120.643333,18.124081],[120.645683,18.122511]]]]}},{"type":"Feature","properties":{"ID_0":177,"ISO":"PHL","NAME_0":"Philippines","ID_1":1028,"NAME_1":"Ilocos Norte","ID_2":102821,"NAME_2":"Sarrat","ID_3":102821007,"NAME_3":"San Francisco","NL_NAME_3":null,"VARNAME_3":null,"TYPE_3":"Barangay","ENGTYPE_3":"Village","PROVINCE":"Ilocos Norte","REGION":"Region I (Ilocos Region)","id":"barangay-0102821007","name":"San Francisco","barangayCode":"0102821007","population":null,"formattedPop":null,"densityCategory":"No data","vulnerabilityRating":"No data","healthRiskLevel":"No data","areaKm2":0.374542,"centerLat":18.159706,"centerLng":120.650542,"geometrySource":"all_barangay-2.csv detailed WKT","geometryMatchMethod":"unique_official_admin_names","boundaryPointCount":10},"geometry":{"type":"MultiPolygon","coordinates":[[[[120.648407,18.163361],[120.649467,18.163561],[120.650208,18.1637],[120.651627,18.16346],[120.653839,18.16251],[120.656372,18.160879],[120.653557,18.15778],[120.650841,18.15827],[120.646759,18.158951],[120.648407,18.163361]]]]}},{"type":"Feature","properties":{"ID_0":177,"ISO":"PHL","NAME_0":"Philippines","ID_1":1028,"NAME_1":"Ilocos Norte","ID_2":102821,"NAME_2":"Sarrat","ID_3":102821008,"NAME_3":"San Isidro","NL_NAME_3":null,"VARNAME_3":null,"TYPE_3":"Barangay","ENGTYPE_3":"Village","PROVINCE":"Ilocos Norte","REGION":"Region I (Ilocos Region)","id":"barangay-0102821008","name":"San Isidro","barangayCode":"0102821008","population":null,"formattedPop":null,"densityCategory":"No data","vulnerabilityRating":"No data","healthRiskLevel":"No data","areaKm2":3.717866,"centerLat":18.119817,"centerLng":120.656567,"geometrySource":"all_barangay-2.csv detailed WKT","geometryMatchMethod":"unique_official_admin_names","boundaryPointCount":27},"geometry":{"type":"MultiPolygon","coordinates":[[[[120.673119,18.12318],[120.672249,18.11931],[120.67202,18.116659],[120.671883,18.114651],[120.672699,18.112261],[120.6689,18.11063],[120.665779,18.110331],[120.662422,18.110229],[120.657387,18.10993],[120.653313,18.11042],[120.648521,18.11121],[120.645409,18.112101],[120.644089,18.113689],[120.64386,18.11587],[120.644463,18.118059],[120.645073,18.120741],[120.645683,18.122511],[120.647087,18.12225],[120.64843,18.122339],[120.6502,18.12261],[120.652641,18.122959],[120.655289,18.12331],[120.657051,18.12361],[120.658142,18.12397],[120.66008,18.12549],[120.66188,18.12734],[120.673119,18.12318]]]]}},{"type":"Feature","properties":{"ID_0":177,"ISO":"PHL","NAME_0":"Philippines","ID_1":1028,"NAME_1":"Ilocos Norte","ID_2":102821,"NAME_2":"Sarrat","ID_3":102821009,"NAME_3":"San Joaquin","NL_NAME_3":null,"VARNAME_3":null,"TYPE_3":"Barangay","ENGTYPE_3":"Village","PROVINCE":"Ilocos Norte","REGION":"Region I (Ilocos Region)","id":"barangay-0102821009","name":"San Joaquin","barangayCode":"0102821009","population":null,"formattedPop":null,"densityCategory":"No data","vulnerabilityRating":"No data","healthRiskLevel":"No data","areaKm2":0.884936,"centerLat":18.166008,"centerLng":120.639198,"geometrySource":"all_barangay-2.csv detailed WKT","geometryMatchMethod":"unique_official_admin_names","boundaryPointCount":17},"geometry":{"type":"MultiPolygon","coordinates":[[[[120.643982,18.16498],[120.64164,18.160469],[120.640442,18.159889],[120.640312,18.16017],[120.639893,18.160891],[120.639603,18.161249],[120.637337,18.16403],[120.634613,18.168421],[120.632217,18.170271],[120.630997,18.171881],[120.634804,18.17173],[120.637863,18.171049],[120.64003,18.169861],[120.640831,18.168949],[120.641823,18.16708],[120.642563,18.165661],[120.643982,18.16498]]]]}},{"type":"Feature","properties":{"ID_0":177,"ISO":"PHL","NAME_0":"Philippines","ID_1":1028,"NAME_1":"Ilocos Norte","ID_2":102821,"NAME_2":"Sarrat","ID_3":102821010,"NAME_3":"San Jose","NL_NAME_3":null,"VARNAME_3":null,"TYPE_3":"Barangay","ENGTYPE_3":"Village","PROVINCE":"Ilocos Norte","REGION":"Region I (Ilocos Region)","id":"barangay-0102821010","name":"San Jose","barangayCode":"0102821010","population":null,"formattedPop":null,"densityCategory":"No data","vulnerabilityRating":"No data","healthRiskLevel":"No data","areaKm2":3.639756,"centerLat":18.146028,"centerLng":120.65667,"geometrySource":"all_barangay-2.csv detailed WKT","geometryMatchMethod":"unique_official_admin_names","boundaryPointCount":42},"geometry":{"type":"MultiPolygon","coordinates":[[[[120.652107,18.154671],[120.657921,18.154499],[120.661903,18.15427],[120.665062,18.15398],[120.666542,18.15254],[120.66832,18.15172],[120.670372,18.151171],[120.671677,18.150721],[120.673622,18.150721],[120.672867,18.148991],[120.672493,18.148439],[120.671494,18.148291],[120.671097,18.148331],[120.669449,18.14806],[120.667023,18.147409],[120.665154,18.14658],[120.664253,18.145901],[120.663452,18.144661],[120.662933,18.14266],[120.663116,18.14135],[120.660294,18.140779],[120.657097,18.13998],[120.654053,18.139179],[120.649887,18.13929],[120.647667,18.14043],[120.642151,18.140961],[120.641228,18.142269],[120.640106,18.143419],[120.638901,18.144819],[120.639023,18.145901],[120.639526,18.147739],[120.64006,18.14953],[120.640427,18.15048],[120.642357,18.15077],[120.644272,18.15147],[120.645813,18.151699],[120.647293,18.15152],[120.648857,18.15136],[120.65004,18.151831],[120.650673,18.152639],[120.651367,18.153761],[120.652107,18.154671]]]]}},{"type":"Feature","properties":{"ID_0":177,"ISO":"PHL","NAME_0":"Philippines","ID_1":1028,"NAME_1":"Ilocos Norte","ID_2":102821,"NAME_2":"Sarrat","ID_3":102821011,"NAME_3":"San Juan","NL_NAME_3":null,"VARNAME_3":null,"TYPE_3":"Barangay","ENGTYPE_3":"Village","PROVINCE":"Ilocos Norte","REGION":"Region I (Ilocos Region)","id":"barangay-0102821011","name":"San Juan","barangayCode":"0102821011","population":null,"formattedPop":null,"densityCategory":"No data","vulnerabilityRating":"No data","healthRiskLevel":"No data","areaKm2":1.496415,"centerLat":18.091211,"centerLng":120.633461,"geometrySource":"all_barangay-2.csv detailed WKT","geometryMatchMethod":"unique_official_admin_names","boundaryPointCount":32},"geometry":{"type":"MultiPolygon","coordinates":[[[[120.625381,18.091209],[120.625427,18.091261],[120.625633,18.091061],[120.633629,18.08997],[120.635239,18.08968],[120.639954,18.08843],[120.644157,18.08676],[120.651062,18.084681],[120.661827,18.08135],[120.674927,18.07634],[120.674629,18.07308],[120.673958,18.070271],[120.672813,18.065571],[120.661186,18.06628],[120.652344,18.068489],[120.643143,18.070101],[120.63945,18.071581],[120.634483,18.07443],[120.634262,18.076281],[120.632294,18.078381],[120.632469,18.079981],[120.631989,18.08222],[120.629623,18.08444],[120.629318,18.08494],[120.627823,18.085251],[120.626747,18.084709],[120.624779,18.084709],[120.622963,18.08559],[120.621178,18.0865],[120.622612,18.087721],[120.623383,18.088949],[120.625381,18.091209]]]]}},{"type":"Feature","properties":{"ID_0":177,"ISO":"PHL","NAME_0":"Philippines","ID_1":1028,"NAME_1":"Ilocos Norte","ID_2":102821,"NAME_2":"Sarrat","ID_3":102821012,"NAME_3":"San Leandro","NL_NAME_3":null,"VARNAME_3":null,"TYPE_3":"Barangay","ENGTYPE_3":"Village","PROVINCE":"Ilocos Norte","REGION":"Region I (Ilocos Region)","id":"barangay-0102821012","name":"San Leandro","barangayCode":"0102821012","population":null,"formattedPop":null,"densityCategory":"No data","vulnerabilityRating":"No data","healthRiskLevel":"No data","areaKm2":0.264124,"centerLat":18.152531,"centerLng":120.647025,"geometrySource":"all_barangay-2.csv detailed WKT","geometryMatchMethod":"unique_official_admin_names","boundaryPointCount":21},"geometry":{"type":"MultiPolygon","coordinates":[[[[120.641273,18.156071],[120.642433,18.156071],[120.64241,18.156321],[120.645714,18.15609],[120.649567,18.155849],[120.649483,18.155491],[120.650597,18.15534],[120.651161,18.15575],[120.652107,18.154671],[120.651367,18.153761],[120.650673,18.152639],[120.65004,18.151831],[120.648857,18.15136],[120.647293,18.15152],[120.645813,18.151699],[120.644272,18.15147],[120.642357,18.15077],[120.640427,18.15048],[120.641037,18.151501],[120.641472,18.153641],[120.641273,18.156071]]]]}},{"type":"Feature","properties":{"ID_0":177,"ISO":"PHL","NAME_0":"Philippines","ID_1":1028,"NAME_1":"Ilocos Norte","ID_2":102821,"NAME_2":"Sarrat","ID_3":102821014,"NAME_3":"San Lorenzo","NL_NAME_3":null,"VARNAME_3":null,"TYPE_3":"Barangay","ENGTYPE_3":"Village","PROVINCE":"Ilocos Norte","REGION":"Region I (Ilocos Region)","id":"barangay-0102821014","name":"San Lorenzo","barangayCode":"0102821014","population":null,"formattedPop":null,"densityCategory":"No data","vulnerabilityRating":"No data","healthRiskLevel":"No data","areaKm2":1.185556,"centerLat":18.133806,"centerLng":120.629993,"geometrySource":"all_barangay-2.csv detailed WKT","geometryMatchMethod":"unique_official_admin_names","boundaryPointCount":8},"geometry":{"type":"MultiPolygon","coordinates":[[[[120.637062,18.133511],[120.636787,18.13142],[120.637047,18.13052],[120.637337,18.129551],[120.61834,18.131241],[120.619377,18.134781],[120.620399,18.137011],[120.637062,18.133511]]]]}},{"type":"Feature","properties":{"ID_0":177,"ISO":"PHL","NAME_0":"Philippines","ID_1":1028,"NAME_1":"Ilocos Norte","ID_2":102821,"NAME_2":"Sarrat","ID_3":102821015,"NAME_3":"San Manuel","NL_NAME_3":null,"VARNAME_3":null,"TYPE_3":"Barangay","ENGTYPE_3":"Village","PROVINCE":"Ilocos Norte","REGION":"Region I (Ilocos Region)","id":"barangay-0102821015","name":"San Manuel","barangayCode":"0102821015","population":null,"formattedPop":null,"densityCategory":"No data","vulnerabilityRating":"No data","healthRiskLevel":"No data","areaKm2":2.53576,"centerLat":18.156665,"centerLng":120.635708,"geometrySource":"all_barangay-2.csv detailed WKT","geometryMatchMethod":"unique_official_admin_names","boundaryPointCount":21},"geometry":{"type":"MultiPolygon","coordinates":[[[[120.630997,18.171881],[120.632217,18.170271],[120.634613,18.168421],[120.637337,18.16403],[120.639603,18.161249],[120.639893,18.160891],[120.640312,18.16017],[120.640442,18.159889],[120.640846,18.158689],[120.641006,18.158279],[120.641121,18.15782],[120.641273,18.156071],[120.641472,18.153641],[120.641037,18.151501],[120.640427,18.15048],[120.625648,18.152941],[120.627892,18.160509],[120.628853,18.16395],[120.629707,18.16773],[120.63018,18.16959],[120.630997,18.171881]]]]}},{"type":"Feature","properties":{"ID_0":177,"ISO":"PHL","NAME_0":"Philippines","ID_1":1028,"NAME_1":"Ilocos Norte","ID_2":102821,"NAME_2":"Sarrat","ID_3":102821016,"NAME_3":"San Marcos","NL_NAME_3":null,"VARNAME_3":null,"TYPE_3":"Barangay","ENGTYPE_3":"Village","PROVINCE":"Ilocos Norte","REGION":"Region I (Ilocos Region)","id":"barangay-0102821016","name":"San Marcos","barangayCode":"0102821016","population":null,"formattedPop":null,"densityCategory":"No data","vulnerabilityRating":"No data","healthRiskLevel":"No data","areaKm2":1.746445,"centerLat":18.140434,"centerLng":120.671395,"geometrySource":"all_barangay-2.csv detailed WKT","geometryMatchMethod":"unique_official_admin_names","boundaryPointCount":46},"geometry":{"type":"MultiPolygon","coordinates":[[[[120.685547,18.16254],[120.687798,18.15732],[120.689613,18.153669],[120.692207,18.14934],[120.690399,18.146219],[120.689827,18.14538],[120.68856,18.14394],[120.686974,18.142719],[120.685097,18.14023],[120.684341,18.13921],[120.681488,18.13583],[120.68029,18.134411],[120.679283,18.133261],[120.678032,18.13205],[120.676903,18.130711],[120.676529,18.130211],[120.675407,18.128201],[120.673119,18.12318],[120.66188,18.12734],[120.662239,18.128201],[120.66333,18.13015],[120.663857,18.132429],[120.663544,18.13446],[120.663399,18.136959],[120.663208,18.138599],[120.663116,18.14135],[120.662933,18.14266],[120.663452,18.144661],[120.664253,18.145901],[120.665154,18.14658],[120.667023,18.147409],[120.669449,18.14806],[120.671097,18.148331],[120.671494,18.148291],[120.672493,18.148439],[120.672867,18.148991],[120.673622,18.150721],[120.674843,18.151649],[120.675858,18.15206],[120.678207,18.153999],[120.679787,18.15538],[120.681778,18.15774],[120.683159,18.15905],[120.684708,18.16124],[120.685547,18.162201],[120.685547,18.16254]]]]}},{"type":"Feature","properties":{"ID_0":177,"ISO":"PHL","NAME_0":"Philippines","ID_1":1028,"NAME_1":"Ilocos Norte","ID_2":102821,"NAME_2":"Sarrat","ID_3":102821017,"NAME_3":"San Nicolas","NL_NAME_3":null,"VARNAME_3":null,"TYPE_3":"Barangay","ENGTYPE_3":"Village","PROVINCE":"Ilocos Norte","REGION":"Region I (Ilocos Region)","id":"barangay-0102821017","name":"San Nicolas","barangayCode":"0102821017","population":null,"formattedPop":null,"densityCategory":"No data","vulnerabilityRating":"No data","healthRiskLevel":"No data","areaKm2":1.497558,"centerLat":18.12745,"centerLng":120.629466,"geometrySource":"all_barangay-2.csv detailed WKT","geometryMatchMethod":"unique_official_admin_names","boundaryPointCount":17},"geometry":{"type":"MultiPolygon","coordinates":[[[[120.61834,18.131241],[120.637337,18.129551],[120.638344,18.12813],[120.639099,18.1273],[120.636749,18.123131],[120.636124,18.122299],[120.632736,18.11816],[120.630531,18.121401],[120.629112,18.123119],[120.627129,18.124649],[120.624474,18.125919],[120.622559,18.1262],[120.621162,18.126369],[120.618446,18.125919],[120.616417,18.12571],[120.617622,18.128691],[120.61834,18.131241]]]]}},{"type":"Feature","properties":{"ID_0":177,"ISO":"PHL","NAME_0":"Philippines","ID_1":1028,"NAME_1":"Ilocos Norte","ID_2":102821,"NAME_2":"Sarrat","ID_3":102821018,"NAME_3":"San Pedro","NL_NAME_3":null,"VARNAME_3":null,"TYPE_3":"Barangay","ENGTYPE_3":"Village","PROVINCE":"Ilocos Norte","REGION":"Region I (Ilocos Region)","id":"barangay-0102821018","name":"San Pedro","barangayCode":"0102821018","population":null,"formattedPop":null,"densityCategory":"No data","vulnerabilityRating":"No data","healthRiskLevel":"No data","areaKm2":3.357063,"centerLat":18.08302,"centerLng":120.630962,"geometrySource":"all_barangay-2.csv detailed WKT","geometryMatchMethod":"unique_official_admin_names","boundaryPointCount":57},"geometry":{"type":"MultiPolygon","coordinates":[[[[120.621178,18.0865],[120.622963,18.08559],[120.624779,18.084709],[120.626747,18.084709],[120.627823,18.085251],[120.629318,18.08494],[120.629623,18.08444],[120.631989,18.08222],[120.632469,18.079981],[120.632294,18.078381],[120.634262,18.076281],[120.634483,18.07443],[120.63945,18.071581],[120.643143,18.070101],[120.652344,18.068489],[120.661186,18.06628],[120.672813,18.065571],[120.671066,18.06197],[120.670143,18.06078],[120.669449,18.059589],[120.669403,18.05937],[120.668243,18.058069],[120.667763,18.056721],[120.662956,18.05154],[120.66069,18.049999],[120.65683,18.04715],[120.652092,18.04368],[120.645111,18.040251],[120.642342,18.039551],[120.638733,18.03875],[120.63559,18.038099],[120.632957,18.03754],[120.631393,18.03701],[120.62841,18.03565],[120.628212,18.035339],[120.625443,18.0327],[120.623291,18.031839],[120.622482,18.030729],[120.62159,18.029631],[120.619888,18.028299],[120.619217,18.035589],[120.619164,18.041531],[120.619659,18.044491],[120.620537,18.048321],[120.621819,18.052481],[120.623108,18.05448],[120.625137,18.05801],[120.625893,18.06064],[120.626503,18.062811],[120.626663,18.063601],[120.626617,18.067459],[120.626083,18.07259],[120.622658,18.07802],[120.621338,18.080851],[120.619247,18.0849],[120.620247,18.085649],[120.621178,18.0865]]]]}},{"type":"Feature","properties":{"ID_0":177,"ISO":"PHL","NAME_0":"Philippines","ID_1":1028,"NAME_1":"Ilocos Norte","ID_2":102821,"NAME_2":"Sarrat","ID_3":102821019,"NAME_3":"San Roque","NL_NAME_3":null,"VARNAME_3":null,"TYPE_3":"Barangay","ENGTYPE_3":"Village","PROVINCE":"Ilocos Norte","REGION":"Region I (Ilocos Region)","id":"barangay-0102821019","name":"San Roque","barangayCode":"0102821019","population":null,"formattedPop":null,"densityCategory":"No data","vulnerabilityRating":"No data","healthRiskLevel":"No data","areaKm2":2.792495,"centerLat":18.172373,"centerLng":120.646773,"geometrySource":"all_barangay-2.csv detailed WKT","geometryMatchMethod":"unique_official_admin_names","boundaryPointCount":29},"geometry":{"type":"MultiPolygon","coordinates":[[[[120.658569,18.184799],[120.658188,18.18269],[120.657578,18.181061],[120.656219,18.179211],[120.6548,18.177191],[120.653137,18.172239],[120.651581,18.167191],[120.650208,18.1637],[120.649467,18.163561],[120.648407,18.163361],[120.647324,18.1633],[120.646912,18.16362],[120.646347,18.16396],[120.643982,18.16498],[120.642563,18.165661],[120.641823,18.16708],[120.640831,18.168949],[120.64003,18.169861],[120.637863,18.171049],[120.634804,18.17173],[120.630997,18.171881],[120.632271,18.17304],[120.634491,18.174669],[120.63588,18.175579],[120.641418,18.17852],[120.646301,18.180229],[120.649757,18.181629],[120.654007,18.18343],[120.658569,18.184799]]]]}},{"type":"Feature","properties":{"ID_0":177,"ISO":"PHL","NAME_0":"Philippines","ID_1":1028,"NAME_1":"Ilocos Norte","ID_2":102821,"NAME_2":"Sarrat","ID_3":102821020,"NAME_3":"San Vicente","NL_NAME_3":null,"VARNAME_3":null,"TYPE_3":"Barangay","ENGTYPE_3":"Village","PROVINCE":"Ilocos Norte","REGION":"Region I (Ilocos Region)","id":"barangay-0102821020","name":"San Vicente","barangayCode":"0102821020","population":null,"formattedPop":null,"densityCategory":"No data","vulnerabilityRating":"No data","healthRiskLevel":"No data","areaKm2":0.243158,"centerLat":18.156024,"centerLng":120.646771,"geometrySource":"all_barangay-2.csv detailed WKT","geometryMatchMethod":"unique_official_admin_names","boundaryPointCount":19},"geometry":{"type":"MultiPolygon","coordinates":[[[[120.653557,18.15778],[120.653214,18.157089],[120.652107,18.154671],[120.651161,18.15575],[120.650597,18.15534],[120.649483,18.155491],[120.649567,18.155849],[120.645714,18.15609],[120.64241,18.156321],[120.642433,18.156071],[120.641273,18.156071],[120.641121,18.15782],[120.644318,18.157631],[120.644814,18.157631],[120.645363,18.157579],[120.646271,18.15752],[120.646759,18.158951],[120.650841,18.15827],[120.653557,18.15778]]]]}},{"type":"Feature","properties":{"ID_0":177,"ISO":"PHL","NAME_0":"Philippines","ID_1":1028,"NAME_1":"Ilocos Norte","ID_2":102821,"NAME_2":"Sarrat","ID_3":102821021,"NAME_3":"Santa Barbara","NL_NAME_3":null,"VARNAME_3":null,"TYPE_3":"Barangay","ENGTYPE_3":"Village","PROVINCE":"Ilocos Norte","REGION":"Region I (Ilocos Region)","id":"barangay-0102821021","name":"Santa Barbara","barangayCode":"0102821021","population":null,"formattedPop":null,"densityCategory":"No data","vulnerabilityRating":"No data","healthRiskLevel":"No data","areaKm2":0.143988,"centerLat":18.160255,"centerLng":120.646514,"geometrySource":"all_barangay-2.csv detailed WKT","geometryMatchMethod":"unique_official_admin_names","boundaryPointCount":10},"geometry":{"type":"MultiPolygon","coordinates":[[[[120.646347,18.16396],[120.646912,18.16362],[120.647324,18.1633],[120.648407,18.163361],[120.646759,18.158951],[120.646271,18.15752],[120.645363,18.157579],[120.644814,18.157631],[120.645798,18.161489],[120.646347,18.16396]]]]}},{"type":"Feature","properties":{"ID_0":177,"ISO":"PHL","NAME_0":"Philippines","ID_1":1028,"NAME_1":"Ilocos Norte","ID_2":102821,"NAME_2":"Sarrat","ID_3":102821022,"NAME_3":"Santa Magdalena","NL_NAME_3":null,"VARNAME_3":null,"TYPE_3":"Barangay","ENGTYPE_3":"Village","PROVINCE":"Ilocos Norte","REGION":"Region I (Ilocos Region)","id":"barangay-0102821022","name":"Santa Magdalena","barangayCode":"0102821022","population":null,"formattedPop":null,"densityCategory":"No data","vulnerabilityRating":"No data","healthRiskLevel":"No data","areaKm2":3.157003,"centerLat":18.099032,"centerLng":120.637844,"geometrySource":"all_barangay-2.csv detailed WKT","geometryMatchMethod":"unique_official_admin_names","boundaryPointCount":40},"geometry":{"type":"MultiPolygon","coordinates":[[[[120.673843,18.096821],[120.674713,18.09058],[120.675232,18.084511],[120.675346,18.0811],[120.675247,18.078171],[120.674927,18.07634],[120.661827,18.08135],[120.651062,18.084681],[120.644157,18.08676],[120.639954,18.08843],[120.635239,18.08968],[120.633629,18.08997],[120.625633,18.091061],[120.625427,18.091261],[120.625381,18.091209],[120.62381,18.09222],[120.622383,18.092939],[120.622162,18.094231],[120.623047,18.095539],[120.624367,18.096741],[120.624718,18.09767],[120.62471,18.09831],[120.624107,18.099739],[120.623962,18.10104],[120.624077,18.10182],[120.624367,18.10273],[120.629044,18.102591],[120.63266,18.1014],[120.640602,18.10022],[120.646599,18.099331],[120.651848,18.097919],[120.653793,18.096531],[120.656181,18.095631],[120.658707,18.09457],[120.660507,18.093691],[120.663818,18.093679],[120.667427,18.09436],[120.668739,18.09486],[120.672112,18.096149],[120.673843,18.096821]]]]}},{"type":"Feature","properties":{"ID_0":177,"ISO":"PHL","NAME_0":"Philippines","ID_1":1028,"NAME_1":"Ilocos Norte","ID_2":102821,"NAME_2":"Sarrat","ID_3":102821023,"NAME_3":"Santa Rosa","NL_NAME_3":null,"VARNAME_3":null,"TYPE_3":"Barangay","ENGTYPE_3":"Village","PROVINCE":"Ilocos Norte","REGION":"Region I (Ilocos Region)","id":"barangay-0102821023","name":"Santa Rosa","barangayCode":"0102821023","population":null,"formattedPop":null,"densityCategory":"No data","vulnerabilityRating":"No data","healthRiskLevel":"No data","areaKm2":3.883229,"centerLat":18.115739,"centerLng":120.622412,"geometrySource":"all_barangay-2.csv detailed WKT","geometryMatchMethod":"unique_official_admin_names","boundaryPointCount":19},"geometry":{"type":"MultiPolygon","coordinates":[[[[120.632736,18.11816],[120.63208,18.11709],[120.63131,18.115191],[120.630142,18.113279],[120.629761,18.112619],[120.628616,18.11055],[120.608437,18.111851],[120.60968,18.11455],[120.609497,18.11562],[120.614037,18.12067],[120.616417,18.12571],[120.618446,18.125919],[120.621162,18.126369],[120.622559,18.1262],[120.624474,18.125919],[120.627129,18.124649],[120.629112,18.123119],[120.630531,18.121401],[120.632736,18.11816]]]]}},{"type":"Feature","properties":{"ID_0":177,"ISO":"PHL","NAME_0":"Philippines","ID_1":1028,"NAME_1":"Ilocos Norte","ID_2":102821,"NAME_2":"Sarrat","ID_3":102821024,"NAME_3":"Santo Santiago","NL_NAME_3":null,"VARNAME_3":null,"TYPE_3":"Barangay","ENGTYPE_3":"Village","PROVINCE":"Ilocos Norte","REGION":"Region I (Ilocos Region)","id":"barangay-0102821024","name":"Santo Santiago","barangayCode":"0102821024","population":null,"formattedPop":null,"densityCategory":"No data","vulnerabilityRating":"No data","healthRiskLevel":"No data","areaKm2":1.875384,"centerLat":18.106956,"centerLng":120.642717,"geometrySource":"all_barangay-2.csv detailed WKT","geometryMatchMethod":"unique_official_admin_names","boundaryPointCount":35},"geometry":{"type":"MultiPolygon","coordinates":[[[[120.628616,18.11055],[120.629761,18.112619],[120.630142,18.113279],[120.632179,18.11195],[120.634102,18.111771],[120.637108,18.11104],[120.638153,18.110451],[120.639702,18.1091],[120.641441,18.10792],[120.645042,18.107861],[120.646263,18.107809],[120.650833,18.107719],[120.654388,18.107269],[120.659698,18.107],[120.663963,18.106171],[120.666473,18.105181],[120.669609,18.102909],[120.673843,18.096821],[120.672112,18.096149],[120.668739,18.09486],[120.667427,18.09436],[120.663818,18.093679],[120.660507,18.093691],[120.658707,18.09457],[120.656181,18.095631],[120.653793,18.096531],[120.651848,18.097919],[120.646599,18.099331],[120.640602,18.10022],[120.63266,18.1014],[120.629044,18.102591],[120.624367,18.10273],[120.624588,18.103571],[120.625183,18.104429],[120.628616,18.11055]]]]}},{"type":"Feature","properties":{"ID_0":177,"ISO":"PHL","NAME_0":"Philippines","ID_1":1028,"NAME_1":"Ilocos Norte","ID_2":102821,"NAME_2":"Sarrat","ID_3":102821025,"NAME_3":"Santo Tomas","NL_NAME_3":null,"VARNAME_3":null,"TYPE_3":"Barangay","ENGTYPE_3":"Village","PROVINCE":"Ilocos Norte","REGION":"Region I (Ilocos Region)","id":"barangay-0102821025","name":"Santo Tomas","barangayCode":"0102821025","population":null,"formattedPop":null,"densityCategory":"No data","vulnerabilityRating":"No data","healthRiskLevel":"No data","areaKm2":4.426098,"centerLat":18.132415,"centerLng":120.650226,"geometrySource":"all_barangay-2.csv detailed WKT","geometryMatchMethod":"unique_official_admin_names","boundaryPointCount":38},"geometry":{"type":"MultiPolygon","coordinates":[[[[120.663116,18.14135],[120.663208,18.138599],[120.663399,18.136959],[120.663544,18.13446],[120.663857,18.132429],[120.66333,18.13015],[120.662239,18.128201],[120.66188,18.12734],[120.66008,18.12549],[120.658142,18.12397],[120.657051,18.12361],[120.655289,18.12331],[120.652641,18.122959],[120.6502,18.12261],[120.64843,18.122339],[120.647087,18.12225],[120.645683,18.122511],[120.643333,18.124081],[120.641663,18.12536],[120.640343,18.12653],[120.639832,18.127171],[120.639099,18.1273],[120.638344,18.12813],[120.637337,18.129551],[120.637047,18.13052],[120.636787,18.13142],[120.637062,18.133511],[120.637863,18.13488],[120.638924,18.136391],[120.640717,18.138241],[120.641617,18.13913],[120.642151,18.140961],[120.647667,18.14043],[120.649887,18.13929],[120.654053,18.139179],[120.657097,18.13998],[120.660294,18.140779],[120.663116,18.14135]]]]}}]}
