{"type":"FeatureCollection","features":[{"type":"Feature","properties":{"ID_0":177,"ISO":"PHL","NAME_0":"Philippines","ID_1":6006,"NAME_1":"Antique","ID_2":600601,"NAME_2":"Anini-y","ID_3":600601001,"NAME_3":"Bayo Grande","NL_NAME_3":null,"VARNAME_3":null,"TYPE_3":"Barangay","ENGTYPE_3":"Village","PROVINCE":"Antique","REGION":"Region VI (Western Visayas)","id":"barangay-0600601001","name":"Bayo Grande","barangayCode":"0600601001","population":null,"formattedPop":null,"densityCategory":"No data","vulnerabilityRating":"No data","healthRiskLevel":"No data","areaKm2":1.8317,"centerLat":10.466345,"centerLng":121.923448,"geometrySource":"all_barangay-2.csv detailed WKT","geometryMatchMethod":"unique_official_admin_names","boundaryPointCount":45},"geometry":{"type":"MultiPolygon","coordinates":[[[[121.917236,10.47709],[121.92205,10.47708],[121.931877,10.47158],[121.930122,10.46293],[121.914429,10.46133],[121.914352,10.46148],[121.914169,10.46186],[121.913986,10.46224],[121.913979,10.46263],[121.913979,10.46304],[121.913803,10.46351],[121.913834,10.46418],[121.914101,10.4648],[121.914253,10.46536],[121.914452,10.46577],[121.91468,10.4661],[121.914917,10.46639],[121.915192,10.46667],[121.915497,10.46694],[121.915848,10.46724],[121.917,10.46797],[121.918182,10.46852],[121.918457,10.46873],[121.918808,10.46914],[121.919159,10.46984],[121.919159,10.47004],[121.919159,10.47032],[121.919083,10.47047],[121.919022,10.4706],[121.918739,10.47108],[121.918671,10.4717],[121.918533,10.47195],[121.918442,10.4721],[121.918213,10.47265],[121.918137,10.47334],[121.918083,10.47388],[121.917969,10.47437],[121.917778,10.47477],[121.917526,10.47509],[121.917252,10.47532],[121.917007,10.47556],[121.916901,10.47585],[121.916946,10.47638],[121.917107,10.47678],[121.917236,10.47709]]]]}},{"type":"Feature","properties":{"ID_0":177,"ISO":"PHL","NAME_0":"Philippines","ID_1":6006,"NAME_1":"Antique","ID_2":600601,"NAME_2":"Anini-y","ID_3":600601002,"NAME_3":"Bayo Pequeño","NL_NAME_3":null,"VARNAME_3":"Bayo Pequeno","TYPE_3":"Barangay","ENGTYPE_3":"Village","PROVINCE":"Antique","REGION":"Region VI (Western Visayas)","id":"barangay-0600601002","name":"Bayo Pequeño","barangayCode":"0600601002","population":null,"formattedPop":null,"densityCategory":"No data","vulnerabilityRating":"No data","healthRiskLevel":"No data","areaKm2":1.267634,"centerLat":10.4584,"centerLng":121.923023,"geometrySource":"barangays.geojson simplified fallback","geometryMatchMethod":"simplified_fallback","boundaryPointCount":5},"geometry":{"type":"Polygon","coordinates":[[[121.933094965,10.460117706000062],[121.92731895200006,10.456130006000024],[121.91483692300005,10.452839037000047],[121.91525246100002,10.460753758000067],[121.933094965,10.460117706000062]]]}},{"type":"Feature","properties":{"ID_0":177,"ISO":"PHL","NAME_0":"Philippines","ID_1":6006,"NAME_1":"Antique","ID_2":600601,"NAME_2":"Anini-y","ID_3":600601004,"NAME_3":"Butuan","NL_NAME_3":null,"VARNAME_3":null,"TYPE_3":"Barangay","ENGTYPE_3":"Village","PROVINCE":"Antique","REGION":"Region VI (Western Visayas)","id":"barangay-0600601004","name":"Butuan","barangayCode":"0600601004","population":null,"formattedPop":null,"densityCategory":"No data","vulnerabilityRating":"No data","healthRiskLevel":"No data","areaKm2":1.517957,"centerLat":10.430044,"centerLng":121.932553,"geometrySource":"all_barangay-2.csv detailed WKT","geometryMatchMethod":"unique_official_admin_names","boundaryPointCount":101},"geometry":{"type":"MultiPolygon","coordinates":[[[[121.920853,10.42076],[121.921066,10.42048],[121.921494,10.42034],[121.921692,10.4202],[121.922333,10.41985],[121.922546,10.41956],[121.922768,10.41927],[121.922981,10.41887],[121.922768,10.41825],[121.922768,10.41784],[121.922699,10.41763],[121.922279,10.41708],[121.92186,10.4168],[121.921516,10.41653],[121.921516,10.41535],[121.921303,10.41507],[121.920753,10.41507],[121.92054,10.41514],[121.920052,10.41521],[121.919769,10.41521],[121.919563,10.41494],[121.91935,10.41494],[121.919067,10.41514],[121.918861,10.41535],[121.918716,10.4159],[121.918518,10.41618],[121.918098,10.41625],[121.917259,10.41625],[121.917053,10.41618],[121.91684,10.41618],[121.916702,10.4161],[121.916397,10.41638],[121.916229,10.4168],[121.916473,10.41734],[121.916946,10.41783],[121.917717,10.41827],[121.918068,10.41854],[121.918419,10.41882],[121.918762,10.41951],[121.918694,10.42007],[121.918617,10.42048],[121.918617,10.42062],[121.918907,10.42076],[121.919319,10.42076],[121.919807,10.42062],[121.920357,10.42076],[121.920853,10.42076]]],[[[121.940002,10.43613],[121.943108,10.43336],[121.935806,10.42458],[121.935791,10.42453],[121.935707,10.42458],[121.935417,10.42485],[121.935081,10.42509],[121.934807,10.42539],[121.93454,10.42567],[121.934273,10.42588],[121.933998,10.42611],[121.933647,10.4263],[121.933167,10.42632],[121.932564,10.42641],[121.932129,10.42638],[121.931793,10.42653],[121.931488,10.42681],[121.931183,10.4271],[121.930862,10.42737],[121.930473,10.42756],[121.930069,10.42778],[121.929649,10.42799],[121.929153,10.4281],[121.928719,10.42833],[121.928284,10.42854],[121.927834,10.42872],[121.927521,10.4289],[121.92762,10.4291],[121.927597,10.42965],[121.927567,10.43035],[121.927437,10.43065],[121.927528,10.43137],[121.92807,10.43192],[121.928467,10.43245],[121.92865,10.43286],[121.928642,10.43407],[121.928802,10.43435],[121.928841,10.43442],[121.928902,10.43453],[121.929314,10.43465],[121.929893,10.43458],[121.930481,10.43516],[121.931038,10.43515],[121.931732,10.43526],[121.932343,10.43596],[121.932533,10.43611],[121.932716,10.43626],[121.932983,10.43628],[121.933472,10.43633],[121.933929,10.43722],[121.93457,10.43818],[121.935448,10.43874],[121.936272,10.43946],[121.940002,10.43613]]]]}},{"type":"Feature","properties":{"ID_0":177,"ISO":"PHL","NAME_0":"Philippines","ID_1":6006,"NAME_1":"Antique","ID_2":600601,"NAME_2":"Anini-y","ID_3":600601005,"NAME_3":"Casay","NL_NAME_3":null,"VARNAME_3":null,"TYPE_3":"Barangay","ENGTYPE_3":"Village","PROVINCE":"Antique","REGION":"Region VI (Western Visayas)","id":"barangay-0600601005","name":"Casay","barangayCode":"0600601005","population":null,"formattedPop":null,"densityCategory":"No data","vulnerabilityRating":"No data","healthRiskLevel":"No data","areaKm2":1.521953,"centerLat":10.443775,"centerLng":121.988743,"geometrySource":"all_barangay-2.csv detailed WKT","geometryMatchMethod":"unique_official_admin_names","boundaryPointCount":86},"geometry":{"type":"MultiPolygon","coordinates":[[[[121.991524,10.45615],[121.992737,10.44625],[121.992363,10.44493],[121.99234,10.44369],[121.992569,10.4425],[121.994377,10.44108],[121.995323,10.43962],[121.996117,10.43866],[121.996582,10.43743],[121.996399,10.43714],[121.996231,10.43659],[121.996017,10.43638],[121.995811,10.43596],[121.995399,10.43562],[121.994911,10.43541],[121.994766,10.43527],[121.99485,10.43547],[121.994781,10.43569],[121.994667,10.43585],[121.994347,10.43587],[121.993973,10.43585],[121.993767,10.43599],[121.993439,10.43632],[121.993187,10.43647],[121.992683,10.43695],[121.992493,10.4372],[121.992599,10.43735],[121.992943,10.43789],[121.99334,10.43826],[121.993568,10.43852],[121.993797,10.4392],[121.994072,10.43951],[121.994133,10.44009],[121.994049,10.44041],[121.99398,10.44055],[121.993752,10.44057],[121.993446,10.4406],[121.993301,10.44052],[121.992943,10.44041],[121.992249,10.44076],[121.991669,10.44052],[121.991188,10.44018],[121.991089,10.44026],[121.990501,10.44012],[121.989754,10.43952],[121.989288,10.4393],[121.988907,10.43914],[121.988319,10.43877],[121.987679,10.43859],[121.986794,10.43858],[121.986122,10.43875],[121.98539,10.4393],[121.985809,10.43973],[121.986649,10.43994],[121.987083,10.4404],[121.987282,10.44072],[121.987259,10.44147],[121.987213,10.44232],[121.987267,10.44255],[121.987038,10.44271],[121.986389,10.44238],[121.985802,10.44181],[121.985199,10.44159],[121.985046,10.44183],[121.984596,10.44186],[121.984108,10.4418],[121.983673,10.44198],[121.9832,10.4424],[121.982918,10.443],[121.982986,10.44355],[121.983467,10.44356],[121.984077,10.44377],[121.984306,10.44412],[121.984261,10.44508],[121.983879,10.44641],[121.983521,10.4469],[121.982887,10.44721],[121.982521,10.44695],[121.982033,10.44671],[121.981728,10.44676],[121.981239,10.44719],[121.981247,10.44787],[121.980881,10.4479],[121.984657,10.4516],[121.987541,10.4529],[121.991524,10.45615]]]]}},{"type":"Feature","properties":{"ID_0":177,"ISO":"PHL","NAME_0":"Philippines","ID_1":6006,"NAME_1":"Antique","ID_2":600601,"NAME_2":"Anini-y","ID_3":600601006,"NAME_3":"Casay Viejo","NL_NAME_3":null,"VARNAME_3":null,"TYPE_3":"Barangay","ENGTYPE_3":"Village","PROVINCE":"Antique","REGION":"Region VI (Western Visayas)","id":"barangay-0600601006","name":"Casay Viejo","barangayCode":"0600601006","population":null,"formattedPop":null,"densityCategory":"No data","vulnerabilityRating":"No data","healthRiskLevel":"No data","areaKm2":0.503173,"centerLat":10.44501,"centerLng":121.995215,"geometrySource":"all_barangay-2.csv detailed WKT","geometryMatchMethod":"unique_official_admin_names","boundaryPointCount":62},"geometry":{"type":"MultiPolygon","coordinates":[[[[121.998077,10.45939],[121.998489,10.4588],[121.998978,10.45774],[121.999352,10.45681],[121.999687,10.45585],[121.999733,10.45473],[121.999184,10.45406],[121.998894,10.45369],[121.999184,10.45332],[121.999779,10.45353],[122.000076,10.45374],[122.000366,10.45393],[122.000648,10.45365],[122.000664,10.45347],[122.000557,10.45306],[121.999908,10.45225],[121.999603,10.45169],[121.999458,10.45068],[121.998558,10.45038],[121.997337,10.45014],[121.997673,10.44911],[121.998299,10.44878],[121.998444,10.44875],[121.998627,10.44761],[121.998268,10.44721],[121.997566,10.44686],[121.997169,10.44597],[121.997124,10.44538],[121.99736,10.44496],[121.997704,10.44472],[121.998253,10.4447],[121.998611,10.44472],[121.998802,10.4445],[121.998932,10.44368],[121.999092,10.44305],[121.999077,10.44232],[121.999092,10.44185],[121.998619,10.44146],[121.99884,10.44107],[121.998909,10.44081],[121.998993,10.44062],[121.999077,10.44022],[121.999123,10.44015],[121.99852,10.44006],[121.9981,10.43978],[121.997612,10.43936],[121.997467,10.43902],[121.997192,10.43833],[121.99678,10.43777],[121.996582,10.43743],[121.996117,10.43866],[121.995323,10.43962],[121.994377,10.44108],[121.992569,10.4425],[121.99234,10.44369],[121.992363,10.44493],[121.992737,10.44625],[121.991524,10.45615],[121.996712,10.45861],[121.997169,10.45877],[121.997627,10.4591],[121.998077,10.45939]]]]}},{"type":"Feature","properties":{"ID_0":177,"ISO":"PHL","NAME_0":"Philippines","ID_1":6006,"NAME_1":"Antique","ID_2":600601,"NAME_2":"Anini-y","ID_3":600601007,"NAME_3":"Iba","NL_NAME_3":null,"VARNAME_3":null,"TYPE_3":"Barangay","ENGTYPE_3":"Village","PROVINCE":"Antique","REGION":"Region VI (Western Visayas)","id":"barangay-0600601007","name":"Iba","barangayCode":"0600601007","population":null,"formattedPop":null,"densityCategory":"No data","vulnerabilityRating":"No data","healthRiskLevel":"No data","areaKm2":2.461173,"centerLat":10.448156,"centerLng":122.00593,"geometrySource":"all_barangay-2.csv detailed WKT","geometryMatchMethod":"unique_official_admin_names","boundaryPointCount":90},"geometry":{"type":"MultiPolygon","coordinates":[[[[122.007233,10.46693],[122.0168,10.44988],[122.016678,10.44969],[122.016457,10.44918],[122.016327,10.4486],[122.016098,10.4481],[122.0158,10.44765],[122.015442,10.44728],[122.014992,10.44697],[122.014442,10.44673],[122.013809,10.4466],[122.013222,10.44634],[122.012733,10.44599],[122.012398,10.44574],[122.012154,10.44547],[122.011971,10.4452],[122.011833,10.44489],[122.011642,10.44457],[122.011383,10.44423],[122.011009,10.4436],[122.010658,10.44297],[122.010094,10.44249],[122.009377,10.4423],[122.008682,10.44216],[122.008041,10.44193],[122.007446,10.44167],[122.00692,10.44139],[122.006439,10.44111],[122.00602,10.44085],[122.005547,10.44056],[122.004723,10.44056],[122.004448,10.44083],[122.003883,10.44083],[122.003609,10.44083],[122.003433,10.44101],[122.003326,10.44111],[122.003052,10.44111],[122.002777,10.44139],[122.00222,10.44139],[122.001953,10.44111],[122.001389,10.44111],[122.001106,10.44083],[122.0,10.44083],[121.999634,10.44046],[121.99939,10.44036],[121.999207,10.44017],[121.999123,10.44015],[121.999077,10.44022],[121.998993,10.44062],[121.998909,10.44081],[121.99884,10.44107],[121.998619,10.44146],[121.999092,10.44185],[121.999077,10.44232],[121.999092,10.44305],[121.998932,10.44368],[121.998802,10.4445],[121.998611,10.44472],[121.998253,10.4447],[121.997704,10.44472],[121.99736,10.44496],[121.997124,10.44538],[121.997169,10.44597],[121.997566,10.44686],[121.998268,10.44721],[121.998627,10.44761],[121.998444,10.44875],[121.998299,10.44878],[121.997673,10.44911],[121.997337,10.45014],[121.998558,10.45038],[121.999458,10.45068],[121.999603,10.45169],[121.999908,10.45225],[122.000557,10.45306],[122.000664,10.45347],[122.000648,10.45365],[122.000366,10.45393],[122.000076,10.45374],[121.999779,10.45353],[121.999184,10.45332],[121.998894,10.45369],[121.999184,10.45406],[121.999733,10.45473],[121.999687,10.45585],[121.999352,10.45681],[121.998978,10.45774],[121.998489,10.4588],[121.998077,10.45939],[122.007233,10.46693]]]]}},{"type":"Feature","properties":{"ID_0":177,"ISO":"PHL","NAME_0":"Philippines","ID_1":6006,"NAME_1":"Antique","ID_2":600601,"NAME_2":"Anini-y","ID_3":600601008,"NAME_3":"Igbarabatuan","NL_NAME_3":null,"VARNAME_3":null,"TYPE_3":"Barangay","ENGTYPE_3":"Village","PROVINCE":"Antique","REGION":"Region VI (Western Visayas)","id":"barangay-0600601008","name":"Igbarabatuan","barangayCode":"0600601008","population":null,"formattedPop":null,"densityCategory":"No data","vulnerabilityRating":"No data","healthRiskLevel":"No data","areaKm2":1.594778,"centerLat":10.450289,"centerLng":121.977646,"geometrySource":"all_barangay-2.csv detailed WKT","geometryMatchMethod":"unique_official_admin_names","boundaryPointCount":51},"geometry":{"type":"MultiPolygon","coordinates":[[[[121.979942,10.44765],[121.973427,10.44275],[121.973122,10.44242],[121.972557,10.44168],[121.972649,10.44137],[121.972137,10.44095],[121.971703,10.43995],[121.97155,10.43912],[121.971474,10.43813],[121.971222,10.43758],[121.968643,10.43865],[121.968239,10.43943],[121.967911,10.44075],[121.967697,10.44224],[121.967506,10.44446],[121.967453,10.44632],[121.967499,10.4485],[121.967667,10.4497],[121.968224,10.45088],[121.969498,10.45289],[121.970871,10.45409],[121.972488,10.45509],[121.974693,10.45597],[121.97644,10.45677],[121.978371,10.45734],[121.979362,10.45791],[121.979874,10.45817],[121.98053,10.45837],[121.98085,10.45803],[121.980827,10.45757],[121.980873,10.45732],[121.981041,10.45681],[121.9814,10.45625],[121.981888,10.45589],[121.982582,10.45544],[121.98304,10.45512],[121.983223,10.45419],[121.982887,10.45402],[121.9823,10.45408],[121.981682,10.45414],[121.981323,10.45377],[121.980919,10.45325],[121.980682,10.45256],[121.979828,10.45164],[121.979149,10.45112],[121.9785,10.45057],[121.978523,10.45005],[121.978844,10.44967],[121.979301,10.44879],[121.979378,10.44829],[121.979942,10.44765]]]]}},{"type":"Feature","properties":{"ID_0":177,"ISO":"PHL","NAME_0":"Philippines","ID_1":6006,"NAME_1":"Antique","ID_2":600601,"NAME_2":"Anini-y","ID_3":600601009,"NAME_3":"Igpalge","NL_NAME_3":null,"VARNAME_3":null,"TYPE_3":"Barangay","ENGTYPE_3":"Village","PROVINCE":"Antique","REGION":"Region VI (Western Visayas)","id":"barangay-0600601009","name":"Igpalge","barangayCode":"0600601009","population":null,"formattedPop":null,"densityCategory":"No data","vulnerabilityRating":"No data","healthRiskLevel":"No data","areaKm2":2.070496,"centerLat":10.457493,"centerLng":121.986724,"geometrySource":"all_barangay-2.csv detailed WKT","geometryMatchMethod":"unique_official_admin_names","boundaryPointCount":64},"geometry":{"type":"MultiPolygon","coordinates":[[[[121.979897,10.47223],[121.980621,10.47317],[121.983147,10.47325],[121.985847,10.46549],[121.991211,10.46731],[121.991341,10.46693],[121.991898,10.46626],[121.991783,10.46534],[121.991943,10.46466],[121.9916,10.46424],[121.990837,10.46407],[121.990837,10.46322],[121.991524,10.45615],[121.987541,10.4529],[121.984657,10.4516],[121.980881,10.4479],[121.980453,10.44762],[121.980118,10.44747],[121.979942,10.44765],[121.979378,10.44829],[121.979301,10.44879],[121.978844,10.44967],[121.978523,10.45005],[121.9785,10.45057],[121.979149,10.45112],[121.979828,10.45164],[121.980682,10.45256],[121.980919,10.45325],[121.981323,10.45377],[121.981682,10.45414],[121.9823,10.45408],[121.982887,10.45402],[121.983223,10.45419],[121.98304,10.45512],[121.982582,10.45544],[121.981888,10.45589],[121.9814,10.45625],[121.981041,10.45681],[121.980873,10.45732],[121.980827,10.45757],[121.98085,10.45803],[121.98053,10.45837],[121.979874,10.45817],[121.979362,10.45791],[121.979179,10.45799],[121.979012,10.45818],[121.978973,10.45889],[121.978943,10.45958],[121.979134,10.46028],[121.978859,10.46072],[121.978371,10.46121],[121.978203,10.46155],[121.978188,10.46212],[121.977943,10.46298],[121.977509,10.46326],[121.976936,10.46337],[121.976463,10.46368],[121.976013,10.46397],[121.975533,10.46431],[121.976967,10.46749],[121.977654,10.46883],[121.978493,10.47041],[121.979172,10.47116],[121.979897,10.47223]]]]}},{"type":"Feature","properties":{"ID_0":177,"ISO":"PHL","NAME_0":"Philippines","ID_1":6006,"NAME_1":"Antique","ID_2":600601,"NAME_2":"Anini-y","ID_3":600601010,"NAME_3":"Igtumarom","NL_NAME_3":null,"VARNAME_3":null,"TYPE_3":"Barangay","ENGTYPE_3":"Village","PROVINCE":"Antique","REGION":"Region VI (Western Visayas)","id":"barangay-0600601010","name":"Igtumarom","barangayCode":"0600601010","population":null,"formattedPop":null,"densityCategory":"No data","vulnerabilityRating":"No data","healthRiskLevel":"No data","areaKm2":4.612932,"centerLat":10.456006,"centerLng":121.966654,"geometrySource":"all_barangay-2.csv detailed WKT","geometryMatchMethod":"unique_official_admin_names","boundaryPointCount":88},"geometry":{"type":"MultiPolygon","coordinates":[[[[121.975533,10.46431],[121.976013,10.46397],[121.976463,10.46368],[121.976936,10.46337],[121.977509,10.46326],[121.977943,10.46298],[121.978188,10.46212],[121.978203,10.46155],[121.978371,10.46121],[121.978859,10.46072],[121.979134,10.46028],[121.978943,10.45958],[121.978973,10.45889],[121.979012,10.45818],[121.979179,10.45799],[121.979362,10.45791],[121.978371,10.45734],[121.97644,10.45677],[121.974693,10.45597],[121.972488,10.45509],[121.970871,10.45409],[121.969498,10.45289],[121.968224,10.45088],[121.967667,10.4497],[121.967499,10.4485],[121.967453,10.44632],[121.967506,10.44446],[121.967697,10.44224],[121.967911,10.44075],[121.968239,10.43943],[121.968643,10.43865],[121.967987,10.43454],[121.967743,10.43468],[121.967567,10.43502],[121.966988,10.43597],[121.966743,10.43631],[121.966476,10.43658],[121.966049,10.43688],[121.965919,10.43707],[121.965363,10.43794],[121.96521,10.43847],[121.965561,10.43898],[121.96627,10.43931],[121.966652,10.43975],[121.966759,10.44045],[121.966721,10.44089],[121.966454,10.44111],[121.965912,10.44118],[121.965843,10.44115],[121.965279,10.44106],[121.96479,10.44142],[121.964882,10.44261],[121.964592,10.44293],[121.963997,10.44366],[121.963577,10.44408],[121.963081,10.44466],[121.963341,10.4449],[121.963898,10.44528],[121.963737,10.44545],[121.962982,10.44601],[121.962952,10.44636],[121.9627,10.44724],[121.962387,10.4477],[121.961967,10.44795],[121.961533,10.4483],[121.961098,10.44897],[121.960518,10.45006],[121.959892,10.4507],[121.958878,10.45141],[121.95842,10.45163],[121.958588,10.45192],[121.958809,10.45233],[121.958733,10.45303],[121.957947,10.45321],[121.957321,10.45369],[121.956734,10.45418],[121.956673,10.45475],[121.962181,10.46215],[121.963028,10.46199],[121.96479,10.46161],[121.966293,10.46155],[121.968422,10.46177],[121.968933,10.46202],[121.970802,10.46279],[121.972603,10.46314],[121.973602,10.46354],[121.974602,10.46425],[121.975533,10.46431]]]]}},{"type":"Feature","properties":{"ID_0":177,"ISO":"PHL","NAME_0":"Philippines","ID_1":6006,"NAME_1":"Antique","ID_2":600601,"NAME_2":"Anini-y","ID_3":600601011,"NAME_3":"Lisub A","NL_NAME_3":null,"VARNAME_3":null,"TYPE_3":"Barangay","ENGTYPE_3":"Village","PROVINCE":"Antique","REGION":"Region VI (Western Visayas)","id":"barangay-0600601011","name":"Lisub A","barangayCode":"0600601011","population":null,"formattedPop":null,"densityCategory":"No data","vulnerabilityRating":"No data","healthRiskLevel":"No data","areaKm2":1.113609,"centerLat":10.449472,"centerLng":121.926839,"geometrySource":"all_barangay-2.csv detailed WKT","geometryMatchMethod":"unique_official_admin_names","boundaryPointCount":85},"geometry":{"type":"MultiPolygon","coordinates":[[[[121.931847,10.46044],[121.933296,10.46],[121.93335,10.45958],[121.933067,10.45894],[121.932602,10.45822],[121.931427,10.4576],[121.931236,10.45682],[121.93119,10.45646],[121.930946,10.45605],[121.930656,10.45575],[121.929604,10.4545],[121.928749,10.4533],[121.928596,10.45288],[121.930008,10.45207],[121.930527,10.45185],[121.930847,10.45161],[121.930847,10.45053],[121.930252,10.44995],[121.929947,10.44972],[121.929443,10.44945],[121.929253,10.44907],[121.92926,10.44889],[121.928612,10.44815],[121.928658,10.44786],[121.928673,10.44747],[121.928543,10.44706],[121.927788,10.44634],[121.927353,10.44617],[121.926872,10.44614],[121.92643,10.44598],[121.926102,10.4457],[121.925613,10.44512],[121.925339,10.44413],[121.925377,10.44348],[121.925377,10.44252],[121.925522,10.44184],[121.925117,10.44153],[121.924667,10.44168],[121.924362,10.44192],[121.924072,10.44214],[121.923607,10.44211],[121.922958,10.44194],[121.9226,10.4416],[121.922249,10.44125],[121.921761,10.44108],[121.921181,10.44122],[121.920898,10.44139],[121.920464,10.44146],[121.920029,10.44146],[121.920052,10.44197],[121.919899,10.44255],[121.919693,10.44307],[121.919456,10.44352],[121.919189,10.44385],[121.91893,10.44414],[121.918777,10.44448],[121.918571,10.44475],[121.918327,10.44499],[121.918083,10.44521],[121.91777,10.44536],[121.917702,10.445392],[121.918518,10.44553],[121.918854,10.44573],[121.919258,10.44616],[121.919518,10.44667],[121.9198,10.44725],[121.919907,10.44744],[121.920311,10.44756],[121.920883,10.44735],[121.921417,10.44746],[121.921913,10.44797],[121.92231,10.4481],[121.923279,10.44824],[121.92421,10.44879],[121.924873,10.44953],[121.925797,10.4507],[121.926514,10.45194],[121.926933,10.45272],[121.927467,10.45345],[121.92791,10.45446],[121.928368,10.4558],[121.928391,10.45644],[121.928368,10.45716],[121.928223,10.45804],[121.931847,10.46044]]]]}},{"type":"Feature","properties":{"ID_0":177,"ISO":"PHL","NAME_0":"Philippines","ID_1":6006,"NAME_1":"Antique","ID_2":600601,"NAME_2":"Anini-y","ID_3":600601012,"NAME_3":"Lisub B","NL_NAME_3":null,"VARNAME_3":null,"TYPE_3":"Barangay","ENGTYPE_3":"Village","PROVINCE":"Antique","REGION":"Region VI (Western Visayas)","id":"barangay-0600601012","name":"Lisub B","barangayCode":"0600601012","population":null,"formattedPop":null,"densityCategory":"No data","vulnerabilityRating":"No data","healthRiskLevel":"No data","areaKm2":1.219435,"centerLat":10.451248,"centerLng":121.92101,"geometrySource":"all_barangay-2.csv detailed WKT","geometryMatchMethod":"unique_official_admin_names","boundaryPointCount":61},"geometry":{"type":"MultiPolygon","coordinates":[[[[121.928223,10.45804],[121.928368,10.45716],[121.928391,10.45644],[121.928368,10.4558],[121.92791,10.45446],[121.927467,10.45345],[121.926933,10.45272],[121.926514,10.45194],[121.925797,10.4507],[121.924873,10.44953],[121.92421,10.44879],[121.923279,10.44824],[121.92231,10.4481],[121.921913,10.44797],[121.921417,10.44746],[121.920883,10.44735],[121.920311,10.44756],[121.919907,10.44744],[121.9198,10.44725],[121.919518,10.44667],[121.919258,10.44616],[121.918854,10.44573],[121.918518,10.44553],[121.917702,10.445392],[121.917358,10.44556],[121.916969,10.44575],[121.91655,10.44582],[121.916092,10.44583],[121.915604,10.44583],[121.915138,10.44587],[121.914726,10.44607],[121.914337,10.44611],[121.913979,10.44611],[121.913612,10.44611],[121.913231,10.44611],[121.912849,10.44609],[121.912483,10.44608],[121.912117,10.44612],[121.911781,10.44625],[121.911583,10.44665],[121.911728,10.4474],[121.911957,10.44811],[121.912117,10.4484],[121.912277,10.44873],[121.912529,10.44904],[121.912697,10.44925],[121.913063,10.4498],[121.91317,10.44998],[121.913383,10.45034],[121.913567,10.45072],[121.913651,10.45087],[121.913902,10.45134],[121.914139,10.45177],[121.914284,10.4522],[121.914391,10.45265],[121.914383,10.45314],[121.914413,10.45363],[121.914436,10.4541],[121.914452,10.45418],[121.925652,10.45639],[121.928223,10.45804]]]]}},{"type":"Feature","properties":{"ID_0":177,"ISO":"PHL","NAME_0":"Philippines","ID_1":6006,"NAME_1":"Antique","ID_2":600601,"NAME_2":"Anini-y","ID_3":600601013,"NAME_3":"Mabuyong","NL_NAME_3":null,"VARNAME_3":null,"TYPE_3":"Barangay","ENGTYPE_3":"Village","PROVINCE":"Antique","REGION":"Region VI (Western Visayas)","id":"barangay-0600601013","name":"Mabuyong","barangayCode":"0600601013","population":null,"formattedPop":null,"densityCategory":"No data","vulnerabilityRating":"No data","healthRiskLevel":"No data","areaKm2":1.897853,"centerLat":10.438046,"centerLng":121.983845,"geometrySource":"all_barangay-2.csv detailed WKT","geometryMatchMethod":"unique_official_admin_names","boundaryPointCount":137},"geometry":{"type":"MultiPolygon","coordinates":[[[[121.980881,10.4479],[121.981247,10.44787],[121.981239,10.44719],[121.981728,10.44676],[121.982033,10.44671],[121.982521,10.44695],[121.982887,10.44721],[121.983521,10.4469],[121.983879,10.44641],[121.984261,10.44508],[121.984306,10.44412],[121.984077,10.44377],[121.983467,10.44356],[121.982986,10.44355],[121.982918,10.443],[121.9832,10.4424],[121.983673,10.44198],[121.984108,10.4418],[121.984596,10.44186],[121.985046,10.44183],[121.985199,10.44159],[121.985802,10.44181],[121.986389,10.44238],[121.987038,10.44271],[121.987267,10.44255],[121.987213,10.44232],[121.987259,10.44147],[121.987282,10.44072],[121.987083,10.4404],[121.986649,10.43994],[121.985809,10.43973],[121.98539,10.4393],[121.986122,10.43875],[121.986794,10.43858],[121.987679,10.43859],[121.988319,10.43877],[121.988907,10.43914],[121.989288,10.4393],[121.989754,10.43952],[121.990501,10.44012],[121.991089,10.44026],[121.991188,10.44018],[121.991669,10.44052],[121.992249,10.44076],[121.992943,10.44041],[121.993301,10.44052],[121.993446,10.4406],[121.993752,10.44057],[121.99398,10.44055],[121.994049,10.44041],[121.994133,10.44009],[121.994072,10.43951],[121.993797,10.4392],[121.993568,10.43852],[121.99334,10.43826],[121.992943,10.43789],[121.992599,10.43735],[121.992493,10.4372],[121.992683,10.43695],[121.993187,10.43647],[121.993439,10.43632],[121.993767,10.43599],[121.993973,10.43585],[121.994347,10.43587],[121.994667,10.43585],[121.994781,10.43569],[121.99485,10.43547],[121.994766,10.43527],[121.994492,10.435],[121.993927,10.43472],[121.993507,10.43454],[121.993446,10.43451],[121.992813,10.43424],[121.992401,10.4341],[121.992073,10.43407],[121.991493,10.43403],[121.990448,10.43354],[121.990028,10.43292],[121.989677,10.43258],[121.988838,10.43209],[121.987869,10.43168],[121.986893,10.43133],[121.985771,10.43085],[121.985283,10.43043],[121.984871,10.42995],[121.98481,10.4296],[121.984741,10.42922],[121.984543,10.42876],[121.984337,10.42828],[121.984016,10.42793],[121.983742,10.42777],[121.983528,10.42765],[121.983208,10.42749],[121.98291,10.42716],[121.982742,10.42702],[121.982384,10.42778],[121.982498,10.42813],[121.982536,10.42842],[121.982224,10.42934],[121.981743,10.42979],[121.981453,10.42983],[121.981163,10.42975],[121.980614,10.42987],[121.980408,10.43015],[121.979874,10.43059],[121.979637,10.43109],[121.979439,10.43192],[121.979393,10.43242],[121.979187,10.43315],[121.978462,10.434],[121.977814,10.43447],[121.977493,10.43494],[121.977676,10.43537],[121.977737,10.43599],[121.977493,10.43631],[121.977028,10.43647],[121.976318,10.43696],[121.975967,10.43745],[121.975952,10.43789],[121.975838,10.43848],[121.975723,10.43882],[121.975311,10.4392],[121.974854,10.4393],[121.974792,10.4394],[121.974632,10.43978],[121.974327,10.44006],[121.973778,10.4401],[121.973053,10.4404],[121.972816,10.44098],[121.972649,10.44137],[121.972557,10.44168],[121.973122,10.44242],[121.973427,10.44275],[121.979942,10.44765],[121.980118,10.44747],[121.980453,10.44762],[121.980881,10.4479]]]]}},{"type":"Feature","properties":{"ID_0":177,"ISO":"PHL","NAME_0":"Philippines","ID_1":6006,"NAME_1":"Antique","ID_2":600601,"NAME_2":"Anini-y","ID_3":600601014,"NAME_3":"Magdalena","NL_NAME_3":null,"VARNAME_3":null,"TYPE_3":"Barangay","ENGTYPE_3":"Village","PROVINCE":"Antique","REGION":"Region VI (Western Visayas)","id":"barangay-0600601014","name":"Magdalena","barangayCode":"0600601014","population":null,"formattedPop":null,"densityCategory":"No data","vulnerabilityRating":"No data","healthRiskLevel":"No data","areaKm2":2.884621,"centerLat":10.430137,"centerLng":121.974718,"geometrySource":"all_barangay-2.csv detailed WKT","geometryMatchMethod":"unique_official_admin_names","boundaryPointCount":77},"geometry":{"type":"MultiPolygon","coordinates":[[[[121.972649,10.44137],[121.972816,10.44098],[121.973053,10.4404],[121.973778,10.4401],[121.974327,10.44006],[121.974632,10.43978],[121.974792,10.4394],[121.974854,10.4393],[121.975311,10.4392],[121.975723,10.43882],[121.975838,10.43848],[121.975952,10.43789],[121.975967,10.43745],[121.976318,10.43696],[121.977028,10.43647],[121.977493,10.43631],[121.977737,10.43599],[121.977676,10.43537],[121.977493,10.43494],[121.977814,10.43447],[121.978462,10.434],[121.979187,10.43315],[121.979393,10.43242],[121.979439,10.43192],[121.979637,10.43109],[121.979874,10.43059],[121.980408,10.43015],[121.980614,10.42987],[121.981163,10.42975],[121.981453,10.42983],[121.981743,10.42979],[121.982224,10.42934],[121.982536,10.42842],[121.982498,10.42813],[121.982384,10.42778],[121.982742,10.42702],[121.98246,10.42679],[121.982117,10.4263],[121.981934,10.42586],[121.981873,10.42571],[121.981682,10.42522],[121.981392,10.4246],[121.981247,10.4243],[121.98111,10.424],[121.980827,10.42348],[121.980537,10.42306],[121.980148,10.42277],[121.979736,10.42251],[121.979301,10.42231],[121.978897,10.42212],[121.978531,10.42196],[121.97818,10.42184],[121.977821,10.42173],[121.977402,10.42159],[121.976967,10.42134],[121.976517,10.42102],[121.975952,10.42081],[121.975609,10.42068],[121.975121,10.4205],[121.974792,10.42036],[121.974503,10.42024],[121.974197,10.42018],[121.973877,10.42019],[121.972733,10.42033],[121.971962,10.4202],[121.971619,10.41992],[121.971558,10.41985],[121.96669,10.42895],[121.967323,10.43328],[121.967987,10.43454],[121.968643,10.43865],[121.971222,10.43758],[121.971474,10.43813],[121.97155,10.43912],[121.971703,10.43995],[121.972137,10.44095],[121.972649,10.44137]]]]}},{"type":"Feature","properties":{"ID_0":177,"ISO":"PHL","NAME_0":"Philippines","ID_1":6006,"NAME_1":"Antique","ID_2":600601,"NAME_2":"Anini-y","ID_3":600601015,"NAME_3":"Nasuli C","NL_NAME_3":null,"VARNAME_3":null,"TYPE_3":"Barangay","ENGTYPE_3":"Village","PROVINCE":"Antique","REGION":"Region VI (Western Visayas)","id":"barangay-0600601015","name":"Nasuli C","barangayCode":"0600601015","population":null,"formattedPop":null,"densityCategory":"No data","vulnerabilityRating":"No data","healthRiskLevel":"No data","areaKm2":2.542016,"centerLat":10.45894,"centerLng":122.000579,"geometrySource":"all_barangay-2.csv detailed WKT","geometryMatchMethod":"unique_official_admin_names","boundaryPointCount":35},"geometry":{"type":"MultiPolygon","coordinates":[[[[122.001068,10.4754],[122.003403,10.47589],[122.007362,10.47598],[122.013313,10.47688],[122.013733,10.47617],[122.013924,10.47444],[122.01429,10.47418],[122.007233,10.46693],[121.998077,10.45939],[121.997627,10.4591],[121.997169,10.45877],[121.996712,10.45861],[121.991524,10.45615],[121.990837,10.46322],[121.990837,10.46407],[121.9916,10.46424],[121.991943,10.46466],[121.991783,10.46534],[121.991898,10.46626],[121.991341,10.46693],[121.991211,10.46731],[121.985847,10.46549],[121.983147,10.47325],[121.983162,10.47599],[121.98452,10.47672],[121.985817,10.4772],[121.987587,10.47761],[121.988701,10.47783],[121.990601,10.47789],[121.99292,10.47738],[121.99453,10.47713],[121.995956,10.47647],[121.997368,10.47588],[121.999023,10.47548],[122.001068,10.4754]]]]}},{"type":"Feature","properties":{"ID_0":177,"ISO":"PHL","NAME_0":"Philippines","ID_1":6006,"NAME_1":"Antique","ID_2":600601,"NAME_2":"Anini-y","ID_3":600601016,"NAME_3":"Nato","NL_NAME_3":null,"VARNAME_3":null,"TYPE_3":"Barangay","ENGTYPE_3":"Village","PROVINCE":"Antique","REGION":"Region VI (Western Visayas)","id":"barangay-0600601016","name":"Nato","barangayCode":"0600601016","population":null,"formattedPop":null,"densityCategory":"No data","vulnerabilityRating":"No data","healthRiskLevel":"No data","areaKm2":1.732613,"centerLat":10.427342,"centerLng":121.943352,"geometrySource":"all_barangay-2.csv detailed WKT","geometryMatchMethod":"unique_official_admin_names","boundaryPointCount":40},"geometry":{"type":"MultiPolygon","coordinates":[[[[121.943108,10.43336],[121.951088,10.43395],[121.949501,10.41796],[121.949013,10.41806],[121.948517,10.41815],[121.948097,10.41814],[121.947723,10.41804],[121.947289,10.41816],[121.946693,10.41865],[121.946007,10.41871],[121.945343,10.41868],[121.944901,10.41889],[121.944527,10.41917],[121.94416,10.41945],[121.94381,10.41973],[121.943497,10.42001],[121.943222,10.42027],[121.942978,10.42052],[121.942688,10.42074],[121.942307,10.42087],[121.941872,10.42111],[121.941353,10.42134],[121.940811,10.4215],[121.940437,10.42182],[121.940277,10.42204],[121.94017,10.4222],[121.939911,10.42253],[121.93959,10.42279],[121.939247,10.42306],[121.938858,10.42332],[121.93837,10.42351],[121.937859,10.42366],[121.93737,10.42387],[121.93689,10.42406],[121.936432,10.42419],[121.936058,10.42438],[121.935959,10.42444],[121.935791,10.42453],[121.935806,10.42458],[121.943108,10.43336]]]]}},{"type":"Feature","properties":{"ID_0":177,"ISO":"PHL","NAME_0":"Philippines","ID_1":6006,"NAME_1":"Antique","ID_2":600601,"NAME_2":"Anini-y","ID_3":600601017,"NAME_3":"Poblacion","NL_NAME_3":null,"VARNAME_3":null,"TYPE_3":"Barangay","ENGTYPE_3":"Village","PROVINCE":"Antique","REGION":"Region VI (Western Visayas)","id":"barangay-0600601017","name":"Poblacion","barangayCode":"0600601017","population":null,"formattedPop":null,"densityCategory":"No data","vulnerabilityRating":"No data","healthRiskLevel":"No data","areaKm2":0.752644,"centerLat":10.436704,"centerLng":121.931013,"geometrySource":"all_barangay-2.csv detailed WKT","geometryMatchMethod":"unique_official_admin_names","boundaryPointCount":44},"geometry":{"type":"MultiPolygon","coordinates":[[[[121.936272,10.43946],[121.935448,10.43874],[121.93457,10.43818],[121.933929,10.43722],[121.933472,10.43633],[121.932983,10.43628],[121.932716,10.43626],[121.932533,10.43611],[121.932343,10.43596],[121.931732,10.43526],[121.931038,10.43515],[121.930481,10.43516],[121.929893,10.43458],[121.929314,10.43465],[121.928902,10.43453],[121.928841,10.43442],[121.928802,10.43435],[121.928642,10.43407],[121.92865,10.43286],[121.928467,10.43245],[121.92807,10.43192],[121.927528,10.43137],[121.927437,10.43065],[121.927567,10.43035],[121.927597,10.42965],[121.92762,10.4291],[121.927521,10.4289],[121.927399,10.42896],[121.926964,10.42912],[121.926521,10.42911],[121.926102,10.42899],[121.925743,10.42905],[121.925407,10.42918],[121.925087,10.42938],[121.924812,10.42969],[121.924454,10.43003],[121.924149,10.43045],[121.923866,10.43087],[121.923637,10.43131],[121.923561,10.43151],[121.927742,10.43673],[121.926964,10.43932],[121.932442,10.44318],[121.936272,10.43946]]]]}},{"type":"Feature","properties":{"ID_0":177,"ISO":"PHL","NAME_0":"Philippines","ID_1":6006,"NAME_1":"Antique","ID_2":600601,"NAME_2":"Anini-y","ID_3":600601018,"NAME_3":"Sagua","NL_NAME_3":null,"VARNAME_3":null,"TYPE_3":"Barangay","ENGTYPE_3":"Village","PROVINCE":"Antique","REGION":"Region VI (Western Visayas)","id":"barangay-0600601018","name":"Sagua","barangayCode":"0600601018","population":null,"formattedPop":null,"densityCategory":"No data","vulnerabilityRating":"No data","healthRiskLevel":"No data","areaKm2":0.444153,"centerLat":10.435585,"centerLng":121.92498,"geometrySource":"all_barangay-2.csv detailed WKT","geometryMatchMethod":"unique_official_admin_names","boundaryPointCount":18},"geometry":{"type":"MultiPolygon","coordinates":[[[[121.926964,10.43932],[121.927742,10.43673],[121.923561,10.43151],[121.923462,10.43175],[121.923264,10.43212],[121.922997,10.43243],[121.922691,10.43269],[121.92231,10.4329],[121.921921,10.43313],[121.921516,10.43329],[121.92115,10.43334],[121.920822,10.4334],[121.920532,10.4335],[121.920227,10.43364],[121.91993,10.43383],[121.919579,10.43404],[121.919243,10.43431],[121.926964,10.43932]]]]}},{"type":"Feature","properties":{"ID_0":177,"ISO":"PHL","NAME_0":"Philippines","ID_1":6006,"NAME_1":"Antique","ID_2":600601,"NAME_2":"Anini-y","ID_3":600601019,"NAME_3":"Salvacion","NL_NAME_3":null,"VARNAME_3":null,"TYPE_3":"Barangay","ENGTYPE_3":"Village","PROVINCE":"Antique","REGION":"Region VI (Western Visayas)","id":"barangay-0600601019","name":"Salvacion","barangayCode":"0600601019","population":null,"formattedPop":null,"densityCategory":"No data","vulnerabilityRating":"No data","healthRiskLevel":"No data","areaKm2":2.624764,"centerLat":10.424349,"centerLng":121.955009,"geometrySource":"all_barangay-2.csv detailed WKT","geometryMatchMethod":"unique_official_admin_names","boundaryPointCount":42},"geometry":{"type":"MultiPolygon","coordinates":[[[[121.951088,10.43395],[121.959908,10.43376],[121.960037,10.43313],[121.960327,10.43172],[121.960197,10.43021],[121.959923,10.42873],[121.96006,10.4276],[121.960472,10.42577],[121.961189,10.42468],[121.961647,10.42303],[121.961441,10.42104],[121.960876,10.41898],[121.960281,10.41756],[121.959633,10.4163],[121.958656,10.4145],[121.958366,10.41461],[121.957893,10.4147],[121.957474,10.41477],[121.95713,10.41495],[121.956787,10.41509],[121.956451,10.41523],[121.95607,10.41533],[121.955788,10.41556],[121.955482,10.41574],[121.955093,10.41581],[121.954697,10.41585],[121.954338,10.41595],[121.954018,10.41611],[121.953613,10.41622],[121.953011,10.41605],[121.952591,10.41609],[121.952377,10.41633],[121.952164,10.41657],[121.951897,10.4168],[121.951599,10.41699],[121.951279,10.41719],[121.950928,10.41737],[121.950523,10.41755],[121.950058,10.41774],[121.949547,10.41795],[121.949501,10.41796],[121.951088,10.43395]]]]}},{"type":"Feature","properties":{"ID_0":177,"ISO":"PHL","NAME_0":"Philippines","ID_1":6006,"NAME_1":"Antique","ID_2":600601,"NAME_2":"Anini-y","ID_3":600601020,"NAME_3":"San Francisco","NL_NAME_3":null,"VARNAME_3":null,"TYPE_3":"Barangay","ENGTYPE_3":"Village","PROVINCE":"Antique","REGION":"Region VI (Western Visayas)","id":"barangay-0600601020","name":"San Francisco","barangayCode":"0600601020","population":null,"formattedPop":null,"densityCategory":"No data","vulnerabilityRating":"No data","healthRiskLevel":"No data","areaKm2":4.108285,"centerLat":10.464043,"centerLng":122.017724,"geometrySource":"all_barangay-2.csv detailed WKT","geometryMatchMethod":"unique_official_admin_names","boundaryPointCount":59},"geometry":{"type":"MultiPolygon","coordinates":[[[[122.030113,10.46708],[122.030098,10.46698],[122.030197,10.4663],[122.030373,10.46567],[122.030403,10.46558],[122.03038,10.46485],[122.030357,10.46421],[122.030067,10.46371],[122.029648,10.46335],[122.029373,10.46312],[122.029266,10.46304],[122.028969,10.46272],[122.028717,10.46234],[122.028458,10.46193],[122.028168,10.46147],[122.02787,10.46097],[122.027496,10.46053],[122.027107,10.46011],[122.02668,10.45979],[122.026283,10.45949],[122.025902,10.45923],[122.025551,10.45894],[122.025208,10.45864],[122.024849,10.45833],[122.024498,10.458],[122.024193,10.45762],[122.023872,10.45725],[122.023514,10.45695],[122.023163,10.45667],[122.022812,10.45639],[122.022476,10.45609],[122.022118,10.45575],[122.021683,10.4554],[122.021248,10.455],[122.020828,10.45459],[122.020439,10.45421],[122.020073,10.45389],[122.019707,10.45359],[122.019386,10.45328],[122.019073,10.45295],[122.018723,10.45263],[122.018356,10.45231],[122.018059,10.45194],[122.017776,10.45157],[122.017532,10.4512],[122.017342,10.45082],[122.017174,10.45044],[122.01693,10.45009],[122.0168,10.44988],[122.007233,10.46693],[122.01429,10.47418],[122.022163,10.46871],[122.023956,10.46878],[122.025078,10.4687],[122.025909,10.46812],[122.027443,10.46807],[122.028503,10.46788],[122.029167,10.46752],[122.030113,10.46708]]]]}},{"type":"Feature","properties":{"ID_0":177,"ISO":"PHL","NAME_0":"Philippines","ID_1":6006,"NAME_1":"Antique","ID_2":600601,"NAME_2":"Anini-y","ID_3":600601021,"NAME_3":"San Ramon","NL_NAME_3":null,"VARNAME_3":null,"TYPE_3":"Barangay","ENGTYPE_3":"Village","PROVINCE":"Antique","REGION":"Region VI (Western Visayas)","id":"barangay-0600601021","name":"San Ramon","barangayCode":"0600601021","population":null,"formattedPop":null,"densityCategory":"No data","vulnerabilityRating":"No data","healthRiskLevel":"No data","areaKm2":6.896177,"centerLat":10.443959,"centerLng":121.952043,"geometrySource":"all_barangay-2.csv detailed WKT","geometryMatchMethod":"unique_official_admin_names","boundaryPointCount":60},"geometry":{"type":"MultiPolygon","coordinates":[[[[121.956673,10.45475],[121.956734,10.45418],[121.957321,10.45369],[121.957947,10.45321],[121.958733,10.45303],[121.958809,10.45233],[121.958588,10.45192],[121.95842,10.45163],[121.958878,10.45141],[121.959892,10.4507],[121.960518,10.45006],[121.961098,10.44897],[121.961533,10.4483],[121.961967,10.44795],[121.962387,10.4477],[121.9627,10.44724],[121.962952,10.44636],[121.962982,10.44601],[121.963737,10.44545],[121.963898,10.44528],[121.963341,10.4449],[121.963081,10.44466],[121.963577,10.44408],[121.963997,10.44366],[121.964592,10.44293],[121.964882,10.44261],[121.96479,10.44142],[121.965279,10.44106],[121.965843,10.44115],[121.965912,10.44118],[121.966454,10.44111],[121.966721,10.44089],[121.966759,10.44045],[121.966652,10.43975],[121.96627,10.43931],[121.965561,10.43898],[121.96521,10.43847],[121.965363,10.43794],[121.965919,10.43707],[121.966049,10.43688],[121.966476,10.43658],[121.966743,10.43631],[121.966988,10.43597],[121.967567,10.43502],[121.967743,10.43468],[121.967987,10.43454],[121.967323,10.43328],[121.959908,10.43376],[121.951088,10.43395],[121.943108,10.43336],[121.940002,10.43613],[121.936272,10.43946],[121.932442,10.44318],[121.938789,10.44739],[121.943481,10.45813],[121.953598,10.45672],[121.954193,10.45661],[121.955002,10.45623],[121.956146,10.45543],[121.956673,10.45475]]]]}},{"type":"Feature","properties":{"ID_0":177,"ISO":"PHL","NAME_0":"Philippines","ID_1":6006,"NAME_1":"Antique","ID_2":600601,"NAME_2":"Anini-y","ID_3":600601022,"NAME_3":"San Roque","NL_NAME_3":null,"VARNAME_3":null,"TYPE_3":"Barangay","ENGTYPE_3":"Village","PROVINCE":"Antique","REGION":"Region VI (Western Visayas)","id":"barangay-0600601022","name":"San Roque","barangayCode":"0600601022","population":null,"formattedPop":null,"densityCategory":"No data","vulnerabilityRating":"No data","healthRiskLevel":"No data","areaKm2":2.178494,"centerLat":10.420452,"centerLng":121.964397,"geometrySource":"all_barangay-2.csv detailed WKT","geometryMatchMethod":"unique_official_admin_names","boundaryPointCount":105},"geometry":{"type":"MultiPolygon","coordinates":[[[[121.959908,10.43376],[121.967323,10.43328],[121.96669,10.42895],[121.971558,10.41985],[121.971046,10.4193],[121.970093,10.41902],[121.969307,10.4184],[121.969032,10.41792],[121.968758,10.4175],[121.968689,10.41716],[121.968407,10.41681],[121.968079,10.4164],[121.967773,10.41595],[121.967484,10.41555],[121.967194,10.41524],[121.966911,10.41496],[121.966652,10.41471],[121.9664,10.41448],[121.966103,10.41435],[121.965767,10.41432],[121.965401,10.41452],[121.965103,10.41458],[121.964844,10.41448],[121.964561,10.41432],[121.964432,10.41415],[121.964348,10.41403],[121.964211,10.41358],[121.964172,10.41302],[121.964203,10.41244],[121.96431,10.41193],[121.964577,10.41169],[121.964981,10.41176],[121.965263,10.41169],[121.965538,10.41162],[121.965683,10.41107],[121.965889,10.41052],[121.965889,10.41023],[121.965889,10.4101],[121.965736,10.40959],[121.965584,10.40927],[121.965393,10.40898],[121.96524,10.40875],[121.96521,10.4087],[121.964996,10.40844],[121.964737,10.40816],[121.9645,10.40785],[121.964203,10.40754],[121.963867,10.40723],[121.963509,10.40696],[121.963203,10.40679],[121.963081,10.40673],[121.962624,10.40659],[121.962128,10.40643],[121.961563,10.40631],[121.961182,10.40617],[121.960983,10.40609],[121.960487,10.40614],[121.960098,10.40631],[121.959732,10.40643],[121.959473,10.40662],[121.95929,10.40686],[121.959183,10.40718],[121.959091,10.40753],[121.958931,10.40788],[121.958801,10.40828],[121.958672,10.4087],[121.958618,10.40919],[121.958618,10.4097],[121.958717,10.41019],[121.958977,10.41062],[121.959396,10.41092],[121.959831,10.41123],[121.960342,10.41142],[121.960869,10.41162],[121.961418,10.4117],[121.961884,10.41173],[121.962227,10.41187],[121.962509,10.41229],[121.962509,10.41259],[121.962509,10.41284],[121.96244,10.41311],[121.962303,10.41325],[121.962097,10.41353],[121.961807,10.4136],[121.961456,10.4136],[121.961029,10.41339],[121.960457,10.41361],[121.960007,10.41383],[121.9599,10.41389],[121.959373,10.41418],[121.958847,10.41443],[121.958656,10.4145],[121.959633,10.4163],[121.960281,10.41756],[121.960876,10.41898],[121.961441,10.42104],[121.961647,10.42303],[121.961189,10.42468],[121.960472,10.42577],[121.96006,10.4276],[121.959923,10.42873],[121.960197,10.43021],[121.960327,10.43172],[121.960037,10.43313],[121.959908,10.43376]]]]}},{"type":"Feature","properties":{"ID_0":177,"ISO":"PHL","NAME_0":"Philippines","ID_1":6006,"NAME_1":"Antique","ID_2":600601,"NAME_2":"Anini-y","ID_3":600601023,"NAME_3":"Tagaytay","NL_NAME_3":null,"VARNAME_3":null,"TYPE_3":"Barangay","ENGTYPE_3":"Village","PROVINCE":"Antique","REGION":"Region VI (Western Visayas)","id":"barangay-0600601023","name":"Tagaytay","barangayCode":"0600601023","population":null,"formattedPop":null,"densityCategory":"No data","vulnerabilityRating":"No data","healthRiskLevel":"No data","areaKm2":2.414434,"centerLat":10.46233,"centerLng":121.943331,"geometrySource":"all_barangay-2.csv detailed WKT","geometryMatchMethod":"unique_official_admin_names","boundaryPointCount":34},"geometry":{"type":"MultiPolygon","coordinates":[[[[121.931877,10.47158],[121.9366,10.46837],[121.938362,10.46737],[121.939377,10.46726],[121.940163,10.46674],[121.940697,10.46675],[121.941948,10.46694],[121.942657,10.46609],[121.943741,10.46524],[121.945084,10.46527],[121.946243,10.46566],[121.946854,10.46554],[121.948463,10.4651],[121.949898,10.46461],[121.951607,10.46461],[121.952499,10.46464],[121.953217,10.46478],[121.954552,10.46463],[121.956444,10.4641],[121.958229,10.46359],[121.959839,10.46329],[121.960983,10.46285],[121.962181,10.46215],[121.956673,10.45475],[121.956146,10.45543],[121.955002,10.45623],[121.954193,10.45661],[121.953598,10.45672],[121.943481,10.45813],[121.935364,10.45916],[121.933296,10.46],[121.931847,10.46044],[121.930122,10.46293],[121.931877,10.47158]]]]}},{"type":"Feature","properties":{"ID_0":177,"ISO":"PHL","NAME_0":"Philippines","ID_1":6006,"NAME_1":"Antique","ID_2":600601,"NAME_2":"Anini-y","ID_3":600601024,"NAME_3":"Talisayan","NL_NAME_3":null,"VARNAME_3":null,"TYPE_3":"Barangay","ENGTYPE_3":"Village","PROVINCE":"Antique","REGION":"Region VI (Western Visayas)","id":"barangay-0600601024","name":"Talisayan","barangayCode":"0600601024","population":null,"formattedPop":null,"densityCategory":"No data","vulnerabilityRating":"No data","healthRiskLevel":"No data","areaKm2":2.571881,"centerLat":10.448058,"centerLng":121.93284,"geometrySource":"all_barangay-2.csv detailed WKT","geometryMatchMethod":"unique_official_admin_names","boundaryPointCount":71},"geometry":{"type":"MultiPolygon","coordinates":[[[[121.933296,10.46],[121.935364,10.45916],[121.943481,10.45813],[121.938789,10.44739],[121.932442,10.44318],[121.926964,10.43932],[121.919243,10.43431],[121.918907,10.43471],[121.918617,10.43517],[121.918381,10.43561],[121.918266,10.43598],[121.918251,10.43605],[121.918358,10.43674],[121.918556,10.43729],[121.919403,10.43791],[121.9198,10.43837],[121.920158,10.43878],[121.920319,10.43914],[121.920486,10.43946],[121.920486,10.43984],[121.920303,10.44026],[121.920067,10.44075],[121.920021,10.44132],[121.920029,10.44146],[121.920464,10.44146],[121.920898,10.44139],[121.921181,10.44122],[121.921761,10.44108],[121.922249,10.44125],[121.9226,10.4416],[121.922958,10.44194],[121.923607,10.44211],[121.924072,10.44214],[121.924362,10.44192],[121.924667,10.44168],[121.925117,10.44153],[121.925522,10.44184],[121.925377,10.44252],[121.925377,10.44348],[121.925339,10.44413],[121.925613,10.44512],[121.926102,10.4457],[121.92643,10.44598],[121.926872,10.44614],[121.927353,10.44617],[121.927788,10.44634],[121.928543,10.44706],[121.928673,10.44747],[121.928658,10.44786],[121.928612,10.44815],[121.92926,10.44889],[121.929253,10.44907],[121.929443,10.44945],[121.929947,10.44972],[121.930252,10.44995],[121.930847,10.45053],[121.930847,10.45161],[121.930527,10.45185],[121.930008,10.45207],[121.928596,10.45288],[121.928749,10.4533],[121.929604,10.4545],[121.930656,10.45575],[121.930946,10.45605],[121.93119,10.45646],[121.931236,10.45682],[121.931427,10.4576],[121.932602,10.45822],[121.933067,10.45894],[121.93335,10.45958],[121.933296,10.46]]]]}}]}
