{"type":"FeatureCollection","features":[{"type":"Feature","properties":{"ID_0":177,"ISO":"PHL","NAME_0":"Philippines","ID_1":6030,"NAME_1":"Iloilo","ID_2":603005,"NAME_2":"Balasan","ID_3":603005001,"NAME_3":"Aranjuez","NL_NAME_3":null,"VARNAME_3":null,"TYPE_3":"Barangay","ENGTYPE_3":"Village","PROVINCE":"Iloilo","REGION":"Region VI (Western Visayas)","id":"barangay-0603005001","name":"Aranjuez","barangayCode":"0603005001","population":null,"formattedPop":null,"densityCategory":"No data","vulnerabilityRating":"No data","healthRiskLevel":"No data","areaKm2":4.028831,"centerLat":11.463041,"centerLng":123.069289,"geometrySource":"all_barangay-2.csv detailed WKT","geometryMatchMethod":"unique_official_admin_names","boundaryPointCount":67},"geometry":{"type":"MultiPolygon","coordinates":[[[[123.082787,11.47145],[123.084633,11.46937],[123.083023,11.4687],[123.082741,11.46808],[123.082642,11.46801],[123.077904,11.46522],[123.076286,11.46223],[123.075996,11.46113],[123.07711,11.46103],[123.077263,11.46041],[123.077217,11.45983],[123.077827,11.4587],[123.078033,11.45808],[123.077972,11.45789],[123.077667,11.45767],[123.076721,11.45648],[123.076157,11.45637],[123.075073,11.4563],[123.074692,11.45627],[123.074173,11.45642],[123.07312,11.4566],[123.072159,11.45626],[123.071159,11.45553],[123.069603,11.45442],[123.068993,11.45433],[123.06881,11.4544],[123.067596,11.45481],[123.067284,11.45547],[123.066963,11.45547],[123.066521,11.45498],[123.066582,11.45469],[123.067032,11.45432],[123.063881,11.45318],[123.063637,11.45471],[123.063377,11.45751],[123.057678,11.45442],[123.055351,11.45617],[123.056549,11.4567],[123.056343,11.45761],[123.055977,11.45794],[123.056396,11.45951],[123.056427,11.46032],[123.056427,11.4604],[123.057167,11.4625],[123.05751,11.46324],[123.057709,11.46368],[123.0588,11.46519],[123.059128,11.46637],[123.066803,11.47011],[123.067467,11.47101],[123.073921,11.47047],[123.074516,11.46838],[123.074677,11.46843],[123.075104,11.46939],[123.075378,11.47018],[123.075859,11.47043],[123.075912,11.47026],[123.077438,11.46995],[123.077621,11.46974],[123.077721,11.46972],[123.079483,11.47051],[123.079781,11.47168],[123.080353,11.47216],[123.081207,11.47217],[123.081573,11.47194],[123.082336,11.47154],[123.082787,11.47145]]]]}},{"type":"Feature","properties":{"ID_0":177,"ISO":"PHL","NAME_0":"Philippines","ID_1":6030,"NAME_1":"Iloilo","ID_2":603005,"NAME_2":"Balasan","ID_3":603005002,"NAME_3":"Bacolod","NL_NAME_3":null,"VARNAME_3":null,"TYPE_3":"Barangay","ENGTYPE_3":"Village","PROVINCE":"Iloilo","REGION":"Region VI (Western Visayas)","id":"barangay-0603005002","name":"Bacolod","barangayCode":"0603005002","population":null,"formattedPop":null,"densityCategory":"No data","vulnerabilityRating":"No data","healthRiskLevel":"No data","areaKm2":1.226034,"centerLat":11.451177,"centerLng":123.070262,"geometrySource":"all_barangay-2.csv detailed WKT","geometryMatchMethod":"unique_official_admin_names","boundaryPointCount":35},"geometry":{"type":"MultiPolygon","coordinates":[[[[123.063881,11.45318],[123.067032,11.45432],[123.066582,11.45469],[123.066521,11.45498],[123.066963,11.45547],[123.067284,11.45547],[123.067596,11.45481],[123.06881,11.4544],[123.068993,11.45433],[123.069603,11.45442],[123.071159,11.45553],[123.072159,11.45626],[123.07312,11.4566],[123.074173,11.45642],[123.074692,11.45627],[123.075073,11.4563],[123.076157,11.45637],[123.076721,11.45648],[123.076637,11.4559],[123.076042,11.45486],[123.075394,11.45408],[123.075562,11.45362],[123.076263,11.45275],[123.075996,11.45224],[123.076218,11.45134],[123.076553,11.45084],[123.074799,11.44949],[123.069771,11.44753],[123.065117,11.442],[123.065086,11.44315],[123.065247,11.44393],[123.064934,11.44428],[123.06443,11.44753],[123.064034,11.45032],[123.063881,11.45318]]]]}},{"type":"Feature","properties":{"ID_0":177,"ISO":"PHL","NAME_0":"Philippines","ID_1":6030,"NAME_1":"Iloilo","ID_2":603005,"NAME_2":"Balasan","ID_3":603005003,"NAME_3":"Balanti-an","NL_NAME_3":null,"VARNAME_3":null,"TYPE_3":"Barangay","ENGTYPE_3":"Village","PROVINCE":"Iloilo","REGION":"Region VI (Western Visayas)","id":"barangay-0603005003","name":"Balanti-an","barangayCode":"0603005003","population":null,"formattedPop":null,"densityCategory":"No data","vulnerabilityRating":"No data","healthRiskLevel":"No data","areaKm2":1.659454,"centerLat":11.486622,"centerLng":123.089569,"geometrySource":"all_barangay-2.csv detailed WKT","geometryMatchMethod":"unique_official_admin_names","boundaryPointCount":33},"geometry":{"type":"MultiPolygon","coordinates":[[[[123.099609,11.49414],[123.099922,11.49116],[123.099777,11.49062],[123.099609,11.48955],[123.098099,11.48816],[123.096107,11.48785],[123.094383,11.48686],[123.094292,11.48493],[123.094307,11.48437],[123.093361,11.4817],[123.093773,11.48126],[123.094337,11.4796],[123.091743,11.47861],[123.087677,11.47786],[123.087921,11.48005],[123.085457,11.47891],[123.08474,11.47909],[123.084396,11.47978],[123.083603,11.48064],[123.084373,11.48399],[123.082367,11.48668],[123.082657,11.48955],[123.08448,11.49032],[123.08606,11.49107],[123.088097,11.49149],[123.089973,11.49188],[123.091492,11.49247],[123.094383,11.49485],[123.095589,11.49497],[123.096687,11.49468],[123.096817,11.49464],[123.098396,11.49423],[123.099609,11.49414]]]]}},{"type":"Feature","properties":{"ID_0":177,"ISO":"PHL","NAME_0":"Philippines","ID_1":6030,"NAME_1":"Iloilo","ID_2":603005,"NAME_2":"Balasan","ID_3":603005004,"NAME_3":"Batuan","NL_NAME_3":null,"VARNAME_3":null,"TYPE_3":"Barangay","ENGTYPE_3":"Village","PROVINCE":"Iloilo","REGION":"Region VI (Western Visayas)","id":"barangay-0603005004","name":"Batuan","barangayCode":"0603005004","population":null,"formattedPop":null,"densityCategory":"No data","vulnerabilityRating":"No data","healthRiskLevel":"No data","areaKm2":3.396374,"centerLat":11.432124,"centerLng":123.052881,"geometrySource":"all_barangay-2.csv detailed WKT","geometryMatchMethod":"unique_official_admin_names","boundaryPointCount":18},"geometry":{"type":"MultiPolygon","coordinates":[[[[123.065117,11.442],[123.058968,11.4371],[123.058701,11.43478],[123.053177,11.4289],[123.054153,11.42462],[123.052437,11.41821],[123.052406,11.4183],[123.050987,11.42171],[123.049896,11.42536],[123.049141,11.43001],[123.048897,11.43318],[123.04882,11.43417],[123.064034,11.45032],[123.06443,11.44753],[123.064934,11.44428],[123.065247,11.44393],[123.065086,11.44315],[123.065117,11.442]]]]}},{"type":"Feature","properties":{"ID_0":177,"ISO":"PHL","NAME_0":"Philippines","ID_1":6030,"NAME_1":"Iloilo","ID_2":603005,"NAME_2":"Balasan","ID_3":603005005,"NAME_3":"Cabalic","NL_NAME_3":null,"VARNAME_3":null,"TYPE_3":"Barangay","ENGTYPE_3":"Village","PROVINCE":"Iloilo","REGION":"Region VI (Western Visayas)","id":"barangay-0603005005","name":"Cabalic","barangayCode":"0603005005","population":null,"formattedPop":null,"densityCategory":"No data","vulnerabilityRating":"No data","healthRiskLevel":"No data","areaKm2":3.456693,"centerLat":11.434774,"centerLng":123.065334,"geometrySource":"all_barangay-2.csv detailed WKT","geometryMatchMethod":"unique_official_admin_names","boundaryPointCount":44},"geometry":{"type":"MultiPolygon","coordinates":[[[[123.082611,11.44797],[123.082268,11.4472],[123.082237,11.44684],[123.082108,11.4464],[123.082443,11.44595],[123.082268,11.44338],[123.081268,11.4424],[123.080887,11.44249],[123.080513,11.44294],[123.079872,11.44256],[123.080299,11.44197],[123.0802,11.44178],[123.079887,11.44182],[123.079727,11.44182],[123.079269,11.44092],[123.078857,11.43956],[123.078773,11.43838],[123.078178,11.43707],[123.075546,11.43677],[123.070068,11.43523],[123.068718,11.43524],[123.064751,11.43181],[123.0644,11.43231],[123.062263,11.42599],[123.052696,11.41763],[123.052437,11.41821],[123.054153,11.42462],[123.053177,11.4289],[123.058701,11.43478],[123.058968,11.4371],[123.065117,11.442],[123.069771,11.44753],[123.074799,11.44949],[123.075157,11.44856],[123.074638,11.4472],[123.076118,11.44584],[123.077187,11.4461],[123.076309,11.44695],[123.076309,11.44724],[123.077599,11.44698],[123.077888,11.4472],[123.078033,11.44727],[123.080681,11.44786],[123.082611,11.44797]]]]}},{"type":"Feature","properties":{"ID_0":177,"ISO":"PHL","NAME_0":"Philippines","ID_1":6030,"NAME_1":"Iloilo","ID_2":603005,"NAME_2":"Balasan","ID_3":603005006,"NAME_3":"Camambugan","NL_NAME_3":null,"VARNAME_3":null,"TYPE_3":"Barangay","ENGTYPE_3":"Village","PROVINCE":"Iloilo","REGION":"Region VI (Western Visayas)","id":"barangay-0603005006","name":"Camambugan","barangayCode":"0603005006","population":null,"formattedPop":null,"densityCategory":"No data","vulnerabilityRating":"No data","healthRiskLevel":"No data","areaKm2":1.923743,"centerLat":11.474002,"centerLng":123.075768,"geometrySource":"all_barangay-2.csv detailed WKT","geometryMatchMethod":"unique_official_admin_names","boundaryPointCount":54},"geometry":{"type":"MultiPolygon","coordinates":[[[[123.083603,11.48064],[123.084396,11.47978],[123.08474,11.47909],[123.085457,11.47891],[123.087921,11.48005],[123.087677,11.47786],[123.087311,11.47594],[123.086967,11.47401],[123.085716,11.47436],[123.083008,11.47236],[123.082787,11.47145],[123.082336,11.47154],[123.081573,11.47194],[123.081207,11.47217],[123.080353,11.47216],[123.079781,11.47168],[123.079483,11.47051],[123.077721,11.46972],[123.077621,11.46974],[123.077438,11.46995],[123.075912,11.47026],[123.075859,11.47043],[123.075378,11.47018],[123.075104,11.46939],[123.074677,11.46843],[123.074516,11.46838],[123.073921,11.47047],[123.067467,11.47101],[123.066803,11.47011],[123.059128,11.46637],[123.061043,11.468],[123.06131,11.46823],[123.061852,11.46919],[123.06279,11.47055],[123.063721,11.47205],[123.064468,11.47342],[123.06498,11.47376],[123.065773,11.47435],[123.066292,11.47533],[123.067581,11.47554],[123.068138,11.47527],[123.069077,11.47459],[123.069771,11.47505],[123.070297,11.47547],[123.071007,11.4759],[123.071693,11.47727],[123.072128,11.47896],[123.07354,11.47924],[123.07399,11.47922],[123.077591,11.47761],[123.077888,11.47728],[123.08197,11.48039],[123.082962,11.48012],[123.083603,11.48064]]]]}},{"type":"Feature","properties":{"ID_0":177,"ISO":"PHL","NAME_0":"Philippines","ID_1":6030,"NAME_1":"Iloilo","ID_2":603005,"NAME_2":"Balasan","ID_3":603005007,"NAME_3":"Dolores","NL_NAME_3":null,"VARNAME_3":null,"TYPE_3":"Barangay","ENGTYPE_3":"Village","PROVINCE":"Iloilo","REGION":"Region VI (Western Visayas)","id":"barangay-0603005007","name":"Dolores","barangayCode":"0603005007","population":null,"formattedPop":null,"densityCategory":"No data","vulnerabilityRating":"No data","healthRiskLevel":"No data","areaKm2":1.299234,"centerLat":11.457801,"centerLng":123.085057,"geometrySource":"all_barangay-2.csv detailed WKT","geometryMatchMethod":"unique_official_admin_names","boundaryPointCount":46},"geometry":{"type":"MultiPolygon","coordinates":[[[[123.087914,11.46261],[123.088303,11.46217],[123.088959,11.46185],[123.089256,11.46185],[123.090057,11.46167],[123.088791,11.45984],[123.088547,11.45934],[123.088593,11.45858],[123.088493,11.4577],[123.08886,11.45696],[123.089546,11.45612],[123.089653,11.45471],[123.088882,11.45441],[123.088516,11.45409],[123.08786,11.45294],[123.087471,11.45233],[123.086731,11.4521],[123.086098,11.45147],[123.085632,11.45045],[123.085136,11.44992],[123.084297,11.44961],[123.083809,11.44886],[123.08371,11.44879],[123.083946,11.44838],[123.082611,11.44797],[123.083969,11.45133],[123.082863,11.45413],[123.082458,11.45441],[123.081543,11.45508],[123.081932,11.45629],[123.082329,11.45785],[123.082283,11.4583],[123.081932,11.45873],[123.082497,11.45885],[123.081909,11.46137],[123.083153,11.46182],[123.083527,11.46224],[123.083687,11.46226],[123.084671,11.46161],[123.084824,11.46159],[123.085022,11.46226],[123.085327,11.46303],[123.085953,11.46335],[123.086472,11.46323],[123.087273,11.46248],[123.087914,11.46261]]]]}},{"type":"Feature","properties":{"ID_0":177,"ISO":"PHL","NAME_0":"Philippines","ID_1":6030,"NAME_1":"Iloilo","ID_2":603005,"NAME_2":"Balasan","ID_3":603005008,"NAME_3":"Gimamanay","NL_NAME_3":null,"VARNAME_3":null,"TYPE_3":"Barangay","ENGTYPE_3":"Village","PROVINCE":"Iloilo","REGION":"Region VI (Western Visayas)","id":"barangay-0603005008","name":"Gimamanay","barangayCode":"0603005008","population":null,"formattedPop":null,"densityCategory":"No data","vulnerabilityRating":"No data","healthRiskLevel":"No data","areaKm2":3.275497,"centerLat":11.41968,"centerLng":123.066753,"geometrySource":"all_barangay-2.csv detailed WKT","geometryMatchMethod":"unique_official_admin_names","boundaryPointCount":14},"geometry":{"type":"MultiPolygon","coordinates":[[[[123.084938,11.43194],[123.080673,11.42153],[123.069511,11.41786],[123.063057,11.41403],[123.059967,11.4104],[123.054527,11.4098],[123.054604,11.41013],[123.05426,11.41412],[123.052917,11.41713],[123.060837,11.4168],[123.079803,11.43591],[123.082413,11.43313],[123.083328,11.43491],[123.084938,11.43194]]]]}},{"type":"Feature","properties":{"ID_0":177,"ISO":"PHL","NAME_0":"Philippines","ID_1":6030,"NAME_1":"Iloilo","ID_2":603005,"NAME_2":"Balasan","ID_3":603005009,"NAME_3":"Ipil","NL_NAME_3":null,"VARNAME_3":null,"TYPE_3":"Barangay","ENGTYPE_3":"Village","PROVINCE":"Iloilo","REGION":"Region VI (Western Visayas)","id":"barangay-0603005009","name":"Ipil","barangayCode":"0603005009","population":null,"formattedPop":null,"densityCategory":"No data","vulnerabilityRating":"No data","healthRiskLevel":"No data","areaKm2":1.568284,"centerLat":11.466377,"centerLng":123.104136,"geometrySource":"all_barangay-2.csv detailed WKT","geometryMatchMethod":"unique_official_admin_names","boundaryPointCount":23},"geometry":{"type":"MultiPolygon","coordinates":[[[[123.105789,11.47571],[123.112053,11.47121],[123.109917,11.46368],[123.107712,11.46286],[123.107918,11.4622],[123.104591,11.45849],[123.101257,11.4584],[123.101227,11.45849],[123.09816,11.45715],[123.096497,11.45746],[123.096184,11.45822],[123.096138,11.46052],[123.099457,11.46233],[123.100594,11.4671],[123.101196,11.4681],[123.102074,11.46939],[123.102676,11.47146],[123.102921,11.47205],[123.103333,11.47252],[123.104424,11.47403],[123.104462,11.47431],[123.104851,11.47505],[123.105789,11.47571]]]]}},{"type":"Feature","properties":{"ID_0":177,"ISO":"PHL","NAME_0":"Philippines","ID_1":6030,"NAME_1":"Iloilo","ID_2":603005,"NAME_2":"Balasan","ID_3":603005010,"NAME_3":"Kinalkalan","NL_NAME_3":null,"VARNAME_3":null,"TYPE_3":"Barangay","ENGTYPE_3":"Village","PROVINCE":"Iloilo","REGION":"Region VI (Western Visayas)","id":"barangay-0603005010","name":"Kinalkalan","barangayCode":"0603005010","population":null,"formattedPop":null,"densityCategory":"No data","vulnerabilityRating":"No data","healthRiskLevel":"No data","areaKm2":1.743785,"centerLat":11.482608,"centerLng":123.076251,"geometrySource":"all_barangay-2.csv detailed WKT","geometryMatchMethod":"unique_official_admin_names","boundaryPointCount":35},"geometry":{"type":"MultiPolygon","coordinates":[[[[123.075287,11.49121],[123.08606,11.49107],[123.08448,11.49032],[123.082657,11.48955],[123.082367,11.48668],[123.084373,11.48399],[123.083603,11.48064],[123.082962,11.48012],[123.08197,11.48039],[123.077888,11.47728],[123.077591,11.47761],[123.07399,11.47922],[123.07354,11.47924],[123.072128,11.47896],[123.071693,11.47727],[123.071007,11.4759],[123.070297,11.47547],[123.069771,11.47505],[123.069077,11.47459],[123.068138,11.47527],[123.068832,11.47597],[123.068863,11.47637],[123.06897,11.47718],[123.069328,11.47843],[123.069527,11.47893],[123.069839,11.47974],[123.070107,11.48044],[123.070412,11.48108],[123.070892,11.48199],[123.070953,11.4826],[123.07135,11.48337],[123.072449,11.4836],[123.073067,11.48366],[123.073677,11.48575],[123.075287,11.49121]]]]}},{"type":"Feature","properties":{"ID_0":177,"ISO":"PHL","NAME_0":"Philippines","ID_1":6030,"NAME_1":"Iloilo","ID_2":603005,"NAME_2":"Balasan","ID_3":603005011,"NAME_3":"Lawis","NL_NAME_3":null,"VARNAME_3":null,"TYPE_3":"Barangay","ENGTYPE_3":"Village","PROVINCE":"Iloilo","REGION":"Region VI (Western Visayas)","id":"barangay-0603005011","name":"Lawis","barangayCode":"0603005011","population":null,"formattedPop":null,"densityCategory":"No data","vulnerabilityRating":"No data","healthRiskLevel":"No data","areaKm2":6.195038,"centerLat":11.48429,"centerLng":123.123786,"geometrySource":"all_barangay-2.csv detailed WKT","geometryMatchMethod":"unique_official_admin_names","boundaryPointCount":192},"geometry":{"type":"MultiPolygon","coordinates":[[[[123.124451,11.495307],[123.124168,11.49528],[123.123993,11.49546],[123.124451,11.495307]]],[[[123.120338,11.49771],[123.120827,11.49722],[123.121109,11.49722],[123.121674,11.49667],[123.121674,11.49639],[123.121948,11.49611],[123.121948,11.49583],[123.122223,11.49556],[123.122498,11.49556],[123.123337,11.49472],[123.123611,11.49472],[123.124733,11.49361],[123.125,11.49361],[123.125267,11.49333],[123.126106,11.49333],[123.126389,11.49361],[123.126663,11.49361],[123.126953,11.49389],[123.127502,11.49389],[123.127777,11.49417],[123.128052,11.49417],[123.128326,11.49445],[123.128891,11.49445],[123.129173,11.49472],[123.129723,11.49472],[123.129997,11.495],[123.13028,11.495],[123.130524,11.49525],[123.130547,11.49528],[123.130768,11.49528],[123.131668,11.49528],[123.131943,11.495],[123.1325,11.495],[123.133331,11.49417],[123.133614,11.49417],[123.134163,11.49361],[123.134247,11.49361],[123.134506,11.49353],[123.134857,11.4934],[123.135307,11.49337],[123.135803,11.49342],[123.136391,11.49361],[123.136673,11.49389],[123.136948,11.49389],[123.137222,11.49361],[123.138046,11.49361],[123.138344,11.49333],[123.139168,11.49333],[123.139999,11.4925],[123.140266,11.4925],[123.140831,11.49194],[123.140831,11.49167],[123.141113,11.49139],[123.141113,11.49083],[123.141388,11.49056],[123.141388,11.49],[123.140556,11.48917],[123.139717,11.48917],[123.139442,11.48889],[123.139442,11.48861],[123.138893,11.48806],[123.138893,11.48778],[123.139168,11.4875],[123.139168,11.48694],[123.139442,11.48667],[123.139442,11.48639],[123.139511,11.48575],[123.139687,11.48528],[123.139893,11.48484],[123.140167,11.48449],[123.140457,11.4842],[123.140701,11.48395],[123.140709,11.48368],[123.140373,11.48338],[123.140099,11.48317],[123.139816,11.48301],[123.139458,11.48293],[123.139023,11.48303],[123.138496,11.48313],[123.138,11.48324],[123.137466,11.48329],[123.136917,11.48325],[123.136398,11.48308],[123.135887,11.48285],[123.135406,11.48256],[123.135017,11.48223],[123.134628,11.48192],[123.134262,11.48159],[123.13401,11.48119],[123.133911,11.48075],[123.133881,11.48029],[123.133827,11.47988],[123.133667,11.47959],[123.133339,11.47947],[123.132889,11.47947],[123.132553,11.47954],[123.132332,11.47969],[123.132172,11.47998],[123.131927,11.48029],[123.13163,11.48063],[123.131393,11.48104],[123.131111,11.48139],[123.131393,11.48167],[123.131393,11.48278],[123.130547,11.48361],[123.130547,11.48389],[123.13028,11.48417],[123.13028,11.48528],[123.129723,11.48583],[123.129448,11.48583],[123.129448,11.48472],[123.129173,11.48444],[123.129173,11.48361],[123.128052,11.4825],[123.128326,11.48222],[123.128326,11.48194],[123.128609,11.48167],[123.128609,11.48083],[123.128891,11.48056],[123.128891,11.48028],[123.128609,11.48],[123.128609,11.47944],[123.128891,11.47917],[123.12896,11.47881],[123.128891,11.47848],[123.128723,11.47811],[123.128448,11.47774],[123.128143,11.47744],[123.127876,11.47716],[123.127907,11.4768],[123.128258,11.47671],[123.128723,11.4766],[123.129173,11.47646],[123.129593,11.47634],[123.130013,11.4763],[123.130432,11.47632],[123.130859,11.47638],[123.131287,11.47638],[123.131752,11.47619],[123.131813,11.47615],[123.132187,11.47587],[123.132568,11.47551],[123.132698,11.47516],[123.132652,11.47508],[123.131393,11.47488],[123.12925,11.47522],[123.129028,11.47536],[123.127083,11.47402],[123.126289,11.47385],[123.12587,11.47428],[123.124283,11.47448],[123.122993,11.47404],[123.121391,11.47271],[123.121513,11.47153],[123.11985,11.47092],[123.119209,11.47142],[123.112053,11.47121],[123.105789,11.47571],[123.107819,11.47663],[123.108513,11.47779],[123.108994,11.47881],[123.109329,11.48068],[123.10997,11.48142],[123.110931,11.48162],[123.111504,11.48156],[123.112038,11.48169],[123.112213,11.48207],[123.112396,11.48299],[123.113007,11.4845],[123.113152,11.48536],[123.113197,11.48624],[123.113747,11.48708],[123.114166,11.48804],[123.112961,11.48873],[123.112457,11.48882],[123.112007,11.48921],[123.112923,11.48963],[123.113693,11.48955],[123.114403,11.48952],[123.115173,11.48984],[123.115608,11.4909],[123.115669,11.49274],[123.115639,11.49324],[123.115311,11.49431],[123.116959,11.49562],[123.118118,11.49695],[123.119171,11.49768],[123.120338,11.49771]]]]}},{"type":"Feature","properties":{"ID_0":177,"ISO":"PHL","NAME_0":"Philippines","ID_1":6030,"NAME_1":"Iloilo","ID_2":603005,"NAME_2":"Balasan","ID_3":603005012,"NAME_3":"Malapoc","NL_NAME_3":null,"VARNAME_3":null,"TYPE_3":"Barangay","ENGTYPE_3":"Village","PROVINCE":"Iloilo","REGION":"Region VI (Western Visayas)","id":"barangay-0603005012","name":"Malapoc","barangayCode":"0603005012","population":null,"formattedPop":null,"densityCategory":"No data","vulnerabilityRating":"No data","healthRiskLevel":"No data","areaKm2":1.070898,"centerLat":11.45249,"centerLng":123.077857,"geometrySource":"all_barangay-2.csv detailed WKT","geometryMatchMethod":"unique_official_admin_names","boundaryPointCount":40},"geometry":{"type":"MultiPolygon","coordinates":[[[[123.077263,11.46041],[123.079033,11.46053],[123.079941,11.46129],[123.081909,11.46137],[123.082497,11.45885],[123.081932,11.45873],[123.082283,11.4583],[123.082329,11.45785],[123.081932,11.45629],[123.081543,11.45508],[123.082458,11.45441],[123.082863,11.45413],[123.083969,11.45133],[123.082611,11.44797],[123.080681,11.44786],[123.078033,11.44727],[123.077888,11.4472],[123.077599,11.44698],[123.076309,11.44724],[123.076309,11.44695],[123.077187,11.4461],[123.076118,11.44584],[123.074638,11.4472],[123.075157,11.44856],[123.074799,11.44949],[123.076553,11.45084],[123.076218,11.45134],[123.075996,11.45224],[123.076263,11.45275],[123.075562,11.45362],[123.075394,11.45408],[123.076042,11.45486],[123.076637,11.4559],[123.076721,11.45648],[123.077667,11.45767],[123.077972,11.45789],[123.078033,11.45808],[123.077827,11.4587],[123.077217,11.45983],[123.077263,11.46041]]]]}},{"type":"Feature","properties":{"ID_0":177,"ISO":"PHL","NAME_0":"Philippines","ID_1":6030,"NAME_1":"Iloilo","ID_2":603005,"NAME_2":"Balasan","ID_3":603005013,"NAME_3":"Mamhut Norte","NL_NAME_3":null,"VARNAME_3":null,"TYPE_3":"Barangay","ENGTYPE_3":"Village","PROVINCE":"Iloilo","REGION":"Region VI (Western Visayas)","id":"barangay-0603005013","name":"Mamhut Norte","barangayCode":"0603005013","population":null,"formattedPop":null,"densityCategory":"No data","vulnerabilityRating":"No data","healthRiskLevel":"No data","areaKm2":4.602765,"centerLat":11.486894,"centerLng":123.104602,"geometrySource":"all_barangay-2.csv detailed WKT","geometryMatchMethod":"unique_official_admin_names","boundaryPointCount":92},"geometry":{"type":"MultiPolygon","coordinates":[[[[123.105103,11.49972],[123.105141,11.49972],[123.106339,11.49927],[123.107582,11.49863],[123.108383,11.49831],[123.109909,11.49789],[123.110802,11.49758],[123.111397,11.49709],[123.111816,11.49614],[123.1119,11.49528],[123.11235,11.49405],[123.112778,11.4938],[123.113052,11.49376],[123.113609,11.4938],[123.114258,11.49386],[123.115311,11.49431],[123.115639,11.49324],[123.115669,11.49274],[123.115608,11.4909],[123.115173,11.48984],[123.114403,11.48952],[123.113693,11.48955],[123.112923,11.48963],[123.112007,11.48921],[123.112457,11.48882],[123.112961,11.48873],[123.114166,11.48804],[123.113747,11.48708],[123.113197,11.48624],[123.113152,11.48536],[123.113007,11.4845],[123.112396,11.48299],[123.112213,11.48207],[123.112038,11.48169],[123.111504,11.48156],[123.110931,11.48162],[123.10997,11.48142],[123.109329,11.48068],[123.108994,11.47881],[123.108513,11.47779],[123.107819,11.47663],[123.105789,11.47571],[123.104851,11.47505],[123.104462,11.47431],[123.104424,11.47403],[123.103333,11.47252],[123.102814,11.47278],[123.102257,11.47263],[123.101921,11.47277],[123.101341,11.47316],[123.101196,11.47356],[123.099922,11.47484],[123.099854,11.47571],[123.099831,11.4766],[123.0998,11.47724],[123.100037,11.47757],[123.09848,11.478],[123.098534,11.47835],[123.098251,11.47839],[123.097313,11.47813],[123.096291,11.47781],[123.095886,11.47811],[123.095642,11.47867],[123.094337,11.4796],[123.093773,11.48126],[123.093361,11.4817],[123.094307,11.48437],[123.094292,11.48493],[123.094383,11.48686],[123.096107,11.48785],[123.098099,11.48816],[123.099609,11.48955],[123.099777,11.49062],[123.099922,11.49116],[123.099609,11.49414],[123.099983,11.49411],[123.101028,11.49404],[123.10173,11.49395],[123.101982,11.4939],[123.102722,11.49374],[123.103027,11.4934],[123.103287,11.49316],[123.103653,11.49298],[123.104057,11.49295],[123.104927,11.49252],[123.1054,11.49263],[123.105507,11.49273],[123.105797,11.49423],[123.105171,11.49588],[123.104424,11.49748],[123.104408,11.49917],[123.105103,11.49972]]]]}},{"type":"Feature","properties":{"ID_0":177,"ISO":"PHL","NAME_0":"Philippines","ID_1":6030,"NAME_1":"Iloilo","ID_2":603005,"NAME_2":"Balasan","ID_3":603005014,"NAME_3":"Mamhut Sur","NL_NAME_3":null,"VARNAME_3":null,"TYPE_3":"Barangay","ENGTYPE_3":"Village","PROVINCE":"Iloilo","REGION":"Region VI (Western Visayas)","id":"barangay-0603005014","name":"Mamhut Sur","barangayCode":"0603005014","population":null,"formattedPop":null,"densityCategory":"No data","vulnerabilityRating":"No data","healthRiskLevel":"No data","areaKm2":0.482451,"centerLat":11.477399,"centerLng":123.091425,"geometrySource":"all_barangay-2.csv detailed WKT","geometryMatchMethod":"unique_official_admin_names","boundaryPointCount":23},"geometry":{"type":"MultiPolygon","coordinates":[[[[123.094337,11.4796],[123.095642,11.47867],[123.095886,11.47811],[123.096291,11.47781],[123.097313,11.47813],[123.098251,11.47839],[123.098534,11.47835],[123.09848,11.478],[123.098091,11.47699],[123.09787,11.47628],[123.097481,11.47538],[123.096947,11.47496],[123.095642,11.47455],[123.094849,11.47407],[123.093964,11.473],[123.092484,11.47265],[123.091042,11.47315],[123.089409,11.47402],[123.086967,11.47401],[123.087311,11.47594],[123.087677,11.47786],[123.091743,11.47861],[123.094337,11.4796]]]]}},{"type":"Feature","properties":{"ID_0":177,"ISO":"PHL","NAME_0":"Philippines","ID_1":6030,"NAME_1":"Iloilo","ID_2":603005,"NAME_2":"Balasan","ID_3":603005015,"NAME_3":"Maya","NL_NAME_3":null,"VARNAME_3":null,"TYPE_3":"Barangay","ENGTYPE_3":"Village","PROVINCE":"Iloilo","REGION":"Region VI (Western Visayas)","id":"barangay-0603005015","name":"Maya","barangayCode":"0603005015","population":null,"formattedPop":null,"densityCategory":"No data","vulnerabilityRating":"No data","healthRiskLevel":"No data","areaKm2":1.329428,"centerLat":11.466613,"centerLng":123.095118,"geometrySource":"all_barangay-2.csv detailed WKT","geometryMatchMethod":"unique_official_admin_names","boundaryPointCount":45},"geometry":{"type":"MultiPolygon","coordinates":[[[[123.103333,11.47252],[123.102921,11.47205],[123.102676,11.47146],[123.102074,11.46939],[123.101196,11.4681],[123.100594,11.4671],[123.099457,11.46233],[123.096138,11.46052],[123.096184,11.45822],[123.094177,11.45745],[123.093727,11.45766],[123.092346,11.45709],[123.092117,11.45859],[123.091522,11.45889],[123.091057,11.45883],[123.090057,11.46167],[123.089256,11.46185],[123.088959,11.46185],[123.088303,11.46217],[123.087914,11.46261],[123.08844,11.46366],[123.08902,11.4646],[123.089256,11.46505],[123.088463,11.46539],[123.08786,11.46533],[123.087914,11.46552],[123.087891,11.46576],[123.089447,11.46655],[123.090347,11.46787],[123.091537,11.46853],[123.09285,11.4685],[123.093567,11.46863],[123.09404,11.46911],[123.094337,11.46954],[123.094521,11.4703],[123.095139,11.4713],[123.095711,11.47116],[123.097214,11.47055],[123.099716,11.47132],[123.10006,11.47163],[123.101341,11.47316],[123.101921,11.47277],[123.102257,11.47263],[123.102814,11.47278],[123.103333,11.47252]]]]}},{"type":"Feature","properties":{"ID_0":177,"ISO":"PHL","NAME_0":"Philippines","ID_1":6030,"NAME_1":"Iloilo","ID_2":603005,"NAME_2":"Balasan","ID_3":603005016,"NAME_3":"Pani-an","NL_NAME_3":null,"VARNAME_3":null,"TYPE_3":"Barangay","ENGTYPE_3":"Village","PROVINCE":"Iloilo","REGION":"Region VI (Western Visayas)","id":"barangay-0603005016","name":"Pani-an","barangayCode":"0603005016","population":null,"formattedPop":null,"densityCategory":"No data","vulnerabilityRating":"No data","healthRiskLevel":"No data","areaKm2":1.684751,"centerLat":11.462966,"centerLng":123.110681,"geometrySource":"all_barangay-2.csv detailed WKT","geometryMatchMethod":"unique_official_admin_names","boundaryPointCount":43},"geometry":{"type":"MultiPolygon","coordinates":[[[[123.112053,11.47121],[123.119209,11.47142],[123.11866,11.47076],[123.118507,11.47034],[123.117851,11.47008],[123.117287,11.46951],[123.116837,11.4688],[123.116623,11.46876],[123.116524,11.46804],[123.116547,11.46752],[123.116257,11.46663],[123.115852,11.46509],[123.115791,11.46433],[123.114998,11.46352],[123.113892,11.4627],[123.113457,11.4628],[123.113571,11.46218],[123.113708,11.46138],[123.113739,11.46089],[123.113541,11.4607],[123.113159,11.45993],[123.112663,11.45963],[123.111923,11.45935],[123.111557,11.45879],[123.111778,11.45855],[123.111588,11.45745],[123.111557,11.45738],[123.111443,11.45684],[123.111343,11.45673],[123.110947,11.4567],[123.111107,11.45581],[123.111107,11.45483],[123.110497,11.45318],[123.109932,11.45212],[123.10984,11.45179],[123.108002,11.45158],[123.105309,11.45202],[123.104424,11.45589],[123.104591,11.45849],[123.107918,11.4622],[123.107712,11.46286],[123.109917,11.46368],[123.112053,11.47121]]]]}},{"type":"Feature","properties":{"ID_0":177,"ISO":"PHL","NAME_0":"Philippines","ID_1":6030,"NAME_1":"Iloilo","ID_2":603005,"NAME_2":"Balasan","ID_3":603005017,"NAME_3":"Poblacion Norte","NL_NAME_3":null,"VARNAME_3":null,"TYPE_3":"Barangay","ENGTYPE_3":"Village","PROVINCE":"Iloilo","REGION":"Region VI (Western Visayas)","id":"barangay-0603005017","name":"Poblacion Norte","barangayCode":"0603005017","population":null,"formattedPop":null,"densityCategory":"No data","vulnerabilityRating":"No data","healthRiskLevel":"No data","areaKm2":0.150298,"centerLat":11.473195,"centerLng":123.087056,"geometrySource":"all_barangay-2.csv detailed WKT","geometryMatchMethod":"unique_official_admin_names","boundaryPointCount":9},"geometry":{"type":"MultiPolygon","coordinates":[[[[123.091042,11.47315],[123.091133,11.47282],[123.084633,11.46937],[123.082787,11.47145],[123.083008,11.47236],[123.085716,11.47436],[123.086967,11.47401],[123.089409,11.47402],[123.091042,11.47315]]]]}},{"type":"Feature","properties":{"ID_0":177,"ISO":"PHL","NAME_0":"Philippines","ID_1":6030,"NAME_1":"Iloilo","ID_2":603005,"NAME_2":"Balasan","ID_3":603005018,"NAME_3":"Poblacion Sur","NL_NAME_3":null,"VARNAME_3":null,"TYPE_3":"Barangay","ENGTYPE_3":"Village","PROVINCE":"Iloilo","REGION":"Region VI (Western Visayas)","id":"barangay-0603005018","name":"Poblacion Sur","barangayCode":"0603005018","population":null,"formattedPop":null,"densityCategory":"No data","vulnerabilityRating":"No data","healthRiskLevel":"No data","areaKm2":1.183637,"centerLat":11.471195,"centerLng":123.091844,"geometrySource":"all_barangay-2.csv detailed WKT","geometryMatchMethod":"unique_official_admin_names","boundaryPointCount":62},"geometry":{"type":"MultiPolygon","coordinates":[[[[123.101341,11.47316],[123.10006,11.47163],[123.099716,11.47132],[123.097214,11.47055],[123.095711,11.47116],[123.095139,11.4713],[123.094521,11.4703],[123.094337,11.46954],[123.09404,11.46911],[123.093567,11.46863],[123.09285,11.4685],[123.091537,11.46853],[123.090347,11.46787],[123.089447,11.46655],[123.087891,11.46576],[123.087914,11.46552],[123.08786,11.46533],[123.088463,11.46539],[123.089256,11.46505],[123.08902,11.4646],[123.08844,11.46366],[123.087914,11.46261],[123.087273,11.46248],[123.086472,11.46323],[123.085953,11.46335],[123.085327,11.46303],[123.085022,11.46226],[123.084824,11.46159],[123.084671,11.46161],[123.083687,11.46226],[123.083527,11.46224],[123.083153,11.46182],[123.081909,11.46137],[123.079941,11.46129],[123.079033,11.46053],[123.077263,11.46041],[123.07711,11.46103],[123.075996,11.46113],[123.076286,11.46223],[123.077904,11.46522],[123.082642,11.46801],[123.082741,11.46808],[123.083023,11.4687],[123.084633,11.46937],[123.091133,11.47282],[123.091042,11.47315],[123.092484,11.47265],[123.093964,11.473],[123.094849,11.47407],[123.095642,11.47455],[123.096947,11.47496],[123.097481,11.47538],[123.09787,11.47628],[123.098091,11.47699],[123.09848,11.478],[123.100037,11.47757],[123.0998,11.47724],[123.099831,11.4766],[123.099854,11.47571],[123.099922,11.47484],[123.101196,11.47356],[123.101341,11.47316]]]]}},{"type":"Feature","properties":{"ID_0":177,"ISO":"PHL","NAME_0":"Philippines","ID_1":6030,"NAME_1":"Iloilo","ID_2":603005,"NAME_2":"Balasan","ID_3":603005019,"NAME_3":"Quiasan","NL_NAME_3":null,"VARNAME_3":null,"TYPE_3":"Barangay","ENGTYPE_3":"Village","PROVINCE":"Iloilo","REGION":"Region VI (Western Visayas)","id":"barangay-0603005019","name":"Quiasan","barangayCode":"0603005019","population":null,"formattedPop":null,"densityCategory":"No data","vulnerabilityRating":"No data","healthRiskLevel":"No data","areaKm2":3.612484,"centerLat":11.440732,"centerLng":123.087246,"geometrySource":"all_barangay-2.csv detailed WKT","geometryMatchMethod":"unique_official_admin_names","boundaryPointCount":66},"geometry":{"type":"MultiPolygon","coordinates":[[[[123.089546,11.45612],[123.09008,11.45531],[123.089867,11.45471],[123.090141,11.45379],[123.090027,11.45264],[123.089951,11.45202],[123.090973,11.45056],[123.09169,11.44976],[123.092117,11.44963],[123.092484,11.44923],[123.092491,11.44858],[123.092697,11.44739],[123.093079,11.44649],[123.093102,11.44604],[123.092857,11.44532],[123.092796,11.44421],[123.092751,11.44374],[123.092888,11.44316],[123.093628,11.44296],[123.094307,11.44269],[123.094902,11.44168],[123.095284,11.44168],[123.095589,11.44203],[123.095947,11.44218],[123.096603,11.44229],[123.097633,11.44016],[123.092194,11.43403],[123.08889,11.42957],[123.084938,11.43194],[123.083328,11.43491],[123.082413,11.43313],[123.079803,11.43591],[123.079231,11.43645],[123.078369,11.43662],[123.078178,11.43707],[123.078773,11.43838],[123.078857,11.43956],[123.079269,11.44092],[123.079727,11.44182],[123.079887,11.44182],[123.0802,11.44178],[123.080299,11.44197],[123.079872,11.44256],[123.080513,11.44294],[123.080887,11.44249],[123.081268,11.4424],[123.082268,11.44338],[123.082443,11.44595],[123.082108,11.4464],[123.082237,11.44684],[123.082268,11.4472],[123.082611,11.44797],[123.083946,11.44838],[123.08371,11.44879],[123.083809,11.44886],[123.084297,11.44961],[123.085136,11.44992],[123.085632,11.45045],[123.086098,11.45147],[123.086731,11.4521],[123.087471,11.45233],[123.08786,11.45294],[123.088516,11.45409],[123.088882,11.45441],[123.089653,11.45471],[123.089546,11.45612]]]]}},{"type":"Feature","properties":{"ID_0":177,"ISO":"PHL","NAME_0":"Philippines","ID_1":6030,"NAME_1":"Iloilo","ID_2":603005,"NAME_2":"Balasan","ID_3":603005020,"NAME_3":"Salong","NL_NAME_3":null,"VARNAME_3":null,"TYPE_3":"Barangay","ENGTYPE_3":"Village","PROVINCE":"Iloilo","REGION":"Region VI (Western Visayas)","id":"barangay-0603005020","name":"Salong","barangayCode":"0603005020","population":null,"formattedPop":null,"densityCategory":"No data","vulnerabilityRating":"No data","healthRiskLevel":"No data","areaKm2":3.405688,"centerLat":11.444066,"centerLng":123.051724,"geometrySource":"all_barangay-2.csv detailed WKT","geometryMatchMethod":"unique_official_admin_names","boundaryPointCount":17},"geometry":{"type":"MultiPolygon","coordinates":[[[[123.063881,11.45318],[123.064034,11.45032],[123.04882,11.43417],[123.048607,11.43686],[123.048561,11.44289],[123.048462,11.44644],[123.048843,11.44825],[123.0494,11.45013],[123.049629,11.45069],[123.051483,11.4523],[123.05249,11.45362],[123.053879,11.45485],[123.055351,11.45617],[123.057678,11.45442],[123.063377,11.45751],[123.063637,11.45471],[123.063881,11.45318]]]]}},{"type":"Feature","properties":{"ID_0":177,"ISO":"PHL","NAME_0":"Philippines","ID_1":6030,"NAME_1":"Iloilo","ID_2":603005,"NAME_2":"Balasan","ID_3":603005021,"NAME_3":"Salvacion","NL_NAME_3":null,"VARNAME_3":null,"TYPE_3":"Barangay","ENGTYPE_3":"Village","PROVINCE":"Iloilo","REGION":"Region VI (Western Visayas)","id":"barangay-0603005021","name":"Salvacion","barangayCode":"0603005021","population":null,"formattedPop":null,"densityCategory":"No data","vulnerabilityRating":"No data","healthRiskLevel":"No data","areaKm2":2.439165,"centerLat":11.426752,"centerLng":123.066419,"geometrySource":"all_barangay-2.csv detailed WKT","geometryMatchMethod":"unique_official_admin_names","boundaryPointCount":14},"geometry":{"type":"MultiPolygon","coordinates":[[[[123.079803,11.43591],[123.060837,11.4168],[123.052917,11.41713],[123.052696,11.41763],[123.062263,11.42599],[123.0644,11.43231],[123.064751,11.43181],[123.068718,11.43524],[123.070068,11.43523],[123.075546,11.43677],[123.078178,11.43707],[123.078369,11.43662],[123.079231,11.43645],[123.079803,11.43591]]]]}},{"type":"Feature","properties":{"ID_0":177,"ISO":"PHL","NAME_0":"Philippines","ID_1":6030,"NAME_1":"Iloilo","ID_2":603005,"NAME_2":"Balasan","ID_3":603005022,"NAME_3":"Tingui-an","NL_NAME_3":null,"VARNAME_3":null,"TYPE_3":"Barangay","ENGTYPE_3":"Village","PROVINCE":"Iloilo","REGION":"Region VI (Western Visayas)","id":"barangay-0603005022","name":"Tingui-an","barangayCode":"0603005022","population":null,"formattedPop":null,"densityCategory":"No data","vulnerabilityRating":"No data","healthRiskLevel":"No data","areaKm2":3.172988,"centerLat":11.451061,"centerLng":123.098591,"geometrySource":"all_barangay-2.csv detailed WKT","geometryMatchMethod":"unique_official_admin_names","boundaryPointCount":50},"geometry":{"type":"MultiPolygon","coordinates":[[[[123.096184,11.45822],[123.096497,11.45746],[123.09816,11.45715],[123.101227,11.45849],[123.101257,11.4584],[123.104591,11.45849],[123.104424,11.45589],[123.105309,11.45202],[123.108002,11.45158],[123.106277,11.44393],[123.104927,11.43938],[123.097633,11.44016],[123.096603,11.44229],[123.095947,11.44218],[123.095589,11.44203],[123.095284,11.44168],[123.094902,11.44168],[123.094307,11.44269],[123.093628,11.44296],[123.092888,11.44316],[123.092751,11.44374],[123.092796,11.44421],[123.092857,11.44532],[123.093102,11.44604],[123.093079,11.44649],[123.092697,11.44739],[123.092491,11.44858],[123.092484,11.44923],[123.092117,11.44963],[123.09169,11.44976],[123.090973,11.45056],[123.089951,11.45202],[123.090027,11.45264],[123.090141,11.45379],[123.089867,11.45471],[123.09008,11.45531],[123.089546,11.45612],[123.08886,11.45696],[123.088493,11.4577],[123.088593,11.45858],[123.088547,11.45934],[123.088791,11.45984],[123.090057,11.46167],[123.091057,11.45883],[123.091522,11.45889],[123.092117,11.45859],[123.092346,11.45709],[123.093727,11.45766],[123.094177,11.45745],[123.096184,11.45822]]]]}},{"type":"Feature","properties":{"ID_0":177,"ISO":"PHL","NAME_0":"Philippines","ID_1":6030,"NAME_1":"Iloilo","ID_2":603005,"NAME_2":"Balasan","ID_3":603005023,"NAME_3":"Zaragosa","NL_NAME_3":null,"VARNAME_3":null,"TYPE_3":"Barangay","ENGTYPE_3":"Village","PROVINCE":"Iloilo","REGION":"Region VI (Western Visayas)","id":"barangay-0603005023","name":"Zaragosa","barangayCode":"0603005023","population":null,"formattedPop":null,"densityCategory":"No data","vulnerabilityRating":"No data","healthRiskLevel":"No data","areaKm2":3.493359,"centerLat":11.410004,"centerLng":123.065447,"geometrySource":"all_barangay-2.csv detailed WKT","geometryMatchMethod":"unique_official_admin_names","boundaryPointCount":9},"geometry":{"type":"MultiPolygon","coordinates":[[[[123.080048,11.41906],[123.075912,11.41038],[123.054207,11.40801],[123.054527,11.4098],[123.059967,11.4104],[123.063057,11.41403],[123.069511,11.41786],[123.080673,11.42153],[123.080048,11.41906]]]]}}]}
