{"type":"FeatureCollection","features":[{"type":"Feature","properties":{"ID_0":177,"ISO":"PHL","NAME_0":"Philippines","ID_1":2015,"NAME_1":"Cagayan","ID_2":201507,"NAME_2":"Ballesteros","ID_3":201507001,"NAME_3":"Ammubuan","NL_NAME_3":null,"VARNAME_3":null,"TYPE_3":"Barangay","ENGTYPE_3":"Village","PROVINCE":"Cagayan","REGION":"Region II (Cagayan Valley)","id":"barangay-0201507001","name":"Ammubuan","barangayCode":"0201507001","population":null,"formattedPop":null,"densityCategory":"No data","vulnerabilityRating":"No data","healthRiskLevel":"No data","areaKm2":2.03573,"centerLat":18.393056,"centerLng":121.533806,"geometrySource":"all_barangay-2.csv detailed WKT","geometryMatchMethod":"unique_official_admin_names","boundaryPointCount":39},"geometry":{"type":"MultiPolygon","coordinates":[[[[121.534561,18.404961],[121.535011,18.40477],[121.5355,18.404699],[121.536087,18.40477],[121.536652,18.40464],[121.53717,18.404369],[121.537651,18.40406],[121.53804,18.4037],[121.538399,18.403351],[121.538818,18.40307],[121.539268,18.402849],[121.53978,18.402691],[121.540298,18.40246],[121.540817,18.40218],[121.541328,18.40185],[121.541832,18.40151],[121.542252,18.401251],[121.537903,18.39439],[121.536469,18.388889],[121.53643,18.388769],[121.535843,18.38785],[121.535423,18.38665],[121.535042,18.38583],[121.534813,18.385111],[121.53495,18.384109],[121.535149,18.38377],[121.53566,18.3834],[121.535469,18.38254],[121.534569,18.38158],[121.533791,18.38122],[121.533127,18.381161],[121.531677,18.38084],[121.530899,18.381639],[121.52993,18.382231],[121.529129,18.38205],[121.528259,18.381689],[121.526718,18.38273],[121.532387,18.39957],[121.534561,18.404961]]]]}},{"type":"Feature","properties":{"ID_0":177,"ISO":"PHL","NAME_0":"Philippines","ID_1":2015,"NAME_1":"Cagayan","ID_2":201507,"NAME_2":"Ballesteros","ID_3":201507002,"NAME_3":"Baran","NL_NAME_3":null,"VARNAME_3":null,"TYPE_3":"Barangay","ENGTYPE_3":"Village","PROVINCE":"Cagayan","REGION":"Region II (Cagayan Valley)","id":"barangay-0201507002","name":"Baran","barangayCode":"0201507002","population":null,"formattedPop":null,"densityCategory":"No data","vulnerabilityRating":"No data","healthRiskLevel":"No data","areaKm2":18.15464,"centerLat":18.384886,"centerLng":121.479435,"geometrySource":"all_barangay-2.csv detailed WKT","geometryMatchMethod":"unique_official_admin_names","boundaryPointCount":83},"geometry":{"type":"MultiPolygon","coordinates":[[[[121.494408,18.3908],[121.495033,18.390181],[121.496117,18.389099],[121.496773,18.38835],[121.497871,18.38798],[121.498817,18.38809],[121.499321,18.3881],[121.500267,18.388029],[121.501228,18.388],[121.501991,18.38809],[121.502861,18.386749],[121.503471,18.386181],[121.504646,18.3859],[121.505463,18.385759],[121.505829,18.38541],[121.506393,18.3848],[121.507156,18.383619],[121.507988,18.382271],[121.509079,18.3808],[121.509979,18.3801],[121.50885,18.378981],[121.507881,18.377661],[121.50705,18.376129],[121.506866,18.37538],[121.506363,18.374189],[121.50544,18.37252],[121.503029,18.370319],[121.50222,18.370171],[121.501022,18.37044],[121.499603,18.37052],[121.498398,18.36982],[121.497223,18.369381],[121.495911,18.36944],[121.494972,18.368851],[121.49395,18.36878],[121.493378,18.3687],[121.492912,18.36755],[121.492432,18.3661],[121.492027,18.365999],[121.491524,18.36566],[121.491333,18.36496],[121.49202,18.36484],[121.492203,18.364651],[121.491753,18.36413],[121.491096,18.363741],[121.490883,18.36318],[121.490692,18.362181],[121.490173,18.36133],[121.466949,18.36286],[121.462822,18.377701],[121.471123,18.3797],[121.473808,18.38068],[121.475609,18.38097],[121.476997,18.38133],[121.477821,18.382059],[121.478149,18.38295],[121.478622,18.38311],[121.479073,18.383141],[121.4795,18.38324],[121.480293,18.383129],[121.480949,18.383261],[121.481148,18.383801],[121.481232,18.384411],[121.481613,18.385151],[121.48246,18.38636],[121.483078,18.387329],[121.483643,18.388451],[121.483833,18.389231],[121.484253,18.389799],[121.484833,18.390051],[121.485283,18.3902],[121.485443,18.390409],[121.486053,18.390921],[121.486397,18.39081],[121.486572,18.39077],[121.486717,18.390921],[121.49057,18.388571],[121.491173,18.38847],[121.491997,18.38905],[121.492767,18.389959],[121.493561,18.39052],[121.493973,18.39064],[121.494408,18.3908]]]]}},{"type":"Feature","properties":{"ID_0":177,"ISO":"PHL","NAME_0":"Philippines","ID_1":2015,"NAME_1":"Cagayan","ID_2":201507,"NAME_2":"Ballesteros","ID_3":201507003,"NAME_3":"Cabaritan East","NL_NAME_3":null,"VARNAME_3":null,"TYPE_3":"Barangay","ENGTYPE_3":"Village","PROVINCE":"Cagayan","REGION":"Region II (Cagayan Valley)","id":"barangay-0201507003","name":"Cabaritan East","barangayCode":"0201507003","population":null,"formattedPop":null,"densityCategory":"No data","vulnerabilityRating":"No data","healthRiskLevel":"No data","areaKm2":2.663846,"centerLat":18.415141,"centerLng":121.488787,"geometrySource":"all_barangay-2.csv detailed WKT","geometryMatchMethod":"unique_official_admin_names","boundaryPointCount":24},"geometry":{"type":"MultiPolygon","coordinates":[[[[121.491653,18.430849],[121.491753,18.430799],[121.492821,18.430189],[121.49353,18.429569],[121.494377,18.428961],[121.495323,18.428419],[121.490593,18.42127],[121.483253,18.40974],[121.471123,18.3797],[121.462822,18.377701],[121.458817,18.388599],[121.45639,18.39777],[121.457367,18.401751],[121.458946,18.4046],[121.460953,18.40464],[121.466911,18.40617],[121.470772,18.4077],[121.474487,18.40966],[121.476601,18.4116],[121.477882,18.412901],[121.479317,18.41449],[121.480522,18.41585],[121.482399,18.41778],[121.491653,18.430849]]]]}},{"type":"Feature","properties":{"ID_0":177,"ISO":"PHL","NAME_0":"Philippines","ID_1":2015,"NAME_1":"Cagayan","ID_2":201507,"NAME_2":"Ballesteros","ID_3":201507004,"NAME_3":"Cabaritan West","NL_NAME_3":null,"VARNAME_3":null,"TYPE_3":"Barangay","ENGTYPE_3":"Village","PROVINCE":"Cagayan","REGION":"Region II (Cagayan Valley)","id":"barangay-0201507004","name":"Cabaritan West","barangayCode":"0201507004","population":null,"formattedPop":null,"densityCategory":"No data","vulnerabilityRating":"No data","healthRiskLevel":"No data","areaKm2":5.161836,"centerLat":18.419508,"centerLng":121.47859,"geometrySource":"all_barangay-2.csv detailed WKT","geometryMatchMethod":"unique_official_admin_names","boundaryPointCount":20},"geometry":{"type":"MultiPolygon","coordinates":[[[[121.487984,18.43351],[121.488419,18.433041],[121.489342,18.432421],[121.489906,18.43195],[121.490898,18.431271],[121.491653,18.430849],[121.482399,18.41778],[121.480522,18.41585],[121.479317,18.41449],[121.477882,18.412901],[121.476601,18.4116],[121.474487,18.40966],[121.470772,18.4077],[121.466911,18.40617],[121.460953,18.40464],[121.458946,18.4046],[121.463203,18.41114],[121.470901,18.41967],[121.478394,18.425591],[121.487984,18.43351]]]]}},{"type":"Feature","properties":{"ID_0":177,"ISO":"PHL","NAME_0":"Philippines","ID_1":2015,"NAME_1":"Cagayan","ID_2":201507,"NAME_2":"Ballesteros","ID_3":201507005,"NAME_3":"Cabayu","NL_NAME_3":null,"VARNAME_3":null,"TYPE_3":"Barangay","ENGTYPE_3":"Village","PROVINCE":"Cagayan","REGION":"Region II (Cagayan Valley)","id":"barangay-0201507005","name":"Cabayu","barangayCode":"0201507005","population":null,"formattedPop":null,"densityCategory":"No data","vulnerabilityRating":"No data","healthRiskLevel":"No data","areaKm2":6.618322,"centerLat":18.280741,"centerLng":121.476042,"geometrySource":"all_barangay-2.csv detailed WKT","geometryMatchMethod":"unique_official_admin_names","boundaryPointCount":20},"geometry":{"type":"MultiPolygon","coordinates":[[[[121.521843,18.309839],[121.513748,18.29155],[121.466942,18.30825],[121.468803,18.313129],[121.470749,18.312519],[121.474861,18.31114],[121.479553,18.309811],[121.481743,18.30932],[121.483398,18.309549],[121.485802,18.31003],[121.487793,18.310369],[121.48864,18.310419],[121.489349,18.310499],[121.490013,18.31076],[121.498489,18.311649],[121.500023,18.31205],[121.501602,18.312599],[121.51313,18.31666],[121.515556,18.314011],[121.521843,18.309839]]]]}},{"type":"Feature","properties":{"ID_0":177,"ISO":"PHL","NAME_0":"Philippines","ID_1":2015,"NAME_1":"Cagayan","ID_2":201507,"NAME_2":"Ballesteros","ID_3":201507006,"NAME_3":"Cabuluan East","NL_NAME_3":null,"VARNAME_3":null,"TYPE_3":"Barangay","ENGTYPE_3":"Village","PROVINCE":"Cagayan","REGION":"Region II (Cagayan Valley)","id":"barangay-0201507006","name":"Cabuluan East","barangayCode":"0201507006","population":null,"formattedPop":null,"densityCategory":"No data","vulnerabilityRating":"No data","healthRiskLevel":"No data","areaKm2":1.67956,"centerLat":18.409187,"centerLng":121.501742,"geometrySource":"all_barangay-2.csv detailed WKT","geometryMatchMethod":"unique_official_admin_names","boundaryPointCount":18},"geometry":{"type":"MultiPolygon","coordinates":[[[[121.505722,18.421921],[121.506012,18.42177],[121.506798,18.421289],[121.507858,18.42054],[121.50843,18.420071],[121.50885,18.4198],[121.509697,18.41939],[121.50985,18.41939],[121.510651,18.419069],[121.494408,18.3908],[121.493973,18.39064],[121.493561,18.39052],[121.492767,18.389959],[121.491997,18.38905],[121.491173,18.38847],[121.49057,18.388571],[121.486717,18.390921],[121.505722,18.421921]]]]}},{"type":"Feature","properties":{"ID_0":177,"ISO":"PHL","NAME_0":"Philippines","ID_1":2015,"NAME_1":"Cagayan","ID_2":201507,"NAME_2":"Ballesteros","ID_3":201507007,"NAME_3":"Cabuluan West","NL_NAME_3":null,"VARNAME_3":null,"TYPE_3":"Barangay","ENGTYPE_3":"Village","PROVINCE":"Cagayan","REGION":"Region II (Cagayan Valley)","id":"barangay-0201507007","name":"Cabuluan West","barangayCode":"0201507007","population":null,"formattedPop":null,"densityCategory":"No data","vulnerabilityRating":"No data","healthRiskLevel":"No data","areaKm2":2.04051,"centerLat":18.412172,"centerLng":121.496249,"geometrySource":"all_barangay-2.csv detailed WKT","geometryMatchMethod":"unique_official_admin_names","boundaryPointCount":40},"geometry":{"type":"MultiPolygon","coordinates":[[[[121.495323,18.428419],[121.495796,18.42815],[121.496719,18.427271],[121.49807,18.42679],[121.500053,18.425501],[121.5019,18.42448],[121.502182,18.424009],[121.502892,18.423599],[121.503883,18.422991],[121.504028,18.42285],[121.505722,18.421921],[121.486717,18.390921],[121.486572,18.39077],[121.486397,18.39081],[121.486053,18.390921],[121.485443,18.390409],[121.485283,18.3902],[121.484833,18.390051],[121.484253,18.389799],[121.483833,18.389231],[121.483643,18.388451],[121.483078,18.387329],[121.48246,18.38636],[121.481613,18.385151],[121.481232,18.384411],[121.481148,18.383801],[121.480949,18.383261],[121.480293,18.383129],[121.4795,18.38324],[121.479073,18.383141],[121.478622,18.38311],[121.478149,18.38295],[121.477821,18.382059],[121.476997,18.38133],[121.475609,18.38097],[121.473808,18.38068],[121.471123,18.3797],[121.483253,18.40974],[121.490593,18.42127],[121.495323,18.428419]]]]}},{"type":"Feature","properties":{"ID_0":177,"ISO":"PHL","NAME_0":"Philippines","ID_1":2015,"NAME_1":"Cagayan","ID_2":201507,"NAME_2":"Ballesteros","ID_3":201507008,"NAME_3":"Centro East","NL_NAME_3":null,"VARNAME_3":null,"TYPE_3":"Barangay","ENGTYPE_3":"Village","PROVINCE":"Cagayan","REGION":"Region II (Cagayan Valley)","id":"barangay-0201507008","name":"Centro East","barangayCode":"0201507008","population":null,"formattedPop":null,"densityCategory":"No data","vulnerabilityRating":"No data","healthRiskLevel":"No data","areaKm2":1.908726,"centerLat":18.404479,"centerLng":121.51221,"geometrySource":"all_barangay-2.csv detailed WKT","geometryMatchMethod":"unique_official_admin_names","boundaryPointCount":26},"geometry":{"type":"MultiPolygon","coordinates":[[[[121.516327,18.41506],[121.516708,18.41482],[121.517258,18.414471],[121.517807,18.414141],[121.518349,18.41382],[121.51886,18.41353],[121.519371,18.41338],[121.519867,18.41328],[121.520363,18.41313],[121.513222,18.380899],[121.513161,18.38051],[121.511978,18.38027],[121.510788,18.380131],[121.510246,18.380079],[121.509979,18.3801],[121.509079,18.3808],[121.507988,18.382271],[121.507156,18.383619],[121.506393,18.3848],[121.505829,18.38541],[121.505463,18.385759],[121.504646,18.3859],[121.503471,18.386181],[121.502861,18.386749],[121.501991,18.38809],[121.516327,18.41506]]]]}},{"type":"Feature","properties":{"ID_0":177,"ISO":"PHL","NAME_0":"Philippines","ID_1":2015,"NAME_1":"Cagayan","ID_2":201507,"NAME_2":"Ballesteros","ID_3":201507009,"NAME_3":"Centro West","NL_NAME_3":null,"VARNAME_3":null,"TYPE_3":"Barangay","ENGTYPE_3":"Village","PROVINCE":"Cagayan","REGION":"Region II (Cagayan Valley)","id":"barangay-0201507009","name":"Centro West","barangayCode":"0201507009","population":null,"formattedPop":null,"densityCategory":"No data","vulnerabilityRating":"No data","healthRiskLevel":"No data","areaKm2":1.45885,"centerLat":18.407156,"centerLng":121.506836,"geometrySource":"all_barangay-2.csv detailed WKT","geometryMatchMethod":"unique_official_admin_names","boundaryPointCount":20},"geometry":{"type":"MultiPolygon","coordinates":[[[[121.510651,18.419069],[121.511414,18.418779],[121.51226,18.417761],[121.513039,18.417419],[121.514236,18.41674],[121.514526,18.41633],[121.515533,18.415449],[121.516144,18.41519],[121.516327,18.41506],[121.501991,18.38809],[121.501228,18.388],[121.500267,18.388029],[121.499321,18.3881],[121.498817,18.38809],[121.497871,18.38798],[121.496773,18.38835],[121.496117,18.389099],[121.495033,18.390181],[121.494408,18.3908],[121.510651,18.419069]]]]}},{"type":"Feature","properties":{"ID_0":177,"ISO":"PHL","NAME_0":"Philippines","ID_1":2015,"NAME_1":"Cagayan","ID_2":201507,"NAME_2":"Ballesteros","ID_3":201507010,"NAME_3":"Fugu","NL_NAME_3":null,"VARNAME_3":null,"TYPE_3":"Barangay","ENGTYPE_3":"Village","PROVINCE":"Cagayan","REGION":"Region II (Cagayan Valley)","id":"barangay-0201507010","name":"Fugu","barangayCode":"0201507010","population":null,"formattedPop":null,"densityCategory":"No data","vulnerabilityRating":"No data","healthRiskLevel":"No data","areaKm2":13.708621,"centerLat":18.332623,"centerLng":121.527824,"geometrySource":"all_barangay-2.csv detailed WKT","geometryMatchMethod":"unique_official_admin_names","boundaryPointCount":27},"geometry":{"type":"MultiPolygon","coordinates":[[[[121.524696,18.357031],[121.527946,18.355761],[121.53022,18.35479],[121.532806,18.35355],[121.538544,18.34972],[121.546181,18.34473],[121.54937,18.341631],[121.547119,18.33013],[121.546852,18.32943],[121.545914,18.32778],[121.545326,18.32725],[121.538147,18.321819],[121.538788,18.30925],[121.531303,18.310221],[121.521843,18.309839],[121.515556,18.314011],[121.51313,18.31666],[121.510712,18.31843],[121.512833,18.324739],[121.509804,18.327681],[121.512337,18.33202],[121.515839,18.333929],[121.520844,18.334761],[121.523048,18.336679],[121.523369,18.33946],[121.52594,18.34499],[121.524696,18.357031]]]]}},{"type":"Feature","properties":{"ID_0":177,"ISO":"PHL","NAME_0":"Philippines","ID_1":2015,"NAME_1":"Cagayan","ID_2":201507,"NAME_2":"Ballesteros","ID_3":201507012,"NAME_3":"Mabuttal East","NL_NAME_3":null,"VARNAME_3":null,"TYPE_3":"Barangay","ENGTYPE_3":"Village","PROVINCE":"Cagayan","REGION":"Region II (Cagayan Valley)","id":"barangay-0201507012","name":"Mabuttal East","barangayCode":"0201507012","population":null,"formattedPop":null,"densityCategory":"No data","vulnerabilityRating":"No data","healthRiskLevel":"No data","areaKm2":4.183348,"centerLat":18.372563,"centerLng":121.516271,"geometrySource":"all_barangay-2.csv detailed WKT","geometryMatchMethod":"unique_official_admin_names","boundaryPointCount":20},"geometry":{"type":"MultiPolygon","coordinates":[[[[121.525238,18.382759],[121.52285,18.37266],[121.52079,18.358549],[121.505173,18.359779],[121.505692,18.360689],[121.505997,18.361509],[121.506393,18.36231],[121.507607,18.363729],[121.509132,18.365471],[121.510002,18.36714],[121.510628,18.37026],[121.511681,18.37553],[121.51239,18.378281],[121.513161,18.38051],[121.514351,18.38044],[121.514832,18.3813],[121.515808,18.382971],[121.516769,18.384171],[121.517189,18.384439],[121.525238,18.382759]]]]}},{"type":"Feature","properties":{"ID_0":177,"ISO":"PHL","NAME_0":"Philippines","ID_1":2015,"NAME_1":"Cagayan","ID_2":201507,"NAME_2":"Ballesteros","ID_3":201507013,"NAME_3":"Mabuttal West","NL_NAME_3":null,"VARNAME_3":null,"TYPE_3":"Barangay","ENGTYPE_3":"Village","PROVINCE":"Cagayan","REGION":"Region II (Cagayan Valley)","id":"barangay-0201507013","name":"Mabuttal West","barangayCode":"0201507013","population":null,"formattedPop":null,"densityCategory":"No data","vulnerabilityRating":"No data","healthRiskLevel":"No data","areaKm2":5.34831,"centerLat":18.375912,"centerLng":121.503947,"geometrySource":"all_barangay-2.csv detailed WKT","geometryMatchMethod":"unique_official_admin_names","boundaryPointCount":45},"geometry":{"type":"MultiPolygon","coordinates":[[[[121.513161,18.38051],[121.51239,18.378281],[121.511681,18.37553],[121.510628,18.37026],[121.510002,18.36714],[121.509132,18.365471],[121.507607,18.363729],[121.506393,18.36231],[121.505997,18.361509],[121.505692,18.360689],[121.505173,18.359779],[121.48999,18.36095],[121.490173,18.36133],[121.490692,18.362181],[121.490883,18.36318],[121.491096,18.363741],[121.491753,18.36413],[121.492203,18.364651],[121.49202,18.36484],[121.491333,18.36496],[121.491524,18.36566],[121.492027,18.365999],[121.492432,18.3661],[121.492912,18.36755],[121.493378,18.3687],[121.49395,18.36878],[121.494972,18.368851],[121.495911,18.36944],[121.497223,18.369381],[121.498398,18.36982],[121.499603,18.37052],[121.501022,18.37044],[121.50222,18.370171],[121.503029,18.370319],[121.50544,18.37252],[121.506363,18.374189],[121.506866,18.37538],[121.50705,18.376129],[121.507881,18.377661],[121.50885,18.378981],[121.509979,18.3801],[121.510246,18.380079],[121.510788,18.380131],[121.511978,18.38027],[121.513161,18.38051]]]]}},{"type":"Feature","properties":{"ID_0":177,"ISO":"PHL","NAME_0":"Philippines","ID_1":2015,"NAME_1":"Cagayan","ID_2":201507,"NAME_2":"Ballesteros","ID_3":201507014,"NAME_3":"Nararagan","NL_NAME_3":null,"VARNAME_3":null,"TYPE_3":"Barangay","ENGTYPE_3":"Village","PROVINCE":"Cagayan","REGION":"Region II (Cagayan Valley)","id":"barangay-0201507014","name":"Nararagan","barangayCode":"0201507014","population":null,"formattedPop":null,"densityCategory":"No data","vulnerabilityRating":"No data","healthRiskLevel":"No data","areaKm2":14.136153,"centerLat":18.314211,"centerLng":121.496393,"geometrySource":"all_barangay-2.csv detailed WKT","geometryMatchMethod":"unique_official_admin_names","boundaryPointCount":32},"geometry":{"type":"MultiPolygon","coordinates":[[[[121.509804,18.327681],[121.512833,18.324739],[121.510712,18.31843],[121.51313,18.31666],[121.501602,18.312599],[121.500023,18.31205],[121.498489,18.311649],[121.490013,18.31076],[121.489349,18.310499],[121.48864,18.310419],[121.487793,18.310369],[121.485802,18.31003],[121.483398,18.309549],[121.481743,18.30932],[121.479553,18.309811],[121.474861,18.31114],[121.470749,18.312519],[121.468803,18.313129],[121.473251,18.33276],[121.472992,18.33918],[121.471397,18.34659],[121.472816,18.346239],[121.474953,18.345881],[121.476959,18.345591],[121.47905,18.344971],[121.482513,18.34495],[121.487137,18.343901],[121.489861,18.34214],[121.492783,18.34074],[121.497139,18.337891],[121.505203,18.33359],[121.509804,18.327681]]]]}},{"type":"Feature","properties":{"ID_0":177,"ISO":"PHL","NAME_0":"Philippines","ID_1":2015,"NAME_1":"Cagayan","ID_2":201507,"NAME_2":"Ballesteros","ID_3":201507015,"NAME_3":"Palloc","NL_NAME_3":null,"VARNAME_3":null,"TYPE_3":"Barangay","ENGTYPE_3":"Village","PROVINCE":"Cagayan","REGION":"Region II (Cagayan Valley)","id":"barangay-0201507015","name":"Palloc","barangayCode":"0201507015","population":null,"formattedPop":null,"densityCategory":"No data","vulnerabilityRating":"No data","healthRiskLevel":"No data","areaKm2":4.440655,"centerLat":18.389119,"centerLng":121.54798,"geometrySource":"all_barangay-2.csv detailed WKT","geometryMatchMethod":"unique_official_admin_names","boundaryPointCount":78},"geometry":{"type":"MultiPolygon","coordinates":[[[[121.542252,18.401251],[121.542351,18.40119],[121.54287,18.40089],[121.543427,18.40062],[121.543991,18.400351],[121.544502,18.40012],[121.54496,18.3999],[121.545372,18.39966],[121.545776,18.39946],[121.546204,18.399281],[121.546654,18.399111],[121.547089,18.39887],[121.547562,18.39859],[121.548103,18.398331],[121.54866,18.398069],[121.549187,18.39782],[121.549667,18.397619],[121.550056,18.397421],[121.550392,18.397209],[121.550713,18.39698],[121.551102,18.396761],[121.551613,18.39662],[121.552116,18.396429],[121.552643,18.396259],[121.553169,18.396111],[121.553688,18.395941],[121.554131,18.39567],[121.554527,18.39534],[121.554916,18.39502],[121.555344,18.394711],[121.555809,18.39448],[121.55629,18.3943],[121.556778,18.39414],[121.557243,18.393961],[121.557716,18.393841],[121.558167,18.393669],[121.558647,18.393511],[121.559097,18.393299],[121.559509,18.39304],[121.559929,18.392851],[121.560402,18.3927],[121.560867,18.39249],[121.561394,18.39225],[121.561951,18.391991],[121.562553,18.391701],[121.562691,18.39163],[121.560532,18.388161],[121.558182,18.381639],[121.556831,18.380541],[121.55645,18.38047],[121.555252,18.380751],[121.554039,18.38118],[121.553467,18.38117],[121.552612,18.38028],[121.551361,18.379681],[121.55056,18.379419],[121.549606,18.379499],[121.547997,18.37966],[121.545509,18.38039],[121.544273,18.38195],[121.543327,18.38312],[121.542397,18.383101],[121.541893,18.38308],[121.540543,18.383471],[121.53894,18.38364],[121.537712,18.38336],[121.536987,18.383511],[121.53566,18.3834],[121.535149,18.38377],[121.53495,18.384109],[121.534813,18.385111],[121.535042,18.38583],[121.535423,18.38665],[121.535843,18.38785],[121.53643,18.388769],[121.536469,18.388889],[121.537903,18.39439],[121.542252,18.401251]]]]}},{"type":"Feature","properties":{"ID_0":177,"ISO":"PHL","NAME_0":"Philippines","ID_1":2015,"NAME_1":"Cagayan","ID_2":201507,"NAME_2":"Ballesteros","ID_3":201507017,"NAME_3":"Payagan East","NL_NAME_3":null,"VARNAME_3":null,"TYPE_3":"Barangay","ENGTYPE_3":"Village","PROVINCE":"Cagayan","REGION":"Region II (Cagayan Valley)","id":"barangay-0201507017","name":"Payagan East","barangayCode":"0201507017","population":null,"formattedPop":null,"densityCategory":"No data","vulnerabilityRating":"No data","healthRiskLevel":"No data","areaKm2":7.368107,"centerLat":18.36246,"centerLng":121.545628,"geometrySource":"all_barangay-2.csv detailed WKT","geometryMatchMethod":"unique_official_admin_names","boundaryPointCount":19},"geometry":{"type":"MultiPolygon","coordinates":[[[[121.556831,18.380541],[121.551178,18.34897],[121.54937,18.341631],[121.546181,18.34473],[121.538544,18.34972],[121.542397,18.383101],[121.543327,18.38312],[121.544273,18.38195],[121.545509,18.38039],[121.547997,18.37966],[121.549606,18.379499],[121.55056,18.379419],[121.551361,18.379681],[121.552612,18.38028],[121.553467,18.38117],[121.554039,18.38118],[121.555252,18.380751],[121.55645,18.38047],[121.556831,18.380541]]]]}},{"type":"Feature","properties":{"ID_0":177,"ISO":"PHL","NAME_0":"Philippines","ID_1":2015,"NAME_1":"Cagayan","ID_2":201507,"NAME_2":"Ballesteros","ID_3":201507018,"NAME_3":"Payagan West","NL_NAME_3":null,"VARNAME_3":null,"TYPE_3":"Barangay","ENGTYPE_3":"Village","PROVINCE":"Cagayan","REGION":"Region II (Cagayan Valley)","id":"barangay-0201507018","name":"Payagan West","barangayCode":"0201507018","population":null,"formattedPop":null,"densityCategory":"No data","vulnerabilityRating":"No data","healthRiskLevel":"No data","areaKm2":4.762103,"centerLat":18.3693,"centerLng":121.530265,"geometrySource":"all_barangay-2.csv detailed WKT","geometryMatchMethod":"unique_official_admin_names","boundaryPointCount":26},"geometry":{"type":"MultiPolygon","coordinates":[[[[121.542397,18.383101],[121.538544,18.34972],[121.532806,18.35355],[121.53022,18.35479],[121.527946,18.355761],[121.524696,18.357031],[121.52079,18.358549],[121.52285,18.37266],[121.525238,18.382759],[121.526718,18.38273],[121.528259,18.381689],[121.529129,18.38205],[121.52993,18.382231],[121.530899,18.381639],[121.531677,18.38084],[121.533127,18.381161],[121.533791,18.38122],[121.534569,18.38158],[121.535469,18.38254],[121.53566,18.3834],[121.536987,18.383511],[121.537712,18.38336],[121.53894,18.38364],[121.540543,18.383471],[121.541893,18.38308],[121.542397,18.383101]]]]}},{"type":"Feature","properties":{"ID_0":177,"ISO":"PHL","NAME_0":"Philippines","ID_1":2015,"NAME_1":"Cagayan","ID_2":201507,"NAME_2":"Ballesteros","ID_3":201507019,"NAME_3":"San Juan","NL_NAME_3":null,"VARNAME_3":null,"TYPE_3":"Barangay","ENGTYPE_3":"Village","PROVINCE":"Cagayan","REGION":"Region II (Cagayan Valley)","id":"barangay-0201507019","name":"San Juan","barangayCode":"0201507019","population":null,"formattedPop":null,"densityCategory":"No data","vulnerabilityRating":"No data","healthRiskLevel":"No data","areaKm2":17.169883,"centerLat":18.286112,"centerLng":121.507331,"geometrySource":"all_barangay-2.csv detailed WKT","geometryMatchMethod":"unique_official_admin_names","boundaryPointCount":6},"geometry":{"type":"MultiPolygon","coordinates":[[[[121.538788,18.30925],[121.537399,18.28244],[121.513748,18.29155],[121.521843,18.309839],[121.531303,18.310221],[121.538788,18.30925]]]]}},{"type":"Feature","properties":{"ID_0":177,"ISO":"PHL","NAME_0":"Philippines","ID_1":2015,"NAME_1":"Cagayan","ID_2":201507,"NAME_2":"Ballesteros","ID_3":201507020,"NAME_3":"Santa Cruz","NL_NAME_3":null,"VARNAME_3":null,"TYPE_3":"Barangay","ENGTYPE_3":"Village","PROVINCE":"Cagayan","REGION":"Region II (Cagayan Valley)","id":"barangay-0201507020","name":"Santa Cruz","barangayCode":"0201507020","population":null,"formattedPop":null,"densityCategory":"No data","vulnerabilityRating":"No data","healthRiskLevel":"No data","areaKm2":4.673725,"centerLat":18.397784,"centerLng":121.522928,"geometrySource":"all_barangay-2.csv detailed WKT","geometryMatchMethod":"unique_official_admin_names","boundaryPointCount":43},"geometry":{"type":"MultiPolygon","coordinates":[[[[121.520363,18.41313],[121.520912,18.41301],[121.521309,18.412741],[121.521713,18.412399],[121.522133,18.41205],[121.522568,18.41172],[121.523018,18.41139],[121.523483,18.41103],[121.523979,18.410709],[121.524467,18.410419],[121.525002,18.41017],[121.52552,18.409849],[121.5261,18.409531],[121.526711,18.409229],[121.527298,18.408951],[121.527847,18.408661],[121.528397,18.40839],[121.528931,18.40815],[121.529411,18.407921],[121.529846,18.40769],[121.530281,18.407471],[121.530693,18.40723],[121.531067,18.40696],[121.53141,18.406691],[121.531738,18.406469],[121.532097,18.40633],[121.532471,18.40616],[121.532898,18.406],[121.53334,18.4058],[121.533783,18.40555],[121.53418,18.405239],[121.534561,18.404961],[121.532387,18.39957],[121.526718,18.38273],[121.525238,18.382759],[121.517189,18.384439],[121.516769,18.384171],[121.515808,18.382971],[121.514832,18.3813],[121.514351,18.38044],[121.513161,18.38051],[121.513222,18.380899],[121.520363,18.41313]]]]}},{"type":"Feature","properties":{"ID_0":177,"ISO":"PHL","NAME_0":"Philippines","ID_1":2015,"NAME_1":"Cagayan","ID_2":201507,"NAME_2":"Ballesteros","ID_3":201507021,"NAME_3":"Zitanga","NL_NAME_3":null,"VARNAME_3":null,"TYPE_3":"Barangay","ENGTYPE_3":"Village","PROVINCE":"Cagayan","REGION":"Region II (Cagayan Valley)","id":"barangay-0201507021","name":"Zitanga","barangayCode":"0201507021","population":null,"formattedPop":null,"densityCategory":"No data","vulnerabilityRating":"No data","healthRiskLevel":"No data","areaKm2":11.916993,"centerLat":18.347492,"centerLng":121.497847,"geometrySource":"all_barangay-2.csv detailed WKT","geometryMatchMethod":"unique_official_admin_names","boundaryPointCount":26},"geometry":{"type":"MultiPolygon","coordinates":[[[[121.490173,18.36133],[121.48999,18.36095],[121.505173,18.359779],[121.52079,18.358549],[121.524696,18.357031],[121.52594,18.34499],[121.523369,18.33946],[121.523048,18.336679],[121.520844,18.334761],[121.515839,18.333929],[121.512337,18.33202],[121.509804,18.327681],[121.505203,18.33359],[121.497139,18.337891],[121.492783,18.34074],[121.489861,18.34214],[121.487137,18.343901],[121.482513,18.34495],[121.47905,18.344971],[121.476959,18.345591],[121.474953,18.345881],[121.472816,18.346239],[121.471397,18.34659],[121.469368,18.35309],[121.466949,18.36286],[121.490173,18.36133]]]]}}]}
