{"type":"FeatureCollection","features":[{"type":"Feature","properties":{"ID_0":177,"ISO":"PHL","NAME_0":"Philippines","ID_1":2031,"NAME_1":"Isabela","ID_2":203102,"NAME_2":"Angadanan","ID_3":203102001,"NAME_3":"Allangigan","NL_NAME_3":null,"VARNAME_3":null,"TYPE_3":"Barangay","ENGTYPE_3":"Village","PROVINCE":"Isabela","REGION":"Region II (Cagayan Valley)","id":"barangay-0203102001","name":"Allangigan","barangayCode":"0203102001","population":null,"formattedPop":null,"densityCategory":"No data","vulnerabilityRating":"No data","healthRiskLevel":"No data","areaKm2":1.740407,"centerLat":16.743378,"centerLng":121.711849,"geometrySource":"all_barangay-2.csv detailed WKT","geometryMatchMethod":"unique_official_admin_names","boundaryPointCount":19},"geometry":{"type":"MultiPolygon","coordinates":[[[[121.717003,16.754089],[121.727463,16.74197],[121.728142,16.741199],[121.728394,16.740561],[121.72094,16.73451],[121.715752,16.737989],[121.713188,16.73975],[121.708733,16.742519],[121.706139,16.743879],[121.704788,16.74509],[121.704727,16.745781],[121.704987,16.746309],[121.705917,16.746861],[121.708099,16.7479],[121.709343,16.74872],[121.711693,16.750549],[121.713997,16.75231],[121.715469,16.752991],[121.717003,16.754089]]]]}},{"type":"Feature","properties":{"ID_0":177,"ISO":"PHL","NAME_0":"Philippines","ID_1":2031,"NAME_1":"Isabela","ID_2":203102,"NAME_2":"Angadanan","ID_3":203102002,"NAME_3":"Aniog","NL_NAME_3":null,"VARNAME_3":null,"TYPE_3":"Barangay","ENGTYPE_3":"Village","PROVINCE":"Isabela","REGION":"Region II (Cagayan Valley)","id":"barangay-0203102002","name":"Aniog","barangayCode":"0203102002","population":null,"formattedPop":null,"densityCategory":"No data","vulnerabilityRating":"No data","healthRiskLevel":"No data","areaKm2":1.515849,"centerLat":16.747774,"centerLng":121.724616,"geometrySource":"all_barangay-2.csv detailed WKT","geometryMatchMethod":"unique_official_admin_names","boundaryPointCount":25},"geometry":{"type":"MultiPolygon","coordinates":[[[[121.73262,16.75629],[121.734901,16.755711],[121.736687,16.75563],[121.739288,16.755159],[121.741562,16.754459],[121.739029,16.75345],[121.737907,16.75251],[121.73613,16.75103],[121.735268,16.749571],[121.735497,16.74815],[121.732231,16.745899],[121.730011,16.74449],[121.728394,16.743299],[121.727463,16.74197],[121.717003,16.754089],[121.717773,16.75466],[121.719254,16.75552],[121.720703,16.756519],[121.722649,16.75754],[121.723969,16.758051],[121.7257,16.75811],[121.72699,16.7582],[121.727493,16.757919],[121.729446,16.7572],[121.73262,16.75629]]]]}},{"type":"Feature","properties":{"ID_0":177,"ISO":"PHL","NAME_0":"Philippines","ID_1":2031,"NAME_1":"Isabela","ID_2":203102,"NAME_2":"Angadanan","ID_3":203102003,"NAME_3":"Baniket","NL_NAME_3":null,"VARNAME_3":null,"TYPE_3":"Barangay","ENGTYPE_3":"Village","PROVINCE":"Isabela","REGION":"Region II (Cagayan Valley)","id":"barangay-0203102003","name":"Baniket","barangayCode":"0203102003","population":null,"formattedPop":null,"densityCategory":"No data","vulnerabilityRating":"No data","healthRiskLevel":"No data","areaKm2":0.948314,"centerLat":16.762666,"centerLng":121.711564,"geometrySource":"all_barangay-2.csv detailed WKT","geometryMatchMethod":"unique_official_admin_names","boundaryPointCount":14},"geometry":{"type":"MultiPolygon","coordinates":[[[[121.737823,16.770781],[121.738831,16.77034],[121.73262,16.75629],[121.729446,16.7572],[121.727493,16.757919],[121.72699,16.7582],[121.727577,16.758921],[121.727814,16.75923],[121.727959,16.759661],[121.726959,16.760651],[121.726097,16.761379],[121.726181,16.76166],[121.731773,16.77298],[121.737823,16.770781]]]]}},{"type":"Feature","properties":{"ID_0":177,"ISO":"PHL","NAME_0":"Philippines","ID_1":2031,"NAME_1":"Isabela","ID_2":203102,"NAME_2":"Angadanan","ID_3":203102004,"NAME_3":"Bannawag","NL_NAME_3":null,"VARNAME_3":null,"TYPE_3":"Barangay","ENGTYPE_3":"Village","PROVINCE":"Isabela","REGION":"Region II (Cagayan Valley)","id":"barangay-0203102004","name":"Bannawag","barangayCode":"0203102004","population":null,"formattedPop":null,"densityCategory":"No data","vulnerabilityRating":"No data","healthRiskLevel":"No data","areaKm2":4.939631,"centerLat":16.809634,"centerLng":121.895834,"geometrySource":"all_barangay-2.csv detailed WKT","geometryMatchMethod":"unique_official_admin_names","boundaryPointCount":6},"geometry":{"type":"MultiPolygon","coordinates":[[[[121.875481,16.830481],[121.87664,16.828991],[121.861183,16.81517],[121.854469,16.815559],[121.852127,16.830931],[121.875481,16.830481]]]]}},{"type":"Feature","properties":{"ID_0":177,"ISO":"PHL","NAME_0":"Philippines","ID_1":2031,"NAME_1":"Isabela","ID_2":203102,"NAME_2":"Angadanan","ID_3":203102005,"NAME_3":"Bantug","NL_NAME_3":null,"VARNAME_3":null,"TYPE_3":"Barangay","ENGTYPE_3":"Village","PROVINCE":"Isabela","REGION":"Region II (Cagayan Valley)","id":"barangay-0203102005","name":"Bantug","barangayCode":"0203102005","population":null,"formattedPop":null,"densityCategory":"No data","vulnerabilityRating":"No data","healthRiskLevel":"No data","areaKm2":2.069414,"centerLat":16.731673,"centerLng":121.7464,"geometrySource":"all_barangay-2.csv detailed WKT","geometryMatchMethod":"unique_official_admin_names","boundaryPointCount":17},"geometry":{"type":"MultiPolygon","coordinates":[[[[121.750519,16.74229],[121.751068,16.74188],[121.752243,16.74077],[121.754646,16.7388],[121.756027,16.73757],[121.75798,16.736429],[121.759323,16.735609],[121.760338,16.735411],[121.760719,16.732479],[121.75705,16.728951],[121.755333,16.72971],[121.754463,16.72994],[121.752922,16.729771],[121.74897,16.732531],[121.74704,16.734831],[121.745163,16.73703],[121.750519,16.74229]]]]}},{"type":"Feature","properties":{"ID_0":177,"ISO":"PHL","NAME_0":"Philippines","ID_1":2031,"NAME_1":"Isabela","ID_2":203102,"NAME_2":"Angadanan","ID_3":203102006,"NAME_3":"Barangcuag","NL_NAME_3":null,"VARNAME_3":null,"TYPE_3":"Barangay","ENGTYPE_3":"Village","PROVINCE":"Isabela","REGION":"Region II (Cagayan Valley)","id":"barangay-0203102006","name":"Barangcuag","barangayCode":"0203102006","population":null,"formattedPop":null,"densityCategory":"No data","vulnerabilityRating":"No data","healthRiskLevel":"No data","areaKm2":2.849174,"centerLat":16.752205,"centerLng":121.709622,"geometrySource":"all_barangay-2.csv detailed WKT","geometryMatchMethod":"unique_official_admin_names","boundaryPointCount":27},"geometry":{"type":"MultiPolygon","coordinates":[[[[121.708801,16.760851],[121.713821,16.75938],[121.717812,16.759489],[121.720642,16.759741],[121.722862,16.760731],[121.726181,16.76166],[121.726097,16.761379],[121.726959,16.760651],[121.727959,16.759661],[121.727814,16.75923],[121.727577,16.758921],[121.72699,16.7582],[121.7257,16.75811],[121.723969,16.758051],[121.722649,16.75754],[121.720703,16.756519],[121.719254,16.75552],[121.717773,16.75466],[121.717003,16.754089],[121.715469,16.752991],[121.713997,16.75231],[121.711693,16.750549],[121.709343,16.74872],[121.708099,16.7479],[121.705917,16.746861],[121.699837,16.74966],[121.708801,16.760851]]]]}},{"type":"Feature","properties":{"ID_0":177,"ISO":"PHL","NAME_0":"Philippines","ID_1":2031,"NAME_1":"Isabela","ID_2":203102,"NAME_2":"Angadanan","ID_3":203102007,"NAME_3":"Baui","NL_NAME_3":null,"VARNAME_3":null,"TYPE_3":"Barangay","ENGTYPE_3":"Village","PROVINCE":"Isabela","REGION":"Region II (Cagayan Valley)","id":"barangay-0203102007","name":"Baui","barangayCode":"0203102007","population":null,"formattedPop":null,"densityCategory":"No data","vulnerabilityRating":"No data","healthRiskLevel":"No data","areaKm2":1.520103,"centerLat":16.741402,"centerLng":121.75951,"geometrySource":"all_barangay-2.csv detailed WKT","geometryMatchMethod":"unique_official_admin_names","boundaryPointCount":14},"geometry":{"type":"MultiPolygon","coordinates":[[[[121.776016,16.758459],[121.776787,16.757389],[121.77713,16.756889],[121.778053,16.75457],[121.778374,16.752239],[121.777863,16.750259],[121.770554,16.74544],[121.752243,16.74077],[121.751068,16.74188],[121.750519,16.74229],[121.750359,16.74258],[121.749977,16.74338],[121.765282,16.748171],[121.776016,16.758459]]]]}},{"type":"Feature","properties":{"ID_0":177,"ISO":"PHL","NAME_0":"Philippines","ID_1":2031,"NAME_1":"Isabela","ID_2":203102,"NAME_2":"Angadanan","ID_3":203102008,"NAME_3":"Bonifacio","NL_NAME_3":null,"VARNAME_3":null,"TYPE_3":"Barangay","ENGTYPE_3":"Village","PROVINCE":"Isabela","REGION":"Region II (Cagayan Valley)","id":"barangay-0203102008","name":"Bonifacio","barangayCode":"0203102008","population":null,"formattedPop":null,"densityCategory":"No data","vulnerabilityRating":"No data","healthRiskLevel":"No data","areaKm2":5.363708,"centerLat":16.786419,"centerLng":121.90096,"geometrySource":"all_barangay-2.csv detailed WKT","geometryMatchMethod":"unique_official_admin_names","boundaryPointCount":6},"geometry":{"type":"MultiPolygon","coordinates":[[[[121.875877,16.818001],[121.864349,16.80942],[121.854469,16.815559],[121.861183,16.81517],[121.87664,16.828991],[121.875877,16.818001]]]]}},{"type":"Feature","properties":{"ID_0":177,"ISO":"PHL","NAME_0":"Philippines","ID_1":2031,"NAME_1":"Isabela","ID_2":203102,"NAME_2":"Angadanan","ID_3":203102009,"NAME_3":"Buenavista","NL_NAME_3":null,"VARNAME_3":null,"TYPE_3":"Barangay","ENGTYPE_3":"Village","PROVINCE":"Isabela","REGION":"Region II (Cagayan Valley)","id":"barangay-0203102009","name":"Buenavista","barangayCode":"0203102009","population":null,"formattedPop":null,"densityCategory":"No data","vulnerabilityRating":"No data","healthRiskLevel":"No data","areaKm2":7.046082,"centerLat":16.77976,"centerLng":121.821179,"geometrySource":"all_barangay-2.csv detailed WKT","geometryMatchMethod":"unique_official_admin_names","boundaryPointCount":14},"geometry":{"type":"MultiPolygon","coordinates":[[[[121.84243,16.7925],[121.846443,16.772869],[121.814919,16.772289],[121.814484,16.77359],[121.814003,16.77599],[121.813591,16.77704],[121.81221,16.778851],[121.810532,16.780861],[121.810242,16.78096],[121.810318,16.78903],[121.8106,16.790859],[121.812729,16.795759],[121.840157,16.795521],[121.84243,16.7925]]]]}},{"type":"Feature","properties":{"ID_0":177,"ISO":"PHL","NAME_0":"Philippines","ID_1":2031,"NAME_1":"Isabela","ID_2":203102,"NAME_2":"Angadanan","ID_3":203102010,"NAME_3":"Bunnay","NL_NAME_3":null,"VARNAME_3":null,"TYPE_3":"Barangay","ENGTYPE_3":"Village","PROVINCE":"Isabela","REGION":"Region II (Cagayan Valley)","id":"barangay-0203102010","name":"Bunnay","barangayCode":"0203102010","population":null,"formattedPop":null,"densityCategory":"No data","vulnerabilityRating":"No data","healthRiskLevel":"No data","areaKm2":6.869988,"centerLat":16.752599,"centerLng":121.777583,"geometrySource":"all_barangay-2.csv detailed WKT","geometryMatchMethod":"unique_official_admin_names","boundaryPointCount":22},"geometry":{"type":"MultiPolygon","coordinates":[[[[121.782257,16.77125],[121.784813,16.76799],[121.796463,16.750811],[121.794029,16.74778],[121.776016,16.758459],[121.775146,16.75893],[121.774788,16.75898],[121.770638,16.75775],[121.76918,16.75738],[121.767349,16.75754],[121.766373,16.757891],[121.765694,16.75816],[121.763496,16.758699],[121.762573,16.75893],[121.760811,16.759029],[121.759956,16.759359],[121.757736,16.760969],[121.756187,16.762659],[121.754997,16.76469],[121.755966,16.768431],[121.780884,16.77302],[121.782257,16.77125]]]]}},{"type":"Feature","properties":{"ID_0":177,"ISO":"PHL","NAME_0":"Philippines","ID_1":2031,"NAME_1":"Isabela","ID_2":203102,"NAME_2":"Angadanan","ID_3":203102011,"NAME_3":"Calabayan-Minanga","NL_NAME_3":null,"VARNAME_3":null,"TYPE_3":"Barangay","ENGTYPE_3":"Village","PROVINCE":"Isabela","REGION":"Region II (Cagayan Valley)","id":"barangay-0203102011","name":"Calabayan-Minanga","barangayCode":"0203102011","population":null,"formattedPop":null,"densityCategory":"No data","vulnerabilityRating":"No data","healthRiskLevel":"No data","areaKm2":4.766959,"centerLat":16.766773,"centerLng":121.731685,"geometrySource":"all_barangay-2.csv detailed WKT","geometryMatchMethod":"unique_official_admin_names","boundaryPointCount":8},"geometry":{"type":"MultiPolygon","coordinates":[[[[121.741859,16.781839],[121.750542,16.778761],[121.749413,16.773041],[121.743347,16.76251],[121.740753,16.769199],[121.738831,16.77034],[121.737823,16.770781],[121.741859,16.781839]]]]}},{"type":"Feature","properties":{"ID_0":177,"ISO":"PHL","NAME_0":"Philippines","ID_1":2031,"NAME_1":"Isabela","ID_2":203102,"NAME_2":"Angadanan","ID_3":203102012,"NAME_3":"Calaccab","NL_NAME_3":null,"VARNAME_3":null,"TYPE_3":"Barangay","ENGTYPE_3":"Village","PROVINCE":"Isabela","REGION":"Region II (Cagayan Valley)","id":"barangay-0203102012","name":"Calaccab","barangayCode":"0203102012","population":null,"formattedPop":null,"densityCategory":"No data","vulnerabilityRating":"No data","healthRiskLevel":"No data","areaKm2":2.945614,"centerLat":16.72554,"centerLng":121.730231,"geometrySource":"all_barangay-2.csv detailed WKT","geometryMatchMethod":"unique_official_admin_names","boundaryPointCount":18},"geometry":{"type":"MultiPolygon","coordinates":[[[[121.738007,16.730631],[121.747047,16.72072],[121.74765,16.71998],[121.747528,16.719419],[121.747078,16.718479],[121.747131,16.717779],[121.747063,16.71685],[121.746231,16.715139],[121.745491,16.715111],[121.744164,16.71479],[121.743698,16.714149],[121.743896,16.71279],[121.742493,16.7089],[121.730721,16.71044],[121.731972,16.716591],[121.729462,16.720961],[121.729507,16.72385],[121.738007,16.730631]]]]}},{"type":"Feature","properties":{"ID_0":177,"ISO":"PHL","NAME_0":"Philippines","ID_1":2031,"NAME_1":"Isabela","ID_2":203102,"NAME_2":"Angadanan","ID_3":203102013,"NAME_3":"Calaocan","NL_NAME_3":null,"VARNAME_3":null,"TYPE_3":"Barangay","ENGTYPE_3":"Village","PROVINCE":"Isabela","REGION":"Region II (Cagayan Valley)","id":"barangay-0203102013","name":"Calaocan","barangayCode":"0203102013","population":null,"formattedPop":null,"densityCategory":"No data","vulnerabilityRating":"No data","healthRiskLevel":"No data","areaKm2":13.451672,"centerLat":16.8086,"centerLng":121.915436,"geometrySource":"all_barangay-2.csv detailed WKT","geometryMatchMethod":"unique_official_admin_names","boundaryPointCount":7},"geometry":{"type":"MultiPolygon","coordinates":[[[[121.850258,16.839581],[121.855583,16.84083],[121.868408,16.842331],[121.871834,16.840611],[121.875481,16.830481],[121.852127,16.830931],[121.850258,16.839581]]]]}},{"type":"Feature","properties":{"ID_0":177,"ISO":"PHL","NAME_0":"Philippines","ID_1":2031,"NAME_1":"Isabela","ID_2":203102,"NAME_2":"Angadanan","ID_3":203102014,"NAME_3":"Kalusutan","NL_NAME_3":null,"VARNAME_3":null,"TYPE_3":"Barangay","ENGTYPE_3":"Village","PROVINCE":"Isabela","REGION":"Region II (Cagayan Valley)","id":"barangay-0203102014","name":"Kalusutan","barangayCode":"0203102014","population":null,"formattedPop":null,"densityCategory":"No data","vulnerabilityRating":"No data","healthRiskLevel":"No data","areaKm2":1.125329,"centerLat":16.745275,"centerLng":121.758086,"geometrySource":"all_barangay-2.csv detailed WKT","geometryMatchMethod":"unique_official_admin_names","boundaryPointCount":13},"geometry":{"type":"MultiPolygon","coordinates":[[[[121.776016,16.758459],[121.765282,16.748171],[121.749977,16.74338],[121.749817,16.74379],[121.749451,16.745001],[121.74929,16.745951],[121.766373,16.757891],[121.767349,16.75754],[121.76918,16.75738],[121.770638,16.75775],[121.774788,16.75898],[121.775146,16.75893],[121.776016,16.758459]]]]}},{"type":"Feature","properties":{"ID_0":177,"ISO":"PHL","NAME_0":"Philippines","ID_1":2031,"NAME_1":"Isabela","ID_2":203102,"NAME_2":"Angadanan","ID_3":203102015,"NAME_3":"Campanario","NL_NAME_3":null,"VARNAME_3":null,"TYPE_3":"Barangay","ENGTYPE_3":"Village","PROVINCE":"Isabela","REGION":"Region II (Cagayan Valley)","id":"barangay-0203102015","name":"Campanario","barangayCode":"0203102015","population":null,"formattedPop":null,"densityCategory":"No data","vulnerabilityRating":"No data","healthRiskLevel":"No data","areaKm2":3.413529,"centerLat":16.718494,"centerLng":121.746876,"geometrySource":"all_barangay-2.csv detailed WKT","geometryMatchMethod":"unique_official_admin_names","boundaryPointCount":17},"geometry":{"type":"MultiPolygon","coordinates":[[[[121.760719,16.732479],[121.760582,16.72543],[121.760178,16.70624],[121.742493,16.7089],[121.743896,16.71279],[121.743698,16.714149],[121.744164,16.71479],[121.745491,16.715111],[121.746231,16.715139],[121.747063,16.71685],[121.747131,16.717779],[121.747078,16.718479],[121.747528,16.719419],[121.74765,16.71998],[121.748032,16.7195],[121.75705,16.728951],[121.760719,16.732479]]]]}},{"type":"Feature","properties":{"ID_0":177,"ISO":"PHL","NAME_0":"Philippines","ID_1":2031,"NAME_1":"Isabela","ID_2":203102,"NAME_2":"Angadanan","ID_3":203102016,"NAME_3":"Canangan","NL_NAME_3":null,"VARNAME_3":null,"TYPE_3":"Barangay","ENGTYPE_3":"Village","PROVINCE":"Isabela","REGION":"Region II (Cagayan Valley)","id":"barangay-0203102016","name":"Canangan","barangayCode":"0203102016","population":null,"formattedPop":null,"densityCategory":"No data","vulnerabilityRating":"No data","healthRiskLevel":"No data","areaKm2":2.031748,"centerLat":16.827644,"centerLng":121.803611,"geometrySource":"all_barangay-2.csv detailed WKT","geometryMatchMethod":"unique_official_admin_names","boundaryPointCount":11},"geometry":{"type":"MultiPolygon","coordinates":[[[[121.788422,16.85132],[121.795097,16.85042],[121.795731,16.840561],[121.802544,16.836281],[121.802353,16.83416],[121.764763,16.84277],[121.765404,16.844101],[121.768204,16.85165],[121.769737,16.85578],[121.774147,16.85103],[121.788422,16.85132]]]]}},{"type":"Feature","properties":{"ID_0":177,"ISO":"PHL","NAME_0":"Philippines","ID_1":2031,"NAME_1":"Isabela","ID_2":203102,"NAME_2":"Angadanan","ID_3":203102017,"NAME_3":"Centro I","NL_NAME_3":null,"VARNAME_3":null,"TYPE_3":"Barangay","ENGTYPE_3":"Village","PROVINCE":"Isabela","REGION":"Region II (Cagayan Valley)","id":"barangay-0203102017","name":"Centro I","barangayCode":"0203102017","population":null,"formattedPop":null,"densityCategory":"No data","vulnerabilityRating":"No data","healthRiskLevel":"No data","areaKm2":0.473412,"centerLat":16.756737,"centerLng":121.751115,"geometrySource":"all_barangay-2.csv detailed WKT","geometryMatchMethod":"unique_official_admin_names","boundaryPointCount":17},"geometry":{"type":"MultiPolygon","coordinates":[[[[121.756317,16.76923],[121.755966,16.768431],[121.754997,16.76469],[121.756187,16.762659],[121.757736,16.760969],[121.759956,16.759359],[121.754494,16.754049],[121.749489,16.766529],[121.750732,16.769979],[121.750977,16.770451],[121.751427,16.773029],[121.751839,16.772169],[121.752449,16.771339],[121.753822,16.770161],[121.754822,16.769991],[121.756233,16.7696],[121.756317,16.76923]]]]}},{"type":"Feature","properties":{"ID_0":177,"ISO":"PHL","NAME_0":"Philippines","ID_1":2031,"NAME_1":"Isabela","ID_2":203102,"NAME_2":"Angadanan","ID_3":203102018,"NAME_3":"Centro II","NL_NAME_3":null,"VARNAME_3":null,"TYPE_3":"Barangay","ENGTYPE_3":"Village","PROVINCE":"Isabela","REGION":"Region II (Cagayan Valley)","id":"barangay-0203102018","name":"Centro II","barangayCode":"0203102018","population":null,"formattedPop":null,"densityCategory":"No data","vulnerabilityRating":"No data","healthRiskLevel":"No data","areaKm2":1.462193,"centerLat":16.756545,"centerLng":121.746845,"geometrySource":"all_barangay-2.csv detailed WKT","geometryMatchMethod":"unique_official_admin_names","boundaryPointCount":12},"geometry":{"type":"MultiPolygon","coordinates":[[[[121.749489,16.766529],[121.754494,16.754049],[121.748398,16.750111],[121.747437,16.751169],[121.745483,16.752331],[121.748299,16.756901],[121.747437,16.759621],[121.746964,16.76157],[121.747482,16.762621],[121.748207,16.76363],[121.748642,16.76474],[121.749489,16.766529]]]]}},{"type":"Feature","properties":{"ID_0":177,"ISO":"PHL","NAME_0":"Philippines","ID_1":2031,"NAME_1":"Isabela","ID_2":203102,"NAME_2":"Angadanan","ID_3":203102019,"NAME_3":"Centro III","NL_NAME_3":null,"VARNAME_3":null,"TYPE_3":"Barangay","ENGTYPE_3":"Village","PROVINCE":"Isabela","REGION":"Region II (Cagayan Valley)","id":"barangay-0203102019","name":"Centro III","barangayCode":"0203102019","population":null,"formattedPop":null,"densityCategory":"No data","vulnerabilityRating":"No data","healthRiskLevel":"No data","areaKm2":1.530564,"centerLat":16.759087,"centerLng":121.741047,"geometrySource":"all_barangay-2.csv detailed WKT","geometryMatchMethod":"unique_official_admin_names","boundaryPointCount":19},"geometry":{"type":"MultiPolygon","coordinates":[[[[121.751427,16.773029],[121.750977,16.770451],[121.750732,16.769979],[121.749489,16.766529],[121.748642,16.76474],[121.748207,16.76363],[121.747482,16.762621],[121.746964,16.76157],[121.747437,16.759621],[121.748299,16.756901],[121.745483,16.752331],[121.742889,16.753731],[121.741997,16.75411],[121.741562,16.754459],[121.739288,16.755159],[121.743347,16.76251],[121.749413,16.773041],[121.750366,16.773581],[121.751427,16.773029]]]]}},{"type":"Feature","properties":{"ID_0":177,"ISO":"PHL","NAME_0":"Philippines","ID_1":2031,"NAME_1":"Isabela","ID_2":203102,"NAME_2":"Angadanan","ID_3":203102020,"NAME_3":"Consular","NL_NAME_3":null,"VARNAME_3":null,"TYPE_3":"Barangay","ENGTYPE_3":"Village","PROVINCE":"Isabela","REGION":"Region II (Cagayan Valley)","id":"barangay-0203102020","name":"Consular","barangayCode":"0203102020","population":null,"formattedPop":null,"densityCategory":"No data","vulnerabilityRating":"No data","healthRiskLevel":"No data","areaKm2":1.560067,"centerLat":16.785133,"centerLng":121.759508,"geometrySource":"all_barangay-2.csv detailed WKT","geometryMatchMethod":"unique_official_admin_names","boundaryPointCount":8},"geometry":{"type":"MultiPolygon","coordinates":[[[[121.771553,16.80118],[121.780853,16.79701],[121.778763,16.79328],[121.774353,16.795031],[121.751549,16.787149],[121.75174,16.788271],[121.755524,16.79719],[121.771553,16.80118]]]]}},{"type":"Feature","properties":{"ID_0":177,"ISO":"PHL","NAME_0":"Philippines","ID_1":2031,"NAME_1":"Isabela","ID_2":203102,"NAME_2":"Angadanan","ID_3":203102021,"NAME_3":"Cumu","NL_NAME_3":null,"VARNAME_3":null,"TYPE_3":"Barangay","ENGTYPE_3":"Village","PROVINCE":"Isabela","REGION":"Region II (Cagayan Valley)","id":"barangay-0203102021","name":"Cumu","barangayCode":"0203102021","population":null,"formattedPop":null,"densityCategory":"No data","vulnerabilityRating":"No data","healthRiskLevel":"No data","areaKm2":3.076271,"centerLat":16.775222,"centerLng":121.753136,"geometrySource":"all_barangay-2.csv detailed WKT","geometryMatchMethod":"unique_official_admin_names","boundaryPointCount":34},"geometry":{"type":"MultiPolygon","coordinates":[[[[121.770149,16.787689],[121.768066,16.78587],[121.767227,16.78499],[121.766281,16.783779],[121.765198,16.781401],[121.76458,16.77949],[121.763397,16.776739],[121.762489,16.77574],[121.761528,16.773769],[121.760643,16.77319],[121.759827,16.77236],[121.757607,16.770411],[121.756317,16.76923],[121.756233,16.7696],[121.754822,16.769991],[121.753822,16.770161],[121.752449,16.771339],[121.751839,16.772169],[121.751427,16.773029],[121.750366,16.773581],[121.749413,16.773041],[121.750542,16.778761],[121.751549,16.787149],[121.774353,16.795031],[121.778763,16.79328],[121.778053,16.792641],[121.777611,16.79213],[121.776237,16.790739],[121.775909,16.790421],[121.774643,16.78866],[121.774033,16.788349],[121.77253,16.78804],[121.771088,16.788111],[121.770149,16.787689]]]]}},{"type":"Feature","properties":{"ID_0":177,"ISO":"PHL","NAME_0":"Philippines","ID_1":2031,"NAME_1":"Isabela","ID_2":203102,"NAME_2":"Angadanan","ID_3":203102022,"NAME_3":"Dalakip","NL_NAME_3":null,"VARNAME_3":null,"TYPE_3":"Barangay","ENGTYPE_3":"Village","PROVINCE":"Isabela","REGION":"Region II (Cagayan Valley)","id":"barangay-0203102022","name":"Dalakip","barangayCode":"0203102022","population":null,"formattedPop":null,"densityCategory":"No data","vulnerabilityRating":"No data","healthRiskLevel":"No data","areaKm2":2.792465,"centerLat":16.782704,"centerLng":121.736985,"geometrySource":"all_barangay-2.csv detailed WKT","geometryMatchMethod":"unique_official_admin_names","boundaryPointCount":7},"geometry":{"type":"MultiPolygon","coordinates":[[[[121.75174,16.788271],[121.751549,16.787149],[121.750542,16.778761],[121.741859,16.781839],[121.736656,16.78385],[121.740311,16.791389],[121.75174,16.788271]]]]}},{"type":"Feature","properties":{"ID_0":177,"ISO":"PHL","NAME_0":"Philippines","ID_1":2031,"NAME_1":"Isabela","ID_2":203102,"NAME_2":"Angadanan","ID_3":203102023,"NAME_3":"Dalenat","NL_NAME_3":null,"VARNAME_3":null,"TYPE_3":"Barangay","ENGTYPE_3":"Village","PROVINCE":"Isabela","REGION":"Region II (Cagayan Valley)","id":"barangay-0203102023","name":"Dalenat","barangayCode":"0203102023","population":null,"formattedPop":null,"densityCategory":"No data","vulnerabilityRating":"No data","healthRiskLevel":"No data","areaKm2":1.492514,"centerLat":16.735926,"centerLng":121.719556,"geometrySource":"all_barangay-2.csv detailed WKT","geometryMatchMethod":"unique_official_admin_names","boundaryPointCount":9},"geometry":{"type":"MultiPolygon","coordinates":[[[[121.728394,16.740561],[121.736328,16.732599],[121.738007,16.730631],[121.729507,16.72385],[121.727478,16.726311],[121.723984,16.73064],[121.72245,16.732121],[121.72094,16.73451],[121.728394,16.740561]]]]}},{"type":"Feature","properties":{"ID_0":177,"ISO":"PHL","NAME_0":"Philippines","ID_1":2031,"NAME_1":"Isabela","ID_2":203102,"NAME_2":"Angadanan","ID_3":203102024,"NAME_3":"Dipaluda","NL_NAME_3":null,"VARNAME_3":null,"TYPE_3":"Barangay","ENGTYPE_3":"Village","PROVINCE":"Isabela","REGION":"Region II (Cagayan Valley)","id":"barangay-0203102024","name":"Dipaluda","barangayCode":"0203102024","population":null,"formattedPop":null,"densityCategory":"No data","vulnerabilityRating":"No data","healthRiskLevel":"No data","areaKm2":2.741714,"centerLat":16.810247,"centerLng":121.809407,"geometrySource":"all_barangay-2.csv detailed WKT","geometryMatchMethod":"unique_official_admin_names","boundaryPointCount":8},"geometry":{"type":"MultiPolygon","coordinates":[[[[121.840607,16.8381],[121.842949,16.838779],[121.823883,16.820141],[121.818314,16.8251],[121.828491,16.835699],[121.830856,16.835449],[121.834007,16.83609],[121.840607,16.8381]]]]}},{"type":"Feature","properties":{"ID_0":177,"ISO":"PHL","NAME_0":"Philippines","ID_1":2031,"NAME_1":"Isabela","ID_2":203102,"NAME_2":"Angadanan","ID_3":203102025,"NAME_3":"Duroc","NL_NAME_3":null,"VARNAME_3":null,"TYPE_3":"Barangay","ENGTYPE_3":"Village","PROVINCE":"Isabela","REGION":"Region II (Cagayan Valley)","id":"barangay-0203102025","name":"Duroc","barangayCode":"0203102025","population":null,"formattedPop":null,"densityCategory":"No data","vulnerabilityRating":"No data","healthRiskLevel":"No data","areaKm2":4.836947,"centerLat":16.796156,"centerLng":121.802853,"geometrySource":"all_barangay-2.csv detailed WKT","geometryMatchMethod":"unique_official_admin_names","boundaryPointCount":21},"geometry":{"type":"MultiPolygon","coordinates":[[[[121.811447,16.82976],[121.81498,16.827209],[121.818314,16.8251],[121.823883,16.820141],[121.81649,16.80341],[121.814903,16.806009],[121.814987,16.80743],[121.815063,16.80887],[121.814079,16.81036],[121.813309,16.81229],[121.813637,16.81312],[121.811317,16.81451],[121.810059,16.814699],[121.808517,16.815599],[121.80793,16.81641],[121.806213,16.819889],[121.806023,16.821369],[121.805237,16.822651],[121.805679,16.82354],[121.806923,16.82527],[121.811447,16.82976]]]]}},{"type":"Feature","properties":{"ID_0":177,"ISO":"PHL","NAME_0":"Philippines","ID_1":2031,"NAME_1":"Isabela","ID_2":203102,"NAME_2":"Angadanan","ID_3":203102026,"NAME_3":"Lourdes","NL_NAME_3":null,"VARNAME_3":"Lourdes (El Escano)","TYPE_3":"Barangay","ENGTYPE_3":"Village","PROVINCE":"Isabela","REGION":"Region II (Cagayan Valley)","id":"barangay-0203102026","name":"Lourdes","barangayCode":"0203102026","population":null,"formattedPop":null,"densityCategory":"No data","vulnerabilityRating":"No data","healthRiskLevel":"No data","areaKm2":6.381983,"centerLat":16.775083,"centerLng":121.793954,"geometrySource":"all_barangay-2.csv detailed WKT","geometryMatchMethod":"unique_official_admin_names","boundaryPointCount":13},"geometry":{"type":"MultiPolygon","coordinates":[[[[121.810318,16.78903],[121.810242,16.78096],[121.810532,16.780861],[121.81221,16.778851],[121.813591,16.77704],[121.814003,16.77599],[121.814484,16.77359],[121.814919,16.772289],[121.782257,16.77125],[121.780884,16.77302],[121.777718,16.777901],[121.771698,16.78484],[121.810318,16.78903]]]]}},{"type":"Feature","properties":{"ID_0":177,"ISO":"PHL","NAME_0":"Philippines","ID_1":2031,"NAME_1":"Isabela","ID_2":203102,"NAME_2":"Angadanan","ID_3":203102027,"NAME_3":"Esperanza","NL_NAME_3":null,"VARNAME_3":null,"TYPE_3":"Barangay","ENGTYPE_3":"Village","PROVINCE":"Isabela","REGION":"Region II (Cagayan Valley)","id":"barangay-0203102027","name":"Esperanza","barangayCode":"0203102027","population":null,"formattedPop":null,"densityCategory":"No data","vulnerabilityRating":"No data","healthRiskLevel":"No data","areaKm2":0.925981,"centerLat":16.788216,"centerLng":121.770751,"geometrySource":"all_barangay-2.csv detailed WKT","geometryMatchMethod":"unique_official_admin_names","boundaryPointCount":14},"geometry":{"type":"MultiPolygon","coordinates":[[[[121.777603,16.81027],[121.779243,16.808149],[121.779846,16.80583],[121.780487,16.804449],[121.781013,16.803101],[121.78183,16.800449],[121.781822,16.79838],[121.780853,16.79701],[121.771553,16.80118],[121.772041,16.80488],[121.77446,16.81201],[121.775337,16.81171],[121.776543,16.811279],[121.777603,16.81027]]]]}},{"type":"Feature","properties":{"ID_0":177,"ISO":"PHL","NAME_0":"Philippines","ID_1":2031,"NAME_1":"Isabela","ID_2":203102,"NAME_2":"Angadanan","ID_3":203102028,"NAME_3":"Fugaru","NL_NAME_3":null,"VARNAME_3":null,"TYPE_3":"Barangay","ENGTYPE_3":"Village","PROVINCE":"Isabela","REGION":"Region II (Cagayan Valley)","id":"barangay-0203102028","name":"Fugaru","barangayCode":"0203102028","population":null,"formattedPop":null,"densityCategory":"No data","vulnerabilityRating":"No data","healthRiskLevel":"No data","areaKm2":1.830506,"centerLat":16.792956,"centerLng":121.765851,"geometrySource":"all_barangay-2.csv detailed WKT","geometryMatchMethod":"unique_official_admin_names","boundaryPointCount":5},"geometry":{"type":"MultiPolygon","coordinates":[[[[121.772041,16.80488],[121.771553,16.80118],[121.755524,16.79719],[121.760201,16.80924],[121.772041,16.80488]]]]}},{"type":"Feature","properties":{"ID_0":177,"ISO":"PHL","NAME_0":"Philippines","ID_1":2031,"NAME_1":"Isabela","ID_2":203102,"NAME_2":"Angadanan","ID_3":203102029,"NAME_3":"Liwliwa","NL_NAME_3":null,"VARNAME_3":null,"TYPE_3":"Barangay","ENGTYPE_3":"Village","PROVINCE":"Isabela","REGION":"Region II (Cagayan Valley)","id":"barangay-0203102029","name":"Liwliwa","barangayCode":"0203102029","population":null,"formattedPop":null,"densityCategory":"No data","vulnerabilityRating":"No data","healthRiskLevel":"No data","areaKm2":3.759762,"centerLat":16.780841,"centerLng":121.886353,"geometrySource":"all_barangay-2.csv detailed WKT","geometryMatchMethod":"unique_official_admin_names","boundaryPointCount":12},"geometry":{"type":"MultiPolygon","coordinates":[[[[121.875877,16.818001],[121.879936,16.804541],[121.869682,16.80377],[121.852303,16.796829],[121.85215,16.797079],[121.850357,16.797661],[121.850853,16.798611],[121.852211,16.799379],[121.852287,16.799271],[121.852402,16.80105],[121.864349,16.80942],[121.875877,16.818001]]]]}},{"type":"Feature","properties":{"ID_0":177,"ISO":"PHL","NAME_0":"Philippines","ID_1":2031,"NAME_1":"Isabela","ID_2":203102,"NAME_2":"Angadanan","ID_3":203102030,"NAME_3":"Ingud Norte","NL_NAME_3":null,"VARNAME_3":null,"TYPE_3":"Barangay","ENGTYPE_3":"Village","PROVINCE":"Isabela","REGION":"Region II (Cagayan Valley)","id":"barangay-0203102030","name":"Ingud Norte","barangayCode":"0203102030","population":null,"formattedPop":null,"densityCategory":"No data","vulnerabilityRating":"No data","healthRiskLevel":"No data","areaKm2":2.873476,"centerLat":16.812814,"centerLng":121.758877,"geometrySource":"all_barangay-2.csv detailed WKT","geometryMatchMethod":"unique_official_admin_names","boundaryPointCount":18},"geometry":{"type":"MultiPolygon","coordinates":[[[[121.763947,16.84004],[121.799492,16.82737],[121.797333,16.826309],[121.794228,16.82568],[121.791313,16.825371],[121.788849,16.82552],[121.78537,16.825899],[121.780884,16.82576],[121.778847,16.82568],[121.775467,16.82548],[121.772453,16.824841],[121.772392,16.82604],[121.772003,16.8272],[121.771339,16.827959],[121.760483,16.83341],[121.761597,16.8356],[121.763351,16.839041],[121.763947,16.84004]]]]}},{"type":"Feature","properties":{"ID_0":177,"ISO":"PHL","NAME_0":"Philippines","ID_1":2031,"NAME_1":"Isabela","ID_2":203102,"NAME_2":"Angadanan","ID_3":203102031,"NAME_3":"Ingud Sur","NL_NAME_3":null,"VARNAME_3":null,"TYPE_3":"Barangay","ENGTYPE_3":"Village","PROVINCE":"Isabela","REGION":"Region II (Cagayan Valley)","id":"barangay-0203102031","name":"Ingud Sur","barangayCode":"0203102031","population":null,"formattedPop":null,"densityCategory":"No data","vulnerabilityRating":"No data","healthRiskLevel":"No data","areaKm2":3.49406,"centerLat":16.802878,"centerLng":121.753669,"geometrySource":"all_barangay-2.csv detailed WKT","geometryMatchMethod":"unique_official_admin_names","boundaryPointCount":16},"geometry":{"type":"MultiPolygon","coordinates":[[[[121.760483,16.83341],[121.771339,16.827959],[121.772003,16.8272],[121.772392,16.82604],[121.772453,16.824841],[121.771667,16.819759],[121.770248,16.818781],[121.768677,16.81687],[121.764214,16.81938],[121.760201,16.80924],[121.750153,16.812281],[121.752167,16.816311],[121.754646,16.82049],[121.757889,16.827551],[121.759743,16.83161],[121.760483,16.83341]]]]}},{"type":"Feature","properties":{"ID_0":177,"ISO":"PHL","NAME_0":"Philippines","ID_1":2031,"NAME_1":"Isabela","ID_2":203102,"NAME_2":"Angadanan","ID_3":203102032,"NAME_3":"La Suerte","NL_NAME_3":null,"VARNAME_3":null,"TYPE_3":"Barangay","ENGTYPE_3":"Village","PROVINCE":"Isabela","REGION":"Region II (Cagayan Valley)","id":"barangay-0203102032","name":"La Suerte","barangayCode":"0203102032","population":null,"formattedPop":null,"densityCategory":"No data","vulnerabilityRating":"No data","healthRiskLevel":"No data","areaKm2":10.593118,"centerLat":16.757795,"centerLng":121.813317,"geometrySource":"all_barangay-2.csv detailed WKT","geometryMatchMethod":"unique_official_admin_names","boundaryPointCount":14},"geometry":{"type":"MultiPolygon","coordinates":[[[[121.846443,16.772869],[121.855873,16.77475],[121.860527,16.777599],[121.87323,16.764601],[121.869614,16.76166],[121.848198,16.754709],[121.844299,16.754391],[121.822128,16.75259],[121.799301,16.75065],[121.796463,16.750811],[121.784813,16.76799],[121.782257,16.77125],[121.814919,16.772289],[121.846443,16.772869]]]]}},{"type":"Feature","properties":{"ID_0":177,"ISO":"PHL","NAME_0":"Philippines","ID_1":2031,"NAME_1":"Isabela","ID_2":203102,"NAME_2":"Angadanan","ID_3":203102033,"NAME_3":"Lomboy","NL_NAME_3":null,"VARNAME_3":null,"TYPE_3":"Barangay","ENGTYPE_3":"Village","PROVINCE":"Isabela","REGION":"Region II (Cagayan Valley)","id":"barangay-0203102033","name":"Lomboy","barangayCode":"0203102033","population":null,"formattedPop":null,"densityCategory":"No data","vulnerabilityRating":"No data","healthRiskLevel":"No data","areaKm2":0.679594,"centerLat":16.773465,"centerLng":121.719521,"geometrySource":"all_barangay-2.csv detailed WKT","geometryMatchMethod":"unique_official_admin_names","boundaryPointCount":7},"geometry":{"type":"MultiPolygon","coordinates":[[[[121.736656,16.78385],[121.741859,16.781839],[121.737823,16.770781],[121.731773,16.77298],[121.733368,16.776079],[121.73584,16.78195],[121.736656,16.78385]]]]}},{"type":"Feature","properties":{"ID_0":177,"ISO":"PHL","NAME_0":"Philippines","ID_1":2031,"NAME_1":"Isabela","ID_2":203102,"NAME_2":"Angadanan","ID_3":203102034,"NAME_3":"Loria","NL_NAME_3":null,"VARNAME_3":null,"TYPE_3":"Barangay","ENGTYPE_3":"Village","PROVINCE":"Isabela","REGION":"Region II (Cagayan Valley)","id":"barangay-0203102034","name":"Loria","barangayCode":"0203102034","population":null,"formattedPop":null,"densityCategory":"No data","vulnerabilityRating":"No data","healthRiskLevel":"No data","areaKm2":1.757899,"centerLat":16.737069,"centerLng":121.736919,"geometrySource":"all_barangay-2.csv detailed WKT","geometryMatchMethod":"unique_official_admin_names","boundaryPointCount":12},"geometry":{"type":"MultiPolygon","coordinates":[[[[121.745163,16.73703],[121.74704,16.734831],[121.74897,16.732531],[121.752922,16.729771],[121.754463,16.72994],[121.755333,16.72971],[121.75705,16.728951],[121.748032,16.7195],[121.74765,16.71998],[121.747047,16.72072],[121.738007,16.730631],[121.745163,16.73703]]]]}},{"type":"Feature","properties":{"ID_0":177,"ISO":"PHL","NAME_0":"Philippines","ID_1":2031,"NAME_1":"Isabela","ID_2":203102,"NAME_2":"Angadanan","ID_3":203102035,"NAME_3":"Mabuhay","NL_NAME_3":null,"VARNAME_3":null,"TYPE_3":"Barangay","ENGTYPE_3":"Village","PROVINCE":"Isabela","REGION":"Region II (Cagayan Valley)","id":"barangay-0203102035","name":"Mabuhay","barangayCode":"0203102035","population":null,"formattedPop":null,"densityCategory":"No data","vulnerabilityRating":"No data","healthRiskLevel":"No data","areaKm2":1.484602,"centerLat":16.761908,"centerLng":121.758603,"geometrySource":"all_barangay-2.csv detailed WKT","geometryMatchMethod":"unique_official_admin_names","boundaryPointCount":10},"geometry":{"type":"MultiPolygon","coordinates":[[[[121.762489,16.77574],[121.777718,16.777901],[121.780884,16.77302],[121.755966,16.768431],[121.756317,16.76923],[121.757607,16.770411],[121.759827,16.77236],[121.760643,16.77319],[121.761528,16.773769],[121.762489,16.77574]]]]}},{"type":"Feature","properties":{"ID_0":177,"ISO":"PHL","NAME_0":"Philippines","ID_1":2031,"NAME_1":"Isabela","ID_2":203102,"NAME_2":"Angadanan","ID_3":203102036,"NAME_3":"Macalauat","NL_NAME_3":null,"VARNAME_3":null,"TYPE_3":"Barangay","ENGTYPE_3":"Village","PROVINCE":"Isabela","REGION":"Region II (Cagayan Valley)","id":"barangay-0203102036","name":"Macalauat","barangayCode":"0203102036","population":null,"formattedPop":null,"densityCategory":"No data","vulnerabilityRating":"No data","healthRiskLevel":"No data","areaKm2":3.789833,"centerLat":16.72894,"centerLng":121.771661,"geometrySource":"all_barangay-2.csv detailed WKT","geometryMatchMethod":"unique_official_admin_names","boundaryPointCount":23},"geometry":{"type":"MultiPolygon","coordinates":[[[[121.776016,16.758459],[121.794029,16.74778],[121.79213,16.745159],[121.780647,16.739799],[121.760582,16.72543],[121.760719,16.732479],[121.760338,16.735411],[121.761917,16.735531],[121.764107,16.73657],[121.767883,16.738779],[121.769547,16.73995],[121.771149,16.741381],[121.77388,16.742701],[121.775208,16.74369],[121.776787,16.7463],[121.777061,16.74836],[121.776947,16.74905],[121.777863,16.750259],[121.778374,16.752239],[121.778053,16.75457],[121.77713,16.756889],[121.776787,16.757389],[121.776016,16.758459]]]]}},{"type":"Feature","properties":{"ID_0":177,"ISO":"PHL","NAME_0":"Philippines","ID_1":2031,"NAME_1":"Isabela","ID_2":203102,"NAME_2":"Angadanan","ID_3":203102037,"NAME_3":"Macaniao","NL_NAME_3":null,"VARNAME_3":null,"TYPE_3":"Barangay","ENGTYPE_3":"Village","PROVINCE":"Isabela","REGION":"Region II (Cagayan Valley)","id":"barangay-0203102037","name":"Macaniao","barangayCode":"0203102037","population":null,"formattedPop":null,"densityCategory":"No data","vulnerabilityRating":"No data","healthRiskLevel":"No data","areaKm2":3.465862,"centerLat":16.806547,"centerLng":121.882359,"geometrySource":"all_barangay-2.csv detailed WKT","geometryMatchMethod":"unique_official_admin_names","boundaryPointCount":7},"geometry":{"type":"MultiPolygon","coordinates":[[[[121.846039,16.83881],[121.850258,16.839581],[121.852127,16.830931],[121.854469,16.815559],[121.841133,16.81609],[121.839432,16.81686],[121.846039,16.83881]]]]}},{"type":"Feature","properties":{"ID_0":177,"ISO":"PHL","NAME_0":"Philippines","ID_1":2031,"NAME_1":"Isabela","ID_2":203102,"NAME_2":"Angadanan","ID_3":203102038,"NAME_3":"Malannao","NL_NAME_3":null,"VARNAME_3":null,"TYPE_3":"Barangay","ENGTYPE_3":"Village","PROVINCE":"Isabela","REGION":"Region II (Cagayan Valley)","id":"barangay-0203102038","name":"Malannao","barangayCode":"0203102038","population":null,"formattedPop":null,"densityCategory":"No data","vulnerabilityRating":"No data","healthRiskLevel":"No data","areaKm2":2.424206,"centerLat":16.808755,"centerLng":121.77846,"geometrySource":"all_barangay-2.csv detailed WKT","geometryMatchMethod":"unique_official_admin_names","boundaryPointCount":41},"geometry":{"type":"MultiPolygon","coordinates":[[[[121.768677,16.81687],[121.770248,16.818781],[121.771667,16.819759],[121.774521,16.82111],[121.776321,16.821581],[121.779007,16.82169],[121.782066,16.820641],[121.785141,16.81934],[121.787247,16.818701],[121.791611,16.81661],[121.795151,16.81505],[121.797234,16.814341],[121.79985,16.814409],[121.801109,16.81526],[121.802406,16.81756],[121.803093,16.81901],[121.804123,16.821369],[121.805237,16.822651],[121.806023,16.821369],[121.806213,16.819889],[121.80793,16.81641],[121.808517,16.815599],[121.810059,16.814699],[121.811317,16.81451],[121.813637,16.81312],[121.813309,16.81229],[121.814079,16.81036],[121.815063,16.80887],[121.814987,16.80743],[121.814903,16.806009],[121.81649,16.80341],[121.777603,16.81027],[121.776543,16.811279],[121.775337,16.81171],[121.77446,16.81201],[121.77404,16.81282],[121.773178,16.81329],[121.771637,16.813959],[121.769279,16.815849],[121.768883,16.81669],[121.768677,16.81687]]]]}},{"type":"Feature","properties":{"ID_0":177,"ISO":"PHL","NAME_0":"Philippines","ID_1":2031,"NAME_1":"Isabela","ID_2":203102,"NAME_2":"Angadanan","ID_3":203102039,"NAME_3":"Malasin","NL_NAME_3":null,"VARNAME_3":null,"TYPE_3":"Barangay","ENGTYPE_3":"Village","PROVINCE":"Isabela","REGION":"Region II (Cagayan Valley)","id":"barangay-0203102039","name":"Malasin","barangayCode":"0203102039","population":null,"formattedPop":null,"densityCategory":"No data","vulnerabilityRating":"No data","healthRiskLevel":"No data","areaKm2":3.122293,"centerLat":16.795637,"centerLng":121.786337,"geometrySource":"all_barangay-2.csv detailed WKT","geometryMatchMethod":"unique_official_admin_names","boundaryPointCount":11},"geometry":{"type":"MultiPolygon","coordinates":[[[[121.81649,16.80341],[121.812729,16.795759],[121.780853,16.79701],[121.781822,16.79838],[121.78183,16.800449],[121.781013,16.803101],[121.780487,16.804449],[121.779846,16.80583],[121.779243,16.808149],[121.777603,16.81027],[121.81649,16.80341]]]]}},{"type":"Feature","properties":{"ID_0":177,"ISO":"PHL","NAME_0":"Philippines","ID_1":2031,"NAME_1":"Isabela","ID_2":203102,"NAME_2":"Angadanan","ID_3":203102040,"NAME_3":"Mangandingay","NL_NAME_3":null,"VARNAME_3":null,"TYPE_3":"Barangay","ENGTYPE_3":"Village","PROVINCE":"Isabela","REGION":"Region II (Cagayan Valley)","id":"barangay-0203102040","name":"Mangandingay","barangayCode":"0203102040","population":null,"formattedPop":null,"densityCategory":"No data","vulnerabilityRating":"No data","healthRiskLevel":"No data","areaKm2":2.768196,"centerLat":16.791585,"centerLng":121.857304,"geometrySource":"all_barangay-2.csv detailed WKT","geometryMatchMethod":"unique_official_admin_names","boundaryPointCount":19},"geometry":{"type":"MultiPolygon","coordinates":[[[[121.854469,16.815559],[121.864349,16.80942],[121.852402,16.80105],[121.852074,16.80142],[121.85141,16.8022],[121.849533,16.802971],[121.848503,16.803221],[121.849258,16.804001],[121.850357,16.805269],[121.849213,16.805559],[121.847107,16.805149],[121.845421,16.804239],[121.844597,16.80348],[121.8433,16.80304],[121.842163,16.803749],[121.840599,16.80518],[121.840561,16.80608],[121.841133,16.81609],[121.854469,16.815559]]]]}},{"type":"Feature","properties":{"ID_0":177,"ISO":"PHL","NAME_0":"Philippines","ID_1":2031,"NAME_1":"Isabela","ID_2":203102,"NAME_2":"Angadanan","ID_3":203102041,"NAME_3":"Minanga Proper","NL_NAME_3":null,"VARNAME_3":null,"TYPE_3":"Barangay","ENGTYPE_3":"Village","PROVINCE":"Isabela","REGION":"Region II (Cagayan Valley)","id":"barangay-0203102041","name":"Minanga Proper","barangayCode":"0203102041","population":null,"formattedPop":null,"densityCategory":"No data","vulnerabilityRating":"No data","healthRiskLevel":"No data","areaKm2":1.304331,"centerLat":16.764764,"centerLng":121.718936,"geometrySource":"all_barangay-2.csv detailed WKT","geometryMatchMethod":"unique_official_admin_names","boundaryPointCount":8},"geometry":{"type":"MultiPolygon","coordinates":[[[[121.743347,16.76251],[121.739288,16.755159],[121.736687,16.75563],[121.734901,16.755711],[121.73262,16.75629],[121.738831,16.77034],[121.740753,16.769199],[121.743347,16.76251]]]]}},{"type":"Feature","properties":{"ID_0":177,"ISO":"PHL","NAME_0":"Philippines","ID_1":2031,"NAME_1":"Isabela","ID_2":203102,"NAME_2":"Angadanan","ID_3":203102042,"NAME_3":"Pappat","NL_NAME_3":null,"VARNAME_3":null,"TYPE_3":"Barangay","ENGTYPE_3":"Village","PROVINCE":"Isabela","REGION":"Region II (Cagayan Valley)","id":"barangay-0203102042","name":"Pappat","barangayCode":"0203102042","population":null,"formattedPop":null,"densityCategory":"No data","vulnerabilityRating":"No data","healthRiskLevel":"No data","areaKm2":1.472784,"centerLat":16.74461,"centerLng":121.734324,"geometrySource":"all_barangay-2.csv detailed WKT","geometryMatchMethod":"unique_official_admin_names","boundaryPointCount":30},"geometry":{"type":"MultiPolygon","coordinates":[[[[121.745483,16.752331],[121.747437,16.751169],[121.748398,16.750111],[121.748779,16.74864],[121.749077,16.747931],[121.749168,16.747379],[121.74929,16.745951],[121.749451,16.745001],[121.749817,16.74379],[121.749977,16.74338],[121.750359,16.74258],[121.750519,16.74229],[121.745163,16.73703],[121.738007,16.730631],[121.736328,16.732599],[121.728394,16.740561],[121.728142,16.741199],[121.727463,16.74197],[121.728394,16.743299],[121.730011,16.74449],[121.732231,16.745899],[121.735497,16.74815],[121.735268,16.749571],[121.73613,16.75103],[121.737907,16.75251],[121.739029,16.75345],[121.741562,16.754459],[121.741997,16.75411],[121.742889,16.753731],[121.745483,16.752331]]]]}},{"type":"Feature","properties":{"ID_0":177,"ISO":"PHL","NAME_0":"Philippines","ID_1":2031,"NAME_1":"Isabela","ID_2":203102,"NAME_2":"Angadanan","ID_3":203102043,"NAME_3":"Pissay","NL_NAME_3":null,"VARNAME_3":null,"TYPE_3":"Barangay","ENGTYPE_3":"Village","PROVINCE":"Isabela","REGION":"Region II (Cagayan Valley)","id":"barangay-0203102043","name":"Pissay","barangayCode":"0203102043","population":null,"formattedPop":null,"densityCategory":"No data","vulnerabilityRating":"No data","healthRiskLevel":"No data","areaKm2":2.063607,"centerLat":16.739687,"centerLng":121.76655,"geometrySource":"all_barangay-2.csv detailed WKT","geometryMatchMethod":"unique_official_admin_names","boundaryPointCount":19},"geometry":{"type":"MultiPolygon","coordinates":[[[[121.777863,16.750259],[121.776947,16.74905],[121.777061,16.74836],[121.776787,16.7463],[121.775208,16.74369],[121.77388,16.742701],[121.771149,16.741381],[121.769547,16.73995],[121.767883,16.738779],[121.764107,16.73657],[121.761917,16.735531],[121.760338,16.735411],[121.759323,16.735609],[121.75798,16.736429],[121.756027,16.73757],[121.754646,16.7388],[121.752243,16.74077],[121.770554,16.74544],[121.777863,16.750259]]]]}},{"type":"Feature","properties":{"ID_0":177,"ISO":"PHL","NAME_0":"Philippines","ID_1":2031,"NAME_1":"Isabela","ID_2":203102,"NAME_2":"Angadanan","ID_3":203102044,"NAME_3":"Ramona","NL_NAME_3":null,"VARNAME_3":null,"TYPE_3":"Barangay","ENGTYPE_3":"Village","PROVINCE":"Isabela","REGION":"Region II (Cagayan Valley)","id":"barangay-0203102044","name":"Ramona","barangayCode":"0203102044","population":null,"formattedPop":null,"densityCategory":"No data","vulnerabilityRating":"No data","healthRiskLevel":"No data","areaKm2":2.601657,"centerLat":16.821192,"centerLng":121.765398,"geometrySource":"all_barangay-2.csv detailed WKT","geometryMatchMethod":"unique_official_admin_names","boundaryPointCount":29},"geometry":{"type":"MultiPolygon","coordinates":[[[[121.806923,16.82527],[121.805679,16.82354],[121.805237,16.822651],[121.804123,16.821369],[121.803093,16.81901],[121.802406,16.81756],[121.801109,16.81526],[121.79985,16.814409],[121.797234,16.814341],[121.795151,16.81505],[121.791611,16.81661],[121.787247,16.818701],[121.785141,16.81934],[121.782066,16.820641],[121.779007,16.82169],[121.776321,16.821581],[121.774521,16.82111],[121.771667,16.819759],[121.772453,16.824841],[121.775467,16.82548],[121.778847,16.82568],[121.780884,16.82576],[121.78537,16.825899],[121.788849,16.82552],[121.791313,16.825371],[121.794228,16.82568],[121.797333,16.826309],[121.799492,16.82737],[121.806923,16.82527]]]]}},{"type":"Feature","properties":{"ID_0":177,"ISO":"PHL","NAME_0":"Philippines","ID_1":2031,"NAME_1":"Isabela","ID_2":203102,"NAME_2":"Angadanan","ID_3":203102045,"NAME_3":"Rancho Bassit","NL_NAME_3":null,"VARNAME_3":null,"TYPE_3":"Barangay","ENGTYPE_3":"Village","PROVINCE":"Isabela","REGION":"Region II (Cagayan Valley)","id":"barangay-0203102045","name":"Rancho Bassit","barangayCode":"0203102045","population":null,"formattedPop":null,"densityCategory":"No data","vulnerabilityRating":"No data","healthRiskLevel":"No data","areaKm2":1.347017,"centerLat":16.748791,"centerLng":121.753626,"geometrySource":"all_barangay-2.csv detailed WKT","geometryMatchMethod":"unique_official_admin_names","boundaryPointCount":13},"geometry":{"type":"MultiPolygon","coordinates":[[[[121.766373,16.757891],[121.74929,16.745951],[121.749168,16.747379],[121.749077,16.747931],[121.748779,16.74864],[121.748398,16.750111],[121.754494,16.754049],[121.759956,16.759359],[121.760811,16.759029],[121.762573,16.75893],[121.763496,16.758699],[121.765694,16.75816],[121.766373,16.757891]]]]}},{"type":"Feature","properties":{"ID_0":177,"ISO":"PHL","NAME_0":"Philippines","ID_1":2031,"NAME_1":"Isabela","ID_2":203102,"NAME_2":"Angadanan","ID_3":203102046,"NAME_3":"Rang-ayan","NL_NAME_3":null,"VARNAME_3":null,"TYPE_3":"Barangay","ENGTYPE_3":"Village","PROVINCE":"Isabela","REGION":"Region II (Cagayan Valley)","id":"barangay-0203102046","name":"Rang-ayan","barangayCode":"0203102046","population":null,"formattedPop":null,"densityCategory":"No data","vulnerabilityRating":"No data","healthRiskLevel":"No data","areaKm2":7.987923,"centerLat":16.777921,"centerLng":121.871874,"geometrySource":"all_barangay-2.csv detailed WKT","geometryMatchMethod":"unique_official_admin_names","boundaryPointCount":20},"geometry":{"type":"MultiPolygon","coordinates":[[[[121.879936,16.804541],[121.882813,16.79521],[121.867607,16.783979],[121.866188,16.784719],[121.86367,16.786051],[121.862808,16.786921],[121.861778,16.788561],[121.861038,16.78932],[121.859047,16.791401],[121.857933,16.791809],[121.856979,16.79204],[121.856216,16.791821],[121.855347,16.79245],[121.854469,16.79426],[121.853447,16.79493],[121.852303,16.79645],[121.852219,16.796789],[121.852303,16.796829],[121.869682,16.80377],[121.879936,16.804541]]]]}},{"type":"Feature","properties":{"ID_0":177,"ISO":"PHL","NAME_0":"Philippines","ID_1":2031,"NAME_1":"Isabela","ID_2":203102,"NAME_2":"Angadanan","ID_3":203102047,"NAME_3":"Salay","NL_NAME_3":null,"VARNAME_3":null,"TYPE_3":"Barangay","ENGTYPE_3":"Village","PROVINCE":"Isabela","REGION":"Region II (Cagayan Valley)","id":"barangay-0203102047","name":"Salay","barangayCode":"0203102047","population":null,"formattedPop":null,"densityCategory":"No data","vulnerabilityRating":"No data","healthRiskLevel":"No data","areaKm2":1.007131,"centerLat":16.771853,"centerLng":121.764395,"geometrySource":"all_barangay-2.csv detailed WKT","geometryMatchMethod":"unique_official_admin_names","boundaryPointCount":11},"geometry":{"type":"MultiPolygon","coordinates":[[[[121.771698,16.78484],[121.777718,16.777901],[121.762489,16.77574],[121.763397,16.776739],[121.76458,16.77949],[121.765198,16.781401],[121.766281,16.783779],[121.767227,16.78499],[121.768066,16.78587],[121.770149,16.787689],[121.771698,16.78484]]]]}},{"type":"Feature","properties":{"ID_0":177,"ISO":"PHL","NAME_0":"Philippines","ID_1":2031,"NAME_1":"Isabela","ID_2":203102,"NAME_2":"Angadanan","ID_3":203102048,"NAME_3":"San Ambrocio","NL_NAME_3":null,"VARNAME_3":null,"TYPE_3":"Barangay","ENGTYPE_3":"Village","PROVINCE":"Isabela","REGION":"Region II (Cagayan Valley)","id":"barangay-0203102048","name":"San Ambrocio","barangayCode":"0203102048","population":null,"formattedPop":null,"densityCategory":"No data","vulnerabilityRating":"No data","healthRiskLevel":"No data","areaKm2":1.941145,"centerLat":16.793541,"centerLng":121.744394,"geometrySource":"all_barangay-2.csv detailed WKT","geometryMatchMethod":"unique_official_admin_names","boundaryPointCount":8},"geometry":{"type":"MultiPolygon","coordinates":[[[[121.750153,16.812281],[121.760201,16.80924],[121.755524,16.79719],[121.75174,16.788271],[121.740311,16.791389],[121.744553,16.799931],[121.74691,16.80541],[121.750153,16.812281]]]]}},{"type":"Feature","properties":{"ID_0":177,"ISO":"PHL","NAME_0":"Philippines","ID_1":2031,"NAME_1":"Isabela","ID_2":203102,"NAME_2":"Angadanan","ID_3":203102049,"NAME_3":"San Guillermo","NL_NAME_3":null,"VARNAME_3":null,"TYPE_3":"Barangay","ENGTYPE_3":"Village","PROVINCE":"Isabela","REGION":"Region II (Cagayan Valley)","id":"barangay-0203102049","name":"San Guillermo","barangayCode":"0203102049","population":null,"formattedPop":null,"densityCategory":"No data","vulnerabilityRating":"No data","healthRiskLevel":"No data","areaKm2":1.083672,"centerLat":16.801117,"centerLng":121.772173,"geometrySource":"all_barangay-2.csv detailed WKT","geometryMatchMethod":"unique_official_admin_names","boundaryPointCount":11},"geometry":{"type":"MultiPolygon","coordinates":[[[[121.77446,16.81201],[121.772041,16.80488],[121.760201,16.80924],[121.764214,16.81938],[121.768677,16.81687],[121.768883,16.81669],[121.769279,16.815849],[121.771637,16.813959],[121.773178,16.81329],[121.77404,16.81282],[121.77446,16.81201]]]]}},{"type":"Feature","properties":{"ID_0":177,"ISO":"PHL","NAME_0":"Philippines","ID_1":2031,"NAME_1":"Isabela","ID_2":203102,"NAME_2":"Angadanan","ID_3":203102050,"NAME_3":"San Isidro","NL_NAME_3":null,"VARNAME_3":null,"TYPE_3":"Barangay","ENGTYPE_3":"Village","PROVINCE":"Isabela","REGION":"Region II (Cagayan Valley)","id":"barangay-0203102050","name":"San Isidro","barangayCode":"0203102050","population":null,"formattedPop":null,"densityCategory":"No data","vulnerabilityRating":"No data","healthRiskLevel":"No data","areaKm2":2.93083,"centerLat":16.715428,"centerLng":121.76525,"geometrySource":"all_barangay-2.csv detailed WKT","geometryMatchMethod":"unique_official_admin_names","boundaryPointCount":22},"geometry":{"type":"MultiPolygon","coordinates":[[[[121.760582,16.72543],[121.780647,16.739799],[121.772827,16.723709],[121.773849,16.723181],[121.774597,16.72275],[121.775009,16.72204],[121.775291,16.720711],[121.775726,16.719561],[121.775864,16.717899],[121.775543,16.71661],[121.776428,16.71583],[121.778587,16.715321],[121.778419,16.714291],[121.776947,16.713409],[121.77623,16.71237],[121.776077,16.71162],[121.77742,16.710831],[121.779083,16.71055],[121.780479,16.70944],[121.781319,16.70722],[121.760178,16.70624],[121.760582,16.72543]]]]}},{"type":"Feature","properties":{"ID_0":177,"ISO":"PHL","NAME_0":"Philippines","ID_1":2031,"NAME_1":"Isabela","ID_2":203102,"NAME_2":"Angadanan","ID_3":203102051,"NAME_3":"San Marcelo","NL_NAME_3":null,"VARNAME_3":null,"TYPE_3":"Barangay","ENGTYPE_3":"Village","PROVINCE":"Isabela","REGION":"Region II (Cagayan Valley)","id":"barangay-0203102051","name":"San Marcelo","barangayCode":"0203102051","population":null,"formattedPop":null,"densityCategory":"No data","vulnerabilityRating":"No data","healthRiskLevel":"No data","areaKm2":4.629223,"centerLat":16.764932,"centerLng":121.846883,"geometrySource":"all_barangay-2.csv detailed WKT","geometryMatchMethod":"unique_official_admin_names","boundaryPointCount":6},"geometry":{"type":"MultiPolygon","coordinates":[[[[121.882813,16.79521],[121.888496,16.768629],[121.87323,16.764601],[121.860527,16.777599],[121.867607,16.783979],[121.882813,16.79521]]]]}},{"type":"Feature","properties":{"ID_0":177,"ISO":"PHL","NAME_0":"Philippines","ID_1":2031,"NAME_1":"Isabela","ID_2":203102,"NAME_2":"Angadanan","ID_3":203102052,"NAME_3":"San Roque","NL_NAME_3":null,"VARNAME_3":null,"TYPE_3":"Barangay","ENGTYPE_3":"Village","PROVINCE":"Isabela","REGION":"Region II (Cagayan Valley)","id":"barangay-0203102052","name":"San Roque","barangayCode":"0203102052","population":null,"formattedPop":null,"densityCategory":"No data","vulnerabilityRating":"No data","healthRiskLevel":"No data","areaKm2":6.324308,"centerLat":16.796809,"centerLng":121.832048,"geometrySource":"all_barangay-2.csv detailed WKT","geometryMatchMethod":"unique_official_admin_names","boundaryPointCount":30},"geometry":{"type":"MultiPolygon","coordinates":[[[[121.823883,16.820141],[121.839432,16.81686],[121.841133,16.81609],[121.840561,16.80608],[121.840599,16.80518],[121.842163,16.803749],[121.8433,16.80304],[121.844597,16.80348],[121.845421,16.804239],[121.847107,16.805149],[121.849213,16.805559],[121.850357,16.805269],[121.849258,16.804001],[121.848503,16.803221],[121.849533,16.802971],[121.85141,16.8022],[121.852074,16.80142],[121.852402,16.80105],[121.852287,16.799271],[121.852211,16.799379],[121.850853,16.798611],[121.850357,16.797661],[121.85215,16.797079],[121.852303,16.796829],[121.852219,16.796789],[121.84243,16.7925],[121.840157,16.795521],[121.812729,16.795759],[121.81649,16.80341],[121.823883,16.820141]]]]}},{"type":"Feature","properties":{"ID_0":177,"ISO":"PHL","NAME_0":"Philippines","ID_1":2031,"NAME_1":"Isabela","ID_2":203102,"NAME_2":"Angadanan","ID_3":203102053,"NAME_3":"San Vicente","NL_NAME_3":null,"VARNAME_3":null,"TYPE_3":"Barangay","ENGTYPE_3":"Village","PROVINCE":"Isabela","REGION":"Region II (Cagayan Valley)","id":"barangay-0203102053","name":"San Vicente","barangayCode":"0203102053","population":null,"formattedPop":null,"densityCategory":"No data","vulnerabilityRating":"No data","healthRiskLevel":"No data","areaKm2":2.430055,"centerLat":16.71475,"centerLng":121.779323,"geometrySource":"all_barangay-2.csv detailed WKT","geometryMatchMethod":"unique_official_admin_names","boundaryPointCount":25},"geometry":{"type":"MultiPolygon","coordinates":[[[[121.780647,16.739799],[121.79213,16.745159],[121.78804,16.739281],[121.790939,16.71582],[121.791397,16.702],[121.786499,16.706631],[121.781319,16.70722],[121.780479,16.70944],[121.779083,16.71055],[121.77742,16.710831],[121.776077,16.71162],[121.77623,16.71237],[121.776947,16.713409],[121.778419,16.714291],[121.778587,16.715321],[121.776428,16.71583],[121.775543,16.71661],[121.775864,16.717899],[121.775726,16.719561],[121.775291,16.720711],[121.775009,16.72204],[121.774597,16.72275],[121.773849,16.723181],[121.772827,16.723709],[121.780647,16.739799]]]]}},{"type":"Feature","properties":{"ID_0":177,"ISO":"PHL","NAME_0":"Philippines","ID_1":2031,"NAME_1":"Isabela","ID_2":203102,"NAME_2":"Angadanan","ID_3":203102054,"NAME_3":"Santo Niño","NL_NAME_3":null,"VARNAME_3":"Santo Nino","TYPE_3":"Barangay","ENGTYPE_3":"Village","PROVINCE":"Isabela","REGION":"Region II (Cagayan Valley)","id":"barangay-0203102054","name":"Santo Niño","barangayCode":"0203102054","population":null,"formattedPop":null,"densityCategory":"No data","vulnerabilityRating":"No data","healthRiskLevel":"No data","areaKm2":3.154464,"centerLat":16.776195,"centerLng":121.775566,"geometrySource":"all_barangay-2.csv detailed WKT","geometryMatchMethod":"unique_official_admin_names","boundaryPointCount":16},"geometry":{"type":"MultiPolygon","coordinates":[[[[121.812729,16.795759],[121.8106,16.790859],[121.810318,16.78903],[121.771698,16.78484],[121.770149,16.787689],[121.771088,16.788111],[121.77253,16.78804],[121.774033,16.788349],[121.774643,16.78866],[121.775909,16.790421],[121.776237,16.790739],[121.777611,16.79213],[121.778053,16.792641],[121.778763,16.79328],[121.780853,16.79701],[121.812729,16.795759]]]]}},{"type":"Feature","properties":{"ID_0":177,"ISO":"PHL","NAME_0":"Philippines","ID_1":2031,"NAME_1":"Isabela","ID_2":203102,"NAME_2":"Angadanan","ID_3":203102055,"NAME_3":"Saranay","NL_NAME_3":null,"VARNAME_3":null,"TYPE_3":"Barangay","ENGTYPE_3":"Village","PROVINCE":"Isabela","REGION":"Region II (Cagayan Valley)","id":"barangay-0203102055","name":"Saranay","barangayCode":"0203102055","population":null,"formattedPop":null,"densityCategory":"No data","vulnerabilityRating":"No data","healthRiskLevel":"No data","areaKm2":2.043573,"centerLat":16.804473,"centerLng":121.869322,"geometrySource":"all_barangay-2.csv detailed WKT","geometryMatchMethod":"unique_official_admin_names","boundaryPointCount":6},"geometry":{"type":"MultiPolygon","coordinates":[[[[121.846039,16.83881],[121.839432,16.81686],[121.823883,16.820141],[121.842949,16.838779],[121.844421,16.83869],[121.846039,16.83881]]]]}},{"type":"Feature","properties":{"ID_0":177,"ISO":"PHL","NAME_0":"Philippines","ID_1":2031,"NAME_1":"Isabela","ID_2":203102,"NAME_2":"Angadanan","ID_3":203102056,"NAME_3":"Sinabbaran","NL_NAME_3":null,"VARNAME_3":null,"TYPE_3":"Barangay","ENGTYPE_3":"Village","PROVINCE":"Isabela","REGION":"Region II (Cagayan Valley)","id":"barangay-0203102056","name":"Sinabbaran","barangayCode":"0203102056","population":null,"formattedPop":null,"densityCategory":"No data","vulnerabilityRating":"No data","healthRiskLevel":"No data","areaKm2":1.21717,"centerLat":16.737222,"centerLng":121.704994,"geometrySource":"all_barangay-2.csv detailed WKT","geometryMatchMethod":"unique_official_admin_names","boundaryPointCount":16},"geometry":{"type":"MultiPolygon","coordinates":[[[[121.705917,16.746861],[121.704987,16.746309],[121.704727,16.745781],[121.704788,16.74509],[121.706139,16.743879],[121.708733,16.742519],[121.713188,16.73975],[121.715752,16.737989],[121.72094,16.73451],[121.718727,16.735241],[121.70697,16.734949],[121.695259,16.735701],[121.693848,16.73773],[121.69133,16.742189],[121.699837,16.74966],[121.705917,16.746861]]]]}},{"type":"Feature","properties":{"ID_0":177,"ISO":"PHL","NAME_0":"Philippines","ID_1":2031,"NAME_1":"Isabela","ID_2":203102,"NAME_2":"Angadanan","ID_3":203102058,"NAME_3":"Victory","NL_NAME_3":null,"VARNAME_3":null,"TYPE_3":"Barangay","ENGTYPE_3":"Village","PROVINCE":"Isabela","REGION":"Region II (Cagayan Valley)","id":"barangay-0203102058","name":"Victory","barangayCode":"0203102058","population":null,"formattedPop":null,"densityCategory":"No data","vulnerabilityRating":"No data","healthRiskLevel":"No data","areaKm2":3.452796,"centerLat":16.779966,"centerLng":121.845479,"geometrySource":"all_barangay-2.csv detailed WKT","geometryMatchMethod":"unique_official_admin_names","boundaryPointCount":20},"geometry":{"type":"MultiPolygon","coordinates":[[[[121.852219,16.796789],[121.852303,16.79645],[121.853447,16.79493],[121.854469,16.79426],[121.855347,16.79245],[121.856216,16.791821],[121.856979,16.79204],[121.857933,16.791809],[121.859047,16.791401],[121.861038,16.78932],[121.861778,16.788561],[121.862808,16.786921],[121.86367,16.786051],[121.866188,16.784719],[121.867607,16.783979],[121.860527,16.777599],[121.855873,16.77475],[121.846443,16.772869],[121.84243,16.7925],[121.852219,16.796789]]]]}},{"type":"Feature","properties":{"ID_0":177,"ISO":"PHL","NAME_0":"Philippines","ID_1":2031,"NAME_1":"Isabela","ID_2":203102,"NAME_2":"Angadanan","ID_3":203102059,"NAME_3":"Viga","NL_NAME_3":null,"VARNAME_3":null,"TYPE_3":"Barangay","ENGTYPE_3":"Village","PROVINCE":"Isabela","REGION":"Region II (Cagayan Valley)","id":"barangay-0203102059","name":"Viga","barangayCode":"0203102059","population":null,"formattedPop":null,"densityCategory":"No data","vulnerabilityRating":"No data","healthRiskLevel":"No data","areaKm2":8.635296,"centerLat":16.825241,"centerLng":121.781449,"geometrySource":"all_barangay-2.csv detailed WKT","geometryMatchMethod":"unique_official_admin_names","boundaryPointCount":14},"geometry":{"type":"MultiPolygon","coordinates":[[[[121.764122,16.840561],[121.764763,16.84277],[121.802353,16.83416],[121.805473,16.8307],[121.804512,16.83016],[121.802887,16.8288],[121.805946,16.8295],[121.806503,16.829781],[121.808937,16.830311],[121.811447,16.82976],[121.806923,16.82527],[121.799492,16.82737],[121.763947,16.84004],[121.764122,16.840561]]]]}},{"type":"Feature","properties":{"ID_0":177,"ISO":"PHL","NAME_0":"Philippines","ID_1":2031,"NAME_1":"Isabela","ID_2":203102,"NAME_2":"Angadanan","ID_3":203102060,"NAME_3":"Villa Domingo","NL_NAME_3":null,"VARNAME_3":null,"TYPE_3":"Barangay","ENGTYPE_3":"Village","PROVINCE":"Isabela","REGION":"Region II (Cagayan Valley)","id":"barangay-0203102060","name":"Villa Domingo","barangayCode":"0203102060","population":null,"formattedPop":null,"densityCategory":"No data","vulnerabilityRating":"No data","healthRiskLevel":"No data","areaKm2":7.055894,"centerLat":16.842128,"centerLng":121.785699,"geometrySource":"all_barangay-2.csv detailed WKT","geometryMatchMethod":"unique_official_admin_names","boundaryPointCount":15},"geometry":{"type":"MultiPolygon","coordinates":[[[[121.814171,16.836809],[121.817291,16.836361],[121.823601,16.835751],[121.828491,16.835699],[121.818314,16.8251],[121.81498,16.827209],[121.811447,16.82976],[121.808937,16.830311],[121.806503,16.829781],[121.805946,16.8295],[121.802887,16.8288],[121.804512,16.83016],[121.805473,16.8307],[121.802353,16.83416],[121.814171,16.836809]]]]}}]}
