{"type":"FeatureCollection","features":[{"type":"Feature","properties":{"ID_0":177,"ISO":"PHL","NAME_0":"Philippines","ID_1":2050,"NAME_1":"Nueva Vizcaya","ID_2":205010,"NAME_2":"Kayapa","ID_3":205010001,"NAME_3":"Acacia","NL_NAME_3":null,"VARNAME_3":null,"TYPE_3":"Barangay","ENGTYPE_3":"Village","PROVINCE":"Nueva Vizcaya","REGION":"Region II (Cagayan Valley)","id":"barangay-0205010001","name":"Acacia","barangayCode":"0205010001","population":null,"formattedPop":null,"densityCategory":"No data","vulnerabilityRating":"No data","healthRiskLevel":"No data","areaKm2":15.523662,"centerLat":16.364663,"centerLng":120.965476,"geometrySource":"all_barangay-2.csv detailed WKT","geometryMatchMethod":"unique_official_admin_names","boundaryPointCount":6},"geometry":{"type":"MultiPolygon","coordinates":[[[[120.997887,16.36813],[120.948792,16.35573],[120.935173,16.36622],[120.951736,16.39016],[120.968437,16.37027],[120.997887,16.36813]]]]}},{"type":"Feature","properties":{"ID_0":177,"ISO":"PHL","NAME_0":"Philippines","ID_1":2050,"NAME_1":"Nueva Vizcaya","ID_2":205010,"NAME_2":"Kayapa","ID_3":205010002,"NAME_3":"Amelong Labeng","NL_NAME_3":null,"VARNAME_3":null,"TYPE_3":"Barangay","ENGTYPE_3":"Village","PROVINCE":"Nueva Vizcaya","REGION":"Region II (Cagayan Valley)","id":"barangay-0205010002","name":"Amelong Labeng","barangayCode":"0205010002","population":null,"formattedPop":null,"densityCategory":"No data","vulnerabilityRating":"No data","healthRiskLevel":"No data","areaKm2":8.088638,"centerLat":16.318012,"centerLng":120.909474,"geometrySource":"barangays.geojson simplified fallback","geometryMatchMethod":"simplified_fallback","boundaryPointCount":6},"geometry":{"type":"Polygon","coordinates":[[[120.92568512500009,16.311218648000022],[120.89752027800012,16.303219854000076],[120.88860593600009,16.31532204000007],[120.89889101900008,16.327256242000033],[120.92241726100008,16.328797502000043],[120.92568512500009,16.311218648000022]]]}},{"type":"Feature","properties":{"ID_0":177,"ISO":"PHL","NAME_0":"Philippines","ID_1":2050,"NAME_1":"Nueva Vizcaya","ID_2":205010,"NAME_2":"Kayapa","ID_3":205010003,"NAME_3":"Ansipsip","NL_NAME_3":null,"VARNAME_3":null,"TYPE_3":"Barangay","ENGTYPE_3":"Village","PROVINCE":"Nueva Vizcaya","REGION":"Region II (Cagayan Valley)","id":"barangay-0205010003","name":"Ansipsip","barangayCode":"0205010003","population":null,"formattedPop":null,"densityCategory":"No data","vulnerabilityRating":"No data","healthRiskLevel":"No data","areaKm2":12.735594,"centerLat":16.310888,"centerLng":120.842449,"geometrySource":"all_barangay-2.csv detailed WKT","geometryMatchMethod":"unique_official_admin_names","boundaryPointCount":8},"geometry":{"type":"MultiPolygon","coordinates":[[[[120.856743,16.34679],[120.879883,16.309441],[120.871117,16.30298],[120.840843,16.306561],[120.799141,16.311689],[120.805893,16.323071],[120.845467,16.32091],[120.856743,16.34679]]]]}},{"type":"Feature","properties":{"ID_0":177,"ISO":"PHL","NAME_0":"Philippines","ID_1":2050,"NAME_1":"Nueva Vizcaya","ID_2":205010,"NAME_2":"Kayapa","ID_3":205010004,"NAME_3":"Baan","NL_NAME_3":null,"VARNAME_3":null,"TYPE_3":"Barangay","ENGTYPE_3":"Village","PROVINCE":"Nueva Vizcaya","REGION":"Region II (Cagayan Valley)","id":"barangay-0205010004","name":"Baan","barangayCode":"0205010004","population":null,"formattedPop":null,"densityCategory":"No data","vulnerabilityRating":"No data","healthRiskLevel":"No data","areaKm2":5.445244,"centerLat":16.329242,"centerLng":120.986212,"geometrySource":"all_barangay-2.csv detailed WKT","geometryMatchMethod":"unique_official_admin_names","boundaryPointCount":19},"geometry":{"type":"MultiPolygon","coordinates":[[[[120.978668,16.35009],[120.998161,16.34889],[120.996071,16.345921],[120.986343,16.336981],[120.98587,16.33666],[120.98407,16.33596],[120.97821,16.334749],[120.974197,16.334379],[120.970863,16.33354],[120.969299,16.33176],[120.968536,16.329149],[120.968178,16.326929],[120.967819,16.32596],[120.967117,16.325399],[120.966019,16.32391],[120.958366,16.321239],[120.956207,16.333549],[120.964928,16.34054],[120.978668,16.35009]]]]}},{"type":"Feature","properties":{"ID_0":177,"ISO":"PHL","NAME_0":"Philippines","ID_1":2050,"NAME_1":"Nueva Vizcaya","ID_2":205010,"NAME_2":"Kayapa","ID_3":205010005,"NAME_3":"Babadi","NL_NAME_3":null,"VARNAME_3":null,"TYPE_3":"Barangay","ENGTYPE_3":"Village","PROVINCE":"Nueva Vizcaya","REGION":"Region II (Cagayan Valley)","id":"barangay-0205010005","name":"Babadi","barangayCode":"0205010005","population":null,"formattedPop":null,"densityCategory":"No data","vulnerabilityRating":"No data","healthRiskLevel":"No data","areaKm2":6.064724,"centerLat":16.408609,"centerLng":120.983814,"geometrySource":"all_barangay-2.csv detailed WKT","geometryMatchMethod":"unique_official_admin_names","boundaryPointCount":7},"geometry":{"type":"MultiPolygon","coordinates":[[[[121.001053,16.437901],[120.97242,16.392851],[120.951736,16.39016],[120.969322,16.42045],[120.977562,16.420589],[120.993248,16.44595],[121.001053,16.437901]]]]}},{"type":"Feature","properties":{"ID_0":177,"ISO":"PHL","NAME_0":"Philippines","ID_1":2050,"NAME_1":"Nueva Vizcaya","ID_2":205010,"NAME_2":"Kayapa","ID_3":205010006,"NAME_3":"Balangabang","NL_NAME_3":null,"VARNAME_3":null,"TYPE_3":"Barangay","ENGTYPE_3":"Village","PROVINCE":"Nueva Vizcaya","REGION":"Region II (Cagayan Valley)","id":"barangay-0205010006","name":"Balangabang","barangayCode":"0205010006","population":null,"formattedPop":null,"densityCategory":"No data","vulnerabilityRating":"No data","healthRiskLevel":"No data","areaKm2":10.327391,"centerLat":16.382181,"centerLng":120.893772,"geometrySource":"all_barangay-2.csv detailed WKT","geometryMatchMethod":"unique_official_admin_names","boundaryPointCount":5},"geometry":{"type":"MultiPolygon","coordinates":[[[[120.914627,16.390829],[120.898323,16.36622],[120.885223,16.365721],[120.891243,16.38763],[120.914627,16.390829]]]]}},{"type":"Feature","properties":{"ID_0":177,"ISO":"PHL","NAME_0":"Philippines","ID_1":2050,"NAME_1":"Nueva Vizcaya","ID_2":205010,"NAME_2":"Kayapa","ID_3":205010007,"NAME_3":"Banao","NL_NAME_3":null,"VARNAME_3":null,"TYPE_3":"Barangay","ENGTYPE_3":"Village","PROVINCE":"Nueva Vizcaya","REGION":"Region II (Cagayan Valley)","id":"barangay-0205010007","name":"Banao","barangayCode":"0205010007","population":null,"formattedPop":null,"densityCategory":"No data","vulnerabilityRating":"No data","healthRiskLevel":"No data","areaKm2":37.623941,"centerLat":16.432371,"centerLng":120.91553,"geometrySource":"all_barangay-2.csv detailed WKT","geometryMatchMethod":"unique_official_admin_names","boundaryPointCount":11},"geometry":{"type":"MultiPolygon","coordinates":[[[[120.941063,16.45569],[120.949837,16.436371],[120.922318,16.40106],[120.914627,16.390829],[120.891243,16.38763],[120.871399,16.38521],[120.88166,16.41073],[120.891342,16.433941],[120.891319,16.435209],[120.923752,16.48263],[120.941063,16.45569]]]]}},{"type":"Feature","properties":{"ID_0":177,"ISO":"PHL","NAME_0":"Philippines","ID_1":2050,"NAME_1":"Nueva Vizcaya","ID_2":205010,"NAME_2":"Kayapa","ID_3":205010008,"NAME_3":"Binalian","NL_NAME_3":null,"VARNAME_3":null,"TYPE_3":"Barangay","ENGTYPE_3":"Village","PROVINCE":"Nueva Vizcaya","REGION":"Region II (Cagayan Valley)","id":"barangay-0205010008","name":"Binalian","barangayCode":"0205010008","population":null,"formattedPop":null,"densityCategory":"No data","vulnerabilityRating":"No data","healthRiskLevel":"No data","areaKm2":22.8987,"centerLat":16.397542,"centerLng":120.938412,"geometrySource":"all_barangay-2.csv detailed WKT","geometryMatchMethod":"unique_official_admin_names","boundaryPointCount":8},"geometry":{"type":"MultiPolygon","coordinates":[[[[120.969322,16.42045],[120.951736,16.39016],[120.935173,16.36622],[120.931396,16.372971],[120.922318,16.40106],[120.949837,16.436371],[120.951607,16.43144],[120.969322,16.42045]]]]}},{"type":"Feature","properties":{"ID_0":177,"ISO":"PHL","NAME_0":"Philippines","ID_1":2050,"NAME_1":"Nueva Vizcaya","ID_2":205010,"NAME_2":"Kayapa","ID_3":205010009,"NAME_3":"Besong","NL_NAME_3":null,"VARNAME_3":null,"TYPE_3":"Barangay","ENGTYPE_3":"Village","PROVINCE":"Nueva Vizcaya","REGION":"Region II (Cagayan Valley)","id":"barangay-0205010009","name":"Besong","barangayCode":"0205010009","population":null,"formattedPop":null,"densityCategory":"No data","vulnerabilityRating":"No data","healthRiskLevel":"No data","areaKm2":8.385314,"centerLat":16.338631,"centerLng":120.884106,"geometrySource":"all_barangay-2.csv detailed WKT","geometryMatchMethod":"unique_official_admin_names","boundaryPointCount":6},"geometry":{"type":"MultiPolygon","coordinates":[[[[120.899803,16.34766],[120.899139,16.328449],[120.870079,16.33499],[120.856743,16.34679],[120.888817,16.34812],[120.899803,16.34766]]]]}},{"type":"Feature","properties":{"ID_0":177,"ISO":"PHL","NAME_0":"Philippines","ID_1":2050,"NAME_1":"Nueva Vizcaya","ID_2":205010,"NAME_2":"Kayapa","ID_3":205010010,"NAME_3":"Cabalatan Alang","NL_NAME_3":null,"VARNAME_3":null,"TYPE_3":"Barangay","ENGTYPE_3":"Village","PROVINCE":"Nueva Vizcaya","REGION":"Region II (Cagayan Valley)","id":"barangay-0205010010","name":"Cabalatan Alang","barangayCode":"0205010010","population":null,"formattedPop":null,"densityCategory":"No data","vulnerabilityRating":"No data","healthRiskLevel":"No data","areaKm2":15.275422,"centerLat":16.263463,"centerLng":120.892612,"geometrySource":"all_barangay-2.csv detailed WKT","geometryMatchMethod":"unique_official_admin_names","boundaryPointCount":9},"geometry":{"type":"MultiPolygon","coordinates":[[[[120.927322,16.285959],[120.91552,16.247869],[120.902733,16.24111],[120.894279,16.253731],[120.893547,16.25721],[120.890907,16.26223],[120.896767,16.292179],[120.910431,16.29649],[120.927322,16.285959]]]]}},{"type":"Feature","properties":{"ID_0":177,"ISO":"PHL","NAME_0":"Philippines","ID_1":2050,"NAME_1":"Nueva Vizcaya","ID_2":205010,"NAME_2":"Kayapa","ID_3":205010011,"NAME_3":"Cabanglasan","NL_NAME_3":null,"VARNAME_3":null,"TYPE_3":"Barangay","ENGTYPE_3":"Village","PROVINCE":"Nueva Vizcaya","REGION":"Region II (Cagayan Valley)","id":"barangay-0205010011","name":"Cabanglasan","barangayCode":"0205010011","population":null,"formattedPop":null,"densityCategory":"No data","vulnerabilityRating":"No data","healthRiskLevel":"No data","areaKm2":6.73884,"centerLat":16.353599,"centerLng":120.937058,"geometrySource":"all_barangay-2.csv detailed WKT","geometryMatchMethod":"unique_official_admin_names","boundaryPointCount":12},"geometry":{"type":"MultiPolygon","coordinates":[[[[120.935173,16.36622],[120.947151,16.3463],[120.943558,16.345659],[120.942993,16.34572],[120.938011,16.34593],[120.933723,16.34676],[120.929176,16.349751],[120.925346,16.354719],[120.922783,16.35836],[120.921341,16.365891],[120.931396,16.372971],[120.935173,16.36622]]]]}},{"type":"Feature","properties":{"ID_0":177,"ISO":"PHL","NAME_0":"Philippines","ID_1":2050,"NAME_1":"Nueva Vizcaya","ID_2":205010,"NAME_2":"Kayapa","ID_3":205010012,"NAME_3":"Kayapa Proper East","NL_NAME_3":null,"VARNAME_3":null,"TYPE_3":"Barangay","ENGTYPE_3":"Village","PROVINCE":"Nueva Vizcaya","REGION":"Region II (Cagayan Valley)","id":"barangay-0205010012","name":"Kayapa Proper East","barangayCode":"0205010012","population":null,"formattedPop":null,"densityCategory":"No data","vulnerabilityRating":"No data","healthRiskLevel":"No data","areaKm2":11.042049,"centerLat":16.293254,"centerLng":120.885826,"geometrySource":"all_barangay-2.csv detailed WKT","geometryMatchMethod":"unique_official_admin_names","boundaryPointCount":11},"geometry":{"type":"MultiPolygon","coordinates":[[[[120.939484,16.31249],[120.910431,16.29649],[120.896767,16.292179],[120.890907,16.26223],[120.876534,16.269609],[120.873711,16.293631],[120.893562,16.303989],[120.893349,16.30784],[120.944618,16.323351],[120.946426,16.32386],[120.939484,16.31249]]]]}},{"type":"Feature","properties":{"ID_0":177,"ISO":"PHL","NAME_0":"Philippines","ID_1":2050,"NAME_1":"Nueva Vizcaya","ID_2":205010,"NAME_2":"Kayapa","ID_3":205010013,"NAME_3":"Kayapa Proper West","NL_NAME_3":null,"VARNAME_3":null,"TYPE_3":"Barangay","ENGTYPE_3":"Village","PROVINCE":"Nueva Vizcaya","REGION":"Region II (Cagayan Valley)","id":"barangay-0205010013","name":"Kayapa Proper West","barangayCode":"0205010013","population":null,"formattedPop":null,"densityCategory":"No data","vulnerabilityRating":"No data","healthRiskLevel":"No data","areaKm2":10.390298,"centerLat":16.293726,"centerLng":120.859368,"geometrySource":"all_barangay-2.csv detailed WKT","geometryMatchMethod":"unique_official_admin_names","boundaryPointCount":13},"geometry":{"type":"MultiPolygon","coordinates":[[[[120.888771,16.31662],[120.893349,16.30784],[120.893562,16.303989],[120.873711,16.293631],[120.866318,16.295349],[120.854942,16.287741],[120.866623,16.256941],[120.865646,16.244181],[120.838814,16.2516],[120.840843,16.306561],[120.871117,16.30298],[120.879883,16.309441],[120.888771,16.31662]]]]}},{"type":"Feature","properties":{"ID_0":177,"ISO":"PHL","NAME_0":"Philippines","ID_1":2050,"NAME_1":"Nueva Vizcaya","ID_2":205010,"NAME_2":"Kayapa","ID_3":205010014,"NAME_3":"Mapayao","NL_NAME_3":null,"VARNAME_3":null,"TYPE_3":"Barangay","ENGTYPE_3":"Village","PROVINCE":"Nueva Vizcaya","REGION":"Region II (Cagayan Valley)","id":"barangay-0205010014","name":"Mapayao","barangayCode":"0205010014","population":null,"formattedPop":null,"densityCategory":"No data","vulnerabilityRating":"No data","healthRiskLevel":"No data","areaKm2":15.691554,"centerLat":16.386804,"centerLng":120.975628,"geometrySource":"all_barangay-2.csv detailed WKT","geometryMatchMethod":"unique_official_admin_names","boundaryPointCount":5},"geometry":{"type":"MultiPolygon","coordinates":[[[[120.97242,16.392851],[120.997887,16.36813],[120.968437,16.37027],[120.951736,16.39016],[120.97242,16.392851]]]]}},{"type":"Feature","properties":{"ID_0":177,"ISO":"PHL","NAME_0":"Philippines","ID_1":2050,"NAME_1":"Nueva Vizcaya","ID_2":205010,"NAME_2":"Kayapa","ID_3":205010015,"NAME_3":"Nansiakan","NL_NAME_3":null,"VARNAME_3":null,"TYPE_3":"Barangay","ENGTYPE_3":"Village","PROVINCE":"Nueva Vizcaya","REGION":"Region II (Cagayan Valley)","id":"barangay-0205010015","name":"Nansiakan","barangayCode":"0205010015","population":null,"formattedPop":null,"densityCategory":"No data","vulnerabilityRating":"No data","healthRiskLevel":"No data","areaKm2":32.946329,"centerLat":16.466334,"centerLng":121.000825,"geometrySource":"all_barangay-2.csv detailed WKT","geometryMatchMethod":"unique_official_admin_names","boundaryPointCount":17},"geometry":{"type":"MultiPolygon","coordinates":[[[[121.002357,16.48703],[121.027908,16.45289],[121.001053,16.437901],[120.993248,16.44595],[120.979218,16.46254],[120.982201,16.464081],[120.983948,16.465321],[120.985672,16.46653],[120.988068,16.468531],[120.989708,16.471189],[120.990784,16.473961],[120.991699,16.47752],[120.993317,16.480339],[120.995079,16.481871],[120.997757,16.483891],[120.999184,16.485001],[121.002357,16.48703]]]]}},{"type":"Feature","properties":{"ID_0":177,"ISO":"PHL","NAME_0":"Philippines","ID_1":2050,"NAME_1":"Nueva Vizcaya","ID_2":205010,"NAME_2":"Kayapa","ID_3":205010016,"NAME_3":"Pampang","NL_NAME_3":null,"VARNAME_3":null,"TYPE_3":"Barangay","ENGTYPE_3":"Village","PROVINCE":"Nueva Vizcaya","REGION":"Region II (Cagayan Valley)","id":"barangay-0205010016","name":"Pampang","barangayCode":"0205010016","population":null,"formattedPop":null,"densityCategory":"No data","vulnerabilityRating":"No data","healthRiskLevel":"No data","areaKm2":3.892168,"centerLat":16.353747,"centerLng":120.873547,"geometrySource":"all_barangay-2.csv detailed WKT","geometryMatchMethod":"unique_official_admin_names","boundaryPointCount":7},"geometry":{"type":"MultiPolygon","coordinates":[[[[120.898323,16.36622],[120.888817,16.34812],[120.856743,16.34679],[120.860458,16.35454],[120.862999,16.36442],[120.885223,16.365721],[120.898323,16.36622]]]]}},{"type":"Feature","properties":{"ID_0":177,"ISO":"PHL","NAME_0":"Philippines","ID_1":2050,"NAME_1":"Nueva Vizcaya","ID_2":205010,"NAME_2":"Kayapa","ID_3":205010017,"NAME_3":"Pangawan","NL_NAME_3":null,"VARNAME_3":null,"TYPE_3":"Barangay","ENGTYPE_3":"Village","PROVINCE":"Nueva Vizcaya","REGION":"Region II (Cagayan Valley)","id":"barangay-0205010017","name":"Pangawan","barangayCode":"0205010017","population":null,"formattedPop":null,"densityCategory":"No data","vulnerabilityRating":"No data","healthRiskLevel":"No data","areaKm2":9.176631,"centerLat":16.393329,"centerLng":120.877759,"geometrySource":"all_barangay-2.csv detailed WKT","geometryMatchMethod":"unique_official_admin_names","boundaryPointCount":5},"geometry":{"type":"MultiPolygon","coordinates":[[[[120.891243,16.38763],[120.885223,16.365721],[120.862999,16.36442],[120.871399,16.38521],[120.891243,16.38763]]]]}},{"type":"Feature","properties":{"ID_0":177,"ISO":"PHL","NAME_0":"Philippines","ID_1":2050,"NAME_1":"Nueva Vizcaya","ID_2":205010,"NAME_2":"Kayapa","ID_3":205010018,"NAME_3":"Pinayag","NL_NAME_3":null,"VARNAME_3":null,"TYPE_3":"Barangay","ENGTYPE_3":"Village","PROVINCE":"Nueva Vizcaya","REGION":"Region II (Cagayan Valley)","id":"barangay-0205010018","name":"Pinayag","barangayCode":"0205010018","population":null,"formattedPop":null,"densityCategory":"No data","vulnerabilityRating":"No data","healthRiskLevel":"No data","areaKm2":30.783181,"centerLat":16.446571,"centerLng":120.968442,"geometrySource":"all_barangay-2.csv detailed WKT","geometryMatchMethod":"unique_official_admin_names","boundaryPointCount":8},"geometry":{"type":"MultiPolygon","coordinates":[[[[120.979218,16.46254],[120.993248,16.44595],[120.977562,16.420589],[120.969322,16.42045],[120.951607,16.43144],[120.949837,16.436371],[120.941063,16.45569],[120.979218,16.46254]]]]}},{"type":"Feature","properties":{"ID_0":177,"ISO":"PHL","NAME_0":"Philippines","ID_1":2050,"NAME_1":"Nueva Vizcaya","ID_2":205010,"NAME_2":"Kayapa","ID_3":205010019,"NAME_3":"Pingkian","NL_NAME_3":null,"VARNAME_3":null,"TYPE_3":"Barangay","ENGTYPE_3":"Village","PROVINCE":"Nueva Vizcaya","REGION":"Region II (Cagayan Valley)","id":"barangay-0205010019","name":"Pingkian","barangayCode":"0205010019","population":null,"formattedPop":null,"densityCategory":"No data","vulnerabilityRating":"No data","healthRiskLevel":"No data","areaKm2":15.175571,"centerLat":16.318461,"centerLng":120.944703,"geometrySource":"all_barangay-2.csv detailed WKT","geometryMatchMethod":"unique_official_admin_names","boundaryPointCount":13},"geometry":{"type":"MultiPolygon","coordinates":[[[[120.948792,16.35573],[120.953819,16.351761],[120.978668,16.35009],[120.964928,16.34054],[120.956207,16.333549],[120.958366,16.321239],[120.939484,16.31249],[120.946426,16.32386],[120.944618,16.323351],[120.943352,16.33683],[120.947151,16.3463],[120.935173,16.36622],[120.948792,16.35573]]]]}},{"type":"Feature","properties":{"ID_0":177,"ISO":"PHL","NAME_0":"Philippines","ID_1":2050,"NAME_1":"Nueva Vizcaya","ID_2":205010,"NAME_2":"Kayapa","ID_3":205010020,"NAME_3":"San Fabian","NL_NAME_3":null,"VARNAME_3":null,"TYPE_3":"Barangay","ENGTYPE_3":"Village","PROVINCE":"Nueva Vizcaya","REGION":"Region II (Cagayan Valley)","id":"barangay-0205010020","name":"San Fabian","barangayCode":"0205010020","population":null,"formattedPop":null,"densityCategory":"No data","vulnerabilityRating":"No data","healthRiskLevel":"No data","areaKm2":10.873905,"centerLat":16.339919,"centerLng":120.969554,"geometrySource":"all_barangay-2.csv detailed WKT","geometryMatchMethod":"unique_official_admin_names","boundaryPointCount":8},"geometry":{"type":"MultiPolygon","coordinates":[[[[121.012917,16.357491],[121.002136,16.350639],[120.998161,16.34889],[120.978668,16.35009],[120.953819,16.351761],[120.948792,16.35573],[120.997887,16.36813],[121.012917,16.357491]]]]}},{"type":"Feature","properties":{"ID_0":177,"ISO":"PHL","NAME_0":"Philippines","ID_1":2050,"NAME_1":"Nueva Vizcaya","ID_2":205010,"NAME_2":"Kayapa","ID_3":205010021,"NAME_3":"Talicabcab","NL_NAME_3":null,"VARNAME_3":null,"TYPE_3":"Barangay","ENGTYPE_3":"Village","PROVINCE":"Nueva Vizcaya","REGION":"Region II (Cagayan Valley)","id":"barangay-0205010021","name":"Talicabcab","barangayCode":"0205010021","population":null,"formattedPop":null,"densityCategory":"No data","vulnerabilityRating":"No data","healthRiskLevel":"No data","areaKm2":7.748968,"centerLat":16.323583,"centerLng":120.871299,"geometrySource":"barangays.geojson simplified fallback","geometryMatchMethod":"simplified_fallback","boundaryPointCount":6},"geometry":{"type":"Polygon","coordinates":[[[120.85667016800005,16.345582412000056],[120.89388518300007,16.321343778000028],[120.87977888600005,16.308073542000045],[120.87495227500006,16.318220250000024],[120.8575430730001,16.312737515000038],[120.85667016800005,16.345582412000056]]]}},{"type":"Feature","properties":{"ID_0":177,"ISO":"PHL","NAME_0":"Philippines","ID_1":2050,"NAME_1":"Nueva Vizcaya","ID_2":205010,"NAME_2":"Kayapa","ID_3":205010022,"NAME_3":"Tubungan","NL_NAME_3":null,"VARNAME_3":null,"TYPE_3":"Barangay","ENGTYPE_3":"Village","PROVINCE":"Nueva Vizcaya","REGION":"Region II (Cagayan Valley)","id":"barangay-0205010022","name":"Tubungan","barangayCode":"0205010022","population":null,"formattedPop":null,"densityCategory":"No data","vulnerabilityRating":"No data","healthRiskLevel":"No data","areaKm2":2.071649,"centerLat":16.364275,"centerLng":120.873713,"geometrySource":"barangays.geojson simplified fallback","geometryMatchMethod":"simplified_fallback","boundaryPointCount":4},"geometry":{"type":"Polygon","coordinates":[[[120.8776694280001,16.372678244000042],[120.88451365300011,16.358440046000055],[120.86184298900002,16.359505759000058],[120.8776694280001,16.372678244000042]]]}},{"type":"Feature","properties":{"ID_0":177,"ISO":"PHL","NAME_0":"Philippines","ID_1":2050,"NAME_1":"Nueva Vizcaya","ID_2":205010,"NAME_2":"Kayapa","ID_3":205010023,"NAME_3":"Alang Salacsac","NL_NAME_3":null,"VARNAME_3":null,"TYPE_3":"Barangay","ENGTYPE_3":"Village","PROVINCE":"Nueva Vizcaya","REGION":"Region II (Cagayan Valley)","id":"barangay-0205010023","name":"Alang Salacsac","barangayCode":"0205010023","population":null,"formattedPop":null,"densityCategory":"No data","vulnerabilityRating":"No data","healthRiskLevel":"No data","areaKm2":21.107375,"centerLat":16.254602,"centerLng":120.861042,"geometrySource":"all_barangay-2.csv detailed WKT","geometryMatchMethod":"unique_official_admin_names","boundaryPointCount":14},"geometry":{"type":"MultiPolygon","coordinates":[[[[120.890907,16.26223],[120.893547,16.25721],[120.894279,16.253731],[120.902733,16.24111],[120.889816,16.23329],[120.884483,16.23455],[120.87867,16.235901],[120.865646,16.244181],[120.866623,16.256941],[120.854942,16.287741],[120.866318,16.295349],[120.873711,16.293631],[120.876534,16.269609],[120.890907,16.26223]]]]}},{"type":"Feature","properties":{"ID_0":177,"ISO":"PHL","NAME_0":"Philippines","ID_1":2050,"NAME_1":"Nueva Vizcaya","ID_2":205010,"NAME_2":"Kayapa","ID_3":205010024,"NAME_3":"Balete","NL_NAME_3":null,"VARNAME_3":null,"TYPE_3":"Barangay","ENGTYPE_3":"Village","PROVINCE":"Nueva Vizcaya","REGION":"Region II (Cagayan Valley)","id":"barangay-0205010024","name":"Balete","barangayCode":"0205010024","population":null,"formattedPop":null,"densityCategory":"No data","vulnerabilityRating":"No data","healthRiskLevel":"No data","areaKm2":38.901227,"centerLat":16.567135,"centerLng":120.936153,"geometrySource":"all_barangay-2.csv detailed WKT","geometryMatchMethod":"unique_official_admin_names","boundaryPointCount":6},"geometry":{"type":"MultiPolygon","coordinates":[[[[120.981163,16.610359],[120.987183,16.55471],[120.953568,16.539141],[120.898308,16.559401],[120.905243,16.595869],[120.981163,16.610359]]]]}},{"type":"Feature","properties":{"ID_0":177,"ISO":"PHL","NAME_0":"Philippines","ID_1":2050,"NAME_1":"Nueva Vizcaya","ID_2":205010,"NAME_2":"Kayapa","ID_3":205010025,"NAME_3":"Buyasyas","NL_NAME_3":null,"VARNAME_3":null,"TYPE_3":"Barangay","ENGTYPE_3":"Village","PROVINCE":"Nueva Vizcaya","REGION":"Region II (Cagayan Valley)","id":"barangay-0205010025","name":"Buyasyas","barangayCode":"0205010025","population":null,"formattedPop":null,"densityCategory":"No data","vulnerabilityRating":"No data","healthRiskLevel":"No data","areaKm2":24.371357,"centerLat":16.272096,"centerLng":120.919135,"geometrySource":"all_barangay-2.csv detailed WKT","geometryMatchMethod":"unique_official_admin_names","boundaryPointCount":12},"geometry":{"type":"MultiPolygon","coordinates":[[[[120.966019,16.32391],[120.9664,16.321301],[120.967247,16.318359],[120.966652,16.316839],[120.965332,16.31665],[120.964157,16.31674],[120.963226,16.316481],[120.927322,16.285959],[120.910431,16.29649],[120.939484,16.31249],[120.958366,16.321239],[120.966019,16.32391]]]]}},{"type":"Feature","properties":{"ID_0":177,"ISO":"PHL","NAME_0":"Philippines","ID_1":2050,"NAME_1":"Nueva Vizcaya","ID_2":205010,"NAME_2":"Kayapa","ID_3":205010026,"NAME_3":"Cabayo","NL_NAME_3":null,"VARNAME_3":null,"TYPE_3":"Barangay","ENGTYPE_3":"Village","PROVINCE":"Nueva Vizcaya","REGION":"Region II (Cagayan Valley)","id":"barangay-0205010026","name":"Cabayo","barangayCode":"0205010026","population":null,"formattedPop":null,"densityCategory":"No data","vulnerabilityRating":"No data","healthRiskLevel":"No data","areaKm2":55.51762,"centerLat":16.508691,"centerLng":120.911332,"geometrySource":"all_barangay-2.csv detailed WKT","geometryMatchMethod":"unique_official_admin_names","boundaryPointCount":12},"geometry":{"type":"MultiPolygon","coordinates":[[[[120.892807,16.558969],[120.905243,16.595869],[120.898308,16.559401],[120.953568,16.539141],[120.955658,16.52655],[120.940033,16.50592],[120.923752,16.48263],[120.891319,16.435209],[120.884193,16.49943],[120.883774,16.50596],[120.886711,16.519791],[120.892807,16.558969]]]]}},{"type":"Feature","properties":{"ID_0":177,"ISO":"PHL","NAME_0":"Philippines","ID_1":2050,"NAME_1":"Nueva Vizcaya","ID_2":205010,"NAME_2":"Kayapa","ID_3":205010027,"NAME_3":"Castillo Village","NL_NAME_3":null,"VARNAME_3":null,"TYPE_3":"Barangay","ENGTYPE_3":"Village","PROVINCE":"Nueva Vizcaya","REGION":"Region II (Cagayan Valley)","id":"barangay-0205010027","name":"Castillo Village","barangayCode":"0205010027","population":null,"formattedPop":null,"densityCategory":"No data","vulnerabilityRating":"No data","healthRiskLevel":"No data","areaKm2":5.263603,"centerLat":16.36163,"centerLng":120.903854,"geometrySource":"all_barangay-2.csv detailed WKT","geometryMatchMethod":"unique_official_admin_names","boundaryPointCount":10},"geometry":{"type":"MultiPolygon","coordinates":[[[[120.922318,16.40106],[120.931396,16.372971],[120.921341,16.365891],[120.922783,16.35836],[120.900543,16.35371],[120.899803,16.34766],[120.888817,16.34812],[120.898323,16.36622],[120.914627,16.390829],[120.922318,16.40106]]]]}},{"type":"Feature","properties":{"ID_0":177,"ISO":"PHL","NAME_0":"Philippines","ID_1":2050,"NAME_1":"Nueva Vizcaya","ID_2":205010,"NAME_2":"Kayapa","ID_3":205010028,"NAME_3":"Latbang","NL_NAME_3":null,"VARNAME_3":null,"TYPE_3":"Barangay","ENGTYPE_3":"Village","PROVINCE":"Nueva Vizcaya","REGION":"Region II (Cagayan Valley)","id":"barangay-0205010028","name":"Latbang","barangayCode":"0205010028","population":null,"formattedPop":null,"densityCategory":"No data","vulnerabilityRating":"No data","healthRiskLevel":"No data","areaKm2":35.617456,"centerLat":16.510073,"centerLng":120.963598,"geometrySource":"all_barangay-2.csv detailed WKT","geometryMatchMethod":"unique_official_admin_names","boundaryPointCount":8},"geometry":{"type":"MultiPolygon","coordinates":[[[[120.953568,16.539141],[120.987183,16.55471],[120.99321,16.523239],[120.994072,16.497931],[120.980438,16.492689],[120.940033,16.50592],[120.955658,16.52655],[120.953568,16.539141]]]]}},{"type":"Feature","properties":{"ID_0":177,"ISO":"PHL","NAME_0":"Philippines","ID_1":2050,"NAME_1":"Nueva Vizcaya","ID_2":205010,"NAME_2":"Kayapa","ID_3":205010029,"NAME_3":"Lawigan","NL_NAME_3":null,"VARNAME_3":null,"TYPE_3":"Barangay","ENGTYPE_3":"Village","PROVINCE":"Nueva Vizcaya","REGION":"Region II (Cagayan Valley)","id":"barangay-0205010029","name":"Lawigan","barangayCode":"0205010029","population":null,"formattedPop":null,"densityCategory":"No data","vulnerabilityRating":"No data","healthRiskLevel":"No data","areaKm2":25.957111,"centerLat":16.27677,"centerLng":120.815215,"geometrySource":"all_barangay-2.csv detailed WKT","geometryMatchMethod":"unique_official_admin_names","boundaryPointCount":6},"geometry":{"type":"MultiPolygon","coordinates":[[[[120.840843,16.306561],[120.838814,16.2516],[120.785294,16.258169],[120.764938,16.25386],[120.799141,16.311689],[120.840843,16.306561]]]]}},{"type":"Feature","properties":{"ID_0":177,"ISO":"PHL","NAME_0":"Philippines","ID_1":2050,"NAME_1":"Nueva Vizcaya","ID_2":205010,"NAME_2":"Kayapa","ID_3":205010030,"NAME_3":"Tidang Village","NL_NAME_3":null,"VARNAME_3":null,"TYPE_3":"Barangay","ENGTYPE_3":"Village","PROVINCE":"Nueva Vizcaya","REGION":"Region II (Cagayan Valley)","id":"barangay-0205010030","name":"Tidang Village","barangayCode":"0205010030","population":null,"formattedPop":null,"densityCategory":"No data","vulnerabilityRating":"No data","healthRiskLevel":"No data","areaKm2":11.878446,"centerLat":16.342581,"centerLng":120.918014,"geometrySource":"all_barangay-2.csv detailed WKT","geometryMatchMethod":"unique_official_admin_names","boundaryPointCount":13},"geometry":{"type":"MultiPolygon","coordinates":[[[[120.899803,16.34766],[120.900543,16.35371],[120.922783,16.35836],[120.925346,16.354719],[120.929176,16.349751],[120.933723,16.34676],[120.938011,16.34593],[120.942993,16.34572],[120.943558,16.345659],[120.947151,16.3463],[120.943352,16.33683],[120.899139,16.328449],[120.899803,16.34766]]]]}}]}
