{"type":"FeatureCollection","features":[{"type":"Feature","properties":{"ID_0":177,"ISO":"PHL","NAME_0":"Philippines","ID_1":3049,"NAME_1":"Nueva Ecija","ID_2":304907,"NAME_2":"Gabaldon (Bitulok & Sabani)","ID_3":304907001,"NAME_3":"Bagong Sikat","NL_NAME_3":null,"VARNAME_3":null,"TYPE_3":"Barangay","ENGTYPE_3":"Village","PROVINCE":"Nueva Ecija","REGION":"Region III (Central Luzon)","id":"barangay-0304907001","name":"Bagong Sikat","barangayCode":"0304907001","population":null,"formattedPop":null,"densityCategory":"No data","vulnerabilityRating":"No data","healthRiskLevel":"No data","areaKm2":6.614319,"centerLat":15.488333,"centerLng":121.303815,"geometrySource":"all_barangay-2.csv detailed WKT","geometryMatchMethod":"psgc_coordinate_bridge","boundaryPointCount":32},"geometry":{"type":"MultiPolygon","coordinates":[[[[121.313911,15.48218],[121.314339,15.47353],[121.314072,15.46259],[121.313362,15.45197],[121.310242,15.4514],[121.30555,15.45077],[121.303574,15.45055],[121.299812,15.45105],[121.297836,15.45136],[121.293243,15.45147],[121.292122,15.45146],[121.290703,15.45103],[121.289223,15.45382],[121.287903,15.45551],[121.286842,15.45843],[121.286919,15.46233],[121.287811,15.46608],[121.288788,15.46903],[121.289467,15.47057],[121.290733,15.47361],[121.291023,15.47434],[121.291389,15.47497],[121.293427,15.47767],[121.294609,15.47925],[121.295273,15.48],[121.295982,15.48107],[121.296341,15.48159],[121.297974,15.48247],[121.300484,15.48286],[121.30442,15.48294],[121.312607,15.4823],[121.313911,15.48218]]]]}},{"type":"Feature","properties":{"ID_0":177,"ISO":"PHL","NAME_0":"Philippines","ID_1":3049,"NAME_1":"Nueva Ecija","ID_2":304907,"NAME_2":"Gabaldon (Bitulok & Sabani)","ID_3":304907002,"NAME_3":"Bagting","NL_NAME_3":null,"VARNAME_3":null,"TYPE_3":"Barangay","ENGTYPE_3":"Village","PROVINCE":"Nueva Ecija","REGION":"Region III (Central Luzon)","id":"barangay-0304907002","name":"Bagting","barangayCode":"0304907002","population":null,"formattedPop":null,"densityCategory":"No data","vulnerabilityRating":"No data","healthRiskLevel":"No data","areaKm2":82.028245,"centerLat":15.57196,"centerLng":121.279192,"geometrySource":"all_barangay-2.csv detailed WKT","geometryMatchMethod":"psgc_coordinate_bridge","boundaryPointCount":73},"geometry":{"type":"MultiPolygon","coordinates":[[[[121.228577,15.55647],[121.229362,15.55611],[121.229736,15.55581],[121.230583,15.55511],[121.23204,15.55371],[121.232986,15.5528],[121.234573,15.55165],[121.235741,15.55119],[121.236259,15.55074],[121.236877,15.5503],[121.237801,15.54966],[121.238647,15.54905],[121.239983,15.54877],[121.241226,15.54865],[121.243057,15.54731],[121.2444,15.54641],[121.245247,15.5457],[121.246643,15.54498],[121.247452,15.54445],[121.248863,15.54385],[121.250473,15.5428],[121.251701,15.54223],[121.252441,15.54173],[121.253189,15.54092],[121.254402,15.5394],[121.255592,15.53794],[121.255341,15.53711],[121.255623,15.53644],[121.255966,15.53583],[121.256416,15.53531],[121.25705,15.5347],[121.257988,15.5345],[121.258423,15.53443],[121.259392,15.53455],[121.260132,15.53331],[121.260872,15.5322],[121.262833,15.53114],[121.264641,15.53081],[121.265907,15.53068],[121.266281,15.52983],[121.266533,15.52941],[121.267601,15.52828],[121.268341,15.52768],[121.269753,15.52749],[121.27063,15.52731],[121.27121,15.52738],[121.271797,15.52656],[121.272057,15.5247],[121.272438,15.52085],[121.272903,15.51891],[121.272377,15.51624],[121.272636,15.51372],[121.272751,15.51123],[121.273392,15.50956],[121.27417,15.50916],[121.275002,15.50829],[121.275726,15.50748],[121.27652,15.50566],[121.27684,15.50458],[121.277107,15.50354],[121.27758,15.50219],[121.279556,15.50143],[121.220428,15.47591],[121.215393,15.49209],[121.210823,15.50034],[121.206703,15.50866],[121.197449,15.52707],[121.192719,15.53682],[121.199028,15.54048],[121.204727,15.54355],[121.215851,15.54931],[121.218964,15.55104],[121.228577,15.55647]]]]}},{"type":"Feature","properties":{"ID_0":177,"ISO":"PHL","NAME_0":"Philippines","ID_1":3049,"NAME_1":"Nueva Ecija","ID_2":304907,"NAME_2":"Gabaldon (Bitulok & Sabani)","ID_3":304907003,"NAME_3":"Bantug","NL_NAME_3":null,"VARNAME_3":null,"TYPE_3":"Barangay","ENGTYPE_3":"Village","PROVINCE":"Nueva Ecija","REGION":"Region III (Central Luzon)","id":"barangay-0304907003","name":"Bantug","barangayCode":"0304907003","population":null,"formattedPop":null,"densityCategory":"No data","vulnerabilityRating":"No data","healthRiskLevel":"No data","areaKm2":19.69977,"centerLat":15.425799,"centerLng":121.30089,"geometrySource":"all_barangay-2.csv detailed WKT","geometryMatchMethod":"psgc_coordinate_bridge","boundaryPointCount":17},"geometry":{"type":"MultiPolygon","coordinates":[[[[121.341988,15.45201],[121.341118,15.44548],[121.3311,15.44078],[121.29084,15.44674],[121.290787,15.44903],[121.29084,15.44926],[121.290703,15.45103],[121.292122,15.45146],[121.293243,15.45147],[121.297836,15.45136],[121.299812,15.45105],[121.303574,15.45055],[121.30555,15.45077],[121.310242,15.4514],[121.313362,15.45197],[121.323624,15.45235],[121.341988,15.45201]]]]}},{"type":"Feature","properties":{"ID_0":177,"ISO":"PHL","NAME_0":"Philippines","ID_1":3049,"NAME_1":"Nueva Ecija","ID_2":304907,"NAME_2":"Gabaldon (Bitulok & Sabani)","ID_3":304907004,"NAME_3":"Bitulok","NL_NAME_3":null,"VARNAME_3":null,"TYPE_3":"Barangay","ENGTYPE_3":"Village","PROVINCE":"Nueva Ecija","REGION":"Region III (Central Luzon)","id":"barangay-0304907004","name":"Bitulok","barangayCode":"0304907004","population":null,"formattedPop":null,"densityCategory":"No data","vulnerabilityRating":"No data","healthRiskLevel":"No data","areaKm2":1.458462,"centerLat":15.456817,"centerLng":121.335846,"geometrySource":"all_barangay-2.csv detailed WKT","geometryMatchMethod":"psgc_coordinate_bridge","boundaryPointCount":19},"geometry":{"type":"MultiPolygon","coordinates":[[[[121.337486,15.46097],[121.343941,15.46072],[121.342407,15.45492],[121.340363,15.45511],[121.339302,15.45532],[121.337593,15.45542],[121.336456,15.45578],[121.334167,15.4555],[121.332649,15.45524],[121.332474,15.4552],[121.332108,15.45531],[121.331177,15.45552],[121.329689,15.45628],[121.328644,15.45758],[121.327469,15.45911],[121.32634,15.46025],[121.325661,15.46087],[121.325569,15.46153],[121.337486,15.46097]]]]}},{"type":"Feature","properties":{"ID_0":177,"ISO":"PHL","NAME_0":"Philippines","ID_1":3049,"NAME_1":"Nueva Ecija","ID_2":304907,"NAME_2":"Gabaldon (Bitulok & Sabani)","ID_3":304907005,"NAME_3":"Bugnan","NL_NAME_3":null,"VARNAME_3":null,"TYPE_3":"Barangay","ENGTYPE_3":"Village","PROVINCE":"Nueva Ecija","REGION":"Region III (Central Luzon)","id":"barangay-0304907005","name":"Bugnan","barangayCode":"0304907005","population":null,"formattedPop":null,"densityCategory":"No data","vulnerabilityRating":"No data","healthRiskLevel":"No data","areaKm2":57.969503,"centerLat":15.459307,"centerLng":121.231405,"geometrySource":"all_barangay-2.csv detailed WKT","geometryMatchMethod":"psgc_coordinate_bridge","boundaryPointCount":44},"geometry":{"type":"MultiPolygon","coordinates":[[[[121.296341,15.48159],[121.295982,15.48107],[121.295273,15.48],[121.294609,15.47925],[121.293427,15.47767],[121.291389,15.47497],[121.291023,15.47434],[121.290733,15.47361],[121.289467,15.47057],[121.288788,15.46903],[121.287811,15.46608],[121.286919,15.46233],[121.286842,15.45843],[121.287903,15.45551],[121.289223,15.45382],[121.290703,15.45103],[121.29084,15.44926],[121.290787,15.44903],[121.29084,15.44674],[121.277924,15.44883],[121.250343,15.44885],[121.228333,15.44928],[121.220428,15.47591],[121.279556,15.50143],[121.27887,15.50089],[121.277878,15.49937],[121.277298,15.49855],[121.276688,15.49692],[121.277107,15.49623],[121.278053,15.49666],[121.279091,15.49722],[121.280899,15.49714],[121.281754,15.49648],[121.281479,15.4953],[121.281487,15.49357],[121.282837,15.49226],[121.284782,15.49214],[121.28743,15.49037],[121.287819,15.48819],[121.289047,15.4852],[121.289391,15.48322],[121.290367,15.48194],[121.292709,15.48156],[121.296341,15.48159]]]]}},{"type":"Feature","properties":{"ID_0":177,"ISO":"PHL","NAME_0":"Philippines","ID_1":3049,"NAME_1":"Nueva Ecija","ID_2":304907,"NAME_2":"Gabaldon (Bitulok & Sabani)","ID_3":304907006,"NAME_3":"Calabasa","NL_NAME_3":null,"VARNAME_3":null,"TYPE_3":"Barangay","ENGTYPE_3":"Village","PROVINCE":"Nueva Ecija","REGION":"Region III (Central Luzon)","id":"barangay-0304907006","name":"Calabasa","barangayCode":"0304907006","population":null,"formattedPop":null,"densityCategory":"No data","vulnerabilityRating":"No data","healthRiskLevel":"No data","areaKm2":39.733006,"centerLat":15.53587,"centerLng":121.283275,"geometrySource":"all_barangay-2.csv detailed WKT","geometryMatchMethod":"psgc_coordinate_bridge","boundaryPointCount":72},"geometry":{"type":"MultiPolygon","coordinates":[[[[121.331978,15.61572],[121.357468,15.55146],[121.363136,15.53329],[121.338531,15.52089],[121.329247,15.5183],[121.326347,15.5155],[121.326263,15.515508],[121.322708,15.51586],[121.316002,15.51627],[121.307137,15.51667],[121.300499,15.51703],[121.291168,15.51753],[121.285049,15.5182],[121.279182,15.51866],[121.272903,15.51891],[121.272438,15.52085],[121.272057,15.5247],[121.271797,15.52656],[121.27121,15.52738],[121.27063,15.52731],[121.269753,15.52749],[121.268341,15.52768],[121.267601,15.52828],[121.266533,15.52941],[121.266281,15.52983],[121.265907,15.53068],[121.264641,15.53081],[121.262833,15.53114],[121.260872,15.5322],[121.260132,15.53331],[121.259392,15.53455],[121.258423,15.53443],[121.257988,15.5345],[121.25705,15.5347],[121.256416,15.53531],[121.255966,15.53583],[121.255623,15.53644],[121.255341,15.53711],[121.255592,15.53794],[121.254402,15.5394],[121.253189,15.54092],[121.252441,15.54173],[121.251701,15.54223],[121.250473,15.5428],[121.248863,15.54385],[121.247452,15.54445],[121.246643,15.54498],[121.245247,15.5457],[121.2444,15.54641],[121.243057,15.54731],[121.241226,15.54865],[121.239983,15.54877],[121.238647,15.54905],[121.237801,15.54966],[121.236877,15.5503],[121.236259,15.55074],[121.235741,15.55119],[121.234573,15.55165],[121.232986,15.5528],[121.23204,15.55371],[121.230583,15.55511],[121.229736,15.55581],[121.229362,15.55611],[121.228577,15.55647],[121.229843,15.55714],[121.241333,15.57128],[121.243202,15.57378],[121.252769,15.58533],[121.25489,15.58829],[121.253471,15.59547],[121.261497,15.59764],[121.331978,15.61572]]]]}},{"type":"Feature","properties":{"ID_0":177,"ISO":"PHL","NAME_0":"Philippines","ID_1":3049,"NAME_1":"Nueva Ecija","ID_2":304907,"NAME_2":"Gabaldon (Bitulok & Sabani)","ID_3":304907007,"NAME_3":"Camachile","NL_NAME_3":null,"VARNAME_3":null,"TYPE_3":"Barangay","ENGTYPE_3":"Village","PROVINCE":"Nueva Ecija","REGION":"Region III (Central Luzon)","id":"barangay-0304907007","name":"Camachile","barangayCode":"0304907007","population":null,"formattedPop":null,"densityCategory":"No data","vulnerabilityRating":"No data","healthRiskLevel":"No data","areaKm2":32.057066,"centerLat":15.442207,"centerLng":121.275645,"geometrySource":"all_barangay-2.csv detailed WKT","geometryMatchMethod":"psgc_coordinate_bridge","boundaryPointCount":16},"geometry":{"type":"MultiPolygon","coordinates":[[[[121.325569,15.46153],[121.325661,15.46087],[121.32634,15.46025],[121.327469,15.45911],[121.328644,15.45758],[121.329689,15.45628],[121.327263,15.45647],[121.326714,15.45597],[121.326042,15.45577],[121.324921,15.45568],[121.323936,15.45439],[121.323837,15.4533],[121.323624,15.45235],[121.313362,15.45197],[121.314072,15.46259],[121.325569,15.46153]]]]}},{"type":"Feature","properties":{"ID_0":177,"ISO":"PHL","NAME_0":"Philippines","ID_1":3049,"NAME_1":"Nueva Ecija","ID_2":304907,"NAME_2":"Gabaldon (Bitulok & Sabani)","ID_3":304907008,"NAME_3":"Cuyapa","NL_NAME_3":null,"VARNAME_3":null,"TYPE_3":"Barangay","ENGTYPE_3":"Village","PROVINCE":"Nueva Ecija","REGION":"Region III (Central Luzon)","id":"barangay-0304907008","name":"Cuyapa","barangayCode":"0304907008","population":null,"formattedPop":null,"densityCategory":"No data","vulnerabilityRating":"No data","healthRiskLevel":"No data","areaKm2":18.539288,"centerLat":15.421262,"centerLng":121.336006,"geometrySource":"all_barangay-2.csv detailed WKT","geometryMatchMethod":"psgc_coordinate_bridge","boundaryPointCount":6},"geometry":{"type":"MultiPolygon","coordinates":[[[[121.353523,15.44525],[121.354286,15.43858],[121.347366,15.43879],[121.3311,15.44078],[121.341118,15.44548],[121.353523,15.44525]]]]}},{"type":"Feature","properties":{"ID_0":177,"ISO":"PHL","NAME_0":"Philippines","ID_1":3049,"NAME_1":"Nueva Ecija","ID_2":304907,"NAME_2":"Gabaldon (Bitulok & Sabani)","ID_3":304907009,"NAME_3":"Ligaya","NL_NAME_3":null,"VARNAME_3":null,"TYPE_3":"Barangay","ENGTYPE_3":"Village","PROVINCE":"Nueva Ecija","REGION":"Region III (Central Luzon)","id":"barangay-0304907009","name":"Ligaya","barangayCode":"0304907009","population":null,"formattedPop":null,"densityCategory":"No data","vulnerabilityRating":"No data","healthRiskLevel":"No data","areaKm2":63.035918,"centerLat":15.508674,"centerLng":121.282599,"geometrySource":"all_barangay-2.csv detailed WKT","geometryMatchMethod":"psgc_coordinate_bridge","boundaryPointCount":66},"geometry":{"type":"MultiPolygon","coordinates":[[[[121.326263,15.515508],[121.326233,15.51453],[121.325722,15.51324],[121.325104,15.51199],[121.325684,15.5109],[121.326523,15.50922],[121.325638,15.50675],[121.325218,15.50525],[121.325233,15.50252],[121.324631,15.50121],[121.322678,15.50102],[121.319794,15.50118],[121.317978,15.50173],[121.317123,15.50203],[121.316238,15.50235],[121.313782,15.50318],[121.312424,15.50364],[121.31044,15.50352],[121.30957,15.50241],[121.308632,15.50153],[121.308067,15.5008],[121.306732,15.4998],[121.305573,15.49923],[121.304764,15.49863],[121.30452,15.49798],[121.304024,15.49736],[121.302689,15.49703],[121.30143,15.49722],[121.299088,15.49781],[121.298424,15.49777],[121.297493,15.49779],[121.296532,15.5004],[121.295532,15.50097],[121.293938,15.50118],[121.293289,15.50104],[121.291924,15.4997],[121.290283,15.49767],[121.289108,15.4962],[121.287537,15.49532],[121.286057,15.4956],[121.285072,15.49638],[121.284767,15.49703],[121.284142,15.49894],[121.283493,15.50019],[121.282494,15.50088],[121.279556,15.50143],[121.27758,15.50219],[121.277107,15.50354],[121.27684,15.50458],[121.27652,15.50566],[121.275726,15.50748],[121.275002,15.50829],[121.27417,15.50916],[121.273392,15.50956],[121.272751,15.51123],[121.272636,15.51372],[121.272377,15.51624],[121.272903,15.51891],[121.279182,15.51866],[121.285049,15.5182],[121.291168,15.51753],[121.300499,15.51703],[121.307137,15.51667],[121.316002,15.51627],[121.322708,15.51586],[121.326263,15.515508]]]]}},{"type":"Feature","properties":{"ID_0":177,"ISO":"PHL","NAME_0":"Philippines","ID_1":3049,"NAME_1":"Nueva Ecija","ID_2":304907,"NAME_2":"Gabaldon (Bitulok & Sabani)","ID_3":304907010,"NAME_3":"Macasandal","NL_NAME_3":null,"VARNAME_3":null,"TYPE_3":"Barangay","ENGTYPE_3":"Village","PROVINCE":"Nueva Ecija","REGION":"Region III (Central Luzon)","id":"barangay-0304907010","name":"Macasandal","barangayCode":"0304907010","population":null,"formattedPop":null,"densityCategory":"No data","vulnerabilityRating":"No data","healthRiskLevel":"No data","areaKm2":4.559293,"centerLat":15.463893,"centerLng":121.358518,"geometrySource":"all_barangay-2.csv detailed WKT","geometryMatchMethod":"psgc_coordinate_bridge","boundaryPointCount":6},"geometry":{"type":"MultiPolygon","coordinates":[[[[121.314339,15.47353],[121.33326,15.47372],[121.337486,15.46097],[121.325569,15.46153],[121.314072,15.46259],[121.314339,15.47353]]]]}},{"type":"Feature","properties":{"ID_0":177,"ISO":"PHL","NAME_0":"Philippines","ID_1":3049,"NAME_1":"Nueva Ecija","ID_2":304907,"NAME_2":"Gabaldon (Bitulok & Sabani)","ID_3":304907011,"NAME_3":"Malinao","NL_NAME_3":null,"VARNAME_3":null,"TYPE_3":"Barangay","ENGTYPE_3":"Village","PROVINCE":"Nueva Ecija","REGION":"Region III (Central Luzon)","id":"barangay-0304907011","name":"Malinao","barangayCode":"0304907011","population":null,"formattedPop":null,"densityCategory":"No data","vulnerabilityRating":"No data","healthRiskLevel":"No data","areaKm2":17.204298,"centerLat":15.497193,"centerLng":121.349999,"geometrySource":"all_barangay-2.csv detailed WKT","geometryMatchMethod":"psgc_coordinate_bridge","boundaryPointCount":17},"geometry":{"type":"MultiPolygon","coordinates":[[[[121.376091,15.48386],[121.376213,15.48357],[121.37394,15.47496],[121.33326,15.47372],[121.314339,15.47353],[121.313911,15.48218],[121.318314,15.48178],[121.323257,15.48232],[121.325203,15.48323],[121.32785,15.48445],[121.333923,15.48704],[121.337799,15.48819],[121.34185,15.48875],[121.356842,15.49024],[121.370796,15.49153],[121.372849,15.49197],[121.376091,15.48386]]]]}},{"type":"Feature","properties":{"ID_0":177,"ISO":"PHL","NAME_0":"Philippines","ID_1":3049,"NAME_1":"Nueva Ecija","ID_2":304907,"NAME_2":"Gabaldon (Bitulok & Sabani)","ID_3":304907012,"NAME_3":"Pantoc","NL_NAME_3":null,"VARNAME_3":null,"TYPE_3":"Barangay","ENGTYPE_3":"Village","PROVINCE":"Nueva Ecija","REGION":"Region III (Central Luzon)","id":"barangay-0304907012","name":"Pantoc","barangayCode":"0304907012","population":null,"formattedPop":null,"densityCategory":"No data","vulnerabilityRating":"No data","healthRiskLevel":"No data","areaKm2":8.058896,"centerLat":15.474997,"centerLng":121.354595,"geometrySource":"all_barangay-2.csv detailed WKT","geometryMatchMethod":"psgc_coordinate_bridge","boundaryPointCount":6},"geometry":{"type":"MultiPolygon","coordinates":[[[[121.33326,15.47372],[121.37394,15.47496],[121.370903,15.46182],[121.343941,15.46072],[121.337486,15.46097],[121.33326,15.47372]]]]}},{"type":"Feature","properties":{"ID_0":177,"ISO":"PHL","NAME_0":"Philippines","ID_1":3049,"NAME_1":"Nueva Ecija","ID_2":304907,"NAME_2":"Gabaldon (Bitulok & Sabani)","ID_3":304907013,"NAME_3":"Pinamalisan","NL_NAME_3":null,"VARNAME_3":null,"TYPE_3":"Barangay","ENGTYPE_3":"Village","PROVINCE":"Nueva Ecija","REGION":"Region III (Central Luzon)","id":"barangay-0304907013","name":"Pinamalisan","barangayCode":"0304907013","population":null,"formattedPop":null,"densityCategory":"No data","vulnerabilityRating":"No data","healthRiskLevel":"No data","areaKm2":7.19402,"centerLat":15.413805,"centerLng":121.352474,"geometrySource":"all_barangay-2.csv detailed WKT","geometryMatchMethod":"psgc_coordinate_bridge","boundaryPointCount":5},"geometry":{"type":"MultiPolygon","coordinates":[[[[121.366928,15.44499],[121.366127,15.43815],[121.354286,15.43858],[121.353523,15.44525],[121.366928,15.44499]]]]}},{"type":"Feature","properties":{"ID_0":177,"ISO":"PHL","NAME_0":"Philippines","ID_1":3049,"NAME_1":"Nueva Ecija","ID_2":304907,"NAME_2":"Gabaldon (Bitulok & Sabani)","ID_3":304907014,"NAME_3":"South Poblacion","NL_NAME_3":null,"VARNAME_3":null,"TYPE_3":"Barangay","ENGTYPE_3":"Village","PROVINCE":"Nueva Ecija","REGION":"Region III (Central Luzon)","id":"barangay-0304907014","name":"South Poblacion","barangayCode":"0304907014","population":null,"formattedPop":null,"densityCategory":"No data","vulnerabilityRating":"No data","healthRiskLevel":"No data","areaKm2":0.806198,"centerLat":15.450061,"centerLng":121.33835,"geometrySource":"all_barangay-2.csv detailed WKT","geometryMatchMethod":"psgc_coordinate_bridge","boundaryPointCount":20},"geometry":{"type":"MultiPolygon","coordinates":[[[[121.342407,15.45492],[121.341988,15.45201],[121.323624,15.45235],[121.323837,15.4533],[121.323936,15.45439],[121.324921,15.45568],[121.326042,15.45577],[121.326714,15.45597],[121.327263,15.45647],[121.329689,15.45628],[121.331177,15.45552],[121.332108,15.45531],[121.332474,15.4552],[121.332649,15.45524],[121.334167,15.4555],[121.336456,15.45578],[121.337593,15.45542],[121.339302,15.45532],[121.340363,15.45511],[121.342407,15.45492]]]]}},{"type":"Feature","properties":{"ID_0":177,"ISO":"PHL","NAME_0":"Philippines","ID_1":3049,"NAME_1":"Nueva Ecija","ID_2":304907,"NAME_2":"Gabaldon (Bitulok & Sabani)","ID_3":304907015,"NAME_3":"Sawmill","NL_NAME_3":null,"VARNAME_3":null,"TYPE_3":"Barangay","ENGTYPE_3":"Village","PROVINCE":"Nueva Ecija","REGION":"Region III (Central Luzon)","id":"barangay-0304907015","name":"Sawmill","barangayCode":"0304907015","population":null,"formattedPop":null,"densityCategory":"No data","vulnerabilityRating":"No data","healthRiskLevel":"No data","areaKm2":2.714711,"centerLat":15.452496,"centerLng":121.355794,"geometrySource":"all_barangay-2.csv detailed WKT","geometryMatchMethod":"psgc_coordinate_bridge","boundaryPointCount":8},"geometry":{"type":"MultiPolygon","coordinates":[[[[121.343941,15.46072],[121.370903,15.46182],[121.366928,15.44499],[121.353523,15.44525],[121.341118,15.44548],[121.341988,15.45201],[121.342407,15.45492],[121.343941,15.46072]]]]}},{"type":"Feature","properties":{"ID_0":177,"ISO":"PHL","NAME_0":"Philippines","ID_1":3049,"NAME_1":"Nueva Ecija","ID_2":304907,"NAME_2":"Gabaldon (Bitulok & Sabani)","ID_3":304907016,"NAME_3":"Tagumpay","NL_NAME_3":null,"VARNAME_3":null,"TYPE_3":"Barangay","ENGTYPE_3":"Village","PROVINCE":"Nueva Ecija","REGION":"Region III (Central Luzon)","id":"barangay-0304907016","name":"Tagumpay","barangayCode":"0304907016","population":null,"formattedPop":null,"densityCategory":"No data","vulnerabilityRating":"No data","healthRiskLevel":"No data","areaKm2":5.831896,"centerLat":15.480081,"centerLng":121.321245,"geometrySource":"all_barangay-2.csv detailed WKT","geometryMatchMethod":"psgc_coordinate_bridge","boundaryPointCount":86},"geometry":{"type":"MultiPolygon","coordinates":[[[[121.326263,15.515508],[121.326347,15.5155],[121.329247,15.5183],[121.338531,15.52089],[121.363136,15.53329],[121.372849,15.49197],[121.370796,15.49153],[121.356842,15.49024],[121.34185,15.48875],[121.337799,15.48819],[121.333923,15.48704],[121.32785,15.48445],[121.325203,15.48323],[121.323257,15.48232],[121.318314,15.48178],[121.313911,15.48218],[121.312607,15.4823],[121.30442,15.48294],[121.300484,15.48286],[121.297974,15.48247],[121.296341,15.48159],[121.292709,15.48156],[121.290367,15.48194],[121.289391,15.48322],[121.289047,15.4852],[121.287819,15.48819],[121.28743,15.49037],[121.284782,15.49214],[121.282837,15.49226],[121.281487,15.49357],[121.281479,15.4953],[121.281754,15.49648],[121.280899,15.49714],[121.279091,15.49722],[121.278053,15.49666],[121.277107,15.49623],[121.276688,15.49692],[121.277298,15.49855],[121.277878,15.49937],[121.27887,15.50089],[121.279556,15.50143],[121.282494,15.50088],[121.283493,15.50019],[121.284142,15.49894],[121.284767,15.49703],[121.285072,15.49638],[121.286057,15.4956],[121.287537,15.49532],[121.289108,15.4962],[121.290283,15.49767],[121.291924,15.4997],[121.293289,15.50104],[121.293938,15.50118],[121.295532,15.50097],[121.296532,15.5004],[121.297493,15.49779],[121.298424,15.49777],[121.299088,15.49781],[121.30143,15.49722],[121.302689,15.49703],[121.304024,15.49736],[121.30452,15.49798],[121.304764,15.49863],[121.305573,15.49923],[121.306732,15.4998],[121.308067,15.5008],[121.308632,15.50153],[121.30957,15.50241],[121.31044,15.50352],[121.312424,15.50364],[121.313782,15.50318],[121.316238,15.50235],[121.317123,15.50203],[121.317978,15.50173],[121.319794,15.50118],[121.322678,15.50102],[121.324631,15.50121],[121.325233,15.50252],[121.325218,15.50525],[121.325638,15.50675],[121.326523,15.50922],[121.325684,15.5109],[121.325104,15.51199],[121.325722,15.51324],[121.326233,15.51453],[121.326263,15.515508]]]]}}]}
