{"type":"FeatureCollection","features":[{"type":"Feature","properties":{"ID_0":177,"ISO":"PHL","NAME_0":"Philippines","ID_1":6030,"NAME_1":"Iloilo","ID_2":603017,"NAME_2":"Dueñas","ID_3":603017001,"NAME_3":"Agutayan","NL_NAME_3":null,"VARNAME_3":null,"TYPE_3":"Barangay","ENGTYPE_3":"Village","PROVINCE":"Iloilo","REGION":"Region VI (Western Visayas)","id":"barangay-0603017001","name":"Agutayan","barangayCode":"0603017001","population":null,"formattedPop":null,"densityCategory":"No data","vulnerabilityRating":"No data","healthRiskLevel":"No data","areaKm2":2.789879,"centerLat":11.050868,"centerLng":122.637071,"geometrySource":"all_barangay-2.csv detailed WKT","geometryMatchMethod":"unique_official_admin_names","boundaryPointCount":74},"geometry":{"type":"MultiPolygon","coordinates":[[[[122.641357,11.05668],[122.646927,11.05531],[122.647003,11.05489],[122.647438,11.05425],[122.648048,11.05326],[122.648392,11.0523],[122.648331,11.05122],[122.64782,11.05023],[122.647057,11.04974],[122.646233,11.04914],[122.64576,11.04861],[122.645508,11.04782],[122.646156,11.04695],[122.646523,11.04622],[122.646584,11.04562],[122.645981,11.04495],[122.644859,11.04543],[122.643341,11.04618],[122.642433,11.04725],[122.642082,11.04856],[122.642212,11.05053],[122.642128,11.05111],[122.64212,11.05169],[122.641083,11.05203],[122.639862,11.05193],[122.639137,11.05142],[122.638733,11.05105],[122.638321,11.05051],[122.638229,11.05],[122.638206,11.04929],[122.638489,11.04841],[122.638359,11.04756],[122.638062,11.04704],[122.637756,11.04693],[122.637177,11.04685],[122.635696,11.04659],[122.634537,11.04553],[122.634277,11.04488],[122.63398,11.04449],[122.633034,11.04442],[122.631363,11.04463],[122.630463,11.0443],[122.6297,11.04404],[122.629051,11.04346],[122.628304,11.04184],[122.627457,11.04436],[122.626984,11.04461],[122.62693,11.04576],[122.627518,11.04657],[122.628464,11.04747],[122.629189,11.04844],[122.63015,11.05026],[122.629913,11.05107],[122.629211,11.05141],[122.629372,11.05205],[122.63044,11.05236],[122.630943,11.05231],[122.631203,11.05225],[122.63163,11.05248],[122.632133,11.05276],[122.633034,11.05347],[122.633202,11.05389],[122.633598,11.05451],[122.633949,11.05514],[122.634247,11.05558],[122.63504,11.05616],[122.635201,11.0563],[122.635719,11.05692],[122.636482,11.05745],[122.636673,11.0575],[122.636978,11.05757],[122.637306,11.05819],[122.637177,11.05851],[122.641357,11.05668]]]]}},{"type":"Feature","properties":{"ID_0":177,"ISO":"PHL","NAME_0":"Philippines","ID_1":6030,"NAME_1":"Iloilo","ID_2":603017,"NAME_2":"Dueñas","ID_3":603017002,"NAME_3":"Angare","NL_NAME_3":null,"VARNAME_3":null,"TYPE_3":"Barangay","ENGTYPE_3":"Village","PROVINCE":"Iloilo","REGION":"Region VI (Western Visayas)","id":"barangay-0603017002","name":"Angare","barangayCode":"0603017002","population":null,"formattedPop":null,"densityCategory":"No data","vulnerabilityRating":"No data","healthRiskLevel":"No data","areaKm2":1.316385,"centerLat":11.064235,"centerLng":122.565666,"geometrySource":"all_barangay-2.csv detailed WKT","geometryMatchMethod":"unique_official_admin_names","boundaryPointCount":44},"geometry":{"type":"MultiPolygon","coordinates":[[[[122.575317,11.06796],[122.573807,11.06864],[122.572731,11.06723],[122.572922,11.06695],[122.57312,11.06666],[122.572998,11.0665],[122.572617,11.06598],[122.572456,11.06592],[122.572372,11.06516],[122.572182,11.06499],[122.571991,11.0649],[122.571457,11.06418],[122.571312,11.06382],[122.570534,11.06326],[122.57019,11.06245],[122.569809,11.06194],[122.569687,11.06164],[122.570007,11.06125],[122.569923,11.06052],[122.569397,11.06035],[122.567833,11.05997],[122.562202,11.06322],[122.562683,11.06407],[122.563133,11.06535],[122.563629,11.06685],[122.563652,11.06738],[122.563766,11.06758],[122.563789,11.06807],[122.564194,11.06814],[122.56559,11.07087],[122.566467,11.07087],[122.567177,11.07115],[122.568268,11.07126],[122.569008,11.07089],[122.569527,11.0705],[122.570511,11.07016],[122.571533,11.07023],[122.572578,11.0706],[122.5737,11.07136],[122.575111,11.07161],[122.575127,11.07133],[122.574806,11.06966],[122.574928,11.0689],[122.575317,11.06796]]]]}},{"type":"Feature","properties":{"ID_0":177,"ISO":"PHL","NAME_0":"Philippines","ID_1":6030,"NAME_1":"Iloilo","ID_2":603017,"NAME_2":"Dueñas","ID_3":603017003,"NAME_3":"Anjawan","NL_NAME_3":null,"VARNAME_3":null,"TYPE_3":"Barangay","ENGTYPE_3":"Village","PROVINCE":"Iloilo","REGION":"Region VI (Western Visayas)","id":"barangay-0603017003","name":"Anjawan","barangayCode":"0603017003","population":null,"formattedPop":null,"densityCategory":"No data","vulnerabilityRating":"No data","healthRiskLevel":"No data","areaKm2":2.724171,"centerLat":11.07531,"centerLng":122.606938,"geometrySource":"all_barangay-2.csv detailed WKT","geometryMatchMethod":"unique_official_admin_names","boundaryPointCount":74},"geometry":{"type":"MultiPolygon","coordinates":[[[[122.598671,11.08637],[122.599258,11.08833],[122.599426,11.08847],[122.599693,11.08819],[122.600052,11.08815],[122.600693,11.08847],[122.601097,11.08836],[122.601921,11.08804],[122.602707,11.08782],[122.603416,11.08769],[122.603897,11.08746],[122.604599,11.08707],[122.605408,11.08715],[122.605949,11.08754],[122.606453,11.08766],[122.606743,11.08722],[122.613327,11.08712],[122.615417,11.07704],[122.614761,11.07687],[122.613853,11.07579],[122.614403,11.07567],[122.614822,11.07563],[122.615738,11.07478],[122.615463,11.07414],[122.615601,11.07384],[122.61544,11.07338],[122.615303,11.07338],[122.614143,11.0727],[122.614143,11.07261],[122.614906,11.07156],[122.614838,11.07158],[122.613533,11.07123],[122.613007,11.07081],[122.60994,11.07022],[122.609459,11.07015],[122.606453,11.06997],[122.606293,11.06951],[122.60289,11.0705],[122.602341,11.07063],[122.601547,11.07056],[122.601242,11.07046],[122.600456,11.07028],[122.600037,11.07011],[122.599869,11.07013],[122.599953,11.07082],[122.599876,11.07135],[122.599564,11.07178],[122.598892,11.07219],[122.598862,11.07228],[122.598717,11.07286],[122.599037,11.07346],[122.59951,11.07406],[122.599823,11.07461],[122.60025,11.07597],[122.600349,11.07604],[122.598846,11.07608],[122.598648,11.07605],[122.59729,11.0762],[122.597313,11.07648],[122.598198,11.07793],[122.598877,11.07872],[122.59967,11.07916],[122.600479,11.0791],[122.600143,11.0813],[122.600517,11.08163],[122.600731,11.08181],[122.600906,11.08257],[122.600327,11.08344],[122.600227,11.08342],[122.599518,11.08325],[122.599403,11.08334],[122.599373,11.08389],[122.599716,11.08415],[122.598671,11.08637]]]]}},{"type":"Feature","properties":{"ID_0":177,"ISO":"PHL","NAME_0":"Philippines","ID_1":6030,"NAME_1":"Iloilo","ID_2":603017,"NAME_2":"Dueñas","ID_3":603017004,"NAME_3":"Baac","NL_NAME_3":null,"VARNAME_3":null,"TYPE_3":"Barangay","ENGTYPE_3":"Village","PROVINCE":"Iloilo","REGION":"Region VI (Western Visayas)","id":"barangay-0603017004","name":"Baac","barangayCode":"0603017004","population":null,"formattedPop":null,"densityCategory":"No data","vulnerabilityRating":"No data","healthRiskLevel":"No data","areaKm2":1.282271,"centerLat":11.047255,"centerLng":122.579625,"geometrySource":"all_barangay-2.csv detailed WKT","geometryMatchMethod":"unique_official_admin_names","boundaryPointCount":32},"geometry":{"type":"MultiPolygon","coordinates":[[[[122.588242,11.05191],[122.592331,11.04365],[122.591003,11.0422],[122.589569,11.04161],[122.58847,11.04119],[122.587639,11.03986],[122.587952,11.03945],[122.588028,11.0388],[122.586723,11.03809],[122.586113,11.03816],[122.585617,11.03839],[122.585068,11.03838],[122.584587,11.03788],[122.584671,11.03703],[122.584862,11.0365],[122.584824,11.03618],[122.584648,11.03602],[122.584244,11.036],[122.583527,11.03648],[122.582878,11.03698],[122.582283,11.03751],[122.580803,11.03852],[122.580528,11.03887],[122.581017,11.04137],[122.579643,11.04245],[122.579803,11.04335],[122.573303,11.04716],[122.57589,11.05201],[122.582237,11.05147],[122.58326,11.05194],[122.583733,11.05226],[122.588242,11.05191]]]]}},{"type":"Feature","properties":{"ID_0":177,"ISO":"PHL","NAME_0":"Philippines","ID_1":6030,"NAME_1":"Iloilo","ID_2":603017,"NAME_2":"Dueñas","ID_3":603017005,"NAME_3":"Bagongbong","NL_NAME_3":null,"VARNAME_3":null,"TYPE_3":"Barangay","ENGTYPE_3":"Village","PROVINCE":"Iloilo","REGION":"Region VI (Western Visayas)","id":"barangay-0603017005","name":"Bagongbong","barangayCode":"0603017005","population":null,"formattedPop":null,"densityCategory":"No data","vulnerabilityRating":"No data","healthRiskLevel":"No data","areaKm2":1.666158,"centerLat":11.089174,"centerLng":122.560937,"geometrySource":"all_barangay-2.csv detailed WKT","geometryMatchMethod":"unique_official_admin_names","boundaryPointCount":15},"geometry":{"type":"MultiPolygon","coordinates":[[[[122.570557,11.0947],[122.56665,11.08604],[122.56105,11.07818],[122.561119,11.07958],[122.56131,11.08101],[122.561234,11.08255],[122.560333,11.0839],[122.559669,11.08425],[122.558594,11.08457],[122.557518,11.08436],[122.5569,11.08415],[122.554642,11.08323],[122.554802,11.09015],[122.560204,11.0942],[122.570557,11.0947]]]]}},{"type":"Feature","properties":{"ID_0":177,"ISO":"PHL","NAME_0":"Philippines","ID_1":6030,"NAME_1":"Iloilo","ID_2":603017,"NAME_2":"Dueñas","ID_3":603017006,"NAME_3":"Balangigan","NL_NAME_3":null,"VARNAME_3":null,"TYPE_3":"Barangay","ENGTYPE_3":"Village","PROVINCE":"Iloilo","REGION":"Region VI (Western Visayas)","id":"barangay-0603017006","name":"Balangigan","barangayCode":"0603017006","population":null,"formattedPop":null,"densityCategory":"No data","vulnerabilityRating":"No data","healthRiskLevel":"No data","areaKm2":2.209629,"centerLat":11.019352,"centerLng":122.564839,"geometrySource":"all_barangay-2.csv detailed WKT","geometryMatchMethod":"unique_official_admin_names","boundaryPointCount":42},"geometry":{"type":"MultiPolygon","coordinates":[[[[122.562027,11.02442],[122.562897,11.02394],[122.56414,11.02392],[122.564781,11.02424],[122.566139,11.02447],[122.566856,11.02433],[122.566978,11.02381],[122.5672,11.02277],[122.567886,11.02229],[122.56871,11.02234],[122.568947,11.02291],[122.570351,11.02243],[122.570793,11.02075],[122.569893,11.02029],[122.571007,11.01889],[122.570557,11.01747],[122.570389,11.01669],[122.570084,11.01503],[122.567627,11.01388],[122.567513,11.01287],[122.566681,11.0125],[122.565262,11.01022],[122.56488,11.01081],[122.564011,11.01101],[122.562912,11.01176],[122.561317,11.01043],[122.560341,11.01059],[122.559593,11.01098],[122.559212,11.01149],[122.558197,11.01159],[122.558403,11.01205],[122.55928,11.01283],[122.558983,11.01353],[122.558449,11.01408],[122.559761,11.01684],[122.559082,11.01975],[122.558182,11.01978],[122.560211,11.02247],[122.560638,11.02261],[122.561111,11.02275],[122.561653,11.02424],[122.562027,11.02442]]]]}},{"type":"Feature","properties":{"ID_0":177,"ISO":"PHL","NAME_0":"Philippines","ID_1":6030,"NAME_1":"Iloilo","ID_2":603017,"NAME_2":"Dueñas","ID_3":603017007,"NAME_3":"Balingasag","NL_NAME_3":null,"VARNAME_3":null,"TYPE_3":"Barangay","ENGTYPE_3":"Village","PROVINCE":"Iloilo","REGION":"Region VI (Western Visayas)","id":"barangay-0603017007","name":"Balingasag","barangayCode":"0603017007","population":null,"formattedPop":null,"densityCategory":"No data","vulnerabilityRating":"No data","healthRiskLevel":"No data","areaKm2":1.255557,"centerLat":11.029385,"centerLng":122.583138,"geometrySource":"all_barangay-2.csv detailed WKT","geometryMatchMethod":"unique_official_admin_names","boundaryPointCount":47},"geometry":{"type":"MultiPolygon","coordinates":[[[[122.578537,11.03489],[122.58036,11.03448],[122.580307,11.03411],[122.580933,11.03381],[122.58609,11.03063],[122.586723,11.0292],[122.587509,11.02872],[122.587593,11.02906],[122.589363,11.0294],[122.589867,11.03014],[122.589867,11.03042],[122.591537,11.03033],[122.591331,11.03003],[122.591583,11.02819],[122.593613,11.02739],[122.592628,11.02665],[122.59227,11.02621],[122.591957,11.02497],[122.59214,11.02396],[122.590553,11.02284],[122.586983,11.0246],[122.58638,11.02513],[122.585648,11.02531],[122.584908,11.0252],[122.584518,11.02518],[122.584229,11.02561],[122.584343,11.02655],[122.584373,11.02671],[122.583794,11.02784],[122.583504,11.02782],[122.582977,11.02759],[122.582176,11.0274],[122.581863,11.02761],[122.581383,11.02791],[122.580383,11.02715],[122.5802,11.02664],[122.580307,11.02653],[122.57859,11.02676],[122.578331,11.02763],[122.577652,11.02892],[122.577538,11.02947],[122.577667,11.03045],[122.577599,11.03144],[122.577744,11.03264],[122.578003,11.03323],[122.578278,11.03399],[122.578537,11.03489]]]]}},{"type":"Feature","properties":{"ID_0":177,"ISO":"PHL","NAME_0":"Philippines","ID_1":6030,"NAME_1":"Iloilo","ID_2":603017,"NAME_2":"Dueñas","ID_3":603017008,"NAME_3":"Banugan","NL_NAME_3":null,"VARNAME_3":null,"TYPE_3":"Barangay","ENGTYPE_3":"Village","PROVINCE":"Iloilo","REGION":"Region VI (Western Visayas)","id":"barangay-0603017008","name":"Banugan","barangayCode":"0603017008","population":null,"formattedPop":null,"densityCategory":"No data","vulnerabilityRating":"No data","healthRiskLevel":"No data","areaKm2":1.44921,"centerLat":11.059378,"centerLng":122.539718,"geometrySource":"all_barangay-2.csv detailed WKT","geometryMatchMethod":"unique_official_admin_names","boundaryPointCount":54},"geometry":{"type":"MultiPolygon","coordinates":[[[[122.537308,11.07295],[122.538963,11.07215],[122.539688,11.06985],[122.54406,11.06726],[122.545303,11.06698],[122.545837,11.06542],[122.54641,11.06512],[122.54689,11.06406],[122.546608,11.06349],[122.546898,11.06227],[122.546654,11.06135],[122.546349,11.06057],[122.546516,11.06006],[122.546417,11.05967],[122.546143,11.05868],[122.546478,11.05781],[122.546623,11.05673],[122.546227,11.05572],[122.546158,11.05505],[122.546227,11.05459],[122.545143,11.053],[122.544113,11.0533],[122.543007,11.05365],[122.542053,11.0539],[122.540459,11.05413],[122.539528,11.0541],[122.538719,11.05413],[122.53833,11.05489],[122.538109,11.05495],[122.537216,11.05528],[122.536491,11.05516],[122.536346,11.0553],[122.535698,11.05612],[122.535049,11.05665],[122.533737,11.05665],[122.533142,11.05716],[122.532043,11.05757],[122.531891,11.05901],[122.53199,11.05936],[122.532516,11.05994],[122.532799,11.06088],[122.532768,11.0618],[122.532417,11.06376],[122.532539,11.06458],[122.533943,11.06555],[122.535606,11.06718],[122.536301,11.0675],[122.536469,11.06849],[122.536873,11.06907],[122.53614,11.06981],[122.536659,11.07179],[122.536041,11.07295],[122.536781,11.07293],[122.537308,11.07295]]]]}},{"type":"Feature","properties":{"ID_0":177,"ISO":"PHL","NAME_0":"Philippines","ID_1":6030,"NAME_1":"Iloilo","ID_2":603017,"NAME_2":"Dueñas","ID_3":603017009,"NAME_3":"Batuan","NL_NAME_3":null,"VARNAME_3":null,"TYPE_3":"Barangay","ENGTYPE_3":"Village","PROVINCE":"Iloilo","REGION":"Region VI (Western Visayas)","id":"barangay-0603017009","name":"Batuan","barangayCode":"0603017009","population":null,"formattedPop":null,"densityCategory":"No data","vulnerabilityRating":"No data","healthRiskLevel":"No data","areaKm2":3.802859,"centerLat":11.074421,"centerLng":122.592409,"geometrySource":"all_barangay-2.csv detailed WKT","geometryMatchMethod":"unique_official_admin_names","boundaryPointCount":82},"geometry":{"type":"MultiPolygon","coordinates":[[[[122.593933,11.09245],[122.595482,11.08623],[122.598671,11.08637],[122.599716,11.08415],[122.599373,11.08389],[122.599403,11.08334],[122.599518,11.08325],[122.600227,11.08342],[122.600327,11.08344],[122.600906,11.08257],[122.600731,11.08181],[122.600517,11.08163],[122.600143,11.0813],[122.600479,11.0791],[122.59967,11.07916],[122.598877,11.07872],[122.598198,11.07793],[122.597313,11.07648],[122.59729,11.0762],[122.598648,11.07605],[122.598846,11.07608],[122.600349,11.07604],[122.60025,11.07597],[122.599823,11.07461],[122.59951,11.07406],[122.599037,11.07346],[122.598717,11.07286],[122.598862,11.07228],[122.598892,11.07219],[122.599564,11.07178],[122.599876,11.07135],[122.599953,11.07082],[122.599869,11.07013],[122.600037,11.07011],[122.600456,11.07028],[122.601242,11.07046],[122.601547,11.07056],[122.602341,11.07063],[122.60289,11.0705],[122.601929,11.06909],[122.604233,11.06656],[122.603706,11.06602],[122.603996,11.06525],[122.60424,11.06513],[122.602638,11.06358],[122.602448,11.06294],[122.604301,11.06017],[122.604042,11.05759],[122.602463,11.05825],[122.601089,11.0589],[122.600273,11.05943],[122.599617,11.06055],[122.598907,11.06171],[122.598839,11.0618],[122.59771,11.06288],[122.596336,11.0628],[122.596413,11.06316],[122.595741,11.06355],[122.59436,11.06381],[122.592377,11.06424],[122.591377,11.06517],[122.590973,11.0657],[122.590881,11.06721],[122.591087,11.0679],[122.588943,11.06864],[122.587486,11.06799],[122.58844,11.07841],[122.58313,11.08135],[122.583267,11.08202],[122.58358,11.08255],[122.584122,11.08342],[122.584503,11.08494],[122.586632,11.08744],[122.585587,11.09082],[122.586861,11.09163],[122.587303,11.09191],[122.58802,11.0921],[122.590637,11.09201],[122.591171,11.09199],[122.592522,11.09227],[122.592934,11.09235],[122.593933,11.09245]]]]}},{"type":"Feature","properties":{"ID_0":177,"ISO":"PHL","NAME_0":"Philippines","ID_1":6030,"NAME_1":"Iloilo","ID_2":603017,"NAME_2":"Dueñas","ID_3":603017010,"NAME_3":"Bita","NL_NAME_3":null,"VARNAME_3":null,"TYPE_3":"Barangay","ENGTYPE_3":"Village","PROVINCE":"Iloilo","REGION":"Region VI (Western Visayas)","id":"barangay-0603017010","name":"Bita","barangayCode":"0603017010","population":null,"formattedPop":null,"densityCategory":"No data","vulnerabilityRating":"No data","healthRiskLevel":"No data","areaKm2":1.132286,"centerLat":11.02604,"centerLng":122.572789,"geometrySource":"all_barangay-2.csv detailed WKT","geometryMatchMethod":"unique_official_admin_names","boundaryPointCount":39},"geometry":{"type":"MultiPolygon","coordinates":[[[[122.578537,11.03489],[122.578278,11.03399],[122.578003,11.03323],[122.577744,11.03264],[122.577599,11.03144],[122.577667,11.03045],[122.577538,11.02947],[122.577652,11.02892],[122.578331,11.02763],[122.57859,11.02676],[122.574783,11.01878],[122.573082,11.01887],[122.572433,11.01917],[122.571007,11.01889],[122.569893,11.02029],[122.570793,11.02075],[122.570351,11.02243],[122.569977,11.02487],[122.569748,11.02503],[122.568573,11.0261],[122.568642,11.02691],[122.569901,11.02797],[122.570229,11.02948],[122.570183,11.02962],[122.570419,11.0302],[122.570923,11.03098],[122.571228,11.03075],[122.571877,11.03086],[122.57206,11.03135],[122.572182,11.03208],[122.573303,11.03293],[122.574677,11.03427],[122.574677,11.03491],[122.574821,11.03532],[122.576057,11.03613],[122.57682,11.03608],[122.578659,11.03549],[122.578613,11.03539],[122.578537,11.03489]]]]}},{"type":"Feature","properties":{"ID_0":177,"ISO":"PHL","NAME_0":"Philippines","ID_1":6030,"NAME_1":"Iloilo","ID_2":603017,"NAME_2":"Dueñas","ID_3":603017011,"NAME_3":"Buenavista","NL_NAME_3":null,"VARNAME_3":null,"TYPE_3":"Barangay","ENGTYPE_3":"Village","PROVINCE":"Iloilo","REGION":"Region VI (Western Visayas)","id":"barangay-0603017011","name":"Buenavista","barangayCode":"0603017011","population":null,"formattedPop":null,"densityCategory":"No data","vulnerabilityRating":"No data","healthRiskLevel":"No data","areaKm2":1.860091,"centerLat":11.034375,"centerLng":122.60318,"geometrySource":"all_barangay-2.csv detailed WKT","geometryMatchMethod":"unique_official_admin_names","boundaryPointCount":57},"geometry":{"type":"MultiPolygon","coordinates":[[[[122.59536,11.04191],[122.595863,11.04216],[122.598717,11.04303],[122.599136,11.04235],[122.599297,11.04221],[122.599991,11.04204],[122.600327,11.04221],[122.600967,11.04225],[122.602547,11.04163],[122.602959,11.04166],[122.604286,11.04143],[122.604393,11.04145],[122.605293,11.04085],[122.605583,11.04071],[122.606331,11.04074],[122.606491,11.04101],[122.606903,11.04159],[122.60788,11.0406],[122.608673,11.04065],[122.611267,11.04065],[122.621742,11.03795],[122.619873,11.03676],[122.617699,11.03511],[122.616539,11.03388],[122.615517,11.03262],[122.613312,11.03197],[122.61248,11.03095],[122.609123,11.02363],[122.608276,11.02429],[122.608009,11.02547],[122.606194,11.02625],[122.604301,11.02611],[122.603371,11.02682],[122.602966,11.02797],[122.60218,11.02732],[122.602203,11.02836],[122.601212,11.02854],[122.60038,11.02909],[122.599953,11.02854],[122.599693,11.02817],[122.598831,11.0287],[122.598663,11.02918],[122.598427,11.02897],[122.59771,11.02852],[122.596939,11.02863],[122.596733,11.02803],[122.595993,11.02863],[122.596123,11.031],[122.59288,11.03193],[122.59304,11.03272],[122.592941,11.03327],[122.593147,11.03423],[122.594749,11.03453],[122.59417,11.03687],[122.591713,11.03919],[122.594559,11.04021],[122.59536,11.04191]]]]}},{"type":"Feature","properties":{"ID_0":177,"ISO":"PHL","NAME_0":"Philippines","ID_1":6030,"NAME_1":"Iloilo","ID_2":603017,"NAME_2":"Dueñas","ID_3":603017012,"NAME_3":"Bugtongan","NL_NAME_3":null,"VARNAME_3":null,"TYPE_3":"Barangay","ENGTYPE_3":"Village","PROVINCE":"Iloilo","REGION":"Region VI (Western Visayas)","id":"barangay-0603017012","name":"Bugtongan","barangayCode":"0603017012","population":null,"formattedPop":null,"densityCategory":"No data","vulnerabilityRating":"No data","healthRiskLevel":"No data","areaKm2":2.533083,"centerLat":11.010013,"centerLng":122.575688,"geometrySource":"all_barangay-2.csv detailed WKT","geometryMatchMethod":"unique_official_admin_names","boundaryPointCount":61},"geometry":{"type":"MultiPolygon","coordinates":[[[[122.571007,11.01889],[122.572433,11.01917],[122.573082,11.01887],[122.574783,11.01878],[122.575104,11.01825],[122.576447,11.01791],[122.58252,11.01635],[122.582832,11.01553],[122.583282,11.01534],[122.584389,11.01523],[122.584839,11.01544],[122.585083,11.01472],[122.584297,11.01346],[122.584007,11.01252],[122.583847,11.01208],[122.585274,11.01149],[122.584976,11.00979],[122.583397,11.0096],[122.582909,11.00923],[122.584671,11.00857],[122.584343,11.00655],[122.583702,11.00662],[122.583008,11.00675],[122.582397,11.00652],[122.582626,11.00597],[122.583389,11.00542],[122.583344,11.00487],[122.583229,11.00432],[122.583252,11.00375],[122.583313,11.00322],[122.583427,11.00216],[122.583603,11.00163],[122.583237,11.00173],[122.578163,11.00312],[122.57695,11.0042],[122.576103,11.00405],[122.574242,11.0052],[122.575104,11.00606],[122.57489,11.00715],[122.5746,11.00791],[122.573479,11.00851],[122.571487,11.0064],[122.569221,11.006],[122.56813,11.00688],[122.566948,11.00688],[122.565453,11.00576],[122.565613,11.00735],[122.565262,11.00798],[122.564636,11.00774],[122.564308,11.00739],[122.563766,11.00751],[122.564293,11.00923],[122.564629,11.00969],[122.565262,11.01022],[122.566681,11.0125],[122.567513,11.01287],[122.567627,11.01388],[122.570084,11.01503],[122.570389,11.01669],[122.570557,11.01747],[122.571007,11.01889]]]]}},{"type":"Feature","properties":{"ID_0":177,"ISO":"PHL","NAME_0":"Philippines","ID_1":6030,"NAME_1":"Iloilo","ID_2":603017,"NAME_2":"Dueñas","ID_3":603017013,"NAME_3":"Cabudian","NL_NAME_3":null,"VARNAME_3":null,"TYPE_3":"Barangay","ENGTYPE_3":"Village","PROVINCE":"Iloilo","REGION":"Region VI (Western Visayas)","id":"barangay-0603017013","name":"Cabudian","barangayCode":"0603017013","population":null,"formattedPop":null,"densityCategory":"No data","vulnerabilityRating":"No data","healthRiskLevel":"No data","areaKm2":3.761261,"centerLat":11.095236,"centerLng":122.549349,"geometrySource":"all_barangay-2.csv detailed WKT","geometryMatchMethod":"unique_official_admin_names","boundaryPointCount":28},"geometry":{"type":"MultiPolygon","coordinates":[[[[122.548241,11.107],[122.552628,11.10478],[122.559792,11.10126],[122.565353,11.09845],[122.570557,11.0947],[122.560204,11.0942],[122.554802,11.09015],[122.554642,11.08323],[122.552689,11.08176],[122.550041,11.08167],[122.548393,11.08273],[122.5476,11.08328],[122.546951,11.08438],[122.546944,11.08622],[122.547371,11.08785],[122.546211,11.08965],[122.545883,11.09022],[122.545517,11.09185],[122.545624,11.09369],[122.545464,11.09473],[122.544609,11.09686],[122.543633,11.09808],[122.54203,11.09884],[122.540718,11.09912],[122.545303,11.09942],[122.544662,11.10178],[122.545601,11.10201],[122.548241,11.107]]]]}},{"type":"Feature","properties":{"ID_0":177,"ISO":"PHL","NAME_0":"Philippines","ID_1":6030,"NAME_1":"Iloilo","ID_2":603017,"NAME_2":"Dueñas","ID_3":603017014,"NAME_3":"Calaca-an","NL_NAME_3":null,"VARNAME_3":null,"TYPE_3":"Barangay","ENGTYPE_3":"Village","PROVINCE":"Iloilo","REGION":"Region VI (Western Visayas)","id":"barangay-0603017014","name":"Calaca-an","barangayCode":"0603017014","population":null,"formattedPop":null,"densityCategory":"No data","vulnerabilityRating":"No data","healthRiskLevel":"No data","areaKm2":2.056189,"centerLat":11.037855,"centerLng":122.582894,"geometrySource":"all_barangay-2.csv detailed WKT","geometryMatchMethod":"unique_official_admin_names","boundaryPointCount":53},"geometry":{"type":"MultiPolygon","coordinates":[[[[122.592934,11.04388],[122.59536,11.04191],[122.594559,11.04021],[122.591713,11.03919],[122.59417,11.03687],[122.594749,11.03453],[122.593147,11.03423],[122.592941,11.03327],[122.59304,11.03272],[122.59288,11.03193],[122.592453,11.03189],[122.591537,11.03033],[122.589867,11.03042],[122.589867,11.03014],[122.589363,11.0294],[122.587593,11.02906],[122.587509,11.02872],[122.586723,11.0292],[122.58609,11.03063],[122.580933,11.03381],[122.580307,11.03411],[122.58036,11.03448],[122.578537,11.03489],[122.578613,11.03539],[122.578659,11.03549],[122.57682,11.03608],[122.577003,11.03698],[122.577507,11.03794],[122.577843,11.03847],[122.579063,11.03854],[122.580482,11.03836],[122.580803,11.03852],[122.582283,11.03751],[122.582878,11.03698],[122.583527,11.03648],[122.584244,11.036],[122.584648,11.03602],[122.584824,11.03618],[122.584862,11.0365],[122.584671,11.03703],[122.584587,11.03788],[122.585068,11.03838],[122.585617,11.03839],[122.586113,11.03816],[122.586723,11.03809],[122.588028,11.0388],[122.587952,11.03945],[122.587639,11.03986],[122.58847,11.04119],[122.589569,11.04161],[122.591003,11.0422],[122.592331,11.04365],[122.592934,11.04388]]]]}},{"type":"Feature","properties":{"ID_0":177,"ISO":"PHL","NAME_0":"Philippines","ID_1":6030,"NAME_1":"Iloilo","ID_2":603017,"NAME_2":"Dueñas","ID_3":603017015,"NAME_3":"Calang","NL_NAME_3":null,"VARNAME_3":null,"TYPE_3":"Barangay","ENGTYPE_3":"Village","PROVINCE":"Iloilo","REGION":"Region VI (Western Visayas)","id":"barangay-0603017015","name":"Calang","barangayCode":"0603017015","population":null,"formattedPop":null,"densityCategory":"No data","vulnerabilityRating":"No data","healthRiskLevel":"No data","areaKm2":2.079164,"centerLat":11.052261,"centerLng":122.594943,"geometrySource":"all_barangay-2.csv detailed WKT","geometryMatchMethod":"unique_official_admin_names","boundaryPointCount":29},"geometry":{"type":"MultiPolygon","coordinates":[[[[122.604042,11.05759],[122.605431,11.0571],[122.606102,11.05704],[122.607819,11.05714],[122.59549,11.046161],[122.592934,11.04388],[122.592331,11.04365],[122.588242,11.05191],[122.588638,11.05269],[122.590431,11.05459],[122.590927,11.0551],[122.591629,11.05632],[122.591187,11.05701],[122.590988,11.0577],[122.591347,11.05834],[122.592216,11.05948],[122.592743,11.05996],[122.593147,11.0604],[122.594337,11.06158],[122.594856,11.06184],[122.596336,11.0628],[122.59771,11.06288],[122.598839,11.0618],[122.598907,11.06171],[122.599617,11.06055],[122.600273,11.05943],[122.601089,11.0589],[122.602463,11.05825],[122.604042,11.05759]]]]}},{"type":"Feature","properties":{"ID_0":177,"ISO":"PHL","NAME_0":"Philippines","ID_1":6030,"NAME_1":"Iloilo","ID_2":603017,"NAME_2":"Dueñas","ID_3":603017016,"NAME_3":"Calawinan","NL_NAME_3":null,"VARNAME_3":null,"TYPE_3":"Barangay","ENGTYPE_3":"Village","PROVINCE":"Iloilo","REGION":"Region VI (Western Visayas)","id":"barangay-0603017016","name":"Calawinan","barangayCode":"0603017016","population":null,"formattedPop":null,"densityCategory":"No data","vulnerabilityRating":"No data","healthRiskLevel":"No data","areaKm2":2.136949,"centerLat":11.027763,"centerLng":122.598153,"geometrySource":"all_barangay-2.csv detailed WKT","geometryMatchMethod":"unique_official_admin_names","boundaryPointCount":42},"geometry":{"type":"MultiPolygon","coordinates":[[[[122.59288,11.03193],[122.596123,11.031],[122.595993,11.02863],[122.596733,11.02803],[122.596939,11.02863],[122.59771,11.02852],[122.598427,11.02897],[122.598663,11.02918],[122.598831,11.0287],[122.599693,11.02817],[122.599953,11.02854],[122.60038,11.02909],[122.601212,11.02854],[122.602203,11.02836],[122.60218,11.02732],[122.602966,11.02797],[122.603371,11.02682],[122.604301,11.02611],[122.606194,11.02625],[122.608009,11.02547],[122.608276,11.02429],[122.609123,11.02363],[122.605423,11.01609],[122.604218,11.01731],[122.603981,11.0177],[122.603577,11.01848],[122.602226,11.01915],[122.601837,11.02011],[122.600151,11.02094],[122.598022,11.02103],[122.597542,11.02112],[122.596916,11.02266],[122.596443,11.02312],[122.5961,11.0247],[122.594238,11.02571],[122.594398,11.02702],[122.593613,11.02739],[122.591583,11.02819],[122.591331,11.03003],[122.591537,11.03033],[122.592453,11.03189],[122.59288,11.03193]]]]}},{"type":"Feature","properties":{"ID_0":177,"ISO":"PHL","NAME_0":"Philippines","ID_1":6030,"NAME_1":"Iloilo","ID_2":603017,"NAME_2":"Dueñas","ID_3":603017017,"NAME_3":"Capaycapay","NL_NAME_3":null,"VARNAME_3":null,"TYPE_3":"Barangay","ENGTYPE_3":"Village","PROVINCE":"Iloilo","REGION":"Region VI (Western Visayas)","id":"barangay-0603017017","name":"Capaycapay","barangayCode":"0603017017","population":null,"formattedPop":null,"densityCategory":"No data","vulnerabilityRating":"No data","healthRiskLevel":"No data","areaKm2":0.614059,"centerLat":11.041113,"centerLng":122.59736,"geometrySource":"all_barangay-2.csv detailed WKT","geometryMatchMethod":"unique_official_admin_names","boundaryPointCount":45},"geometry":{"type":"MultiPolygon","coordinates":[[[[122.611572,11.044822],[122.610764,11.04428],[122.610786,11.04387],[122.611252,11.04265],[122.611267,11.04065],[122.608673,11.04065],[122.60788,11.0406],[122.606903,11.04159],[122.606491,11.04101],[122.606331,11.04074],[122.605583,11.04071],[122.605293,11.04085],[122.604393,11.04145],[122.604286,11.04143],[122.602959,11.04166],[122.602547,11.04163],[122.600967,11.04225],[122.600327,11.04221],[122.599991,11.04204],[122.599297,11.04221],[122.599136,11.04235],[122.598717,11.04303],[122.595863,11.04216],[122.59536,11.04191],[122.592934,11.04388],[122.59549,11.046161],[122.595947,11.046388],[122.598808,11.047258],[122.599228,11.046578],[122.599388,11.046438],[122.600075,11.046268],[122.600418,11.046438],[122.601059,11.046478],[122.602638,11.045858],[122.603043,11.045888],[122.604378,11.045658],[122.604477,11.045678],[122.605377,11.045078],[122.605667,11.044938],[122.606415,11.044968],[122.606575,11.045238],[122.606987,11.045818],[122.607964,11.044828],[122.611359,11.044878],[122.611572,11.044822]]]]}},{"type":"Feature","properties":{"ID_0":177,"ISO":"PHL","NAME_0":"Philippines","ID_1":6030,"NAME_1":"Iloilo","ID_2":603017,"NAME_2":"Dueñas","ID_3":603017018,"NAME_3":"Capuling","NL_NAME_3":null,"VARNAME_3":null,"TYPE_3":"Barangay","ENGTYPE_3":"Village","PROVINCE":"Iloilo","REGION":"Region VI (Western Visayas)","id":"barangay-0603017018","name":"Capuling","barangayCode":"0603017018","population":null,"formattedPop":null,"densityCategory":"No data","vulnerabilityRating":"No data","healthRiskLevel":"No data","areaKm2":2.664484,"centerLat":11.05939,"centerLng":122.611668,"geometrySource":"all_barangay-2.csv detailed WKT","geometryMatchMethod":"unique_official_admin_names","boundaryPointCount":23},"geometry":{"type":"MultiPolygon","coordinates":[[[[122.62677,11.05026],[122.626167,11.04927],[122.625633,11.04938],[122.624962,11.04851],[122.624298,11.04797],[122.622467,11.04794],[122.620979,11.0486],[122.620468,11.04935],[122.620506,11.05073],[122.620773,11.05315],[122.620499,11.05416],[122.620506,11.05522],[122.620483,11.05646],[122.622307,11.05626],[122.621948,11.05649],[122.622963,11.05659],[122.623154,11.0565],[122.623627,11.0559],[122.624001,11.05455],[122.624901,11.05313],[122.624832,11.05274],[122.625427,11.05152],[122.62677,11.05026]]]]}},{"type":"Feature","properties":{"ID_0":177,"ISO":"PHL","NAME_0":"Philippines","ID_1":6030,"NAME_1":"Iloilo","ID_2":603017,"NAME_2":"Dueñas","ID_3":603017019,"NAME_3":"Catig","NL_NAME_3":null,"VARNAME_3":null,"TYPE_3":"Barangay","ENGTYPE_3":"Village","PROVINCE":"Iloilo","REGION":"Region VI (Western Visayas)","id":"barangay-0603017019","name":"Catig","barangayCode":"0603017019","population":null,"formattedPop":null,"densityCategory":"No data","vulnerabilityRating":"No data","healthRiskLevel":"No data","areaKm2":0.441437,"centerLat":11.041017,"centerLng":122.550628,"geometrySource":"all_barangay-2.csv detailed WKT","geometryMatchMethod":"unique_official_admin_names","boundaryPointCount":47},"geometry":{"type":"MultiPolygon","coordinates":[[[[122.555313,11.04322],[122.555672,11.04283],[122.556679,11.04191],[122.556824,11.04175],[122.55838,11.04019],[122.557777,11.03966],[122.557617,11.03933],[122.557472,11.03917],[122.557022,11.03853],[122.55555,11.03793],[122.555359,11.03791],[122.554688,11.03922],[122.553703,11.03945],[122.55378,11.03862],[122.552353,11.03703],[122.551537,11.03735],[122.550903,11.03747],[122.550629,11.03816],[122.551804,11.03892],[122.551651,11.03977],[122.54998,11.04025],[122.549294,11.04004],[122.547897,11.03999],[122.54776,11.0396],[122.547043,11.0391],[122.546898,11.03908],[122.546677,11.03956],[122.546539,11.03967],[122.546127,11.03972],[122.544273,11.03982],[122.544548,11.0403],[122.545357,11.04335],[122.546127,11.04252],[122.547249,11.04238],[122.547638,11.04218],[122.548302,11.04167],[122.549004,11.04199],[122.550003,11.04264],[122.550613,11.04259],[122.550972,11.04266],[122.551422,11.04287],[122.551758,11.04266],[122.552406,11.04276],[122.553238,11.04354],[122.553864,11.04375],[122.554497,11.04356],[122.555313,11.04322]]]]}},{"type":"Feature","properties":{"ID_0":177,"ISO":"PHL","NAME_0":"Philippines","ID_1":6030,"NAME_1":"Iloilo","ID_2":603017,"NAME_2":"Dueñas","ID_3":603017020,"NAME_3":"Dila-an","NL_NAME_3":null,"VARNAME_3":null,"TYPE_3":"Barangay","ENGTYPE_3":"Village","PROVINCE":"Iloilo","REGION":"Region VI (Western Visayas)","id":"barangay-0603017020","name":"Dila-an","barangayCode":"0603017020","population":null,"formattedPop":null,"densityCategory":"No data","vulnerabilityRating":"No data","healthRiskLevel":"No data","areaKm2":4.479462,"centerLat":11.07956,"centerLng":122.545886,"geometrySource":"all_barangay-2.csv detailed WKT","geometryMatchMethod":"unique_official_admin_names","boundaryPointCount":72},"geometry":{"type":"MultiPolygon","coordinates":[[[[122.540718,11.09912],[122.54203,11.09884],[122.543633,11.09808],[122.544609,11.09686],[122.545464,11.09473],[122.545624,11.09369],[122.545517,11.09185],[122.545883,11.09022],[122.546211,11.08965],[122.547371,11.08785],[122.546944,11.08622],[122.546951,11.08438],[122.5476,11.08328],[122.548393,11.08273],[122.550041,11.08167],[122.552689,11.08176],[122.554642,11.08323],[122.5569,11.08415],[122.557518,11.08436],[122.558594,11.08457],[122.559669,11.08425],[122.560333,11.0839],[122.561234,11.08255],[122.56131,11.08101],[122.561119,11.07958],[122.56105,11.07818],[122.557877,11.07698],[122.556862,11.0762],[122.555481,11.07567],[122.554237,11.07611],[122.553207,11.07609],[122.552437,11.07599],[122.551422,11.0756],[122.550758,11.07576],[122.549568,11.0756],[122.549156,11.07546],[122.548714,11.07491],[122.548347,11.07438],[122.547684,11.07374],[122.546494,11.07383],[122.545822,11.07427],[122.544922,11.07397],[122.54435,11.07353],[122.541183,11.07314],[122.538788,11.07302],[122.537308,11.07295],[122.536781,11.07293],[122.536041,11.07295],[122.534233,11.07364],[122.534027,11.07405],[122.533882,11.07455],[122.5345,11.07739],[122.534203,11.08073],[122.535851,11.08153],[122.535858,11.08192],[122.5382,11.08393],[122.537453,11.08652],[122.538063,11.08767],[122.537468,11.08859],[122.535919,11.08868],[122.53273,11.09027],[122.533463,11.09068],[122.533417,11.09121],[122.533012,11.09229],[122.53315,11.09374],[122.53344,11.09477],[122.533997,11.09587],[122.535072,11.0967],[122.538338,11.0973],[122.538879,11.09778],[122.540894,11.09852],[122.540718,11.09912]]]]}},{"type":"Feature","properties":{"ID_0":177,"ISO":"PHL","NAME_0":"Philippines","ID_1":6030,"NAME_1":"Iloilo","ID_2":603017,"NAME_2":"Dueñas","ID_3":603017021,"NAME_3":"Fundacion","NL_NAME_3":null,"VARNAME_3":null,"TYPE_3":"Barangay","ENGTYPE_3":"Village","PROVINCE":"Iloilo","REGION":"Region VI (Western Visayas)","id":"barangay-0603017021","name":"Fundacion","barangayCode":"0603017021","population":null,"formattedPop":null,"densityCategory":"No data","vulnerabilityRating":"No data","healthRiskLevel":"No data","areaKm2":1.324755,"centerLat":11.050307,"centerLng":122.539443,"geometrySource":"all_barangay-2.csv detailed WKT","geometryMatchMethod":"unique_official_admin_names","boundaryPointCount":47},"geometry":{"type":"MultiPolygon","coordinates":[[[[122.529327,11.05454],[122.529877,11.05555],[122.532043,11.05757],[122.533142,11.05716],[122.533737,11.05665],[122.535049,11.05665],[122.535698,11.05612],[122.536346,11.0553],[122.536491,11.05516],[122.537216,11.05528],[122.538109,11.05495],[122.53833,11.05489],[122.538719,11.05413],[122.539528,11.0541],[122.540459,11.05413],[122.542053,11.0539],[122.543007,11.05365],[122.544113,11.0533],[122.545143,11.053],[122.545357,11.04335],[122.544571,11.04344],[122.544067,11.04348],[122.543922,11.04438],[122.543282,11.04458],[122.543243,11.04457],[122.542397,11.04429],[122.542313,11.0448],[122.541397,11.04569],[122.540558,11.04564],[122.540154,11.04547],[122.539009,11.0459],[122.537483,11.04543],[122.536507,11.04487],[122.535294,11.04534],[122.535606,11.0462],[122.536049,11.05141],[122.53566,11.05171],[122.534157,11.05127],[122.533272,11.05046],[122.531937,11.05082],[122.530022,11.05043],[122.528229,11.05008],[122.526787,11.05044],[122.527122,11.05061],[122.528023,11.05164],[122.529892,11.05256],[122.529327,11.05454]]]]}},{"type":"Feature","properties":{"ID_0":177,"ISO":"PHL","NAME_0":"Philippines","ID_1":6030,"NAME_1":"Iloilo","ID_2":603017,"NAME_2":"Dueñas","ID_3":603017022,"NAME_3":"Inadlawan","NL_NAME_3":null,"VARNAME_3":null,"TYPE_3":"Barangay","ENGTYPE_3":"Village","PROVINCE":"Iloilo","REGION":"Region VI (Western Visayas)","id":"barangay-0603017022","name":"Inadlawan","barangayCode":"0603017022","population":null,"formattedPop":null,"densityCategory":"No data","vulnerabilityRating":"No data","healthRiskLevel":"No data","areaKm2":1.451356,"centerLat":11.058107,"centerLng":122.552975,"geometrySource":"all_barangay-2.csv detailed WKT","geometryMatchMethod":"unique_official_admin_names","boundaryPointCount":42},"geometry":{"type":"MultiPolygon","coordinates":[[[[122.562683,11.06407],[122.562202,11.06322],[122.559647,11.05037],[122.556824,11.05027],[122.555443,11.05057],[122.554466,11.05092],[122.553757,11.05103],[122.553207,11.05154],[122.552368,11.05259],[122.552254,11.05303],[122.551224,11.05429],[122.550117,11.05514],[122.549232,11.05553],[122.548424,11.05539],[122.547531,11.05544],[122.547371,11.05563],[122.547394,11.05641],[122.547028,11.057],[122.546623,11.05673],[122.546478,11.05781],[122.546143,11.05868],[122.546417,11.05967],[122.546516,11.06006],[122.546349,11.06057],[122.546654,11.06135],[122.546898,11.06227],[122.546608,11.06349],[122.54689,11.06406],[122.54641,11.06512],[122.547707,11.06519],[122.548859,11.06505],[122.549789,11.06507],[122.551369,11.06517],[122.551804,11.06528],[122.552994,11.06475],[122.554314,11.06471],[122.554657,11.06436],[122.557892,11.06411],[122.560547,11.06462],[122.560997,11.06489],[122.562057,11.06462],[122.562683,11.06407]]]]}},{"type":"Feature","properties":{"ID_0":177,"ISO":"PHL","NAME_0":"Philippines","ID_1":6030,"NAME_1":"Iloilo","ID_2":603017,"NAME_2":"Dueñas","ID_3":603017023,"NAME_3":"Jagdong","NL_NAME_3":null,"VARNAME_3":null,"TYPE_3":"Barangay","ENGTYPE_3":"Village","PROVINCE":"Iloilo","REGION":"Region VI (Western Visayas)","id":"barangay-0603017023","name":"Jagdong","barangayCode":"0603017023","population":null,"formattedPop":null,"densityCategory":"No data","vulnerabilityRating":"No data","healthRiskLevel":"No data","areaKm2":2.087116,"centerLat":11.057804,"centerLng":122.585429,"geometrySource":"all_barangay-2.csv detailed WKT","geometryMatchMethod":"unique_official_admin_names","boundaryPointCount":46},"geometry":{"type":"MultiPolygon","coordinates":[[[[122.596336,11.0628],[122.594856,11.06184],[122.594337,11.06158],[122.593147,11.0604],[122.592743,11.05996],[122.592216,11.05948],[122.591347,11.05834],[122.590988,11.0577],[122.591187,11.05701],[122.591629,11.05632],[122.590927,11.0551],[122.590431,11.05459],[122.588638,11.05269],[122.588242,11.05191],[122.583733,11.05226],[122.58326,11.05194],[122.582237,11.05147],[122.57589,11.05201],[122.575996,11.05257],[122.576599,11.0542],[122.57621,11.05503],[122.576843,11.05811],[122.578056,11.05824],[122.578941,11.05824],[122.579201,11.05802],[122.579727,11.05774],[122.581139,11.05778],[122.582176,11.05827],[122.583344,11.05883],[122.583473,11.05883],[122.584846,11.05887],[122.584969,11.05887],[122.585808,11.06071],[122.585854,11.06175],[122.58596,11.06421],[122.587486,11.06799],[122.588943,11.06864],[122.591087,11.0679],[122.590881,11.06721],[122.590973,11.0657],[122.591377,11.06517],[122.592377,11.06424],[122.59436,11.06381],[122.595741,11.06355],[122.596413,11.06316],[122.596336,11.0628]]]]}},{"type":"Feature","properties":{"ID_0":177,"ISO":"PHL","NAME_0":"Philippines","ID_1":6030,"NAME_1":"Iloilo","ID_2":603017,"NAME_2":"Dueñas","ID_3":603017024,"NAME_3":"Jaguimit","NL_NAME_3":null,"VARNAME_3":null,"TYPE_3":"Barangay","ENGTYPE_3":"Village","PROVINCE":"Iloilo","REGION":"Region VI (Western Visayas)","id":"barangay-0603017024","name":"Jaguimit","barangayCode":"0603017024","population":null,"formattedPop":null,"densityCategory":"No data","vulnerabilityRating":"No data","healthRiskLevel":"No data","areaKm2":2.413264,"centerLat":11.077853,"centerLng":122.569526,"geometrySource":"all_barangay-2.csv detailed WKT","geometryMatchMethod":"unique_official_admin_names","boundaryPointCount":35},"geometry":{"type":"MultiPolygon","coordinates":[[[[122.56665,11.08604],[122.569092,11.08459],[122.571243,11.08326],[122.571701,11.08174],[122.572327,11.08004],[122.572617,11.0782],[122.573723,11.07653],[122.575783,11.07542],[122.576981,11.07529],[122.578789,11.07542],[122.57962,11.07492],[122.580254,11.07365],[122.575317,11.06796],[122.574928,11.0689],[122.574806,11.06966],[122.575127,11.07133],[122.575111,11.07161],[122.5737,11.07136],[122.572578,11.0706],[122.571533,11.07023],[122.570511,11.07016],[122.569527,11.0705],[122.569008,11.07089],[122.568268,11.07126],[122.567177,11.07115],[122.566467,11.07087],[122.56559,11.07087],[122.566017,11.07174],[122.565063,11.07331],[122.564377,11.07457],[122.564293,11.07496],[122.563744,11.07579],[122.562828,11.0762],[122.56105,11.07818],[122.56665,11.08604]]]]}},{"type":"Feature","properties":{"ID_0":177,"ISO":"PHL","NAME_0":"Philippines","ID_1":6030,"NAME_1":"Iloilo","ID_2":603017,"NAME_2":"Dueñas","ID_3":603017025,"NAME_3":"Lacadon","NL_NAME_3":null,"VARNAME_3":null,"TYPE_3":"Barangay","ENGTYPE_3":"Village","PROVINCE":"Iloilo","REGION":"Region VI (Western Visayas)","id":"barangay-0603017025","name":"Lacadon","barangayCode":"0603017025","population":null,"formattedPop":null,"densityCategory":"No data","vulnerabilityRating":"No data","healthRiskLevel":"No data","areaKm2":1.825728,"centerLat":11.03234,"centerLng":122.55725,"geometrySource":"all_barangay-2.csv detailed WKT","geometryMatchMethod":"unique_official_admin_names","boundaryPointCount":78},"geometry":{"type":"MultiPolygon","coordinates":[[[[122.546898,11.03908],[122.547043,11.0391],[122.54776,11.0396],[122.547897,11.03999],[122.549294,11.04004],[122.54998,11.04025],[122.551651,11.03977],[122.551804,11.03892],[122.550629,11.03816],[122.550903,11.03747],[122.551537,11.03735],[122.552353,11.03703],[122.55378,11.03862],[122.553703,11.03945],[122.554688,11.03922],[122.555359,11.03791],[122.55555,11.03793],[122.557022,11.03853],[122.557472,11.03917],[122.557617,11.03933],[122.557777,11.03966],[122.55838,11.04019],[122.558861,11.03977],[122.559242,11.03924],[122.559288,11.03908],[122.559174,11.03832],[122.558823,11.03759],[122.558434,11.03722],[122.558601,11.03621],[122.558746,11.03609],[122.559853,11.03568],[122.56076,11.03506],[122.561218,11.03449],[122.561737,11.03375],[122.562889,11.03274],[122.564323,11.03215],[122.564278,11.03226],[122.564537,11.03205],[122.564873,11.03176],[122.565063,11.03088],[122.564743,11.02907],[122.564934,11.02794],[122.564941,11.02679],[122.564423,11.02599],[122.563301,11.02534],[122.562721,11.02498],[122.562462,11.02463],[122.562027,11.02442],[122.561653,11.02424],[122.561111,11.02275],[122.560638,11.02261],[122.560211,11.02247],[122.558182,11.01978],[122.557716,11.02254],[122.557182,11.02295],[122.557472,11.0241],[122.557327,11.02548],[122.555946,11.0265],[122.555557,11.02723],[122.554817,11.02743],[122.554207,11.02773],[122.553787,11.02847],[122.553436,11.02848],[122.552628,11.0306],[122.552994,11.03147],[122.553207,11.032],[122.552917,11.03229],[122.552208,11.03246],[122.552147,11.03307],[122.552299,11.03445],[122.550873,11.03358],[122.548973,11.03308],[122.548981,11.03362],[122.54776,11.03525],[122.547653,11.03637],[122.546173,11.03677],[122.546333,11.03758],[122.546898,11.03908]]]]}},{"type":"Feature","properties":{"ID_0":177,"ISO":"PHL","NAME_0":"Philippines","ID_1":6030,"NAME_1":"Iloilo","ID_2":603017,"NAME_2":"Dueñas","ID_3":603017026,"NAME_3":"Luag","NL_NAME_3":null,"VARNAME_3":null,"TYPE_3":"Barangay","ENGTYPE_3":"Village","PROVINCE":"Iloilo","REGION":"Region VI (Western Visayas)","id":"barangay-0603017026","name":"Luag","barangayCode":"0603017026","population":null,"formattedPop":null,"densityCategory":"No data","vulnerabilityRating":"No data","healthRiskLevel":"No data","areaKm2":1.174313,"centerLat":11.044914,"centerLng":122.56358,"geometrySource":"all_barangay-2.csv detailed WKT","geometryMatchMethod":"unique_official_admin_names","boundaryPointCount":68},"geometry":{"type":"MultiPolygon","coordinates":[[[[122.559647,11.05037],[122.560623,11.04982],[122.560677,11.04977],[122.561096,11.04931],[122.561707,11.04881],[122.562286,11.04867],[122.563171,11.04862],[122.564194,11.04814],[122.564651,11.04807],[122.564934,11.04862],[122.56575,11.04842],[122.566162,11.0478],[122.567734,11.04681],[122.567657,11.04667],[122.568001,11.04534],[122.567787,11.04506],[122.567337,11.04499],[122.566887,11.04486],[122.565933,11.04403],[122.565033,11.04352],[122.564812,11.04336],[122.564217,11.04242],[122.563766,11.04221],[122.562912,11.04143],[122.562408,11.04154],[122.562286,11.04207],[122.561333,11.04191],[122.56086,11.04039],[122.560883,11.04035],[122.561813,11.03984],[122.562561,11.0383],[122.56282,11.03766],[122.562523,11.03761],[122.562317,11.03697],[122.562691,11.0358],[122.562592,11.03522],[122.562286,11.03412],[122.562889,11.03274],[122.561737,11.03375],[122.561218,11.03449],[122.56076,11.03506],[122.559853,11.03568],[122.558746,11.03609],[122.558601,11.03621],[122.558434,11.03722],[122.558823,11.03759],[122.559174,11.03832],[122.559288,11.03908],[122.559242,11.03924],[122.558861,11.03977],[122.55838,11.04019],[122.556824,11.04175],[122.556679,11.04191],[122.555672,11.04283],[122.555313,11.04322],[122.555603,11.04329],[122.556236,11.04384],[122.557198,11.0443],[122.558243,11.04474],[122.558548,11.04538],[122.558502,11.04582],[122.558144,11.04623],[122.557693,11.04644],[122.557663,11.04749],[122.557587,11.04871],[122.556717,11.04947],[122.556824,11.05027],[122.559647,11.05037]]]]}},{"type":"Feature","properties":{"ID_0":177,"ISO":"PHL","NAME_0":"Philippines","ID_1":6030,"NAME_1":"Iloilo","ID_2":603017,"NAME_2":"Dueñas","ID_3":603017027,"NAME_3":"Malusgod","NL_NAME_3":null,"VARNAME_3":null,"TYPE_3":"Barangay","ENGTYPE_3":"Village","PROVINCE":"Iloilo","REGION":"Region VI (Western Visayas)","id":"barangay-0603017027","name":"Malusgod","barangayCode":"0603017027","population":null,"formattedPop":null,"densityCategory":"No data","vulnerabilityRating":"No data","healthRiskLevel":"No data","areaKm2":0.42216,"centerLat":11.022445,"centerLng":122.578737,"geometrySource":"all_barangay-2.csv detailed WKT","geometryMatchMethod":"unique_official_admin_names","boundaryPointCount":40},"geometry":{"type":"MultiPolygon","coordinates":[[[[122.590553,11.02284],[122.591171,11.02128],[122.590874,11.02047],[122.590988,11.02033],[122.590942,11.01817],[122.592194,11.01744],[122.592239,11.01686],[122.591087,11.01615],[122.590103,11.0153],[122.589417,11.01553],[122.588333,11.0156],[122.587273,11.01519],[122.586906,11.01509],[122.584839,11.01544],[122.584389,11.01523],[122.583282,11.01534],[122.582832,11.01553],[122.58252,11.01635],[122.576447,11.01791],[122.575104,11.01825],[122.574783,11.01878],[122.57859,11.02676],[122.580307,11.02653],[122.5802,11.02664],[122.580383,11.02715],[122.581383,11.02791],[122.581863,11.02761],[122.582176,11.0274],[122.582977,11.02759],[122.583504,11.02782],[122.583794,11.02784],[122.584373,11.02671],[122.584343,11.02655],[122.584229,11.02561],[122.584518,11.02518],[122.584908,11.0252],[122.585648,11.02531],[122.58638,11.02513],[122.586983,11.0246],[122.590553,11.02284]]]]}},{"type":"Feature","properties":{"ID_0":177,"ISO":"PHL","NAME_0":"Philippines","ID_1":6030,"NAME_1":"Iloilo","ID_2":603017,"NAME_2":"Dueñas","ID_3":603017028,"NAME_3":"Maribuyong","NL_NAME_3":null,"VARNAME_3":null,"TYPE_3":"Barangay","ENGTYPE_3":"Village","PROVINCE":"Iloilo","REGION":"Region VI (Western Visayas)","id":"barangay-0603017028","name":"Maribuyong","barangayCode":"0603017028","population":null,"formattedPop":null,"densityCategory":"No data","vulnerabilityRating":"No data","healthRiskLevel":"No data","areaKm2":1.62733,"centerLat":11.048552,"centerLng":122.550477,"geometrySource":"all_barangay-2.csv detailed WKT","geometryMatchMethod":"unique_official_admin_names","boundaryPointCount":48},"geometry":{"type":"MultiPolygon","coordinates":[[[[122.546623,11.05673],[122.547028,11.057],[122.547394,11.05641],[122.547371,11.05563],[122.547531,11.05544],[122.548424,11.05539],[122.549232,11.05553],[122.550117,11.05514],[122.551224,11.05429],[122.552254,11.05303],[122.552368,11.05259],[122.553207,11.05154],[122.553757,11.05103],[122.554466,11.05092],[122.555443,11.05057],[122.556824,11.05027],[122.556717,11.04947],[122.557587,11.04871],[122.557663,11.04749],[122.557693,11.04644],[122.558144,11.04623],[122.558502,11.04582],[122.558548,11.04538],[122.558243,11.04474],[122.557198,11.0443],[122.556236,11.04384],[122.555603,11.04329],[122.555313,11.04322],[122.554497,11.04356],[122.553864,11.04375],[122.553238,11.04354],[122.552406,11.04276],[122.551758,11.04266],[122.551422,11.04287],[122.550972,11.04266],[122.550613,11.04259],[122.550003,11.04264],[122.549004,11.04199],[122.548302,11.04167],[122.547638,11.04218],[122.547249,11.04238],[122.546127,11.04252],[122.545357,11.04335],[122.545143,11.053],[122.546227,11.05459],[122.546158,11.05505],[122.546227,11.05572],[122.546623,11.05673]]]]}},{"type":"Feature","properties":{"ID_0":177,"ISO":"PHL","NAME_0":"Philippines","ID_1":6030,"NAME_1":"Iloilo","ID_2":603017,"NAME_2":"Dueñas","ID_3":603017029,"NAME_3":"Minanga","NL_NAME_3":null,"VARNAME_3":null,"TYPE_3":"Barangay","ENGTYPE_3":"Village","PROVINCE":"Iloilo","REGION":"Region VI (Western Visayas)","id":"barangay-0603017029","name":"Minanga","barangayCode":"0603017029","population":null,"formattedPop":null,"densityCategory":"No data","vulnerabilityRating":"No data","healthRiskLevel":"No data","areaKm2":2.401166,"centerLat":11.048714,"centerLng":122.604868,"geometrySource":"all_barangay-2.csv detailed WKT","geometryMatchMethod":"unique_official_admin_names","boundaryPointCount":45},"geometry":{"type":"MultiPolygon","coordinates":[[[[122.612823,11.05858],[122.613083,11.05812],[122.61319,11.05717],[122.611923,11.0484],[122.611183,11.04766],[122.61116,11.04746],[122.611107,11.0469],[122.611168,11.04642],[122.611237,11.04626],[122.611748,11.0455],[122.611923,11.04505],[122.611572,11.044822],[122.611359,11.044878],[122.607964,11.044828],[122.606987,11.045818],[122.606575,11.045238],[122.606415,11.044968],[122.605667,11.044938],[122.605377,11.045078],[122.604477,11.045678],[122.604378,11.045658],[122.603043,11.045888],[122.602638,11.045858],[122.601059,11.046478],[122.600418,11.046438],[122.600075,11.046268],[122.599388,11.046438],[122.599228,11.046578],[122.598808,11.047258],[122.595947,11.046388],[122.59549,11.046161],[122.607819,11.05714],[122.608543,11.05742],[122.608742,11.05818],[122.608879,11.05867],[122.608971,11.05913],[122.608994,11.05926],[122.609077,11.05989],[122.609337,11.06023],[122.609818,11.06063],[122.610687,11.06075],[122.611237,11.06057],[122.611893,11.05986],[122.612617,11.0589],[122.612823,11.05858]]]]}},{"type":"Feature","properties":{"ID_0":177,"ISO":"PHL","NAME_0":"Philippines","ID_1":6030,"NAME_1":"Iloilo","ID_2":603017,"NAME_2":"Dueñas","ID_3":603017030,"NAME_3":"Monpon","NL_NAME_3":null,"VARNAME_3":null,"TYPE_3":"Barangay","ENGTYPE_3":"Village","PROVINCE":"Iloilo","REGION":"Region VI (Western Visayas)","id":"barangay-0603017030","name":"Monpon","barangayCode":"0603017030","population":null,"formattedPop":null,"densityCategory":"No data","vulnerabilityRating":"No data","healthRiskLevel":"No data","areaKm2":1.245069,"centerLat":11.070472,"centerLng":122.63852,"geometrySource":"all_barangay-2.csv detailed WKT","geometryMatchMethod":"unique_official_admin_names","boundaryPointCount":23},"geometry":{"type":"MultiPolygon","coordinates":[[[[122.646133,11.0728],[122.641357,11.05668],[122.637177,11.05851],[122.636971,11.0586],[122.636131,11.06127],[122.63623,11.06134],[122.635887,11.0623],[122.6353,11.06267],[122.635208,11.06273],[122.635353,11.06303],[122.636238,11.07684],[122.636597,11.07668],[122.636963,11.07629],[122.637848,11.0757],[122.638817,11.0757],[122.640007,11.07575],[122.640877,11.07514],[122.641563,11.07447],[122.642113,11.07434],[122.643417,11.07421],[122.643661,11.07405],[122.644653,11.0733],[122.646133,11.0728]]]]}},{"type":"Feature","properties":{"ID_0":177,"ISO":"PHL","NAME_0":"Philippines","ID_1":6030,"NAME_1":"Iloilo","ID_2":603017,"NAME_2":"Dueñas","ID_3":603017031,"NAME_3":"Navalas","NL_NAME_3":null,"VARNAME_3":null,"TYPE_3":"Barangay","ENGTYPE_3":"Village","PROVINCE":"Iloilo","REGION":"Region VI (Western Visayas)","id":"barangay-0603017031","name":"Navalas","barangayCode":"0603017031","population":null,"formattedPop":null,"densityCategory":"No data","vulnerabilityRating":"No data","healthRiskLevel":"No data","areaKm2":2.910522,"centerLat":11.017878,"centerLng":122.595457,"geometrySource":"all_barangay-2.csv detailed WKT","geometryMatchMethod":"unique_official_admin_names","boundaryPointCount":49},"geometry":{"type":"MultiPolygon","coordinates":[[[[122.593613,11.02739],[122.594398,11.02702],[122.594238,11.02571],[122.5961,11.0247],[122.596443,11.02312],[122.596916,11.02266],[122.597542,11.02112],[122.598022,11.02103],[122.600151,11.02094],[122.601837,11.02011],[122.602226,11.01915],[122.603577,11.01848],[122.603981,11.0177],[122.604218,11.01731],[122.605423,11.01609],[122.601738,11.00986],[122.600548,11.00911],[122.599998,11.00957],[122.599457,11.01062],[122.598969,11.01072],[122.598419,11.01048],[122.597008,11.01035],[122.596626,11.01071],[122.596657,11.01161],[122.596657,11.01211],[122.59581,11.01244],[122.595139,11.01271],[122.594917,11.01303],[122.594398,11.01351],[122.593658,11.01393],[122.59301,11.01436],[122.59227,11.01475],[122.591599,11.01482],[122.590973,11.01487],[122.590843,11.01468],[122.590103,11.0153],[122.591087,11.01615],[122.592239,11.01686],[122.592194,11.01744],[122.590942,11.01817],[122.590988,11.02033],[122.590874,11.02047],[122.591171,11.02128],[122.590553,11.02284],[122.59214,11.02396],[122.591957,11.02497],[122.59227,11.02621],[122.592628,11.02665],[122.593613,11.02739]]]]}},{"type":"Feature","properties":{"ID_0":177,"ISO":"PHL","NAME_0":"Philippines","ID_1":6030,"NAME_1":"Iloilo","ID_2":603017,"NAME_2":"Dueñas","ID_3":603017032,"NAME_3":"Pader","NL_NAME_3":null,"VARNAME_3":null,"TYPE_3":"Barangay","ENGTYPE_3":"Village","PROVINCE":"Iloilo","REGION":"Region VI (Western Visayas)","id":"barangay-0603017032","name":"Pader","barangayCode":"0603017032","population":null,"formattedPop":null,"densityCategory":"No data","vulnerabilityRating":"No data","healthRiskLevel":"No data","areaKm2":1.355795,"centerLat":11.073273,"centerLng":122.582692,"geometrySource":"all_barangay-2.csv detailed WKT","geometryMatchMethod":"unique_official_admin_names","boundaryPointCount":29},"geometry":{"type":"MultiPolygon","coordinates":[[[[122.58313,11.08135],[122.58844,11.07841],[122.587486,11.06799],[122.58699,11.06769],[122.585701,11.06754],[122.584007,11.06755],[122.581841,11.06758],[122.579979,11.06694],[122.579178,11.06661],[122.577751,11.06621],[122.57666,11.066],[122.575378,11.06734],[122.575317,11.06796],[122.580254,11.07365],[122.581421,11.07414],[122.581833,11.07423],[122.58242,11.07418],[122.582489,11.0743],[122.58268,11.07503],[122.582703,11.07545],[122.583366,11.07595],[122.583633,11.07614],[122.583862,11.07683],[122.583153,11.07816],[122.582687,11.0788],[122.582352,11.07899],[122.582542,11.07974],[122.582802,11.08016],[122.58313,11.08135]]]]}},{"type":"Feature","properties":{"ID_0":177,"ISO":"PHL","NAME_0":"Philippines","ID_1":6030,"NAME_1":"Iloilo","ID_2":603017,"NAME_2":"Dueñas","ID_3":603017033,"NAME_3":"Pandan","NL_NAME_3":null,"VARNAME_3":null,"TYPE_3":"Barangay","ENGTYPE_3":"Village","PROVINCE":"Iloilo","REGION":"Region VI (Western Visayas)","id":"barangay-0603017033","name":"Pandan","barangayCode":"0603017033","population":null,"formattedPop":null,"densityCategory":"No data","vulnerabilityRating":"No data","healthRiskLevel":"No data","areaKm2":1.891795,"centerLat":11.054601,"centerLng":122.627764,"geometrySource":"all_barangay-2.csv detailed WKT","geometryMatchMethod":"unique_official_admin_names","boundaryPointCount":39},"geometry":{"type":"MultiPolygon","coordinates":[[[[122.63623,11.06134],[122.636131,11.06127],[122.636971,11.0586],[122.637177,11.05851],[122.637306,11.05819],[122.636978,11.05757],[122.636673,11.0575],[122.636482,11.05745],[122.635719,11.05692],[122.635201,11.0563],[122.63504,11.05616],[122.634247,11.05558],[122.633949,11.05514],[122.633598,11.05451],[122.633202,11.05389],[122.633034,11.05347],[122.632133,11.05276],[122.63163,11.05248],[122.631203,11.05225],[122.630943,11.05231],[122.63044,11.05236],[122.629372,11.05205],[122.629211,11.05141],[122.628189,11.05122],[122.62677,11.05026],[122.625427,11.05152],[122.624832,11.05274],[122.624901,11.05313],[122.624001,11.05455],[122.623627,11.0559],[122.623154,11.0565],[122.622963,11.05659],[122.621948,11.05649],[122.622307,11.05626],[122.620483,11.05646],[122.620773,11.06099],[122.6278,11.06103],[122.627747,11.06165],[122.63623,11.06134]]]]}},{"type":"Feature","properties":{"ID_0":177,"ISO":"PHL","NAME_0":"Philippines","ID_1":6030,"NAME_1":"Iloilo","ID_2":603017,"NAME_2":"Dueñas","ID_3":603017038,"NAME_3":"Ponong Grande","NL_NAME_3":null,"VARNAME_3":null,"TYPE_3":"Barangay","ENGTYPE_3":"Village","PROVINCE":"Iloilo","REGION":"Region VI (Western Visayas)","id":"barangay-0603017038","name":"Ponong Grande","barangayCode":"0603017038","population":null,"formattedPop":null,"densityCategory":"No data","vulnerabilityRating":"No data","healthRiskLevel":"No data","areaKm2":3.107781,"centerLat":11.077152,"centerLng":122.624738,"geometrySource":"all_barangay-2.csv detailed WKT","geometryMatchMethod":"unique_official_admin_names","boundaryPointCount":77},"geometry":{"type":"MultiPolygon","coordinates":[[[[122.618568,11.09058],[122.618958,11.0898],[122.619759,11.0878],[122.620071,11.08751],[122.620773,11.08652],[122.621407,11.08554],[122.623039,11.08463],[122.624443,11.08456],[122.624931,11.08497],[122.625229,11.08521],[122.625977,11.08583],[122.626823,11.0861],[122.627892,11.08555],[122.628723,11.08499],[122.62941,11.08452],[122.629784,11.08407],[122.630127,11.0837],[122.630737,11.08288],[122.631027,11.08221],[122.631668,11.08047],[122.632019,11.07943],[122.632423,11.07884],[122.633293,11.0782],[122.634804,11.07763],[122.636238,11.07684],[122.635353,11.06303],[122.634666,11.06363],[122.634071,11.06422],[122.633759,11.06443],[122.633018,11.06467],[122.632233,11.06502],[122.632057,11.06513],[122.631638,11.06671],[122.631302,11.06655],[122.630966,11.06637],[122.630402,11.0662],[122.630188,11.06631],[122.630058,11.06746],[122.628952,11.06849],[122.628777,11.06879],[122.628647,11.06925],[122.628502,11.07054],[122.627853,11.07088],[122.627411,11.0715],[122.627136,11.07198],[122.626999,11.07216],[122.626328,11.07303],[122.625816,11.07307],[122.625488,11.07332],[122.625061,11.0735],[122.624527,11.07339],[122.624474,11.07339],[122.623672,11.07373],[122.623291,11.07384],[122.62249,11.07436],[122.621582,11.07475],[122.621338,11.07514],[122.620773,11.07521],[122.620461,11.07495],[122.620064,11.07472],[122.619461,11.07471],[122.618317,11.07521],[122.617996,11.07558],[122.617393,11.07523],[122.61647,11.07502],[122.615738,11.07478],[122.614822,11.07563],[122.614403,11.07567],[122.613853,11.07579],[122.614761,11.07687],[122.615417,11.07704],[122.613327,11.08712],[122.615158,11.09249],[122.616737,11.09178],[122.616943,11.0917],[122.617767,11.0914],[122.618568,11.09058]]]]}},{"type":"Feature","properties":{"ID_0":177,"ISO":"PHL","NAME_0":"Philippines","ID_1":6030,"NAME_1":"Iloilo","ID_2":603017,"NAME_2":"Dueñas","ID_3":603017039,"NAME_3":"Ponong Pequeño","NL_NAME_3":null,"VARNAME_3":"Ponong Pequeno","TYPE_3":"Barangay","ENGTYPE_3":"Village","PROVINCE":"Iloilo","REGION":"Region VI (Western Visayas)","id":"barangay-0603017039","name":"Ponong Pequeño","barangayCode":"0603017039","population":null,"formattedPop":null,"densityCategory":"No data","vulnerabilityRating":"No data","healthRiskLevel":"No data","areaKm2":2.987529,"centerLat":11.087842,"centerLng":122.603781,"geometrySource":"barangays.geojson simplified fallback","geometryMatchMethod":"simplified_fallback","boundaryPointCount":4},"geometry":{"type":"Polygon","coordinates":[[[122.59275927400006,11.09199013400007],[122.6168621600001,11.087239700000055],[122.59239996200006,11.082746875000055],[122.59275927400006,11.09199013400007]]]}},{"type":"Feature","properties":{"ID_0":177,"ISO":"PHL","NAME_0":"Philippines","ID_1":6030,"NAME_1":"Iloilo","ID_2":603017,"NAME_2":"Dueñas","ID_3":603017040,"NAME_3":"Purog","NL_NAME_3":null,"VARNAME_3":null,"TYPE_3":"Barangay","ENGTYPE_3":"Village","PROVINCE":"Iloilo","REGION":"Region VI (Western Visayas)","id":"barangay-0603017040","name":"Purog","barangayCode":"0603017040","population":null,"formattedPop":null,"densityCategory":"No data","vulnerabilityRating":"No data","healthRiskLevel":"No data","areaKm2":1.656531,"centerLat":11.052111,"centerLng":122.565517,"geometrySource":"all_barangay-2.csv detailed WKT","geometryMatchMethod":"unique_official_admin_names","boundaryPointCount":20},"geometry":{"type":"MultiPolygon","coordinates":[[[[122.567833,11.05997],[122.57077,11.05289],[122.575996,11.05257],[122.57589,11.05201],[122.573303,11.04716],[122.567734,11.04681],[122.566162,11.0478],[122.56575,11.04842],[122.564934,11.04862],[122.564651,11.04807],[122.564194,11.04814],[122.563171,11.04862],[122.562286,11.04867],[122.561707,11.04881],[122.561096,11.04931],[122.560677,11.04977],[122.560623,11.04982],[122.559647,11.05037],[122.562202,11.06322],[122.567833,11.05997]]]]}},{"type":"Feature","properties":{"ID_0":177,"ISO":"PHL","NAME_0":"Philippines","ID_1":6030,"NAME_1":"Iloilo","ID_2":603017,"NAME_2":"Dueñas","ID_3":603017041,"NAME_3":"Romblon","NL_NAME_3":null,"VARNAME_3":null,"TYPE_3":"Barangay","ENGTYPE_3":"Village","PROVINCE":"Iloilo","REGION":"Region VI (Western Visayas)","id":"barangay-0603017041","name":"Romblon","barangayCode":"0603017041","population":null,"formattedPop":null,"densityCategory":"No data","vulnerabilityRating":"No data","healthRiskLevel":"No data","areaKm2":1.994765,"centerLat":11.037468,"centerLng":122.567572,"geometrySource":"all_barangay-2.csv detailed WKT","geometryMatchMethod":"unique_official_admin_names","boundaryPointCount":81},"geometry":{"type":"MultiPolygon","coordinates":[[[[122.573303,11.04716],[122.579803,11.04335],[122.579643,11.04245],[122.581017,11.04137],[122.580528,11.03887],[122.580803,11.03852],[122.580482,11.03836],[122.579063,11.03854],[122.577843,11.03847],[122.577507,11.03794],[122.577003,11.03698],[122.57682,11.03608],[122.576057,11.03613],[122.574821,11.03532],[122.574677,11.03491],[122.574677,11.03427],[122.573303,11.03293],[122.572182,11.03208],[122.57206,11.03135],[122.571877,11.03086],[122.571228,11.03075],[122.570923,11.03098],[122.570419,11.0302],[122.570183,11.02962],[122.570229,11.02948],[122.569901,11.02797],[122.568642,11.02691],[122.568573,11.0261],[122.569748,11.02503],[122.569977,11.02487],[122.570351,11.02243],[122.568947,11.02291],[122.56871,11.02234],[122.567886,11.02229],[122.5672,11.02277],[122.566978,11.02381],[122.566856,11.02433],[122.566139,11.02447],[122.564781,11.02424],[122.56414,11.02392],[122.562897,11.02394],[122.562027,11.02442],[122.562462,11.02463],[122.562721,11.02498],[122.563301,11.02534],[122.564423,11.02599],[122.564941,11.02679],[122.564934,11.02794],[122.564743,11.02907],[122.565063,11.03088],[122.564873,11.03176],[122.564537,11.03205],[122.564278,11.03226],[122.564323,11.03215],[122.562889,11.03274],[122.562286,11.03412],[122.562592,11.03522],[122.562691,11.0358],[122.562317,11.03697],[122.562523,11.03761],[122.56282,11.03766],[122.562561,11.0383],[122.561813,11.03984],[122.560883,11.04035],[122.56086,11.04039],[122.561333,11.04191],[122.562286,11.04207],[122.562408,11.04154],[122.562912,11.04143],[122.563766,11.04221],[122.564217,11.04242],[122.564812,11.04336],[122.565033,11.04352],[122.565933,11.04403],[122.566887,11.04486],[122.567337,11.04499],[122.567787,11.04506],[122.568001,11.04534],[122.567657,11.04667],[122.567734,11.04681],[122.573303,11.04716]]]]}},{"type":"Feature","properties":{"ID_0":177,"ISO":"PHL","NAME_0":"Philippines","ID_1":6030,"NAME_1":"Iloilo","ID_2":603017,"NAME_2":"Dueñas","ID_3":603017042,"NAME_3":"San Isidro","NL_NAME_3":null,"VARNAME_3":null,"TYPE_3":"Barangay","ENGTYPE_3":"Village","PROVINCE":"Iloilo","REGION":"Region VI (Western Visayas)","id":"barangay-0603017042","name":"San Isidro","barangayCode":"0603017042","population":null,"formattedPop":null,"densityCategory":"No data","vulnerabilityRating":"No data","healthRiskLevel":"No data","areaKm2":1.880956,"centerLat":11.060875,"centerLng":122.57542,"geometrySource":"all_barangay-2.csv detailed WKT","geometryMatchMethod":"unique_official_admin_names","boundaryPointCount":50},"geometry":{"type":"MultiPolygon","coordinates":[[[[122.587486,11.06799],[122.58596,11.06421],[122.585854,11.06175],[122.585808,11.06071],[122.584969,11.05887],[122.584846,11.05887],[122.583473,11.05883],[122.583344,11.05883],[122.582176,11.05827],[122.581139,11.05778],[122.579727,11.05774],[122.579201,11.05802],[122.578941,11.05824],[122.578056,11.05824],[122.576843,11.05811],[122.57621,11.05503],[122.576599,11.0542],[122.575996,11.05257],[122.57077,11.05289],[122.567833,11.05997],[122.569397,11.06035],[122.569923,11.06052],[122.570007,11.06125],[122.569687,11.06164],[122.569809,11.06194],[122.57019,11.06245],[122.570534,11.06326],[122.571312,11.06382],[122.571457,11.06418],[122.571991,11.0649],[122.572182,11.06499],[122.572372,11.06516],[122.572456,11.06592],[122.572617,11.06598],[122.572998,11.0665],[122.57312,11.06666],[122.572922,11.06695],[122.572731,11.06723],[122.573807,11.06864],[122.575317,11.06796],[122.575378,11.06734],[122.57666,11.066],[122.577751,11.06621],[122.579178,11.06661],[122.579979,11.06694],[122.581841,11.06758],[122.584007,11.06755],[122.585701,11.06754],[122.58699,11.06769],[122.587486,11.06799]]]]}},{"type":"Feature","properties":{"ID_0":177,"ISO":"PHL","NAME_0":"Philippines","ID_1":6030,"NAME_1":"Iloilo","ID_2":603017,"NAME_2":"Dueñas","ID_3":603017043,"NAME_3":"Santo Niño","NL_NAME_3":null,"VARNAME_3":"Santo Nino","TYPE_3":"Barangay","ENGTYPE_3":"Village","PROVINCE":"Iloilo","REGION":"Region VI (Western Visayas)","id":"barangay-0603017043","name":"Santo Niño","barangayCode":"0603017043","population":null,"formattedPop":null,"densityCategory":"No data","vulnerabilityRating":"No data","healthRiskLevel":"No data","areaKm2":2.868533,"centerLat":11.068945,"centerLng":122.55417,"geometrySource":"all_barangay-2.csv detailed WKT","geometryMatchMethod":"unique_official_admin_names","boundaryPointCount":54},"geometry":{"type":"MultiPolygon","coordinates":[[[[122.56105,11.07818],[122.562828,11.0762],[122.563744,11.07579],[122.564293,11.07496],[122.564377,11.07457],[122.565063,11.07331],[122.566017,11.07174],[122.56559,11.07087],[122.564194,11.06814],[122.563789,11.06807],[122.563766,11.06758],[122.563652,11.06738],[122.563629,11.06685],[122.563133,11.06535],[122.562683,11.06407],[122.562057,11.06462],[122.560997,11.06489],[122.560547,11.06462],[122.557892,11.06411],[122.554657,11.06436],[122.554314,11.06471],[122.552994,11.06475],[122.551804,11.06528],[122.551369,11.06517],[122.549789,11.06507],[122.548859,11.06505],[122.547707,11.06519],[122.54641,11.06512],[122.545837,11.06542],[122.545303,11.06698],[122.54406,11.06726],[122.539688,11.06985],[122.538963,11.07215],[122.537308,11.07295],[122.538788,11.07302],[122.541183,11.07314],[122.54435,11.07353],[122.544922,11.07397],[122.545822,11.07427],[122.546494,11.07383],[122.547684,11.07374],[122.548347,11.07438],[122.548714,11.07491],[122.549156,11.07546],[122.549568,11.0756],[122.550758,11.07576],[122.551422,11.0756],[122.552437,11.07599],[122.553207,11.07609],[122.554237,11.07611],[122.555481,11.07567],[122.556862,11.0762],[122.557877,11.07698],[122.56105,11.07818]]]]}},{"type":"Feature","properties":{"ID_0":177,"ISO":"PHL","NAME_0":"Philippines","ID_1":6030,"NAME_1":"Iloilo","ID_2":603017,"NAME_2":"Dueñas","ID_3":603017044,"NAME_3":"Sawe","NL_NAME_3":null,"VARNAME_3":null,"TYPE_3":"Barangay","ENGTYPE_3":"Village","PROVINCE":"Iloilo","REGION":"Region VI (Western Visayas)","id":"barangay-0603017044","name":"Sawe","barangayCode":"0603017044","population":null,"formattedPop":null,"densityCategory":"No data","vulnerabilityRating":"No data","healthRiskLevel":"No data","areaKm2":2.383308,"centerLat":11.084702,"centerLng":122.577697,"geometrySource":"all_barangay-2.csv detailed WKT","geometryMatchMethod":"unique_official_admin_names","boundaryPointCount":43},"geometry":{"type":"MultiPolygon","coordinates":[[[[122.578743,11.09532],[122.579262,11.0947],[122.579712,11.09374],[122.58007,11.09326],[122.580704,11.09303],[122.581558,11.09277],[122.582352,11.09156],[122.584244,11.09064],[122.585587,11.09082],[122.586632,11.08744],[122.584503,11.08494],[122.584122,11.08342],[122.58358,11.08255],[122.583267,11.08202],[122.58313,11.08135],[122.582802,11.08016],[122.582542,11.07974],[122.582352,11.07899],[122.582687,11.0788],[122.583153,11.07816],[122.583862,11.07683],[122.583633,11.07614],[122.583366,11.07595],[122.582703,11.07545],[122.58268,11.07503],[122.582489,11.0743],[122.58242,11.07418],[122.581833,11.07423],[122.581421,11.07414],[122.580254,11.07365],[122.57962,11.07492],[122.578789,11.07542],[122.576981,11.07529],[122.575783,11.07542],[122.573723,11.07653],[122.572617,11.0782],[122.572327,11.08004],[122.571701,11.08174],[122.571243,11.08326],[122.569092,11.08459],[122.56665,11.08604],[122.570557,11.0947],[122.578743,11.09532]]]]}},{"type":"Feature","properties":{"ID_0":177,"ISO":"PHL","NAME_0":"Philippines","ID_1":6030,"NAME_1":"Iloilo","ID_2":603017,"NAME_2":"Dueñas","ID_3":603017045,"NAME_3":"Taminla","NL_NAME_3":null,"VARNAME_3":null,"TYPE_3":"Barangay","ENGTYPE_3":"Village","PROVINCE":"Iloilo","REGION":"Region VI (Western Visayas)","id":"barangay-0603017045","name":"Taminla","barangayCode":"0603017045","population":null,"formattedPop":null,"densityCategory":"No data","vulnerabilityRating":"No data","healthRiskLevel":"No data","areaKm2":3.098913,"centerLat":11.008463,"centerLng":122.588862,"geometrySource":"all_barangay-2.csv detailed WKT","geometryMatchMethod":"unique_official_admin_names","boundaryPointCount":64},"geometry":{"type":"MultiPolygon","coordinates":[[[[122.584839,11.01544],[122.586906,11.01509],[122.587273,11.01519],[122.588333,11.0156],[122.589417,11.01553],[122.590103,11.0153],[122.590843,11.01468],[122.590973,11.01487],[122.591599,11.01482],[122.59227,11.01475],[122.59301,11.01436],[122.593658,11.01393],[122.594398,11.01351],[122.594917,11.01303],[122.595139,11.01271],[122.59581,11.01244],[122.596657,11.01211],[122.596657,11.01161],[122.596626,11.01071],[122.597008,11.01035],[122.598419,11.01048],[122.598969,11.01072],[122.599457,11.01062],[122.599998,11.00957],[122.600548,11.00911],[122.595032,11.00128],[122.593117,10.99774],[122.591713,10.9973],[122.591164,10.99755],[122.590889,10.99785],[122.590767,10.99783],[122.590134,10.99741],[122.589546,10.99796],[122.588768,10.99796],[122.587914,10.99766],[122.587547,10.99803],[122.586563,10.99814],[122.585609,10.99789],[122.584351,10.99835],[122.58419,10.99915],[122.584183,10.99919],[122.584389,11.00016],[122.583603,11.00163],[122.583427,11.00216],[122.583313,11.00322],[122.583252,11.00375],[122.583229,11.00432],[122.583344,11.00487],[122.583389,11.00542],[122.582626,11.00597],[122.582397,11.00652],[122.583008,11.00675],[122.583702,11.00662],[122.584343,11.00655],[122.584671,11.00857],[122.582909,11.00923],[122.583397,11.0096],[122.584976,11.00979],[122.585274,11.01149],[122.583847,11.01208],[122.584007,11.01252],[122.584297,11.01346],[122.585083,11.01472],[122.584839,11.01544]]]]}},{"type":"Feature","properties":{"ID_0":177,"ISO":"PHL","NAME_0":"Philippines","ID_1":6030,"NAME_1":"Iloilo","ID_2":603017,"NAME_2":"Dueñas","ID_3":603017046,"NAME_3":"Tinocuan","NL_NAME_3":null,"VARNAME_3":null,"TYPE_3":"Barangay","ENGTYPE_3":"Village","PROVINCE":"Iloilo","REGION":"Region VI (Western Visayas)","id":"barangay-0603017046","name":"Tinocuan","barangayCode":"0603017046","population":null,"formattedPop":null,"densityCategory":"No data","vulnerabilityRating":"No data","healthRiskLevel":"No data","areaKm2":2.485691,"centerLat":11.043196,"centerLng":122.615917,"geometrySource":"all_barangay-2.csv detailed WKT","geometryMatchMethod":"unique_official_admin_names","boundaryPointCount":55},"geometry":{"type":"MultiPolygon","coordinates":[[[[122.620773,11.06099],[122.620483,11.05646],[122.620506,11.05522],[122.620499,11.05416],[122.620773,11.05315],[122.620506,11.05073],[122.620468,11.04935],[122.620979,11.0486],[122.622467,11.04794],[122.624298,11.04797],[122.624962,11.04851],[122.625633,11.04938],[122.626167,11.04927],[122.62677,11.05026],[122.628189,11.05122],[122.629211,11.05141],[122.629913,11.05107],[122.63015,11.05026],[122.629189,11.04844],[122.628464,11.04747],[122.627518,11.04657],[122.62693,11.04576],[122.626984,11.04461],[122.627457,11.04436],[122.628304,11.04184],[122.627411,11.04106],[122.626373,11.04043],[122.624779,11.04047],[122.624817,11.03939],[122.624748,11.03839],[122.623543,11.03806],[122.621941,11.03807],[122.621742,11.03795],[122.611267,11.04065],[122.611252,11.04265],[122.610786,11.04387],[122.610764,11.04428],[122.611572,11.044822],[122.611923,11.04505],[122.611748,11.0455],[122.611237,11.04626],[122.611168,11.04642],[122.611107,11.0469],[122.61116,11.04746],[122.611183,11.04766],[122.611923,11.0484],[122.61319,11.05717],[122.613083,11.05812],[122.612823,11.05858],[122.614067,11.06003],[122.614487,11.06029],[122.615463,11.0616],[122.618217,11.06017],[122.619911,11.06092],[122.620773,11.06099]]]]}},{"type":"Feature","properties":{"ID_0":177,"ISO":"PHL","NAME_0":"Philippines","ID_1":6030,"NAME_1":"Iloilo","ID_2":603017,"NAME_2":"Dueñas","ID_3":603017047,"NAME_3":"Tipolo","NL_NAME_3":null,"VARNAME_3":null,"TYPE_3":"Barangay","ENGTYPE_3":"Village","PROVINCE":"Iloilo","REGION":"Region VI (Western Visayas)","id":"barangay-0603017047","name":"Tipolo","barangayCode":"0603017047","population":null,"formattedPop":null,"densityCategory":"No data","vulnerabilityRating":"No data","healthRiskLevel":"No data","areaKm2":2.647038,"centerLat":11.06515,"centerLng":122.646779,"geometrySource":"all_barangay-2.csv detailed WKT","geometryMatchMethod":"unique_official_admin_names","boundaryPointCount":37},"geometry":{"type":"MultiPolygon","coordinates":[[[[122.646133,11.0728],[122.646652,11.07283],[122.647858,11.07216],[122.648857,11.07171],[122.649559,11.07146],[122.64994,11.07137],[122.650887,11.07142],[122.651688,11.07075],[122.652634,11.06997],[122.653877,11.06965],[122.654427,11.06957],[122.655357,11.06959],[122.655922,11.06945],[122.657043,11.06884],[122.657448,11.06803],[122.657623,11.06698],[122.657417,11.06643],[122.65728,11.0655],[122.656563,11.06424],[122.655197,11.06335],[122.653801,11.06282],[122.653542,11.06259],[122.652977,11.06157],[122.653328,11.06112],[122.654427,11.05972],[122.654411,11.05889],[122.653671,11.05886],[122.652023,11.05904],[122.650352,11.05907],[122.649132,11.05902],[122.648178,11.0589],[122.646553,11.05825],[122.646156,11.05776],[122.646133,11.05721],[122.646927,11.05531],[122.641357,11.05668],[122.646133,11.0728]]]]}},{"type":"Feature","properties":{"ID_0":177,"ISO":"PHL","NAME_0":"Philippines","ID_1":6030,"NAME_1":"Iloilo","ID_2":603017,"NAME_2":"Dueñas","ID_3":603017048,"NAME_3":"Poblacion A","NL_NAME_3":null,"VARNAME_3":null,"TYPE_3":"Barangay","ENGTYPE_3":"Village","PROVINCE":"Iloilo","REGION":"Region VI (Western Visayas)","id":"barangay-0603017048","name":"Poblacion A","barangayCode":"0603017048","population":null,"formattedPop":null,"densityCategory":"No data","vulnerabilityRating":"No data","healthRiskLevel":"No data","areaKm2":0.931645,"centerLat":11.068294,"centerLng":122.624504,"geometrySource":"all_barangay-2.csv detailed WKT","geometryMatchMethod":"unique_official_admin_names","boundaryPointCount":31},"geometry":{"type":"MultiPolygon","coordinates":[[[[122.619461,11.07471],[122.620064,11.07472],[122.620461,11.07495],[122.620773,11.07521],[122.621338,11.07514],[122.621582,11.07475],[122.62249,11.07436],[122.623291,11.07384],[122.623672,11.07373],[122.624474,11.07339],[122.624527,11.07339],[122.625061,11.0735],[122.625488,11.07332],[122.625816,11.07307],[122.626328,11.07303],[122.626999,11.07216],[122.627136,11.07198],[122.627411,11.0715],[122.627853,11.07088],[122.628502,11.07054],[122.628647,11.06925],[122.628777,11.06879],[122.628952,11.06849],[122.630058,11.06746],[122.630188,11.06631],[122.629898,11.06645],[122.621651,11.06562],[122.618713,11.06583],[122.618973,11.06769],[122.619362,11.07207],[122.619461,11.07471]]]]}},{"type":"Feature","properties":{"ID_0":177,"ISO":"PHL","NAME_0":"Philippines","ID_1":6030,"NAME_1":"Iloilo","ID_2":603017,"NAME_2":"Dueñas","ID_3":603017049,"NAME_3":"Poblacion B","NL_NAME_3":null,"VARNAME_3":null,"TYPE_3":"Barangay","ENGTYPE_3":"Village","PROVINCE":"Iloilo","REGION":"Region VI (Western Visayas)","id":"barangay-0603017049","name":"Poblacion B","barangayCode":"0603017049","population":null,"formattedPop":null,"densityCategory":"No data","vulnerabilityRating":"No data","healthRiskLevel":"No data","areaKm2":0.447269,"centerLat":11.071394,"centerLng":122.617763,"geometrySource":"all_barangay-2.csv detailed WKT","geometryMatchMethod":"unique_official_admin_names","boundaryPointCount":24},"geometry":{"type":"MultiPolygon","coordinates":[[[[122.619461,11.07471],[122.619362,11.07207],[122.618973,11.06769],[122.609413,11.06861],[122.606293,11.06951],[122.606453,11.06997],[122.609459,11.07015],[122.60994,11.07022],[122.613007,11.07081],[122.613533,11.07123],[122.614838,11.07158],[122.614906,11.07156],[122.614143,11.07261],[122.614143,11.0727],[122.615303,11.07338],[122.61544,11.07338],[122.615601,11.07384],[122.615463,11.07414],[122.615738,11.07478],[122.61647,11.07502],[122.617393,11.07523],[122.617996,11.07558],[122.618317,11.07521],[122.619461,11.07471]]]]}},{"type":"Feature","properties":{"ID_0":177,"ISO":"PHL","NAME_0":"Philippines","ID_1":6030,"NAME_1":"Iloilo","ID_2":603017,"NAME_2":"Dueñas","ID_3":603017050,"NAME_3":"Poblacion C","NL_NAME_3":null,"VARNAME_3":null,"TYPE_3":"Barangay","ENGTYPE_3":"Village","PROVINCE":"Iloilo","REGION":"Region VI (Western Visayas)","id":"barangay-0603017050","name":"Poblacion C","barangayCode":"0603017050","population":null,"formattedPop":null,"densityCategory":"No data","vulnerabilityRating":"No data","healthRiskLevel":"No data","areaKm2":0.487601,"centerLat":11.064968,"centerLng":122.614838,"geometrySource":"all_barangay-2.csv detailed WKT","geometryMatchMethod":"unique_official_admin_names","boundaryPointCount":38},"geometry":{"type":"MultiPolygon","coordinates":[[[[122.60289,11.0705],[122.606293,11.06951],[122.609413,11.06861],[122.618973,11.06769],[122.618713,11.06583],[122.619362,11.06485],[122.619293,11.06432],[122.619911,11.06092],[122.618217,11.06017],[122.615463,11.0616],[122.614487,11.06029],[122.614067,11.06003],[122.612823,11.05858],[122.612617,11.0589],[122.611893,11.05986],[122.611237,11.06057],[122.610687,11.06075],[122.609818,11.06063],[122.609337,11.06023],[122.609077,11.05989],[122.608994,11.05926],[122.608971,11.05913],[122.608879,11.05867],[122.608742,11.05818],[122.608543,11.05742],[122.607819,11.05714],[122.606102,11.05704],[122.605431,11.0571],[122.604042,11.05759],[122.604301,11.06017],[122.602448,11.06294],[122.602638,11.06358],[122.60424,11.06513],[122.603996,11.06525],[122.603706,11.06602],[122.604233,11.06656],[122.601929,11.06909],[122.60289,11.0705]]]]}},{"type":"Feature","properties":{"ID_0":177,"ISO":"PHL","NAME_0":"Philippines","ID_1":6030,"NAME_1":"Iloilo","ID_2":603017,"NAME_2":"Dueñas","ID_3":603017051,"NAME_3":"Poblacion D","NL_NAME_3":null,"VARNAME_3":null,"TYPE_3":"Barangay","ENGTYPE_3":"Village","PROVINCE":"Iloilo","REGION":"Region VI (Western Visayas)","id":"barangay-0603017051","name":"Poblacion D","barangayCode":"0603017051","population":null,"formattedPop":null,"densityCategory":"No data","vulnerabilityRating":"No data","healthRiskLevel":"No data","areaKm2":0.72286,"centerLat":11.063248,"centerLng":122.625137,"geometrySource":"all_barangay-2.csv detailed WKT","geometryMatchMethod":"unique_official_admin_names","boundaryPointCount":26},"geometry":{"type":"MultiPolygon","coordinates":[[[[122.630188,11.06631],[122.630402,11.0662],[122.630966,11.06637],[122.631302,11.06655],[122.631638,11.06671],[122.632057,11.06513],[122.632233,11.06502],[122.633018,11.06467],[122.633759,11.06443],[122.634071,11.06422],[122.634666,11.06363],[122.635353,11.06303],[122.635208,11.06273],[122.6353,11.06267],[122.635887,11.0623],[122.63623,11.06134],[122.627747,11.06165],[122.6278,11.06103],[122.620773,11.06099],[122.619911,11.06092],[122.619293,11.06432],[122.619362,11.06485],[122.618713,11.06583],[122.621651,11.06562],[122.629898,11.06645],[122.630188,11.06631]]]]}}]}
