{"type":"FeatureCollection","features":[{"type":"Feature","properties":{"ID_0":177,"ISO":"PHL","NAME_0":"Philippines","ID_1":8048,"NAME_1":"Northern Samar","ID_2":804805,"NAME_2":"Catarman (Capital)","ID_3":804805001,"NAME_3":"Aguinaldo","NL_NAME_3":null,"VARNAME_3":null,"TYPE_3":"Barangay","ENGTYPE_3":"Village","PROVINCE":"Northern Samar","REGION":"Region VIII (Eastern Visayas)","id":"barangay-0804805001","name":"Aguinaldo","barangayCode":"0804805001","population":null,"formattedPop":null,"densityCategory":"No data","vulnerabilityRating":"No data","healthRiskLevel":"No data","areaKm2":2.207932,"centerLat":12.435944,"centerLng":124.647647,"geometrySource":"all_barangay-2.csv detailed WKT","geometryMatchMethod":"psgc_coordinate_bridge","boundaryPointCount":6},"geometry":{"type":"MultiPolygon","coordinates":[[[[124.639771,12.45054],[124.636421,12.4364],[124.623817,12.4378],[124.62426,12.43953],[124.626793,12.4506],[124.639771,12.45054]]]]}},{"type":"Feature","properties":{"ID_0":177,"ISO":"PHL","NAME_0":"Philippines","ID_1":8048,"NAME_1":"Northern Samar","ID_2":804805,"NAME_2":"Catarman (Capital)","ID_3":804805002,"NAME_3":"Airport Village","NL_NAME_3":null,"VARNAME_3":null,"TYPE_3":"Barangay","ENGTYPE_3":"Village","PROVINCE":"Northern Samar","REGION":"Region VIII (Eastern Visayas)","id":"barangay-0804805002","name":"Airport Village","barangayCode":"0804805002","population":null,"formattedPop":null,"densityCategory":"No data","vulnerabilityRating":"No data","healthRiskLevel":"No data","areaKm2":0.105179,"centerLat":12.502926,"centerLng":124.637812,"geometrySource":"all_barangay-2.csv detailed WKT","geometryMatchMethod":"psgc_coordinate_bridge","boundaryPointCount":14},"geometry":{"type":"MultiPolygon","coordinates":[[[[124.631668,12.50825],[124.63179,12.50817],[124.632072,12.50803],[124.633469,12.50776],[124.634453,12.50776],[124.635696,12.50748],[124.637108,12.50734],[124.638443,12.50734],[124.638283,12.50457],[124.637207,12.50463],[124.636032,12.50471],[124.634407,12.50476],[124.631447,12.50492],[124.631668,12.50825]]]]}},{"type":"Feature","properties":{"ID_0":177,"ISO":"PHL","NAME_0":"Philippines","ID_1":8048,"NAME_1":"Northern Samar","ID_2":804805,"NAME_2":"Catarman (Capital)","ID_3":804805003,"NAME_3":"Baybay","NL_NAME_3":null,"VARNAME_3":null,"TYPE_3":"Barangay","ENGTYPE_3":"Village","PROVINCE":"Northern Samar","REGION":"Region VIII (Eastern Visayas)","id":"barangay-0804805003","name":"Baybay","barangayCode":"0804805003","population":null,"formattedPop":null,"densityCategory":"No data","vulnerabilityRating":"No data","healthRiskLevel":"No data","areaKm2":0.555003,"centerLat":12.507195,"centerLng":124.646347,"geometrySource":"all_barangay-2.csv detailed WKT","geometryMatchMethod":"psgc_coordinate_bridge","boundaryPointCount":61},"geometry":{"type":"MultiPolygon","coordinates":[[[[124.642776,12.49938],[124.642288,12.49936],[124.642181,12.49984],[124.64222,12.50053],[124.642197,12.50139],[124.642776,12.50083],[124.642776,12.49938]]],[[[124.653023,12.50473],[124.653084,12.50439],[124.654518,12.50466],[124.654732,12.50429],[124.653847,12.50371],[124.653481,12.50354],[124.652977,12.50333],[124.652527,12.50321],[124.652458,12.50281],[124.65239,12.50244],[124.652588,12.50217],[124.65271,12.50199],[124.653267,12.50272],[124.654221,12.50239],[124.654694,12.50228],[124.654922,12.50222],[124.655609,12.50154],[124.656509,12.50153],[124.657158,12.50095],[124.657303,12.50077],[124.657738,12.50016],[124.657753,12.49927],[124.643898,12.4994],[124.643806,12.49981],[124.64373,12.50022],[124.644417,12.502],[124.644958,12.50295],[124.64695,12.50376],[124.647331,12.50391],[124.648453,12.50384],[124.648582,12.50388],[124.649872,12.50425],[124.65062,12.50446],[124.651581,12.5054],[124.651947,12.50577],[124.652359,12.50578],[124.652939,12.50515],[124.653023,12.50473]]],[[[124.647697,12.50732],[124.647003,12.50695],[124.646217,12.50659],[124.64595,12.50647],[124.644897,12.50612],[124.643433,12.50585],[124.642517,12.50475],[124.642227,12.50354],[124.642372,12.50731],[124.64389,12.50719],[124.645363,12.50719],[124.646156,12.50767],[124.646408,12.50781],[124.647827,12.5083],[124.64772,12.50797],[124.647697,12.50732]]]]}},{"type":"Feature","properties":{"ID_0":177,"ISO":"PHL","NAME_0":"Philippines","ID_1":8048,"NAME_1":"Northern Samar","ID_2":804805,"NAME_2":"Catarman (Capital)","ID_3":804805005,"NAME_3":"Bocsol","NL_NAME_3":null,"VARNAME_3":null,"TYPE_3":"Barangay","ENGTYPE_3":"Village","PROVINCE":"Northern Samar","REGION":"Region VIII (Eastern Visayas)","id":"barangay-0804805005","name":"Bocsol","barangayCode":"0804805005","population":null,"formattedPop":null,"densityCategory":"No data","vulnerabilityRating":"No data","healthRiskLevel":"No data","areaKm2":3.603081,"centerLat":12.461155,"centerLng":124.566706,"geometrySource":"all_barangay-2.csv detailed WKT","geometryMatchMethod":"psgc_coordinate_bridge","boundaryPointCount":12},"geometry":{"type":"MultiPolygon","coordinates":[[[[124.588966,12.47538],[124.591248,12.46686],[124.593513,12.45714],[124.594994,12.4507],[124.594421,12.45068],[124.584793,12.45358],[124.577347,12.45539],[124.578117,12.46302],[124.578529,12.46833],[124.580437,12.46932],[124.584381,12.47204],[124.588966,12.47538]]]]}},{"type":"Feature","properties":{"ID_0":177,"ISO":"PHL","NAME_0":"Philippines","ID_1":8048,"NAME_1":"Northern Samar","ID_2":804805,"NAME_2":"Catarman (Capital)","ID_3":804805007,"NAME_3":"Cabayhan","NL_NAME_3":null,"VARNAME_3":null,"TYPE_3":"Barangay","ENGTYPE_3":"Village","PROVINCE":"Northern Samar","REGION":"Region VIII (Eastern Visayas)","id":"barangay-0804805007","name":"Cabayhan","barangayCode":"0804805007","population":null,"formattedPop":null,"densityCategory":"No data","vulnerabilityRating":"No data","healthRiskLevel":"No data","areaKm2":8.15658,"centerLat":12.466882,"centerLng":124.589615,"geometrySource":"all_barangay-2.csv detailed WKT","geometryMatchMethod":"psgc_coordinate_bridge","boundaryPointCount":23},"geometry":{"type":"MultiPolygon","coordinates":[[[[124.626793,12.4506],[124.62426,12.43953],[124.623817,12.4378],[124.615997,12.43762],[124.615288,12.43754],[124.606483,12.43735],[124.602997,12.43733],[124.60305,12.4381],[124.603241,12.43929],[124.602982,12.44073],[124.602837,12.44146],[124.602989,12.44269],[124.602669,12.44399],[124.601921,12.44503],[124.601486,12.446],[124.601662,12.44679],[124.601624,12.4479],[124.601196,12.44854],[124.60128,12.44974],[124.601387,12.45058],[124.609154,12.45054],[124.6166,12.45048],[124.626793,12.4506]]]]}},{"type":"Feature","properties":{"ID_0":177,"ISO":"PHL","NAME_0":"Philippines","ID_1":8048,"NAME_1":"Northern Samar","ID_2":804805,"NAME_2":"Catarman (Capital)","ID_3":804805008,"NAME_3":"Cag-abaca","NL_NAME_3":null,"VARNAME_3":null,"TYPE_3":"Barangay","ENGTYPE_3":"Village","PROVINCE":"Northern Samar","REGION":"Region VIII (Eastern Visayas)","id":"barangay-0804805008","name":"Cag-abaca","barangayCode":"0804805008","population":null,"formattedPop":null,"densityCategory":"No data","vulnerabilityRating":"No data","healthRiskLevel":"No data","areaKm2":10.477051,"centerLat":12.424257,"centerLng":124.602307,"geometrySource":"all_barangay-2.csv detailed WKT","geometryMatchMethod":"psgc_coordinate_bridge","boundaryPointCount":15},"geometry":{"type":"MultiPolygon","coordinates":[[[[124.623817,12.4378],[124.623772,12.43688],[124.620506,12.42208],[124.619217,12.41638],[124.612511,12.41554],[124.611023,12.4154],[124.60434,12.41449],[124.60466,12.41792],[124.604919,12.42161],[124.605522,12.42692],[124.606087,12.43148],[124.606483,12.43735],[124.615288,12.43754],[124.615997,12.43762],[124.623817,12.4378]]]]}},{"type":"Feature","properties":{"ID_0":177,"ISO":"PHL","NAME_0":"Philippines","ID_1":8048,"NAME_1":"Northern Samar","ID_2":804805,"NAME_2":"Catarman (Capital)","ID_3":804805010,"NAME_3":"Cal-igang","NL_NAME_3":null,"VARNAME_3":null,"TYPE_3":"Barangay","ENGTYPE_3":"Village","PROVINCE":"Northern Samar","REGION":"Region VIII (Eastern Visayas)","id":"barangay-0804805010","name":"Cal-igang","barangayCode":"0804805010","population":null,"formattedPop":null,"densityCategory":"No data","vulnerabilityRating":"No data","healthRiskLevel":"No data","areaKm2":7.461169,"centerLat":12.44832,"centerLng":124.618858,"geometrySource":"all_barangay-2.csv detailed WKT","geometryMatchMethod":"psgc_coordinate_bridge","boundaryPointCount":15},"geometry":{"type":"MultiPolygon","coordinates":[[[[124.626534,12.47287],[124.626839,12.46974],[124.626907,12.45469],[124.626793,12.4506],[124.6166,12.45048],[124.609154,12.45054],[124.601387,12.45058],[124.596321,12.45054],[124.594994,12.4507],[124.593513,12.45714],[124.591248,12.46686],[124.588966,12.47538],[124.608742,12.47202],[124.614792,12.47241],[124.626534,12.47287]]]]}},{"type":"Feature","properties":{"ID_0":177,"ISO":"PHL","NAME_0":"Philippines","ID_1":8048,"NAME_1":"Northern Samar","ID_2":804805,"NAME_2":"Catarman (Capital)","ID_3":804805011,"NAME_3":"Cawayan","NL_NAME_3":null,"VARNAME_3":null,"TYPE_3":"Barangay","ENGTYPE_3":"Village","PROVINCE":"Northern Samar","REGION":"Region VIII (Eastern Visayas)","id":"barangay-0804805011","name":"Cawayan","barangayCode":"0804805011","population":null,"formattedPop":null,"densityCategory":"No data","vulnerabilityRating":"No data","healthRiskLevel":"No data","areaKm2":1.380177,"centerLat":12.506469,"centerLng":124.654687,"geometrySource":"all_barangay-2.csv detailed WKT","geometryMatchMethod":"psgc_coordinate_bridge","boundaryPointCount":44},"geometry":{"type":"MultiPolygon","coordinates":[[[[124.654984,12.51206],[124.654984,12.51213],[124.655273,12.51275],[124.65506,12.51396],[124.655212,12.51497],[124.655487,12.51553],[124.655907,12.51573],[124.656883,12.51531],[124.656937,12.51504],[124.657219,12.51476],[124.65799,12.51421],[124.659393,12.51518],[124.659576,12.51588],[124.659683,12.5164],[124.66008,12.51695],[124.660454,12.51745],[124.660896,12.5178],[124.661133,12.51786],[124.661491,12.51796],[124.66217,12.51781],[124.662758,12.51644],[124.663727,12.51582],[124.664436,12.51437],[124.664787,12.51362],[124.664932,12.51335],[124.665337,12.51258],[124.666183,12.51189],[124.667236,12.51134],[124.668701,12.50962],[124.670242,12.50948],[124.671432,12.50873],[124.673111,12.50914],[124.675278,12.50885],[124.676468,12.5085],[124.676788,12.50853],[124.676979,12.50598],[124.677757,12.49562],[124.677788,12.49515],[124.677399,12.49516],[124.670418,12.49509],[124.668999,12.49592],[124.664757,12.4992],[124.657341,12.51133],[124.654984,12.51206]]]]}},{"type":"Feature","properties":{"ID_0":177,"ISO":"PHL","NAME_0":"Philippines","ID_1":8048,"NAME_1":"Northern Samar","ID_2":804805,"NAME_2":"Catarman (Capital)","ID_3":804805012,"NAME_3":"Cervantes","NL_NAME_3":null,"VARNAME_3":null,"TYPE_3":"Barangay","ENGTYPE_3":"Village","PROVINCE":"Northern Samar","REGION":"Region VIII (Eastern Visayas)","id":"barangay-0804805012","name":"Cervantes","barangayCode":"0804805012","population":null,"formattedPop":null,"densityCategory":"No data","vulnerabilityRating":"No data","healthRiskLevel":"No data","areaKm2":16.533939,"centerLat":12.36434,"centerLng":124.65312,"geometrySource":"all_barangay-2.csv detailed WKT","geometryMatchMethod":"psgc_coordinate_bridge","boundaryPointCount":41},"geometry":{"type":"MultiPolygon","coordinates":[[[[124.649277,12.38083],[124.650284,12.38033],[124.651199,12.37983],[124.651863,12.37915],[124.652298,12.37758],[124.652672,12.37628],[124.653664,12.37551],[124.654747,12.37615],[124.655853,12.37719],[124.657463,12.37792],[124.658859,12.37796],[124.659851,12.37737],[124.661469,12.37528],[124.661484,12.37418],[124.661278,12.37255],[124.661148,12.37198],[124.660789,12.37077],[124.660202,12.36952],[124.659203,12.36953],[124.658234,12.36941],[124.657753,12.36903],[124.657944,12.36795],[124.659317,12.36665],[124.660896,12.36536],[124.661713,12.36444],[124.661858,12.3631],[124.661034,12.36175],[124.659721,12.36061],[124.65818,12.36003],[124.666153,12.35951],[124.65966,12.34748],[124.658287,12.3451],[124.653618,12.34362],[124.644043,12.34092],[124.645287,12.3497],[124.64566,12.35202],[124.645859,12.35362],[124.64637,12.3581],[124.647003,12.363],[124.648514,12.37737],[124.649277,12.38083]]]]}},{"type":"Feature","properties":{"ID_0":177,"ISO":"PHL","NAME_0":"Philippines","ID_1":8048,"NAME_1":"Northern Samar","ID_2":804805,"NAME_2":"Catarman (Capital)","ID_3":804805013,"NAME_3":"Cularima","NL_NAME_3":null,"VARNAME_3":null,"TYPE_3":"Barangay","ENGTYPE_3":"Village","PROVINCE":"Northern Samar","REGION":"Region VIII (Eastern Visayas)","id":"barangay-0804805013","name":"Cularima","barangayCode":"0804805013","population":null,"formattedPop":null,"densityCategory":"No data","vulnerabilityRating":"No data","healthRiskLevel":"No data","areaKm2":3.515159,"centerLat":12.406261,"centerLng":124.59634,"geometrySource":"all_barangay-2.csv detailed WKT","geometryMatchMethod":"psgc_coordinate_bridge","boundaryPointCount":11},"geometry":{"type":"MultiPolygon","coordinates":[[[[124.619217,12.41638],[124.626213,12.41171],[124.626266,12.40945],[124.6269,12.40297],[124.613808,12.40038],[124.607803,12.39929],[124.607239,12.39923],[124.609413,12.40858],[124.611023,12.4154],[124.612511,12.41554],[124.619217,12.41638]]]]}},{"type":"Feature","properties":{"ID_0":177,"ISO":"PHL","NAME_0":"Philippines","ID_1":8048,"NAME_1":"Northern Samar","ID_2":804805,"NAME_2":"Catarman (Capital)","ID_3":804805015,"NAME_3":"Daganas","NL_NAME_3":null,"VARNAME_3":null,"TYPE_3":"Barangay","ENGTYPE_3":"Village","PROVINCE":"Northern Samar","REGION":"Region VIII (Eastern Visayas)","id":"barangay-0804805015","name":"Daganas","barangayCode":"0804805015","population":null,"formattedPop":null,"densityCategory":"No data","vulnerabilityRating":"No data","healthRiskLevel":"No data","areaKm2":3.880577,"centerLat":12.50639,"centerLng":124.612249,"geometrySource":"all_barangay-2.csv detailed WKT","geometryMatchMethod":"psgc_coordinate_bridge","boundaryPointCount":63},"geometry":{"type":"MultiPolygon","coordinates":[[[[124.606133,12.51691],[124.606613,12.51675],[124.607132,12.51665],[124.6073,12.51637],[124.607353,12.51628],[124.60791,12.516],[124.608192,12.51572],[124.608467,12.51559],[124.608612,12.51545],[124.609169,12.51517],[124.609756,12.51517],[124.609871,12.51517],[124.61071,12.51504],[124.61113,12.5149],[124.611687,12.51448],[124.611847,12.51425],[124.611969,12.51407],[124.612389,12.5138],[124.613289,12.51345],[124.61441,12.51311],[124.615723,12.5124],[124.616272,12.51232],[124.616829,12.51211],[124.617317,12.51183],[124.617599,12.51177],[124.618301,12.51163],[124.61956,12.5117],[124.620819,12.51211],[124.621979,12.51195],[124.622704,12.51175],[124.623253,12.51147],[124.623672,12.51134],[124.624367,12.51092],[124.624931,12.51051],[124.625427,12.51056],[124.625839,12.5104],[124.625328,12.50395],[124.625214,12.50381],[124.625328,12.50325],[124.625107,12.50305],[124.623596,12.50247],[124.623009,12.502],[124.621742,12.50191],[124.621002,12.50154],[124.620163,12.50051],[124.620773,12.49947],[124.620857,12.499],[124.620453,12.49854],[124.619331,12.4987],[124.617172,12.49861],[124.616524,12.49857],[124.615677,12.49799],[124.612267,12.4979],[124.611519,12.4981],[124.610809,12.49784],[124.609489,12.49813],[124.608887,12.49815],[124.60791,12.49876],[124.607201,12.49932],[124.606277,12.49943],[124.606377,12.50707],[124.606613,12.5167],[124.606133,12.51691]]]]}},{"type":"Feature","properties":{"ID_0":177,"ISO":"PHL","NAME_0":"Philippines","ID_1":8048,"NAME_1":"Northern Samar","ID_2":804805,"NAME_2":"Catarman (Capital)","ID_3":804805016,"NAME_3":"Galutan","NL_NAME_3":null,"VARNAME_3":null,"TYPE_3":"Barangay","ENGTYPE_3":"Village","PROVINCE":"Northern Samar","REGION":"Region VIII (Eastern Visayas)","id":"barangay-0804805016","name":"Galutan","barangayCode":"0804805016","population":null,"formattedPop":null,"densityCategory":"No data","vulnerabilityRating":"No data","healthRiskLevel":"No data","areaKm2":3.594995,"centerLat":12.484752,"centerLng":124.673024,"geometrySource":"all_barangay-2.csv detailed WKT","geometryMatchMethod":"psgc_coordinate_bridge","boundaryPointCount":46},"geometry":{"type":"MultiPolygon","coordinates":[[[[124.642776,12.49778],[124.642776,12.49737],[124.642273,12.49883],[124.642288,12.49936],[124.642776,12.49938],[124.642776,12.49833],[124.643059,12.49806],[124.642776,12.49778]]],[[[124.668999,12.49592],[124.670418,12.49509],[124.677399,12.49516],[124.677788,12.49515],[124.677803,12.49472],[124.677887,12.49411],[124.678253,12.49167],[124.681473,12.47799],[124.670731,12.47777],[124.669838,12.47889],[124.66877,12.48049],[124.667717,12.48178],[124.666519,12.48371],[124.665031,12.48552],[124.663338,12.48732],[124.661179,12.48896],[124.659416,12.49033],[124.658043,12.49126],[124.656342,12.49173],[124.654739,12.49196],[124.652512,12.49241],[124.650177,12.49285],[124.649384,12.49317],[124.647827,12.49427],[124.646858,12.49455],[124.645813,12.49538],[124.64547,12.49579],[124.645081,12.4962],[124.644737,12.49664],[124.64447,12.49701],[124.644241,12.4973],[124.644081,12.49759],[124.643967,12.49793],[124.643944,12.49857],[124.643898,12.4994],[124.657753,12.49927],[124.664757,12.4992],[124.668999,12.49592]]]]}},{"type":"Feature","properties":{"ID_0":177,"ISO":"PHL","NAME_0":"Philippines","ID_1":8048,"NAME_1":"Northern Samar","ID_2":804805,"NAME_2":"Catarman (Capital)","ID_3":804805018,"NAME_3":"General Malvar","NL_NAME_3":null,"VARNAME_3":null,"TYPE_3":"Barangay","ENGTYPE_3":"Village","PROVINCE":"Northern Samar","REGION":"Region VIII (Eastern Visayas)","id":"barangay-0804805018","name":"General Malvar","barangayCode":"0804805018","population":null,"formattedPop":null,"densityCategory":"No data","vulnerabilityRating":"No data","healthRiskLevel":"No data","areaKm2":13.243876,"centerLat":12.408581,"centerLng":124.564222,"geometrySource":"all_barangay-2.csv detailed WKT","geometryMatchMethod":"psgc_coordinate_bridge","boundaryPointCount":9},"geometry":{"type":"MultiPolygon","coordinates":[[[[124.611023,12.4154],[124.609413,12.40858],[124.607239,12.39923],[124.606659,12.39909],[124.594078,12.39682],[124.594101,12.40618],[124.593971,12.41298],[124.60434,12.41449],[124.611023,12.4154]]]]}},{"type":"Feature","properties":{"ID_0":177,"ISO":"PHL","NAME_0":"Philippines","ID_1":8048,"NAME_1":"Northern Samar","ID_2":804805,"NAME_2":"Catarman (Capital)","ID_3":804805020,"NAME_3":"Guba","NL_NAME_3":null,"VARNAME_3":null,"TYPE_3":"Barangay","ENGTYPE_3":"Village","PROVINCE":"Northern Samar","REGION":"Region VIII (Eastern Visayas)","id":"barangay-0804805020","name":"Guba","barangayCode":"0804805020","population":null,"formattedPop":null,"densityCategory":"No data","vulnerabilityRating":"No data","healthRiskLevel":"No data","areaKm2":4.671354,"centerLat":12.429218,"centerLng":124.556888,"geometrySource":"all_barangay-2.csv detailed WKT","geometryMatchMethod":"psgc_coordinate_bridge","boundaryPointCount":10},"geometry":{"type":"MultiPolygon","coordinates":[[[[124.575943,12.4369],[124.592873,12.43709],[124.59671,12.43714],[124.593948,12.43036],[124.592506,12.42662],[124.592102,12.42598],[124.58654,12.41211],[124.573936,12.41106],[124.574768,12.42231],[124.575943,12.4369]]]]}},{"type":"Feature","properties":{"ID_0":177,"ISO":"PHL","NAME_0":"Philippines","ID_1":8048,"NAME_1":"Northern Samar","ID_2":804805,"NAME_2":"Catarman (Capital)","ID_3":804805021,"NAME_3":"Gebalagnan","NL_NAME_3":null,"VARNAME_3":null,"TYPE_3":"Barangay","ENGTYPE_3":"Village","PROVINCE":"Northern Samar","REGION":"Region VIII (Eastern Visayas)","id":"barangay-0804805021","name":"Gebalagnan","barangayCode":"0804805021","population":null,"formattedPop":null,"densityCategory":"No data","vulnerabilityRating":"No data","healthRiskLevel":"No data","areaKm2":12.067671,"centerLat":12.375993,"centerLng":124.68182,"geometrySource":"all_barangay-2.csv detailed WKT","geometryMatchMethod":"psgc_coordinate_bridge","boundaryPointCount":59},"geometry":{"type":"MultiPolygon","coordinates":[[[[124.695107,12.3846],[124.689636,12.35816],[124.689034,12.35743],[124.68856,12.35753],[124.688744,12.35849],[124.688187,12.35871],[124.687477,12.35862],[124.687737,12.35975],[124.686867,12.36005],[124.685501,12.35954],[124.684631,12.35841],[124.684837,12.35729],[124.685387,12.35585],[124.684502,12.35433],[124.684914,12.35382],[124.684303,12.35315],[124.684387,12.35168],[124.683701,12.35195],[124.683258,12.35104],[124.682732,12.35203],[124.681976,12.35229],[124.681396,12.35154],[124.681252,12.34981],[124.669701,12.36644],[124.666153,12.35951],[124.65818,12.36003],[124.659721,12.36061],[124.661034,12.36175],[124.661858,12.3631],[124.661713,12.36444],[124.660896,12.36536],[124.659317,12.36665],[124.657944,12.36795],[124.657753,12.36903],[124.658234,12.36941],[124.659203,12.36953],[124.660202,12.36952],[124.660789,12.37077],[124.661148,12.37198],[124.661278,12.37255],[124.661484,12.37418],[124.661469,12.37528],[124.659851,12.37737],[124.658859,12.37796],[124.657463,12.37792],[124.655853,12.37719],[124.654747,12.37615],[124.653664,12.37551],[124.652672,12.37628],[124.652298,12.37758],[124.651863,12.37915],[124.651199,12.37983],[124.650284,12.38033],[124.649277,12.38083],[124.673027,12.38281],[124.678497,12.3833],[124.681137,12.38354],[124.688759,12.38415],[124.695107,12.3846]]]]}},{"type":"Feature","properties":{"ID_0":177,"ISO":"PHL","NAME_0":"Philippines","ID_1":8048,"NAME_1":"Northern Samar","ID_2":804805,"NAME_2":"Catarman (Capital)","ID_3":804805022,"NAME_3":"Gebulwangan","NL_NAME_3":null,"VARNAME_3":null,"TYPE_3":"Barangay","ENGTYPE_3":"Village","PROVINCE":"Northern Samar","REGION":"Region VIII (Eastern Visayas)","id":"barangay-0804805022","name":"Gebulwangan","barangayCode":"0804805022","population":null,"formattedPop":null,"densityCategory":"No data","vulnerabilityRating":"No data","healthRiskLevel":"No data","areaKm2":6.95109,"centerLat":12.371821,"centerLng":124.595747,"geometrySource":"all_barangay-2.csv detailed WKT","geometryMatchMethod":"psgc_coordinate_bridge","boundaryPointCount":23},"geometry":{"type":"MultiPolygon","coordinates":[[[[124.6269,12.40297],[124.627136,12.40121],[124.628311,12.38923],[124.628113,12.38815],[124.622276,12.3874],[124.620247,12.38634],[124.612892,12.38271],[124.612,12.37262],[124.61129,12.36566],[124.609077,12.3618],[124.604797,12.36206],[124.603943,12.36204],[124.594261,12.36243],[124.592453,12.36249],[124.5896,12.36273],[124.588028,12.37974],[124.591583,12.38977],[124.594078,12.39682],[124.606659,12.39909],[124.607239,12.39923],[124.607803,12.39929],[124.613808,12.40038],[124.6269,12.40297]]]]}},{"type":"Feature","properties":{"ID_0":177,"ISO":"PHL","NAME_0":"Philippines","ID_1":8048,"NAME_1":"Northern Samar","ID_2":804805,"NAME_2":"Catarman (Capital)","ID_3":804805025,"NAME_3":"Doña Pulqueria","NL_NAME_3":null,"VARNAME_3":"Dona Pulqueria (Himbang)","TYPE_3":"Barangay","ENGTYPE_3":"Village","PROVINCE":"Northern Samar","REGION":"Region VIII (Eastern Visayas)","id":"barangay-0804805025","name":"Doña Pulqueria","barangayCode":"0804805025","population":null,"formattedPop":null,"densityCategory":"No data","vulnerabilityRating":"No data","healthRiskLevel":"No data","areaKm2":4.055376,"centerLat":12.476308,"centerLng":124.662497,"geometrySource":"barangays.geojson simplified fallback","geometryMatchMethod":"simplified_fallback","boundaryPointCount":5},"geometry":{"type":"Polygon","coordinates":[[[124.65978994300008,12.489649557000064],[124.67442227300012,12.47240948600006],[124.66673443700006,12.465265505000048],[124.65320761700002,12.470358937000071],[124.65978994300008,12.489649557000064]]]}},{"type":"Feature","properties":{"ID_0":177,"ISO":"PHL","NAME_0":"Philippines","ID_1":8048,"NAME_1":"Northern Samar","ID_2":804805,"NAME_2":"Catarman (Capital)","ID_3":804805026,"NAME_3":"Hinatad","NL_NAME_3":null,"VARNAME_3":null,"TYPE_3":"Barangay","ENGTYPE_3":"Village","PROVINCE":"Northern Samar","REGION":"Region VIII (Eastern Visayas)","id":"barangay-0804805026","name":"Hinatad","barangayCode":"0804805026","population":null,"formattedPop":null,"densityCategory":"No data","vulnerabilityRating":"No data","healthRiskLevel":"No data","areaKm2":5.51215,"centerLat":12.470334,"centerLng":124.688266,"geometrySource":"all_barangay-2.csv detailed WKT","geometryMatchMethod":"psgc_coordinate_bridge","boundaryPointCount":25},"geometry":{"type":"MultiPolygon","coordinates":[[[[124.705383,12.47848],[124.707962,12.47183],[124.710617,12.46519],[124.694908,12.46439],[124.675507,12.46329],[124.673103,12.46424],[124.671478,12.4648],[124.665108,12.46748],[124.666733,12.46873],[124.667877,12.46972],[124.668907,12.47022],[124.670258,12.47074],[124.670967,12.47124],[124.672058,12.47202],[124.672684,12.47265],[124.672882,12.47344],[124.672707,12.47439],[124.672211,12.47514],[124.671677,12.47598],[124.671112,12.47687],[124.670731,12.47777],[124.681473,12.47799],[124.687172,12.47811],[124.699738,12.47833],[124.705383,12.47848]]]]}},{"type":"Feature","properties":{"ID_0":177,"ISO":"PHL","NAME_0":"Philippines","ID_1":8048,"NAME_1":"Northern Samar","ID_2":804805,"NAME_2":"Catarman (Capital)","ID_3":804805027,"NAME_3":"Imelda","NL_NAME_3":null,"VARNAME_3":null,"TYPE_3":"Barangay","ENGTYPE_3":"Village","PROVINCE":"Northern Samar","REGION":"Region VIII (Eastern Visayas)","id":"barangay-0804805027","name":"Imelda","barangayCode":"0804805027","population":null,"formattedPop":null,"densityCategory":"No data","vulnerabilityRating":"No data","healthRiskLevel":"No data","areaKm2":5.8254,"centerLat":12.487547,"centerLng":124.693013,"geometrySource":"all_barangay-2.csv detailed WKT","geometryMatchMethod":"psgc_coordinate_bridge","boundaryPointCount":13},"geometry":{"type":"MultiPolygon","coordinates":[[[[124.701141,12.4957],[124.701912,12.48752],[124.703377,12.48369],[124.705383,12.47848],[124.699738,12.47833],[124.687172,12.47811],[124.681473,12.47799],[124.678253,12.49167],[124.677887,12.49411],[124.677803,12.49472],[124.677788,12.49515],[124.688583,12.49551],[124.701141,12.4957]]]]}},{"type":"Feature","properties":{"ID_0":177,"ISO":"PHL","NAME_0":"Philippines","ID_1":8048,"NAME_1":"Northern Samar","ID_2":804805,"NAME_2":"Catarman (Capital)","ID_3":804805028,"NAME_3":"Liberty","NL_NAME_3":null,"VARNAME_3":null,"TYPE_3":"Barangay","ENGTYPE_3":"Village","PROVINCE":"Northern Samar","REGION":"Region VIII (Eastern Visayas)","id":"barangay-0804805028","name":"Liberty","barangayCode":"0804805028","population":null,"formattedPop":null,"densityCategory":"No data","vulnerabilityRating":"No data","healthRiskLevel":"No data","areaKm2":3.932197,"centerLat":12.367062,"centerLng":124.621068,"geometrySource":"all_barangay-2.csv detailed WKT","geometryMatchMethod":"psgc_coordinate_bridge","boundaryPointCount":54},"geometry":{"type":"MultiPolygon","coordinates":[[[[124.649277,12.38083],[124.648514,12.37737],[124.647003,12.363],[124.64637,12.3581],[124.645859,12.35362],[124.64566,12.35202],[124.645287,12.3497],[124.644043,12.34092],[124.633217,12.33755],[124.624207,12.33786],[124.629501,12.36049],[124.625923,12.36529],[124.626823,12.36736],[124.627296,12.36872],[124.626457,12.36961],[124.626183,12.37069],[124.626472,12.37152],[124.626083,12.37222],[124.625587,12.37286],[124.625717,12.37383],[124.625366,12.37493],[124.624489,12.37557],[124.623573,12.37643],[124.62281,12.3771],[124.622169,12.37727],[124.621887,12.37764],[124.622223,12.37809],[124.623253,12.37853],[124.624603,12.37943],[124.625557,12.38008],[124.626503,12.38042],[124.626671,12.38139],[124.626671,12.38261],[124.626801,12.38364],[124.626846,12.38441],[124.626678,12.38557],[124.627571,12.38636],[124.627892,12.38712],[124.629608,12.38792],[124.630081,12.3878],[124.630028,12.38708],[124.629837,12.38566],[124.630173,12.38481],[124.631706,12.3842],[124.632629,12.38274],[124.633453,12.3812],[124.634613,12.38171],[124.635368,12.38266],[124.636368,12.38296],[124.639908,12.38262],[124.64328,12.38226],[124.645981,12.38185],[124.647858,12.38148],[124.649277,12.38083]]]]}},{"type":"Feature","properties":{"ID_0":177,"ISO":"PHL","NAME_0":"Philippines","ID_1":8048,"NAME_1":"Northern Samar","ID_2":804805,"NAME_2":"Catarman (Capital)","ID_3":804805029,"NAME_3":"Libjo","NL_NAME_3":null,"VARNAME_3":null,"TYPE_3":"Barangay","ENGTYPE_3":"Village","PROVINCE":"Northern Samar","REGION":"Region VIII (Eastern Visayas)","id":"barangay-0804805029","name":"Libjo","barangayCode":"0804805029","population":null,"formattedPop":null,"densityCategory":"No data","vulnerabilityRating":"No data","healthRiskLevel":"No data","areaKm2":9.097791,"centerLat":12.486483,"centerLng":124.601843,"geometrySource":"all_barangay-2.csv detailed WKT","geometryMatchMethod":"psgc_coordinate_bridge","boundaryPointCount":30},"geometry":{"type":"MultiPolygon","coordinates":[[[[124.606277,12.49943],[124.607201,12.49932],[124.60791,12.49876],[124.608887,12.49815],[124.609489,12.49813],[124.610809,12.49784],[124.611519,12.4981],[124.612267,12.4979],[124.615677,12.49799],[124.616524,12.49857],[124.617172,12.49861],[124.619331,12.4987],[124.620453,12.49854],[124.620773,12.49788],[124.620667,12.49745],[124.620949,12.49701],[124.62748,12.49706],[124.631577,12.49723],[124.629768,12.48885],[124.626534,12.47287],[124.614792,12.47241],[124.608742,12.47202],[124.588966,12.47538],[124.584381,12.47204],[124.580437,12.46932],[124.578529,12.46833],[124.57943,12.47845],[124.580223,12.4886],[124.581032,12.49885],[124.606277,12.49943]]]]}},{"type":"Feature","properties":{"ID_0":177,"ISO":"PHL","NAME_0":"Philippines","ID_1":8048,"NAME_1":"Northern Samar","ID_2":804805,"NAME_2":"Catarman (Capital)","ID_3":804805032,"NAME_3":"Mabini","NL_NAME_3":null,"VARNAME_3":null,"TYPE_3":"Barangay","ENGTYPE_3":"Village","PROVINCE":"Northern Samar","REGION":"Region VIII (Eastern Visayas)","id":"barangay-0804805032","name":"Mabini","barangayCode":"0804805032","population":null,"formattedPop":null,"densityCategory":"No data","vulnerabilityRating":"No data","healthRiskLevel":"No data","areaKm2":12.067948,"centerLat":12.341152,"centerLng":124.543518,"geometrySource":"all_barangay-2.csv detailed WKT","geometryMatchMethod":"psgc_coordinate_bridge","boundaryPointCount":15},"geometry":{"type":"MultiPolygon","coordinates":[[[[124.609077,12.3618],[124.596268,12.33758],[124.591026,12.32776],[124.586594,12.31942],[124.584457,12.31596],[124.580528,12.31606],[124.56649,12.31611],[124.570068,12.35912],[124.576599,12.35998],[124.5896,12.36273],[124.592453,12.36249],[124.594261,12.36243],[124.603943,12.36204],[124.604797,12.36206],[124.609077,12.3618]]]]}},{"type":"Feature","properties":{"ID_0":177,"ISO":"PHL","NAME_0":"Philippines","ID_1":8048,"NAME_1":"Northern Samar","ID_2":804805,"NAME_2":"Catarman (Capital)","ID_3":804805033,"NAME_3":"Macagtas","NL_NAME_3":null,"VARNAME_3":null,"TYPE_3":"Barangay","ENGTYPE_3":"Village","PROVINCE":"Northern Samar","REGION":"Region VIII (Eastern Visayas)","id":"barangay-0804805033","name":"Macagtas","barangayCode":"0804805033","population":null,"formattedPop":null,"densityCategory":"No data","vulnerabilityRating":"No data","healthRiskLevel":"No data","areaKm2":12.692277,"centerLat":12.47924,"centerLng":124.632865,"geometrySource":"all_barangay-2.csv detailed WKT","geometryMatchMethod":"psgc_coordinate_bridge","boundaryPointCount":29},"geometry":{"type":"MultiPolygon","coordinates":[[[[124.639923,12.49752],[124.642776,12.49714],[124.642776,12.49694],[124.643059,12.49667],[124.643059,12.49528],[124.643333,12.495],[124.643333,12.49472],[124.64389,12.49417],[124.64389,12.49389],[124.644157,12.49361],[124.644447,12.49361],[124.64444,12.49342],[124.644859,12.49294],[124.645149,12.49271],[124.645233,12.49224],[124.650002,12.47244],[124.647743,12.47315],[124.646423,12.47372],[124.638252,12.4734],[124.63678,12.47331],[124.628357,12.47303],[124.626534,12.47287],[124.629768,12.48885],[124.631577,12.49723],[124.634193,12.4973],[124.635246,12.49724],[124.636612,12.49736],[124.638763,12.49736],[124.639923,12.49752]]]]}},{"type":"Feature","properties":{"ID_0":177,"ISO":"PHL","NAME_0":"Philippines","ID_1":8048,"NAME_1":"Northern Samar","ID_2":804805,"NAME_2":"Catarman (Capital)","ID_3":804805034,"NAME_3":"Mckinley","NL_NAME_3":null,"VARNAME_3":null,"TYPE_3":"Barangay","ENGTYPE_3":"Village","PROVINCE":"Northern Samar","REGION":"Region VIII (Eastern Visayas)","id":"barangay-0804805034","name":"Mckinley","barangayCode":"0804805034","population":null,"formattedPop":null,"densityCategory":"No data","vulnerabilityRating":"No data","healthRiskLevel":"No data","areaKm2":35.161187,"centerLat":12.43324,"centerLng":124.695572,"geometrySource":"all_barangay-2.csv detailed WKT","geometryMatchMethod":"psgc_coordinate_bridge","boundaryPointCount":18},"geometry":{"type":"MultiPolygon","coordinates":[[[[124.665108,12.46748],[124.671478,12.4648],[124.673103,12.46424],[124.675507,12.46329],[124.694908,12.46439],[124.710617,12.46519],[124.711807,12.4619],[124.727783,12.41693],[124.697838,12.41701],[124.690948,12.44686],[124.681862,12.44946],[124.658051,12.45642],[124.657593,12.46953],[124.660042,12.4683],[124.661743,12.46762],[124.663521,12.46718],[124.664581,12.46717],[124.665108,12.46748]]]]}},{"type":"Feature","properties":{"ID_0":177,"ISO":"PHL","NAME_0":"Philippines","ID_1":8048,"NAME_1":"Northern Samar","ID_2":804805,"NAME_2":"Catarman (Capital)","ID_3":804805037,"NAME_3":"New Rizal","NL_NAME_3":null,"VARNAME_3":null,"TYPE_3":"Barangay","ENGTYPE_3":"Village","PROVINCE":"Northern Samar","REGION":"Region VIII (Eastern Visayas)","id":"barangay-0804805037","name":"New Rizal","barangayCode":"0804805037","population":null,"formattedPop":null,"densityCategory":"No data","vulnerabilityRating":"No data","healthRiskLevel":"No data","areaKm2":6.575012,"centerLat":12.448939,"centerLng":124.595912,"geometrySource":"all_barangay-2.csv detailed WKT","geometryMatchMethod":"psgc_coordinate_bridge","boundaryPointCount":25},"geometry":{"type":"MultiPolygon","coordinates":[[[[124.594994,12.4507],[124.596321,12.45054],[124.601387,12.45058],[124.60128,12.44974],[124.601196,12.44854],[124.601624,12.4479],[124.601662,12.44679],[124.601486,12.446],[124.601921,12.44503],[124.602669,12.44399],[124.602989,12.44269],[124.602837,12.44146],[124.602982,12.44073],[124.603241,12.43929],[124.60305,12.4381],[124.602997,12.43733],[124.59671,12.43714],[124.592873,12.43709],[124.575943,12.4369],[124.576637,12.44345],[124.577362,12.45318],[124.577347,12.45539],[124.584793,12.45358],[124.594421,12.45068],[124.594994,12.4507]]]]}},{"type":"Feature","properties":{"ID_0":177,"ISO":"PHL","NAME_0":"Philippines","ID_1":8048,"NAME_1":"Northern Samar","ID_2":804805,"NAME_2":"Catarman (Capital)","ID_3":804805038,"NAME_3":"Old Rizal","NL_NAME_3":null,"VARNAME_3":null,"TYPE_3":"Barangay","ENGTYPE_3":"Village","PROVINCE":"Northern Samar","REGION":"Region VIII (Eastern Visayas)","id":"barangay-0804805038","name":"Old Rizal","barangayCode":"0804805038","population":null,"formattedPop":null,"densityCategory":"No data","vulnerabilityRating":"No data","healthRiskLevel":"No data","areaKm2":3.771755,"centerLat":12.506602,"centerLng":124.593232,"geometrySource":"all_barangay-2.csv detailed WKT","geometryMatchMethod":"psgc_coordinate_bridge","boundaryPointCount":33},"geometry":{"type":"MultiPolygon","coordinates":[[[[124.582848,12.52278],[124.583107,12.5227],[124.583946,12.52243],[124.586327,12.5216],[124.586647,12.52161],[124.587471,12.52165],[124.588448,12.52165],[124.59034,12.52075],[124.591393,12.52028],[124.591721,12.52015],[124.592773,12.51977],[124.593262,12.5196],[124.593964,12.51926],[124.594872,12.51926],[124.595863,12.51898],[124.59697,12.51884],[124.597672,12.51884],[124.59893,12.51843],[124.59977,12.51843],[124.599907,12.51842],[124.601173,12.51829],[124.60215,12.51802],[124.602654,12.51777],[124.602989,12.5176],[124.605087,12.51705],[124.605637,12.51709],[124.606133,12.51691],[124.606613,12.5167],[124.606377,12.50707],[124.606277,12.49943],[124.581032,12.49885],[124.581932,12.51054],[124.582848,12.52278]]]]}},{"type":"Feature","properties":{"ID_0":177,"ISO":"PHL","NAME_0":"Philippines","ID_1":8048,"NAME_1":"Northern Samar","ID_2":804805,"NAME_2":"Catarman (Capital)","ID_3":804805041,"NAME_3":"Paticua","NL_NAME_3":null,"VARNAME_3":null,"TYPE_3":"Barangay","ENGTYPE_3":"Village","PROVINCE":"Northern Samar","REGION":"Region VIII (Eastern Visayas)","id":"barangay-0804805041","name":"Paticua","barangayCode":"0804805041","population":null,"formattedPop":null,"densityCategory":"No data","vulnerabilityRating":"No data","healthRiskLevel":"No data","areaKm2":7.638272,"centerLat":12.39023,"centerLng":124.581614,"geometrySource":"all_barangay-2.csv detailed WKT","geometryMatchMethod":"psgc_coordinate_bridge","boundaryPointCount":8},"geometry":{"type":"MultiPolygon","coordinates":[[[[124.594078,12.39682],[124.591583,12.38977],[124.588028,12.37974],[124.583092,12.38073],[124.571709,12.38276],[124.571953,12.387],[124.573257,12.40006],[124.594078,12.39682]]]]}},{"type":"Feature","properties":{"ID_0":177,"ISO":"PHL","NAME_0":"Philippines","ID_1":8048,"NAME_1":"Northern Samar","ID_2":804805,"NAME_2":"Catarman (Capital)","ID_3":804805042,"NAME_3":"Polangi","NL_NAME_3":null,"VARNAME_3":null,"TYPE_3":"Barangay","ENGTYPE_3":"Village","PROVINCE":"Northern Samar","REGION":"Region VIII (Eastern Visayas)","id":"barangay-0804805042","name":"Polangi","barangayCode":"0804805042","population":null,"formattedPop":null,"densityCategory":"No data","vulnerabilityRating":"No data","healthRiskLevel":"No data","areaKm2":23.957534,"centerLat":12.394936,"centerLng":124.637134,"geometrySource":"all_barangay-2.csv detailed WKT","geometryMatchMethod":"psgc_coordinate_bridge","boundaryPointCount":39},"geometry":{"type":"MultiPolygon","coordinates":[[[[124.697838,12.41701],[124.696953,12.40622],[124.696289,12.39783],[124.695107,12.3846],[124.688759,12.38415],[124.681137,12.38354],[124.678497,12.3833],[124.673027,12.38281],[124.649277,12.38083],[124.647858,12.38148],[124.645981,12.38185],[124.64328,12.38226],[124.639908,12.38262],[124.636368,12.38296],[124.635368,12.38266],[124.634613,12.38171],[124.633453,12.3812],[124.632629,12.38274],[124.631706,12.3842],[124.630173,12.38481],[124.629837,12.38566],[124.630028,12.38708],[124.630081,12.3878],[124.629608,12.38792],[124.627892,12.38712],[124.628113,12.38815],[124.628311,12.38923],[124.627136,12.40121],[124.6269,12.40297],[124.626266,12.40945],[124.626213,12.41171],[124.628906,12.41257],[124.632721,12.41383],[124.637604,12.41531],[124.648613,12.41548],[124.679192,12.41601],[124.687286,12.41614],[124.689072,12.41628],[124.697838,12.41701]]]]}},{"type":"Feature","properties":{"ID_0":177,"ISO":"PHL","NAME_0":"Philippines","ID_1":8048,"NAME_1":"Northern Samar","ID_2":804805,"NAME_2":"Catarman (Capital)","ID_3":804805043,"NAME_3":"Quezon","NL_NAME_3":null,"VARNAME_3":null,"TYPE_3":"Barangay","ENGTYPE_3":"Village","PROVINCE":"Northern Samar","REGION":"Region VIII (Eastern Visayas)","id":"barangay-0804805043","name":"Quezon","barangayCode":"0804805043","population":null,"formattedPop":null,"densityCategory":"No data","vulnerabilityRating":"No data","healthRiskLevel":"No data","areaKm2":5.992394,"centerLat":12.360646,"centerLng":124.56983,"geometrySource":"all_barangay-2.csv detailed WKT","geometryMatchMethod":"psgc_coordinate_bridge","boundaryPointCount":9},"geometry":{"type":"MultiPolygon","coordinates":[[[[124.571709,12.38276],[124.583092,12.38073],[124.588028,12.37974],[124.5896,12.36273],[124.576599,12.35998],[124.570068,12.35912],[124.570541,12.36921],[124.570953,12.37447],[124.571709,12.38276]]]]}},{"type":"Feature","properties":{"ID_0":177,"ISO":"PHL","NAME_0":"Philippines","ID_1":8048,"NAME_1":"Northern Samar","ID_2":804805,"NAME_2":"Catarman (Capital)","ID_3":804805045,"NAME_3":"Salvacion","NL_NAME_3":null,"VARNAME_3":null,"TYPE_3":"Barangay","ENGTYPE_3":"Village","PROVINCE":"Northern Samar","REGION":"Region VIII (Eastern Visayas)","id":"barangay-0804805045","name":"Salvacion","barangayCode":"0804805045","population":null,"formattedPop":null,"densityCategory":"No data","vulnerabilityRating":"No data","healthRiskLevel":"No data","areaKm2":3.612787,"centerLat":12.446382,"centerLng":124.567788,"geometrySource":"all_barangay-2.csv detailed WKT","geometryMatchMethod":"psgc_coordinate_bridge","boundaryPointCount":9},"geometry":{"type":"MultiPolygon","coordinates":[[[[124.602997,12.43733],[124.606483,12.43735],[124.606087,12.43148],[124.605522,12.42692],[124.595062,12.42671],[124.592506,12.42662],[124.593948,12.43036],[124.59671,12.43714],[124.602997,12.43733]]]]}},{"type":"Feature","properties":{"ID_0":177,"ISO":"PHL","NAME_0":"Philippines","ID_1":8048,"NAME_1":"Northern Samar","ID_2":804805,"NAME_2":"Catarman (Capital)","ID_3":804805049,"NAME_3":"San Julian","NL_NAME_3":null,"VARNAME_3":null,"TYPE_3":"Barangay","ENGTYPE_3":"Village","PROVINCE":"Northern Samar","REGION":"Region VIII (Eastern Visayas)","id":"barangay-0804805049","name":"San Julian","barangayCode":"0804805049","population":null,"formattedPop":null,"densityCategory":"No data","vulnerabilityRating":"No data","healthRiskLevel":"No data","areaKm2":3.969291,"centerLat":12.432113,"centerLng":124.575766,"geometrySource":"all_barangay-2.csv detailed WKT","geometryMatchMethod":"psgc_coordinate_bridge","boundaryPointCount":10},"geometry":{"type":"MultiPolygon","coordinates":[[[[124.605522,12.42692],[124.604919,12.42161],[124.60466,12.41792],[124.60434,12.41449],[124.593971,12.41298],[124.58654,12.41211],[124.592102,12.42598],[124.592506,12.42662],[124.595062,12.42671],[124.605522,12.42692]]]]}},{"type":"Feature","properties":{"ID_0":177,"ISO":"PHL","NAME_0":"Philippines","ID_1":8048,"NAME_1":"Northern Samar","ID_2":804805,"NAME_2":"Catarman (Capital)","ID_3":804805051,"NAME_3":"Somoge","NL_NAME_3":null,"VARNAME_3":null,"TYPE_3":"Barangay","ENGTYPE_3":"Village","PROVINCE":"Northern Samar","REGION":"Region VIII (Eastern Visayas)","id":"barangay-0804805051","name":"Somoge","barangayCode":"0804805051","population":null,"formattedPop":null,"densityCategory":"No data","vulnerabilityRating":"No data","healthRiskLevel":"No data","areaKm2":14.540723,"centerLat":12.420572,"centerLng":124.645645,"geometrySource":"all_barangay-2.csv detailed WKT","geometryMatchMethod":"psgc_coordinate_bridge","boundaryPointCount":27},"geometry":{"type":"MultiPolygon","coordinates":[[[[124.641281,12.45058],[124.641602,12.44935],[124.643646,12.44757],[124.646469,12.44585],[124.647247,12.44553],[124.650238,12.44655],[124.652222,12.44777],[124.653954,12.44932],[124.655167,12.44984],[124.656837,12.44988],[124.657539,12.44941],[124.657799,12.44885],[124.658401,12.44881],[124.658813,12.43952],[124.648483,12.42572],[124.648613,12.41548],[124.637604,12.41531],[124.632721,12.41383],[124.628906,12.41257],[124.626213,12.41171],[124.619217,12.41638],[124.620506,12.42208],[124.623772,12.43688],[124.623817,12.4378],[124.636421,12.4364],[124.639771,12.45054],[124.641281,12.45058]]]]}},{"type":"Feature","properties":{"ID_0":177,"ISO":"PHL","NAME_0":"Philippines","ID_1":8048,"NAME_1":"Northern Samar","ID_2":804805,"NAME_2":"Catarman (Capital)","ID_3":804805053,"NAME_3":"Tinowaran","NL_NAME_3":null,"VARNAME_3":null,"TYPE_3":"Barangay","ENGTYPE_3":"Village","PROVINCE":"Northern Samar","REGION":"Region VIII (Eastern Visayas)","id":"barangay-0804805053","name":"Tinowaran","barangayCode":"0804805053","population":null,"formattedPop":null,"densityCategory":"No data","vulnerabilityRating":"No data","healthRiskLevel":"No data","areaKm2":4.339612,"centerLat":12.439103,"centerLng":124.663113,"geometrySource":"all_barangay-2.csv detailed WKT","geometryMatchMethod":"psgc_coordinate_bridge","boundaryPointCount":12},"geometry":{"type":"MultiPolygon","coordinates":[[[[124.658051,12.45642],[124.681862,12.44946],[124.690948,12.44686],[124.697838,12.41701],[124.689072,12.41628],[124.687286,12.41614],[124.679192,12.41601],[124.648613,12.41548],[124.648483,12.42572],[124.658813,12.43952],[124.658401,12.44881],[124.658051,12.45642]]]]}},{"type":"Feature","properties":{"ID_0":177,"ISO":"PHL","NAME_0":"Philippines","ID_1":8048,"NAME_1":"Northern Samar","ID_2":804805,"NAME_2":"Catarman (Capital)","ID_3":804805054,"NAME_3":"Trangue","NL_NAME_3":null,"VARNAME_3":null,"TYPE_3":"Barangay","ENGTYPE_3":"Village","PROVINCE":"Northern Samar","REGION":"Region VIII (Eastern Visayas)","id":"barangay-0804805054","name":"Trangue","barangayCode":"0804805054","population":null,"formattedPop":null,"densityCategory":"No data","vulnerabilityRating":"No data","healthRiskLevel":"No data","areaKm2":8.275269,"centerLat":12.361214,"centerLng":124.542789,"geometrySource":"all_barangay-2.csv detailed WKT","geometryMatchMethod":"psgc_coordinate_bridge","boundaryPointCount":8},"geometry":{"type":"MultiPolygon","coordinates":[[[[124.593971,12.41298],[124.594101,12.40618],[124.594078,12.39682],[124.573257,12.40006],[124.5737,12.40996],[124.573936,12.41106],[124.58654,12.41211],[124.593971,12.41298]]]]}},{"type":"Feature","properties":{"ID_0":177,"ISO":"PHL","NAME_0":"Philippines","ID_1":8048,"NAME_1":"Northern Samar","ID_2":804805,"NAME_2":"Catarman (Capital)","ID_3":804805056,"NAME_3":"Washington","NL_NAME_3":null,"VARNAME_3":null,"TYPE_3":"Barangay","ENGTYPE_3":"Village","PROVINCE":"Northern Samar","REGION":"Region VIII (Eastern Visayas)","id":"barangay-0804805056","name":"Washington","barangayCode":"0804805056","population":null,"formattedPop":null,"densityCategory":"No data","vulnerabilityRating":"No data","healthRiskLevel":"No data","areaKm2":11.654385,"centerLat":12.454837,"centerLng":124.647035,"geometrySource":"all_barangay-2.csv detailed WKT","geometryMatchMethod":"psgc_coordinate_bridge","boundaryPointCount":25},"geometry":{"type":"MultiPolygon","coordinates":[[[[124.646423,12.47372],[124.645027,12.47274],[124.644402,12.47171],[124.644073,12.47048],[124.643723,12.46538],[124.643646,12.46371],[124.644127,12.46245],[124.644753,12.46146],[124.644814,12.46038],[124.644028,12.4585],[124.643333,12.45719],[124.643051,12.45652],[124.642662,12.45503],[124.642014,12.45341],[124.641769,12.45292],[124.641281,12.45058],[124.639771,12.45054],[124.626793,12.4506],[124.626907,12.45469],[124.626839,12.46974],[124.626534,12.47287],[124.628357,12.47303],[124.63678,12.47331],[124.638252,12.4734],[124.646423,12.47372]]]]}},{"type":"Feature","properties":{"ID_0":177,"ISO":"PHL","NAME_0":"Philippines","ID_1":8048,"NAME_1":"Northern Samar","ID_2":804805,"NAME_2":"Catarman (Capital)","ID_3":804805059,"NAME_3":"UEP I","NL_NAME_3":null,"VARNAME_3":null,"TYPE_3":"Barangay","ENGTYPE_3":"Village","PROVINCE":"Northern Samar","REGION":"Region VIII (Eastern Visayas)","id":"barangay-0804805059","name":"UEP I","barangayCode":"0804805059","population":null,"formattedPop":null,"densityCategory":"No data","vulnerabilityRating":"No data","healthRiskLevel":"No data","areaKm2":2.80317,"centerLat":12.503919,"centerLng":124.675934,"geometrySource":"all_barangay-2.csv detailed WKT","geometryMatchMethod":"psgc_coordinate_bridge","boundaryPointCount":33},"geometry":{"type":"MultiPolygon","coordinates":[[[[124.68676,12.51242],[124.686813,12.51245],[124.687561,12.51256],[124.688271,12.51277],[124.688957,12.51299],[124.689636,12.51316],[124.690323,12.5133],[124.69101,12.51333],[124.691643,12.51334],[124.692177,12.51336],[124.693069,12.51329],[124.694748,12.51398],[124.695023,12.51474],[124.695587,12.51495],[124.696358,12.51508],[124.696907,12.51446],[124.697472,12.51405],[124.698433,12.51365],[124.698723,12.51349],[124.69973,12.51271],[124.699966,12.51268],[124.700012,12.51206],[124.700287,12.50675],[124.701111,12.49624],[124.701141,12.4957],[124.688583,12.49551],[124.688118,12.50012],[124.687096,12.508855],[124.686996,12.50964],[124.687012,12.50991],[124.686951,12.51082],[124.686783,12.51181],[124.68676,12.51242]]]]}},{"type":"Feature","properties":{"ID_0":177,"ISO":"PHL","NAME_0":"Philippines","ID_1":8048,"NAME_1":"Northern Samar","ID_2":804805,"NAME_2":"Catarman (Capital)","ID_3":804805060,"NAME_3":"UEP II","NL_NAME_3":null,"VARNAME_3":null,"TYPE_3":"Barangay","ENGTYPE_3":"Village","PROVINCE":"Northern Samar","REGION":"Region VIII (Eastern Visayas)","id":"barangay-0804805060","name":"UEP II","barangayCode":"0804805060","population":null,"formattedPop":null,"densityCategory":"No data","vulnerabilityRating":"No data","healthRiskLevel":"No data","areaKm2":0.265883,"centerLat":12.513949,"centerLng":124.662045,"geometrySource":"all_barangay-2.csv detailed WKT","geometryMatchMethod":"psgc_coordinate_bridge","boundaryPointCount":24},"geometry":{"type":"MultiPolygon","coordinates":[[[[124.687096,12.508855],[124.686996,12.508827],[124.684845,12.508232],[124.68277,12.507731],[124.680565,12.507125],[124.676979,12.50598],[124.676788,12.50853],[124.67836,12.50864],[124.680817,12.51016],[124.681297,12.51028],[124.681793,12.51042],[124.682198,12.51061],[124.682243,12.51063],[124.682678,12.51085],[124.68309,12.51084],[124.683968,12.51083],[124.684776,12.51125],[124.685928,12.51186],[124.68676,12.51242],[124.686783,12.51181],[124.686951,12.51082],[124.687012,12.50991],[124.686996,12.50964],[124.687096,12.508855]]]]}},{"type":"Feature","properties":{"ID_0":177,"ISO":"PHL","NAME_0":"Philippines","ID_1":8048,"NAME_1":"Northern Samar","ID_2":804805,"NAME_2":"Catarman (Capital)","ID_3":804805061,"NAME_3":"UEP III","NL_NAME_3":null,"VARNAME_3":null,"TYPE_3":"Barangay","ENGTYPE_3":"Village","PROVINCE":"Northern Samar","REGION":"Region VIII (Eastern Visayas)","id":"barangay-0804805061","name":"UEP III","barangayCode":"0804805061","population":null,"formattedPop":null,"densityCategory":"No data","vulnerabilityRating":"No data","healthRiskLevel":"No data","areaKm2":2.129871,"centerLat":12.500331,"centerLng":124.666004,"geometrySource":"all_barangay-2.csv detailed WKT","geometryMatchMethod":"psgc_coordinate_bridge","boundaryPointCount":11},"geometry":{"type":"MultiPolygon","coordinates":[[[[124.687096,12.508855],[124.688118,12.50012],[124.688583,12.49551],[124.677788,12.49515],[124.677757,12.49562],[124.676979,12.50598],[124.680565,12.507125],[124.68277,12.507731],[124.684845,12.508232],[124.686996,12.508827],[124.687096,12.508855]]]]}},{"type":"Feature","properties":{"ID_0":177,"ISO":"PHL","NAME_0":"Philippines","ID_1":8048,"NAME_1":"Northern Samar","ID_2":804805,"NAME_2":"Catarman (Capital)","ID_3":804805062,"NAME_3":"Acacia","NL_NAME_3":null,"VARNAME_3":null,"TYPE_3":"Barangay","ENGTYPE_3":"Village","PROVINCE":"Northern Samar","REGION":"Region VIII (Eastern Visayas)","id":"barangay-0804805062","name":"Acacia","barangayCode":"0804805062","population":null,"formattedPop":null,"densityCategory":"No data","vulnerabilityRating":"No data","healthRiskLevel":"No data","areaKm2":0.103702,"centerLat":12.500052,"centerLng":124.637437,"geometrySource":"all_barangay-2.csv detailed WKT","geometryMatchMethod":"psgc_coordinate_bridge","boundaryPointCount":10},"geometry":{"type":"MultiPolygon","coordinates":[[[[124.637207,12.50463],[124.637283,12.50231],[124.637253,12.50173],[124.637192,12.50118],[124.637207,12.50058],[124.63427,12.50064],[124.634216,12.50132],[124.634407,12.50476],[124.636032,12.50471],[124.637207,12.50463]]]]}},{"type":"Feature","properties":{"ID_0":177,"ISO":"PHL","NAME_0":"Philippines","ID_1":8048,"NAME_1":"Northern Samar","ID_2":804805,"NAME_2":"Catarman (Capital)","ID_3":804805063,"NAME_3":"Talisay","NL_NAME_3":null,"VARNAME_3":null,"TYPE_3":"Barangay","ENGTYPE_3":"Village","PROVINCE":"Northern Samar","REGION":"Region VIII (Eastern Visayas)","id":"barangay-0804805063","name":"Talisay","barangayCode":"0804805063","population":null,"formattedPop":null,"densityCategory":"No data","vulnerabilityRating":"No data","healthRiskLevel":"No data","areaKm2":0.081875,"centerLat":12.502626,"centerLng":124.640032,"geometrySource":"all_barangay-2.csv detailed WKT","geometryMatchMethod":"psgc_coordinate_bridge","boundaryPointCount":9},"geometry":{"type":"MultiPolygon","coordinates":[[[[124.638443,12.50734],[124.639687,12.50734],[124.639709,12.50619],[124.639412,12.5023],[124.638786,12.50224],[124.637283,12.50231],[124.637207,12.50463],[124.638283,12.50457],[124.638443,12.50734]]]]}},{"type":"Feature","properties":{"ID_0":177,"ISO":"PHL","NAME_0":"Philippines","ID_1":8048,"NAME_1":"Northern Samar","ID_2":804805,"NAME_2":"Catarman (Capital)","ID_3":804805064,"NAME_3":"Molave","NL_NAME_3":null,"VARNAME_3":null,"TYPE_3":"Barangay","ENGTYPE_3":"Village","PROVINCE":"Northern Samar","REGION":"Region VIII (Eastern Visayas)","id":"barangay-0804805064","name":"Molave","barangayCode":"0804805064","population":null,"formattedPop":null,"densityCategory":"No data","vulnerabilityRating":"No data","healthRiskLevel":"No data","areaKm2":0.694653,"centerLat":12.496072,"centerLng":124.631075,"geometrySource":"all_barangay-2.csv detailed WKT","geometryMatchMethod":"psgc_coordinate_bridge","boundaryPointCount":14},"geometry":{"type":"MultiPolygon","coordinates":[[[[124.63414,12.49967],[124.635353,12.49962],[124.636017,12.49963],[124.636497,12.49963],[124.636559,12.49903],[124.636559,12.49826],[124.636612,12.49736],[124.635246,12.49724],[124.634193,12.4973],[124.631577,12.49723],[124.631729,12.49796],[124.632027,12.49937],[124.633186,12.49961],[124.63414,12.49967]]]]}},{"type":"Feature","properties":{"ID_0":177,"ISO":"PHL","NAME_0":"Philippines","ID_1":8048,"NAME_1":"Northern Samar","ID_2":804805,"NAME_2":"Catarman (Capital)","ID_3":804805065,"NAME_3":"Yakal","NL_NAME_3":null,"VARNAME_3":null,"TYPE_3":"Barangay","ENGTYPE_3":"Village","PROVINCE":"Northern Samar","REGION":"Region VIII (Eastern Visayas)","id":"barangay-0804805065","name":"Yakal","barangayCode":"0804805065","population":null,"formattedPop":null,"densityCategory":"No data","vulnerabilityRating":"No data","healthRiskLevel":"No data","areaKm2":0.118282,"centerLat":12.495576,"centerLng":124.638616,"geometrySource":"all_barangay-2.csv detailed WKT","geometryMatchMethod":"psgc_coordinate_bridge","boundaryPointCount":11},"geometry":{"type":"MultiPolygon","coordinates":[[[[124.63723,12.49946],[124.638092,12.49947],[124.638832,12.49955],[124.638863,12.4988],[124.638847,12.49817],[124.638763,12.49736],[124.636612,12.49736],[124.636559,12.49826],[124.636559,12.49903],[124.636497,12.49963],[124.63723,12.49946]]]]}},{"type":"Feature","properties":{"ID_0":177,"ISO":"PHL","NAME_0":"Philippines","ID_1":8048,"NAME_1":"Northern Samar","ID_2":804805,"NAME_2":"Catarman (Capital)","ID_3":804805066,"NAME_3":"Ipil-ipil","NL_NAME_3":null,"VARNAME_3":null,"TYPE_3":"Barangay","ENGTYPE_3":"Village","PROVINCE":"Northern Samar","REGION":"Region VIII (Eastern Visayas)","id":"barangay-0804805066","name":"Ipil-ipil","barangayCode":"0804805066","population":null,"formattedPop":null,"densityCategory":"No data","vulnerabilityRating":"No data","healthRiskLevel":"No data","areaKm2":0.283614,"centerLat":12.49369,"centerLng":124.644346,"geometrySource":"all_barangay-2.csv detailed WKT","geometryMatchMethod":"psgc_coordinate_bridge","boundaryPointCount":12},"geometry":{"type":"MultiPolygon","coordinates":[[[[124.642288,12.49936],[124.642273,12.49883],[124.642776,12.49737],[124.642776,12.49714],[124.639923,12.49752],[124.639877,12.49819],[124.639877,12.49882],[124.63987,12.49935],[124.640251,12.49937],[124.640617,12.49937],[124.641457,12.49934],[124.642288,12.49936]]]]}},{"type":"Feature","properties":{"ID_0":177,"ISO":"PHL","NAME_0":"Philippines","ID_1":8048,"NAME_1":"Northern Samar","ID_2":804805,"NAME_2":"Catarman (Capital)","ID_3":804805067,"NAME_3":"Jose Abad Santos","NL_NAME_3":null,"VARNAME_3":null,"TYPE_3":"Barangay","ENGTYPE_3":"Village","PROVINCE":"Northern Samar","REGION":"Region VIII (Eastern Visayas)","id":"barangay-0804805067","name":"Jose Abad Santos","barangayCode":"0804805067","population":null,"formattedPop":null,"densityCategory":"No data","vulnerabilityRating":"No data","healthRiskLevel":"No data","areaKm2":0.093479,"centerLat":12.501753,"centerLng":124.641854,"geometrySource":"all_barangay-2.csv detailed WKT","geometryMatchMethod":"psgc_coordinate_bridge","boundaryPointCount":17},"geometry":{"type":"MultiPolygon","coordinates":[[[[124.639687,12.50734],[124.642014,12.50734],[124.642372,12.50731],[124.642227,12.50354],[124.642174,12.5033],[124.642212,12.50291],[124.642197,12.50278],[124.642189,12.50179],[124.640892,12.50171],[124.640373,12.50172],[124.639908,12.50172],[124.639427,12.50169],[124.63884,12.50171],[124.638786,12.50224],[124.639412,12.5023],[124.639709,12.50619],[124.639687,12.50734]]]]}},{"type":"Feature","properties":{"ID_0":177,"ISO":"PHL","NAME_0":"Philippines","ID_1":8048,"NAME_1":"Northern Samar","ID_2":804805,"NAME_2":"Catarman (Capital)","ID_3":804805068,"NAME_3":"Kasoy","NL_NAME_3":null,"VARNAME_3":null,"TYPE_3":"Barangay","ENGTYPE_3":"Village","PROVINCE":"Northern Samar","REGION":"Region VIII (Eastern Visayas)","id":"barangay-0804805068","name":"Kasoy","barangayCode":"0804805068","population":null,"formattedPop":null,"densityCategory":"No data","vulnerabilityRating":"No data","healthRiskLevel":"No data","areaKm2":0.042092,"centerLat":12.498209,"centerLng":124.634958,"geometrySource":"all_barangay-2.csv detailed WKT","geometryMatchMethod":"psgc_coordinate_bridge","boundaryPointCount":9},"geometry":{"type":"MultiPolygon","coordinates":[[[[124.637207,12.50058],[124.637192,12.50003],[124.63723,12.49946],[124.636497,12.49963],[124.636017,12.49963],[124.635353,12.49962],[124.63414,12.49967],[124.63427,12.50064],[124.637207,12.50058]]]]}},{"type":"Feature","properties":{"ID_0":177,"ISO":"PHL","NAME_0":"Philippines","ID_1":8048,"NAME_1":"Northern Samar","ID_2":804805,"NAME_2":"Catarman (Capital)","ID_3":804805069,"NAME_3":"Lapu-lapu","NL_NAME_3":null,"VARNAME_3":null,"TYPE_3":"Barangay","ENGTYPE_3":"Village","PROVINCE":"Northern Samar","REGION":"Region VIII (Eastern Visayas)","id":"barangay-0804805069","name":"Lapu-lapu","barangayCode":"0804805069","population":null,"formattedPop":null,"densityCategory":"No data","vulnerabilityRating":"No data","healthRiskLevel":"No data","areaKm2":0.028346,"centerLat":12.499389,"centerLng":124.640691,"geometrySource":"all_barangay-2.csv detailed WKT","geometryMatchMethod":"psgc_coordinate_bridge","boundaryPointCount":11},"geometry":{"type":"MultiPolygon","coordinates":[[[[124.63884,12.50171],[124.639427,12.50169],[124.639908,12.50172],[124.639938,12.50123],[124.639877,12.50077],[124.639877,12.50055],[124.639412,12.50058],[124.638832,12.50057],[124.638832,12.50082],[124.638809,12.50118],[124.63884,12.50171]]]]}},{"type":"Feature","properties":{"ID_0":177,"ISO":"PHL","NAME_0":"Philippines","ID_1":8048,"NAME_1":"Northern Samar","ID_2":804805,"NAME_2":"Catarman (Capital)","ID_3":804805070,"NAME_3":"Santol","NL_NAME_3":null,"VARNAME_3":null,"TYPE_3":"Barangay","ENGTYPE_3":"Village","PROVINCE":"Northern Samar","REGION":"Region VIII (Eastern Visayas)","id":"barangay-0804805070","name":"Santol","barangayCode":"0804805070","population":null,"formattedPop":null,"densityCategory":"No data","vulnerabilityRating":"No data","healthRiskLevel":"No data","areaKm2":0.020302,"centerLat":12.498182,"centerLng":124.639061,"geometrySource":"all_barangay-2.csv detailed WKT","geometryMatchMethod":"psgc_coordinate_bridge","boundaryPointCount":8},"geometry":{"type":"MultiPolygon","coordinates":[[[[124.638832,12.50057],[124.638817,12.49995],[124.638832,12.49955],[124.638092,12.49947],[124.63723,12.49946],[124.637192,12.50003],[124.637207,12.50058],[124.638832,12.50057]]]]}},{"type":"Feature","properties":{"ID_0":177,"ISO":"PHL","NAME_0":"Philippines","ID_1":8048,"NAME_1":"Northern Samar","ID_2":804805,"NAME_2":"Catarman (Capital)","ID_3":804805071,"NAME_3":"Narra","NL_NAME_3":null,"VARNAME_3":null,"TYPE_3":"Barangay","ENGTYPE_3":"Village","PROVINCE":"Northern Samar","REGION":"Region VIII (Eastern Visayas)","id":"barangay-0804805071","name":"Narra","barangayCode":"0804805071","population":null,"formattedPop":null,"densityCategory":"No data","vulnerabilityRating":"No data","healthRiskLevel":"No data","areaKm2":0.138835,"centerLat":12.494948,"centerLng":124.640883,"geometrySource":"all_barangay-2.csv detailed WKT","geometryMatchMethod":"psgc_coordinate_bridge","boundaryPointCount":10},"geometry":{"type":"MultiPolygon","coordinates":[[[[124.63987,12.49935],[124.639877,12.49882],[124.639877,12.49819],[124.639923,12.49752],[124.638763,12.49736],[124.638847,12.49817],[124.638863,12.4988],[124.638832,12.49955],[124.639267,12.49946],[124.63987,12.49935]]]]}},{"type":"Feature","properties":{"ID_0":177,"ISO":"PHL","NAME_0":"Philippines","ID_1":8048,"NAME_1":"Northern Samar","ID_2":804805,"NAME_2":"Catarman (Capital)","ID_3":804805072,"NAME_3":"Calachuchi","NL_NAME_3":null,"VARNAME_3":null,"TYPE_3":"Barangay","ENGTYPE_3":"Village","PROVINCE":"Northern Samar","REGION":"Region VIII (Eastern Visayas)","id":"barangay-0804805072","name":"Calachuchi","barangayCode":"0804805072","population":null,"formattedPop":null,"densityCategory":"No data","vulnerabilityRating":"No data","healthRiskLevel":"No data","areaKm2":0.088325,"centerLat":12.499798,"centerLng":124.634831,"geometrySource":"all_barangay-2.csv detailed WKT","geometryMatchMethod":"psgc_coordinate_bridge","boundaryPointCount":9},"geometry":{"type":"MultiPolygon","coordinates":[[[[124.634407,12.50476],[124.634216,12.50132],[124.63427,12.50064],[124.63414,12.49967],[124.633186,12.49961],[124.632027,12.49937],[124.630638,12.50082],[124.631447,12.50492],[124.634407,12.50476]]]]}},{"type":"Feature","properties":{"ID_0":177,"ISO":"PHL","NAME_0":"Philippines","ID_1":8048,"NAME_1":"Northern Samar","ID_2":804805,"NAME_2":"Catarman (Capital)","ID_3":804805073,"NAME_3":"Sampaguita","NL_NAME_3":null,"VARNAME_3":null,"TYPE_3":"Barangay","ENGTYPE_3":"Village","PROVINCE":"Northern Samar","REGION":"Region VIII (Eastern Visayas)","id":"barangay-0804805073","name":"Sampaguita","barangayCode":"0804805073","population":null,"formattedPop":null,"densityCategory":"No data","vulnerabilityRating":"No data","healthRiskLevel":"No data","areaKm2":0.035151,"centerLat":12.499376,"centerLng":124.642311,"geometrySource":"all_barangay-2.csv detailed WKT","geometryMatchMethod":"psgc_coordinate_bridge","boundaryPointCount":12},"geometry":{"type":"MultiPolygon","coordinates":[[[[124.639908,12.50172],[124.640373,12.50172],[124.640892,12.50171],[124.642189,12.50179],[124.642197,12.50139],[124.64222,12.50053],[124.640877,12.50055],[124.640327,12.50054],[124.639877,12.50055],[124.639877,12.50077],[124.639938,12.50123],[124.639908,12.50172]]]]}},{"type":"Feature","properties":{"ID_0":177,"ISO":"PHL","NAME_0":"Philippines","ID_1":8048,"NAME_1":"Northern Samar","ID_2":804805,"NAME_2":"Catarman (Capital)","ID_3":804805074,"NAME_3":"Mabolo","NL_NAME_3":null,"VARNAME_3":null,"TYPE_3":"Barangay","ENGTYPE_3":"Village","PROVINCE":"Northern Samar","REGION":"Region VIII (Eastern Visayas)","id":"barangay-0804805074","name":"Mabolo","barangayCode":"0804805074","population":null,"formattedPop":null,"densityCategory":"No data","vulnerabilityRating":"No data","healthRiskLevel":"No data","areaKm2":0.039991,"centerLat":12.498093,"centerLng":124.641691,"geometrySource":"all_barangay-2.csv detailed WKT","geometryMatchMethod":"psgc_coordinate_bridge","boundaryPointCount":16},"geometry":{"type":"MultiPolygon","coordinates":[[[[124.638832,12.50057],[124.639412,12.50058],[124.639877,12.50055],[124.640327,12.50054],[124.640877,12.50055],[124.64222,12.50053],[124.642181,12.49984],[124.642288,12.49936],[124.641457,12.49934],[124.640617,12.49937],[124.640251,12.49937],[124.63987,12.49935],[124.639267,12.49946],[124.638832,12.49955],[124.638817,12.49995],[124.638832,12.50057]]]]}},{"type":"Feature","properties":{"ID_0":177,"ISO":"PHL","NAME_0":"Philippines","ID_1":8048,"NAME_1":"Northern Samar","ID_2":804805,"NAME_2":"Catarman (Capital)","ID_3":804805075,"NAME_3":"Jose P. Rizal","NL_NAME_3":null,"VARNAME_3":null,"TYPE_3":"Barangay","ENGTYPE_3":"Village","PROVINCE":"Northern Samar","REGION":"Region VIII (Eastern Visayas)","id":"barangay-0804805075","name":"Jose P. Rizal","barangayCode":"0804805075","population":null,"formattedPop":null,"densityCategory":"No data","vulnerabilityRating":"No data","healthRiskLevel":"No data","areaKm2":0.031367,"centerLat":12.499467,"centerLng":124.63912,"geometrySource":"all_barangay-2.csv detailed WKT","geometryMatchMethod":"psgc_coordinate_bridge","boundaryPointCount":10},"geometry":{"type":"MultiPolygon","coordinates":[[[[124.637283,12.50231],[124.638786,12.50224],[124.63884,12.50171],[124.638809,12.50118],[124.638832,12.50082],[124.638832,12.50057],[124.637207,12.50058],[124.637192,12.50118],[124.637253,12.50173],[124.637283,12.50231]]]]}},{"type":"Feature","properties":{"ID_0":177,"ISO":"PHL","NAME_0":"Philippines","ID_1":8048,"NAME_1":"Northern Samar","ID_2":804805,"NAME_2":"Catarman (Capital)","ID_3":804805076,"NAME_3":"Bangkerohan","NL_NAME_3":null,"VARNAME_3":null,"TYPE_3":"Barangay","ENGTYPE_3":"Village","PROVINCE":"Northern Samar","REGION":"Region VIII (Eastern Visayas)","id":"barangay-0804805076","name":"Bangkerohan","barangayCode":"0804805076","population":null,"formattedPop":null,"densityCategory":"No data","vulnerabilityRating":"No data","healthRiskLevel":"No data","areaKm2":1.966256,"centerLat":12.496644,"centerLng":124.651921,"geometrySource":"all_barangay-2.csv detailed WKT","geometryMatchMethod":"psgc_coordinate_bridge","boundaryPointCount":55},"geometry":{"type":"MultiPolygon","coordinates":[[[[124.648048,12.5075],[124.647697,12.50732],[124.64772,12.50797],[124.647827,12.5083],[124.648216,12.50843],[124.649368,12.50902],[124.649551,12.50912],[124.650139,12.50958],[124.651398,12.5102],[124.651527,12.50999],[124.651604,12.50951],[124.651527,12.50923],[124.65139,12.50896],[124.650902,12.50855],[124.650703,12.5084],[124.650421,12.5084],[124.650002,12.50833],[124.649857,12.50813],[124.649178,12.50783],[124.648888,12.50771],[124.648048,12.5075]]],[[[124.657341,12.51133],[124.664757,12.4992],[124.657753,12.49927],[124.657738,12.50016],[124.657303,12.50077],[124.657158,12.50095],[124.656509,12.50153],[124.655609,12.50154],[124.654922,12.50222],[124.654694,12.50228],[124.654221,12.50239],[124.653267,12.50272],[124.65271,12.50199],[124.652588,12.50217],[124.65239,12.50244],[124.652458,12.50281],[124.652527,12.50321],[124.652977,12.50333],[124.653481,12.50354],[124.653847,12.50371],[124.654732,12.50429],[124.654518,12.50466],[124.653084,12.50439],[124.653023,12.50473],[124.652939,12.50515],[124.652359,12.50578],[124.651947,12.50577],[124.653999,12.50758],[124.654419,12.50848],[124.654701,12.50937],[124.65477,12.5102],[124.654907,12.51109],[124.654984,12.51206],[124.657341,12.51133]]]]}},{"type":"Feature","properties":{"ID_0":177,"ISO":"PHL","NAME_0":"Philippines","ID_1":8048,"NAME_1":"Northern Samar","ID_2":804805,"NAME_2":"Catarman (Capital)","ID_3":804805077,"NAME_3":"Dalakit","NL_NAME_3":null,"VARNAME_3":null,"TYPE_3":"Barangay","ENGTYPE_3":"Village","PROVINCE":"Northern Samar","REGION":"Region VIII (Eastern Visayas)","id":"barangay-0804805077","name":"Dalakit","barangayCode":"0804805077","population":null,"formattedPop":null,"densityCategory":"No data","vulnerabilityRating":"No data","healthRiskLevel":"No data","areaKm2":1.976684,"centerLat":12.504266,"centerLng":124.628704,"geometrySource":"all_barangay-2.csv detailed WKT","geometryMatchMethod":"psgc_coordinate_bridge","boundaryPointCount":30},"geometry":{"type":"MultiPolygon","coordinates":[[[[124.625839,12.5104],[124.62648,12.51014],[124.627937,12.50959],[124.628998,12.509],[124.629692,12.509],[124.630386,12.50886],[124.631371,12.50844],[124.631668,12.50825],[124.631447,12.50492],[124.630638,12.50082],[124.632027,12.49937],[124.631729,12.49796],[124.631577,12.49723],[124.62748,12.49706],[124.620949,12.49701],[124.620667,12.49745],[124.620773,12.49788],[124.620453,12.49854],[124.620857,12.499],[124.620773,12.49947],[124.620163,12.50051],[124.621002,12.50154],[124.621742,12.50191],[124.623009,12.502],[124.623596,12.50247],[124.625107,12.50305],[124.625328,12.50325],[124.625214,12.50381],[124.625328,12.50395],[124.625839,12.5104]]]]}},{"type":"Feature","properties":{"ID_0":177,"ISO":"PHL","NAME_0":"Philippines","ID_1":8048,"NAME_1":"Northern Samar","ID_2":804805,"NAME_2":"Catarman (Capital)","ID_3":804805078,"NAME_3":"San Pascual","NL_NAME_3":null,"VARNAME_3":null,"TYPE_3":"Barangay","ENGTYPE_3":"Village","PROVINCE":"Northern Samar","REGION":"Region VIII (Eastern Visayas)","id":"barangay-0804805078","name":"San Pascual","barangayCode":"0804805078","population":null,"formattedPop":null,"densityCategory":"No data","vulnerabilityRating":"No data","healthRiskLevel":"No data","areaKm2":11.032599,"centerLat":12.382004,"centerLng":124.553006,"geometrySource":"all_barangay-2.csv detailed WKT","geometryMatchMethod":"psgc_coordinate_bridge","boundaryPointCount":37},"geometry":{"type":"MultiPolygon","coordinates":[[[[124.650002,12.47244],[124.651154,12.47204],[124.652847,12.47155],[124.654671,12.47088],[124.656319,12.47048],[124.657593,12.46953],[124.658051,12.45642],[124.658401,12.44881],[124.657799,12.44885],[124.657539,12.44941],[124.656837,12.44988],[124.655167,12.44984],[124.653954,12.44932],[124.652222,12.44777],[124.650238,12.44655],[124.647247,12.44553],[124.646469,12.44585],[124.643646,12.44757],[124.641602,12.44935],[124.641281,12.45058],[124.641769,12.45292],[124.642014,12.45341],[124.642662,12.45503],[124.643051,12.45652],[124.643333,12.45719],[124.644028,12.4585],[124.644814,12.46038],[124.644753,12.46146],[124.644127,12.46245],[124.643646,12.46371],[124.643723,12.46538],[124.644073,12.47048],[124.644402,12.47171],[124.645027,12.47274],[124.646423,12.47372],[124.647743,12.47315],[124.650002,12.47244]]]]}}]}
