{"type":"FeatureCollection","features":[{"type":"Feature","properties":{"ID_0":177,"ISO":"PHL","NAME_0":"Philippines","ID_1":1029,"NAME_1":"Ilocos Sur","ID_2":102910,"NAME_2":"Gregorio del Pilar (Concepcion)","ID_3":102910001,"NAME_3":"Alfonso","NL_NAME_3":null,"VARNAME_3":null,"TYPE_3":"Barangay","ENGTYPE_3":"Village","PROVINCE":"Ilocos Sur","REGION":"Region I (Ilocos Region)","id":"barangay-0102910001","name":"Alfonso","barangayCode":"0102910001","population":null,"formattedPop":null,"densityCategory":"No data","vulnerabilityRating":"No data","healthRiskLevel":"No data","areaKm2":16.412085,"centerLat":17.172692,"centerLng":120.622833,"geometrySource":"all_barangay-2.csv detailed WKT","geometryMatchMethod":"psgc_coordinate_bridge","boundaryPointCount":36},"geometry":{"type":"MultiPolygon","coordinates":[[[[120.615349,17.195829],[120.621567,17.196091],[120.627571,17.196239],[120.635437,17.19556],[120.635986,17.185261],[120.634933,17.184669],[120.634644,17.18256],[120.633438,17.18005],[120.632927,17.176519],[120.632133,17.175329],[120.63018,17.17424],[120.628563,17.17309],[120.626198,17.171881],[120.624184,17.171511],[120.622032,17.17144],[120.61998,17.170589],[120.619087,17.17045],[120.617691,17.169821],[120.617188,17.16848],[120.616531,17.16688],[120.615211,17.167391],[120.613327,17.166861],[120.6119,17.165831],[120.609573,17.164829],[120.607964,17.16468],[120.604637,17.164949],[120.60392,17.16967],[120.60215,17.17107],[120.599312,17.173321],[120.599274,17.175699],[120.597794,17.17951],[120.595444,17.182461],[120.593849,17.18383],[120.592583,17.18413],[120.587646,17.19659],[120.615349,17.195829]]]]}},{"type":"Feature","properties":{"ID_0":177,"ISO":"PHL","NAME_0":"Philippines","ID_1":1029,"NAME_1":"Ilocos Sur","ID_2":102910,"NAME_2":"Gregorio del Pilar (Concepcion)","ID_3":102910002,"NAME_3":"Bussot","NL_NAME_3":null,"VARNAME_3":null,"TYPE_3":"Barangay","ENGTYPE_3":"Village","PROVINCE":"Ilocos Sur","REGION":"Region I (Ilocos Region)","id":"barangay-0102910002","name":"Bussot","barangayCode":"0102910002","population":null,"formattedPop":null,"densityCategory":"No data","vulnerabilityRating":"No data","healthRiskLevel":"No data","areaKm2":6.268372,"centerLat":17.118391,"centerLng":120.623923,"geometrySource":"all_barangay-2.csv detailed WKT","geometryMatchMethod":"psgc_coordinate_bridge","boundaryPointCount":36},"geometry":{"type":"MultiPolygon","coordinates":[[[[120.592323,17.115959],[120.593178,17.115391],[120.595421,17.116329],[120.597321,17.11746],[120.599518,17.11792],[120.601349,17.117519],[120.603233,17.11669],[120.605026,17.11689],[120.60865,17.11841],[120.609657,17.11854],[120.611641,17.11891],[120.61174,17.11945],[120.614723,17.11858],[120.615967,17.11713],[120.617058,17.11533],[120.632828,17.111151],[120.63253,17.09481],[120.631721,17.07782],[120.631721,17.07699],[120.626556,17.075029],[120.618736,17.084141],[120.611862,17.086451],[120.606232,17.08857],[120.603737,17.0888],[120.596321,17.09058],[120.587807,17.09104],[120.586388,17.090811],[120.579269,17.08926],[120.579727,17.091061],[120.580704,17.092779],[120.581047,17.094521],[120.584023,17.099449],[120.586952,17.10734],[120.588867,17.11367],[120.59063,17.11492],[120.592323,17.115959]]]]}},{"type":"Feature","properties":{"ID_0":177,"ISO":"PHL","NAME_0":"Philippines","ID_1":1029,"NAME_1":"Ilocos Sur","ID_2":102910,"NAME_2":"Gregorio del Pilar (Concepcion)","ID_3":102910003,"NAME_3":"Concepcion","NL_NAME_3":null,"VARNAME_3":null,"TYPE_3":"Barangay","ENGTYPE_3":"Village","PROVINCE":"Ilocos Sur","REGION":"Region I (Ilocos Region)","id":"barangay-0102910003","name":"Concepcion","barangayCode":"0102910003","population":null,"formattedPop":null,"densityCategory":"No data","vulnerabilityRating":"No data","healthRiskLevel":"No data","areaKm2":3.256306,"centerLat":17.125587,"centerLng":120.601708,"geometrySource":"all_barangay-2.csv detailed WKT","geometryMatchMethod":"psgc_coordinate_bridge","boundaryPointCount":23},"geometry":{"type":"MultiPolygon","coordinates":[[[[120.633568,17.120291],[120.633057,17.113331],[120.632828,17.111151],[120.617058,17.11533],[120.615967,17.11713],[120.614723,17.11858],[120.61174,17.11945],[120.611641,17.11891],[120.609657,17.11854],[120.60865,17.11841],[120.605026,17.11689],[120.603233,17.11669],[120.601349,17.117519],[120.599518,17.11792],[120.597321,17.11746],[120.595421,17.116329],[120.593178,17.115391],[120.592323,17.115959],[120.596657,17.118731],[120.599373,17.120859],[120.601059,17.12216],[120.603333,17.124649],[120.633568,17.120291]]]]}},{"type":"Feature","properties":{"ID_0":177,"ISO":"PHL","NAME_0":"Philippines","ID_1":1029,"NAME_1":"Ilocos Sur","ID_2":102910,"NAME_2":"Gregorio del Pilar (Concepcion)","ID_3":102910004,"NAME_3":"Dapdappig","NL_NAME_3":null,"VARNAME_3":null,"TYPE_3":"Barangay","ENGTYPE_3":"Village","PROVINCE":"Ilocos Sur","REGION":"Region I (Ilocos Region)","id":"barangay-0102910004","name":"Dapdappig","barangayCode":"0102910004","population":null,"formattedPop":null,"densityCategory":"No data","vulnerabilityRating":"No data","healthRiskLevel":"No data","areaKm2":9.324373,"centerLat":17.13998,"centerLng":120.62622,"geometrySource":"all_barangay-2.csv detailed WKT","geometryMatchMethod":"psgc_coordinate_bridge","boundaryPointCount":19},"geometry":{"type":"MultiPolygon","coordinates":[[[[120.633911,17.132891],[120.633568,17.120291],[120.603333,17.124649],[120.602417,17.12818],[120.602814,17.129749],[120.604019,17.13092],[120.605217,17.13246],[120.606598,17.133421],[120.609444,17.134109],[120.612907,17.133471],[120.615463,17.13308],[120.617393,17.133591],[120.619324,17.13405],[120.620934,17.133421],[120.623283,17.131741],[120.626106,17.132179],[120.626938,17.132099],[120.629562,17.13199],[120.633911,17.132891]]]]}},{"type":"Feature","properties":{"ID_0":177,"ISO":"PHL","NAME_0":"Philippines","ID_1":1029,"NAME_1":"Ilocos Sur","ID_2":102910,"NAME_2":"Gregorio del Pilar (Concepcion)","ID_3":102910005,"NAME_3":"Matue-Butarag","NL_NAME_3":null,"VARNAME_3":null,"TYPE_3":"Barangay","ENGTYPE_3":"Village","PROVINCE":"Ilocos Sur","REGION":"Region I (Ilocos Region)","id":"barangay-0102910005","name":"Matue-Butarag","barangayCode":"0102910005","population":null,"formattedPop":null,"densityCategory":"No data","vulnerabilityRating":"No data","healthRiskLevel":"No data","areaKm2":15.752584,"centerLat":17.157488,"centerLng":120.590037,"geometrySource":"all_barangay-2.csv detailed WKT","geometryMatchMethod":"psgc_coordinate_bridge","boundaryPointCount":35},"geometry":{"type":"MultiPolygon","coordinates":[[[[120.587646,17.19659],[120.592583,17.18413],[120.593849,17.18383],[120.595444,17.182461],[120.597794,17.17951],[120.599274,17.175699],[120.599312,17.173321],[120.60215,17.17107],[120.60392,17.16967],[120.604637,17.164949],[120.604431,17.16243],[120.603111,17.160891],[120.601181,17.159731],[120.59964,17.15888],[120.598648,17.15567],[120.598633,17.153879],[120.597061,17.15193],[120.596657,17.150801],[120.596603,17.149611],[120.596161,17.148649],[120.594856,17.14753],[120.593948,17.147039],[120.591507,17.14566],[120.591278,17.15917],[120.588966,17.163919],[120.583412,17.16888],[120.575737,17.17569],[120.573547,17.17823],[120.572952,17.17985],[120.572998,17.18523],[120.573357,17.18815],[120.572906,17.19014],[120.573029,17.19315],[120.572838,17.19639],[120.587646,17.19659]]]]}},{"type":"Feature","properties":{"ID_0":177,"ISO":"PHL","NAME_0":"Philippines","ID_1":1029,"NAME_1":"Ilocos Sur","ID_2":102910,"NAME_2":"Gregorio del Pilar (Concepcion)","ID_3":102910007,"NAME_3":"Poblacion Norte","NL_NAME_3":null,"VARNAME_3":null,"TYPE_3":"Barangay","ENGTYPE_3":"Village","PROVINCE":"Ilocos Sur","REGION":"Region I (Ilocos Region)","id":"barangay-0102910007","name":"Poblacion Norte","barangayCode":"0102910007","population":null,"formattedPop":null,"densityCategory":"No data","vulnerabilityRating":"No data","healthRiskLevel":"No data","areaKm2":2.4087,"centerLat":17.145734,"centerLng":120.60733,"geometrySource":"all_barangay-2.csv detailed WKT","geometryMatchMethod":"psgc_coordinate_bridge","boundaryPointCount":35},"geometry":{"type":"MultiPolygon","coordinates":[[[[120.635986,17.185261],[120.635406,17.16803],[120.635162,17.15823],[120.635117,17.14946],[120.596603,17.149611],[120.596657,17.150801],[120.597061,17.15193],[120.598633,17.153879],[120.598648,17.15567],[120.59964,17.15888],[120.601181,17.159731],[120.603111,17.160891],[120.604431,17.16243],[120.604637,17.164949],[120.607964,17.16468],[120.609573,17.164829],[120.6119,17.165831],[120.613327,17.166861],[120.615211,17.167391],[120.616531,17.16688],[120.617188,17.16848],[120.617691,17.169821],[120.619087,17.17045],[120.61998,17.170589],[120.622032,17.17144],[120.624184,17.171511],[120.626198,17.171881],[120.628563,17.17309],[120.63018,17.17424],[120.632133,17.175329],[120.632927,17.176519],[120.633438,17.18005],[120.634644,17.18256],[120.634933,17.184669],[120.635986,17.185261]]]]}},{"type":"Feature","properties":{"ID_0":177,"ISO":"PHL","NAME_0":"Philippines","ID_1":1029,"NAME_1":"Ilocos Sur","ID_2":102910,"NAME_2":"Gregorio del Pilar (Concepcion)","ID_3":102910008,"NAME_3":"Poblacion Sur","NL_NAME_3":null,"VARNAME_3":null,"TYPE_3":"Barangay","ENGTYPE_3":"Village","PROVINCE":"Ilocos Sur","REGION":"Region I (Ilocos Region)","id":"barangay-0102910008","name":"Poblacion Sur","barangayCode":"0102910008","population":null,"formattedPop":null,"densityCategory":"No data","vulnerabilityRating":"No data","healthRiskLevel":"No data","areaKm2":0.656331,"centerLat":17.144182639748994,"centerLng":120.61170892766893,"geometrySource":"barangays.geojson simplified fallback","geometryMatchMethod":"simplified_fallback","boundaryPointCount":4},"geometry":{"type":"Polygon","coordinates":[[[120.60825795300002,17.146464369000057],[120.619577,17.14391639300004],[120.60729097700005,17.142167036000046],[120.60825795300002,17.146464369000057]]]}}]}
