{"type":"FeatureCollection","features":[{"type":"Feature","properties":{"ID_0":177,"ISO":"PHL","NAME_0":"Philippines","ID_1":1033,"NAME_1":"La Union","ID_2":103311,"NAME_2":"Naguilian","ID_3":103311001,"NAME_3":"Aguioas","NL_NAME_3":null,"VARNAME_3":null,"TYPE_3":"Barangay","ENGTYPE_3":"Village","PROVINCE":"La Union","REGION":"Region I (Ilocos Region)","id":"barangay-0103311001","name":"Aguioas","barangayCode":"0103311001","population":null,"formattedPop":null,"densityCategory":"No data","vulnerabilityRating":"No data","healthRiskLevel":"No data","areaKm2":1.707701,"centerLat":16.511183,"centerLng":120.433493,"geometrySource":"all_barangay-2.csv detailed WKT","geometryMatchMethod":"unique_official_admin_names","boundaryPointCount":30},"geometry":{"type":"MultiPolygon","coordinates":[[[[120.440041,16.5194],[120.44046,16.51689],[120.441383,16.51605],[120.442574,16.515881],[120.443108,16.515511],[120.443291,16.515209],[120.443352,16.514851],[120.443298,16.51403],[120.443573,16.513069],[120.442993,16.51281],[120.442558,16.51244],[120.441971,16.511921],[120.439392,16.511181],[120.434921,16.51152],[120.431824,16.512329],[120.429253,16.51252],[120.425911,16.512581],[120.425056,16.5135],[120.425987,16.5142],[120.426933,16.51548],[120.427727,16.516569],[120.428101,16.517099],[120.430183,16.518499],[120.431488,16.519449],[120.432327,16.519751],[120.433434,16.51968],[120.434433,16.519699],[120.435669,16.51902],[120.437332,16.518641],[120.440041,16.5194]]]]}},{"type":"Feature","properties":{"ID_0":177,"ISO":"PHL","NAME_0":"Philippines","ID_1":1033,"NAME_1":"La Union","ID_2":103311,"NAME_2":"Naguilian","ID_3":103311002,"NAME_3":"Al-alinao Norte","NL_NAME_3":null,"VARNAME_3":null,"TYPE_3":"Barangay","ENGTYPE_3":"Village","PROVINCE":"La Union","REGION":"Region I (Ilocos Region)","id":"barangay-0103311002","name":"Al-alinao Norte","barangayCode":"0103311002","population":null,"formattedPop":null,"densityCategory":"No data","vulnerabilityRating":"No data","healthRiskLevel":"No data","areaKm2":2.923258,"centerLat":16.49902,"centerLng":120.421704,"geometrySource":"all_barangay-2.csv detailed WKT","geometryMatchMethod":"unique_official_admin_names","boundaryPointCount":41},"geometry":{"type":"MultiPolygon","coordinates":[[[[120.425056,16.5135],[120.425911,16.512581],[120.429253,16.51252],[120.431824,16.512329],[120.434921,16.51152],[120.435516,16.507681],[120.435303,16.504841],[120.436577,16.50028],[120.43914,16.49999],[120.440407,16.498091],[120.440422,16.49579],[120.436958,16.49575],[120.435181,16.495029],[120.43438,16.494789],[120.433617,16.494749],[120.432678,16.494261],[120.431961,16.49395],[120.431168,16.49383],[120.430443,16.49382],[120.429489,16.49412],[120.428101,16.494699],[120.427567,16.494961],[120.427147,16.495029],[120.426666,16.49556],[120.426086,16.496599],[120.425652,16.496889],[120.425377,16.496771],[120.424294,16.497549],[120.422157,16.49855],[120.420502,16.498911],[120.419617,16.502439],[120.417183,16.50688],[120.414047,16.51153],[120.415176,16.5124],[120.416328,16.51339],[120.4179,16.514299],[120.418907,16.51442],[120.420273,16.514231],[120.421516,16.513889],[120.423981,16.51366],[120.425056,16.5135]]]]}},{"type":"Feature","properties":{"ID_0":177,"ISO":"PHL","NAME_0":"Philippines","ID_1":1033,"NAME_1":"La Union","ID_2":103311,"NAME_2":"Naguilian","ID_3":103311003,"NAME_3":"Al-alinao Sur","NL_NAME_3":null,"VARNAME_3":null,"TYPE_3":"Barangay","ENGTYPE_3":"Village","PROVINCE":"La Union","REGION":"Region I (Ilocos Region)","id":"barangay-0103311003","name":"Al-alinao Sur","barangayCode":"0103311003","population":null,"formattedPop":null,"densityCategory":"No data","vulnerabilityRating":"No data","healthRiskLevel":"No data","areaKm2":5.098899,"centerLat":16.492216,"centerLng":120.43829,"geometrySource":"all_barangay-2.csv detailed WKT","geometryMatchMethod":"unique_official_admin_names","boundaryPointCount":82},"geometry":{"type":"MultiPolygon","coordinates":[[[[120.441971,16.511921],[120.442139,16.51029],[120.44236,16.50985],[120.442581,16.509371],[120.442886,16.508591],[120.442612,16.50832],[120.442047,16.50794],[120.441322,16.507311],[120.440697,16.506809],[120.440552,16.506121],[120.44059,16.50572],[120.441063,16.504589],[120.441681,16.503981],[120.442139,16.503839],[120.442421,16.50382],[120.443443,16.503969],[120.444023,16.504141],[120.444702,16.504311],[120.444946,16.504049],[120.444977,16.503811],[120.44455,16.50304],[120.444221,16.502609],[120.442993,16.50131],[120.443077,16.50116],[120.443047,16.50028],[120.443153,16.4995],[120.443649,16.499161],[120.444359,16.499121],[120.444717,16.49931],[120.445038,16.49971],[120.445312,16.499781],[120.445778,16.499519],[120.446297,16.49873],[120.446404,16.49798],[120.44622,16.49671],[120.446098,16.49601],[120.446037,16.495081],[120.446136,16.4946],[120.446579,16.493679],[120.4468,16.492571],[120.447052,16.491249],[120.447166,16.49045],[120.447243,16.490089],[120.447433,16.489309],[120.447929,16.488991],[120.449043,16.488461],[120.449692,16.48793],[120.450592,16.4867],[120.452766,16.48205],[120.454514,16.479111],[120.450043,16.481991],[120.445236,16.484159],[120.439903,16.48772],[120.430977,16.48904],[120.42395,16.490391],[120.424049,16.49349],[120.424294,16.497549],[120.425377,16.496771],[120.425652,16.496889],[120.426086,16.496599],[120.426666,16.49556],[120.427147,16.495029],[120.427567,16.494961],[120.428101,16.494699],[120.429489,16.49412],[120.430443,16.49382],[120.431168,16.49383],[120.431961,16.49395],[120.432678,16.494261],[120.433617,16.494749],[120.43438,16.494789],[120.435181,16.495029],[120.436958,16.49575],[120.440422,16.49579],[120.440407,16.498091],[120.43914,16.49999],[120.436577,16.50028],[120.435303,16.504841],[120.435516,16.507681],[120.434921,16.51152],[120.439392,16.511181],[120.441971,16.511921]]]]}},{"type":"Feature","properties":{"ID_0":177,"ISO":"PHL","NAME_0":"Philippines","ID_1":1033,"NAME_1":"La Union","ID_2":103311,"NAME_2":"Naguilian","ID_3":103311004,"NAME_3":"Ambaracao Norte","NL_NAME_3":null,"VARNAME_3":null,"TYPE_3":"Barangay","ENGTYPE_3":"Village","PROVINCE":"La Union","REGION":"Region I (Ilocos Region)","id":"barangay-0103311004","name":"Ambaracao Norte","barangayCode":"0103311004","population":null,"formattedPop":null,"densityCategory":"No data","vulnerabilityRating":"No data","healthRiskLevel":"No data","areaKm2":4.766403,"centerLat":16.49243,"centerLng":120.40331,"geometrySource":"all_barangay-2.csv detailed WKT","geometryMatchMethod":"unique_official_admin_names","boundaryPointCount":31},"geometry":{"type":"MultiPolygon","coordinates":[[[[120.414047,16.51153],[120.417183,16.50688],[120.419617,16.502439],[120.420502,16.498911],[120.422157,16.49855],[120.424294,16.497549],[120.424049,16.49349],[120.42395,16.490391],[120.422783,16.487989],[120.422379,16.485279],[120.423218,16.482651],[120.422539,16.48291],[120.420914,16.482559],[120.418213,16.48571],[120.413963,16.487671],[120.407318,16.48942],[120.406548,16.490829],[120.405571,16.491699],[120.404823,16.490681],[120.405212,16.48876],[120.405151,16.487459],[120.401993,16.48703],[120.401756,16.49242],[120.401497,16.496281],[120.400452,16.50297],[120.401672,16.504789],[120.403267,16.50618],[120.405724,16.50959],[120.407623,16.509159],[120.409737,16.50947],[120.414047,16.51153]]]]}},{"type":"Feature","properties":{"ID_0":177,"ISO":"PHL","NAME_0":"Philippines","ID_1":1033,"NAME_1":"La Union","ID_2":103311,"NAME_2":"Naguilian","ID_3":103311005,"NAME_3":"Ambaracao Sur","NL_NAME_3":null,"VARNAME_3":null,"TYPE_3":"Barangay","ENGTYPE_3":"Village","PROVINCE":"La Union","REGION":"Region I (Ilocos Region)","id":"barangay-0103311005","name":"Ambaracao Sur","barangayCode":"0103311005","population":null,"formattedPop":null,"densityCategory":"No data","vulnerabilityRating":"No data","healthRiskLevel":"No data","areaKm2":3.412734,"centerLat":16.474577,"centerLng":120.404853,"geometrySource":"all_barangay-2.csv detailed WKT","geometryMatchMethod":"unique_official_admin_names","boundaryPointCount":23},"geometry":{"type":"MultiPolygon","coordinates":[[[[120.420914,16.482559],[120.418854,16.48019],[120.415497,16.47748],[120.414864,16.47677],[120.413933,16.4767],[120.413139,16.47617],[120.412621,16.475401],[120.412666,16.47509],[120.410004,16.475149],[120.404381,16.47703],[120.403343,16.480709],[120.403481,16.48431],[120.403717,16.48473],[120.404587,16.486231],[120.405151,16.487459],[120.405212,16.48876],[120.404823,16.490681],[120.405571,16.491699],[120.406548,16.490829],[120.407318,16.48942],[120.413963,16.487671],[120.418213,16.48571],[120.420914,16.482559]]]]}},{"type":"Feature","properties":{"ID_0":177,"ISO":"PHL","NAME_0":"Philippines","ID_1":1033,"NAME_1":"La Union","ID_2":103311,"NAME_2":"Naguilian","ID_3":103311006,"NAME_3":"Angin","NL_NAME_3":null,"VARNAME_3":null,"TYPE_3":"Barangay","ENGTYPE_3":"Village","PROVINCE":"La Union","REGION":"Region I (Ilocos Region)","id":"barangay-0103311006","name":"Angin","barangayCode":"0103311006","population":null,"formattedPop":null,"densityCategory":"No data","vulnerabilityRating":"No data","healthRiskLevel":"No data","areaKm2":0.968789,"centerLat":16.51221,"centerLng":120.403659,"geometrySource":"all_barangay-2.csv detailed WKT","geometryMatchMethod":"unique_official_admin_names","boundaryPointCount":6},"geometry":{"type":"MultiPolygon","coordinates":[[[[120.405273,16.51635],[120.41333,16.519251],[120.413757,16.515221],[120.411186,16.515129],[120.407639,16.515011],[120.405273,16.51635]]]]}},{"type":"Feature","properties":{"ID_0":177,"ISO":"PHL","NAME_0":"Philippines","ID_1":1033,"NAME_1":"La Union","ID_2":103311,"NAME_2":"Naguilian","ID_3":103311007,"NAME_3":"Balecbec","NL_NAME_3":null,"VARNAME_3":null,"TYPE_3":"Barangay","ENGTYPE_3":"Village","PROVINCE":"La Union","REGION":"Region I (Ilocos Region)","id":"barangay-0103311007","name":"Balecbec","barangayCode":"0103311007","population":null,"formattedPop":null,"densityCategory":"No data","vulnerabilityRating":"No data","healthRiskLevel":"No data","areaKm2":6.063967,"centerLat":16.476914,"centerLng":120.433938,"geometrySource":"all_barangay-2.csv detailed WKT","geometryMatchMethod":"unique_official_admin_names","boundaryPointCount":81},"geometry":{"type":"MultiPolygon","coordinates":[[[[120.42395,16.490391],[120.430977,16.48904],[120.439903,16.48772],[120.445236,16.484159],[120.450043,16.481991],[120.454514,16.479111],[120.454323,16.477501],[120.454338,16.47435],[120.455406,16.472281],[120.454498,16.46903],[120.454109,16.465969],[120.454224,16.46314],[120.455177,16.46055],[120.456306,16.459101],[120.457764,16.45668],[120.455704,16.456921],[120.454941,16.45779],[120.45491,16.457821],[120.453903,16.45768],[120.453697,16.45783],[120.453651,16.45804],[120.453194,16.45845],[120.452652,16.45907],[120.452408,16.459499],[120.451988,16.46011],[120.451363,16.460791],[120.450752,16.461321],[120.450287,16.461729],[120.450127,16.46266],[120.450188,16.463051],[120.449951,16.46324],[120.449257,16.46311],[120.448242,16.463869],[120.448097,16.463989],[120.447777,16.46439],[120.447517,16.464491],[120.446716,16.464849],[120.446419,16.46534],[120.445419,16.466419],[120.445412,16.46678],[120.445213,16.4673],[120.445053,16.467791],[120.444504,16.46879],[120.444313,16.469521],[120.444473,16.46982],[120.444817,16.470711],[120.444771,16.47122],[120.44532,16.47249],[120.445732,16.473379],[120.445793,16.47389],[120.445183,16.474661],[120.444229,16.475109],[120.443787,16.475309],[120.443024,16.47669],[120.442436,16.476709],[120.441887,16.476721],[120.440697,16.476761],[120.44001,16.477409],[120.439796,16.47817],[120.43927,16.4793],[120.438339,16.47942],[120.438118,16.479879],[120.438187,16.48048],[120.438332,16.48138],[120.437973,16.48181],[120.437271,16.481859],[120.436768,16.48155],[120.435837,16.481091],[120.435677,16.48131],[120.435577,16.482401],[120.433762,16.483049],[120.43306,16.48292],[120.431778,16.48266],[120.429947,16.482531],[120.428413,16.48251],[120.426376,16.482571],[120.425201,16.482389],[120.423218,16.482651],[120.422379,16.485279],[120.422783,16.487989],[120.42395,16.490391]]]]}},{"type":"Feature","properties":{"ID_0":177,"ISO":"PHL","NAME_0":"Philippines","ID_1":1033,"NAME_1":"La Union","ID_2":103311,"NAME_2":"Naguilian","ID_3":103311008,"NAME_3":"Bancagan","NL_NAME_3":null,"VARNAME_3":null,"TYPE_3":"Barangay","ENGTYPE_3":"Village","PROVINCE":"La Union","REGION":"Region I (Ilocos Region)","id":"barangay-0103311008","name":"Bancagan","barangayCode":"0103311008","population":null,"formattedPop":null,"densityCategory":"No data","vulnerabilityRating":"No data","healthRiskLevel":"No data","areaKm2":3.532094,"centerLat":16.553267,"centerLng":120.376893,"geometrySource":"all_barangay-2.csv detailed WKT","geometryMatchMethod":"unique_official_admin_names","boundaryPointCount":14},"geometry":{"type":"MultiPolygon","coordinates":[[[[120.39653,16.55904],[120.398643,16.558519],[120.399712,16.556219],[120.400543,16.55406],[120.394989,16.55327],[120.395317,16.54632],[120.393463,16.546579],[120.390457,16.54697],[120.386803,16.54563],[120.383652,16.54561],[120.383003,16.548519],[120.381104,16.556999],[120.388893,16.55687],[120.39653,16.55904]]]]}},{"type":"Feature","properties":{"ID_0":177,"ISO":"PHL","NAME_0":"Philippines","ID_1":1033,"NAME_1":"La Union","ID_2":103311,"NAME_2":"Naguilian","ID_3":103311009,"NAME_3":"Baraoas Norte","NL_NAME_3":null,"VARNAME_3":null,"TYPE_3":"Barangay","ENGTYPE_3":"Village","PROVINCE":"La Union","REGION":"Region I (Ilocos Region)","id":"barangay-0103311009","name":"Baraoas Norte","barangayCode":"0103311009","population":null,"formattedPop":null,"densityCategory":"No data","vulnerabilityRating":"No data","healthRiskLevel":"No data","areaKm2":2.129988,"centerLat":16.55788,"centerLng":120.392403,"geometrySource":"all_barangay-2.csv detailed WKT","geometryMatchMethod":"unique_official_admin_names","boundaryPointCount":12},"geometry":{"type":"MultiPolygon","coordinates":[[[[120.400543,16.55406],[120.401093,16.55279],[120.40229,16.551781],[120.402359,16.5511],[120.402023,16.549339],[120.401947,16.546921],[120.401939,16.545],[120.399948,16.5452],[120.397011,16.545401],[120.395317,16.54632],[120.394989,16.55327],[120.400543,16.55406]]]]}},{"type":"Feature","properties":{"ID_0":177,"ISO":"PHL","NAME_0":"Philippines","ID_1":1033,"NAME_1":"La Union","ID_2":103311,"NAME_2":"Naguilian","ID_3":103311010,"NAME_3":"Baraoas Sur","NL_NAME_3":null,"VARNAME_3":null,"TYPE_3":"Barangay","ENGTYPE_3":"Village","PROVINCE":"La Union","REGION":"Region I (Ilocos Region)","id":"barangay-0103311010","name":"Baraoas Sur","barangayCode":"0103311010","population":null,"formattedPop":null,"densityCategory":"No data","vulnerabilityRating":"No data","healthRiskLevel":"No data","areaKm2":1.572781,"centerLat":16.541895,"centerLng":120.389518,"geometrySource":"all_barangay-2.csv detailed WKT","geometryMatchMethod":"unique_official_admin_names","boundaryPointCount":9},"geometry":{"type":"MultiPolygon","coordinates":[[[[120.395317,16.54632],[120.397011,16.545401],[120.399948,16.5452],[120.401939,16.545],[120.40242,16.54343],[120.403053,16.54125],[120.395554,16.53824],[120.395538,16.54003],[120.395317,16.54632]]]]}},{"type":"Feature","properties":{"ID_0":177,"ISO":"PHL","NAME_0":"Philippines","ID_1":1033,"NAME_1":"La Union","ID_2":103311,"NAME_2":"Naguilian","ID_3":103311011,"NAME_3":"Bariquir","NL_NAME_3":null,"VARNAME_3":null,"TYPE_3":"Barangay","ENGTYPE_3":"Village","PROVINCE":"La Union","REGION":"Region I (Ilocos Region)","id":"barangay-0103311011","name":"Bariquir","barangayCode":"0103311011","population":null,"formattedPop":null,"densityCategory":"No data","vulnerabilityRating":"No data","healthRiskLevel":"No data","areaKm2":1.77283,"centerLat":16.534981,"centerLng":120.406374,"geometrySource":"all_barangay-2.csv detailed WKT","geometryMatchMethod":"unique_official_admin_names","boundaryPointCount":13},"geometry":{"type":"MultiPolygon","coordinates":[[[[120.418571,16.542231],[120.41835,16.53871],[120.420174,16.53701],[120.420174,16.535],[120.420319,16.53175],[120.421127,16.52828],[120.417923,16.529051],[120.411247,16.53129],[120.410713,16.53756],[120.413986,16.53949],[120.415543,16.54121],[120.416237,16.543171],[120.418571,16.542231]]]]}},{"type":"Feature","properties":{"ID_0":177,"ISO":"PHL","NAME_0":"Philippines","ID_1":1033,"NAME_1":"La Union","ID_2":103311,"NAME_2":"Naguilian","ID_3":103311012,"NAME_3":"Bato","NL_NAME_3":null,"VARNAME_3":null,"TYPE_3":"Barangay","ENGTYPE_3":"Village","PROVINCE":"La Union","REGION":"Region I (Ilocos Region)","id":"barangay-0103311012","name":"Bato","barangayCode":"0103311012","population":null,"formattedPop":null,"densityCategory":"No data","vulnerabilityRating":"No data","healthRiskLevel":"No data","areaKm2":3.916901,"centerLat":16.522991,"centerLng":120.414846,"geometrySource":"all_barangay-2.csv detailed WKT","geometryMatchMethod":"unique_official_admin_names","boundaryPointCount":21},"geometry":{"type":"MultiPolygon","coordinates":[[[[120.434792,16.526739],[120.427834,16.52306],[120.424942,16.52318],[120.423141,16.52413],[120.4217,16.52309],[120.419899,16.521429],[120.41333,16.519251],[120.405273,16.51635],[120.405388,16.518681],[120.405518,16.52128],[120.40509,16.5236],[120.41172,16.52614],[120.421127,16.52828],[120.42543,16.527679],[120.425507,16.527189],[120.426392,16.526979],[120.426437,16.52677],[120.427551,16.52655],[120.431183,16.527901],[120.432678,16.526939],[120.434792,16.526739]]]]}},{"type":"Feature","properties":{"ID_0":177,"ISO":"PHL","NAME_0":"Philippines","ID_1":1033,"NAME_1":"La Union","ID_2":103311,"NAME_2":"Naguilian","ID_3":103311013,"NAME_3":"Bimmotobot","NL_NAME_3":null,"VARNAME_3":null,"TYPE_3":"Barangay","ENGTYPE_3":"Village","PROVINCE":"La Union","REGION":"Region I (Ilocos Region)","id":"barangay-0103311013","name":"Bimmotobot","barangayCode":"0103311013","population":null,"formattedPop":null,"densityCategory":"No data","vulnerabilityRating":"No data","healthRiskLevel":"No data","areaKm2":7.555469,"centerLat":16.580355,"centerLng":120.435984,"geometrySource":"all_barangay-2.csv detailed WKT","geometryMatchMethod":"unique_official_admin_names","boundaryPointCount":32},"geometry":{"type":"MultiPolygon","coordinates":[[[[120.437027,16.59494],[120.438919,16.5937],[120.441063,16.59263],[120.443481,16.591669],[120.444397,16.589371],[120.44593,16.586981],[120.447449,16.585119],[120.449982,16.583349],[120.452606,16.580839],[120.461617,16.57711],[120.463707,16.5734],[120.464363,16.571569],[120.464973,16.56793],[120.460037,16.569639],[120.453499,16.57094],[120.449318,16.572269],[120.44474,16.575661],[120.440567,16.577101],[120.436638,16.577999],[120.434143,16.577959],[120.431923,16.579861],[120.429031,16.58036],[120.425369,16.5818],[120.428139,16.585489],[120.431168,16.589411],[120.433487,16.58905],[120.433723,16.586109],[120.434334,16.5844],[120.435799,16.584221],[120.436897,16.58556],[120.437309,16.589781],[120.437027,16.59494]]]]}},{"type":"Feature","properties":{"ID_0":177,"ISO":"PHL","NAME_0":"Philippines","ID_1":1033,"NAME_1":"La Union","ID_2":103311,"NAME_2":"Naguilian","ID_3":103311014,"NAME_3":"Cabaritan Norte","NL_NAME_3":null,"VARNAME_3":null,"TYPE_3":"Barangay","ENGTYPE_3":"Village","PROVINCE":"La Union","REGION":"Region I (Ilocos Region)","id":"barangay-0103311014","name":"Cabaritan Norte","barangayCode":"0103311014","population":null,"formattedPop":null,"densityCategory":"No data","vulnerabilityRating":"No data","healthRiskLevel":"No data","areaKm2":0.508484,"centerLat":16.526161,"centerLng":120.376129,"geometrySource":"all_barangay-2.csv detailed WKT","geometryMatchMethod":"unique_official_admin_names","boundaryPointCount":13},"geometry":{"type":"MultiPolygon","coordinates":[[[[120.391312,16.532841],[120.386589,16.529961],[120.386147,16.532669],[120.385963,16.534731],[120.386887,16.535589],[120.388184,16.53686],[120.389481,16.5371],[120.390793,16.53661],[120.391144,16.5359],[120.390793,16.53504],[120.390663,16.533939],[120.390549,16.53335],[120.391312,16.532841]]]]}},{"type":"Feature","properties":{"ID_0":177,"ISO":"PHL","NAME_0":"Philippines","ID_1":1033,"NAME_1":"La Union","ID_2":103311,"NAME_2":"Naguilian","ID_3":103311015,"NAME_3":"Cabaritan Sur","NL_NAME_3":null,"VARNAME_3":null,"TYPE_3":"Barangay","ENGTYPE_3":"Village","PROVINCE":"La Union","REGION":"Region I (Ilocos Region)","id":"barangay-0103311015","name":"Cabaritan Sur","barangayCode":"0103311015","population":null,"formattedPop":null,"densityCategory":"No data","vulnerabilityRating":"No data","healthRiskLevel":"No data","areaKm2":1.555786,"centerLat":16.520343,"centerLng":120.382709,"geometrySource":"all_barangay-2.csv detailed WKT","geometryMatchMethod":"unique_official_admin_names","boundaryPointCount":15},"geometry":{"type":"MultiPolygon","coordinates":[[[[120.395447,16.535379],[120.395264,16.53285],[120.39502,16.53203],[120.39463,16.530531],[120.393028,16.53047],[120.391869,16.53046],[120.386887,16.527901],[120.386589,16.529961],[120.391312,16.532841],[120.392097,16.533409],[120.392723,16.53406],[120.393112,16.534559],[120.394791,16.53657],[120.395554,16.53824],[120.395447,16.535379]]]]}},{"type":"Feature","properties":{"ID_0":177,"ISO":"PHL","NAME_0":"Philippines","ID_1":1033,"NAME_1":"La Union","ID_2":103311,"NAME_2":"Naguilian","ID_3":103311016,"NAME_3":"Casilagan","NL_NAME_3":null,"VARNAME_3":null,"TYPE_3":"Barangay","ENGTYPE_3":"Village","PROVINCE":"La Union","REGION":"Region I (Ilocos Region)","id":"barangay-0103311016","name":"Casilagan","barangayCode":"0103311016","population":null,"formattedPop":null,"densityCategory":"No data","vulnerabilityRating":"No data","healthRiskLevel":"No data","areaKm2":8.241225,"centerLat":16.538808,"centerLng":120.425252,"geometrySource":"all_barangay-2.csv detailed WKT","geometryMatchMethod":"unique_official_admin_names","boundaryPointCount":62},"geometry":{"type":"MultiPolygon","coordinates":[[[[120.450821,16.551439],[120.450233,16.549681],[120.450851,16.54887],[120.450867,16.54863],[120.450844,16.547331],[120.4496,16.54611],[120.448509,16.54607],[120.447662,16.545099],[120.447273,16.54427],[120.446693,16.54236],[120.446449,16.541401],[120.446129,16.53966],[120.445618,16.538811],[120.444641,16.537729],[120.444099,16.53684],[120.444313,16.535839],[120.445091,16.53574],[120.446388,16.53603],[120.447762,16.53558],[120.448227,16.53508],[120.447868,16.534189],[120.445793,16.533661],[120.444901,16.533461],[120.443542,16.53327],[120.443024,16.533039],[120.442574,16.53231],[120.442451,16.53137],[120.442627,16.530371],[120.444153,16.52977],[120.442078,16.528549],[120.437347,16.528549],[120.434792,16.526739],[120.432678,16.526939],[120.431183,16.527901],[120.427551,16.52655],[120.426437,16.52677],[120.426392,16.526979],[120.425507,16.527189],[120.42543,16.527679],[120.421127,16.52828],[120.420319,16.53175],[120.420174,16.535],[120.420174,16.53701],[120.41835,16.53871],[120.418571,16.542231],[120.422546,16.545601],[120.424362,16.54611],[120.425522,16.54674],[120.426727,16.547581],[120.428757,16.548929],[120.429672,16.549351],[120.431107,16.54987],[120.432388,16.54995],[120.434067,16.54949],[120.43441,16.549],[120.434853,16.548321],[120.435722,16.547979],[120.437508,16.547701],[120.438377,16.547729],[120.43924,16.54812],[120.447739,16.55035],[120.450821,16.551439]]]]}},{"type":"Feature","properties":{"ID_0":177,"ISO":"PHL","NAME_0":"Philippines","ID_1":1033,"NAME_1":"La Union","ID_2":103311,"NAME_2":"Naguilian","ID_3":103311017,"NAME_3":"Dal-lipaoen","NL_NAME_3":null,"VARNAME_3":null,"TYPE_3":"Barangay","ENGTYPE_3":"Village","PROVINCE":"La Union","REGION":"Region I (Ilocos Region)","id":"barangay-0103311017","name":"Dal-lipaoen","barangayCode":"0103311017","population":null,"formattedPop":null,"densityCategory":"No data","vulnerabilityRating":"No data","healthRiskLevel":"No data","areaKm2":1.551605,"centerLat":16.532583,"centerLng":120.379416,"geometrySource":"all_barangay-2.csv detailed WKT","geometryMatchMethod":"unique_official_admin_names","boundaryPointCount":20},"geometry":{"type":"MultiPolygon","coordinates":[[[[120.384972,16.538731],[120.391144,16.539749],[120.393967,16.54002],[120.395538,16.54003],[120.395554,16.53824],[120.394791,16.53657],[120.393112,16.534559],[120.392723,16.53406],[120.392097,16.533409],[120.391312,16.532841],[120.390549,16.53335],[120.390663,16.533939],[120.390793,16.53504],[120.391144,16.5359],[120.390793,16.53661],[120.389481,16.5371],[120.388184,16.53686],[120.386887,16.535589],[120.385963,16.534731],[120.384972,16.538731]]]]}},{"type":"Feature","properties":{"ID_0":177,"ISO":"PHL","NAME_0":"Philippines","ID_1":1033,"NAME_1":"La Union","ID_2":103311,"NAME_2":"Naguilian","ID_3":103311018,"NAME_3":"Daramuangan","NL_NAME_3":null,"VARNAME_3":null,"TYPE_3":"Barangay","ENGTYPE_3":"Village","PROVINCE":"La Union","REGION":"Region I (Ilocos Region)","id":"barangay-0103311018","name":"Daramuangan","barangayCode":"0103311018","population":null,"formattedPop":null,"densityCategory":"No data","vulnerabilityRating":"No data","healthRiskLevel":"No data","areaKm2":1.223454,"centerLat":16.541285,"centerLng":120.377072,"geometrySource":"all_barangay-2.csv detailed WKT","geometryMatchMethod":"unique_official_admin_names","boundaryPointCount":10},"geometry":{"type":"MultiPolygon","coordinates":[[[[120.383652,16.54561],[120.386803,16.54563],[120.390457,16.54697],[120.393463,16.546579],[120.395317,16.54632],[120.395538,16.54003],[120.393967,16.54002],[120.391144,16.539749],[120.384972,16.538731],[120.383652,16.54561]]]]}},{"type":"Feature","properties":{"ID_0":177,"ISO":"PHL","NAME_0":"Philippines","ID_1":1033,"NAME_1":"La Union","ID_2":103311,"NAME_2":"Naguilian","ID_3":103311019,"NAME_3":"Guesset","NL_NAME_3":null,"VARNAME_3":null,"TYPE_3":"Barangay","ENGTYPE_3":"Village","PROVINCE":"La Union","REGION":"Region I (Ilocos Region)","id":"barangay-0103311019","name":"Guesset","barangayCode":"0103311019","population":null,"formattedPop":null,"densityCategory":"No data","vulnerabilityRating":"No data","healthRiskLevel":"No data","areaKm2":1.690865,"centerLat":16.509976,"centerLng":120.412338,"geometrySource":"all_barangay-2.csv detailed WKT","geometryMatchMethod":"unique_official_admin_names","boundaryPointCount":10},"geometry":{"type":"MultiPolygon","coordinates":[[[[120.41333,16.519251],[120.419899,16.521429],[120.41938,16.51725],[120.418907,16.51442],[120.4179,16.514299],[120.416328,16.51339],[120.415176,16.5124],[120.414047,16.51153],[120.413757,16.515221],[120.41333,16.519251]]]]}},{"type":"Feature","properties":{"ID_0":177,"ISO":"PHL","NAME_0":"Philippines","ID_1":1033,"NAME_1":"La Union","ID_2":103311,"NAME_2":"Naguilian","ID_3":103311020,"NAME_3":"Gusing Norte","NL_NAME_3":null,"VARNAME_3":null,"TYPE_3":"Barangay","ENGTYPE_3":"Village","PROVINCE":"La Union","REGION":"Region I (Ilocos Region)","id":"barangay-0103311020","name":"Gusing Norte","barangayCode":"0103311020","population":null,"formattedPop":null,"densityCategory":"No data","vulnerabilityRating":"No data","healthRiskLevel":"No data","areaKm2":5.711699,"centerLat":16.557531,"centerLng":120.432521,"geometrySource":"all_barangay-2.csv detailed WKT","geometryMatchMethod":"unique_official_admin_names","boundaryPointCount":28},"geometry":{"type":"MultiPolygon","coordinates":[[[[120.419739,16.56016],[120.426521,16.56086],[120.432503,16.562059],[120.440392,16.56329],[120.450706,16.562019],[120.454231,16.56007],[120.453682,16.558981],[120.453293,16.557659],[120.45356,16.556681],[120.453194,16.55525],[120.452309,16.55368],[120.452026,16.55275],[120.451729,16.552311],[120.450821,16.551439],[120.447739,16.55035],[120.43924,16.54812],[120.439903,16.54891],[120.440201,16.549959],[120.439949,16.55127],[120.435837,16.553551],[120.430679,16.554899],[120.426651,16.555611],[120.417458,16.555389],[120.409531,16.55744],[120.399712,16.556219],[120.404678,16.559891],[120.406662,16.56329],[120.419739,16.56016]]]]}},{"type":"Feature","properties":{"ID_0":177,"ISO":"PHL","NAME_0":"Philippines","ID_1":1033,"NAME_1":"La Union","ID_2":103311,"NAME_2":"Naguilian","ID_3":103311021,"NAME_3":"Gusing Sur","NL_NAME_3":null,"VARNAME_3":null,"TYPE_3":"Barangay","ENGTYPE_3":"Village","PROVINCE":"La Union","REGION":"Region I (Ilocos Region)","id":"barangay-0103311021","name":"Gusing Sur","barangayCode":"0103311021","population":null,"formattedPop":null,"densityCategory":"No data","vulnerabilityRating":"No data","healthRiskLevel":"No data","areaKm2":3.745804,"centerLat":16.554324,"centerLng":120.417506,"geometrySource":"all_barangay-2.csv detailed WKT","geometryMatchMethod":"unique_official_admin_names","boundaryPointCount":43},"geometry":{"type":"MultiPolygon","coordinates":[[[[120.399712,16.556219],[120.409531,16.55744],[120.417458,16.555389],[120.426651,16.555611],[120.430679,16.554899],[120.435837,16.553551],[120.439949,16.55127],[120.440201,16.549959],[120.439903,16.54891],[120.43924,16.54812],[120.438377,16.547729],[120.437508,16.547701],[120.435722,16.547979],[120.434853,16.548321],[120.43441,16.549],[120.434067,16.54949],[120.432388,16.54995],[120.431107,16.54987],[120.429672,16.549351],[120.428757,16.548929],[120.426727,16.547581],[120.425522,16.54674],[120.424362,16.54611],[120.422546,16.545601],[120.418571,16.542231],[120.416237,16.543171],[120.414307,16.543301],[120.414726,16.544491],[120.412376,16.544331],[120.411583,16.544901],[120.411118,16.54561],[120.411057,16.54579],[120.410606,16.5469],[120.410561,16.54714],[120.410683,16.54817],[120.410492,16.54899],[120.409927,16.54944],[120.409233,16.550011],[120.408913,16.550131],[120.406433,16.551849],[120.401093,16.55279],[120.400543,16.55406],[120.399712,16.556219]]]]}},{"type":"Feature","properties":{"ID_0":177,"ISO":"PHL","NAME_0":"Philippines","ID_1":1033,"NAME_1":"La Union","ID_2":103311,"NAME_2":"Naguilian","ID_3":103311022,"NAME_3":"Imelda","NL_NAME_3":null,"VARNAME_3":null,"TYPE_3":"Barangay","ENGTYPE_3":"Village","PROVINCE":"La Union","REGION":"Region I (Ilocos Region)","id":"barangay-0103311022","name":"Imelda","barangayCode":"0103311022","population":null,"formattedPop":null,"densityCategory":"No data","vulnerabilityRating":"No data","healthRiskLevel":"No data","areaKm2":0.23799,"centerLat":16.528369,"centerLng":120.398123,"geometrySource":"all_barangay-2.csv detailed WKT","geometryMatchMethod":"unique_official_admin_names","boundaryPointCount":5},"geometry":{"type":"MultiPolygon","coordinates":[[[[120.411247,16.53129],[120.417923,16.529051],[120.421127,16.52828],[120.41172,16.52614],[120.411247,16.53129]]]]}},{"type":"Feature","properties":{"ID_0":177,"ISO":"PHL","NAME_0":"Philippines","ID_1":1033,"NAME_1":"La Union","ID_2":103311,"NAME_2":"Naguilian","ID_3":103311023,"NAME_3":"Lioac Norte","NL_NAME_3":null,"VARNAME_3":null,"TYPE_3":"Barangay","ENGTYPE_3":"Village","PROVINCE":"La Union","REGION":"Region I (Ilocos Region)","id":"barangay-0103311023","name":"Lioac Norte","barangayCode":"0103311023","population":null,"formattedPop":null,"densityCategory":"No data","vulnerabilityRating":"No data","healthRiskLevel":"No data","areaKm2":0.895214,"centerLat":16.551801,"centerLng":120.399739,"geometrySource":"all_barangay-2.csv detailed WKT","geometryMatchMethod":"unique_official_admin_names","boundaryPointCount":23},"geometry":{"type":"MultiPolygon","coordinates":[[[[120.401093,16.55279],[120.406433,16.551849],[120.408913,16.550131],[120.409233,16.550011],[120.409927,16.54944],[120.410492,16.54899],[120.410683,16.54817],[120.410561,16.54714],[120.410606,16.5469],[120.411057,16.54579],[120.411118,16.54561],[120.411583,16.544901],[120.412376,16.544331],[120.414726,16.544491],[120.414307,16.543301],[120.403053,16.54125],[120.40242,16.54343],[120.401939,16.545],[120.401947,16.546921],[120.402023,16.549339],[120.402359,16.5511],[120.40229,16.551781],[120.401093,16.55279]]]]}},{"type":"Feature","properties":{"ID_0":177,"ISO":"PHL","NAME_0":"Philippines","ID_1":1033,"NAME_1":"La Union","ID_2":103311,"NAME_2":"Naguilian","ID_3":103311024,"NAME_3":"Lioac Sur","NL_NAME_3":null,"VARNAME_3":null,"TYPE_3":"Barangay","ENGTYPE_3":"Village","PROVINCE":"La Union","REGION":"Region I (Ilocos Region)","id":"barangay-0103311024","name":"Lioac Sur","barangayCode":"0103311024","population":null,"formattedPop":null,"densityCategory":"No data","vulnerabilityRating":"No data","healthRiskLevel":"No data","areaKm2":1.522914,"centerLat":16.542635,"centerLng":120.399794,"geometrySource":"all_barangay-2.csv detailed WKT","geometryMatchMethod":"unique_official_admin_names","boundaryPointCount":9},"geometry":{"type":"MultiPolygon","coordinates":[[[[120.416237,16.543171],[120.415543,16.54121],[120.413986,16.53949],[120.410713,16.53756],[120.406807,16.536819],[120.405182,16.5368],[120.403053,16.54125],[120.414307,16.543301],[120.416237,16.543171]]]]}},{"type":"Feature","properties":{"ID_0":177,"ISO":"PHL","NAME_0":"Philippines","ID_1":1033,"NAME_1":"La Union","ID_2":103311,"NAME_2":"Naguilian","ID_3":103311025,"NAME_3":"Magungunay","NL_NAME_3":null,"VARNAME_3":null,"TYPE_3":"Barangay","ENGTYPE_3":"Village","PROVINCE":"La Union","REGION":"Region I (Ilocos Region)","id":"barangay-0103311025","name":"Magungunay","barangayCode":"0103311025","population":null,"formattedPop":null,"densityCategory":"No data","vulnerabilityRating":"No data","healthRiskLevel":"No data","areaKm2":4.295336,"centerLat":16.466585,"centerLng":120.400057,"geometrySource":"all_barangay-2.csv detailed WKT","geometryMatchMethod":"unique_official_admin_names","boundaryPointCount":36},"geometry":{"type":"MultiPolygon","coordinates":[[[[120.405151,16.487459],[120.404587,16.486231],[120.403717,16.48473],[120.403481,16.48431],[120.403343,16.480709],[120.404381,16.47703],[120.410004,16.475149],[120.412666,16.47509],[120.412621,16.475401],[120.413139,16.47617],[120.413933,16.4767],[120.414864,16.47677],[120.415497,16.47748],[120.418854,16.48019],[120.422394,16.47551],[120.424118,16.47114],[120.425659,16.468201],[120.427032,16.466261],[120.428253,16.462299],[120.424896,16.46386],[120.420464,16.462111],[120.419212,16.464661],[120.416031,16.46645],[120.413651,16.468479],[120.410004,16.469021],[120.408089,16.46784],[120.402733,16.467871],[120.401878,16.467661],[120.400002,16.466801],[120.399269,16.46649],[120.398071,16.47423],[120.396141,16.48428],[120.396011,16.48632],[120.399109,16.48621],[120.401993,16.48703],[120.405151,16.487459]]]]}},{"type":"Feature","properties":{"ID_0":177,"ISO":"PHL","NAME_0":"Philippines","ID_1":1033,"NAME_1":"La Union","ID_2":103311,"NAME_2":"Naguilian","ID_3":103311026,"NAME_3":"Mamat-ing Norte","NL_NAME_3":null,"VARNAME_3":null,"TYPE_3":"Barangay","ENGTYPE_3":"Village","PROVINCE":"La Union","REGION":"Region I (Ilocos Region)","id":"barangay-0103311026","name":"Mamat-ing Norte","barangayCode":"0103311026","population":null,"formattedPop":null,"densityCategory":"No data","vulnerabilityRating":"No data","healthRiskLevel":"No data","areaKm2":3.572227,"centerLat":16.594179,"centerLng":120.416249,"geometrySource":"all_barangay-2.csv detailed WKT","geometryMatchMethod":"unique_official_admin_names","boundaryPointCount":31},"geometry":{"type":"MultiPolygon","coordinates":[[[[120.418373,16.58481],[120.418777,16.587151],[120.418556,16.58795],[120.418343,16.58935],[120.418541,16.591181],[120.41893,16.59223],[120.420013,16.59367],[120.420952,16.594179],[120.421211,16.59416],[120.42247,16.594521],[120.423332,16.59457],[120.42382,16.59445],[120.42437,16.594521],[120.42524,16.594231],[120.425468,16.59424],[120.426239,16.59417],[120.426979,16.594],[120.428329,16.594139],[120.429283,16.59502],[120.432083,16.595791],[120.437027,16.59494],[120.437309,16.589781],[120.436897,16.58556],[120.435799,16.584221],[120.434334,16.5844],[120.433723,16.586109],[120.433487,16.58905],[120.431168,16.589411],[120.428139,16.585489],[120.425369,16.5818],[120.418373,16.58481]]]]}},{"type":"Feature","properties":{"ID_0":177,"ISO":"PHL","NAME_0":"Philippines","ID_1":1033,"NAME_1":"La Union","ID_2":103311,"NAME_2":"Naguilian","ID_3":103311027,"NAME_3":"Mamat-ing Sur","NL_NAME_3":null,"VARNAME_3":null,"TYPE_3":"Barangay","ENGTYPE_3":"Village","PROVINCE":"La Union","REGION":"Region I (Ilocos Region)","id":"barangay-0103311027","name":"Mamat-ing Sur","barangayCode":"0103311027","population":null,"formattedPop":null,"densityCategory":"No data","vulnerabilityRating":"No data","healthRiskLevel":"No data","areaKm2":1.657194,"centerLat":16.578563,"centerLng":120.405278,"geometrySource":"all_barangay-2.csv detailed WKT","geometryMatchMethod":"unique_official_admin_names","boundaryPointCount":23},"geometry":{"type":"MultiPolygon","coordinates":[[[[120.425369,16.5818],[120.421547,16.575399],[120.418457,16.572611],[120.413559,16.56929],[120.406662,16.56329],[120.404678,16.559891],[120.399712,16.556219],[120.398643,16.558519],[120.39653,16.55904],[120.399307,16.563511],[120.400703,16.5662],[120.401711,16.568621],[120.402733,16.571461],[120.403587,16.57493],[120.404587,16.57556],[120.406479,16.57568],[120.410797,16.576731],[120.413017,16.57795],[120.415627,16.57954],[120.416542,16.5809],[120.418381,16.583],[120.418373,16.58481],[120.425369,16.5818]]]]}},{"type":"Feature","properties":{"ID_0":177,"ISO":"PHL","NAME_0":"Philippines","ID_1":1033,"NAME_1":"La Union","ID_2":103311,"NAME_2":"Naguilian","ID_3":103311028,"NAME_3":"Nagsidorisan","NL_NAME_3":null,"VARNAME_3":null,"TYPE_3":"Barangay","ENGTYPE_3":"Village","PROVINCE":"La Union","REGION":"Region I (Ilocos Region)","id":"barangay-0103311028","name":"Nagsidorisan","barangayCode":"0103311028","population":null,"formattedPop":null,"densityCategory":"No data","vulnerabilityRating":"No data","healthRiskLevel":"No data","areaKm2":1.46203,"centerLat":16.509218,"centerLng":120.397226,"geometrySource":"all_barangay-2.csv detailed WKT","geometryMatchMethod":"unique_official_admin_names","boundaryPointCount":14},"geometry":{"type":"MultiPolygon","coordinates":[[[[120.413757,16.515221],[120.414047,16.51153],[120.409737,16.50947],[120.407623,16.509159],[120.405724,16.50959],[120.404251,16.5105],[120.403481,16.51161],[120.403214,16.51219],[120.403214,16.51354],[120.403954,16.51512],[120.405273,16.51635],[120.407639,16.515011],[120.411186,16.515129],[120.413757,16.515221]]]]}},{"type":"Feature","properties":{"ID_0":177,"ISO":"PHL","NAME_0":"Philippines","ID_1":1033,"NAME_1":"La Union","ID_2":103311,"NAME_2":"Naguilian","ID_3":103311029,"NAME_3":"Natividad","NL_NAME_3":null,"VARNAME_3":null,"TYPE_3":"Barangay","ENGTYPE_3":"Village","PROVINCE":"La Union","REGION":"Region I (Ilocos Region)","id":"barangay-0103311029","name":"Natividad","barangayCode":"0103311029","population":null,"formattedPop":null,"densityCategory":"No data","vulnerabilityRating":"No data","healthRiskLevel":"No data","areaKm2":0.899585,"centerLat":16.526119,"centerLng":120.392236,"geometrySource":"all_barangay-2.csv detailed WKT","geometryMatchMethod":"unique_official_admin_names","boundaryPointCount":18},"geometry":{"type":"MultiPolygon","coordinates":[[[[120.405182,16.5368],[120.406807,16.536819],[120.410713,16.53756],[120.411247,16.53129],[120.41172,16.52614],[120.40509,16.5236],[120.401268,16.526791],[120.399269,16.528561],[120.398743,16.529499],[120.397827,16.530519],[120.39463,16.530531],[120.39502,16.53203],[120.395264,16.53285],[120.395447,16.535379],[120.39801,16.534901],[120.399742,16.53516],[120.403679,16.535391],[120.405182,16.5368]]]]}},{"type":"Feature","properties":{"ID_0":177,"ISO":"PHL","NAME_0":"Philippines","ID_1":1033,"NAME_1":"La Union","ID_2":103311,"NAME_2":"Naguilian","ID_3":103311030,"NAME_3":"Ortiz","NL_NAME_3":null,"VARNAME_3":null,"TYPE_3":"Barangay","ENGTYPE_3":"Village","PROVINCE":"La Union","REGION":"Region I (Ilocos Region)","id":"barangay-0103311030","name":"Ortiz","barangayCode":"0103311030","population":null,"formattedPop":null,"densityCategory":"No data","vulnerabilityRating":"No data","healthRiskLevel":"No data","areaKm2":0.81717,"centerLat":16.533171,"centerLng":120.392988,"geometrySource":"all_barangay-2.csv detailed WKT","geometryMatchMethod":"unique_official_admin_names","boundaryPointCount":8},"geometry":{"type":"MultiPolygon","coordinates":[[[[120.403053,16.54125],[120.405182,16.5368],[120.403679,16.535391],[120.399742,16.53516],[120.39801,16.534901],[120.395447,16.535379],[120.395554,16.53824],[120.403053,16.54125]]]]}},{"type":"Feature","properties":{"ID_0":177,"ISO":"PHL","NAME_0":"Philippines","ID_1":1033,"NAME_1":"La Union","ID_2":103311,"NAME_2":"Naguilian","ID_3":103311032,"NAME_3":"Ribsuan","NL_NAME_3":null,"VARNAME_3":null,"TYPE_3":"Barangay","ENGTYPE_3":"Village","PROVINCE":"La Union","REGION":"Region I (Ilocos Region)","id":"barangay-0103311032","name":"Ribsuan","barangayCode":"0103311032","population":null,"formattedPop":null,"densityCategory":"No data","vulnerabilityRating":"No data","healthRiskLevel":"No data","areaKm2":2.063231,"centerLat":16.520423,"centerLng":120.43273,"geometrySource":"all_barangay-2.csv detailed WKT","geometryMatchMethod":"unique_official_admin_names","boundaryPointCount":20},"geometry":{"type":"MultiPolygon","coordinates":[[[[120.434792,16.526739],[120.437347,16.528549],[120.442078,16.528549],[120.442299,16.523331],[120.441994,16.52235],[120.43766,16.52285],[120.435966,16.523211],[120.434036,16.522659],[120.431519,16.5215],[120.428268,16.52021],[120.426353,16.518459],[120.423759,16.51725],[120.421471,16.517691],[120.41938,16.51725],[120.419899,16.521429],[120.4217,16.52309],[120.423141,16.52413],[120.424942,16.52318],[120.427834,16.52306],[120.434792,16.526739]]]]}},{"type":"Feature","properties":{"ID_0":177,"ISO":"PHL","NAME_0":"Philippines","ID_1":1033,"NAME_1":"La Union","ID_2":103311,"NAME_2":"Naguilian","ID_3":103311033,"NAME_3":"San Antonio","NL_NAME_3":null,"VARNAME_3":null,"TYPE_3":"Barangay","ENGTYPE_3":"Village","PROVINCE":"La Union","REGION":"Region I (Ilocos Region)","id":"barangay-0103311033","name":"San Antonio","barangayCode":"0103311033","population":null,"formattedPop":null,"densityCategory":"No data","vulnerabilityRating":"No data","healthRiskLevel":"No data","areaKm2":2.267832,"centerLat":16.56965,"centerLng":120.427343,"geometrySource":"all_barangay-2.csv detailed WKT","geometryMatchMethod":"unique_official_admin_names","boundaryPointCount":26},"geometry":{"type":"MultiPolygon","coordinates":[[[[120.464973,16.56793],[120.46302,16.56535],[120.460983,16.56365],[120.460297,16.56332],[120.459053,16.56286],[120.457771,16.562401],[120.456657,16.56127],[120.45562,16.56074],[120.454742,16.56041],[120.454231,16.56007],[120.450706,16.562019],[120.440392,16.56329],[120.432503,16.562059],[120.426521,16.56086],[120.419739,16.56016],[120.423767,16.56531],[120.428139,16.57037],[120.431709,16.57538],[120.434143,16.577959],[120.436638,16.577999],[120.440567,16.577101],[120.44474,16.575661],[120.449318,16.572269],[120.453499,16.57094],[120.460037,16.569639],[120.464973,16.56793]]]]}},{"type":"Feature","properties":{"ID_0":177,"ISO":"PHL","NAME_0":"Philippines","ID_1":1033,"NAME_1":"La Union","ID_2":103311,"NAME_2":"Naguilian","ID_3":103311034,"NAME_3":"San Isidro","NL_NAME_3":null,"VARNAME_3":null,"TYPE_3":"Barangay","ENGTYPE_3":"Village","PROVINCE":"La Union","REGION":"Region I (Ilocos Region)","id":"barangay-0103311034","name":"San Isidro","barangayCode":"0103311034","population":null,"formattedPop":null,"densityCategory":"No data","vulnerabilityRating":"No data","healthRiskLevel":"No data","areaKm2":4.022638,"centerLat":16.470219,"centerLng":120.42223,"geometrySource":"all_barangay-2.csv detailed WKT","geometryMatchMethod":"unique_official_admin_names","boundaryPointCount":82},"geometry":{"type":"MultiPolygon","coordinates":[[[[120.423218,16.482651],[120.425201,16.482389],[120.426376,16.482571],[120.428413,16.48251],[120.429947,16.482531],[120.431778,16.48266],[120.43306,16.48292],[120.433762,16.483049],[120.435577,16.482401],[120.435677,16.48131],[120.435837,16.481091],[120.436768,16.48155],[120.437271,16.481859],[120.437973,16.48181],[120.438332,16.48138],[120.438187,16.48048],[120.438118,16.479879],[120.438339,16.47942],[120.43927,16.4793],[120.439796,16.47817],[120.44001,16.477409],[120.440697,16.476761],[120.441887,16.476721],[120.442436,16.476709],[120.443024,16.47669],[120.443787,16.475309],[120.444229,16.475109],[120.445183,16.474661],[120.445793,16.47389],[120.445732,16.473379],[120.44532,16.47249],[120.444771,16.47122],[120.444817,16.470711],[120.444473,16.46982],[120.444313,16.469521],[120.444504,16.46879],[120.445053,16.467791],[120.445213,16.4673],[120.445412,16.46678],[120.445419,16.466419],[120.446419,16.46534],[120.446716,16.464849],[120.447517,16.464491],[120.447777,16.46439],[120.448097,16.463989],[120.448242,16.463869],[120.449257,16.46311],[120.449951,16.46324],[120.450188,16.463051],[120.450127,16.46266],[120.450287,16.461729],[120.450752,16.461321],[120.451363,16.460791],[120.451988,16.46011],[120.452408,16.459499],[120.452652,16.45907],[120.453194,16.45845],[120.453651,16.45804],[120.453697,16.45783],[120.453903,16.45768],[120.45491,16.457821],[120.454941,16.45779],[120.455704,16.456921],[120.457764,16.45668],[120.459648,16.45446],[120.455917,16.449051],[120.450417,16.4471],[120.445717,16.448219],[120.442978,16.448009],[120.441078,16.44916],[120.439957,16.453529],[120.434959,16.45573],[120.431137,16.46035],[120.428253,16.462299],[120.427032,16.466261],[120.425659,16.468201],[120.424118,16.47114],[120.422394,16.47551],[120.418854,16.48019],[120.420914,16.482559],[120.422539,16.48291],[120.423218,16.482651]]]]}},{"type":"Feature","properties":{"ID_0":177,"ISO":"PHL","NAME_0":"Philippines","ID_1":1033,"NAME_1":"La Union","ID_2":103311,"NAME_2":"Naguilian","ID_3":103311035,"NAME_3":"Sili","NL_NAME_3":null,"VARNAME_3":null,"TYPE_3":"Barangay","ENGTYPE_3":"Village","PROVINCE":"La Union","REGION":"Region I (Ilocos Region)","id":"barangay-0103311035","name":"Sili","barangayCode":"0103311035","population":null,"formattedPop":null,"densityCategory":"No data","vulnerabilityRating":"No data","healthRiskLevel":"No data","areaKm2":0.983332,"centerLat":16.511043,"centerLng":120.422422,"geometrySource":"all_barangay-2.csv detailed WKT","geometryMatchMethod":"unique_official_admin_names","boundaryPointCount":35},"geometry":{"type":"MultiPolygon","coordinates":[[[[120.440041,16.5194],[120.437332,16.518641],[120.435669,16.51902],[120.434433,16.519699],[120.433434,16.51968],[120.432327,16.519751],[120.431488,16.519449],[120.430183,16.518499],[120.428101,16.517099],[120.427727,16.516569],[120.426933,16.51548],[120.425987,16.5142],[120.425056,16.5135],[120.423981,16.51366],[120.421516,16.513889],[120.420273,16.514231],[120.418907,16.51442],[120.41938,16.51725],[120.421471,16.517691],[120.423759,16.51725],[120.426353,16.518459],[120.428268,16.52021],[120.431519,16.5215],[120.434036,16.522659],[120.435966,16.523211],[120.43766,16.52285],[120.441994,16.52235],[120.442947,16.521351],[120.443733,16.5208],[120.444054,16.520121],[120.444107,16.519239],[120.443428,16.51889],[120.442413,16.51922],[120.441071,16.51943],[120.440041,16.5194]]]]}},{"type":"Feature","properties":{"ID_0":177,"ISO":"PHL","NAME_0":"Philippines","ID_1":1033,"NAME_1":"La Union","ID_2":103311,"NAME_2":"Naguilian","ID_3":103311037,"NAME_3":"Suguidan Norte","NL_NAME_3":null,"VARNAME_3":null,"TYPE_3":"Barangay","ENGTYPE_3":"Village","PROVINCE":"La Union","REGION":"Region I (Ilocos Region)","id":"barangay-0103311037","name":"Suguidan Norte","barangayCode":"0103311037","population":null,"formattedPop":null,"densityCategory":"No data","vulnerabilityRating":"No data","healthRiskLevel":"No data","areaKm2":1.391026,"centerLat":16.514742,"centerLng":120.390904,"geometrySource":"all_barangay-2.csv detailed WKT","geometryMatchMethod":"unique_official_admin_names","boundaryPointCount":12},"geometry":{"type":"MultiPolygon","coordinates":[[[[120.386887,16.527901],[120.391869,16.53046],[120.393227,16.52368],[120.394257,16.518999],[120.394913,16.51494],[120.392311,16.51461],[120.391197,16.51539],[120.389969,16.514601],[120.388618,16.519329],[120.387581,16.52516],[120.387199,16.52689],[120.386887,16.527901]]]]}},{"type":"Feature","properties":{"ID_0":177,"ISO":"PHL","NAME_0":"Philippines","ID_1":1033,"NAME_1":"La Union","ID_2":103311,"NAME_2":"Naguilian","ID_3":103311038,"NAME_3":"Suguidan Sur","NL_NAME_3":null,"VARNAME_3":null,"TYPE_3":"Barangay","ENGTYPE_3":"Village","PROVINCE":"La Union","REGION":"Region I (Ilocos Region)","id":"barangay-0103311038","name":"Suguidan Sur","barangayCode":"0103311038","population":null,"formattedPop":null,"densityCategory":"No data","vulnerabilityRating":"No data","healthRiskLevel":"No data","areaKm2":3.617047,"centerLat":16.496693,"centerLng":120.387567,"geometrySource":"all_barangay-2.csv detailed WKT","geometryMatchMethod":"unique_official_admin_names","boundaryPointCount":32},"geometry":{"type":"MultiPolygon","coordinates":[[[[120.391869,16.53046],[120.393028,16.53047],[120.39463,16.530531],[120.397827,16.530519],[120.398743,16.529499],[120.399269,16.528561],[120.401268,16.526791],[120.40509,16.5236],[120.405518,16.52128],[120.405388,16.518681],[120.405273,16.51635],[120.403954,16.51512],[120.403214,16.51354],[120.403214,16.51219],[120.403481,16.51161],[120.404251,16.5105],[120.405724,16.50959],[120.403267,16.50618],[120.401672,16.504789],[120.400452,16.50297],[120.401497,16.496281],[120.401756,16.49242],[120.401993,16.48703],[120.399109,16.48621],[120.396011,16.48632],[120.389969,16.514601],[120.391197,16.51539],[120.392311,16.51461],[120.394913,16.51494],[120.394257,16.518999],[120.393227,16.52368],[120.391869,16.53046]]]]}},{"type":"Feature","properties":{"ID_0":177,"ISO":"PHL","NAME_0":"Philippines","ID_1":1033,"NAME_1":"La Union","ID_2":103311,"NAME_2":"Naguilian","ID_3":103311039,"NAME_3":"Tuddingan","NL_NAME_3":null,"VARNAME_3":null,"TYPE_3":"Barangay","ENGTYPE_3":"Village","PROVINCE":"La Union","REGION":"Region I (Ilocos Region)","id":"barangay-0103311039","name":"Tuddingan","barangayCode":"0103311039","population":null,"formattedPop":null,"densityCategory":"No data","vulnerabilityRating":"No data","healthRiskLevel":"No data","areaKm2":3.089687,"centerLat":16.573429,"centerLng":120.412426,"geometrySource":"all_barangay-2.csv detailed WKT","geometryMatchMethod":"unique_official_admin_names","boundaryPointCount":13},"geometry":{"type":"MultiPolygon","coordinates":[[[[120.434143,16.577959],[120.431709,16.57538],[120.428139,16.57037],[120.423767,16.56531],[120.419739,16.56016],[120.406662,16.56329],[120.413559,16.56929],[120.418457,16.572611],[120.421547,16.575399],[120.425369,16.5818],[120.429031,16.58036],[120.431923,16.579861],[120.434143,16.577959]]]]}}]}
