{"type":"FeatureCollection","features":[{"type":"Feature","properties":{"ID_0":177,"ISO":"PHL","NAME_0":"Philippines","ID_1":3069,"NAME_1":"Tarlac","ID_2":306903,"NAME_2":"Camiling","ID_3":306903001,"NAME_3":"Anoling 1st","NL_NAME_3":null,"VARNAME_3":null,"TYPE_3":"Barangay","ENGTYPE_3":"Village","PROVINCE":"Tarlac","REGION":"Region III (Central Luzon)","id":"barangay-0306903001","name":"Anoling 1st","barangayCode":"0306903001","population":null,"formattedPop":null,"densityCategory":"No data","vulnerabilityRating":"No data","healthRiskLevel":"No data","areaKm2":1.427593,"centerLat":15.657157,"centerLng":120.396461,"geometrySource":"all_barangay-2.csv detailed WKT","geometryMatchMethod":"unique_official_admin_names","boundaryPointCount":22},"geometry":{"type":"MultiPolygon","coordinates":[[[[120.395561,15.66611],[120.396896,15.66599],[120.397842,15.66586],[120.398361,15.66593],[120.400841,15.66489],[120.400574,15.66372],[120.400002,15.66279],[120.399803,15.66218],[120.39949,15.66132],[120.399094,15.66059],[120.398247,15.65987],[120.3974,15.65937],[120.396622,15.65897],[120.394562,15.65796],[120.393188,15.65905],[120.392548,15.66009],[120.392067,15.66111],[120.391159,15.66262],[120.390068,15.66359],[120.392487,15.66454],[120.394234,15.66557],[120.395561,15.66611]]]]}},{"type":"Feature","properties":{"ID_0":177,"ISO":"PHL","NAME_0":"Philippines","ID_1":3069,"NAME_1":"Tarlac","ID_2":306903,"NAME_2":"Camiling","ID_3":306903002,"NAME_3":"Anoling 2nd","NL_NAME_3":null,"VARNAME_3":null,"TYPE_3":"Barangay","ENGTYPE_3":"Village","PROVINCE":"Tarlac","REGION":"Region III (Central Luzon)","id":"barangay-0306903002","name":"Anoling 2nd","barangayCode":"0306903002","population":null,"formattedPop":null,"densityCategory":"No data","vulnerabilityRating":"No data","healthRiskLevel":"No data","areaKm2":1.023727,"centerLat":15.649159,"centerLng":120.389707,"geometrySource":"all_barangay-2.csv detailed WKT","geometryMatchMethod":"unique_official_admin_names","boundaryPointCount":61},"geometry":{"type":"MultiPolygon","coordinates":[[[[120.390068,15.66359],[120.391159,15.66262],[120.392067,15.66111],[120.392548,15.66009],[120.393188,15.65905],[120.394562,15.65796],[120.39756,15.65653],[120.398399,15.65603],[120.400917,15.65462],[120.40094,15.65249],[120.400574,15.64872],[120.400322,15.64596],[120.400078,15.64324],[120.399529,15.63835],[120.39341,15.63286],[120.392906,15.63387],[120.393143,15.63506],[120.393913,15.6366],[120.394333,15.63758],[120.395012,15.63848],[120.395477,15.63879],[120.395897,15.63922],[120.396111,15.63998],[120.395592,15.64078],[120.394981,15.64123],[120.394432,15.64158],[120.39389,15.6421],[120.393768,15.64272],[120.394073,15.64376],[120.394638,15.64507],[120.395477,15.646],[120.396111,15.64626],[120.396767,15.64702],[120.397087,15.64811],[120.397278,15.64892],[120.397301,15.64994],[120.396988,15.65081],[120.396111,15.65143],[120.395058,15.65154],[120.393967,15.65144],[120.392418,15.65179],[120.391571,15.65257],[120.391022,15.65314],[120.390266,15.65347],[120.389076,15.65351],[120.386597,15.65298],[120.383942,15.65359],[120.382347,15.65353],[120.380272,15.65339],[120.378532,15.65321],[120.379517,15.65462],[120.380142,15.65566],[120.38089,15.6573],[120.381683,15.65853],[120.383232,15.66122],[120.384567,15.66281],[120.385536,15.6639],[120.386993,15.66365],[120.387993,15.66342],[120.388771,15.66365],[120.390068,15.66359]]]]}},{"type":"Feature","properties":{"ID_0":177,"ISO":"PHL","NAME_0":"Philippines","ID_1":3069,"NAME_1":"Tarlac","ID_2":306903,"NAME_2":"Camiling","ID_3":306903003,"NAME_3":"Anoling 3rd","NL_NAME_3":null,"VARNAME_3":null,"TYPE_3":"Barangay","ENGTYPE_3":"Village","PROVINCE":"Tarlac","REGION":"Region III (Central Luzon)","id":"barangay-0306903003","name":"Anoling 3rd","barangayCode":"0306903003","population":null,"formattedPop":null,"densityCategory":"No data","vulnerabilityRating":"No data","healthRiskLevel":"No data","areaKm2":3.843095,"centerLat":15.640559,"centerLng":120.371605,"geometrySource":"all_barangay-2.csv detailed WKT","geometryMatchMethod":"unique_official_admin_names","boundaryPointCount":30},"geometry":{"type":"MultiPolygon","coordinates":[[[[120.378532,15.65321],[120.380272,15.65339],[120.382347,15.65353],[120.383942,15.65359],[120.386597,15.65298],[120.385788,15.65212],[120.38501,15.65122],[120.384117,15.64972],[120.383453,15.64859],[120.382317,15.64787],[120.381706,15.64768],[120.380913,15.64713],[120.380699,15.64611],[120.380493,15.64521],[120.379578,15.644],[120.378998,15.6435],[120.377327,15.6429],[120.374619,15.64282],[120.3741,15.64272],[120.371437,15.64222],[120.371552,15.64511],[120.371788,15.64613],[120.372093,15.64741],[120.372414,15.64895],[120.372543,15.65016],[120.371834,15.6516],[120.374107,15.6509],[120.37529,15.65145],[120.376747,15.65233],[120.378532,15.65321]]]]}},{"type":"Feature","properties":{"ID_0":177,"ISO":"PHL","NAME_0":"Philippines","ID_1":3069,"NAME_1":"Tarlac","ID_2":306903,"NAME_2":"Camiling","ID_3":306903004,"NAME_3":"Bacabac","NL_NAME_3":null,"VARNAME_3":null,"TYPE_3":"Barangay","ENGTYPE_3":"Village","PROVINCE":"Tarlac","REGION":"Region III (Central Luzon)","id":"barangay-0306903004","name":"Bacabac","barangayCode":"0306903004","population":null,"formattedPop":null,"densityCategory":"No data","vulnerabilityRating":"No data","healthRiskLevel":"No data","areaKm2":5.274731,"centerLat":15.726539,"centerLng":120.419754,"geometrySource":"all_barangay-2.csv detailed WKT","geometryMatchMethod":"unique_official_admin_names","boundaryPointCount":19},"geometry":{"type":"MultiPolygon","coordinates":[[[[120.432549,15.74328],[120.431961,15.74149],[120.430557,15.73933],[120.429642,15.73701],[120.428864,15.73483],[120.427917,15.73278],[120.426514,15.73038],[120.425629,15.72922],[120.424591,15.72773],[120.422958,15.72457],[120.420937,15.72483],[120.41703,15.7246],[120.414787,15.72442],[120.414291,15.72539],[120.413628,15.7311],[120.413078,15.73512],[120.412727,15.73792],[120.412407,15.74047],[120.432549,15.74328]]]]}},{"type":"Feature","properties":{"ID_0":177,"ISO":"PHL","NAME_0":"Philippines","ID_1":3069,"NAME_1":"Tarlac","ID_2":306903,"NAME_2":"Camiling","ID_3":306903005,"NAME_3":"Bacsay","NL_NAME_3":null,"VARNAME_3":null,"TYPE_3":"Barangay","ENGTYPE_3":"Village","PROVINCE":"Tarlac","REGION":"Region III (Central Luzon)","id":"barangay-0306903005","name":"Bacsay","barangayCode":"0306903005","population":null,"formattedPop":null,"densityCategory":"No data","vulnerabilityRating":"No data","healthRiskLevel":"No data","areaKm2":7.064673,"centerLat":15.635415,"centerLng":120.349165,"geometrySource":"all_barangay-2.csv detailed WKT","geometryMatchMethod":"unique_official_admin_names","boundaryPointCount":40},"geometry":{"type":"MultiPolygon","coordinates":[[[[120.343987,15.64232],[120.35009,15.6462],[120.350571,15.64423],[120.350754,15.64312],[120.350861,15.64153],[120.350937,15.64011],[120.351143,15.63862],[120.351707,15.63716],[120.352211,15.6351],[120.352142,15.63417],[120.352074,15.63306],[120.351784,15.6319],[120.351143,15.63099],[120.350014,15.63073],[120.349663,15.63049],[120.349312,15.63002],[120.348419,15.62867],[120.347397,15.62795],[120.346497,15.62705],[120.345589,15.62607],[120.344597,15.6252],[120.344048,15.62451],[120.343269,15.62363],[120.342072,15.62353],[120.341293,15.62469],[120.340767,15.62573],[120.340233,15.62663],[120.339233,15.62772],[120.338737,15.62847],[120.338188,15.62996],[120.338127,15.63081],[120.338493,15.63169],[120.339821,15.63357],[120.3405,15.63449],[120.34127,15.63575],[120.342133,15.63691],[120.342621,15.63767],[120.343597,15.63936],[120.344254,15.64066],[120.343987,15.64232]]]]}},{"type":"Feature","properties":{"ID_0":177,"ISO":"PHL","NAME_0":"Philippines","ID_1":3069,"NAME_1":"Tarlac","ID_2":306903,"NAME_2":"Camiling","ID_3":306903006,"NAME_3":"Bancay 1st","NL_NAME_3":null,"VARNAME_3":null,"TYPE_3":"Barangay","ENGTYPE_3":"Village","PROVINCE":"Tarlac","REGION":"Region III (Central Luzon)","id":"barangay-0306903006","name":"Bancay 1st","barangayCode":"0306903006","population":null,"formattedPop":null,"densityCategory":"No data","vulnerabilityRating":"No data","healthRiskLevel":"No data","areaKm2":5.069622,"centerLat":15.664295,"centerLng":120.44726,"geometrySource":"all_barangay-2.csv detailed WKT","geometryMatchMethod":"unique_official_admin_names","boundaryPointCount":20},"geometry":{"type":"MultiPolygon","coordinates":[[[[120.459846,15.69492],[120.460518,15.69298],[120.462463,15.69173],[120.463379,15.68912],[120.457413,15.67436],[120.449806,15.66438],[120.449097,15.66353],[120.447723,15.66542],[120.447166,15.66679],[120.44696,15.66774],[120.446602,15.66921],[120.44648,15.67018],[120.446289,15.67127],[120.445824,15.67219],[120.445343,15.67353],[120.445084,15.67722],[120.456123,15.69916],[120.457649,15.69747],[120.458549,15.69664],[120.459846,15.69492]]]]}},{"type":"Feature","properties":{"ID_0":177,"ISO":"PHL","NAME_0":"Philippines","ID_1":3069,"NAME_1":"Tarlac","ID_2":306903,"NAME_2":"Camiling","ID_3":306903007,"NAME_3":"San Isidro","NL_NAME_3":null,"VARNAME_3":null,"TYPE_3":"Barangay","ENGTYPE_3":"Village","PROVINCE":"Tarlac","REGION":"Region III (Central Luzon)","id":"barangay-0306903007","name":"San Isidro","barangayCode":"0306903007","population":null,"formattedPop":null,"densityCategory":"No data","vulnerabilityRating":"No data","healthRiskLevel":"No data","areaKm2":3.2911,"centerLat":15.667139,"centerLng":120.464525,"geometrySource":"barangays.geojson simplified fallback","geometryMatchMethod":"simplified_fallback","boundaryPointCount":5},"geometry":{"type":"Polygon","coordinates":[[[120.46597060900001,15.677707071000043],[120.47312641200006,15.657731048000073],[120.45904188700001,15.655844869000077],[120.4570798100001,15.676552982000032],[120.46597060900001,15.677707071000043]]]}},{"type":"Feature","properties":{"ID_0":177,"ISO":"PHL","NAME_0":"Philippines","ID_1":3069,"NAME_1":"Tarlac","ID_2":306903,"NAME_2":"Camiling","ID_3":306903008,"NAME_3":"Bilad","NL_NAME_3":null,"VARNAME_3":null,"TYPE_3":"Barangay","ENGTYPE_3":"Village","PROVINCE":"Tarlac","REGION":"Region III (Central Luzon)","id":"barangay-0306903008","name":"Bilad","barangayCode":"0306903008","population":null,"formattedPop":null,"densityCategory":"No data","vulnerabilityRating":"No data","healthRiskLevel":"No data","areaKm2":4.714517,"centerLat":15.737719,"centerLng":120.438657,"geometrySource":"all_barangay-2.csv detailed WKT","geometryMatchMethod":"unique_official_admin_names","boundaryPointCount":12},"geometry":{"type":"MultiPolygon","coordinates":[[[[120.422462,15.75824],[120.431808,15.75452],[120.434914,15.75393],[120.433723,15.75278],[120.433594,15.75048],[120.433441,15.74882],[120.433151,15.74639],[120.432549,15.74328],[120.412407,15.74047],[120.415787,15.75232],[120.419456,15.75938],[120.422462,15.75824]]]]}},{"type":"Feature","properties":{"ID_0":177,"ISO":"PHL","NAME_0":"Philippines","ID_1":3069,"NAME_1":"Tarlac","ID_2":306903,"NAME_2":"Camiling","ID_3":306903009,"NAME_3":"Birbira","NL_NAME_3":null,"VARNAME_3":null,"TYPE_3":"Barangay","ENGTYPE_3":"Village","PROVINCE":"Tarlac","REGION":"Region III (Central Luzon)","id":"barangay-0306903009","name":"Birbira","barangayCode":"0306903009","population":null,"formattedPop":null,"densityCategory":"No data","vulnerabilityRating":"No data","healthRiskLevel":"No data","areaKm2":2.164926,"centerLat":15.660891,"centerLng":120.363721,"geometrySource":"all_barangay-2.csv detailed WKT","geometryMatchMethod":"unique_official_admin_names","boundaryPointCount":39},"geometry":{"type":"MultiPolygon","coordinates":[[[[120.36338,15.6802],[120.36615,15.67859],[120.367104,15.67796],[120.367996,15.67676],[120.367844,15.67516],[120.367203,15.67386],[120.366814,15.67246],[120.366249,15.67044],[120.365623,15.66847],[120.36528,15.66707],[120.365021,15.66622],[120.364357,15.66461],[120.364021,15.66366],[120.363739,15.66216],[120.364067,15.66105],[120.365379,15.65985],[120.366982,15.65933],[120.367897,15.65898],[120.370209,15.65809],[120.370796,15.65769],[120.37323,15.65545],[120.372864,15.65473],[120.372452,15.65419],[120.37204,15.65281],[120.371834,15.6516],[120.369781,15.65247],[120.367706,15.65327],[120.364738,15.65428],[120.361893,15.65472],[120.359207,15.65511],[120.357674,15.655],[120.3554,15.66259],[120.356438,15.66493],[120.356018,15.66804],[120.3564,15.67149],[120.354408,15.67549],[120.354919,15.67882],[120.36055,15.67806],[120.36338,15.6802]]]]}},{"type":"Feature","properties":{"ID_0":177,"ISO":"PHL","NAME_0":"Philippines","ID_1":3069,"NAME_1":"Tarlac","ID_2":306903,"NAME_2":"Camiling","ID_3":306903011,"NAME_3":"Bobon Caarosipan","NL_NAME_3":null,"VARNAME_3":null,"TYPE_3":"Barangay","ENGTYPE_3":"Village","PROVINCE":"Tarlac","REGION":"Region III (Central Luzon)","id":"barangay-0306903011","name":"Bobon Caarosipan","barangayCode":"0306903011","population":null,"formattedPop":null,"densityCategory":"No data","vulnerabilityRating":"No data","healthRiskLevel":"No data","areaKm2":1.476553,"centerLat":15.662603,"centerLng":120.388613,"geometrySource":"all_barangay-2.csv detailed WKT","geometryMatchMethod":"unique_official_admin_names","boundaryPointCount":61},"geometry":{"type":"MultiPolygon","coordinates":[[[[120.377937,15.69387],[120.380341,15.69326],[120.38237,15.693],[120.383926,15.69295],[120.385727,15.69328],[120.386757,15.69379],[120.38813,15.69471],[120.388603,15.69481],[120.389618,15.69438],[120.389763,15.69395],[120.389771,15.69347],[120.389999,15.69236],[120.390968,15.69232],[120.391373,15.6914],[120.392174,15.68831],[120.392067,15.68776],[120.391647,15.68671],[120.391129,15.68544],[120.39019,15.68515],[120.389633,15.68438],[120.389267,15.68354],[120.388519,15.68217],[120.38755,15.6808],[120.386551,15.67977],[120.384354,15.67753],[120.383507,15.6769],[120.382599,15.67501],[120.381416,15.67483],[120.380386,15.67496],[120.378166,15.67529],[120.377022,15.67515],[120.375702,15.67507],[120.373947,15.67485],[120.372864,15.67629],[120.371834,15.67664],[120.371071,15.67677],[120.367996,15.67676],[120.367104,15.67796],[120.36615,15.67859],[120.36338,15.6802],[120.365089,15.68074],[120.365883,15.68082],[120.366783,15.681],[120.367332,15.68189],[120.367233,15.68262],[120.366364,15.6838],[120.36586,15.68446],[120.365761,15.68503],[120.366013,15.68549],[120.367737,15.68603],[120.368874,15.68605],[120.370499,15.68619],[120.371758,15.68649],[120.37291,15.68669],[120.374443,15.68857],[120.374352,15.68947],[120.374352,15.69123],[120.374832,15.69186],[120.375549,15.69246],[120.376579,15.69324],[120.377937,15.69387]]]]}},{"type":"Feature","properties":{"ID_0":177,"ISO":"PHL","NAME_0":"Philippines","ID_1":3069,"NAME_1":"Tarlac","ID_2":306903,"NAME_2":"Camiling","ID_3":306903012,"NAME_3":"Bobon 1st","NL_NAME_3":null,"VARNAME_3":null,"TYPE_3":"Barangay","ENGTYPE_3":"Village","PROVINCE":"Tarlac","REGION":"Region III (Central Luzon)","id":"barangay-0306903012","name":"Bobon 1st","barangayCode":"0306903012","population":null,"formattedPop":null,"densityCategory":"No data","vulnerabilityRating":"No data","healthRiskLevel":"No data","areaKm2":3.67672,"centerLat":15.681917,"centerLng":120.387877,"geometrySource":"all_barangay-2.csv detailed WKT","geometryMatchMethod":"unique_official_admin_names","boundaryPointCount":38},"geometry":{"type":"MultiPolygon","coordinates":[[[[120.397919,15.68403],[120.398659,15.68342],[120.398827,15.68244],[120.398827,15.68113],[120.398193,15.68001],[120.398033,15.67872],[120.397926,15.67764],[120.397903,15.67679],[120.397163,15.67483],[120.396141,15.67488],[120.395447,15.67457],[120.393517,15.67364],[120.39238,15.6732],[120.391472,15.67283],[120.390182,15.67253],[120.389397,15.67252],[120.388344,15.67308],[120.387444,15.67378],[120.386436,15.67446],[120.38559,15.67492],[120.384689,15.67501],[120.382599,15.67501],[120.383507,15.6769],[120.384354,15.67753],[120.386551,15.67977],[120.38755,15.6808],[120.388519,15.68217],[120.389267,15.68354],[120.389633,15.68438],[120.39019,15.68515],[120.391129,15.68544],[120.392311,15.68339],[120.393021,15.68304],[120.393959,15.68298],[120.395409,15.68359],[120.396263,15.68405],[120.397377,15.6843],[120.397919,15.68403]]]]}},{"type":"Feature","properties":{"ID_0":177,"ISO":"PHL","NAME_0":"Philippines","ID_1":3069,"NAME_1":"Tarlac","ID_2":306903,"NAME_2":"Camiling","ID_3":306903013,"NAME_3":"Bobon 2nd","NL_NAME_3":null,"VARNAME_3":null,"TYPE_3":"Barangay","ENGTYPE_3":"Village","PROVINCE":"Tarlac","REGION":"Region III (Central Luzon)","id":"barangay-0306903013","name":"Bobon 2nd","barangayCode":"0306903013","population":null,"formattedPop":null,"densityCategory":"No data","vulnerabilityRating":"No data","healthRiskLevel":"No data","areaKm2":1.985512,"centerLat":15.670004,"centerLng":120.383438,"geometrySource":"all_barangay-2.csv detailed WKT","geometryMatchMethod":"unique_official_admin_names","boundaryPointCount":48},"geometry":{"type":"MultiPolygon","coordinates":[[[[120.382599,15.67501],[120.384689,15.67501],[120.38559,15.67492],[120.386436,15.67446],[120.387444,15.67378],[120.388344,15.67308],[120.389397,15.67252],[120.390182,15.67253],[120.391472,15.67283],[120.39238,15.6732],[120.393517,15.67364],[120.395447,15.67457],[120.396141,15.67488],[120.397163,15.67483],[120.397926,15.67357],[120.397797,15.67291],[120.397057,15.67187],[120.396317,15.67094],[120.395988,15.67038],[120.395714,15.66862],[120.395554,15.6675],[120.395561,15.66611],[120.394234,15.66557],[120.392487,15.66454],[120.390068,15.66359],[120.388771,15.66365],[120.387993,15.66342],[120.386993,15.66365],[120.385536,15.6639],[120.384087,15.66423],[120.382538,15.66392],[120.38073,15.66417],[120.379707,15.66466],[120.376213,15.66482],[120.374252,15.66519],[120.372864,15.66483],[120.37291,15.66634],[120.37278,15.66852],[120.373123,15.67002],[120.373466,15.67175],[120.373787,15.67343],[120.373947,15.67485],[120.375702,15.67507],[120.377022,15.67515],[120.378166,15.67529],[120.380386,15.67496],[120.381416,15.67483],[120.382599,15.67501]]]]}},{"type":"Feature","properties":{"ID_0":177,"ISO":"PHL","NAME_0":"Philippines","ID_1":3069,"NAME_1":"Tarlac","ID_2":306903,"NAME_2":"Camiling","ID_3":306903016,"NAME_3":"Cabanabaan","NL_NAME_3":null,"VARNAME_3":null,"TYPE_3":"Barangay","ENGTYPE_3":"Village","PROVINCE":"Tarlac","REGION":"Region III (Central Luzon)","id":"barangay-0306903016","name":"Cabanabaan","barangayCode":"0306903016","population":null,"formattedPop":null,"densityCategory":"No data","vulnerabilityRating":"No data","healthRiskLevel":"No data","areaKm2":3.390802,"centerLat":15.65646,"centerLng":120.427537,"geometrySource":"all_barangay-2.csv detailed WKT","geometryMatchMethod":"unique_official_admin_names","boundaryPointCount":36},"geometry":{"type":"MultiPolygon","coordinates":[[[[120.445343,15.67353],[120.445824,15.67219],[120.446289,15.67127],[120.44648,15.67018],[120.446602,15.66921],[120.44696,15.66774],[120.44371,15.66749],[120.442139,15.66668],[120.439293,15.66561],[120.43734,15.66529],[120.435944,15.66472],[120.433807,15.66412],[120.431717,15.66369],[120.429558,15.66302],[120.427254,15.66218],[120.425774,15.66149],[120.424461,15.6611],[120.422348,15.6605],[120.422058,15.66183],[120.421509,15.66256],[120.420776,15.66334],[120.420143,15.6641],[120.423607,15.66605],[120.42482,15.66677],[120.426437,15.66741],[120.427917,15.66792],[120.428551,15.66816],[120.429779,15.66861],[120.431282,15.66928],[120.434334,15.67088],[120.436119,15.67122],[120.437721,15.67203],[120.439537,15.67285],[120.441437,15.67261],[120.443787,15.6729],[120.445343,15.67353]]]]}},{"type":"Feature","properties":{"ID_0":177,"ISO":"PHL","NAME_0":"Philippines","ID_1":3069,"NAME_1":"Tarlac","ID_2":306903,"NAME_2":"Camiling","ID_3":306903017,"NAME_3":"Cacamilingan Norte","NL_NAME_3":null,"VARNAME_3":null,"TYPE_3":"Barangay","ENGTYPE_3":"Village","PROVINCE":"Tarlac","REGION":"Region III (Central Luzon)","id":"barangay-0306903017","name":"Cacamilingan Norte","barangayCode":"0306903017","population":null,"formattedPop":null,"densityCategory":"No data","vulnerabilityRating":"No data","healthRiskLevel":"No data","areaKm2":1.633835,"centerLat":15.691064,"centerLng":120.426181,"geometrySource":"all_barangay-2.csv detailed WKT","geometryMatchMethod":"unique_official_admin_names","boundaryPointCount":11},"geometry":{"type":"MultiPolygon","coordinates":[[[[120.421356,15.70395],[120.428017,15.70413],[120.437943,15.70051],[120.435051,15.69685],[120.433693,15.6945],[120.428993,15.69471],[120.424721,15.69364],[120.418602,15.69363],[120.416527,15.6936],[120.418251,15.6957],[120.421356,15.70395]]]]}},{"type":"Feature","properties":{"ID_0":177,"ISO":"PHL","NAME_0":"Philippines","ID_1":3069,"NAME_1":"Tarlac","ID_2":306903,"NAME_2":"Camiling","ID_3":306903018,"NAME_3":"Cacamilingan Sur","NL_NAME_3":null,"VARNAME_3":null,"TYPE_3":"Barangay","ENGTYPE_3":"Village","PROVINCE":"Tarlac","REGION":"Region III (Central Luzon)","id":"barangay-0306903018","name":"Cacamilingan Sur","barangayCode":"0306903018","population":null,"formattedPop":null,"densityCategory":"No data","vulnerabilityRating":"No data","healthRiskLevel":"No data","areaKm2":1.77674,"centerLat":15.681391,"centerLng":120.424238,"geometrySource":"all_barangay-2.csv detailed WKT","geometryMatchMethod":"unique_official_admin_names","boundaryPointCount":9},"geometry":{"type":"MultiPolygon","coordinates":[[[[120.418602,15.69363],[120.424721,15.69364],[120.428993,15.69471],[120.433693,15.6945],[120.432129,15.6921],[120.43161,15.6905],[120.420647,15.68682],[120.418297,15.69257],[120.418602,15.69363]]]]}},{"type":"Feature","properties":{"ID_0":177,"ISO":"PHL","NAME_0":"Philippines","ID_1":3069,"NAME_1":"Tarlac","ID_2":306903,"NAME_2":"Camiling","ID_3":306903019,"NAME_3":"Caniag","NL_NAME_3":null,"VARNAME_3":null,"TYPE_3":"Barangay","ENGTYPE_3":"Village","PROVINCE":"Tarlac","REGION":"Region III (Central Luzon)","id":"barangay-0306903019","name":"Caniag","barangayCode":"0306903019","population":null,"formattedPop":null,"densityCategory":"No data","vulnerabilityRating":"No data","healthRiskLevel":"No data","areaKm2":1.91176,"centerLat":15.72779,"centerLng":120.44806,"geometrySource":"all_barangay-2.csv detailed WKT","geometryMatchMethod":"unique_official_admin_names","boundaryPointCount":27},"geometry":{"type":"MultiPolygon","coordinates":[[[[120.445587,15.75038],[120.447006,15.74991],[120.438591,15.7294],[120.43602,15.72804],[120.433823,15.72704],[120.431839,15.72561],[120.430946,15.72545],[120.428864,15.72533],[120.426727,15.72481],[120.424927,15.72469],[120.422958,15.72457],[120.424591,15.72773],[120.425629,15.72922],[120.426514,15.73038],[120.427917,15.73278],[120.428864,15.73483],[120.429642,15.73701],[120.430557,15.73933],[120.431961,15.74149],[120.432549,15.74328],[120.433151,15.74639],[120.433441,15.74882],[120.433594,15.75048],[120.433723,15.75278],[120.434914,15.75393],[120.441559,15.75171],[120.445587,15.75038]]]]}},{"type":"Feature","properties":{"ID_0":177,"ISO":"PHL","NAME_0":"Philippines","ID_1":3069,"NAME_1":"Tarlac","ID_2":306903,"NAME_2":"Camiling","ID_3":306903020,"NAME_3":"Carael","NL_NAME_3":null,"VARNAME_3":null,"TYPE_3":"Barangay","ENGTYPE_3":"Village","PROVINCE":"Tarlac","REGION":"Region III (Central Luzon)","id":"barangay-0306903020","name":"Carael","barangayCode":"0306903020","population":null,"formattedPop":null,"densityCategory":"No data","vulnerabilityRating":"No data","healthRiskLevel":"No data","areaKm2":1.283343,"centerLat":15.724165,"centerLng":120.459557,"geometrySource":"all_barangay-2.csv detailed WKT","geometryMatchMethod":"unique_official_admin_names","boundaryPointCount":19},"geometry":{"type":"MultiPolygon","coordinates":[[[[120.453003,15.74811],[120.4561,15.74665],[120.458649,15.74528],[120.460854,15.74316],[120.458183,15.7422],[120.456337,15.74199],[120.454933,15.74133],[120.453827,15.74065],[120.453758,15.73944],[120.453903,15.73794],[120.45369,15.73722],[120.453011,15.73569],[120.451492,15.73458],[120.449577,15.73394],[120.448448,15.73347],[120.443176,15.73153],[120.438591,15.7294],[120.447006,15.74991],[120.453003,15.74811]]]]}},{"type":"Feature","properties":{"ID_0":177,"ISO":"PHL","NAME_0":"Philippines","ID_1":3069,"NAME_1":"Tarlac","ID_2":306903,"NAME_2":"Camiling","ID_3":306903021,"NAME_3":"Cayaoan","NL_NAME_3":null,"VARNAME_3":null,"TYPE_3":"Barangay","ENGTYPE_3":"Village","PROVINCE":"Tarlac","REGION":"Region III (Central Luzon)","id":"barangay-0306903021","name":"Cayaoan","barangayCode":"0306903021","population":null,"formattedPop":null,"densityCategory":"No data","vulnerabilityRating":"No data","healthRiskLevel":"No data","areaKm2":0.480463,"centerLat":15.697641,"centerLng":120.414322,"geometrySource":"all_barangay-2.csv detailed WKT","geometryMatchMethod":"unique_official_admin_names","boundaryPointCount":8},"geometry":{"type":"MultiPolygon","coordinates":[[[[120.419533,15.71717],[120.419128,15.71562],[120.418404,15.71416],[120.418129,15.71342],[120.417679,15.7117],[120.404427,15.71015],[120.404488,15.71589],[120.419533,15.71717]]]]}},{"type":"Feature","properties":{"ID_0":177,"ISO":"PHL","NAME_0":"Philippines","ID_1":3069,"NAME_1":"Tarlac","ID_2":306903,"NAME_2":"Camiling","ID_3":306903022,"NAME_3":"Cayasan","NL_NAME_3":null,"VARNAME_3":null,"TYPE_3":"Barangay","ENGTYPE_3":"Village","PROVINCE":"Tarlac","REGION":"Region III (Central Luzon)","id":"barangay-0306903022","name":"Cayasan","barangayCode":"0306903022","population":null,"formattedPop":null,"densityCategory":"No data","vulnerabilityRating":"No data","healthRiskLevel":"No data","areaKm2":2.771559,"centerLat":15.674513,"centerLng":120.369113,"geometrySource":"all_barangay-2.csv detailed WKT","geometryMatchMethod":"unique_official_admin_names","boundaryPointCount":37},"geometry":{"type":"MultiPolygon","coordinates":[[[[120.373947,15.67485],[120.373787,15.67343],[120.373466,15.67175],[120.373123,15.67002],[120.37278,15.66852],[120.37291,15.66634],[120.372864,15.66483],[120.372871,15.66357],[120.373016,15.66179],[120.373177,15.66066],[120.373611,15.65978],[120.374283,15.65893],[120.374733,15.65792],[120.37468,15.65725],[120.374397,15.6563],[120.37323,15.65545],[120.370796,15.65769],[120.370209,15.65809],[120.367897,15.65898],[120.366982,15.65933],[120.365379,15.65985],[120.364067,15.66105],[120.363739,15.66216],[120.364021,15.66366],[120.364357,15.66461],[120.365021,15.66622],[120.36528,15.66707],[120.365623,15.66847],[120.366249,15.67044],[120.366814,15.67246],[120.367203,15.67386],[120.367844,15.67516],[120.367996,15.67676],[120.371071,15.67677],[120.371834,15.67664],[120.372864,15.67629],[120.373947,15.67485]]]]}},{"type":"Feature","properties":{"ID_0":177,"ISO":"PHL","NAME_0":"Philippines","ID_1":3069,"NAME_1":"Tarlac","ID_2":306903,"NAME_2":"Camiling","ID_3":306903023,"NAME_3":"Florida","NL_NAME_3":null,"VARNAME_3":null,"TYPE_3":"Barangay","ENGTYPE_3":"Village","PROVINCE":"Tarlac","REGION":"Region III (Central Luzon)","id":"barangay-0306903023","name":"Florida","barangayCode":"0306903023","population":null,"formattedPop":null,"densityCategory":"No data","vulnerabilityRating":"No data","healthRiskLevel":"No data","areaKm2":1.623956,"centerLat":15.701423,"centerLng":120.471382,"geometrySource":"all_barangay-2.csv detailed WKT","geometryMatchMethod":"unique_official_admin_names","boundaryPointCount":21},"geometry":{"type":"MultiPolygon","coordinates":[[[[120.492157,15.72137],[120.48999,15.71993],[120.488823,15.71873],[120.488487,15.71726],[120.489113,15.71571],[120.488129,15.71446],[120.486557,15.71278],[120.484077,15.71086],[120.474037,15.7144],[120.482628,15.72835],[120.484039,15.72821],[120.484993,15.72803],[120.48629,15.72838],[120.488533,15.7274],[120.488693,15.72647],[120.488342,15.72532],[120.487907,15.72414],[120.488136,15.72292],[120.489151,15.72302],[120.490822,15.72204],[120.492157,15.72137]]]]}},{"type":"Feature","properties":{"ID_0":177,"ISO":"PHL","NAME_0":"Philippines","ID_1":3069,"NAME_1":"Tarlac","ID_2":306903,"NAME_2":"Camiling","ID_3":306903024,"NAME_3":"Lasong","NL_NAME_3":null,"VARNAME_3":null,"TYPE_3":"Barangay","ENGTYPE_3":"Village","PROVINCE":"Tarlac","REGION":"Region III (Central Luzon)","id":"barangay-0306903024","name":"Lasong","barangayCode":"0306903024","population":null,"formattedPop":null,"densityCategory":"No data","vulnerabilityRating":"No data","healthRiskLevel":"No data","areaKm2":1.793805,"centerLat":15.692518,"centerLng":120.477061,"geometrySource":"all_barangay-2.csv detailed WKT","geometryMatchMethod":"unique_official_admin_names","boundaryPointCount":18},"geometry":{"type":"MultiPolygon","coordinates":[[[[120.474037,15.7144],[120.484077,15.71086],[120.482887,15.71029],[120.481506,15.70912],[120.481552,15.7082],[120.481987,15.70744],[120.482681,15.7074],[120.483223,15.70736],[120.483337,15.707],[120.48349,15.70568],[120.484123,15.70516],[120.482536,15.70292],[120.481888,15.70282],[120.481552,15.7019],[120.48188,15.70089],[120.481308,15.6992],[120.466873,15.70452],[120.474037,15.7144]]]]}},{"type":"Feature","properties":{"ID_0":177,"ISO":"PHL","NAME_0":"Philippines","ID_1":3069,"NAME_1":"Tarlac","ID_2":306903,"NAME_2":"Camiling","ID_3":306903025,"NAME_3":"Libueg","NL_NAME_3":null,"VARNAME_3":null,"TYPE_3":"Barangay","ENGTYPE_3":"Village","PROVINCE":"Tarlac","REGION":"Region III (Central Luzon)","id":"barangay-0306903025","name":"Libueg","barangayCode":"0306903025","population":null,"formattedPop":null,"densityCategory":"No data","vulnerabilityRating":"No data","healthRiskLevel":"No data","areaKm2":2.360566,"centerLat":15.709835,"centerLng":120.414193,"geometrySource":"all_barangay-2.csv detailed WKT","geometryMatchMethod":"unique_official_admin_names","boundaryPointCount":20},"geometry":{"type":"MultiPolygon","coordinates":[[[[120.404579,15.73884],[120.410187,15.74139],[120.411598,15.74139],[120.412407,15.74047],[120.412727,15.73792],[120.413078,15.73512],[120.413628,15.7311],[120.414291,15.72539],[120.414787,15.72442],[120.41703,15.7246],[120.420937,15.72483],[120.422958,15.72457],[120.422058,15.72208],[120.42157,15.72105],[120.420692,15.71871],[120.419533,15.71717],[120.404488,15.71589],[120.40448,15.71692],[120.404243,15.72608],[120.404579,15.73884]]]]}},{"type":"Feature","properties":{"ID_0":177,"ISO":"PHL","NAME_0":"Philippines","ID_1":3069,"NAME_1":"Tarlac","ID_2":306903,"NAME_2":"Camiling","ID_3":306903027,"NAME_3":"Malacampa","NL_NAME_3":null,"VARNAME_3":null,"TYPE_3":"Barangay","ENGTYPE_3":"Village","PROVINCE":"Tarlac","REGION":"Region III (Central Luzon)","id":"barangay-0306903027","name":"Malacampa","barangayCode":"0306903027","population":null,"formattedPop":null,"densityCategory":"No data","vulnerabilityRating":"No data","healthRiskLevel":"No data","areaKm2":5.29786,"centerLat":15.643423,"centerLng":120.410818,"geometrySource":"all_barangay-2.csv detailed WKT","geometryMatchMethod":"unique_official_admin_names","boundaryPointCount":62},"geometry":{"type":"MultiPolygon","coordinates":[[[[120.420143,15.6641],[120.420776,15.66334],[120.421509,15.66256],[120.422058,15.66183],[120.422348,15.6605],[120.422127,15.65913],[120.421852,15.65839],[120.421806,15.65699],[120.422241,15.65614],[120.422447,15.65439],[120.422157,15.65239],[120.421753,15.65083],[120.421127,15.64933],[120.420662,15.64829],[120.420578,15.64707],[120.420792,15.64542],[120.421051,15.64421],[120.421387,15.64283],[120.422493,15.6389],[120.422112,15.63802],[120.420837,15.63747],[120.419342,15.63714],[120.41774,15.63732],[120.416817,15.63756],[120.414352,15.63843],[120.412773,15.63868],[120.412178,15.63863],[120.410751,15.63841],[120.410187,15.63815],[120.409081,15.6372],[120.408546,15.63682],[120.407913,15.63653],[120.406639,15.63645],[120.405823,15.63633],[120.404877,15.63564],[120.404129,15.63484],[120.402946,15.63279],[120.401688,15.6326],[120.400627,15.6321],[120.399651,15.63115],[120.399132,15.63067],[120.398102,15.63069],[120.397476,15.63112],[120.396713,15.63147],[120.395058,15.63156],[120.394539,15.63165],[120.39341,15.63286],[120.399529,15.63835],[120.400078,15.64324],[120.400322,15.64596],[120.400574,15.64872],[120.40094,15.65249],[120.400917,15.65462],[120.403473,15.65546],[120.409897,15.65783],[120.409416,15.66086],[120.409576,15.66145],[120.412666,15.66842],[120.414307,15.66747],[120.416443,15.66679],[120.417877,15.66587],[120.420143,15.6641]]]]}},{"type":"Feature","properties":{"ID_0":177,"ISO":"PHL","NAME_0":"Philippines","ID_1":3069,"NAME_1":"Tarlac","ID_2":306903,"NAME_2":"Camiling","ID_3":306903028,"NAME_3":"Manaquem","NL_NAME_3":null,"VARNAME_3":null,"TYPE_3":"Barangay","ENGTYPE_3":"Village","PROVINCE":"Tarlac","REGION":"Region III (Central Luzon)","id":"barangay-0306903028","name":"Manaquem","barangayCode":"0306903028","population":null,"formattedPop":null,"densityCategory":"No data","vulnerabilityRating":"No data","healthRiskLevel":"No data","areaKm2":1.327054,"centerLat":15.656504,"centerLng":120.375744,"geometrySource":"barangays.geojson simplified fallback","geometryMatchMethod":"simplified_fallback","boundaryPointCount":5},"geometry":{"type":"Polygon","coordinates":[[[120.38115931100003,15.664356876000056],[120.38207267700011,15.651038552000045],[120.3716504460001,15.650664687000074],[120.37226497200004,15.661740352000038],[120.38115931100003,15.664356876000056]]]}},{"type":"Feature","properties":{"ID_0":177,"ISO":"PHL","NAME_0":"Philippines","ID_1":3069,"NAME_1":"Tarlac","ID_2":306903,"NAME_2":"Camiling","ID_3":306903029,"NAME_3":"Manupeg","NL_NAME_3":null,"VARNAME_3":null,"TYPE_3":"Barangay","ENGTYPE_3":"Village","PROVINCE":"Tarlac","REGION":"Region III (Central Luzon)","id":"barangay-0306903029","name":"Manupeg","barangayCode":"0306903029","population":null,"formattedPop":null,"densityCategory":"No data","vulnerabilityRating":"No data","healthRiskLevel":"No data","areaKm2":2.750336,"centerLat":15.649674,"centerLng":120.361153,"geometrySource":"all_barangay-2.csv detailed WKT","geometryMatchMethod":"unique_official_admin_names","boundaryPointCount":37},"geometry":{"type":"MultiPolygon","coordinates":[[[[120.357674,15.655],[120.359207,15.65511],[120.361893,15.65472],[120.364738,15.65428],[120.367706,15.65327],[120.369781,15.65247],[120.371834,15.6516],[120.372543,15.65016],[120.372414,15.64895],[120.372093,15.64741],[120.371788,15.64613],[120.371552,15.64511],[120.371437,15.64222],[120.370667,15.64162],[120.370087,15.64081],[120.369583,15.64006],[120.368782,15.6387],[120.368187,15.63709],[120.367493,15.63664],[120.366707,15.63623],[120.365852,15.63521],[120.364853,15.63426],[120.363586,15.63594],[120.362671,15.63648],[120.361092,15.6374],[120.359787,15.63787],[120.356903,15.63843],[120.35511,15.63882],[120.353767,15.63899],[120.351143,15.63862],[120.350937,15.64011],[120.350861,15.64153],[120.350754,15.64312],[120.350571,15.64423],[120.35009,15.6462],[120.356369,15.65421],[120.357674,15.655]]]]}},{"type":"Feature","properties":{"ID_0":177,"ISO":"PHL","NAME_0":"Philippines","ID_1":3069,"NAME_1":"Tarlac","ID_2":306903,"NAME_2":"Camiling","ID_3":306903030,"NAME_3":"Marawi","NL_NAME_3":null,"VARNAME_3":null,"TYPE_3":"Barangay","ENGTYPE_3":"Village","PROVINCE":"Tarlac","REGION":"Region III (Central Luzon)","id":"barangay-0306903030","name":"Marawi","barangayCode":"0306903030","population":null,"formattedPop":null,"densityCategory":"No data","vulnerabilityRating":"No data","healthRiskLevel":"No data","areaKm2":1.748277,"centerLat":15.682607,"centerLng":120.467296,"geometrySource":"all_barangay-2.csv detailed WKT","geometryMatchMethod":"unique_official_admin_names","boundaryPointCount":20},"geometry":{"type":"MultiPolygon","coordinates":[[[[120.481308,15.6992],[120.480682,15.69832],[120.479683,15.69778],[120.477898,15.69664],[120.475761,15.69495],[120.473862,15.69162],[120.473289,15.68995],[120.473503,15.68873],[120.473732,15.68662],[120.473419,15.68394],[120.472183,15.68214],[120.471001,15.6813],[120.469612,15.68041],[120.466309,15.68468],[120.463379,15.68912],[120.462463,15.69173],[120.460518,15.69298],[120.459846,15.69492],[120.466873,15.70452],[120.481308,15.6992]]]]}},{"type":"Feature","properties":{"ID_0":177,"ISO":"PHL","NAME_0":"Philippines","ID_1":3069,"NAME_1":"Tarlac","ID_2":306903,"NAME_2":"Camiling","ID_3":306903031,"NAME_3":"Matubog","NL_NAME_3":null,"VARNAME_3":null,"TYPE_3":"Barangay","ENGTYPE_3":"Village","PROVINCE":"Tarlac","REGION":"Region III (Central Luzon)","id":"barangay-0306903031","name":"Matubog","barangayCode":"0306903031","population":null,"formattedPop":null,"densityCategory":"No data","vulnerabilityRating":"No data","healthRiskLevel":"No data","areaKm2":5.489203,"centerLat":15.68258,"centerLng":120.440189,"geometrySource":"all_barangay-2.csv detailed WKT","geometryMatchMethod":"unique_official_admin_names","boundaryPointCount":33},"geometry":{"type":"MultiPolygon","coordinates":[[[[120.445473,15.69869],[120.447701,15.69747],[120.448448,15.69803],[120.450668,15.70098],[120.451447,15.70159],[120.452682,15.70153],[120.453957,15.70086],[120.455269,15.69992],[120.456123,15.69916],[120.445084,15.67722],[120.445343,15.67353],[120.443787,15.6729],[120.441437,15.67261],[120.439537,15.67285],[120.439636,15.67404],[120.439484,15.67537],[120.439209,15.67622],[120.43795,15.67733],[120.434082,15.68529],[120.433342,15.68764],[120.43251,15.68808],[120.432007,15.68855],[120.43161,15.6905],[120.432129,15.6921],[120.433693,15.6945],[120.435051,15.69685],[120.437943,15.70051],[120.439293,15.70057],[120.44072,15.70066],[120.442284,15.70032],[120.443123,15.70007],[120.444443,15.6996],[120.445473,15.69869]]]]}},{"type":"Feature","properties":{"ID_0":177,"ISO":"PHL","NAME_0":"Philippines","ID_1":3069,"NAME_1":"Tarlac","ID_2":306903,"NAME_2":"Camiling","ID_3":306903033,"NAME_3":"Nagrambacan","NL_NAME_3":null,"VARNAME_3":null,"TYPE_3":"Barangay","ENGTYPE_3":"Village","PROVINCE":"Tarlac","REGION":"Region III (Central Luzon)","id":"barangay-0306903033","name":"Nagrambacan","barangayCode":"0306903033","population":null,"formattedPop":null,"densityCategory":"No data","vulnerabilityRating":"No data","healthRiskLevel":"No data","areaKm2":0.863394,"centerLat":15.656615,"centerLng":120.38233,"geometrySource":"all_barangay-2.csv detailed WKT","geometryMatchMethod":"unique_official_admin_names","boundaryPointCount":32},"geometry":{"type":"MultiPolygon","coordinates":[[[[120.372864,15.66483],[120.374252,15.66519],[120.376213,15.66482],[120.379707,15.66466],[120.38073,15.66417],[120.382538,15.66392],[120.384087,15.66423],[120.385536,15.6639],[120.384567,15.66281],[120.383232,15.66122],[120.381683,15.65853],[120.38089,15.6573],[120.380142,15.65566],[120.379517,15.65462],[120.378532,15.65321],[120.376747,15.65233],[120.37529,15.65145],[120.374107,15.6509],[120.371834,15.6516],[120.37204,15.65281],[120.372452,15.65419],[120.372864,15.65473],[120.37323,15.65545],[120.374397,15.6563],[120.37468,15.65725],[120.374733,15.65792],[120.374283,15.65893],[120.373611,15.65978],[120.373177,15.66066],[120.373016,15.66179],[120.372871,15.66357],[120.372864,15.66483]]]]}},{"type":"Feature","properties":{"ID_0":177,"ISO":"PHL","NAME_0":"Philippines","ID_1":3069,"NAME_1":"Tarlac","ID_2":306903,"NAME_2":"Camiling","ID_3":306903034,"NAME_3":"Nagserialan","NL_NAME_3":null,"VARNAME_3":null,"TYPE_3":"Barangay","ENGTYPE_3":"Village","PROVINCE":"Tarlac","REGION":"Region III (Central Luzon)","id":"barangay-0306903034","name":"Nagserialan","barangayCode":"0306903034","population":null,"formattedPop":null,"densityCategory":"No data","vulnerabilityRating":"No data","healthRiskLevel":"No data","areaKm2":1.481103,"centerLat":15.683361,"centerLng":120.454285,"geometrySource":"all_barangay-2.csv detailed WKT","geometryMatchMethod":"unique_official_admin_names","boundaryPointCount":15},"geometry":{"type":"MultiPolygon","coordinates":[[[[120.466873,15.70452],[120.459846,15.69492],[120.458549,15.69664],[120.457649,15.69747],[120.456123,15.69916],[120.455269,15.69992],[120.453957,15.70086],[120.452682,15.70153],[120.451447,15.70159],[120.450668,15.70098],[120.448448,15.69803],[120.447701,15.69747],[120.445473,15.69869],[120.452827,15.70992],[120.466873,15.70452]]]]}},{"type":"Feature","properties":{"ID_0":177,"ISO":"PHL","NAME_0":"Philippines","ID_1":3069,"NAME_1":"Tarlac","ID_2":306903,"NAME_2":"Camiling","ID_3":306903035,"NAME_3":"Palimbo Proper","NL_NAME_3":null,"VARNAME_3":null,"TYPE_3":"Barangay","ENGTYPE_3":"Village","PROVINCE":"Tarlac","REGION":"Region III (Central Luzon)","id":"barangay-0306903035","name":"Palimbo Proper","barangayCode":"0306903035","population":null,"formattedPop":null,"densityCategory":"No data","vulnerabilityRating":"No data","healthRiskLevel":"No data","areaKm2":1.799726,"centerLat":15.694392,"centerLng":120.386767,"geometrySource":"all_barangay-2.csv detailed WKT","geometryMatchMethod":"unique_official_admin_names","boundaryPointCount":56},"geometry":{"type":"MultiPolygon","coordinates":[[[[120.381607,15.70868],[120.387711,15.70773],[120.3899,15.70952],[120.391083,15.70987],[120.392288,15.70998],[120.394058,15.71026],[120.396446,15.70832],[120.397324,15.70704],[120.397919,15.70629],[120.399101,15.70585],[120.399567,15.70621],[120.399834,15.7066],[120.40023,15.70713],[120.400398,15.7072],[120.401321,15.70709],[120.402191,15.70689],[120.402969,15.70671],[120.403877,15.70627],[120.404533,15.70604],[120.404831,15.70354],[120.405319,15.70209],[120.405273,15.70031],[120.40554,15.69943],[120.404922,15.69792],[120.403923,15.69715],[120.402672,15.69647],[120.400146,15.69593],[120.398483,15.69603],[120.396767,15.69549],[120.39537,15.69521],[120.393799,15.69467],[120.392487,15.69384],[120.390968,15.69232],[120.389999,15.69236],[120.389771,15.69347],[120.389763,15.69395],[120.389618,15.69438],[120.388603,15.69481],[120.38813,15.69471],[120.386757,15.69379],[120.385727,15.69328],[120.383926,15.69295],[120.38237,15.693],[120.380341,15.69326],[120.377937,15.69387],[120.378601,15.69507],[120.378647,15.69629],[120.378632,15.69759],[120.378548,15.69854],[120.378578,15.69976],[120.37886,15.70117],[120.379013,15.70253],[120.379204,15.70427],[120.37944,15.70541],[120.380501,15.70702],[120.381607,15.70868]]]]}},{"type":"Feature","properties":{"ID_0":177,"ISO":"PHL","NAME_0":"Philippines","ID_1":3069,"NAME_1":"Tarlac","ID_2":306903,"NAME_2":"Camiling","ID_3":306903036,"NAME_3":"Palimbo Caarosipan","NL_NAME_3":null,"VARNAME_3":null,"TYPE_3":"Barangay","ENGTYPE_3":"Village","PROVINCE":"Tarlac","REGION":"Region III (Central Luzon)","id":"barangay-0306903036","name":"Palimbo Caarosipan","barangayCode":"0306903036","population":null,"formattedPop":null,"densityCategory":"No data","vulnerabilityRating":"No data","healthRiskLevel":"No data","areaKm2":2.424177,"centerLat":15.693513,"centerLng":120.403529,"geometrySource":"all_barangay-2.csv detailed WKT","geometryMatchMethod":"unique_official_admin_names","boundaryPointCount":29},"geometry":{"type":"MultiPolygon","coordinates":[[[[120.40448,15.71692],[120.404488,15.71589],[120.404427,15.71015],[120.404533,15.70604],[120.403877,15.70627],[120.402969,15.70671],[120.402191,15.70689],[120.401321,15.70709],[120.400398,15.7072],[120.40023,15.70713],[120.399834,15.7066],[120.399567,15.70621],[120.399101,15.70585],[120.397919,15.70629],[120.397324,15.70704],[120.396446,15.70832],[120.394058,15.71026],[120.392288,15.70998],[120.391083,15.70987],[120.3899,15.70952],[120.387711,15.70773],[120.381607,15.70868],[120.38179,15.71065],[120.381981,15.71208],[120.38224,15.71332],[120.386307,15.71328],[120.388123,15.71496],[120.388397,15.71727],[120.40448,15.71692]]]]}},{"type":"Feature","properties":{"ID_0":177,"ISO":"PHL","NAME_0":"Philippines","ID_1":3069,"NAME_1":"Tarlac","ID_2":306903,"NAME_2":"Camiling","ID_3":306903037,"NAME_3":"Pao 1st","NL_NAME_3":null,"VARNAME_3":null,"TYPE_3":"Barangay","ENGTYPE_3":"Village","PROVINCE":"Tarlac","REGION":"Region III (Central Luzon)","id":"barangay-0306903037","name":"Pao 1st","barangayCode":"0306903037","population":null,"formattedPop":null,"densityCategory":"No data","vulnerabilityRating":"No data","healthRiskLevel":"No data","areaKm2":0.558984,"centerLat":15.679586,"centerLng":120.404468,"geometrySource":"all_barangay-2.csv detailed WKT","geometryMatchMethod":"unique_official_admin_names","boundaryPointCount":39},"geometry":{"type":"MultiPolygon","coordinates":[[[[120.413368,15.6914],[120.412918,15.69019],[120.412521,15.68966],[120.411621,15.68872],[120.41095,15.68795],[120.41021,15.68665],[120.408607,15.68658],[120.406898,15.68644],[120.40387,15.68579],[120.400597,15.68465],[120.397919,15.68403],[120.397377,15.6843],[120.396263,15.68405],[120.395409,15.68359],[120.393959,15.68298],[120.393021,15.68304],[120.392311,15.68339],[120.391129,15.68544],[120.391647,15.68671],[120.392067,15.68776],[120.392174,15.68831],[120.393768,15.68848],[120.394676,15.68849],[120.396561,15.68894],[120.398102,15.68941],[120.399269,15.69004],[120.40049,15.69068],[120.401466,15.69117],[120.401817,15.69141],[120.402588,15.69192],[120.403427,15.69216],[120.404617,15.69237],[120.405853,15.69248],[120.406792,15.69259],[120.407837,15.69286],[120.408737,15.69273],[120.410652,15.69214],[120.411377,15.69179],[120.413368,15.6914]]]]}},{"type":"Feature","properties":{"ID_0":177,"ISO":"PHL","NAME_0":"Philippines","ID_1":3069,"NAME_1":"Tarlac","ID_2":306903,"NAME_2":"Camiling","ID_3":306903038,"NAME_3":"Pao 2nd","NL_NAME_3":null,"VARNAME_3":null,"TYPE_3":"Barangay","ENGTYPE_3":"Village","PROVINCE":"Tarlac","REGION":"Region III (Central Luzon)","id":"barangay-0306903038","name":"Pao 2nd","barangayCode":"0306903038","population":null,"formattedPop":null,"densityCategory":"No data","vulnerabilityRating":"No data","healthRiskLevel":"No data","areaKm2":1.173309,"centerLat":15.673371,"centerLng":120.400602,"geometrySource":"all_barangay-2.csv detailed WKT","geometryMatchMethod":"unique_official_admin_names","boundaryPointCount":21},"geometry":{"type":"MultiPolygon","coordinates":[[[[120.41021,15.68665],[120.410011,15.68596],[120.410049,15.68443],[120.410759,15.68287],[120.409111,15.68288],[120.407257,15.68204],[120.405907,15.68177],[120.40464,15.68113],[120.403763,15.68062],[120.402679,15.68008],[120.401978,15.67998],[120.399567,15.68047],[120.398827,15.68113],[120.398827,15.68244],[120.398659,15.68342],[120.397919,15.68403],[120.400597,15.68465],[120.40387,15.68579],[120.406898,15.68644],[120.408607,15.68658],[120.41021,15.68665]]]]}},{"type":"Feature","properties":{"ID_0":177,"ISO":"PHL","NAME_0":"Philippines","ID_1":3069,"NAME_1":"Tarlac","ID_2":306903,"NAME_2":"Camiling","ID_3":306903039,"NAME_3":"Pao 3rd","NL_NAME_3":null,"VARNAME_3":null,"TYPE_3":"Barangay","ENGTYPE_3":"Village","PROVINCE":"Tarlac","REGION":"Region III (Central Luzon)","id":"barangay-0306903039","name":"Pao 3rd","barangayCode":"0306903039","population":null,"formattedPop":null,"densityCategory":"No data","vulnerabilityRating":"No data","healthRiskLevel":"No data","areaKm2":1.282393,"centerLat":15.666038,"centerLng":120.405524,"geometrySource":"all_barangay-2.csv detailed WKT","geometryMatchMethod":"unique_official_admin_names","boundaryPointCount":40},"geometry":{"type":"MultiPolygon","coordinates":[[[[120.410759,15.68287],[120.411087,15.67916],[120.41082,15.67782],[120.410599,15.67566],[120.410507,15.67353],[120.410072,15.67234],[120.408829,15.67056],[120.407661,15.67014],[120.405983,15.67],[120.404892,15.6698],[120.403839,15.66948],[120.402786,15.66896],[120.401863,15.668],[120.400841,15.66489],[120.398361,15.66593],[120.397842,15.66586],[120.396896,15.66599],[120.395561,15.66611],[120.395554,15.6675],[120.395714,15.66862],[120.395988,15.67038],[120.396317,15.67094],[120.397057,15.67187],[120.397797,15.67291],[120.397926,15.67357],[120.397163,15.67483],[120.397903,15.67679],[120.397926,15.67764],[120.398033,15.67872],[120.398193,15.68001],[120.398827,15.68113],[120.399567,15.68047],[120.401978,15.67998],[120.402679,15.68008],[120.403763,15.68062],[120.40464,15.68113],[120.405907,15.68177],[120.407257,15.68204],[120.409111,15.68288],[120.410759,15.68287]]]]}},{"type":"Feature","properties":{"ID_0":177,"ISO":"PHL","NAME_0":"Philippines","ID_1":3069,"NAME_1":"Tarlac","ID_2":306903,"NAME_2":"Camiling","ID_3":306903040,"NAME_3":"Papaac","NL_NAME_3":null,"VARNAME_3":null,"TYPE_3":"Barangay","ENGTYPE_3":"Village","PROVINCE":"Tarlac","REGION":"Region III (Central Luzon)","id":"barangay-0306903040","name":"Papaac","barangayCode":"0306903040","population":null,"formattedPop":null,"densityCategory":"No data","vulnerabilityRating":"No data","healthRiskLevel":"No data","areaKm2":5.627399,"centerLat":15.635708,"centerLng":120.328338,"geometrySource":"all_barangay-2.csv detailed WKT","geometryMatchMethod":"unique_official_admin_names","boundaryPointCount":7},"geometry":{"type":"MultiPolygon","coordinates":[[[[120.357674,15.655],[120.356369,15.65421],[120.35009,15.6462],[120.343987,15.64232],[120.345741,15.65631],[120.3554,15.66259],[120.357674,15.655]]]]}},{"type":"Feature","properties":{"ID_0":177,"ISO":"PHL","NAME_0":"Philippines","ID_1":3069,"NAME_1":"Tarlac","ID_2":306903,"NAME_2":"Camiling","ID_3":306903041,"NAME_3":"Pindangan 1st","NL_NAME_3":null,"VARNAME_3":null,"TYPE_3":"Barangay","ENGTYPE_3":"Village","PROVINCE":"Tarlac","REGION":"Region III (Central Luzon)","id":"barangay-0306903041","name":"Pindangan 1st","barangayCode":"0306903041","population":null,"formattedPop":null,"densityCategory":"No data","vulnerabilityRating":"No data","healthRiskLevel":"No data","areaKm2":1.842993,"centerLat":15.742508,"centerLng":120.425082,"geometrySource":"all_barangay-2.csv detailed WKT","geometryMatchMethod":"unique_official_admin_names","boundaryPointCount":10},"geometry":{"type":"MultiPolygon","coordinates":[[[[120.419456,15.75938],[120.415787,15.75232],[120.397568,15.75119],[120.399063,15.75364],[120.401627,15.75455],[120.404037,15.75649],[120.407211,15.75907],[120.41188,15.76217],[120.415367,15.7609],[120.419456,15.75938]]]]}},{"type":"Feature","properties":{"ID_0":177,"ISO":"PHL","NAME_0":"Philippines","ID_1":3069,"NAME_1":"Tarlac","ID_2":306903,"NAME_2":"Camiling","ID_3":306903042,"NAME_3":"Pindangan 2nd","NL_NAME_3":null,"VARNAME_3":null,"TYPE_3":"Barangay","ENGTYPE_3":"Village","PROVINCE":"Tarlac","REGION":"Region III (Central Luzon)","id":"barangay-0306903042","name":"Pindangan 2nd","barangayCode":"0306903042","population":null,"formattedPop":null,"densityCategory":"No data","vulnerabilityRating":"No data","healthRiskLevel":"No data","areaKm2":6.391902,"centerLat":15.736989,"centerLng":120.405586,"geometrySource":"all_barangay-2.csv detailed WKT","geometryMatchMethod":"unique_official_admin_names","boundaryPointCount":16},"geometry":{"type":"MultiPolygon","coordinates":[[[[120.415787,15.75232],[120.412407,15.74047],[120.411598,15.74139],[120.410187,15.74139],[120.404579,15.73884],[120.396553,15.73593],[120.392517,15.73381],[120.390907,15.7318],[120.39045,15.73551],[120.391037,15.73758],[120.392387,15.73862],[120.39193,15.74016],[120.393723,15.74363],[120.395073,15.74595],[120.397568,15.75119],[120.415787,15.75232]]]]}},{"type":"Feature","properties":{"ID_0":177,"ISO":"PHL","NAME_0":"Philippines","ID_1":3069,"NAME_1":"Tarlac","ID_2":306903,"NAME_2":"Camiling","ID_3":306903043,"NAME_3":"Poblacion A","NL_NAME_3":null,"VARNAME_3":null,"TYPE_3":"Barangay","ENGTYPE_3":"Village","PROVINCE":"Tarlac","REGION":"Region III (Central Luzon)","id":"barangay-0306903043","name":"Poblacion A","barangayCode":"0306903043","population":null,"formattedPop":null,"densityCategory":"No data","vulnerabilityRating":"No data","healthRiskLevel":"No data","areaKm2":0.19405,"centerLat":15.690149,"centerLng":120.416046,"geometrySource":"all_barangay-2.csv detailed WKT","geometryMatchMethod":"unique_official_admin_names","boundaryPointCount":6},"geometry":{"type":"MultiPolygon","coordinates":[[[[120.41214,15.70056],[120.417229,15.70107],[120.417267,15.69998],[120.416656,15.69842],[120.412407,15.69766],[120.41214,15.70056]]]]}},{"type":"Feature","properties":{"ID_0":177,"ISO":"PHL","NAME_0":"Philippines","ID_1":3069,"NAME_1":"Tarlac","ID_2":306903,"NAME_2":"Camiling","ID_3":306903044,"NAME_3":"Poblacion B","NL_NAME_3":null,"VARNAME_3":null,"TYPE_3":"Barangay","ENGTYPE_3":"Village","PROVINCE":"Tarlac","REGION":"Region III (Central Luzon)","id":"barangay-0306903044","name":"Poblacion B","barangayCode":"0306903044","population":null,"formattedPop":null,"densityCategory":"No data","vulnerabilityRating":"No data","healthRiskLevel":"No data","areaKm2":0.249957,"centerLat":15.690235,"centerLng":120.413621,"geometrySource":"all_barangay-2.csv detailed WKT","geometryMatchMethod":"unique_official_admin_names","boundaryPointCount":12},"geometry":{"type":"MultiPolygon","coordinates":[[[[120.417549,15.70396],[120.421356,15.70395],[120.418251,15.6957],[120.416527,15.6936],[120.413681,15.69429],[120.414948,15.69645],[120.416023,15.69725],[120.416656,15.69842],[120.417267,15.69998],[120.417229,15.70107],[120.417419,15.70293],[120.417549,15.70396]]]]}},{"type":"Feature","properties":{"ID_0":177,"ISO":"PHL","NAME_0":"Philippines","ID_1":3069,"NAME_1":"Tarlac","ID_2":306903,"NAME_2":"Camiling","ID_3":306903045,"NAME_3":"Poblacion C","NL_NAME_3":null,"VARNAME_3":null,"TYPE_3":"Barangay","ENGTYPE_3":"Village","PROVINCE":"Tarlac","REGION":"Region III (Central Luzon)","id":"barangay-0306903045","name":"Poblacion C","barangayCode":"0306903045","population":null,"formattedPop":null,"densityCategory":"No data","vulnerabilityRating":"No data","healthRiskLevel":"No data","areaKm2":0.104833,"centerLat":15.686927,"centerLng":120.411726,"geometrySource":"all_barangay-2.csv detailed WKT","geometryMatchMethod":"unique_official_admin_names","boundaryPointCount":7},"geometry":{"type":"MultiPolygon","coordinates":[[[[120.418602,15.69363],[120.418297,15.69257],[120.420647,15.68682],[120.417709,15.68673],[120.416656,15.69178],[120.416527,15.6936],[120.418602,15.69363]]]]}},{"type":"Feature","properties":{"ID_0":177,"ISO":"PHL","NAME_0":"Philippines","ID_1":3069,"NAME_1":"Tarlac","ID_2":306903,"NAME_2":"Camiling","ID_3":306903046,"NAME_3":"Poblacion D","NL_NAME_3":null,"VARNAME_3":null,"TYPE_3":"Barangay","ENGTYPE_3":"Village","PROVINCE":"Tarlac","REGION":"Region III (Central Luzon)","id":"barangay-0306903046","name":"Poblacion D","barangayCode":"0306903046","population":null,"formattedPop":null,"densityCategory":"No data","vulnerabilityRating":"No data","healthRiskLevel":"No data","areaKm2":0.15337,"centerLat":15.685177,"centerLng":120.408041,"geometrySource":"all_barangay-2.csv detailed WKT","geometryMatchMethod":"unique_official_admin_names","boundaryPointCount":8},"geometry":{"type":"MultiPolygon","coordinates":[[[[120.417549,15.70396],[120.417419,15.70293],[120.417229,15.70107],[120.41214,15.70056],[120.405273,15.70031],[120.405319,15.70209],[120.404831,15.70354],[120.417549,15.70396]]]]}},{"type":"Feature","properties":{"ID_0":177,"ISO":"PHL","NAME_0":"Philippines","ID_1":3069,"NAME_1":"Tarlac","ID_2":306903,"NAME_2":"Camiling","ID_3":306903047,"NAME_3":"Poblacion E","NL_NAME_3":null,"VARNAME_3":null,"TYPE_3":"Barangay","ENGTYPE_3":"Village","PROVINCE":"Tarlac","REGION":"Region III (Central Luzon)","id":"barangay-0306903047","name":"Poblacion E","barangayCode":"0306903047","population":null,"formattedPop":null,"densityCategory":"No data","vulnerabilityRating":"No data","healthRiskLevel":"No data","areaKm2":0.150848,"centerLat":15.686046,"centerLng":120.404623,"geometrySource":"all_barangay-2.csv detailed WKT","geometryMatchMethod":"unique_official_admin_names","boundaryPointCount":9},"geometry":{"type":"MultiPolygon","coordinates":[[[[120.417679,15.7117],[120.417168,15.70919],[120.416969,15.70702],[120.417236,15.70533],[120.417549,15.70396],[120.404831,15.70354],[120.404533,15.70604],[120.404427,15.71015],[120.417679,15.7117]]]]}},{"type":"Feature","properties":{"ID_0":177,"ISO":"PHL","NAME_0":"Philippines","ID_1":3069,"NAME_1":"Tarlac","ID_2":306903,"NAME_2":"Camiling","ID_3":306903048,"NAME_3":"Poblacion F","NL_NAME_3":null,"VARNAME_3":null,"TYPE_3":"Barangay","ENGTYPE_3":"Village","PROVINCE":"Tarlac","REGION":"Region III (Central Luzon)","id":"barangay-0306903048","name":"Poblacion F","barangayCode":"0306903048","population":null,"formattedPop":null,"densityCategory":"No data","vulnerabilityRating":"No data","healthRiskLevel":"No data","areaKm2":0.180045,"centerLat":15.68343,"centerLng":120.404957,"geometrySource":"all_barangay-2.csv detailed WKT","geometryMatchMethod":"unique_official_admin_names","boundaryPointCount":29},"geometry":{"type":"MultiPolygon","coordinates":[[[[120.408974,15.69578],[120.408737,15.69273],[120.407837,15.69286],[120.406792,15.69259],[120.405853,15.69248],[120.404617,15.69237],[120.403427,15.69216],[120.402588,15.69192],[120.401817,15.69141],[120.401466,15.69117],[120.40049,15.69068],[120.399269,15.69004],[120.398102,15.68941],[120.396561,15.68894],[120.394676,15.68849],[120.393768,15.68848],[120.392174,15.68831],[120.391373,15.6914],[120.390968,15.69232],[120.392487,15.69384],[120.393799,15.69467],[120.39537,15.69521],[120.396767,15.69549],[120.398483,15.69603],[120.400146,15.69593],[120.402672,15.69647],[120.403923,15.69715],[120.404922,15.69792],[120.408974,15.69578]]]]}},{"type":"Feature","properties":{"ID_0":177,"ISO":"PHL","NAME_0":"Philippines","ID_1":3069,"NAME_1":"Tarlac","ID_2":306903,"NAME_2":"Camiling","ID_3":306903049,"NAME_3":"Poblacion G","NL_NAME_3":null,"VARNAME_3":null,"TYPE_3":"Barangay","ENGTYPE_3":"Village","PROVINCE":"Tarlac","REGION":"Region III (Central Luzon)","id":"barangay-0306903049","name":"Poblacion G","barangayCode":"0306903049","population":null,"formattedPop":null,"densityCategory":"No data","vulnerabilityRating":"No data","healthRiskLevel":"No data","areaKm2":0.174049,"centerLat":15.684572,"centerLng":120.416417,"geometrySource":"all_barangay-2.csv detailed WKT","geometryMatchMethod":"unique_official_admin_names","boundaryPointCount":10},"geometry":{"type":"MultiPolygon","coordinates":[[[[120.412148,15.69479],[120.413681,15.69429],[120.416527,15.6936],[120.41494,15.6922],[120.413368,15.6914],[120.411377,15.69179],[120.410652,15.69214],[120.408737,15.69273],[120.408974,15.69578],[120.412148,15.69479]]]]}},{"type":"Feature","properties":{"ID_0":177,"ISO":"PHL","NAME_0":"Philippines","ID_1":3069,"NAME_1":"Tarlac","ID_2":306903,"NAME_2":"Camiling","ID_3":306903050,"NAME_3":"Poblacion H","NL_NAME_3":null,"VARNAME_3":null,"TYPE_3":"Barangay","ENGTYPE_3":"Village","PROVINCE":"Tarlac","REGION":"Region III (Central Luzon)","id":"barangay-0306903050","name":"Poblacion H","barangayCode":"0306903050","population":null,"formattedPop":null,"densityCategory":"No data","vulnerabilityRating":"No data","healthRiskLevel":"No data","areaKm2":0.139511,"centerLat":15.684666,"centerLng":120.413806,"geometrySource":"all_barangay-2.csv detailed WKT","geometryMatchMethod":"unique_official_admin_names","boundaryPointCount":16},"geometry":{"type":"MultiPolygon","coordinates":[[[[120.416527,15.6936],[120.416656,15.69178],[120.417709,15.68673],[120.41703,15.68673],[120.416328,15.68639],[120.414772,15.68608],[120.413757,15.68624],[120.412987,15.68633],[120.41021,15.68665],[120.41095,15.68795],[120.411621,15.68872],[120.412521,15.68966],[120.412918,15.69019],[120.413368,15.6914],[120.41494,15.6922],[120.416527,15.6936]]]]}},{"type":"Feature","properties":{"ID_0":177,"ISO":"PHL","NAME_0":"Philippines","ID_1":3069,"NAME_1":"Tarlac","ID_2":306903,"NAME_2":"Camiling","ID_3":306903051,"NAME_3":"Poblacion I","NL_NAME_3":null,"VARNAME_3":null,"TYPE_3":"Barangay","ENGTYPE_3":"Village","PROVINCE":"Tarlac","REGION":"Region III (Central Luzon)","id":"barangay-0306903051","name":"Poblacion I","barangayCode":"0306903051","population":null,"formattedPop":null,"densityCategory":"No data","vulnerabilityRating":"No data","healthRiskLevel":"No data","areaKm2":0.123636,"centerLat":15.686623,"centerLng":120.410523,"geometrySource":"all_barangay-2.csv detailed WKT","geometryMatchMethod":"unique_official_admin_names","boundaryPointCount":7},"geometry":{"type":"MultiPolygon","coordinates":[[[[120.416656,15.69842],[120.416023,15.69725],[120.414948,15.69645],[120.413681,15.69429],[120.412148,15.69479],[120.412407,15.69766],[120.416656,15.69842]]]]}},{"type":"Feature","properties":{"ID_0":177,"ISO":"PHL","NAME_0":"Philippines","ID_1":3069,"NAME_1":"Tarlac","ID_2":306903,"NAME_2":"Camiling","ID_3":306903052,"NAME_3":"Poblacion J","NL_NAME_3":null,"VARNAME_3":null,"TYPE_3":"Barangay","ENGTYPE_3":"Village","PROVINCE":"Tarlac","REGION":"Region III (Central Luzon)","id":"barangay-0306903052","name":"Poblacion J","barangayCode":"0306903052","population":null,"formattedPop":null,"densityCategory":"No data","vulnerabilityRating":"No data","healthRiskLevel":"No data","areaKm2":0.088033,"centerLat":15.685762,"centerLng":120.409376,"geometrySource":"all_barangay-2.csv detailed WKT","geometryMatchMethod":"unique_official_admin_names","boundaryPointCount":8},"geometry":{"type":"MultiPolygon","coordinates":[[[[120.405273,15.70031],[120.41214,15.70056],[120.412407,15.69766],[120.412148,15.69479],[120.408974,15.69578],[120.404922,15.69792],[120.40554,15.69943],[120.405273,15.70031]]]]}},{"type":"Feature","properties":{"ID_0":177,"ISO":"PHL","NAME_0":"Philippines","ID_1":3069,"NAME_1":"Tarlac","ID_2":306903,"NAME_2":"Camiling","ID_3":306903053,"NAME_3":"Sta. Maria","NL_NAME_3":null,"VARNAME_3":null,"TYPE_3":"Barangay","ENGTYPE_3":"Village","PROVINCE":"Tarlac","REGION":"Region III (Central Luzon)","id":"barangay-0306903053","name":"Sta. Maria","barangayCode":"0306903053","population":null,"formattedPop":null,"densityCategory":"No data","vulnerabilityRating":"No data","healthRiskLevel":"No data","areaKm2":2.457005,"centerLat":15.640514,"centerLng":120.426843,"geometrySource":"all_barangay-2.csv detailed WKT","geometryMatchMethod":"unique_official_admin_names","boundaryPointCount":83},"geometry":{"type":"MultiPolygon","coordinates":[[[[120.44696,15.66774],[120.447166,15.66679],[120.447723,15.66542],[120.449097,15.66353],[120.448914,15.6627],[120.447823,15.66203],[120.447144,15.66155],[120.447327,15.66103],[120.4478,15.66058],[120.448334,15.66018],[120.448776,15.6593],[120.44873,15.65883],[120.448021,15.65781],[120.446968,15.65714],[120.446167,15.65685],[120.445602,15.65695],[120.44471,15.65749],[120.443764,15.65787],[120.442871,15.6582],[120.441917,15.65822],[120.440849,15.65779],[120.440361,15.65705],[120.43956,15.65579],[120.438316,15.65505],[120.437653,15.65531],[120.436974,15.65543],[120.435898,15.65519],[120.435066,15.65393],[120.435028,15.65319],[120.434982,15.65236],[120.434868,15.65144],[120.435081,15.65089],[120.435364,15.65032],[120.435387,15.64973],[120.43528,15.64864],[120.435173,15.64753],[120.435188,15.64688],[120.435364,15.64594],[120.435432,15.64499],[120.434631,15.64413],[120.433617,15.64396],[120.432693,15.64394],[120.43177,15.64391],[120.43042,15.64345],[120.429817,15.64262],[120.42942,15.64168],[120.428864,15.64089],[120.4282,15.64056],[120.427994,15.64063],[120.427322,15.64148],[120.427017,15.64183],[120.426453,15.64211],[120.425613,15.6418],[120.425323,15.64081],[120.424599,15.64026],[120.424011,15.64028],[120.422493,15.6389],[120.421387,15.64283],[120.421051,15.64421],[120.420792,15.64542],[120.420578,15.64707],[120.420662,15.64829],[120.421127,15.64933],[120.421753,15.65083],[120.422157,15.65239],[120.422447,15.65439],[120.422241,15.65614],[120.421806,15.65699],[120.421852,15.65839],[120.422127,15.65913],[120.422348,15.6605],[120.424461,15.6611],[120.425774,15.66149],[120.427254,15.66218],[120.429558,15.66302],[120.431717,15.66369],[120.433807,15.66412],[120.435944,15.66472],[120.43734,15.66529],[120.439293,15.66561],[120.442139,15.66668],[120.44371,15.66749],[120.44696,15.66774]]]]}},{"type":"Feature","properties":{"ID_0":177,"ISO":"PHL","NAME_0":"Philippines","ID_1":3069,"NAME_1":"Tarlac","ID_2":306903,"NAME_2":"Camiling","ID_3":306903055,"NAME_3":"Sawat","NL_NAME_3":null,"VARNAME_3":null,"TYPE_3":"Barangay","ENGTYPE_3":"Village","PROVINCE":"Tarlac","REGION":"Region III (Central Luzon)","id":"barangay-0306903055","name":"Sawat","barangayCode":"0306903055","population":null,"formattedPop":null,"densityCategory":"No data","vulnerabilityRating":"No data","healthRiskLevel":"No data","areaKm2":3.346367,"centerLat":15.713408,"centerLng":120.432431,"geometrySource":"all_barangay-2.csv detailed WKT","geometryMatchMethod":"unique_official_admin_names","boundaryPointCount":22},"geometry":{"type":"MultiPolygon","coordinates":[[[[120.443176,15.73153],[120.442886,15.71585],[120.434486,15.71576],[120.43367,15.71617],[120.432182,15.71618],[120.429619,15.71627],[120.426643,15.7169],[120.424957,15.71764],[120.422974,15.71879],[120.420692,15.71871],[120.42157,15.72105],[120.422058,15.72208],[120.422958,15.72457],[120.424927,15.72469],[120.426727,15.72481],[120.428864,15.72533],[120.430946,15.72545],[120.431839,15.72561],[120.433823,15.72704],[120.43602,15.72804],[120.438591,15.7294],[120.443176,15.73153]]]]}},{"type":"Feature","properties":{"ID_0":177,"ISO":"PHL","NAME_0":"Philippines","ID_1":3069,"NAME_1":"Tarlac","ID_2":306903,"NAME_2":"Camiling","ID_3":306903057,"NAME_3":"Sinilian 1st","NL_NAME_3":null,"VARNAME_3":null,"TYPE_3":"Barangay","ENGTYPE_3":"Village","PROVINCE":"Tarlac","REGION":"Region III (Central Luzon)","id":"barangay-0306903057","name":"Sinilian 1st","barangayCode":"0306903057","population":null,"formattedPop":null,"densityCategory":"No data","vulnerabilityRating":"No data","healthRiskLevel":"No data","areaKm2":1.99879,"centerLat":15.693787,"centerLng":120.46113,"geometrySource":"all_barangay-2.csv detailed WKT","geometryMatchMethod":"unique_official_admin_names","boundaryPointCount":5},"geometry":{"type":"MultiPolygon","coordinates":[[[[120.457237,15.71638],[120.474037,15.7144],[120.466873,15.70452],[120.452827,15.70992],[120.457237,15.71638]]]]}},{"type":"Feature","properties":{"ID_0":177,"ISO":"PHL","NAME_0":"Philippines","ID_1":3069,"NAME_1":"Tarlac","ID_2":306903,"NAME_2":"Camiling","ID_3":306903058,"NAME_3":"Sinilian 2nd","NL_NAME_3":null,"VARNAME_3":null,"TYPE_3":"Barangay","ENGTYPE_3":"Village","PROVINCE":"Tarlac","REGION":"Region III (Central Luzon)","id":"barangay-0306903058","name":"Sinilian 2nd","barangayCode":"0306903058","population":null,"formattedPop":null,"densityCategory":"No data","vulnerabilityRating":"No data","healthRiskLevel":"No data","areaKm2":3.108572,"centerLat":15.710956,"centerLng":120.460562,"geometrySource":"all_barangay-2.csv detailed WKT","geometryMatchMethod":"unique_official_admin_names","boundaryPointCount":8},"geometry":{"type":"MultiPolygon","coordinates":[[[[120.481071,15.72984],[120.482132,15.72845],[120.482628,15.72835],[120.474037,15.7144],[120.457237,15.71638],[120.470337,15.73634],[120.473984,15.73461],[120.481071,15.72984]]]]}},{"type":"Feature","properties":{"ID_0":177,"ISO":"PHL","NAME_0":"Philippines","ID_1":3069,"NAME_1":"Tarlac","ID_2":306903,"NAME_2":"Camiling","ID_3":306903059,"NAME_3":"Sinilian 3rd","NL_NAME_3":null,"VARNAME_3":null,"TYPE_3":"Barangay","ENGTYPE_3":"Village","PROVINCE":"Tarlac","REGION":"Region III (Central Luzon)","id":"barangay-0306903059","name":"Sinilian 3rd","barangayCode":"0306903059","population":null,"formattedPop":null,"densityCategory":"No data","vulnerabilityRating":"No data","healthRiskLevel":"No data","areaKm2":2.063023,"centerLat":15.716344,"centerLng":120.449028,"geometrySource":"all_barangay-2.csv detailed WKT","geometryMatchMethod":"unique_official_admin_names","boundaryPointCount":18},"geometry":{"type":"MultiPolygon","coordinates":[[[[120.470337,15.73634],[120.457237,15.71638],[120.442886,15.71585],[120.443176,15.73153],[120.448448,15.73347],[120.449577,15.73394],[120.451492,15.73458],[120.453011,15.73569],[120.45369,15.73722],[120.453903,15.73794],[120.453758,15.73944],[120.453827,15.74065],[120.454933,15.74133],[120.456337,15.74199],[120.458183,15.7422],[120.460854,15.74316],[120.464142,15.74106],[120.470337,15.73634]]]]}},{"type":"Feature","properties":{"ID_0":177,"ISO":"PHL","NAME_0":"Philippines","ID_1":3069,"NAME_1":"Tarlac","ID_2":306903,"NAME_2":"Camiling","ID_3":306903060,"NAME_3":"Sinilian Cacalibosoan","NL_NAME_3":null,"VARNAME_3":null,"TYPE_3":"Barangay","ENGTYPE_3":"Village","PROVINCE":"Tarlac","REGION":"Region III (Central Luzon)","id":"barangay-0306903060","name":"Sinilian Cacalibosoan","barangayCode":"0306903060","population":null,"formattedPop":null,"densityCategory":"No data","vulnerabilityRating":"No data","healthRiskLevel":"No data","areaKm2":2.261427,"centerLat":15.701257,"centerLng":120.447963,"geometrySource":"all_barangay-2.csv detailed WKT","geometryMatchMethod":"unique_official_admin_names","boundaryPointCount":17},"geometry":{"type":"MultiPolygon","coordinates":[[[[120.442886,15.71585],[120.457237,15.71638],[120.452827,15.70992],[120.445473,15.69869],[120.444443,15.6996],[120.443123,15.70007],[120.442284,15.70032],[120.44072,15.70066],[120.439293,15.70057],[120.437943,15.70051],[120.428017,15.70413],[120.429451,15.70712],[120.431068,15.70986],[120.432617,15.71192],[120.43428,15.71397],[120.434486,15.71576],[120.442886,15.71585]]]]}},{"type":"Feature","properties":{"ID_0":177,"ISO":"PHL","NAME_0":"Philippines","ID_1":3069,"NAME_1":"Tarlac","ID_2":306903,"NAME_2":"Camiling","ID_3":306903061,"NAME_3":"Sinulatan 1st","NL_NAME_3":null,"VARNAME_3":null,"TYPE_3":"Barangay","ENGTYPE_3":"Village","PROVINCE":"Tarlac","REGION":"Region III (Central Luzon)","id":"barangay-0306903061","name":"Sinulatan 1st","barangayCode":"0306903061","population":null,"formattedPop":null,"densityCategory":"No data","vulnerabilityRating":"No data","healthRiskLevel":"No data","areaKm2":4.093856,"centerLat":15.711031,"centerLng":120.399151,"geometrySource":"all_barangay-2.csv detailed WKT","geometryMatchMethod":"unique_official_admin_names","boundaryPointCount":10},"geometry":{"type":"MultiPolygon","coordinates":[[[[120.404579,15.73884],[120.404243,15.72608],[120.38929,15.72306],[120.389572,15.72511],[120.39032,15.72666],[120.391068,15.72884],[120.390907,15.7318],[120.392517,15.73381],[120.396553,15.73593],[120.404579,15.73884]]]]}},{"type":"Feature","properties":{"ID_0":177,"ISO":"PHL","NAME_0":"Philippines","ID_1":3069,"NAME_1":"Tarlac","ID_2":306903,"NAME_2":"Camiling","ID_3":306903062,"NAME_3":"Sinulatan 2nd","NL_NAME_3":null,"VARNAME_3":null,"TYPE_3":"Barangay","ENGTYPE_3":"Village","PROVINCE":"Tarlac","REGION":"Region III (Central Luzon)","id":"barangay-0306903062","name":"Sinulatan 2nd","barangayCode":"0306903062","population":null,"formattedPop":null,"densityCategory":"No data","vulnerabilityRating":"No data","healthRiskLevel":"No data","areaKm2":2.01512,"centerLat":15.70454,"centerLng":120.388087,"geometrySource":"all_barangay-2.csv detailed WKT","geometryMatchMethod":"unique_official_admin_names","boundaryPointCount":7},"geometry":{"type":"MultiPolygon","coordinates":[[[[120.38929,15.72306],[120.404243,15.72608],[120.40448,15.71692],[120.388397,15.71727],[120.388702,15.7192],[120.389137,15.72113],[120.38929,15.72306]]]]}},{"type":"Feature","properties":{"ID_0":177,"ISO":"PHL","NAME_0":"Philippines","ID_1":3069,"NAME_1":"Tarlac","ID_2":306903,"NAME_2":"Camiling","ID_3":306903063,"NAME_3":"Surgui 1st","NL_NAME_3":null,"VARNAME_3":null,"TYPE_3":"Barangay","ENGTYPE_3":"Village","PROVINCE":"Tarlac","REGION":"Region III (Central Luzon)","id":"barangay-0306903063","name":"Surgui 1st","barangayCode":"0306903063","population":null,"formattedPop":null,"densityCategory":"No data","vulnerabilityRating":"No data","healthRiskLevel":"No data","areaKm2":0.384909,"centerLat":15.680909,"centerLng":120.412854,"geometrySource":"all_barangay-2.csv detailed WKT","geometryMatchMethod":"unique_official_admin_names","boundaryPointCount":22},"geometry":{"type":"MultiPolygon","coordinates":[[[[120.43161,15.6905],[120.432007,15.68855],[120.43251,15.68808],[120.433342,15.68764],[120.434082,15.68529],[120.431801,15.68517],[120.429947,15.68469],[120.425339,15.68443],[120.422737,15.68428],[120.419724,15.68427],[120.410759,15.68287],[120.410049,15.68443],[120.410011,15.68596],[120.41021,15.68665],[120.412987,15.68633],[120.413757,15.68624],[120.414772,15.68608],[120.416328,15.68639],[120.41703,15.68673],[120.417709,15.68673],[120.420647,15.68682],[120.43161,15.6905]]]]}},{"type":"Feature","properties":{"ID_0":177,"ISO":"PHL","NAME_0":"Philippines","ID_1":3069,"NAME_1":"Tarlac","ID_2":306903,"NAME_2":"Camiling","ID_3":306903064,"NAME_3":"Surgui 2nd","NL_NAME_3":null,"VARNAME_3":null,"TYPE_3":"Barangay","ENGTYPE_3":"Village","PROVINCE":"Tarlac","REGION":"Region III (Central Luzon)","id":"barangay-0306903064","name":"Surgui 2nd","barangayCode":"0306903064","population":null,"formattedPop":null,"densityCategory":"No data","vulnerabilityRating":"No data","healthRiskLevel":"No data","areaKm2":0.632021,"centerLat":15.67633,"centerLng":120.412339,"geometrySource":"all_barangay-2.csv detailed WKT","geometryMatchMethod":"unique_official_admin_names","boundaryPointCount":27},"geometry":{"type":"MultiPolygon","coordinates":[[[[120.434082,15.68529],[120.43795,15.67733],[120.434242,15.67622],[120.432327,15.67548],[120.429977,15.67481],[120.427513,15.67412],[120.42485,15.67363],[120.422859,15.67332],[120.421341,15.67269],[120.420067,15.67227],[120.418228,15.67122],[120.416763,15.67058],[120.412666,15.66842],[120.411057,15.66904],[120.408829,15.67056],[120.410072,15.67234],[120.410507,15.67353],[120.410599,15.67566],[120.41082,15.67782],[120.411087,15.67916],[120.410759,15.68287],[120.419724,15.68427],[120.422737,15.68428],[120.425339,15.68443],[120.429947,15.68469],[120.431801,15.68517],[120.434082,15.68529]]]]}},{"type":"Feature","properties":{"ID_0":177,"ISO":"PHL","NAME_0":"Philippines","ID_1":3069,"NAME_1":"Tarlac","ID_2":306903,"NAME_2":"Camiling","ID_3":306903065,"NAME_3":"Surgui 3rd","NL_NAME_3":null,"VARNAME_3":null,"TYPE_3":"Barangay","ENGTYPE_3":"Village","PROVINCE":"Tarlac","REGION":"Region III (Central Luzon)","id":"barangay-0306903065","name":"Surgui 3rd","barangayCode":"0306903065","population":null,"formattedPop":null,"densityCategory":"No data","vulnerabilityRating":"No data","healthRiskLevel":"No data","areaKm2":2.067115,"centerLat":15.670324,"centerLng":120.421953,"geometrySource":"all_barangay-2.csv detailed WKT","geometryMatchMethod":"unique_official_admin_names","boundaryPointCount":31},"geometry":{"type":"MultiPolygon","coordinates":[[[[120.439537,15.67285],[120.437721,15.67203],[120.436119,15.67122],[120.434334,15.67088],[120.431282,15.66928],[120.429779,15.66861],[120.428551,15.66816],[120.427917,15.66792],[120.426437,15.66741],[120.42482,15.66677],[120.423607,15.66605],[120.420143,15.6641],[120.417877,15.66587],[120.416443,15.66679],[120.414307,15.66747],[120.412666,15.66842],[120.416763,15.67058],[120.418228,15.67122],[120.420067,15.67227],[120.421341,15.67269],[120.422859,15.67332],[120.42485,15.67363],[120.427513,15.67412],[120.429977,15.67481],[120.432327,15.67548],[120.434242,15.67622],[120.43795,15.67733],[120.439209,15.67622],[120.439484,15.67537],[120.439636,15.67404],[120.439537,15.67285]]]]}},{"type":"Feature","properties":{"ID_0":177,"ISO":"PHL","NAME_0":"Philippines","ID_1":3069,"NAME_1":"Tarlac","ID_2":306903,"NAME_2":"Camiling","ID_3":306903066,"NAME_3":"Tambugan","NL_NAME_3":null,"VARNAME_3":null,"TYPE_3":"Barangay","ENGTYPE_3":"Village","PROVINCE":"Tarlac","REGION":"Region III (Central Luzon)","id":"barangay-0306903066","name":"Tambugan","barangayCode":"0306903066","population":null,"formattedPop":null,"densityCategory":"No data","vulnerabilityRating":"No data","healthRiskLevel":"No data","areaKm2":2.816248,"centerLat":15.700498,"centerLng":120.427702,"geometrySource":"all_barangay-2.csv detailed WKT","geometryMatchMethod":"unique_official_admin_names","boundaryPointCount":24},"geometry":{"type":"MultiPolygon","coordinates":[[[[120.420692,15.71871],[120.422974,15.71879],[120.424957,15.71764],[120.426643,15.7169],[120.429619,15.71627],[120.432182,15.71618],[120.43367,15.71617],[120.434486,15.71576],[120.43428,15.71397],[120.432617,15.71192],[120.431068,15.70986],[120.429451,15.70712],[120.428017,15.70413],[120.421356,15.70395],[120.417549,15.70396],[120.417236,15.70533],[120.416969,15.70702],[120.417168,15.70919],[120.417679,15.7117],[120.418129,15.71342],[120.418404,15.71416],[120.419128,15.71562],[120.419533,15.71717],[120.420692,15.71871]]]]}},{"type":"Feature","properties":{"ID_0":177,"ISO":"PHL","NAME_0":"Philippines","ID_1":3069,"NAME_1":"Tarlac","ID_2":306903,"NAME_2":"Camiling","ID_3":306903067,"NAME_3":"Telbang","NL_NAME_3":null,"VARNAME_3":null,"TYPE_3":"Barangay","ENGTYPE_3":"Village","PROVINCE":"Tarlac","REGION":"Region III (Central Luzon)","id":"barangay-0306903067","name":"Telbang","barangayCode":"0306903067","population":null,"formattedPop":null,"densityCategory":"No data","vulnerabilityRating":"No data","healthRiskLevel":"No data","areaKm2":1.556617,"centerLat":15.652576,"centerLng":120.403621,"geometrySource":"all_barangay-2.csv detailed WKT","geometryMatchMethod":"unique_official_admin_names","boundaryPointCount":20},"geometry":{"type":"MultiPolygon","coordinates":[[[[120.400841,15.66489],[120.403908,15.66361],[120.405602,15.66267],[120.409576,15.66145],[120.409416,15.66086],[120.409897,15.65783],[120.403473,15.65546],[120.400917,15.65462],[120.398399,15.65603],[120.39756,15.65653],[120.394562,15.65796],[120.396622,15.65897],[120.3974,15.65937],[120.398247,15.65987],[120.399094,15.66059],[120.39949,15.66132],[120.399803,15.66218],[120.400002,15.66279],[120.400574,15.66372],[120.400841,15.66489]]]]}},{"type":"Feature","properties":{"ID_0":177,"ISO":"PHL","NAME_0":"Philippines","ID_1":3069,"NAME_1":"Tarlac","ID_2":306903,"NAME_2":"Camiling","ID_3":306903068,"NAME_3":"Tuec","NL_NAME_3":null,"VARNAME_3":null,"TYPE_3":"Barangay","ENGTYPE_3":"Village","PROVINCE":"Tarlac","REGION":"Region III (Central Luzon)","id":"barangay-0306903068","name":"Tuec","barangayCode":"0306903068","population":null,"formattedPop":null,"densityCategory":"No data","vulnerabilityRating":"No data","healthRiskLevel":"No data","areaKm2":0.934639,"centerLat":15.663101,"centerLng":120.414667,"geometrySource":"all_barangay-2.csv detailed WKT","geometryMatchMethod":"unique_official_admin_names","boundaryPointCount":14},"geometry":{"type":"MultiPolygon","coordinates":[[[[120.412666,15.66842],[120.409576,15.66145],[120.405602,15.66267],[120.403908,15.66361],[120.400841,15.66489],[120.401863,15.668],[120.402786,15.66896],[120.403839,15.66948],[120.404892,15.6698],[120.405983,15.67],[120.407661,15.67014],[120.408829,15.67056],[120.411057,15.66904],[120.412666,15.66842]]]]}}]}
