{"type":"FeatureCollection","features":[{"type":"Feature","properties":{"ID_0":177,"ISO":"PHL","NAME_0":"Philippines","ID_1":16003,"NAME_1":"Agusan del Sur","ID_2":1600307,"NAME_2":"Rosario","ID_3":1600307001,"NAME_3":"Bayugan 3","NL_NAME_3":null,"VARNAME_3":null,"TYPE_3":"Barangay","ENGTYPE_3":"Village","PROVINCE":"Agusan del Sur","REGION":"Region XIII (Caraga)","id":"barangay-1600307001","name":"Bayugan 3","barangayCode":"1600307001","population":null,"formattedPop":null,"densityCategory":"No data","vulnerabilityRating":"No data","healthRiskLevel":"No data","areaKm2":116.899325,"centerLat":8.286447,"centerLng":126.032276,"geometrySource":"all_barangay-2.csv detailed WKT","geometryMatchMethod":"unique_official_admin_names","boundaryPointCount":152},"geometry":{"type":"MultiPolygon","coordinates":[[[[125.963013,8.33259],[125.988586,8.33178],[125.990097,8.3318],[125.991524,8.33118],[125.992958,8.33057],[125.99395,8.33018],[125.995323,8.32889],[125.995827,8.32841],[125.997658,8.32731],[125.998543,8.32651],[125.99894,8.32634],[125.99942,8.32612],[126.000153,8.32649],[126.000473,8.32665],[126.000877,8.32686],[126.001556,8.32723],[126.002907,8.32758],[126.00338,8.32737],[126.003838,8.32716],[126.004318,8.327],[126.004852,8.32682],[126.006012,8.32682],[126.006706,8.32632],[126.00679,8.32583],[126.006866,8.32526],[126.006767,8.32474],[126.00666,8.32421],[126.007309,8.32311],[126.007591,8.32272],[126.007942,8.32157],[126.008301,8.32042],[126.009018,8.31957],[126.009377,8.31948],[126.009987,8.31932],[126.010887,8.31905],[126.011139,8.31877],[126.011383,8.3185],[126.01255,8.31898],[126.012871,8.31903],[126.013107,8.31907],[126.013412,8.3191],[126.01371,8.31912],[126.014374,8.31893],[126.014961,8.31876],[126.015747,8.31798],[126.016243,8.318],[126.016533,8.31802],[126.016693,8.31803],[126.017151,8.31793],[126.017563,8.31784],[126.018379,8.31877],[126.019142,8.31833],[126.019218,8.31791],[126.019279,8.3176],[126.019569,8.31744],[126.020523,8.31693],[126.020927,8.3165],[126.021347,8.31606],[126.021446,8.31575],[126.021553,8.31542],[126.021713,8.31498],[126.021889,8.31451],[126.022011,8.31418],[126.022888,8.31294],[126.023239,8.31228],[126.023628,8.31218],[126.023872,8.31212],[126.024231,8.31238],[126.024612,8.31265],[126.025307,8.31274],[126.025673,8.31253],[126.025787,8.31247],[126.027252,8.31107],[126.027672,8.31088],[126.028,8.31073],[126.029671,8.30924],[126.030029,8.30887],[126.030388,8.3085],[126.030853,8.30829],[126.031357,8.30807],[126.032272,8.30768],[126.032158,8.30653],[126.032051,8.3055],[126.032539,8.30428],[126.032753,8.30389],[126.032806,8.30375],[126.03492,8.30194],[126.035713,8.30162],[126.036797,8.30115],[126.037697,8.3005],[126.03875,8.30016],[126.043663,8.2934],[126.044983,8.29128],[126.034569,8.29143],[125.97258,8.29192],[125.962196,8.29172],[125.9589,8.29182],[125.958839,8.29182],[125.958687,8.29182],[125.958733,8.29203],[125.95652,8.29208],[125.956512,8.29189],[125.934067,8.29255],[125.911552,8.29321],[125.907501,8.29506],[125.905983,8.29575],[125.9048,8.29686],[125.902496,8.30009],[125.901657,8.30054],[125.900726,8.30103],[125.897789,8.30099],[125.897621,8.30123],[125.897469,8.30144],[125.896896,8.3034],[125.896584,8.3034],[125.89621,8.30339],[125.894814,8.30253],[125.894211,8.30248],[125.893501,8.30242],[125.893547,8.30349],[125.8936,8.30446],[125.895508,8.30604],[125.896767,8.30662],[125.898041,8.30719],[125.898193,8.30819],[125.897247,8.30966],[125.894699,8.31075],[125.89325,8.31107],[125.891258,8.3115],[125.889893,8.31203],[125.888329,8.31264],[125.8871,8.31394],[125.886436,8.31537],[125.886192,8.31589],[125.886208,8.31691],[125.886223,8.31793],[125.888847,8.31781],[125.89045,8.31651],[125.89106,8.3163],[125.89167,8.31609],[125.893387,8.31633],[125.89415,8.31828],[125.892616,8.31942],[125.891144,8.32004],[125.89003,8.32109],[125.889519,8.32266],[125.889091,8.32399],[125.888443,8.3287],[125.937447,8.33132],[125.938492,8.33127],[125.949928,8.33266],[125.963013,8.33259]]]]}},{"type":"Feature","properties":{"ID_0":177,"ISO":"PHL","NAME_0":"Philippines","ID_1":16003,"NAME_1":"Agusan del Sur","ID_2":1600307,"NAME_2":"Rosario","ID_3":1600307002,"NAME_3":"Cabantao","NL_NAME_3":null,"VARNAME_3":null,"TYPE_3":"Barangay","ENGTYPE_3":"Village","PROVINCE":"Agusan del Sur","REGION":"Region XIII (Caraga)","id":"barangay-1600307002","name":"Cabantao","barangayCode":"1600307002","population":null,"formattedPop":null,"densityCategory":"No data","vulnerabilityRating":"No data","healthRiskLevel":"No data","areaKm2":28.037722,"centerLat":8.389171,"centerLng":126.048566,"geometrySource":"all_barangay-2.csv detailed WKT","geometryMatchMethod":"unique_official_admin_names","boundaryPointCount":46},"geometry":{"type":"MultiPolygon","coordinates":[[[[126.042793,8.40534],[126.033272,8.39231],[126.031738,8.39173],[126.030952,8.39134],[126.030403,8.39159],[126.03054,8.39216],[126.030449,8.39296],[126.029541,8.39305],[126.028427,8.39291],[126.028023,8.393],[126.02713,8.39329],[126.026718,8.39283],[126.026443,8.39185],[126.02597,8.39113],[126.024788,8.39101],[126.024231,8.39034],[126.023376,8.39151],[126.0224,8.39116],[126.02166,8.38974],[126.020943,8.38964],[126.020554,8.38886],[126.020126,8.38762],[126.019524,8.38752],[126.018799,8.38849],[126.017723,8.38894],[126.017601,8.38995],[126.017769,8.39119],[126.018463,8.39158],[126.019569,8.39189],[126.019989,8.39226],[126.020714,8.39324],[126.021263,8.3935],[126.022102,8.39396],[126.022652,8.39426],[126.023209,8.39479],[126.023331,8.39509],[126.022293,8.39633],[126.021851,8.39766],[126.022346,8.39981],[126.023216,8.40014],[126.023987,8.40081],[126.026443,8.40318],[126.027847,8.40399],[126.030693,8.40526],[126.036598,8.40527],[126.042793,8.40534]]]]}},{"type":"Feature","properties":{"ID_0":177,"ISO":"PHL","NAME_0":"Philippines","ID_1":16003,"NAME_1":"Agusan del Sur","ID_2":1600307,"NAME_2":"Rosario","ID_3":1600307003,"NAME_3":"Cabawan","NL_NAME_3":null,"VARNAME_3":null,"TYPE_3":"Barangay","ENGTYPE_3":"Village","PROVINCE":"Agusan del Sur","REGION":"Region XIII (Caraga)","id":"barangay-1600307003","name":"Cabawan","barangayCode":"1600307003","population":null,"formattedPop":null,"densityCategory":"No data","vulnerabilityRating":"No data","healthRiskLevel":"No data","areaKm2":7.335687,"centerLat":8.349074,"centerLng":125.996217,"geometrySource":"all_barangay-2.csv detailed WKT","geometryMatchMethod":"unique_official_admin_names","boundaryPointCount":98},"geometry":{"type":"MultiPolygon","coordinates":[[[[125.997833,8.37107],[125.999496,8.36906],[126.000633,8.36821],[126.001167,8.36977],[126.001587,8.3706],[126.002441,8.37035],[126.003212,8.36984],[126.003632,8.36831],[126.003693,8.36643],[126.004112,8.36647],[126.005112,8.36696],[126.00518,8.36618],[126.004761,8.36514],[126.004433,8.36482],[126.003777,8.36422],[126.002548,8.3628],[126.001831,8.36319],[126.00106,8.36314],[126.000587,8.36307],[125.999969,8.36298],[126.000198,8.36197],[126.000664,8.36167],[126.001266,8.36126],[126.001534,8.35997],[126.000992,8.35963],[126.000427,8.3591],[126.000504,8.3585],[126.000557,8.35793],[126.000099,8.35777],[125.999153,8.3574],[125.999191,8.35685],[125.999313,8.35634],[125.998932,8.35551],[125.998901,8.35448],[125.999138,8.3523],[125.999527,8.35154],[125.999901,8.35062],[125.999573,8.34996],[125.998779,8.34911],[125.99794,8.34853],[125.998016,8.34759],[125.998657,8.34647],[125.999329,8.34631],[126.000877,8.34619],[126.001793,8.34551],[126.002563,8.34519],[126.003601,8.34496],[126.004204,8.34379],[126.004639,8.34294],[126.005241,8.34214],[126.005836,8.34069],[126.006233,8.34005],[126.006866,8.33941],[126.007561,8.33904],[126.008034,8.33875],[126.009087,8.33884],[126.01004,8.3385],[126.009567,8.33556],[126.008591,8.33264],[126.008247,8.32965],[126.008247,8.32639],[126.008347,8.32331],[126.009232,8.3215],[126.009987,8.31932],[126.009377,8.31948],[126.009018,8.31957],[126.008301,8.32042],[126.007942,8.32157],[126.007591,8.32272],[126.007309,8.32311],[126.00666,8.32421],[126.006767,8.32474],[126.006866,8.32526],[126.00679,8.32583],[126.006706,8.32632],[126.006012,8.32682],[126.004852,8.32682],[126.004318,8.327],[126.003838,8.32716],[126.00338,8.32737],[126.002907,8.32758],[126.001556,8.32723],[126.000877,8.32686],[126.000473,8.32665],[126.000153,8.32649],[125.99942,8.32612],[125.99894,8.32634],[125.998543,8.32651],[125.997658,8.32731],[125.995827,8.32841],[125.995323,8.32889],[125.99395,8.33018],[125.992958,8.33057],[125.991524,8.33118],[125.990097,8.3318],[125.988586,8.33178],[125.963013,8.33259],[125.997833,8.37107]]]]}},{"type":"Feature","properties":{"ID_0":177,"ISO":"PHL","NAME_0":"Philippines","ID_1":16003,"NAME_1":"Agusan del Sur","ID_2":1600307,"NAME_2":"Rosario","ID_3":1600307004,"NAME_3":"Marfil","NL_NAME_3":null,"VARNAME_3":null,"TYPE_3":"Barangay","ENGTYPE_3":"Village","PROVINCE":"Agusan del Sur","REGION":"Region XIII (Caraga)","id":"barangay-1600307004","name":"Marfil","barangayCode":"1600307004","population":null,"formattedPop":null,"densityCategory":"No data","vulnerabilityRating":"No data","healthRiskLevel":"No data","areaKm2":28.091126,"centerLat":8.385466,"centerLng":126.094034,"geometrySource":"all_barangay-2.csv detailed WKT","geometryMatchMethod":"unique_official_admin_names","boundaryPointCount":91},"geometry":{"type":"MultiPolygon","coordinates":[[[[126.069099,8.40574],[126.083214,8.39075],[126.098488,8.3793],[126.125961,8.37448],[126.143272,8.37408],[126.179588,8.36952],[126.198601,8.36914],[126.233597,8.37782],[126.259323,8.37473],[126.268784,8.39912],[126.279617,8.40375],[126.277542,8.3796],[126.27636,8.36634],[126.267776,8.34024],[126.275299,8.33307],[126.285004,8.32143],[126.291107,8.31117],[126.290993,8.30297],[126.290756,8.28723],[126.271797,8.28687],[126.135643,8.29122],[126.123299,8.29131],[126.091454,8.29112],[126.077461,8.2905],[126.045547,8.33897],[126.044937,8.33892],[126.043343,8.33965],[126.042267,8.34029],[126.041763,8.34145],[126.041603,8.34299],[126.041153,8.34476],[126.040733,8.34563],[126.039429,8.3476],[126.038162,8.34867],[126.037529,8.3497],[126.036507,8.35204],[126.036102,8.35234],[126.035454,8.3535],[126.034081,8.35506],[126.032997,8.35691],[126.03344,8.35779],[126.032539,8.36001],[126.030899,8.36108],[126.030548,8.36166],[126.031433,8.36184],[126.032608,8.36235],[126.032837,8.36389],[126.032333,8.36442],[126.031357,8.36487],[126.03183,8.36588],[126.031113,8.36657],[126.031326,8.36726],[126.032433,8.3683],[126.032997,8.36988],[126.033112,8.37094],[126.033493,8.37271],[126.034462,8.37411],[126.034576,8.37494],[126.034187,8.37648],[126.032867,8.37884],[126.032356,8.3795],[126.031242,8.38064],[126.031357,8.38156],[126.032333,8.38299],[126.032173,8.38356],[126.031593,8.38335],[126.030388,8.38309],[126.029617,8.38334],[126.028511,8.38612],[126.02784,8.38552],[126.026939,8.38579],[126.025871,8.38744],[126.025642,8.38879],[126.025337,8.38932],[126.024231,8.39034],[126.024788,8.39101],[126.02597,8.39113],[126.026443,8.39185],[126.026718,8.39283],[126.02713,8.39329],[126.028023,8.393],[126.028427,8.39291],[126.029541,8.39305],[126.030449,8.39296],[126.03054,8.39216],[126.030403,8.39159],[126.030952,8.39134],[126.031738,8.39173],[126.033272,8.39231],[126.042793,8.40534],[126.069099,8.40574]]]]}},{"type":"Feature","properties":{"ID_0":177,"ISO":"PHL","NAME_0":"Philippines","ID_1":16003,"NAME_1":"Agusan del Sur","ID_2":1600307,"NAME_2":"Rosario","ID_3":1600307005,"NAME_3":"Novele","NL_NAME_3":null,"VARNAME_3":null,"TYPE_3":"Barangay","ENGTYPE_3":"Village","PROVINCE":"Agusan del Sur","REGION":"Region XIII (Caraga)","id":"barangay-1600307005","name":"Novele","barangayCode":"1600307005","population":null,"formattedPop":null,"densityCategory":"No data","vulnerabilityRating":"No data","healthRiskLevel":"No data","areaKm2":28.741187,"centerLat":8.340057,"centerLng":125.945059,"geometrySource":"all_barangay-2.csv detailed WKT","geometryMatchMethod":"unique_official_admin_names","boundaryPointCount":106},"geometry":{"type":"MultiPolygon","coordinates":[[[[125.890297,8.39267],[125.92907,8.34581],[125.935547,8.34767],[125.943398,8.34992],[125.958794,8.35523],[125.958687,8.35571],[125.959999,8.35677],[125.960854,8.35774],[125.96273,8.36001],[125.96344,8.3603],[125.965927,8.3608],[125.967743,8.36176],[125.997833,8.37107],[125.963013,8.33259],[125.949928,8.33266],[125.938492,8.33127],[125.937447,8.33132],[125.888443,8.3287],[125.887444,8.33063],[125.886177,8.33093],[125.885147,8.33159],[125.884933,8.3341],[125.885208,8.33938],[125.885063,8.34079],[125.883652,8.34366],[125.881607,8.34539],[125.879562,8.3461],[125.877357,8.34712],[125.875328,8.34848],[125.873016,8.34895],[125.870621,8.34878],[125.86898,8.34981],[125.869476,8.35176],[125.871292,8.35288],[125.874947,8.35331],[125.875458,8.35348],[125.878014,8.35509],[125.878319,8.35787],[125.877808,8.35854],[125.875839,8.36038],[125.87381,8.36076],[125.871727,8.36043],[125.870049,8.35929],[125.86869,8.357],[125.867203,8.35455],[125.865463,8.35242],[125.864662,8.35141],[125.862907,8.35032],[125.861343,8.35069],[125.86071,8.35225],[125.860741,8.35618],[125.861259,8.3576],[125.861992,8.35808],[125.864067,8.3588],[125.865372,8.36003],[125.865181,8.36097],[125.85955,8.36199],[125.857918,8.36187],[125.853111,8.36365],[125.85006,8.36501],[125.848717,8.36534],[125.848053,8.36711],[125.849007,8.36719],[125.85228,8.36717],[125.853111,8.36707],[125.855301,8.36722],[125.856728,8.3681],[125.856972,8.36924],[125.855453,8.37021],[125.851646,8.37165],[125.849869,8.37246],[125.847237,8.37332],[125.846001,8.37316],[125.844688,8.37207],[125.843803,8.37099],[125.842682,8.36901],[125.841652,8.3671],[125.840714,8.36655],[125.839882,8.36707],[125.838837,8.36883],[125.837952,8.37046],[125.837059,8.37262],[125.837822,8.37321],[125.839272,8.37337],[125.840828,8.37419],[125.842041,8.37555],[125.842529,8.3787],[125.842491,8.37952],[125.842453,8.38034],[125.841423,8.38291],[125.840881,8.38392],[125.840492,8.38438],[125.838669,8.38458],[125.837891,8.38418],[125.835907,8.3828],[125.835167,8.3827],[125.834602,8.38298],[125.833794,8.38337],[125.833633,8.38559],[125.834068,8.3868],[125.835693,8.38909],[125.836937,8.39043],[125.837189,8.39226],[125.841927,8.39229],[125.843536,8.39231],[125.890297,8.39267]]]]}},{"type":"Feature","properties":{"ID_0":177,"ISO":"PHL","NAME_0":"Philippines","ID_1":16003,"NAME_1":"Agusan del Sur","ID_2":1600307,"NAME_2":"Rosario","ID_3":1600307006,"NAME_3":"Poblacion","NL_NAME_3":null,"VARNAME_3":null,"TYPE_3":"Barangay","ENGTYPE_3":"Village","PROVINCE":"Agusan del Sur","REGION":"Region XIII (Caraga)","id":"barangay-1600307006","name":"Poblacion","barangayCode":"1600307006","population":null,"formattedPop":null,"densityCategory":"No data","vulnerabilityRating":"No data","healthRiskLevel":"No data","areaKm2":6.585517,"centerLat":8.384035,"centerLng":126.002728,"geometrySource":"barangays.geojson simplified fallback","geometryMatchMethod":"simplified_fallback","boundaryPointCount":6},"geometry":{"type":"Polygon","coordinates":[[[126.003204,8.401589],[126.0162347910001,8.378012062000039],[126.02350707500011,8.378542534000076],[125.99280103100011,8.368918120000046],[125.99280537700008,8.397612479000031],[126.003204,8.401589]]]}},{"type":"Feature","properties":{"ID_0":177,"ISO":"PHL","NAME_0":"Philippines","ID_1":16003,"NAME_1":"Agusan del Sur","ID_2":1600307,"NAME_2":"Rosario","ID_3":1600307007,"NAME_3":"Santa Cruz","NL_NAME_3":null,"VARNAME_3":null,"TYPE_3":"Barangay","ENGTYPE_3":"Village","PROVINCE":"Agusan del Sur","REGION":"Region XIII (Caraga)","id":"barangay-1600307007","name":"Santa Cruz","barangayCode":"1600307007","population":null,"formattedPop":null,"densityCategory":"No data","vulnerabilityRating":"No data","healthRiskLevel":"No data","areaKm2":53.625839,"centerLat":8.348464,"centerLng":126.061606,"geometrySource":"barangays.geojson simplified fallback","geometryMatchMethod":"simplified_fallback","boundaryPointCount":8},"geometry":{"type":"Polygon","coordinates":[[[126.02972282500002,8.383056831000033],[126.03340496700002,8.362789866000071],[126.09127042300008,8.369735922000075],[126.12677913400012,8.340827607000051],[126.12482541400004,8.323033751000025],[126.00091009100004,8.332644706000053],[126.00346956700002,8.36942928600007],[126.02972282500002,8.383056831000033]]]}},{"type":"Feature","properties":{"ID_0":177,"ISO":"PHL","NAME_0":"Philippines","ID_1":16003,"NAME_1":"Agusan del Sur","ID_2":1600307,"NAME_2":"Rosario","ID_3":1600307008,"NAME_3":"Tagbayagan","NL_NAME_3":null,"VARNAME_3":null,"TYPE_3":"Barangay","ENGTYPE_3":"Village","PROVINCE":"Agusan del Sur","REGION":"Region XIII (Caraga)","id":"barangay-1600307008","name":"Tagbayagan","barangayCode":"1600307008","population":null,"formattedPop":null,"densityCategory":"No data","vulnerabilityRating":"No data","healthRiskLevel":"No data","areaKm2":18.039432,"centerLat":8.373412,"centerLng":125.970293,"geometrySource":"all_barangay-2.csv detailed WKT","geometryMatchMethod":"unique_official_admin_names","boundaryPointCount":27},"geometry":{"type":"MultiPolygon","coordinates":[[[[125.985558,8.39379],[125.986702,8.38292],[125.997833,8.37107],[125.967743,8.36176],[125.965927,8.3608],[125.96344,8.3603],[125.96273,8.36001],[125.960854,8.35774],[125.959999,8.35677],[125.958687,8.35571],[125.955177,8.36912],[125.96328,8.37219],[125.958893,8.38678],[125.959396,8.38741],[125.961143,8.38827],[125.962341,8.38866],[125.963219,8.38865],[125.965523,8.38925],[125.966263,8.38981],[125.968117,8.3907],[125.970261,8.39148],[125.971497,8.39122],[125.97377,8.3908],[125.97506,8.3913],[125.976334,8.39179],[125.977623,8.39158],[125.985558,8.39379]]]]}},{"type":"Feature","properties":{"ID_0":177,"ISO":"PHL","NAME_0":"Philippines","ID_1":16003,"NAME_1":"Agusan del Sur","ID_2":1600307,"NAME_2":"Rosario","ID_3":1600307009,"NAME_3":"Wasi-an","NL_NAME_3":null,"VARNAME_3":null,"TYPE_3":"Barangay","ENGTYPE_3":"Village","PROVINCE":"Agusan del Sur","REGION":"Region XIII (Caraga)","id":"barangay-1600307009","name":"Wasi-an","barangayCode":"1600307009","population":null,"formattedPop":null,"densityCategory":"No data","vulnerabilityRating":"No data","healthRiskLevel":"No data","areaKm2":81.573032,"centerLat":8.311727,"centerLng":126.043769,"geometrySource":"all_barangay-2.csv detailed WKT","geometryMatchMethod":"unique_official_admin_names","boundaryPointCount":83},"geometry":{"type":"MultiPolygon","coordinates":[[[[126.01004,8.3385],[126.010948,8.33864],[126.011513,8.33933],[126.012016,8.33951],[126.012604,8.33993],[126.012901,8.33984],[126.013618,8.33965],[126.013969,8.33931],[126.014236,8.33901],[126.014954,8.3394],[126.015556,8.33977],[126.015953,8.33968],[126.016708,8.33902],[126.044937,8.33892],[126.045547,8.33897],[126.077461,8.2905],[126.044983,8.29128],[126.043663,8.2934],[126.03875,8.30016],[126.037697,8.3005],[126.036797,8.30115],[126.035713,8.30162],[126.03492,8.30194],[126.032806,8.30375],[126.032753,8.30389],[126.032539,8.30428],[126.032051,8.3055],[126.032158,8.30653],[126.032272,8.30768],[126.031357,8.30807],[126.030853,8.30829],[126.030388,8.3085],[126.030029,8.30887],[126.029671,8.30924],[126.028,8.31073],[126.027672,8.31088],[126.027252,8.31107],[126.025787,8.31247],[126.025673,8.31253],[126.025307,8.31274],[126.024612,8.31265],[126.024231,8.31238],[126.023872,8.31212],[126.023628,8.31218],[126.023239,8.31228],[126.022888,8.31294],[126.022011,8.31418],[126.021889,8.31451],[126.021713,8.31498],[126.021553,8.31542],[126.021446,8.31575],[126.021347,8.31606],[126.020927,8.3165],[126.020523,8.31693],[126.019569,8.31744],[126.019279,8.3176],[126.019218,8.31791],[126.019142,8.31833],[126.018379,8.31877],[126.017563,8.31784],[126.017151,8.31793],[126.016693,8.31803],[126.016533,8.31802],[126.016243,8.318],[126.015747,8.31798],[126.014961,8.31876],[126.014374,8.31893],[126.01371,8.31912],[126.013412,8.3191],[126.013107,8.31907],[126.012871,8.31903],[126.01255,8.31898],[126.011383,8.3185],[126.011139,8.31877],[126.010887,8.31905],[126.009987,8.31932],[126.009232,8.3215],[126.008347,8.32331],[126.008247,8.32639],[126.008247,8.32965],[126.008591,8.33264],[126.009567,8.33556],[126.01004,8.3385]]]]}},{"type":"Feature","properties":{"ID_0":177,"ISO":"PHL","NAME_0":"Philippines","ID_1":16003,"NAME_1":"Agusan del Sur","ID_2":1600307,"NAME_2":"Rosario","ID_3":1600307010,"NAME_3":"Libuac","NL_NAME_3":null,"VARNAME_3":null,"TYPE_3":"Barangay","ENGTYPE_3":"Village","PROVINCE":"Agusan del Sur","REGION":"Region XIII (Caraga)","id":"barangay-1600307010","name":"Libuac","barangayCode":"1600307010","population":null,"formattedPop":null,"densityCategory":"No data","vulnerabilityRating":"No data","healthRiskLevel":"No data","areaKm2":4.662831,"centerLat":8.392655,"centerLng":126.014971,"geometrySource":"all_barangay-2.csv detailed WKT","geometryMatchMethod":"unique_official_admin_names","boundaryPointCount":24},"geometry":{"type":"MultiPolygon","coordinates":[[[[126.016731,8.40502],[126.019989,8.39226],[126.019569,8.39189],[126.018463,8.39158],[126.017769,8.39119],[126.017601,8.38995],[126.017723,8.38894],[126.01609,8.38591],[126.01461,8.38441],[126.012253,8.38107],[126.011559,8.37992],[126.005531,8.39998],[126.004951,8.40124],[126.004784,8.40318],[126.006577,8.40393],[126.007439,8.40512],[126.009308,8.40536],[126.010063,8.40518],[126.011887,8.40468],[126.01339,8.40457],[126.01432,8.4051],[126.015022,8.40577],[126.015717,8.40561],[126.016731,8.40502]]]]}},{"type":"Feature","properties":{"ID_0":177,"ISO":"PHL","NAME_0":"Philippines","ID_1":16003,"NAME_1":"Agusan del Sur","ID_2":1600307,"NAME_2":"Rosario","ID_3":1600307011,"NAME_3":"Maligaya","NL_NAME_3":null,"VARNAME_3":null,"TYPE_3":"Barangay","ENGTYPE_3":"Village","PROVINCE":"Agusan del Sur","REGION":"Region XIII (Caraga)","id":"barangay-1600307011","name":"Maligaya","barangayCode":"1600307011","population":null,"formattedPop":null,"densityCategory":"No data","vulnerabilityRating":"No data","healthRiskLevel":"No data","areaKm2":17.077817,"centerLat":8.425925,"centerLng":126.036848,"geometrySource":"barangays.geojson simplified fallback","geometryMatchMethod":"simplified_fallback","boundaryPointCount":11},"geometry":{"type":"Polygon","coordinates":[[[126.0739043750001,8.444657716000052],[126.06389470500005,8.429067687000042],[126.06883513700006,8.425676327000076],[126.03870692200007,8.413552795000044],[126.02262473100006,8.415648057000055],[126.0167485830001,8.404822798000055],[125.99385060300006,8.400140558000032],[126.00127603100009,8.405892661000053],[126.00136876800002,8.421362843000054],[126.0550898780001,8.447828533000063],[126.0739043750001,8.444657716000052]]]}}]}
