{"type":"FeatureCollection","features":[{"type":"Feature","properties":{"ID_0":177,"ISO":"PHL","NAME_0":"Philippines","ID_1":9083,"NAME_1":"Zamboanga Sibugay","ID_2":908305,"NAME_2":"Ipil (Capital)","ID_3":908305001,"NAME_3":"Bacalan","NL_NAME_3":null,"VARNAME_3":null,"TYPE_3":"Barangay","ENGTYPE_3":"Village","PROVINCE":"Zamboanga Sibugay","REGION":"Region IX (Zamboanga Peninsula)","id":"barangay-0908305001","name":"Bacalan","barangayCode":"0908305001","population":null,"formattedPop":null,"densityCategory":"No data","vulnerabilityRating":"No data","healthRiskLevel":"No data","areaKm2":5.710705,"centerLat":7.829367,"centerLng":122.64367,"geometrySource":"all_barangay-2.csv detailed WKT","geometryMatchMethod":"psgc_coordinate_bridge","boundaryPointCount":56},"geometry":{"type":"MultiPolygon","coordinates":[[[[122.614723,7.82606],[122.619034,7.82767],[122.619957,7.82737],[122.621674,7.82806],[122.622513,7.82666],[122.62294,7.82624],[122.626717,7.82473],[122.633423,7.82398],[122.640892,7.82424],[122.647591,7.82586],[122.652313,7.82717],[122.657387,7.82802],[122.659668,7.82823],[122.660316,7.82684],[122.660156,7.82501],[122.661263,7.82317],[122.661591,7.81987],[122.661369,7.81608],[122.660973,7.81419],[122.659393,7.81329],[122.655617,7.81331],[122.652527,7.812],[122.65065,7.81071],[122.64798,7.8096],[122.646294,7.80856],[122.644913,7.80736],[122.64415,7.80625],[122.644669,7.8041],[122.644531,7.80206],[122.64257,7.80106],[122.641586,7.80129],[122.639221,7.80198],[122.63591,7.80379],[122.634163,7.80496],[122.632629,7.80826],[122.623642,7.80564],[122.619232,7.80379],[122.618202,7.80412],[122.617462,7.80451],[122.616074,7.80398],[122.615028,7.80352],[122.612907,7.8045],[122.612572,7.80684],[122.612,7.80769],[122.61187,7.80864],[122.612343,7.8104],[122.612877,7.81324],[122.612457,7.81402],[122.61116,7.81601],[122.611099,7.81744],[122.611557,7.81872],[122.61274,7.82012],[122.613983,7.82146],[122.614677,7.82244],[122.614853,7.82342],[122.614723,7.82606]]]]}},{"type":"Feature","properties":{"ID_0":177,"ISO":"PHL","NAME_0":"Philippines","ID_1":9083,"NAME_1":"Zamboanga Sibugay","ID_2":908305,"NAME_2":"Ipil (Capital)","ID_3":908305002,"NAME_3":"Bangkerohan","NL_NAME_3":null,"VARNAME_3":null,"TYPE_3":"Barangay","ENGTYPE_3":"Village","PROVINCE":"Zamboanga Sibugay","REGION":"Region IX (Zamboanga Peninsula)","id":"barangay-0908305002","name":"Bangkerohan","barangayCode":"0908305002","population":null,"formattedPop":null,"densityCategory":"No data","vulnerabilityRating":"No data","healthRiskLevel":"No data","areaKm2":2.394064,"centerLat":7.767311,"centerLng":122.594238,"geometrySource":"all_barangay-2.csv detailed WKT","geometryMatchMethod":"psgc_coordinate_bridge","boundaryPointCount":40},"geometry":{"type":"MultiPolygon","coordinates":[[[[122.592773,7.77067],[122.593277,7.76943],[122.593658,7.76829],[122.594627,7.7677],[122.59565,7.76754],[122.597267,7.76731],[122.597954,7.76728],[122.599098,7.76875],[122.602013,7.7677],[122.603203,7.76699],[122.604263,7.76637],[122.605721,7.76575],[122.606499,7.76575],[122.607246,7.76582],[122.608139,7.76521],[122.607803,7.7648],[122.607193,7.7643],[122.606522,7.76382],[122.606117,7.76332],[122.606033,7.7625],[122.60659,7.76197],[122.607948,7.76155],[122.603867,7.7598],[122.601868,7.75962],[122.598686,7.75911],[122.594749,7.75955],[122.592041,7.7603],[122.590027,7.76128],[122.589218,7.76196],[122.5877,7.7625],[122.58696,7.76363],[122.586327,7.76476],[122.586838,7.76698],[122.588333,7.76714],[122.588791,7.76734],[122.589401,7.76799],[122.590141,7.7693],[122.590721,7.77005],[122.59166,7.77077],[122.592773,7.77067]]]]}},{"type":"Feature","properties":{"ID_0":177,"ISO":"PHL","NAME_0":"Philippines","ID_1":9083,"NAME_1":"Zamboanga Sibugay","ID_2":908305,"NAME_2":"Ipil (Capital)","ID_3":908305003,"NAME_3":"Bulu-an","NL_NAME_3":null,"VARNAME_3":null,"TYPE_3":"Barangay","ENGTYPE_3":"Village","PROVINCE":"Zamboanga Sibugay","REGION":"Region IX (Zamboanga Peninsula)","id":"barangay-0908305003","name":"Bulu-an","barangayCode":"0908305003","population":null,"formattedPop":null,"densityCategory":"No data","vulnerabilityRating":"No data","healthRiskLevel":"No data","areaKm2":7.596842,"centerLat":7.709451,"centerLng":122.521302,"geometrySource":"all_barangay-2.csv detailed WKT","geometryMatchMethod":"psgc_coordinate_bridge","boundaryPointCount":108},"geometry":{"type":"MultiPolygon","coordinates":[[[[122.522133,7.72775],[122.524467,7.72831],[122.52578,7.7294],[122.527023,7.73023],[122.528877,7.73134],[122.531837,7.73221],[122.534363,7.73193],[122.537872,7.73048],[122.539124,7.72959],[122.541969,7.72894],[122.544273,7.72899],[122.544434,7.72918],[122.544441,7.72833],[122.544167,7.72806],[122.544167,7.72722],[122.543892,7.72694],[122.543892,7.72667],[122.54361,7.72639],[122.54361,7.72583],[122.543037,7.72528],[122.543053,7.72472],[122.542778,7.72444],[122.542778,7.72389],[122.542503,7.72361],[122.542503,7.72306],[122.541107,7.72167],[122.541107,7.72111],[122.540833,7.72083],[122.540833,7.72056],[122.539719,7.71944],[122.539436,7.71944],[122.5392,7.7192],[122.538887,7.71889],[122.538849,7.71889],[122.538612,7.71889],[122.538437,7.7188],[122.538193,7.71867],[122.537727,7.71858],[122.537323,7.71845],[122.537292,7.7184],[122.537109,7.71826],[122.536957,7.71807],[122.536797,7.71781],[122.536613,7.71744],[122.536377,7.717],[122.536148,7.71652],[122.536003,7.71599],[122.535957,7.71567],[122.535927,7.71548],[122.535713,7.71511],[122.535683,7.71506],[122.535423,7.71473],[122.53524,7.71445],[122.535103,7.71423],[122.535027,7.71401],[122.535057,7.71376],[122.535004,7.71333],[122.535278,7.71333],[122.535347,7.71326],[122.535553,7.71306],[122.535553,7.71222],[122.535843,7.71194],[122.535004,7.71111],[122.534721,7.71111],[122.534157,7.71056],[122.53389,7.71056],[122.533333,7.70999],[122.533234,7.70986],[122.533386,7.70945],[122.533501,7.70917],[122.533607,7.70889],[122.534157,7.70833],[122.534157,7.70722],[122.53389,7.70694],[122.53389,7.70639],[122.533607,7.70611],[122.533607,7.70583],[122.533333,7.70556],[122.533333,7.70528],[122.533058,7.705],[122.533058,7.70472],[122.532784,7.70444],[122.532784,7.70417],[122.532501,7.70389],[122.532219,7.70389],[122.531387,7.70306],[122.531113,7.70306],[122.53083,7.70278],[122.530663,7.70278],[122.530563,7.70278],[122.529999,7.70222],[122.529716,7.70222],[122.529442,7.70194],[122.528053,7.70194],[122.527779,7.70167],[122.527222,7.70167],[122.526947,7.70194],[122.524452,7.70194],[122.524109,7.70284],[122.52179,7.70329],[122.512947,7.71118],[122.509689,7.71771],[122.520416,7.72454],[122.520447,7.72527],[122.5205,7.72636],[122.521141,7.7272],[122.521744,7.72758],[122.522133,7.72775]]]]}},{"type":"Feature","properties":{"ID_0":177,"ISO":"PHL","NAME_0":"Philippines","ID_1":9083,"NAME_1":"Zamboanga Sibugay","ID_2":908305,"NAME_2":"Ipil (Capital)","ID_3":908305006,"NAME_3":"Don Andres","NL_NAME_3":null,"VARNAME_3":null,"TYPE_3":"Barangay","ENGTYPE_3":"Village","PROVINCE":"Zamboanga Sibugay","REGION":"Region IX (Zamboanga Peninsula)","id":"barangay-0908305006","name":"Don Andres","barangayCode":"0908305006","population":null,"formattedPop":null,"densityCategory":"No data","vulnerabilityRating":"No data","healthRiskLevel":"No data","areaKm2":3.414918,"centerLat":7.764552,"centerLng":122.574872,"geometrySource":"all_barangay-2.csv detailed WKT","geometryMatchMethod":"psgc_coordinate_bridge","boundaryPointCount":45},"geometry":{"type":"MultiPolygon","coordinates":[[[[122.579109,7.77362],[122.581291,7.77075],[122.58226,7.76935],[122.584137,7.76808],[122.586838,7.76698],[122.586327,7.76476],[122.583961,7.76343],[122.581383,7.7616],[122.579918,7.76037],[122.577751,7.75809],[122.575508,7.75587],[122.5728,7.753],[122.572189,7.75228],[122.571297,7.75095],[122.57058,7.74987],[122.569641,7.74944],[122.568336,7.74976],[122.567863,7.74966],[122.567719,7.74832],[122.569252,7.74673],[122.568977,7.74657],[122.568611,7.74694],[122.56778,7.74694],[122.567101,7.74627],[122.565598,7.74711],[122.565193,7.74909],[122.56546,7.7502],[122.565666,7.75169],[122.56562,7.75283],[122.564827,7.75416],[122.563293,7.75576],[122.561707,7.75674],[122.561203,7.75865],[122.56134,7.76118],[122.561127,7.76335],[122.560707,7.76523],[122.564407,7.76707],[122.566948,7.76852],[122.569221,7.76959],[122.571404,7.77042],[122.572868,7.77062],[122.57457,7.77034],[122.576019,7.77046],[122.577797,7.77221],[122.579109,7.77362]]]]}},{"type":"Feature","properties":{"ID_0":177,"ISO":"PHL","NAME_0":"Philippines","ID_1":9083,"NAME_1":"Zamboanga Sibugay","ID_2":908305,"NAME_2":"Ipil (Capital)","ID_3":908305008,"NAME_3":"Guituan","NL_NAME_3":null,"VARNAME_3":null,"TYPE_3":"Barangay","ENGTYPE_3":"Village","PROVINCE":"Zamboanga Sibugay","REGION":"Region IX (Zamboanga Peninsula)","id":"barangay-0908305008","name":"Guituan","barangayCode":"0908305008","population":null,"formattedPop":null,"densityCategory":"No data","vulnerabilityRating":"No data","healthRiskLevel":"No data","areaKm2":8.981609,"centerLat":7.822664,"centerLng":122.603709,"geometrySource":"all_barangay-2.csv detailed WKT","geometryMatchMethod":"psgc_coordinate_bridge","boundaryPointCount":42},"geometry":{"type":"MultiPolygon","coordinates":[[[[122.596863,7.83108],[122.598763,7.82853],[122.599792,7.82863],[122.601501,7.82749],[122.602226,7.82691],[122.602913,7.82652],[122.603706,7.82636],[122.604736,7.82633],[122.605812,7.82558],[122.606323,7.82434],[122.60598,7.82271],[122.605148,7.82157],[122.603813,7.82029],[122.602943,7.81967],[122.601059,7.81869],[122.600189,7.818],[122.598846,7.81568],[122.597923,7.81333],[122.597443,7.81124],[122.597443,7.80866],[122.596672,7.80572],[122.596413,7.80366],[122.596642,7.8032],[122.597183,7.80311],[122.598488,7.80302],[122.598991,7.8025],[122.598984,7.8008],[122.598686,7.79776],[122.597977,7.797],[122.597008,7.79674],[122.596207,7.79693],[122.59507,7.79719],[122.594299,7.79644],[122.593529,7.7948],[122.583382,7.79666],[122.575867,7.8127],[122.574837,7.81452],[122.574203,7.81573],[122.570427,7.81985],[122.582916,7.8256],[122.590553,7.82854],[122.596863,7.83108]]]]}},{"type":"Feature","properties":{"ID_0":177,"ISO":"PHL","NAME_0":"Philippines","ID_1":9083,"NAME_1":"Zamboanga Sibugay","ID_2":908305,"NAME_2":"Ipil (Capital)","ID_3":908305009,"NAME_3":"Ipil Heights","NL_NAME_3":null,"VARNAME_3":null,"TYPE_3":"Barangay","ENGTYPE_3":"Village","PROVINCE":"Zamboanga Sibugay","REGION":"Region IX (Zamboanga Peninsula)","id":"barangay-0908305009","name":"Ipil Heights","barangayCode":"0908305009","population":null,"formattedPop":null,"densityCategory":"No data","vulnerabilityRating":"No data","healthRiskLevel":"No data","areaKm2":1.773761,"centerLat":7.789145,"centerLng":122.574925,"geometrySource":"all_barangay-2.csv detailed WKT","geometryMatchMethod":"psgc_coordinate_bridge","boundaryPointCount":22},"geometry":{"type":"MultiPolygon","coordinates":[[[[122.555023,7.78616],[122.558197,7.7874],[122.560242,7.78902],[122.56134,7.78933],[122.562599,7.78977],[122.564056,7.78802],[122.565582,7.78676],[122.566711,7.78668],[122.568771,7.78725],[122.570038,7.78726],[122.57193,7.78676],[122.573433,7.78572],[122.577454,7.78202],[122.57946,7.78123],[122.581467,7.78029],[122.577202,7.7771],[122.574623,7.77572],[122.572571,7.77426],[122.568977,7.77486],[122.566498,7.77565],[122.559921,7.7818],[122.555023,7.78616]]]]}},{"type":"Feature","properties":{"ID_0":177,"ISO":"PHL","NAME_0":"Philippines","ID_1":9083,"NAME_1":"Zamboanga Sibugay","ID_2":908305,"NAME_2":"Ipil (Capital)","ID_3":908305012,"NAME_3":"Labi","NL_NAME_3":null,"VARNAME_3":null,"TYPE_3":"Barangay","ENGTYPE_3":"Village","PROVINCE":"Zamboanga Sibugay","REGION":"Region IX (Zamboanga Peninsula)","id":"barangay-0908305012","name":"Labi","barangayCode":"0908305012","population":null,"formattedPop":null,"densityCategory":"No data","vulnerabilityRating":"No data","healthRiskLevel":"No data","areaKm2":4.054727,"centerLat":7.760832,"centerLng":122.532399,"geometrySource":"all_barangay-2.csv detailed WKT","geometryMatchMethod":"psgc_coordinate_bridge","boundaryPointCount":46},"geometry":{"type":"MultiPolygon","coordinates":[[[[122.521721,7.77795],[122.521606,7.77658],[122.520844,7.77565],[122.520378,7.77434],[122.520844,7.77398],[122.521744,7.77327],[122.522591,7.77217],[122.52372,7.77006],[122.528008,7.77012],[122.528709,7.76919],[122.52877,7.76827],[122.528969,7.76756],[122.529694,7.76688],[122.530724,7.76637],[122.531464,7.76641],[122.53196,7.76737],[122.532692,7.76862],[122.534019,7.76936],[122.535057,7.77107],[122.536087,7.77066],[122.536583,7.76773],[122.536987,7.76506],[122.537033,7.76369],[122.537819,7.7621],[122.538872,7.75996],[122.540352,7.75854],[122.540512,7.75688],[122.538406,7.75541],[122.534416,7.75221],[122.530968,7.74872],[122.531029,7.75039],[122.530777,7.75241],[122.53054,7.75391],[122.529747,7.75451],[122.528877,7.75471],[122.527489,7.75527],[122.526176,7.75644],[122.524353,7.75784],[122.523163,7.75869],[122.521751,7.76013],[122.520653,7.76186],[122.519234,7.76487],[122.518387,7.76672],[122.517906,7.76844],[122.515953,7.7732],[122.521721,7.77795]]]]}},{"type":"Feature","properties":{"ID_0":177,"ISO":"PHL","NAME_0":"Philippines","ID_1":9083,"NAME_1":"Zamboanga Sibugay","ID_2":908305,"NAME_2":"Ipil (Capital)","ID_3":908305013,"NAME_3":"Lower Ipil Heights","NL_NAME_3":null,"VARNAME_3":null,"TYPE_3":"Barangay","ENGTYPE_3":"Village","PROVINCE":"Zamboanga Sibugay","REGION":"Region IX (Zamboanga Peninsula)","id":"barangay-0908305013","name":"Lower Ipil Heights","barangayCode":"0908305013","population":null,"formattedPop":null,"densityCategory":"No data","vulnerabilityRating":"No data","healthRiskLevel":"No data","areaKm2":0.379932,"centerLat":7.789741,"centerLng":122.582715,"geometrySource":"all_barangay-2.csv detailed WKT","geometryMatchMethod":"psgc_coordinate_bridge","boundaryPointCount":23},"geometry":{"type":"MultiPolygon","coordinates":[[[[122.566628,7.79039],[122.569649,7.78938],[122.573441,7.78843],[122.580208,7.78626],[122.581383,7.78584],[122.583092,7.78509],[122.583893,7.78415],[122.584831,7.78252],[122.58577,7.78098],[122.581467,7.78029],[122.57946,7.78123],[122.577454,7.78202],[122.573433,7.78572],[122.57193,7.78676],[122.570038,7.78726],[122.568771,7.78725],[122.566711,7.78668],[122.565582,7.78676],[122.564056,7.78802],[122.562599,7.78977],[122.565002,7.79208],[122.565773,7.79117],[122.566628,7.79039]]]]}},{"type":"Feature","properties":{"ID_0":177,"ISO":"PHL","NAME_0":"Philippines","ID_1":9083,"NAME_1":"Zamboanga Sibugay","ID_2":908305,"NAME_2":"Ipil (Capital)","ID_3":908305015,"NAME_3":"Lower Taway","NL_NAME_3":null,"VARNAME_3":null,"TYPE_3":"Barangay","ENGTYPE_3":"Village","PROVINCE":"Zamboanga Sibugay","REGION":"Region IX (Zamboanga Peninsula)","id":"barangay-0908305015","name":"Lower Taway","barangayCode":"0908305015","population":null,"formattedPop":null,"densityCategory":"No data","vulnerabilityRating":"No data","healthRiskLevel":"No data","areaKm2":0.591902,"centerLat":7.790182,"centerLng":122.588258,"geometrySource":"all_barangay-2.csv detailed WKT","geometryMatchMethod":"psgc_coordinate_bridge","boundaryPointCount":28},"geometry":{"type":"MultiPolygon","coordinates":[[[[122.593529,7.7948],[122.593193,7.79437],[122.593491,7.79356],[122.593323,7.79245],[122.592506,7.79117],[122.591782,7.78996],[122.591377,7.78832],[122.591537,7.78652],[122.593529,7.78303],[122.58577,7.78098],[122.584831,7.78252],[122.583893,7.78415],[122.583092,7.78509],[122.581383,7.78584],[122.580208,7.78626],[122.573441,7.78843],[122.569649,7.78938],[122.566628,7.79039],[122.567863,7.79194],[122.569458,7.79329],[122.570663,7.79373],[122.57312,7.79401],[122.576477,7.79384],[122.578293,7.79415],[122.580368,7.79478],[122.58197,7.79547],[122.583382,7.79666],[122.593529,7.7948]]]]}},{"type":"Feature","properties":{"ID_0":177,"ISO":"PHL","NAME_0":"Philippines","ID_1":9083,"NAME_1":"Zamboanga Sibugay","ID_2":908305,"NAME_2":"Ipil (Capital)","ID_3":908305016,"NAME_3":"Lumbia","NL_NAME_3":null,"VARNAME_3":null,"TYPE_3":"Barangay","ENGTYPE_3":"Village","PROVINCE":"Zamboanga Sibugay","REGION":"Region IX (Zamboanga Peninsula)","id":"barangay-0908305016","name":"Lumbia","barangayCode":"0908305016","population":null,"formattedPop":null,"densityCategory":"No data","vulnerabilityRating":"No data","healthRiskLevel":"No data","areaKm2":4.816296,"centerLat":7.795175,"centerLng":122.55137,"geometrySource":"all_barangay-2.csv detailed WKT","geometryMatchMethod":"psgc_coordinate_bridge","boundaryPointCount":28},"geometry":{"type":"MultiPolygon","coordinates":[[[[122.538963,7.77528],[122.540199,7.778],[122.541832,7.77956],[122.543159,7.78059],[122.543999,7.78129],[122.545174,7.78323],[122.546257,7.78102],[122.546288,7.78096],[122.547791,7.78098],[122.54895,7.78066],[122.549873,7.77943],[122.55024,7.77856],[122.550438,7.77657],[122.550331,7.77533],[122.550262,7.77457],[122.55085,7.77383],[122.551453,7.77394],[122.552353,7.77372],[122.553368,7.77233],[122.551163,7.76924],[122.550407,7.76866],[122.5495,7.76798],[122.54734,7.76785],[122.543831,7.76979],[122.542862,7.7703],[122.541481,7.77181],[122.540649,7.77282],[122.538963,7.77528]]]]}},{"type":"Feature","properties":{"ID_0":177,"ISO":"PHL","NAME_0":"Philippines","ID_1":9083,"NAME_1":"Zamboanga Sibugay","ID_2":908305,"NAME_2":"Ipil (Capital)","ID_3":908305018,"NAME_3":"Magdaup","NL_NAME_3":null,"VARNAME_3":null,"TYPE_3":"Barangay","ENGTYPE_3":"Village","PROVINCE":"Zamboanga Sibugay","REGION":"Region IX (Zamboanga Peninsula)","id":"barangay-0908305018","name":"Magdaup","barangayCode":"0908305018","population":null,"formattedPop":null,"densityCategory":"No data","vulnerabilityRating":"No data","healthRiskLevel":"No data","areaKm2":5.804159,"centerLat":7.755186,"centerLng":122.586782,"geometrySource":"all_barangay-2.csv detailed WKT","geometryMatchMethod":"psgc_coordinate_bridge","boundaryPointCount":177},"geometry":{"type":"MultiPolygon","coordinates":[[[[122.610352,7.7627],[122.610832,7.76222],[122.611107,7.76222],[122.611168,7.76216],[122.611351,7.76196],[122.611382,7.76192],[122.611588,7.76185],[122.611771,7.76155],[122.611977,7.76107],[122.612244,7.76051],[122.612297,7.76],[122.61232,7.75989],[122.612068,7.75934],[122.611656,7.759],[122.611153,7.75899],[122.610733,7.75891],[122.610336,7.75886],[122.609947,7.75873],[122.609558,7.75863],[122.609138,7.75855],[122.608772,7.75834],[122.608414,7.75812],[122.608017,7.75792],[122.607567,7.75778],[122.607117,7.75766],[122.606682,7.75748],[122.606277,7.75725],[122.605888,7.75707],[122.605583,7.75682],[122.605347,7.75652],[122.605232,7.75614],[122.605003,7.75579],[122.604752,7.75541],[122.604507,7.75499],[122.60424,7.75455],[122.603928,7.75418],[122.603752,7.75383],[122.603699,7.75373],[122.603569,7.75316],[122.603317,7.75271],[122.603043,7.75233],[122.602722,7.75201],[122.602341,7.75175],[122.601837,7.75165],[122.601799,7.75163],[122.601357,7.75149],[122.600883,7.75138],[122.600441,7.75127],[122.600037,7.75118],[122.599617,7.75124],[122.599228,7.75141],[122.598869,7.7516],[122.598457,7.75166],[122.598053,7.75167],[122.59761,7.75167],[122.597168,7.75167],[122.59671,7.75168],[122.59623,7.75173],[122.595749,7.75188],[122.595207,7.75192],[122.594643,7.75187],[122.594063,7.75171],[122.59346,7.75167],[122.592857,7.75171],[122.592293,7.75185],[122.591759,7.75187],[122.591316,7.75168],[122.590897,7.75147],[122.590469,7.7513],[122.590019,7.7511],[122.589546,7.75086],[122.589012,7.75066],[122.588463,7.75038],[122.587914,7.75004],[122.587311,7.74973],[122.586693,7.74944],[122.586601,7.74939],[122.586082,7.74915],[122.585503,7.74893],[122.585457,7.74898],[122.584892,7.74953],[122.584267,7.7487],[122.584267,7.74807],[122.584412,7.74783],[122.584602,7.7475],[122.584503,7.74715],[122.58445,7.74655],[122.584427,7.74605],[122.584442,7.74583],[122.584442,7.74556],[122.584717,7.74528],[122.584717,7.745],[122.584999,7.74472],[122.584442,7.74417],[122.584167,7.74417],[122.583893,7.74444],[122.583893,7.74472],[122.583611,7.745],[122.583649,7.74552],[122.582977,7.74534],[122.582367,7.74535],[122.581886,7.74553],[122.581459,7.74573],[122.581062,7.7458],[122.580704,7.74576],[122.580421,7.74561],[122.580177,7.74544],[122.580032,7.74519],[122.580002,7.74484],[122.580048,7.74444],[122.580101,7.74431],[122.580208,7.74402],[122.580269,7.74359],[122.580276,7.74317],[122.580276,7.74275],[122.58033,7.74233],[122.580406,7.74192],[122.579964,7.74152],[122.579323,7.74123],[122.579178,7.74127],[122.578773,7.74139],[122.57827,7.74166],[122.577827,7.7419],[122.577728,7.74194],[122.577438,7.74204],[122.577164,7.74219],[122.576912,7.74228],[122.576668,7.7425],[122.576393,7.74278],[122.57618,7.74299],[122.575974,7.74319],[122.575546,7.74306],[122.575211,7.74295],[122.575127,7.74293],[122.574951,7.74287],[122.574577,7.74325],[122.574188,7.74358],[122.573807,7.74381],[122.573387,7.74395],[122.57299,7.74412],[122.572617,7.74426],[122.572456,7.74449],[122.571953,7.74472],[122.571388,7.74528],[122.571114,7.74528],[122.570831,7.74556],[122.570557,7.74556],[122.570267,7.74583],[122.569717,7.74583],[122.569557,7.746],[122.568977,7.74657],[122.569252,7.74673],[122.567719,7.74832],[122.567863,7.74966],[122.568336,7.74976],[122.569641,7.74944],[122.57058,7.74987],[122.571297,7.75095],[122.572189,7.75228],[122.5728,7.753],[122.575508,7.75587],[122.577751,7.75809],[122.579918,7.76037],[122.581383,7.7616],[122.583961,7.76343],[122.586327,7.76476],[122.58696,7.76363],[122.5877,7.7625],[122.589218,7.76196],[122.590027,7.76128],[122.592041,7.7603],[122.594749,7.75955],[122.598686,7.75911],[122.601868,7.75962],[122.603867,7.7598],[122.607948,7.76155],[122.610352,7.7627]]]]}},{"type":"Feature","properties":{"ID_0":177,"ISO":"PHL","NAME_0":"Philippines","ID_1":9083,"NAME_1":"Zamboanga Sibugay","ID_2":908305,"NAME_2":"Ipil (Capital)","ID_3":908305022,"NAME_3":"Pangi","NL_NAME_3":null,"VARNAME_3":null,"TYPE_3":"Barangay","ENGTYPE_3":"Village","PROVINCE":"Zamboanga Sibugay","REGION":"Region IX (Zamboanga Peninsula)","id":"barangay-0908305022","name":"Pangi","barangayCode":"0908305022","population":null,"formattedPop":null,"densityCategory":"No data","vulnerabilityRating":"No data","healthRiskLevel":"No data","areaKm2":5.75551,"centerLat":7.794253,"centerLng":122.6171,"geometrySource":"all_barangay-2.csv detailed WKT","geometryMatchMethod":"psgc_coordinate_bridge","boundaryPointCount":77},"geometry":{"type":"MultiPolygon","coordinates":[[[[122.598686,7.79776],[122.598984,7.8008],[122.598991,7.8025],[122.598488,7.80302],[122.597183,7.80311],[122.596642,7.8032],[122.596413,7.80366],[122.596672,7.80572],[122.597443,7.80866],[122.599358,7.8072],[122.601402,7.80551],[122.603241,7.80512],[122.605782,7.80376],[122.607468,7.80184],[122.6082,7.8005],[122.609993,7.79619],[122.613693,7.78378],[122.618607,7.76955],[122.619972,7.76924],[122.620003,7.76889],[122.620003,7.76884],[122.620003,7.76806],[122.620117,7.76794],[122.620277,7.76778],[122.620277,7.7675],[122.621391,7.76639],[122.621674,7.76639],[122.621948,7.76611],[122.622223,7.76611],[122.623337,7.765],[122.623611,7.765],[122.624168,7.76444],[122.623894,7.76417],[122.624168,7.76389],[122.624168,7.76361],[122.623627,7.76308],[122.623611,7.76278],[122.62278,7.76194],[122.62278,7.76167],[122.622498,7.76139],[122.622498,7.76111],[122.622047,7.76067],[122.621109,7.75972],[122.620827,7.75973],[122.620552,7.75944],[122.620483,7.75944],[122.620277,7.75944],[122.620247,7.75941],[122.620003,7.75917],[122.61972,7.75917],[122.619453,7.75944],[122.619217,7.75944],[122.619164,7.75944],[122.618607,7.76],[122.618607,7.76028],[122.618057,7.76083],[122.618057,7.76111],[122.6175,7.76167],[122.6175,7.76194],[122.617233,7.76222],[122.6175,7.7625],[122.617233,7.76278],[122.617233,7.76378],[122.617233,7.76389],[122.616943,7.76417],[122.616943,7.76472],[122.616669,7.765],[122.616386,7.765],[122.616112,7.76528],[122.614166,7.76528],[122.613892,7.765],[122.613327,7.765],[122.612778,7.76444],[122.612503,7.76444],[122.612221,7.76417],[122.612053,7.76417],[122.598686,7.79776]]]]}},{"type":"Feature","properties":{"ID_0":177,"ISO":"PHL","NAME_0":"Philippines","ID_1":9083,"NAME_1":"Zamboanga Sibugay","ID_2":908305,"NAME_2":"Ipil (Capital)","ID_3":908305023,"NAME_3":"Poblacion","NL_NAME_3":null,"VARNAME_3":null,"TYPE_3":"Barangay","ENGTYPE_3":"Village","PROVINCE":"Zamboanga Sibugay","REGION":"Region IX (Zamboanga Peninsula)","id":"barangay-0908305023","name":"Poblacion","barangayCode":"0908305023","population":null,"formattedPop":null,"densityCategory":"No data","vulnerabilityRating":"No data","healthRiskLevel":"No data","areaKm2":0.628465,"centerLat":7.781793,"centerLng":122.588095,"geometrySource":"all_barangay-2.csv detailed WKT","geometryMatchMethod":"psgc_coordinate_bridge","boundaryPointCount":36},"geometry":{"type":"MultiPolygon","coordinates":[[[[122.58577,7.78098],[122.593529,7.78303],[122.594841,7.78284],[122.59584,7.78294],[122.59597,7.78166],[122.595848,7.78091],[122.595482,7.7792],[122.594612,7.77749],[122.593491,7.77611],[122.592873,7.77505],[122.592758,7.77334],[122.592506,7.7726],[122.592773,7.77067],[122.59166,7.77077],[122.590721,7.77005],[122.590141,7.7693],[122.589401,7.76799],[122.588791,7.76734],[122.588333,7.76714],[122.586838,7.76698],[122.584137,7.76808],[122.58226,7.76935],[122.581291,7.77075],[122.579109,7.77362],[122.580833,7.77506],[122.582108,7.77555],[122.58287,7.77562],[122.583153,7.77546],[122.585228,7.77615],[122.584389,7.77722],[122.583549,7.77761],[122.583076,7.77807],[122.58284,7.77872],[122.581909,7.7796],[122.581467,7.78029],[122.58577,7.78098]]]]}},{"type":"Feature","properties":{"ID_0":177,"ISO":"PHL","NAME_0":"Philippines","ID_1":9083,"NAME_1":"Zamboanga Sibugay","ID_2":908305,"NAME_2":"Ipil (Capital)","ID_3":908305024,"NAME_3":"Sanito","NL_NAME_3":null,"VARNAME_3":null,"TYPE_3":"Barangay","ENGTYPE_3":"Village","PROVINCE":"Zamboanga Sibugay","REGION":"Region IX (Zamboanga Peninsula)","id":"barangay-0908305024","name":"Sanito","barangayCode":"0908305024","population":null,"formattedPop":null,"densityCategory":"No data","vulnerabilityRating":"No data","healthRiskLevel":"No data","areaKm2":9.391175,"centerLat":7.781164,"centerLng":122.604208,"geometrySource":"all_barangay-2.csv detailed WKT","geometryMatchMethod":"psgc_coordinate_bridge","boundaryPointCount":55},"geometry":{"type":"MultiPolygon","coordinates":[[[[122.598686,7.79776],[122.612053,7.76417],[122.611656,7.76417],[122.611389,7.76389],[122.611107,7.76389],[122.610283,7.76306],[122.610283,7.76278],[122.610352,7.7627],[122.607948,7.76155],[122.60659,7.76197],[122.606033,7.7625],[122.606117,7.76332],[122.606522,7.76382],[122.607193,7.7643],[122.607803,7.7648],[122.608139,7.76521],[122.607246,7.76582],[122.606499,7.76575],[122.605721,7.76575],[122.604263,7.76637],[122.603203,7.76699],[122.602013,7.7677],[122.599098,7.76875],[122.597954,7.76728],[122.597267,7.76731],[122.59565,7.76754],[122.594627,7.7677],[122.593658,7.76829],[122.593277,7.76943],[122.592773,7.77067],[122.592506,7.7726],[122.592758,7.77334],[122.592873,7.77505],[122.593491,7.77611],[122.594612,7.77749],[122.595482,7.7792],[122.595848,7.78091],[122.59597,7.78166],[122.59584,7.78294],[122.594841,7.78284],[122.593529,7.78303],[122.591537,7.78652],[122.591377,7.78832],[122.591782,7.78996],[122.592506,7.79117],[122.593323,7.79245],[122.593491,7.79356],[122.593193,7.79437],[122.593529,7.7948],[122.594299,7.79644],[122.59507,7.79719],[122.596207,7.79693],[122.597008,7.79674],[122.597977,7.797],[122.598686,7.79776]]]]}},{"type":"Feature","properties":{"ID_0":177,"ISO":"PHL","NAME_0":"Philippines","ID_1":9083,"NAME_1":"Zamboanga Sibugay","ID_2":908305,"NAME_2":"Ipil (Capital)","ID_3":908305027,"NAME_3":"Suclema","NL_NAME_3":null,"VARNAME_3":null,"TYPE_3":"Barangay","ENGTYPE_3":"Village","PROVINCE":"Zamboanga Sibugay","REGION":"Region IX (Zamboanga Peninsula)","id":"barangay-0908305027","name":"Suclema","barangayCode":"0908305027","population":null,"formattedPop":null,"densityCategory":"No data","vulnerabilityRating":"No data","healthRiskLevel":"No data","areaKm2":4.258789,"centerLat":7.806878,"centerLng":122.566919,"geometrySource":"all_barangay-2.csv detailed WKT","geometryMatchMethod":"psgc_coordinate_bridge","boundaryPointCount":17},"geometry":{"type":"MultiPolygon","coordinates":[[[[122.550827,7.80186],[122.555893,7.80625],[122.556328,7.80584],[122.55835,7.80396],[122.559349,7.80201],[122.560638,7.79984],[122.562263,7.7976],[122.563454,7.79523],[122.564583,7.79309],[122.565002,7.79208],[122.562599,7.78977],[122.56134,7.78933],[122.560242,7.78902],[122.558197,7.7874],[122.555023,7.78616],[122.543953,7.79712],[122.550827,7.80186]]]]}},{"type":"Feature","properties":{"ID_0":177,"ISO":"PHL","NAME_0":"Philippines","ID_1":9083,"NAME_1":"Zamboanga Sibugay","ID_2":908305,"NAME_2":"Ipil (Capital)","ID_3":908305029,"NAME_3":"Taway","NL_NAME_3":null,"VARNAME_3":null,"TYPE_3":"Barangay","ENGTYPE_3":"Village","PROVINCE":"Zamboanga Sibugay","REGION":"Region IX (Zamboanga Peninsula)","id":"barangay-0908305029","name":"Taway","barangayCode":"0908305029","population":null,"formattedPop":null,"densityCategory":"No data","vulnerabilityRating":"No data","healthRiskLevel":"No data","areaKm2":7.380991,"centerLat":7.809119,"centerLng":122.585133,"geometrySource":"all_barangay-2.csv detailed WKT","geometryMatchMethod":"psgc_coordinate_bridge","boundaryPointCount":26},"geometry":{"type":"MultiPolygon","coordinates":[[[[122.570427,7.81985],[122.574203,7.81573],[122.574837,7.81452],[122.575867,7.8127],[122.583382,7.79666],[122.58197,7.79547],[122.580368,7.79478],[122.578293,7.79415],[122.576477,7.79384],[122.57312,7.79401],[122.570663,7.79373],[122.569458,7.79329],[122.567863,7.79194],[122.566628,7.79039],[122.565773,7.79117],[122.565002,7.79208],[122.564583,7.79309],[122.563454,7.79523],[122.562263,7.7976],[122.560638,7.79984],[122.559349,7.80201],[122.55835,7.80396],[122.556328,7.80584],[122.555893,7.80625],[122.564484,7.81414],[122.570427,7.81985]]]]}},{"type":"Feature","properties":{"ID_0":177,"ISO":"PHL","NAME_0":"Philippines","ID_1":9083,"NAME_1":"Zamboanga Sibugay","ID_2":908305,"NAME_2":"Ipil (Capital)","ID_3":908305030,"NAME_3":"Tenan","NL_NAME_3":null,"VARNAME_3":null,"TYPE_3":"Barangay","ENGTYPE_3":"Village","PROVINCE":"Zamboanga Sibugay","REGION":"Region IX (Zamboanga Peninsula)","id":"barangay-0908305030","name":"Tenan","barangayCode":"0908305030","population":null,"formattedPop":null,"densityCategory":"No data","vulnerabilityRating":"No data","healthRiskLevel":"No data","areaKm2":4.653086,"centerLat":7.814068,"centerLng":122.645168,"geometrySource":"all_barangay-2.csv detailed WKT","geometryMatchMethod":"psgc_coordinate_bridge","boundaryPointCount":81},"geometry":{"type":"MultiPolygon","coordinates":[[[[122.612907,7.8045],[122.615028,7.80352],[122.616074,7.80398],[122.617462,7.80451],[122.618202,7.80412],[122.619232,7.80379],[122.623642,7.80564],[122.632629,7.80826],[122.634163,7.80496],[122.63591,7.80379],[122.639221,7.80198],[122.641586,7.80129],[122.64257,7.80106],[122.641151,7.79982],[122.639526,7.79875],[122.638428,7.79999],[122.637398,7.80083],[122.637169,7.79935],[122.638733,7.7976],[122.640427,7.79546],[122.640717,7.7932],[122.639923,7.79141],[122.637947,7.79328],[122.636864,7.7942],[122.635567,7.79374],[122.635651,7.79181],[122.635887,7.78926],[122.634071,7.78775],[122.632988,7.78616],[122.636009,7.78701],[122.639282,7.78814],[122.639137,7.78578],[122.637337,7.78265],[122.638008,7.7796],[122.637733,7.77814],[122.636612,7.77755],[122.636391,7.77778],[122.636108,7.77778],[122.635834,7.77806],[122.635559,7.77806],[122.635277,7.77833],[122.635002,7.77833],[122.634506,7.77826],[122.634239,7.77819],[122.633888,7.77806],[122.633331,7.7775],[122.6325,7.77667],[122.632217,7.77667],[122.631668,7.77611],[122.631393,7.77611],[122.631111,7.77583],[122.630547,7.77583],[122.63028,7.77556],[122.629997,7.77556],[122.629448,7.775],[122.629173,7.775],[122.628891,7.77472],[122.628609,7.77472],[122.628326,7.77444],[122.628052,7.77444],[122.627777,7.77417],[122.62722,7.77417],[122.626663,7.77472],[122.626389,7.77472],[122.624733,7.77639],[122.624443,7.77611],[122.624443,7.775],[122.624168,7.77472],[122.624168,7.77389],[122.624443,7.77361],[122.624443,7.77278],[122.624733,7.7725],[122.624733,7.77111],[122.623894,7.77028],[122.623741,7.77028],[122.623009,7.77551],[122.620941,7.78459],[122.619186,7.79163],[122.61747,7.79792],[122.612717,7.80012],[122.612907,7.8045]]]]}},{"type":"Feature","properties":{"ID_0":177,"ISO":"PHL","NAME_0":"Philippines","ID_1":9083,"NAME_1":"Zamboanga Sibugay","ID_2":908305,"NAME_2":"Ipil (Capital)","ID_3":908305032,"NAME_3":"Tiayon","NL_NAME_3":null,"VARNAME_3":null,"TYPE_3":"Barangay","ENGTYPE_3":"Village","PROVINCE":"Zamboanga Sibugay","REGION":"Region IX (Zamboanga Peninsula)","id":"barangay-0908305032","name":"Tiayon","barangayCode":"0908305032","population":null,"formattedPop":null,"densityCategory":"No data","vulnerabilityRating":"No data","healthRiskLevel":"No data","areaKm2":8.39243,"centerLat":7.758311,"centerLng":122.553607,"geometrySource":"all_barangay-2.csv detailed WKT","geometryMatchMethod":"psgc_coordinate_bridge","boundaryPointCount":89},"geometry":{"type":"MultiPolygon","coordinates":[[[[122.553368,7.77233],[122.553917,7.77228],[122.554604,7.77222],[122.554993,7.77167],[122.55542,7.77066],[122.55584,7.77024],[122.556381,7.7697],[122.558022,7.76896],[122.558617,7.76869],[122.559677,7.7687],[122.560738,7.76764],[122.560707,7.76523],[122.561127,7.76335],[122.56134,7.76118],[122.561203,7.75865],[122.561707,7.75674],[122.563293,7.75576],[122.564827,7.75416],[122.56562,7.75283],[122.565666,7.75169],[122.56546,7.7502],[122.565193,7.74909],[122.565598,7.74711],[122.567101,7.74627],[122.566391,7.74556],[122.566109,7.74556],[122.56472,7.74472],[122.563889,7.74389],[122.563683,7.74368],[122.563469,7.74285],[122.56356,7.74244],[122.563606,7.74222],[122.563606,7.74],[122.562683,7.73907],[122.5625,7.73889],[122.562233,7.73889],[122.561943,7.73861],[122.560547,7.73861],[122.56028,7.73833],[122.559723,7.73833],[122.559509,7.73812],[122.559448,7.73806],[122.559052,7.73806],[122.558609,7.73806],[122.558327,7.73833],[122.55722,7.73833],[122.556953,7.73861],[122.556107,7.73861],[122.556053,7.73855],[122.555832,7.73833],[122.555557,7.73834],[122.553841,7.73662],[122.553619,7.73734],[122.551758,7.73934],[122.550522,7.73987],[122.549843,7.74016],[122.549797,7.74081],[122.54789,7.74209],[122.547028,7.74291],[122.546951,7.74298],[122.546921,7.74323],[122.54686,7.74369],[122.547096,7.74457],[122.547096,7.74511],[122.547112,7.74574],[122.546883,7.74593],[122.545624,7.7485],[122.545692,7.7486],[122.545792,7.74874],[122.54641,7.74977],[122.546432,7.74981],[122.546928,7.75064],[122.546997,7.75143],[122.547043,7.75188],[122.546806,7.75282],[122.546288,7.75382],[122.545403,7.75465],[122.544548,7.75561],[122.542503,7.75613],[122.540512,7.75688],[122.54277,7.75826],[122.543701,7.75883],[122.545502,7.75993],[122.547241,7.76198],[122.548523,7.76441],[122.5495,7.76798],[122.550407,7.76866],[122.551163,7.76924],[122.553368,7.77233]]]]}},{"type":"Feature","properties":{"ID_0":177,"ISO":"PHL","NAME_0":"Philippines","ID_1":9083,"NAME_1":"Zamboanga Sibugay","ID_2":908305,"NAME_2":"Ipil (Capital)","ID_3":908305034,"NAME_3":"Timalang","NL_NAME_3":null,"VARNAME_3":null,"TYPE_3":"Barangay","ENGTYPE_3":"Village","PROVINCE":"Zamboanga Sibugay","REGION":"Region IX (Zamboanga Peninsula)","id":"barangay-0908305034","name":"Timalang","barangayCode":"0908305034","population":null,"formattedPop":null,"densityCategory":"No data","vulnerabilityRating":"No data","healthRiskLevel":"No data","areaKm2":8.540615,"centerLat":7.793046,"centerLng":122.521472,"geometrySource":"all_barangay-2.csv detailed WKT","geometryMatchMethod":"psgc_coordinate_bridge","boundaryPointCount":37},"geometry":{"type":"MultiPolygon","coordinates":[[[[122.543953,7.79712],[122.555023,7.78616],[122.553719,7.78565],[122.551224,7.78556],[122.550056,7.7859],[122.548401,7.78543],[122.546738,7.78459],[122.545174,7.78323],[122.543999,7.78129],[122.543159,7.78059],[122.541832,7.77956],[122.540199,7.778],[122.538963,7.77528],[122.536659,7.7724],[122.535057,7.77107],[122.534019,7.76936],[122.532692,7.76862],[122.53196,7.76737],[122.531464,7.76641],[122.530724,7.76637],[122.529694,7.76688],[122.528969,7.76756],[122.52877,7.76827],[122.528709,7.76919],[122.528008,7.77012],[122.52372,7.77006],[122.522591,7.77217],[122.521744,7.77327],[122.520844,7.77398],[122.520378,7.77434],[122.520844,7.77565],[122.521606,7.77658],[122.521721,7.77795],[122.527367,7.78315],[122.533012,7.78751],[122.538513,7.79272],[122.543953,7.79712]]]]}},{"type":"Feature","properties":{"ID_0":177,"ISO":"PHL","NAME_0":"Philippines","ID_1":9083,"NAME_1":"Zamboanga Sibugay","ID_2":908305,"NAME_2":"Ipil (Capital)","ID_3":908305035,"NAME_3":"Tomitom","NL_NAME_3":null,"VARNAME_3":null,"TYPE_3":"Barangay","ENGTYPE_3":"Village","PROVINCE":"Zamboanga Sibugay","REGION":"Region IX (Zamboanga Peninsula)","id":"barangay-0908305035","name":"Tomitom","barangayCode":"0908305035","population":null,"formattedPop":null,"densityCategory":"No data","vulnerabilityRating":"No data","healthRiskLevel":"No data","areaKm2":6.624119,"centerLat":7.731772,"centerLng":122.503851,"geometrySource":"all_barangay-2.csv detailed WKT","geometryMatchMethod":"psgc_coordinate_bridge","boundaryPointCount":51},"geometry":{"type":"MultiPolygon","coordinates":[[[[122.50338,7.76208],[122.504623,7.75955],[122.50692,7.75798],[122.508591,7.75724],[122.510536,7.75722],[122.512001,7.75654],[122.512901,7.75542],[122.514282,7.75379],[122.515106,7.75319],[122.51667,7.75313],[122.518272,7.75183],[122.519653,7.74928],[122.519753,7.74794],[122.519531,7.74633],[122.519081,7.74488],[122.518562,7.74404],[122.516968,7.74384],[122.515541,7.7438],[122.514648,7.7443],[122.513733,7.74438],[122.512962,7.74367],[122.512978,7.74255],[122.513046,7.74154],[122.51329,7.74043],[122.513298,7.73968],[122.512833,7.73891],[122.511726,7.73724],[122.511902,7.73643],[122.513618,7.73349],[122.514618,7.73296],[122.515381,7.73272],[122.516144,7.73277],[122.516769,7.73292],[122.5177,7.73255],[122.517998,7.7321],[122.518639,7.73169],[122.519432,7.73149],[122.520187,7.73125],[122.520927,7.73084],[122.521332,7.73029],[122.521446,7.72944],[122.522133,7.72775],[122.521744,7.72758],[122.521141,7.7272],[122.5205,7.72636],[122.520447,7.72527],[122.520416,7.72454],[122.509689,7.71771],[122.494011,7.74364],[122.490997,7.7542],[122.50338,7.76208]]]]}},{"type":"Feature","properties":{"ID_0":177,"ISO":"PHL","NAME_0":"Philippines","ID_1":9083,"NAME_1":"Zamboanga Sibugay","ID_2":908305,"NAME_2":"Ipil (Capital)","ID_3":908305037,"NAME_3":"Upper Pangi","NL_NAME_3":null,"VARNAME_3":null,"TYPE_3":"Barangay","ENGTYPE_3":"Village","PROVINCE":"Zamboanga Sibugay","REGION":"Region IX (Zamboanga Peninsula)","id":"barangay-0908305037","name":"Upper Pangi","barangayCode":"0908305037","population":null,"formattedPop":null,"densityCategory":"No data","vulnerabilityRating":"No data","healthRiskLevel":"No data","areaKm2":9.265573,"centerLat":7.80413,"centerLng":122.626816,"geometrySource":"all_barangay-2.csv detailed WKT","geometryMatchMethod":"psgc_coordinate_bridge","boundaryPointCount":74},"geometry":{"type":"MultiPolygon","coordinates":[[[[122.616562,7.839],[122.617996,7.83654],[122.618828,7.83559],[122.619133,7.83465],[122.618393,7.83207],[122.617058,7.83141],[122.61615,7.83102],[122.61515,7.82867],[122.614723,7.82606],[122.614853,7.82342],[122.614677,7.82244],[122.613983,7.82146],[122.61274,7.82012],[122.611557,7.81872],[122.611099,7.81744],[122.61116,7.81601],[122.612457,7.81402],[122.612877,7.81324],[122.612343,7.8104],[122.61187,7.80864],[122.612,7.80769],[122.612572,7.80684],[122.612907,7.8045],[122.612717,7.80012],[122.61747,7.79792],[122.619186,7.79163],[122.620941,7.78459],[122.623009,7.77551],[122.623741,7.77028],[122.623337,7.77028],[122.623047,7.77],[122.622498,7.77],[122.622223,7.77028],[122.621109,7.77028],[122.620552,7.77083],[122.620277,7.77056],[122.620277,7.77],[122.620377,7.76989],[122.620552,7.76972],[122.620277,7.76944],[122.620003,7.76889],[122.619972,7.76924],[122.618607,7.76955],[122.613693,7.78378],[122.609993,7.79619],[122.6082,7.8005],[122.607468,7.80184],[122.605782,7.80376],[122.603241,7.80512],[122.601402,7.80551],[122.599358,7.8072],[122.597443,7.80866],[122.597443,7.81124],[122.597923,7.81333],[122.598846,7.81568],[122.600189,7.818],[122.601059,7.81869],[122.602943,7.81967],[122.603813,7.82029],[122.605148,7.82157],[122.60598,7.82271],[122.606323,7.82434],[122.605812,7.82558],[122.604736,7.82633],[122.603706,7.82636],[122.602913,7.82652],[122.602226,7.82691],[122.601501,7.82749],[122.599792,7.82863],[122.598763,7.82853],[122.596863,7.83108],[122.602913,7.83406],[122.609657,7.83694],[122.616562,7.839]]]]}},{"type":"Feature","properties":{"ID_0":177,"ISO":"PHL","NAME_0":"Philippines","ID_1":9083,"NAME_1":"Zamboanga Sibugay","ID_2":908305,"NAME_2":"Ipil (Capital)","ID_3":908305038,"NAME_3":"Veteran's Village","NL_NAME_3":null,"VARNAME_3":"Veterans Village (Ruiz)","TYPE_3":"Barangay","ENGTYPE_3":"Village","PROVINCE":"Zamboanga Sibugay","REGION":"Region IX (Zamboanga Peninsula)","id":"barangay-0908305038","name":"Veteran's Village","barangayCode":"0908305038","population":null,"formattedPop":null,"densityCategory":"No data","vulnerabilityRating":"No data","healthRiskLevel":"No data","areaKm2":6.843662,"centerLat":7.778166,"centerLng":122.56539,"geometrySource":"all_barangay-2.csv detailed WKT","geometryMatchMethod":"psgc_coordinate_bridge","boundaryPointCount":58},"geometry":{"type":"MultiPolygon","coordinates":[[[[122.555023,7.78616],[122.559921,7.7818],[122.566498,7.77565],[122.568977,7.77486],[122.572571,7.77426],[122.574623,7.77572],[122.577202,7.7771],[122.581467,7.78029],[122.581909,7.7796],[122.58284,7.77872],[122.583076,7.77807],[122.583549,7.77761],[122.584389,7.77722],[122.585228,7.77615],[122.583153,7.77546],[122.58287,7.77562],[122.582108,7.77555],[122.580833,7.77506],[122.579109,7.77362],[122.577797,7.77221],[122.576019,7.77046],[122.57457,7.77034],[122.572868,7.77062],[122.571404,7.77042],[122.569221,7.76959],[122.566948,7.76852],[122.564407,7.76707],[122.560707,7.76523],[122.560738,7.76764],[122.559677,7.7687],[122.558617,7.76869],[122.558022,7.76896],[122.556381,7.7697],[122.55584,7.77024],[122.55542,7.77066],[122.554993,7.77167],[122.554604,7.77222],[122.553917,7.77228],[122.553368,7.77233],[122.552353,7.77372],[122.551453,7.77394],[122.55085,7.77383],[122.550262,7.77457],[122.550331,7.77533],[122.550438,7.77657],[122.55024,7.77856],[122.549873,7.77943],[122.54895,7.78066],[122.547791,7.78098],[122.546288,7.78096],[122.546257,7.78102],[122.545174,7.78323],[122.546738,7.78459],[122.548401,7.78543],[122.550056,7.7859],[122.551224,7.78556],[122.553719,7.78565],[122.555023,7.78616]]]]}},{"type":"Feature","properties":{"ID_0":177,"ISO":"PHL","NAME_0":"Philippines","ID_1":9083,"NAME_1":"Zamboanga Sibugay","ID_2":908305,"NAME_2":"Ipil (Capital)","ID_3":908305039,"NAME_3":"Makilas","NL_NAME_3":null,"VARNAME_3":null,"TYPE_3":"Barangay","ENGTYPE_3":"Village","PROVINCE":"Zamboanga Sibugay","REGION":"Region IX (Zamboanga Peninsula)","id":"barangay-0908305039","name":"Makilas","barangayCode":"0908305039","population":null,"formattedPop":null,"densityCategory":"No data","vulnerabilityRating":"No data","healthRiskLevel":"No data","areaKm2":7.876919,"centerLat":7.734551,"centerLng":122.529507,"geometrySource":"all_barangay-2.csv detailed WKT","geometryMatchMethod":"psgc_coordinate_bridge","boundaryPointCount":79},"geometry":{"type":"MultiPolygon","coordinates":[[[[122.534416,7.75221],[122.535797,7.74985],[122.536346,7.74924],[122.537247,7.74821],[122.538307,7.74716],[122.539917,7.74604],[122.541496,7.74425],[122.54303,7.74207],[122.54393,7.74024],[122.544167,7.73862],[122.544487,7.73769],[122.548103,7.73476],[122.548058,7.7347],[122.547836,7.73446],[122.547501,7.73417],[122.547234,7.73389],[122.546944,7.73389],[122.546989,7.73432],[122.546371,7.73453],[122.54586,7.73472],[122.545479,7.73486],[122.545143,7.73501],[122.544838,7.73522],[122.544563,7.7354],[122.544273,7.73547],[122.543983,7.73544],[122.543694,7.73533],[122.543488,7.73515],[122.543442,7.73494],[122.543457,7.73468],[122.543457,7.73435],[122.543617,7.73391],[122.543907,7.73343],[122.544296,7.733],[122.544617,7.73257],[122.544777,7.7321],[122.544952,7.73167],[122.544998,7.73125],[122.544991,7.73088],[122.544907,7.73066],[122.54467,7.73062],[122.544724,7.73],[122.544724,7.72948],[122.544724,7.72944],[122.544434,7.72918],[122.544273,7.72899],[122.541969,7.72894],[122.539124,7.72959],[122.537872,7.73048],[122.534363,7.73193],[122.531837,7.73221],[122.528877,7.73134],[122.527023,7.73023],[122.52578,7.7294],[122.524467,7.72831],[122.522133,7.72775],[122.521446,7.72944],[122.521332,7.73029],[122.520927,7.73084],[122.520187,7.73125],[122.519432,7.73149],[122.518639,7.73169],[122.517998,7.7321],[122.5177,7.73255],[122.516769,7.73292],[122.516144,7.73277],[122.515381,7.73272],[122.514618,7.73296],[122.513618,7.73349],[122.511902,7.73643],[122.51564,7.73627],[122.518997,7.73754],[122.521568,7.73922],[122.524101,7.74135],[122.525551,7.74296],[122.527061,7.7444],[122.528938,7.74632],[122.530968,7.74872],[122.534416,7.75221]]]]}},{"type":"Feature","properties":{"ID_0":177,"ISO":"PHL","NAME_0":"Philippines","ID_1":9083,"NAME_1":"Zamboanga Sibugay","ID_2":908305,"NAME_2":"Ipil (Capital)","ID_3":908305040,"NAME_3":"Caparan","NL_NAME_3":null,"VARNAME_3":null,"TYPE_3":"Barangay","ENGTYPE_3":"Village","PROVINCE":"Zamboanga Sibugay","REGION":"Region IX (Zamboanga Peninsula)","id":"barangay-0908305040","name":"Caparan","barangayCode":"0908305040","population":null,"formattedPop":null,"densityCategory":"No data","vulnerabilityRating":"No data","healthRiskLevel":"No data","areaKm2":2.67749,"centerLat":7.745684,"centerLng":122.542316,"geometrySource":"all_barangay-2.csv detailed WKT","geometryMatchMethod":"psgc_coordinate_bridge","boundaryPointCount":58},"geometry":{"type":"MultiPolygon","coordinates":[[[[122.540512,7.75688],[122.542503,7.75613],[122.544548,7.75561],[122.545403,7.75465],[122.546288,7.75382],[122.546806,7.75282],[122.547043,7.75188],[122.546997,7.75143],[122.546928,7.75064],[122.546432,7.74981],[122.54641,7.74977],[122.545792,7.74874],[122.545692,7.7486],[122.545624,7.7485],[122.546883,7.74593],[122.547112,7.74574],[122.547096,7.74511],[122.547096,7.74457],[122.54686,7.74369],[122.546921,7.74323],[122.546951,7.74298],[122.547028,7.74291],[122.54789,7.74209],[122.549797,7.74081],[122.549843,7.74016],[122.550522,7.73987],[122.551758,7.73934],[122.553619,7.73734],[122.553841,7.73662],[122.553612,7.73639],[122.552223,7.73639],[122.551941,7.73611],[122.55175,7.73611],[122.551666,7.73611],[122.551392,7.73583],[122.551079,7.73583],[122.550781,7.73562],[122.550346,7.73535],[122.549789,7.73516],[122.549156,7.73525],[122.548607,7.73537],[122.548607,7.73556],[122.548058,7.73556],[122.548187,7.73495],[122.548103,7.73476],[122.544487,7.73769],[122.544167,7.73862],[122.54393,7.74024],[122.54303,7.74207],[122.541496,7.74425],[122.539917,7.74604],[122.538307,7.74716],[122.537247,7.74821],[122.536346,7.74924],[122.535797,7.74985],[122.534416,7.75221],[122.538406,7.75541],[122.540512,7.75688]]]]}},{"type":"Feature","properties":{"ID_0":177,"ISO":"PHL","NAME_0":"Philippines","ID_1":9083,"NAME_1":"Zamboanga Sibugay","ID_2":908305,"NAME_2":"Ipil (Capital)","ID_3":908305041,"NAME_3":"Domandan","NL_NAME_3":null,"VARNAME_3":null,"TYPE_3":"Barangay","ENGTYPE_3":"Village","PROVINCE":"Zamboanga Sibugay","REGION":"Region IX (Zamboanga Peninsula)","id":"barangay-0908305041","name":"Domandan","barangayCode":"0908305041","population":null,"formattedPop":null,"densityCategory":"No data","vulnerabilityRating":"No data","healthRiskLevel":"No data","areaKm2":3.160231,"centerLat":7.85284,"centerLng":122.649616,"geometrySource":"all_barangay-2.csv detailed WKT","geometryMatchMethod":"psgc_coordinate_bridge","boundaryPointCount":19},"geometry":{"type":"MultiPolygon","coordinates":[[[[122.634804,7.84596],[122.626717,7.82473],[122.62294,7.82624],[122.622513,7.82666],[122.621674,7.82806],[122.619957,7.82737],[122.619034,7.82767],[122.614723,7.82606],[122.61515,7.82867],[122.61615,7.83102],[122.617058,7.83141],[122.618393,7.83207],[122.619133,7.83465],[122.618828,7.83559],[122.617996,7.83654],[122.616562,7.839],[122.622452,7.8418],[122.626427,7.84309],[122.634804,7.84596]]]]}},{"type":"Feature","properties":{"ID_0":177,"ISO":"PHL","NAME_0":"Philippines","ID_1":9083,"NAME_1":"Zamboanga Sibugay","ID_2":908305,"NAME_2":"Ipil (Capital)","ID_3":908305042,"NAME_3":"Doña Josefa","NL_NAME_3":null,"VARNAME_3":"Dona Josefa","TYPE_3":"Barangay","ENGTYPE_3":"Village","PROVINCE":"Zamboanga Sibugay","REGION":"Region IX (Zamboanga Peninsula)","id":"barangay-0908305042","name":"Doña Josefa","barangayCode":"0908305042","population":null,"formattedPop":null,"densityCategory":"No data","vulnerabilityRating":"No data","healthRiskLevel":"No data","areaKm2":10.987012,"centerLat":7.75615,"centerLng":122.504664,"geometrySource":"barangays.geojson simplified fallback","geometryMatchMethod":"simplified_fallback","boundaryPointCount":5},"geometry":{"type":"Polygon","coordinates":[[[122.502411316,7.772051178000027],[122.53043347300002,7.750023464000037],[122.50990010800001,7.736842074000037],[122.48101962200008,7.761173161000045],[122.502411316,7.772051178000027]]]}},{"type":"Feature","properties":{"ID_0":177,"ISO":"PHL","NAME_0":"Philippines","ID_1":9083,"NAME_1":"Zamboanga Sibugay","ID_2":908305,"NAME_2":"Ipil (Capital)","ID_3":908305043,"NAME_3":"Logan","NL_NAME_3":null,"VARNAME_3":null,"TYPE_3":"Barangay","ENGTYPE_3":"Village","PROVINCE":"Zamboanga Sibugay","REGION":"Region IX (Zamboanga Peninsula)","id":"barangay-0908305043","name":"Logan","barangayCode":"0908305043","population":null,"formattedPop":null,"densityCategory":"No data","vulnerabilityRating":"No data","healthRiskLevel":"No data","areaKm2":7.436818,"centerLat":7.843193,"centerLng":122.630042,"geometrySource":"all_barangay-2.csv detailed WKT","geometryMatchMethod":"psgc_coordinate_bridge","boundaryPointCount":24},"geometry":{"type":"MultiPolygon","coordinates":[[[[122.655602,7.84734],[122.655571,7.84526],[122.657944,7.84323],[122.655853,7.84332],[122.653717,7.84426],[122.65258,7.8444],[122.651291,7.84351],[122.652039,7.84164],[122.652779,7.84041],[122.652939,7.83785],[122.655731,7.83849],[122.657677,7.83808],[122.656647,7.83591],[122.657623,7.83415],[122.657021,7.83151],[122.656349,7.83005],[122.657387,7.82802],[122.652313,7.82717],[122.647591,7.82586],[122.640892,7.82424],[122.633423,7.82398],[122.626717,7.82473],[122.634804,7.84596],[122.655602,7.84734]]]]}},{"type":"Feature","properties":{"ID_0":177,"ISO":"PHL","NAME_0":"Philippines","ID_1":9083,"NAME_1":"Zamboanga Sibugay","ID_2":908305,"NAME_2":"Ipil (Capital)","ID_3":908305044,"NAME_3":"Maasin","NL_NAME_3":null,"VARNAME_3":null,"TYPE_3":"Barangay","ENGTYPE_3":"Village","PROVINCE":"Zamboanga Sibugay","REGION":"Region IX (Zamboanga Peninsula)","id":"barangay-0908305044","name":"Maasin","barangayCode":"0908305044","population":null,"formattedPop":null,"densityCategory":"No data","vulnerabilityRating":"No data","healthRiskLevel":"No data","areaKm2":8.781121,"centerLat":7.775574,"centerLng":122.522054,"geometrySource":"all_barangay-2.csv detailed WKT","geometryMatchMethod":"psgc_coordinate_bridge","boundaryPointCount":23},"geometry":{"type":"MultiPolygon","coordinates":[[[[122.535057,7.77107],[122.536659,7.7724],[122.538963,7.77528],[122.540649,7.77282],[122.541481,7.77181],[122.542862,7.7703],[122.543831,7.76979],[122.54734,7.76785],[122.5495,7.76798],[122.548523,7.76441],[122.547241,7.76198],[122.545502,7.75993],[122.543701,7.75883],[122.54277,7.75826],[122.540512,7.75688],[122.540352,7.75854],[122.538872,7.75996],[122.537819,7.7621],[122.537033,7.76369],[122.536987,7.76506],[122.536583,7.76773],[122.536087,7.77066],[122.535057,7.77107]]]]}}]}
