{"type":"FeatureCollection","features":[{"type":"Feature","properties":{"ID_0":177,"ISO":"PHL","NAME_0":"Philippines","ID_1":1029,"NAME_1":"Ilocos Sur","ID_2":102931,"NAME_2":"Sugpon","ID_3":102931001,"NAME_3":"Banga","NL_NAME_3":null,"VARNAME_3":null,"TYPE_3":"Barangay","ENGTYPE_3":"Village","PROVINCE":"Ilocos Sur","REGION":"Region I (Ilocos Region)","id":"barangay-0102931001","name":"Banga","barangayCode":"0102931001","population":null,"formattedPop":null,"densityCategory":"No data","vulnerabilityRating":"No data","healthRiskLevel":"No data","areaKm2":16.806989,"centerLat":16.82514,"centerLng":120.558832,"geometrySource":"all_barangay-2.csv detailed WKT","geometryMatchMethod":"unique_official_admin_names","boundaryPointCount":60},"geometry":{"type":"MultiPolygon","coordinates":[[[[120.598122,16.849001],[120.605728,16.84709],[120.629707,16.84058],[120.62941,16.835569],[120.628593,16.828711],[120.627937,16.823971],[120.627647,16.81456],[120.627197,16.80962],[120.625801,16.801029],[120.591522,16.803711],[120.590469,16.804029],[120.587753,16.80414],[120.581993,16.804399],[120.57856,16.8046],[120.575378,16.804701],[120.572548,16.805111],[120.568909,16.80525],[120.563904,16.805479],[120.560867,16.805639],[120.554329,16.805691],[120.552681,16.806129],[120.549759,16.80694],[120.547157,16.80678],[120.543968,16.80673],[120.541878,16.80809],[120.540077,16.809681],[120.537552,16.810789],[120.536209,16.811319],[120.536209,16.81155],[120.535744,16.813999],[120.53492,16.815491],[120.534531,16.815901],[120.533699,16.81749],[120.531929,16.8186],[120.530693,16.81918],[120.529068,16.820311],[120.532356,16.82399],[120.537163,16.830259],[120.54055,16.836201],[120.542473,16.835569],[120.544746,16.83527],[120.546967,16.83596],[120.549423,16.8372],[120.550972,16.838539],[120.552132,16.840031],[120.553978,16.842819],[120.554718,16.84289],[120.556778,16.84235],[120.559669,16.8412],[120.56089,16.840811],[120.562279,16.8403],[120.566017,16.84067],[120.570297,16.841261],[120.573151,16.841579],[120.579201,16.84367],[120.582161,16.8451],[120.584763,16.84676],[120.585632,16.84754],[120.587257,16.851179],[120.598122,16.849001]]]]}},{"type":"Feature","properties":{"ID_0":177,"ISO":"PHL","NAME_0":"Philippines","ID_1":1029,"NAME_1":"Ilocos Sur","ID_2":102931,"NAME_2":"Sugpon","ID_3":102931002,"NAME_3":"Caoayan","NL_NAME_3":null,"VARNAME_3":null,"TYPE_3":"Barangay","ENGTYPE_3":"Village","PROVINCE":"Ilocos Sur","REGION":"Region I (Ilocos Region)","id":"barangay-0102931002","name":"Caoayan","barangayCode":"0102931002","population":null,"formattedPop":null,"densityCategory":"No data","vulnerabilityRating":"No data","healthRiskLevel":"No data","areaKm2":13.089398,"centerLat":16.801913,"centerLng":120.558305,"geometrySource":"all_barangay-2.csv detailed WKT","geometryMatchMethod":"unique_official_admin_names","boundaryPointCount":69},"geometry":{"type":"MultiPolygon","coordinates":[[[[120.625801,16.801029],[120.625183,16.797211],[120.624443,16.791281],[120.623253,16.78215],[120.595268,16.78447],[120.592079,16.785],[120.586067,16.786221],[120.581284,16.78684],[120.575821,16.787439],[120.566704,16.788191],[120.556686,16.789671],[120.549026,16.790661],[120.54361,16.791599],[120.543503,16.792839],[120.542686,16.793369],[120.540359,16.793949],[120.539146,16.7948],[120.537918,16.796539],[120.537682,16.796881],[120.537643,16.796961],[120.537117,16.797409],[120.536079,16.79789],[120.535378,16.79829],[120.534302,16.799669],[120.532356,16.79837],[120.531822,16.7976],[120.531082,16.7967],[120.530457,16.796049],[120.529556,16.795389],[120.528137,16.79493],[120.525719,16.794649],[120.524551,16.79446],[120.522797,16.7957],[120.522171,16.796789],[120.522301,16.799089],[120.522774,16.799931],[120.523308,16.800579],[120.524597,16.80109],[120.525093,16.800911],[120.527802,16.80076],[120.528931,16.801189],[120.52961,16.80179],[120.530586,16.802919],[120.531891,16.80444],[120.532829,16.8055],[120.53344,16.80608],[120.534866,16.807449],[120.535744,16.808411],[120.536186,16.810129],[120.536209,16.811319],[120.537552,16.810789],[120.540077,16.809681],[120.541878,16.80809],[120.543968,16.80673],[120.547157,16.80678],[120.549759,16.80694],[120.552681,16.806129],[120.554329,16.805691],[120.560867,16.805639],[120.563904,16.805479],[120.568909,16.80525],[120.572548,16.805111],[120.575378,16.804701],[120.57856,16.8046],[120.581993,16.804399],[120.587753,16.80414],[120.590469,16.804029],[120.591522,16.803711],[120.625801,16.801029]]]]}},{"type":"Feature","properties":{"ID_0":177,"ISO":"PHL","NAME_0":"Philippines","ID_1":1029,"NAME_1":"Ilocos Sur","ID_2":102931,"NAME_2":"Sugpon","ID_3":102931004,"NAME_3":"Licungan","NL_NAME_3":null,"VARNAME_3":null,"TYPE_3":"Barangay","ENGTYPE_3":"Village","PROVINCE":"Ilocos Sur","REGION":"Region I (Ilocos Region)","id":"barangay-0102931004","name":"Licungan","barangayCode":"0102931004","population":null,"formattedPop":null,"densityCategory":"No data","vulnerabilityRating":"No data","healthRiskLevel":"No data","areaKm2":33.281214,"centerLat":16.715599,"centerLng":120.567204,"geometrySource":"all_barangay-2.csv detailed WKT","geometryMatchMethod":"unique_official_admin_names","boundaryPointCount":142},"geometry":{"type":"MultiPolygon","coordinates":[[[[120.621887,16.762711],[120.621239,16.75646],[120.620903,16.750879],[120.620628,16.746361],[120.620811,16.74328],[120.620857,16.742279],[120.620338,16.73819],[120.620079,16.734329],[120.620323,16.73068],[120.618423,16.7286],[120.617531,16.723],[120.616463,16.719061],[120.615288,16.714439],[120.614326,16.71085],[120.612801,16.704691],[120.611183,16.702089],[120.610573,16.69968],[120.610397,16.69779],[120.607941,16.691441],[120.603813,16.68502],[120.601501,16.68162],[120.599869,16.678659],[120.598984,16.67783],[120.598297,16.675489],[120.596802,16.673651],[120.595886,16.672729],[120.594223,16.670441],[120.592072,16.66893],[120.589447,16.667259],[120.587631,16.665899],[120.58709,16.66548],[120.587044,16.66543],[120.584503,16.663151],[120.584457,16.663099],[120.583481,16.661739],[120.582947,16.65984],[120.580437,16.659241],[120.579681,16.65971],[120.577927,16.66077],[120.576477,16.6621],[120.574341,16.66461],[120.572273,16.66884],[120.57135,16.67074],[120.570213,16.67174],[120.56855,16.671869],[120.567299,16.67156],[120.566101,16.671181],[120.564247,16.67063],[120.562263,16.6703],[120.561157,16.67127],[120.560333,16.67523],[120.560349,16.677481],[120.561371,16.679529],[120.561684,16.68153],[120.561577,16.68273],[120.561371,16.684481],[120.560402,16.68648],[120.559357,16.687599],[120.558167,16.688351],[120.557114,16.68964],[120.555946,16.69055],[120.553177,16.69207],[120.551353,16.69293],[120.5494,16.69356],[120.54744,16.69454],[120.545486,16.695761],[120.543167,16.697121],[120.542442,16.698811],[120.542282,16.700529],[120.541962,16.702749],[120.540802,16.70579],[120.539673,16.708099],[120.539337,16.7089],[120.538918,16.70982],[120.5383,16.711069],[120.537697,16.712099],[120.536621,16.713209],[120.535957,16.713671],[120.535187,16.71401],[120.533417,16.7146],[120.532509,16.715059],[120.532089,16.715561],[120.532013,16.71633],[120.53196,16.717291],[120.533478,16.7188],[120.533691,16.719009],[120.534752,16.719219],[120.536324,16.71953],[120.537781,16.72028],[120.538933,16.72106],[120.540291,16.7225],[120.540901,16.723141],[120.541519,16.723789],[120.542633,16.725189],[120.543297,16.72641],[120.543442,16.72683],[120.543503,16.727039],[120.544182,16.729309],[120.544243,16.731409],[120.544189,16.73278],[120.54425,16.734221],[120.54422,16.734739],[120.544212,16.734831],[120.543602,16.736931],[120.544289,16.73925],[120.544968,16.7402],[120.545769,16.741329],[120.546333,16.74188],[120.549149,16.745911],[120.550171,16.748779],[120.550293,16.74913],[120.550774,16.75091],[120.550209,16.752081],[120.549423,16.753],[120.54747,16.75631],[120.546051,16.758591],[120.545029,16.75935],[120.542709,16.760679],[120.542686,16.761629],[120.542671,16.762131],[120.544487,16.764059],[120.54686,16.766211],[120.548309,16.76775],[120.549187,16.768921],[120.549553,16.769489],[120.549622,16.76959],[120.552452,16.76948],[120.558403,16.769159],[120.562187,16.768539],[120.565903,16.767941],[120.568657,16.76725],[120.57283,16.766661],[120.577873,16.767191],[120.580048,16.766979],[120.583641,16.766291],[120.587967,16.76528],[120.592827,16.763809],[120.597977,16.76404],[120.601868,16.763611],[120.607536,16.7631],[120.611671,16.7631],[120.621887,16.762711]]]]}},{"type":"Feature","properties":{"ID_0":177,"ISO":"PHL","NAME_0":"Philippines","ID_1":1029,"NAME_1":"Ilocos Sur","ID_2":102931,"NAME_2":"Sugpon","ID_3":102931005,"NAME_3":"Danac","NL_NAME_3":null,"VARNAME_3":null,"TYPE_3":"Barangay","ENGTYPE_3":"Village","PROVINCE":"Ilocos Sur","REGION":"Region I (Ilocos Region)","id":"barangay-0102931005","name":"Danac","barangayCode":"0102931005","population":null,"formattedPop":null,"densityCategory":"No data","vulnerabilityRating":"No data","healthRiskLevel":"No data","areaKm2":24.099896,"centerLat":16.768851,"centerLng":120.566825,"geometrySource":"all_barangay-2.csv detailed WKT","geometryMatchMethod":"unique_official_admin_names","boundaryPointCount":64},"geometry":{"type":"MultiPolygon","coordinates":[[[[120.54361,16.791599],[120.549026,16.790661],[120.556686,16.789671],[120.566704,16.788191],[120.575821,16.787439],[120.581284,16.78684],[120.586067,16.786221],[120.592079,16.785],[120.595268,16.78447],[120.623253,16.78215],[120.623177,16.77667],[120.622238,16.76895],[120.621887,16.762711],[120.611671,16.7631],[120.607536,16.7631],[120.601868,16.763611],[120.597977,16.76404],[120.592827,16.763809],[120.587967,16.76528],[120.583641,16.766291],[120.580048,16.766979],[120.577873,16.767191],[120.57283,16.766661],[120.568657,16.76725],[120.565903,16.767941],[120.562187,16.768539],[120.558403,16.769159],[120.552452,16.76948],[120.549622,16.76959],[120.549553,16.769489],[120.549522,16.769569],[120.549049,16.76985],[120.548759,16.7703],[120.548401,16.770889],[120.548042,16.77187],[120.547867,16.772369],[120.547539,16.77342],[120.547241,16.774191],[120.546791,16.7752],[120.546333,16.7763],[120.545807,16.777149],[120.545357,16.77759],[120.544571,16.778139],[120.543442,16.77809],[120.542442,16.77758],[120.541748,16.77714],[120.540916,16.77668],[120.540359,16.776461],[120.539047,16.776159],[120.538361,16.77611],[120.537132,16.77614],[120.536438,16.77651],[120.534958,16.778669],[120.534782,16.779751],[120.535088,16.780979],[120.535248,16.781931],[120.53524,16.781969],[120.534988,16.78385],[120.534897,16.78451],[120.535873,16.78672],[120.537048,16.787519],[120.540863,16.789459],[120.543083,16.791201],[120.54361,16.791599]]]]}},{"type":"Feature","properties":{"ID_0":177,"ISO":"PHL","NAME_0":"Philippines","ID_1":1029,"NAME_1":"Ilocos Sur","ID_2":102931,"NAME_2":"Sugpon","ID_3":102931007,"NAME_3":"Pangotan","NL_NAME_3":null,"VARNAME_3":null,"TYPE_3":"Barangay","ENGTYPE_3":"Village","PROVINCE":"Ilocos Sur","REGION":"Region I (Ilocos Region)","id":"barangay-0102931007","name":"Pangotan","barangayCode":"0102931007","population":null,"formattedPop":null,"densityCategory":"No data","vulnerabilityRating":"No data","healthRiskLevel":"No data","areaKm2":11.661355,"centerLat":16.852447,"centerLng":120.543116,"geometrySource":"all_barangay-2.csv detailed WKT","geometryMatchMethod":"unique_official_admin_names","boundaryPointCount":36},"geometry":{"type":"MultiPolygon","coordinates":[[[[120.543869,16.8603],[120.552437,16.858299],[120.565201,16.85574],[120.576103,16.85347],[120.587257,16.851179],[120.585632,16.84754],[120.584763,16.84676],[120.582161,16.8451],[120.579201,16.84367],[120.573151,16.841579],[120.570297,16.841261],[120.566017,16.84067],[120.562279,16.8403],[120.56089,16.840811],[120.559669,16.8412],[120.556778,16.84235],[120.554718,16.84289],[120.553978,16.842819],[120.552132,16.840031],[120.550972,16.838539],[120.549423,16.8372],[120.546967,16.83596],[120.544746,16.83527],[120.542473,16.835569],[120.54055,16.836201],[120.538757,16.837191],[120.537537,16.8379],[120.533493,16.84174],[120.531349,16.8463],[120.530907,16.848749],[120.531219,16.85412],[120.531677,16.85688],[120.532837,16.86105],[120.532944,16.861469],[120.534286,16.862711],[120.543869,16.8603]]]]}},{"type":"Feature","properties":{"ID_0":177,"ISO":"PHL","NAME_0":"Philippines","ID_1":1029,"NAME_1":"Ilocos Sur","ID_2":102931,"NAME_2":"Sugpon","ID_3":102931008,"NAME_3":"Balbalayang","NL_NAME_3":null,"VARNAME_3":null,"TYPE_3":"Barangay","ENGTYPE_3":"Village","PROVINCE":"Ilocos Sur","REGION":"Region I (Ilocos Region)","id":"barangay-0102931008","name":"Balbalayang","barangayCode":"0102931008","population":null,"formattedPop":null,"densityCategory":"No data","vulnerabilityRating":"No data","healthRiskLevel":"No data","areaKm2":7.387216,"centerLat":16.842222,"centerLng":120.522509,"geometrySource":"all_barangay-2.csv detailed WKT","geometryMatchMethod":"unique_official_admin_names","boundaryPointCount":51},"geometry":{"type":"MultiPolygon","coordinates":[[[[120.534286,16.862711],[120.532944,16.861469],[120.532837,16.86105],[120.531677,16.85688],[120.531219,16.85412],[120.530907,16.848749],[120.531349,16.8463],[120.533493,16.84174],[120.537537,16.8379],[120.538757,16.837191],[120.54055,16.836201],[120.537163,16.830259],[120.532356,16.82399],[120.529068,16.820311],[120.528908,16.820511],[120.528877,16.820551],[120.526649,16.823441],[120.526466,16.823811],[120.525948,16.824221],[120.523849,16.825781],[120.522423,16.82659],[120.521049,16.827431],[120.519272,16.8283],[120.517097,16.828871],[120.516373,16.82902],[120.51561,16.829201],[120.514938,16.82937],[120.514313,16.8298],[120.512688,16.83152],[120.511917,16.832041],[120.511307,16.83243],[120.510643,16.83308],[120.510223,16.8337],[120.509666,16.834351],[120.51017,16.835871],[120.509087,16.83824],[120.507912,16.840549],[120.507141,16.84346],[120.507362,16.846041],[120.507957,16.84936],[120.508667,16.853201],[120.508591,16.85449],[120.508713,16.85815],[120.509773,16.861429],[120.511642,16.86447],[120.512772,16.86594],[120.514297,16.86725],[120.515137,16.867399],[120.515289,16.86763],[120.527344,16.86455],[120.534286,16.862711]]]]}}]}
