{"type":"FeatureCollection","features":[{"type":"Feature","properties":{"ID_0":177,"ISO":"PHL","NAME_0":"Philippines","ID_1":3069,"NAME_1":"Tarlac","ID_2":306918,"NAME_2":"San Jose","ID_3":306918001,"NAME_3":"Burgos","NL_NAME_3":null,"VARNAME_3":null,"TYPE_3":"Barangay","ENGTYPE_3":"Village","PROVINCE":"Tarlac","REGION":"Region III (Central Luzon)","id":"barangay-0306918001","name":"Burgos","barangayCode":"0306918001","population":null,"formattedPop":null,"densityCategory":"No data","vulnerabilityRating":"No data","healthRiskLevel":"No data","areaKm2":26.752973,"centerLat":15.498926,"centerLng":120.370895,"geometrySource":"all_barangay-2.csv detailed WKT","geometryMatchMethod":"unique_official_admin_names","boundaryPointCount":62},"geometry":{"type":"MultiPolygon","coordinates":[[[[120.343437,15.52128],[120.344452,15.52059],[120.345619,15.51971],[120.346687,15.51912],[120.348877,15.51817],[120.351151,15.51692],[120.358879,15.51365],[120.361504,15.51251],[120.365417,15.51098],[120.368317,15.5097],[120.371948,15.50764],[120.374107,15.50621],[120.377762,15.50406],[120.38076,15.50195],[120.382622,15.50083],[120.38517,15.49826],[120.390213,15.5003],[120.393143,15.50103],[120.39621,15.50188],[120.400208,15.50377],[120.402283,15.50508],[120.405357,15.50665],[120.408722,15.50859],[120.411362,15.51004],[120.413971,15.51135],[120.416229,15.51247],[120.41864,15.5145],[120.420624,15.51503],[120.422333,15.51466],[120.423714,15.51473],[120.426079,15.51607],[120.428612,15.51043],[120.430733,15.50725],[120.432877,15.50445],[120.42865,15.50289],[120.4244,15.49857],[120.420601,15.49497],[120.416107,15.49103],[120.411957,15.48695],[120.408463,15.48373],[120.403839,15.48013],[120.402634,15.48138],[120.399292,15.48236],[120.395248,15.48393],[120.39138,15.48535],[120.388283,15.4866],[120.38253,15.48896],[120.375069,15.49165],[120.366081,15.495],[120.355232,15.49884],[120.347137,15.50173],[120.340492,15.50424],[120.325882,15.51073],[120.326027,15.51322],[120.326248,15.51539],[120.329697,15.51873],[120.332718,15.51905],[120.334663,15.51957],[120.336113,15.51981],[120.338028,15.52008],[120.339493,15.52013],[120.343437,15.52128]]]]}},{"type":"Feature","properties":{"ID_0":177,"ISO":"PHL","NAME_0":"Philippines","ID_1":3069,"NAME_1":"Tarlac","ID_2":306918,"NAME_2":"San Jose","ID_3":306918002,"NAME_3":"David","NL_NAME_3":null,"VARNAME_3":null,"TYPE_3":"Barangay","ENGTYPE_3":"Village","PROVINCE":"Tarlac","REGION":"Region III (Central Luzon)","id":"barangay-0306918002","name":"David","barangayCode":"0306918002","population":null,"formattedPop":null,"densityCategory":"No data","vulnerabilityRating":"No data","healthRiskLevel":"No data","areaKm2":5.977759,"centerLat":15.534289,"centerLng":120.487777,"geometrySource":"all_barangay-2.csv detailed WKT","geometryMatchMethod":"unique_official_admin_names","boundaryPointCount":50},"geometry":{"type":"MultiPolygon","coordinates":[[[[120.503311,15.54423],[120.505272,15.54149],[120.505981,15.54043],[120.506042,15.53931],[120.505653,15.53881],[120.505287,15.53821],[120.504753,15.53604],[120.503983,15.53456],[120.503387,15.53312],[120.502937,15.5325],[120.501732,15.53208],[120.499901,15.53159],[120.499207,15.53086],[120.499092,15.5307],[120.496552,15.52931],[120.494743,15.5298],[120.493492,15.53002],[120.491287,15.52965],[120.490593,15.52928],[120.487801,15.52849],[120.486107,15.52814],[120.485077,15.52825],[120.483833,15.52848],[120.482224,15.52808],[120.48098,15.52764],[120.479012,15.52684],[120.477074,15.52639],[120.475937,15.52712],[120.475311,15.52805],[120.474289,15.52794],[120.474037,15.52877],[120.474243,15.52949],[120.474228,15.53061],[120.473671,15.5319],[120.47361,15.53305],[120.473877,15.53391],[120.474327,15.5357],[120.474388,15.53706],[120.473282,15.54088],[120.483063,15.54309],[120.484169,15.54348],[120.48571,15.54327],[120.486801,15.54299],[120.488617,15.54274],[120.489853,15.54248],[120.494057,15.54281],[120.496536,15.54333],[120.49781,15.54343],[120.500641,15.54417],[120.503311,15.54423]]]]}},{"type":"Feature","properties":{"ID_0":177,"ISO":"PHL","NAME_0":"Philippines","ID_1":3069,"NAME_1":"Tarlac","ID_2":306918,"NAME_2":"San Jose","ID_3":306918003,"NAME_3":"Iba","NL_NAME_3":null,"VARNAME_3":null,"TYPE_3":"Barangay","ENGTYPE_3":"Village","PROVINCE":"Tarlac","REGION":"Region III (Central Luzon)","id":"barangay-0306918003","name":"Iba","barangayCode":"0306918003","population":null,"formattedPop":null,"densityCategory":"No data","vulnerabilityRating":"No data","healthRiskLevel":"No data","areaKm2":31.178172,"centerLat":15.443955,"centerLng":120.422565,"geometrySource":"all_barangay-2.csv detailed WKT","geometryMatchMethod":"unique_official_admin_names","boundaryPointCount":66},"geometry":{"type":"MultiPolygon","coordinates":[[[[120.435966,15.50359],[120.438553,15.49991],[120.439484,15.4986],[120.440063,15.49558],[120.43998,15.49386],[120.440201,15.49145],[120.440887,15.4888],[120.441727,15.48704],[120.442886,15.48445],[120.443573,15.48181],[120.444267,15.47684],[120.444443,15.47572],[120.444687,15.47346],[120.445084,15.47174],[120.445351,15.4684],[120.442734,15.46864],[120.439507,15.46883],[120.437523,15.46833],[120.435287,15.46583],[120.433029,15.46309],[120.432007,15.46177],[120.429489,15.45898],[120.42749,15.45679],[120.42556,15.45522],[120.423576,15.4541],[120.421791,15.45311],[120.422188,15.45082],[120.422684,15.44925],[120.423462,15.4482],[120.425438,15.4477],[120.429153,15.44756],[120.434311,15.44779],[120.439072,15.44786],[120.442734,15.4487],[120.444603,15.44784],[120.445953,15.44403],[120.446854,15.44038],[120.447746,15.4359],[120.4496,15.4283],[120.450829,15.42144],[120.452873,15.4152],[120.442329,15.40995],[120.43232,15.40473],[120.425888,15.4012],[120.407303,15.392],[120.407806,15.41053],[120.406677,15.41733],[120.406403,15.42591],[120.406174,15.43155],[120.406303,15.44042],[120.406464,15.44664],[120.40641,15.45383],[120.406082,15.45799],[120.406609,15.4633],[120.405983,15.46875],[120.405327,15.47439],[120.403839,15.48013],[120.408463,15.48373],[120.411957,15.48695],[120.416107,15.49103],[120.420601,15.49497],[120.4244,15.49857],[120.42865,15.50289],[120.432877,15.50445],[120.434128,15.50381],[120.435966,15.50359]]]]}},{"type":"Feature","properties":{"ID_0":177,"ISO":"PHL","NAME_0":"Philippines","ID_1":3069,"NAME_1":"Tarlac","ID_2":306918,"NAME_2":"San Jose","ID_3":306918004,"NAME_3":"Labney","NL_NAME_3":null,"VARNAME_3":null,"TYPE_3":"Barangay","ENGTYPE_3":"Village","PROVINCE":"Tarlac","REGION":"Region III (Central Luzon)","id":"barangay-0306918004","name":"Labney","barangayCode":"0306918004","population":null,"formattedPop":null,"densityCategory":"No data","vulnerabilityRating":"No data","healthRiskLevel":"No data","areaKm2":7.46073,"centerLat":15.514252,"centerLng":120.488274,"geometrySource":"all_barangay-2.csv detailed WKT","geometryMatchMethod":"unique_official_admin_names","boundaryPointCount":57},"geometry":{"type":"MultiPolygon","coordinates":[[[[120.504753,15.53604],[120.510788,15.52197],[120.511017,15.52071],[120.511276,15.51981],[120.511436,15.51883],[120.510536,15.51724],[120.508324,15.51579],[120.506706,15.51552],[120.50396,15.51525],[120.50042,15.51481],[120.495941,15.51444],[120.494209,15.51399],[120.491524,15.51339],[120.490646,15.5131],[120.488831,15.51208],[120.487389,15.51102],[120.485367,15.5103],[120.484367,15.51034],[120.484222,15.51049],[120.483803,15.51098],[120.483482,15.51182],[120.481468,15.51526],[120.48053,15.51761],[120.479828,15.51916],[120.479088,15.52013],[120.478798,15.52087],[120.478661,15.5213],[120.478149,15.52189],[120.477707,15.52193],[120.477142,15.52193],[120.476509,15.52166],[120.476173,15.5228],[120.476334,15.52357],[120.476532,15.52412],[120.476738,15.52469],[120.476646,15.52557],[120.477074,15.52639],[120.479012,15.52684],[120.48098,15.52764],[120.482224,15.52808],[120.483833,15.52848],[120.485077,15.52825],[120.486107,15.52814],[120.487801,15.52849],[120.490593,15.52928],[120.491287,15.52965],[120.493492,15.53002],[120.494743,15.5298],[120.496552,15.52931],[120.499092,15.5307],[120.499207,15.53086],[120.499901,15.53159],[120.501732,15.53208],[120.502937,15.5325],[120.503387,15.53312],[120.503983,15.53456],[120.504753,15.53604]]]]}},{"type":"Feature","properties":{"ID_0":177,"ISO":"PHL","NAME_0":"Philippines","ID_1":3069,"NAME_1":"Tarlac","ID_2":306918,"NAME_2":"San Jose","ID_3":306918005,"NAME_3":"Lawacamulag","NL_NAME_3":null,"VARNAME_3":null,"TYPE_3":"Barangay","ENGTYPE_3":"Village","PROVINCE":"Tarlac","REGION":"Region III (Central Luzon)","id":"barangay-0306918005","name":"Lawacamulag","barangayCode":"0306918005","population":null,"formattedPop":null,"densityCategory":"No data","vulnerabilityRating":"No data","healthRiskLevel":"No data","areaKm2":9.050052,"centerLat":15.493475,"centerLng":120.482683,"geometrySource":"all_barangay-2.csv detailed WKT","geometryMatchMethod":"unique_official_admin_names","boundaryPointCount":55},"geometry":{"type":"MultiPolygon","coordinates":[[[[120.50042,15.51481],[120.498589,15.4815],[120.497383,15.48218],[120.496689,15.48303],[120.496223,15.48377],[120.495049,15.48505],[120.4935,15.48553],[120.491814,15.48516],[120.489151,15.48387],[120.487793,15.48378],[120.486938,15.48418],[120.485512,15.48603],[120.484398,15.48922],[120.484207,15.49053],[120.48365,15.49286],[120.482094,15.49426],[120.479691,15.49497],[120.475479,15.4952],[120.47403,15.4949],[120.472267,15.49503],[120.470993,15.4954],[120.469337,15.49591],[120.467422,15.49598],[120.465103,15.49582],[120.462463,15.49603],[120.460609,15.49604],[120.458969,15.49605],[120.458633,15.49717],[120.458549,15.49782],[120.458946,15.49839],[120.460037,15.49957],[120.458893,15.50083],[120.453781,15.50171],[120.476509,15.52166],[120.477142,15.52193],[120.477707,15.52193],[120.478149,15.52189],[120.478661,15.5213],[120.478798,15.52087],[120.479088,15.52013],[120.479828,15.51916],[120.48053,15.51761],[120.481468,15.51526],[120.483482,15.51182],[120.483803,15.51098],[120.484222,15.51049],[120.484367,15.51034],[120.485367,15.5103],[120.487389,15.51102],[120.488831,15.51208],[120.490646,15.5131],[120.491524,15.51339],[120.494209,15.51399],[120.495941,15.51444],[120.50042,15.51481]]]]}},{"type":"Feature","properties":{"ID_0":177,"ISO":"PHL","NAME_0":"Philippines","ID_1":3069,"NAME_1":"Tarlac","ID_2":306918,"NAME_2":"San Jose","ID_3":306918006,"NAME_3":"Lubigan","NL_NAME_3":null,"VARNAME_3":null,"TYPE_3":"Barangay","ENGTYPE_3":"Village","PROVINCE":"Tarlac","REGION":"Region III (Central Luzon)","id":"barangay-0306918006","name":"Lubigan","barangayCode":"0306918006","population":null,"formattedPop":null,"densityCategory":"No data","vulnerabilityRating":"No data","healthRiskLevel":"No data","areaKm2":16.033862,"centerLat":15.44661,"centerLng":120.444138,"geometrySource":"all_barangay-2.csv detailed WKT","geometryMatchMethod":"unique_official_admin_names","boundaryPointCount":37},"geometry":{"type":"MultiPolygon","coordinates":[[[[120.445351,15.4684],[120.448593,15.46836],[120.450706,15.46833],[120.453293,15.46804],[120.456947,15.46695],[120.459953,15.46579],[120.463509,15.46303],[120.463242,15.42115],[120.459778,15.41891],[120.456841,15.41676],[120.452873,15.4152],[120.450829,15.42144],[120.4496,15.4283],[120.447746,15.4359],[120.446854,15.44038],[120.445953,15.44403],[120.444603,15.44784],[120.442734,15.4487],[120.439072,15.44786],[120.434311,15.44779],[120.429153,15.44756],[120.425438,15.4477],[120.423462,15.4482],[120.422684,15.44925],[120.422188,15.45082],[120.421791,15.45311],[120.423576,15.4541],[120.42556,15.45522],[120.42749,15.45679],[120.429489,15.45898],[120.432007,15.46177],[120.433029,15.46309],[120.435287,15.46583],[120.437523,15.46833],[120.439507,15.46883],[120.442734,15.46864],[120.445351,15.4684]]]]}},{"type":"Feature","properties":{"ID_0":177,"ISO":"PHL","NAME_0":"Philippines","ID_1":3069,"NAME_1":"Tarlac","ID_2":306918,"NAME_2":"San Jose","ID_3":306918007,"NAME_3":"Maamot","NL_NAME_3":null,"VARNAME_3":null,"TYPE_3":"Barangay","ENGTYPE_3":"Village","PROVINCE":"Tarlac","REGION":"Region III (Central Luzon)","id":"barangay-0306918007","name":"Maamot","barangayCode":"0306918007","population":null,"formattedPop":null,"densityCategory":"No data","vulnerabilityRating":"No data","healthRiskLevel":"No data","areaKm2":344.497432,"centerLat":15.417955,"centerLng":120.262159,"geometrySource":"all_barangay-2.csv detailed WKT","geometryMatchMethod":"unique_official_admin_names","boundaryPointCount":43},"geometry":{"type":"MultiPolygon","coordinates":[[[[120.329697,15.51873],[120.326248,15.51539],[120.326027,15.51322],[120.325882,15.51073],[120.340492,15.50424],[120.347137,15.50173],[120.355232,15.49884],[120.366081,15.495],[120.375069,15.49165],[120.373497,15.47615],[120.371758,15.4626],[120.370163,15.453],[120.368713,15.44205],[120.366272,15.42813],[120.365837,15.41907],[120.357826,15.36414],[120.350548,15.36003],[120.343597,15.3575],[120.341293,15.35717],[120.340103,15.35676],[120.33741,15.35505],[120.330719,15.3509],[120.321297,15.34594],[120.318443,15.34877],[120.298698,15.33934],[120.280708,15.33068],[120.244713,15.31322],[120.199471,15.339],[120.163239,15.36055],[120.166977,15.37586],[120.172684,15.42119],[120.170929,15.43856],[120.180229,15.48803],[120.195824,15.48904],[120.203667,15.49105],[120.211617,15.4923],[120.221611,15.49437],[120.233147,15.49661],[120.246498,15.49892],[120.259911,15.50188],[120.277802,15.50625],[120.289726,15.50795],[120.329697,15.51873]]]]}},{"type":"Feature","properties":{"ID_0":177,"ISO":"PHL","NAME_0":"Philippines","ID_1":3069,"NAME_1":"Tarlac","ID_2":306918,"NAME_2":"San Jose","ID_3":306918008,"NAME_3":"Mababanaba","NL_NAME_3":null,"VARNAME_3":null,"TYPE_3":"Barangay","ENGTYPE_3":"Village","PROVINCE":"Tarlac","REGION":"Region III (Central Luzon)","id":"barangay-0306918008","name":"Mababanaba","barangayCode":"0306918008","population":null,"formattedPop":null,"densityCategory":"No data","vulnerabilityRating":"No data","healthRiskLevel":"No data","areaKm2":21.42464,"centerLat":15.511169,"centerLng":120.448066,"geometrySource":"all_barangay-2.csv detailed WKT","geometryMatchMethod":"unique_official_admin_names","boundaryPointCount":42},"geometry":{"type":"MultiPolygon","coordinates":[[[[120.473282,15.54088],[120.474388,15.53706],[120.474327,15.5357],[120.473877,15.53391],[120.47361,15.53305],[120.473671,15.5319],[120.474228,15.53061],[120.474243,15.52949],[120.474037,15.52877],[120.474289,15.52794],[120.475311,15.52805],[120.475937,15.52712],[120.477074,15.52639],[120.476646,15.52557],[120.476738,15.52469],[120.476532,15.52412],[120.476334,15.52357],[120.476173,15.5228],[120.476509,15.52166],[120.453781,15.50171],[120.449074,15.5015],[120.444473,15.50287],[120.440987,15.50308],[120.437943,15.50344],[120.435966,15.50359],[120.434128,15.50381],[120.432877,15.50445],[120.430733,15.50725],[120.428612,15.51043],[120.426079,15.51607],[120.428322,15.51716],[120.430099,15.51849],[120.435516,15.52121],[120.437103,15.52172],[120.438927,15.52224],[120.4431,15.52408],[120.448021,15.5267],[120.452133,15.52922],[120.454376,15.53089],[120.459167,15.53311],[120.464493,15.53588],[120.473282,15.54088]]]]}},{"type":"Feature","properties":{"ID_0":177,"ISO":"PHL","NAME_0":"Philippines","ID_1":3069,"NAME_1":"Tarlac","ID_2":306918,"NAME_2":"San Jose","ID_3":306918009,"NAME_3":"Moriones","NL_NAME_3":null,"VARNAME_3":null,"TYPE_3":"Barangay","ENGTYPE_3":"Village","PROVINCE":"Tarlac","REGION":"Region III (Central Luzon)","id":"barangay-0306918009","name":"Moriones","barangayCode":"0306918009","population":null,"formattedPop":null,"densityCategory":"No data","vulnerabilityRating":"No data","healthRiskLevel":"No data","areaKm2":27.466738,"centerLat":15.432631,"centerLng":120.497298,"geometrySource":"all_barangay-2.csv detailed WKT","geometryMatchMethod":"unique_official_admin_names","boundaryPointCount":100},"geometry":{"type":"MultiPolygon","coordinates":[[[[120.542824,15.45434],[120.54612,15.44516],[120.544182,15.44302],[120.542183,15.4408],[120.539383,15.43954],[120.539017,15.43972],[120.536583,15.44038],[120.535828,15.44021],[120.534554,15.4393],[120.533218,15.43679],[120.532379,15.43446],[120.531883,15.43285],[120.530922,15.42902],[120.530457,15.4266],[120.529411,15.42193],[120.529007,15.41887],[120.527184,15.41256],[120.526207,15.40498],[120.522942,15.40556],[120.518379,15.40692],[120.510536,15.41003],[120.501053,15.41344],[120.489838,15.41618],[120.483482,15.41851],[120.476318,15.41946],[120.473099,15.42033],[120.470581,15.42169],[120.467171,15.42264],[120.465553,15.42286],[120.463242,15.42115],[120.463509,15.46303],[120.465271,15.46101],[120.467567,15.45879],[120.470039,15.45793],[120.471207,15.45813],[120.473602,15.45854],[120.476143,15.45854],[120.4786,15.45376],[120.479599,15.45272],[120.481361,15.45102],[120.483093,15.44958],[120.484909,15.44812],[120.488541,15.44634],[120.490494,15.44581],[120.492912,15.44584],[120.495247,15.44681],[120.497093,15.44802],[120.498558,15.44825],[120.500061,15.44808],[120.502457,15.44739],[120.505234,15.44665],[120.506447,15.44681],[120.507797,15.44804],[120.508301,15.44964],[120.508629,15.45144],[120.509239,15.45352],[120.509979,15.45472],[120.511009,15.45487],[120.512016,15.45455],[120.513481,15.45423],[120.514023,15.4544],[120.514427,15.4556],[120.514412,15.45717],[120.514473,15.45865],[120.514763,15.45935],[120.515999,15.46005],[120.517097,15.45906],[120.517403,15.45878],[120.518417,15.45769],[120.519753,15.45589],[120.520699,15.45464],[120.521812,15.45424],[120.522324,15.4547],[120.522469,15.45604],[120.522041,15.45873],[120.521713,15.46133],[120.521721,15.46235],[120.522148,15.46408],[120.5233,15.46559],[120.524399,15.46613],[120.526421,15.46538],[120.527184,15.46472],[120.529121,15.46291],[120.52951,15.4605],[120.529549,15.4585],[120.529678,15.45735],[120.530167,15.456],[120.532066,15.45549],[120.532608,15.456],[120.533257,15.45749],[120.533859,15.45876],[120.534317,15.45953],[120.536049,15.46066],[120.537712,15.46059],[120.539337,15.45922],[120.539803,15.45839],[120.540413,15.45651],[120.540932,15.45533],[120.54203,15.4545],[120.542824,15.45434]]]]}},{"type":"Feature","properties":{"ID_0":177,"ISO":"PHL","NAME_0":"Philippines","ID_1":3069,"NAME_1":"Tarlac","ID_2":306918,"NAME_2":"San Jose","ID_3":306918010,"NAME_3":"Pao","NL_NAME_3":null,"VARNAME_3":null,"TYPE_3":"Barangay","ENGTYPE_3":"Village","PROVINCE":"Tarlac","REGION":"Region III (Central Luzon)","id":"barangay-0306918010","name":"Pao","barangayCode":"0306918010","population":null,"formattedPop":null,"densityCategory":"No data","vulnerabilityRating":"No data","healthRiskLevel":"No data","areaKm2":10.401928,"centerLat":15.458572,"centerLng":120.50308,"geometrySource":"all_barangay-2.csv detailed WKT","geometryMatchMethod":"unique_official_admin_names","boundaryPointCount":76},"geometry":{"type":"MultiPolygon","coordinates":[[[[120.536987,15.47837],[120.542824,15.45434],[120.54203,15.4545],[120.540932,15.45533],[120.540413,15.45651],[120.539803,15.45839],[120.539337,15.45922],[120.537712,15.46059],[120.536049,15.46066],[120.534317,15.45953],[120.533859,15.45876],[120.533257,15.45749],[120.532608,15.456],[120.532066,15.45549],[120.530167,15.456],[120.529678,15.45735],[120.529549,15.4585],[120.52951,15.4605],[120.529121,15.46291],[120.527184,15.46472],[120.526421,15.46538],[120.524399,15.46613],[120.5233,15.46559],[120.522148,15.46408],[120.521721,15.46235],[120.521713,15.46133],[120.522041,15.45873],[120.522469,15.45604],[120.522324,15.4547],[120.521812,15.45424],[120.520699,15.45464],[120.519753,15.45589],[120.518417,15.45769],[120.517403,15.45878],[120.517097,15.45906],[120.515999,15.46005],[120.514763,15.45935],[120.514473,15.45865],[120.514412,15.45717],[120.514427,15.4556],[120.514023,15.4544],[120.513481,15.45423],[120.512016,15.45455],[120.511009,15.45487],[120.509979,15.45472],[120.509239,15.45352],[120.508629,15.45144],[120.508301,15.44964],[120.507797,15.44804],[120.506447,15.44681],[120.505234,15.44665],[120.502457,15.44739],[120.500061,15.44808],[120.498558,15.44825],[120.497223,15.45545],[120.496773,15.45898],[120.496094,15.46155],[120.496269,15.46415],[120.497032,15.46738],[120.497322,15.46853],[120.498688,15.47456],[120.498993,15.47651],[120.498993,15.47905],[120.498589,15.4815],[120.517273,15.47904],[120.518547,15.47892],[120.519623,15.47914],[120.521111,15.4793],[120.523064,15.47911],[120.525383,15.47961],[120.527023,15.48044],[120.528061,15.48094],[120.530251,15.48022],[120.532867,15.47919],[120.53437,15.47869],[120.536987,15.47837]]]]}},{"type":"Feature","properties":{"ID_0":177,"ISO":"PHL","NAME_0":"Philippines","ID_1":3069,"NAME_1":"Tarlac","ID_2":306918,"NAME_2":"San Jose","ID_3":306918011,"NAME_3":"San Juan de Valdez","NL_NAME_3":null,"VARNAME_3":null,"TYPE_3":"Barangay","ENGTYPE_3":"Village","PROVINCE":"Tarlac","REGION":"Region III (Central Luzon)","id":"barangay-0306918011","name":"San Juan de Valdez","barangayCode":"0306918011","population":null,"formattedPop":null,"densityCategory":"No data","vulnerabilityRating":"No data","healthRiskLevel":"No data","areaKm2":8.821687,"centerLat":15.494186,"centerLng":120.511952,"geometrySource":"all_barangay-2.csv detailed WKT","geometryMatchMethod":"unique_official_admin_names","boundaryPointCount":35},"geometry":{"type":"MultiPolygon","coordinates":[[[[120.503311,15.54423],[120.520477,15.53403],[120.525177,15.53103],[120.528221,15.5252],[120.533859,15.51563],[120.538338,15.49682],[120.536987,15.47837],[120.53437,15.47869],[120.532867,15.47919],[120.530251,15.48022],[120.528061,15.48094],[120.527023,15.48044],[120.525383,15.47961],[120.523064,15.47911],[120.521111,15.4793],[120.519623,15.47914],[120.518547,15.47892],[120.517273,15.47904],[120.498589,15.4815],[120.50042,15.51481],[120.50396,15.51525],[120.506706,15.51552],[120.508324,15.51579],[120.510536,15.51724],[120.511436,15.51883],[120.511276,15.51981],[120.511017,15.52071],[120.510788,15.52197],[120.504753,15.53604],[120.505287,15.53821],[120.505653,15.53881],[120.506042,15.53931],[120.505981,15.54043],[120.505272,15.54149],[120.503311,15.54423]]]]}},{"type":"Feature","properties":{"ID_0":177,"ISO":"PHL","NAME_0":"Philippines","ID_1":3069,"NAME_1":"Tarlac","ID_2":306918,"NAME_2":"San Jose","ID_3":306918012,"NAME_3":"Sula","NL_NAME_3":null,"VARNAME_3":null,"TYPE_3":"Barangay","ENGTYPE_3":"Village","PROVINCE":"Tarlac","REGION":"Region III (Central Luzon)","id":"barangay-0306918012","name":"Sula","barangayCode":"0306918012","population":null,"formattedPop":null,"densityCategory":"No data","vulnerabilityRating":"No data","healthRiskLevel":"No data","areaKm2":67.945123,"centerLat":15.432214,"centerLng":120.377727,"geometrySource":"all_barangay-2.csv detailed WKT","geometryMatchMethod":"unique_official_admin_names","boundaryPointCount":32},"geometry":{"type":"MultiPolygon","coordinates":[[[[120.403839,15.48013],[120.405327,15.47439],[120.405983,15.46875],[120.406609,15.4633],[120.406082,15.45799],[120.40641,15.45383],[120.406464,15.44664],[120.406303,15.44042],[120.406174,15.43155],[120.406403,15.42591],[120.406677,15.41733],[120.407806,15.41053],[120.407303,15.392],[120.396179,15.38581],[120.385292,15.37946],[120.374847,15.37344],[120.365181,15.36797],[120.357826,15.36414],[120.365837,15.41907],[120.366272,15.42813],[120.368713,15.44205],[120.370163,15.453],[120.371758,15.4626],[120.373497,15.47615],[120.375069,15.49165],[120.38253,15.48896],[120.388283,15.4866],[120.39138,15.48535],[120.395248,15.48393],[120.399292,15.48236],[120.402634,15.48138],[120.403839,15.48013]]]]}},{"type":"Feature","properties":{"ID_0":177,"ISO":"PHL","NAME_0":"Philippines","ID_1":3069,"NAME_1":"Tarlac","ID_2":306918,"NAME_2":"San Jose","ID_3":306918013,"NAME_3":"Villa Aglipay","NL_NAME_3":null,"VARNAME_3":null,"TYPE_3":"Barangay","ENGTYPE_3":"Village","PROVINCE":"Tarlac","REGION":"Region III (Central Luzon)","id":"barangay-0306918013","name":"Villa Aglipay","barangayCode":"0306918013","population":null,"formattedPop":null,"densityCategory":"No data","vulnerabilityRating":"No data","healthRiskLevel":"No data","areaKm2":18.819039,"centerLat":15.474502,"centerLng":120.466709,"geometrySource":"all_barangay-2.csv detailed WKT","geometryMatchMethod":"unique_official_admin_names","boundaryPointCount":84},"geometry":{"type":"MultiPolygon","coordinates":[[[[120.453781,15.50171],[120.458893,15.50083],[120.460037,15.49957],[120.458946,15.49839],[120.458549,15.49782],[120.458633,15.49717],[120.458969,15.49605],[120.460609,15.49604],[120.462463,15.49603],[120.465103,15.49582],[120.467422,15.49598],[120.469337,15.49591],[120.470993,15.4954],[120.472267,15.49503],[120.47403,15.4949],[120.475479,15.4952],[120.479691,15.49497],[120.482094,15.49426],[120.48365,15.49286],[120.484207,15.49053],[120.484398,15.48922],[120.485512,15.48603],[120.486938,15.48418],[120.487793,15.48378],[120.489151,15.48387],[120.491814,15.48516],[120.4935,15.48553],[120.495049,15.48505],[120.496223,15.48377],[120.496689,15.48303],[120.497383,15.48218],[120.498589,15.4815],[120.498993,15.47905],[120.498993,15.47651],[120.498688,15.47456],[120.497322,15.46853],[120.497032,15.46738],[120.496269,15.46415],[120.496094,15.46155],[120.496773,15.45898],[120.497223,15.45545],[120.498558,15.44825],[120.497093,15.44802],[120.495247,15.44681],[120.492912,15.44584],[120.490494,15.44581],[120.488541,15.44634],[120.484909,15.44812],[120.483093,15.44958],[120.481361,15.45102],[120.479599,15.45272],[120.4786,15.45376],[120.476143,15.45854],[120.473602,15.45854],[120.471207,15.45813],[120.470039,15.45793],[120.467567,15.45879],[120.465271,15.46101],[120.463509,15.46303],[120.459953,15.46579],[120.456947,15.46695],[120.453293,15.46804],[120.450706,15.46833],[120.448593,15.46836],[120.445351,15.4684],[120.445084,15.47174],[120.444687,15.47346],[120.444443,15.47572],[120.444267,15.47684],[120.443573,15.48181],[120.442886,15.48445],[120.441727,15.48704],[120.440887,15.4888],[120.440201,15.49145],[120.43998,15.49386],[120.440063,15.49558],[120.439484,15.4986],[120.438553,15.49991],[120.435966,15.50359],[120.437943,15.50344],[120.440987,15.50308],[120.444473,15.50287],[120.449074,15.5015],[120.453781,15.50171]]]]}}]}
