{"type":"FeatureCollection","features":[{"type":"Feature","properties":{"ID_0":177,"ISO":"PHL","NAME_0":"Philippines","ID_1":7022,"NAME_1":"Cebu","ID_2":702243,"NAME_2":"San Remigio","ID_3":702243001,"NAME_3":"Anapog","NL_NAME_3":null,"VARNAME_3":null,"TYPE_3":"Barangay","ENGTYPE_3":"Village","PROVINCE":"Cebu","REGION":"Region VII (Central Visayas)","id":"barangay-0702243001","name":"Anapog","barangayCode":"0702243001","population":null,"formattedPop":null,"densityCategory":"No data","vulnerabilityRating":"No data","healthRiskLevel":"No data","areaKm2":3.283882,"centerLat":11.028472,"centerLng":123.91076,"geometrySource":"all_barangay-2.csv detailed WKT","geometryMatchMethod":"unique_official_admin_names","boundaryPointCount":25},"geometry":{"type":"MultiPolygon","coordinates":[[[[123.932297,11.02697],[123.911583,11.01404],[123.911537,11.0141],[123.911339,11.01439],[123.911003,11.01484],[123.910599,11.01532],[123.910248,11.01588],[123.909927,11.01646],[123.909683,11.01705],[123.909348,11.01759],[123.908981,11.01808],[123.908607,11.01859],[123.908157,11.01907],[123.907677,11.01955],[123.907219,11.02],[123.907219,11.02009],[123.907219,11.02028],[123.904167,11.02333],[123.904167,11.02389],[123.903343,11.02472],[123.903343,11.025],[123.902496,11.02583],[123.902489,11.026423],[123.923782,11.03288],[123.932297,11.02697]]]]}},{"type":"Feature","properties":{"ID_0":177,"ISO":"PHL","NAME_0":"Philippines","ID_1":7022,"NAME_1":"Cebu","ID_2":702243,"NAME_2":"San Remigio","ID_3":702243002,"NAME_3":"Argawanon","NL_NAME_3":null,"VARNAME_3":null,"TYPE_3":"Barangay","ENGTYPE_3":"Village","PROVINCE":"Cebu","REGION":"Region VII (Central Visayas)","id":"barangay-0702243002","name":"Argawanon","barangayCode":"0702243002","population":null,"formattedPop":null,"densityCategory":"No data","vulnerabilityRating":"No data","healthRiskLevel":"No data","areaKm2":3.959457,"centerLat":11.073527,"centerLng":123.955514,"geometrySource":"all_barangay-2.csv detailed WKT","geometryMatchMethod":"unique_official_admin_names","boundaryPointCount":16},"geometry":{"type":"MultiPolygon","coordinates":[[[[123.947647,11.09111],[123.947777,11.09111],[123.948334,11.09056],[123.948608,11.09056],[123.950279,11.08889],[123.950279,11.08861],[123.950539,11.08832],[123.951462,11.08744],[123.951843,11.08674],[123.953018,11.0828],[123.954597,11.07288],[123.955658,11.06631],[123.948112,11.06391],[123.947197,11.07671],[123.94722,11.08788],[123.947647,11.09111]]]]}},{"type":"Feature","properties":{"ID_0":177,"ISO":"PHL","NAME_0":"Philippines","ID_1":7022,"NAME_1":"Cebu","ID_2":702243,"NAME_2":"San Remigio","ID_3":702243003,"NAME_3":"Bagtic","NL_NAME_3":null,"VARNAME_3":null,"TYPE_3":"Barangay","ENGTYPE_3":"Village","PROVINCE":"Cebu","REGION":"Region VII (Central Visayas)","id":"barangay-0702243003","name":"Bagtic","barangayCode":"0702243003","population":null,"formattedPop":null,"densityCategory":"No data","vulnerabilityRating":"No data","healthRiskLevel":"No data","areaKm2":7.034487,"centerLat":10.899971,"centerLng":123.921699,"geometrySource":"all_barangay-2.csv detailed WKT","geometryMatchMethod":"unique_official_admin_names","boundaryPointCount":33},"geometry":{"type":"MultiPolygon","coordinates":[[[[123.949287,10.90657],[123.946243,10.89352],[123.940269,10.89396],[123.936729,10.89436],[123.930717,10.89507],[123.930313,10.8961],[123.930412,10.89749],[123.930588,10.89823],[123.930847,10.89956],[123.930893,10.90091],[123.931976,10.90249],[123.931824,10.90385],[123.931023,10.90547],[123.930496,10.90626],[123.930092,10.90694],[123.929741,10.90785],[123.92897,10.90944],[123.928703,10.90984],[123.928337,10.9106],[123.927719,10.91111],[123.92701,10.91118],[123.926712,10.91227],[123.926659,10.91291],[123.932037,10.91307],[123.938171,10.91316],[123.943298,10.91274],[123.947227,10.91226],[123.94883,10.91186],[123.948883,10.91038],[123.948776,10.90941],[123.949371,10.90807],[123.949631,10.90749],[123.949287,10.90657]]]]}},{"type":"Feature","properties":{"ID_0":177,"ISO":"PHL","NAME_0":"Philippines","ID_1":7022,"NAME_1":"Cebu","ID_2":702243,"NAME_2":"San Remigio","ID_3":702243004,"NAME_3":"Bancasan","NL_NAME_3":null,"VARNAME_3":null,"TYPE_3":"Barangay","ENGTYPE_3":"Village","PROVINCE":"Cebu","REGION":"Region VII (Central Visayas)","id":"barangay-0702243004","name":"Bancasan","barangayCode":"0702243004","population":null,"formattedPop":null,"densityCategory":"No data","vulnerabilityRating":"No data","healthRiskLevel":"No data","areaKm2":2.401457,"centerLat":11.040677,"centerLng":123.917842,"geometrySource":"all_barangay-2.csv detailed WKT","geometryMatchMethod":"unique_official_admin_names","boundaryPointCount":49},"geometry":{"type":"MultiPolygon","coordinates":[[[[123.933617,11.04446],[123.923782,11.03288],[123.902489,11.026423],[123.902222,11.02667],[123.902222,11.02722],[123.901947,11.0275],[123.901947,11.02916],[123.90139,11.03167],[123.901108,11.03194],[123.901108,11.03281],[123.901108,11.03389],[123.90139,11.03417],[123.90139,11.03444],[123.901657,11.03472],[123.901657,11.035],[123.902779,11.03611],[123.903053,11.03611],[123.90361,11.03667],[123.903893,11.03667],[123.904716,11.0375],[123.904999,11.0375],[123.905563,11.03806],[123.90583,11.03806],[123.906113,11.03833],[123.906387,11.03833],[123.908333,11.04028],[123.908333,11.04056],[123.90889,11.04111],[123.90889,11.04167],[123.909157,11.04194],[123.909157,11.04222],[123.909721,11.04278],[123.909721,11.04306],[123.910004,11.04333],[123.910004,11.04361],[123.912781,11.04639],[123.912781,11.04667],[123.914169,11.04806],[123.914436,11.04806],[123.915001,11.04861],[123.915833,11.04861],[123.916107,11.04889],[123.916389,11.04889],[123.916656,11.04917],[123.916939,11.04917],[123.917007,11.0491],[123.91806,11.04895],[123.919189,11.04888],[123.933617,11.04446]]]]}},{"type":"Feature","properties":{"ID_0":177,"ISO":"PHL","NAME_0":"Philippines","ID_1":7022,"NAME_1":"Cebu","ID_2":702243,"NAME_2":"San Remigio","ID_3":702243005,"NAME_3":"Batad","NL_NAME_3":null,"VARNAME_3":null,"TYPE_3":"Barangay","ENGTYPE_3":"Village","PROVINCE":"Cebu","REGION":"Region VII (Central Visayas)","id":"barangay-0702243005","name":"Batad","barangayCode":"0702243005","population":null,"formattedPop":null,"densityCategory":"No data","vulnerabilityRating":"No data","healthRiskLevel":"No data","areaKm2":3.119913,"centerLat":11.012357,"centerLng":123.943787,"geometrySource":"all_barangay-2.csv detailed WKT","geometryMatchMethod":"unique_official_admin_names","boundaryPointCount":10},"geometry":{"type":"MultiPolygon","coordinates":[[[[123.959976,11.03322],[123.960457,11.03031],[123.960968,11.02262],[123.960632,11.01766],[123.960457,11.01421],[123.948593,11.01201],[123.940887,11.01588],[123.945732,11.0263],[123.952492,11.02973],[123.959976,11.03322]]]]}},{"type":"Feature","properties":{"ID_0":177,"ISO":"PHL","NAME_0":"Philippines","ID_1":7022,"NAME_1":"Cebu","ID_2":702243,"NAME_2":"San Remigio","ID_3":702243006,"NAME_3":"Busogon","NL_NAME_3":null,"VARNAME_3":null,"TYPE_3":"Barangay","ENGTYPE_3":"Village","PROVINCE":"Cebu","REGION":"Region VII (Central Visayas)","id":"barangay-0702243006","name":"Busogon","barangayCode":"0702243006","population":null,"formattedPop":null,"densityCategory":"No data","vulnerabilityRating":"No data","healthRiskLevel":"No data","areaKm2":4.425237,"centerLat":10.962944,"centerLng":123.93135,"geometrySource":"all_barangay-2.csv detailed WKT","geometryMatchMethod":"unique_official_admin_names","boundaryPointCount":128},"geometry":{"type":"MultiPolygon","coordinates":[[[[123.94297,10.97759],[123.942688,10.97613],[123.94191,10.97417],[123.941139,10.9715],[123.94072,10.96886],[123.940102,10.96558],[123.939857,10.96317],[123.939758,10.962114],[123.939552,10.95998],[123.939583,10.95706],[123.939697,10.95406],[123.939789,10.95222],[123.939957,10.95132],[123.938927,10.94843],[123.938713,10.94847],[123.937447,10.94809],[123.93663,10.94842],[123.936073,10.9487],[123.93512,10.94921],[123.934647,10.94975],[123.933937,10.94985],[123.933296,10.94951],[123.931732,10.95024],[123.93148,10.95063],[123.930603,10.9512],[123.929688,10.95118],[123.92865,10.95229],[123.927567,10.95247],[123.927094,10.95196],[123.926643,10.95184],[123.926071,10.95126],[123.925774,10.95042],[123.92527,10.95005],[123.92453,10.95058],[123.923668,10.95078],[123.9235,10.9507],[123.922943,10.951],[123.92244,10.95139],[123.921593,10.95176],[123.921417,10.95175],[123.921303,10.9521],[123.921318,10.95227],[123.921318,10.9531],[123.921112,10.95359],[123.920898,10.954],[123.920776,10.95447],[123.920761,10.95456],[123.920547,10.95511],[123.920441,10.9553],[123.92038,10.95541],[123.920288,10.9556],[123.92009,10.95589],[123.919853,10.95628],[123.919777,10.95684],[123.919777,10.95718],[123.919777,10.95808],[123.919853,10.95856],[123.919853,10.95888],[123.919769,10.9591],[123.919594,10.95927],[123.919296,10.95942],[123.919006,10.95963],[123.919029,10.96025],[123.919029,10.962114],[123.919029,10.96226],[123.919243,10.96316],[123.919518,10.96378],[123.9198,10.96413],[123.920219,10.96447],[123.920547,10.96472],[123.920547,10.965],[123.92028,10.96528],[123.92028,10.96583],[123.920547,10.96611],[123.920547,10.96639],[123.921387,10.96722],[123.921669,10.96722],[123.921944,10.9675],[123.922234,10.9675],[123.92231,10.96731],[123.923149,10.96744],[123.924149,10.96805],[123.9244,10.9682],[123.924683,10.96848],[123.925308,10.96938],[123.925583,10.97007],[123.925659,10.97048],[123.925941,10.97174],[123.926003,10.97201],[123.926079,10.97327],[123.926323,10.97369],[123.926582,10.97408],[123.926888,10.9744],[123.92717,10.97466],[123.927452,10.97492],[123.927803,10.97524],[123.928207,10.97558],[123.928627,10.97585],[123.92907,10.97604],[123.929482,10.97621],[123.929611,10.97629],[123.929657,10.97583],[123.929314,10.97524],[123.928787,10.97476],[123.928329,10.97454],[123.928207,10.97428],[123.928192,10.97381],[123.928253,10.9736],[123.928429,10.97333],[123.929649,10.97352],[123.930977,10.9738],[123.93219,10.97459],[123.933083,10.97508],[123.933456,10.97573],[123.933693,10.97657],[123.934174,10.97699],[123.935043,10.97623],[123.935852,10.97616],[123.936943,10.97616],[123.937347,10.97554],[123.937317,10.97471],[123.937477,10.97434],[123.938217,10.97419],[123.939377,10.97536],[123.940231,10.97597],[123.941078,10.97699],[123.941757,10.97748],[123.94297,10.97759]]]]}},{"type":"Feature","properties":{"ID_0":177,"ISO":"PHL","NAME_0":"Philippines","ID_1":7022,"NAME_1":"Cebu","ID_2":702243,"NAME_2":"San Remigio","ID_3":702243007,"NAME_3":"Calambua","NL_NAME_3":null,"VARNAME_3":null,"TYPE_3":"Barangay","ENGTYPE_3":"Village","PROVINCE":"Cebu","REGION":"Region VII (Central Visayas)","id":"barangay-0702243007","name":"Calambua","barangayCode":"0702243007","population":null,"formattedPop":null,"densityCategory":"No data","vulnerabilityRating":"No data","healthRiskLevel":"No data","areaKm2":4.65021,"centerLat":10.89427,"centerLng":123.948294,"geometrySource":"all_barangay-2.csv detailed WKT","geometryMatchMethod":"unique_official_admin_names","boundaryPointCount":27},"geometry":{"type":"MultiPolygon","coordinates":[[[[123.92923,10.92515],[123.94561,10.92524],[123.949821,10.92267],[123.958832,10.92404],[123.958488,10.92343],[123.958557,10.92164],[123.958878,10.91881],[123.959396,10.91582],[123.96067,10.91209],[123.961884,10.91008],[123.962883,10.9082],[123.963081,10.9062],[123.955292,10.90761],[123.949287,10.90657],[123.949631,10.90749],[123.949371,10.90807],[123.948776,10.90941],[123.948883,10.91038],[123.94883,10.91186],[123.947227,10.91226],[123.943298,10.91274],[123.938171,10.91316],[123.932037,10.91307],[123.926659,10.91291],[123.926376,10.91345],[123.928101,10.91946],[123.92923,10.92515]]]]}},{"type":"Feature","properties":{"ID_0":177,"ISO":"PHL","NAME_0":"Philippines","ID_1":7022,"NAME_1":"Cebu","ID_2":702243,"NAME_2":"San Remigio","ID_3":702243008,"NAME_3":"Canagahan","NL_NAME_3":null,"VARNAME_3":null,"TYPE_3":"Barangay","ENGTYPE_3":"Village","PROVINCE":"Cebu","REGION":"Region VII (Central Visayas)","id":"barangay-0702243008","name":"Canagahan","barangayCode":"0702243008","population":null,"formattedPop":null,"densityCategory":"No data","vulnerabilityRating":"No data","healthRiskLevel":"No data","areaKm2":6.322001,"centerLat":10.942055,"centerLng":123.943089,"geometrySource":"all_barangay-2.csv detailed WKT","geometryMatchMethod":"unique_official_admin_names","boundaryPointCount":34},"geometry":{"type":"MultiPolygon","coordinates":[[[[123.952713,10.97772],[123.953468,10.97397],[123.953346,10.97089],[123.95372,10.96707],[123.953941,10.962114],[123.953957,10.96162],[123.954269,10.9577],[123.954849,10.95345],[123.95546,10.94985],[123.94664,10.94544],[123.938927,10.94843],[123.939957,10.95132],[123.939789,10.95222],[123.939697,10.95406],[123.939583,10.95706],[123.939552,10.95998],[123.939758,10.962114],[123.939857,10.96317],[123.940102,10.96558],[123.94072,10.96886],[123.941139,10.9715],[123.94191,10.97417],[123.942688,10.97613],[123.94297,10.97759],[123.944191,10.97692],[123.944839,10.97657],[123.945374,10.97677],[123.946274,10.97776],[123.947121,10.97788],[123.948593,10.97707],[123.949654,10.97679],[123.950142,10.97693],[123.951736,10.97709],[123.952713,10.97772]]]]}},{"type":"Feature","properties":{"ID_0":177,"ISO":"PHL","NAME_0":"Philippines","ID_1":7022,"NAME_1":"Cebu","ID_2":702243,"NAME_2":"San Remigio","ID_3":702243009,"NAME_3":"Dapdap","NL_NAME_3":null,"VARNAME_3":null,"TYPE_3":"Barangay","ENGTYPE_3":"Village","PROVINCE":"Cebu","REGION":"Region VII (Central Visayas)","id":"barangay-0702243009","name":"Dapdap","barangayCode":"0702243009","population":null,"formattedPop":null,"densityCategory":"No data","vulnerabilityRating":"No data","healthRiskLevel":"No data","areaKm2":1.875522,"centerLat":11.031909,"centerLng":123.927838,"geometrySource":"all_barangay-2.csv detailed WKT","geometryMatchMethod":"unique_official_admin_names","boundaryPointCount":5},"geometry":{"type":"MultiPolygon","coordinates":[[[[123.935219,11.03561],[123.932297,11.02697],[123.923782,11.03288],[123.933617,11.04446],[123.935219,11.03561]]]]}},{"type":"Feature","properties":{"ID_0":177,"ISO":"PHL","NAME_0":"Philippines","ID_1":7022,"NAME_1":"Cebu","ID_2":702243,"NAME_2":"San Remigio","ID_3":702243010,"NAME_3":"Gawaygaway","NL_NAME_3":null,"VARNAME_3":null,"TYPE_3":"Barangay","ENGTYPE_3":"Village","PROVINCE":"Cebu","REGION":"Region VII (Central Visayas)","id":"barangay-0702243010","name":"Gawaygaway","barangayCode":"0702243010","population":null,"formattedPop":null,"densityCategory":"No data","vulnerabilityRating":"No data","healthRiskLevel":"No data","areaKm2":4.147878,"centerLat":10.963694,"centerLng":123.950975,"geometrySource":"all_barangay-2.csv detailed WKT","geometryMatchMethod":"unique_official_admin_names","boundaryPointCount":25},"geometry":{"type":"MultiPolygon","coordinates":[[[[123.948593,11.01201],[123.960457,11.01421],[123.960083,11.00882],[123.958908,11.00025],[123.957428,10.99484],[123.95546,10.98699],[123.952713,10.97772],[123.951736,10.97709],[123.950142,10.97693],[123.949654,10.97679],[123.948593,10.97707],[123.947121,10.97788],[123.946274,10.97776],[123.945374,10.97677],[123.944839,10.97657],[123.944191,10.97692],[123.94297,10.97759],[123.943367,10.97949],[123.944618,10.98267],[123.945717,10.98676],[123.946411,10.9917],[123.94706,10.99486],[123.947701,11.00014],[123.947487,11.00221],[123.948593,11.01201]]]]}},{"type":"Feature","properties":{"ID_0":177,"ISO":"PHL","NAME_0":"Philippines","ID_1":7022,"NAME_1":"Cebu","ID_2":702243,"NAME_2":"San Remigio","ID_3":702243011,"NAME_3":"Hagnaya","NL_NAME_3":null,"VARNAME_3":null,"TYPE_3":"Barangay","ENGTYPE_3":"Village","PROVINCE":"Cebu","REGION":"Region VII (Central Visayas)","id":"barangay-0702243011","name":"Hagnaya","barangayCode":"0702243011","population":null,"formattedPop":null,"densityCategory":"No data","vulnerabilityRating":"No data","healthRiskLevel":"No data","areaKm2":1.508753,"centerLat":11.088069,"centerLng":123.945967,"geometrySource":"all_barangay-2.csv detailed WKT","geometryMatchMethod":"unique_official_admin_names","boundaryPointCount":22},"geometry":{"type":"MultiPolygon","coordinates":[[[[123.943733,11.09599],[123.945831,11.09389],[123.945831,11.09361],[123.946114,11.09333],[123.946114,11.09306],[123.946388,11.09278],[123.946388,11.09254],[123.946388,11.0925],[123.946663,11.09222],[123.946663,11.09167],[123.946953,11.09139],[123.94722,11.09139],[123.947502,11.09111],[123.947647,11.09111],[123.94722,11.08788],[123.943314,11.08833],[123.941032,11.08997],[123.932159,11.09494],[123.93222,11.095],[123.93222,11.09515],[123.94313,11.09648],[123.943733,11.09599]]]]}},{"type":"Feature","properties":{"ID_0":177,"ISO":"PHL","NAME_0":"Philippines","ID_1":7022,"NAME_1":"Cebu","ID_2":702243,"NAME_2":"San Remigio","ID_3":702243012,"NAME_3":"Kayam","NL_NAME_3":null,"VARNAME_3":null,"TYPE_3":"Barangay","ENGTYPE_3":"Village","PROVINCE":"Cebu","REGION":"Region VII (Central Visayas)","id":"barangay-0702243012","name":"Kayam","barangayCode":"0702243012","population":null,"formattedPop":null,"densityCategory":"No data","vulnerabilityRating":"No data","healthRiskLevel":"No data","areaKm2":3.513452,"centerLat":11.042109,"centerLng":123.945678,"geometrySource":"all_barangay-2.csv detailed WKT","geometryMatchMethod":"unique_official_admin_names","boundaryPointCount":7},"geometry":{"type":"MultiPolygon","coordinates":[[[[123.945831,11.05191],[123.956596,11.05403],[123.958473,11.04346],[123.935219,11.03561],[123.933617,11.04446],[123.940811,11.04998],[123.945831,11.05191]]]]}},{"type":"Feature","properties":{"ID_0":177,"ISO":"PHL","NAME_0":"Philippines","ID_1":7022,"NAME_1":"Cebu","ID_2":702243,"NAME_2":"San Remigio","ID_3":702243013,"NAME_3":"Kinawahan","NL_NAME_3":null,"VARNAME_3":null,"TYPE_3":"Barangay","ENGTYPE_3":"Village","PROVINCE":"Cebu","REGION":"Region VII (Central Visayas)","id":"barangay-0702243013","name":"Kinawahan","barangayCode":"0702243013","population":null,"formattedPop":null,"densityCategory":"No data","vulnerabilityRating":"No data","healthRiskLevel":"No data","areaKm2":3.201262,"centerLat":10.946363,"centerLng":123.926291,"geometrySource":"all_barangay-2.csv detailed WKT","geometryMatchMethod":"unique_official_admin_names","boundaryPointCount":66},"geometry":{"type":"MultiPolygon","coordinates":[[[[123.921303,10.9521],[123.921417,10.95175],[123.921593,10.95176],[123.92244,10.95139],[123.922943,10.951],[123.9235,10.9507],[123.923668,10.95078],[123.92453,10.95058],[123.92527,10.95005],[123.925774,10.95042],[123.926071,10.95126],[123.926643,10.95184],[123.927094,10.95196],[123.927567,10.95247],[123.92865,10.95229],[123.929688,10.95118],[123.930603,10.9512],[123.93148,10.95063],[123.931732,10.95024],[123.933296,10.94951],[123.933937,10.94985],[123.934647,10.94975],[123.93512,10.94921],[123.936073,10.9487],[123.93663,10.94842],[123.937447,10.94809],[123.938713,10.94847],[123.938927,10.94843],[123.932823,10.93511],[123.913353,10.93945],[123.91291,10.94076],[123.912872,10.94156],[123.912903,10.94176],[123.91304,10.94231],[123.913193,10.94287],[123.9132,10.943],[123.913254,10.94349],[123.913322,10.94397],[123.914017,10.94529],[123.914093,10.94549],[123.914574,10.94637],[123.914772,10.94631],[123.914978,10.94626],[123.915321,10.94619],[123.915741,10.94619],[123.916023,10.94633],[123.916229,10.94668],[123.916512,10.94702],[123.916786,10.94743],[123.917267,10.94771],[123.917557,10.94792],[123.917763,10.94797],[123.917831,10.94799],[123.91832,10.94813],[123.919022,10.9484],[123.919296,10.94854],[123.919441,10.94854],[123.919724,10.94868],[123.920341,10.94882],[123.920547,10.94889],[123.920967,10.94951],[123.921181,10.95006],[123.921249,10.95041],[123.921249,10.95101],[123.921249,10.95179],[123.921303,10.9521]]]]}},{"type":"Feature","properties":{"ID_0":177,"ISO":"PHL","NAME_0":"Philippines","ID_1":7022,"NAME_1":"Cebu","ID_2":702243,"NAME_2":"San Remigio","ID_3":702243014,"NAME_3":"Lambusan","NL_NAME_3":null,"VARNAME_3":null,"TYPE_3":"Barangay","ENGTYPE_3":"Village","PROVINCE":"Cebu","REGION":"Region VII (Central Visayas)","id":"barangay-0702243014","name":"Lambusan","barangayCode":"0702243014","population":null,"formattedPop":null,"densityCategory":"No data","vulnerabilityRating":"No data","healthRiskLevel":"No data","areaKm2":4.222811,"centerLat":10.999113,"centerLng":123.939403,"geometrySource":"all_barangay-2.csv detailed WKT","geometryMatchMethod":"unique_official_admin_names","boundaryPointCount":36},"geometry":{"type":"MultiPolygon","coordinates":[[[[123.940887,11.01588],[123.948593,11.01201],[123.947487,11.00221],[123.930428,10.99854],[123.930153,10.99899],[123.929871,10.99926],[123.929688,10.99941],[123.929543,10.99962],[123.929443,11.0],[123.929443,11.00056],[123.929169,11.00083],[123.929169,11.00167],[123.928886,11.00194],[123.928886,11.00296],[123.928886,11.00306],[123.928612,11.00333],[123.928612,11.00389],[123.928337,11.00417],[123.928337,11.00639],[123.928612,11.00667],[123.928612,11.00694],[123.928886,11.00722],[123.929169,11.00694],[123.929733,11.00694],[123.930557,11.00778],[123.931038,11.00778],[123.931107,11.00778],[123.931389,11.00806],[123.93222,11.00806],[123.933052,11.00889],[123.933052,11.00972],[123.933327,11.01],[123.933052,11.01028],[123.933052,11.01056],[123.933022,11.01059],[123.940887,11.01588]]]]}},{"type":"Feature","properties":{"ID_0":177,"ISO":"PHL","NAME_0":"Philippines","ID_1":7022,"NAME_1":"Cebu","ID_2":702243,"NAME_2":"San Remigio","ID_3":702243015,"NAME_3":"Lawis","NL_NAME_3":null,"VARNAME_3":null,"TYPE_3":"Barangay","ENGTYPE_3":"Village","PROVINCE":"Cebu","REGION":"Region VII (Central Visayas)","id":"barangay-0702243015","name":"Lawis","barangayCode":"0702243015","population":null,"formattedPop":null,"densityCategory":"No data","vulnerabilityRating":"No data","healthRiskLevel":"No data","areaKm2":2.844975,"centerLat":11.055909,"centerLng":123.946905,"geometrySource":"all_barangay-2.csv detailed WKT","geometryMatchMethod":"unique_official_admin_names","boundaryPointCount":7},"geometry":{"type":"MultiPolygon","coordinates":[[[[123.955658,11.06631],[123.956596,11.05403],[123.945831,11.05191],[123.941841,11.05952],[123.945511,11.06045],[123.948112,11.06391],[123.955658,11.06631]]]]}},{"type":"Feature","properties":{"ID_0":177,"ISO":"PHL","NAME_0":"Philippines","ID_1":7022,"NAME_1":"Cebu","ID_2":702243,"NAME_2":"San Remigio","ID_3":702243016,"NAME_3":"Libaong","NL_NAME_3":null,"VARNAME_3":null,"TYPE_3":"Barangay","ENGTYPE_3":"Village","PROVINCE":"Cebu","REGION":"Region VII (Central Visayas)","id":"barangay-0702243016","name":"Libaong","barangayCode":"0702243016","population":null,"formattedPop":null,"densityCategory":"No data","vulnerabilityRating":"No data","healthRiskLevel":"No data","areaKm2":4.493843,"centerLat":10.924405,"centerLng":123.938566,"geometrySource":"all_barangay-2.csv detailed WKT","geometryMatchMethod":"unique_official_admin_names","boundaryPointCount":6},"geometry":{"type":"MultiPolygon","coordinates":[[[[123.938927,10.94843],[123.94664,10.94544],[123.94561,10.92524],[123.92923,10.92515],[123.932823,10.93511],[123.938927,10.94843]]]]}},{"type":"Feature","properties":{"ID_0":177,"ISO":"PHL","NAME_0":"Philippines","ID_1":7022,"NAME_1":"Cebu","ID_2":702243,"NAME_2":"San Remigio","ID_3":702243017,"NAME_3":"Looc","NL_NAME_3":null,"VARNAME_3":null,"TYPE_3":"Barangay","ENGTYPE_3":"Village","PROVINCE":"Cebu","REGION":"Region VII (Central Visayas)","id":"barangay-0702243017","name":"Looc","barangayCode":"0702243017","population":null,"formattedPop":null,"densityCategory":"No data","vulnerabilityRating":"No data","healthRiskLevel":"No data","areaKm2":1.713268,"centerLat":11.066413,"centerLng":123.940109,"geometrySource":"all_barangay-2.csv detailed WKT","geometryMatchMethod":"unique_official_admin_names","boundaryPointCount":43},"geometry":{"type":"MultiPolygon","coordinates":[[[[123.947197,11.07671],[123.948112,11.06391],[123.945511,11.06045],[123.941841,11.05952],[123.937447,11.05916],[123.931122,11.06156],[123.930168,11.06195],[123.930397,11.06218],[123.930794,11.06249],[123.931129,11.06281],[123.931503,11.06308],[123.931793,11.06339],[123.932007,11.06374],[123.932297,11.06399],[123.932518,11.06428],[123.932709,11.06453],[123.932831,11.0648],[123.933037,11.06502],[123.933159,11.06533],[123.933327,11.06558],[123.933434,11.0659],[123.933594,11.06619],[123.933739,11.06652],[123.933868,11.06687],[123.933968,11.06727],[123.934174,11.06778],[123.934174,11.06806],[123.934448,11.06833],[123.934448,11.06889],[123.934998,11.06944],[123.934998,11.06972],[123.93528,11.07],[123.93528,11.07056],[123.935547,11.07083],[123.935547,11.07139],[123.935837,11.07167],[123.935837,11.07222],[123.936111,11.0725],[123.936111,11.07444],[123.936272,11.07443],[123.939629,11.07419],[123.944481,11.07886],[123.947197,11.07671]]]]}},{"type":"Feature","properties":{"ID_0":177,"ISO":"PHL","NAME_0":"Philippines","ID_1":7022,"NAME_1":"Cebu","ID_2":702243,"NAME_2":"San Remigio","ID_3":702243018,"NAME_3":"Luyang","NL_NAME_3":null,"VARNAME_3":null,"TYPE_3":"Barangay","ENGTYPE_3":"Village","PROVINCE":"Cebu","REGION":"Region VII (Central Visayas)","id":"barangay-0702243018","name":"Luyang","barangayCode":"0702243018","population":null,"formattedPop":null,"densityCategory":"No data","vulnerabilityRating":"No data","healthRiskLevel":"No data","areaKm2":4.133016,"centerLat":10.915805,"centerLng":123.906455,"geometrySource":"all_barangay-2.csv detailed WKT","geometryMatchMethod":"unique_official_admin_names","boundaryPointCount":94},"geometry":{"type":"MultiPolygon","coordinates":[[[[123.928101,10.91946],[123.926376,10.91345],[123.926659,10.91291],[123.926712,10.91227],[123.92701,10.91118],[123.927719,10.91111],[123.928337,10.9106],[123.928703,10.90984],[123.92897,10.90944],[123.929741,10.90785],[123.930092,10.90694],[123.930496,10.90626],[123.931023,10.90547],[123.931824,10.90385],[123.931976,10.90249],[123.930893,10.90091],[123.930847,10.89956],[123.930588,10.89823],[123.930412,10.89749],[123.930313,10.8961],[123.930717,10.89507],[123.927841,10.89534],[123.924942,10.89612],[123.921288,10.89713],[123.917068,10.89868],[123.911812,10.90053],[123.911011,10.90047],[123.910278,10.9001],[123.909729,10.90012],[123.907959,10.90024],[123.907028,10.90036],[123.906448,10.90052],[123.905403,10.90152],[123.904984,10.90228],[123.904388,10.90287],[123.903259,10.90302],[123.902267,10.90369],[123.902237,10.90433],[123.901947,10.9047],[123.901443,10.9051],[123.900833,10.9061],[123.899902,10.90742],[123.899406,10.9075],[123.898781,10.90718],[123.898033,10.90673],[123.897072,10.90678],[123.896263,10.90773],[123.895088,10.90896],[123.895027,10.90925],[123.895073,10.90926],[123.894997,10.90939],[123.894951,10.9095],[123.894882,10.90981],[123.894943,10.91017],[123.894821,10.91065],[123.894783,10.91124],[123.894913,10.91188],[123.89505,10.91253],[123.895302,10.91303],[123.895569,10.91346],[123.895851,10.91386],[123.896111,10.91425],[123.896332,10.91463],[123.896469,10.91504],[123.896568,10.91544],[123.896744,10.91578],[123.89695,10.91609],[123.897148,10.91632],[123.897186,10.91635],[123.897423,10.91663],[123.897629,10.91696],[123.897812,10.91734],[123.898003,10.91769],[123.898087,10.91803],[123.898247,10.91828],[123.898331,10.9185],[123.898354,10.91855],[123.898727,10.91896],[123.899422,10.91918],[123.900146,10.91934],[123.90136,10.91969],[123.902168,10.91982],[123.903061,10.92022],[123.903297,10.92037],[123.904701,10.92149],[123.905693,10.92176],[123.907257,10.92127],[123.908928,10.92086],[123.90937,10.92033],[123.909843,10.9194],[123.911652,10.91932],[123.913986,10.91975],[123.921059,10.9203],[123.928101,10.91946]]]]}},{"type":"Feature","properties":{"ID_0":177,"ISO":"PHL","NAME_0":"Philippines","ID_1":7022,"NAME_1":"Cebu","ID_2":702243,"NAME_2":"San Remigio","ID_3":702243019,"NAME_3":"Maño","NL_NAME_3":null,"VARNAME_3":"Mano","TYPE_3":"Barangay","ENGTYPE_3":"Village","PROVINCE":"Cebu","REGION":"Region VII (Central Visayas)","id":"barangay-0702243019","name":"Maño","barangayCode":"0702243019","population":null,"formattedPop":null,"densityCategory":"No data","vulnerabilityRating":"No data","healthRiskLevel":"No data","areaKm2":3.51085,"centerLat":11.050775,"centerLng":123.929854,"geometrySource":"all_barangay-2.csv detailed WKT","geometryMatchMethod":"unique_official_admin_names","boundaryPointCount":43},"geometry":{"type":"MultiPolygon","coordinates":[[[[123.941841,11.05952],[123.945831,11.05191],[123.940811,11.04998],[123.933617,11.04446],[123.919189,11.04888],[123.91806,11.04895],[123.917007,11.0491],[123.916939,11.04917],[123.918892,11.05111],[123.918892,11.05139],[123.919441,11.05194],[123.919441,11.0525],[123.919724,11.05278],[123.92028,11.05278],[123.92028,11.05333],[123.92083,11.05389],[123.921112,11.05389],[123.922234,11.055],[123.922234,11.05528],[123.923332,11.05639],[123.923889,11.05583],[123.924156,11.05583],[123.924454,11.05611],[123.924721,11.05611],[123.925003,11.05639],[123.925003,11.05667],[123.925278,11.05695],[123.925278,11.05722],[123.925552,11.0575],[123.925552,11.05778],[123.926666,11.05889],[123.927498,11.05889],[123.928612,11.06],[123.928612,11.06028],[123.928909,11.06057],[123.929161,11.06083],[123.929443,11.06111],[123.929741,11.06143],[123.930038,11.06182],[123.930168,11.06195],[123.931122,11.06156],[123.937447,11.05916],[123.941841,11.05952]]]]}},{"type":"Feature","properties":{"ID_0":177,"ISO":"PHL","NAME_0":"Philippines","ID_1":7022,"NAME_1":"Cebu","ID_2":702243,"NAME_2":"San Remigio","ID_3":702243020,"NAME_3":"Poblacion","NL_NAME_3":null,"VARNAME_3":null,"TYPE_3":"Barangay","ENGTYPE_3":"Village","PROVINCE":"Cebu","REGION":"Region VII (Central Visayas)","id":"barangay-0702243020","name":"Poblacion","barangayCode":"0702243020","population":null,"formattedPop":null,"densityCategory":"No data","vulnerabilityRating":"No data","healthRiskLevel":"No data","areaKm2":2.405754,"centerLat":11.080871,"centerLng":123.940837,"geometrySource":"all_barangay-2.csv detailed WKT","geometryMatchMethod":"unique_official_admin_names","boundaryPointCount":65},"geometry":{"type":"MultiPolygon","coordinates":[[[[123.94722,11.08788],[123.947197,11.07671],[123.944481,11.07886],[123.939629,11.07419],[123.936272,11.07443],[123.936111,11.07444],[123.935547,11.075],[123.935547,11.07611],[123.93528,11.07639],[123.935547,11.07667],[123.935547,11.07722],[123.934723,11.07806],[123.934723,11.07861],[123.934448,11.07889],[123.934448,11.07945],[123.934174,11.07972],[123.934174,11.08],[123.933891,11.08028],[123.933891,11.08056],[123.934448,11.08111],[123.934448,11.08194],[123.934753,11.08223],[123.934723,11.08231],[123.934723,11.08278],[123.934486,11.08301],[123.934448,11.08306],[123.934448,11.08316],[123.934448,11.08333],[123.934387,11.08362],[123.934357,11.08368],[123.934219,11.084],[123.934113,11.0844],[123.933907,11.08478],[123.933746,11.08514],[123.933617,11.08552],[123.933609,11.08583],[123.933327,11.08611],[123.933327,11.08641],[123.933327,11.08722],[123.933151,11.0874],[123.933052,11.0875],[123.933052,11.08779],[123.933052,11.08833],[123.932777,11.0886],[123.932503,11.08889],[123.932503,11.08912],[123.932503,11.09],[123.931999,11.0905],[123.931953,11.09056],[123.931953,11.09083],[123.931664,11.09111],[123.931664,11.09222],[123.931953,11.0925],[123.931953,11.09278],[123.932121,11.09295],[123.93222,11.09306],[123.93222,11.09361],[123.932182,11.09365],[123.931953,11.09389],[123.931953,11.09472],[123.931976,11.09476],[123.932159,11.09494],[123.941032,11.08997],[123.943314,11.08833],[123.94722,11.08788]]]]}},{"type":"Feature","properties":{"ID_0":177,"ISO":"PHL","NAME_0":"Philippines","ID_1":7022,"NAME_1":"Cebu","ID_2":702243,"NAME_2":"San Remigio","ID_3":702243021,"NAME_3":"Punta","NL_NAME_3":null,"VARNAME_3":null,"TYPE_3":"Barangay","ENGTYPE_3":"Village","PROVINCE":"Cebu","REGION":"Region VII (Central Visayas)","id":"barangay-0702243021","name":"Punta","barangayCode":"0702243021","population":null,"formattedPop":null,"densityCategory":"No data","vulnerabilityRating":"No data","healthRiskLevel":"No data","areaKm2":1.383202,"centerLat":11.098825,"centerLng":123.936415,"geometrySource":"all_barangay-2.csv detailed WKT","geometryMatchMethod":"unique_official_admin_names","boundaryPointCount":60},"geometry":{"type":"MultiPolygon","coordinates":[[[[123.943733,11.09599],[123.94313,11.09648],[123.93222,11.09515],[123.93222,11.09528],[123.932503,11.09556],[123.93222,11.09583],[123.93222,11.09611],[123.932503,11.09639],[123.93222,11.09667],[123.93222,11.09833],[123.932503,11.09861],[123.932503,11.09889],[123.93222,11.09917],[123.93222,11.09972],[123.932137,11.0998],[123.931953,11.1],[123.932152,11.10021],[123.932503,11.10056],[123.93222,11.10083],[123.93222,11.10139],[123.932777,11.10194],[123.932777,11.10389],[123.932617,11.10404],[123.932503,11.10417],[123.932663,11.10432],[123.932777,11.10444],[123.932777,11.105],[123.933052,11.10528],[123.933052,11.10556],[123.933609,11.10611],[123.933609,11.10667],[123.933777,11.10683],[123.933891,11.10694],[123.934227,11.10729],[123.934723,11.10778],[123.936943,11.10778],[123.9375,11.10722],[123.9375,11.10697],[123.937531,11.10692],[123.938332,11.10611],[123.938332,11.10556],[123.938606,11.10528],[123.938606,11.10444],[123.939163,11.10389],[123.939163,11.10361],[123.940552,11.10222],[123.940552,11.10194],[123.940826,11.10167],[123.940826,11.10111],[123.941109,11.10083],[123.941109,11.10056],[123.941391,11.10028],[123.941391,11.1],[123.941948,11.09944],[123.941948,11.09917],[123.942223,11.09889],[123.942223,11.09806],[123.94278,11.0975],[123.942497,11.09722],[123.943733,11.09599]]]]}},{"type":"Feature","properties":{"ID_0":177,"ISO":"PHL","NAME_0":"Philippines","ID_1":7022,"NAME_1":"Cebu","ID_2":702243,"NAME_2":"San Remigio","ID_3":702243022,"NAME_3":"Sab-a","NL_NAME_3":null,"VARNAME_3":null,"TYPE_3":"Barangay","ENGTYPE_3":"Village","PROVINCE":"Cebu","REGION":"Region VII (Central Visayas)","id":"barangay-0702243022","name":"Sab-a","barangayCode":"0702243022","population":null,"formattedPop":null,"densityCategory":"No data","vulnerabilityRating":"No data","healthRiskLevel":"No data","areaKm2":5.060128,"centerLat":10.912478,"centerLng":123.940261,"geometrySource":"all_barangay-2.csv detailed WKT","geometryMatchMethod":"unique_official_admin_names","boundaryPointCount":12},"geometry":{"type":"MultiPolygon","coordinates":[[[[123.95546,10.94985],[123.955887,10.94868],[123.957207,10.94311],[123.95826,10.93763],[123.959038,10.9328],[123.958893,10.92914],[123.958893,10.92587],[123.958832,10.92404],[123.949821,10.92267],[123.94561,10.92524],[123.94664,10.94544],[123.95546,10.94985]]]]}},{"type":"Feature","properties":{"ID_0":177,"ISO":"PHL","NAME_0":"Philippines","ID_1":7022,"NAME_1":"Cebu","ID_2":702243,"NAME_2":"San Remigio","ID_3":702243023,"NAME_3":"San Miguel","NL_NAME_3":null,"VARNAME_3":null,"TYPE_3":"Barangay","ENGTYPE_3":"Village","PROVINCE":"Cebu","REGION":"Region VII (Central Visayas)","id":"barangay-0702243023","name":"San Miguel","barangayCode":"0702243023","population":null,"formattedPop":null,"densityCategory":"No data","vulnerabilityRating":"No data","healthRiskLevel":"No data","areaKm2":1.997361,"centerLat":10.889615,"centerLng":123.93158,"geometrySource":"all_barangay-2.csv detailed WKT","geometryMatchMethod":"unique_official_admin_names","boundaryPointCount":13},"geometry":{"type":"MultiPolygon","coordinates":[[[[123.963081,10.9062],[123.963226,10.90472],[123.962837,10.9027],[123.96244,10.89989],[123.961906,10.89746],[123.961113,10.8953],[123.960152,10.8926],[123.95491,10.89295],[123.951248,10.89311],[123.946243,10.89352],[123.949287,10.90657],[123.955292,10.90761],[123.963081,10.9062]]]]}},{"type":"Feature","properties":{"ID_0":177,"ISO":"PHL","NAME_0":"Philippines","ID_1":7022,"NAME_1":"Cebu","ID_2":702243,"NAME_2":"San Remigio","ID_3":702243024,"NAME_3":"Tacup","NL_NAME_3":null,"VARNAME_3":null,"TYPE_3":"Barangay","ENGTYPE_3":"Village","PROVINCE":"Cebu","REGION":"Region VII (Central Visayas)","id":"barangay-0702243024","name":"Tacup","barangayCode":"0702243024","population":null,"formattedPop":null,"densityCategory":"No data","vulnerabilityRating":"No data","healthRiskLevel":"No data","areaKm2":4.553886,"centerLat":10.981255,"centerLng":123.938247,"geometrySource":"all_barangay-2.csv detailed WKT","geometryMatchMethod":"unique_official_admin_names","boundaryPointCount":101},"geometry":{"type":"MultiPolygon","coordinates":[[[[123.947487,11.00221],[123.947701,11.00014],[123.94706,10.99486],[123.946411,10.9917],[123.945717,10.98676],[123.944618,10.98267],[123.943367,10.97949],[123.94297,10.97759],[123.941757,10.97748],[123.941078,10.97699],[123.940231,10.97597],[123.939377,10.97536],[123.938217,10.97419],[123.937477,10.97434],[123.937317,10.97471],[123.937347,10.97554],[123.936943,10.97616],[123.935852,10.97616],[123.935043,10.97623],[123.934174,10.97699],[123.933693,10.97657],[123.933456,10.97573],[123.933083,10.97508],[123.93219,10.97459],[123.930977,10.9738],[123.929649,10.97352],[123.928429,10.97333],[123.928253,10.9736],[123.928192,10.97381],[123.928207,10.97428],[123.928329,10.97454],[123.928787,10.97476],[123.929314,10.97524],[123.929657,10.97583],[123.929611,10.97629],[123.929787,10.97641],[123.929893,10.97666],[123.929787,10.97695],[123.929497,10.97728],[123.929031,10.97756],[123.928932,10.97761],[123.928917,10.97767],[123.928627,10.97875],[123.928574,10.97965],[123.92836,10.98027],[123.928207,10.98082],[123.928139,10.98102],[123.928078,10.98117],[123.927238,10.98214],[123.927231,10.98273],[123.927399,10.98337],[123.927597,10.98369],[123.927643,10.98375],[123.927742,10.98389],[123.928207,10.98425],[123.928619,10.98456],[123.92894,10.9849],[123.929176,10.98528],[123.92939,10.98566],[123.929604,10.98598],[123.929749,10.98623],[123.92981,10.98645],[123.929741,10.98669],[123.929771,10.98696],[123.929893,10.98793],[123.929787,10.98841],[123.929787,10.98924],[123.929939,10.99021],[123.930077,10.99035],[123.930496,10.99049],[123.931053,10.99076],[123.931541,10.99104],[123.931892,10.99132],[123.932449,10.99187],[123.932487,10.99191],[123.932716,10.99221],[123.933563,10.99249],[123.933701,10.99346],[123.933632,10.99367],[123.932869,10.99367],[123.932587,10.99374],[123.932426,10.99376],[123.93203,10.9938],[123.931793,10.99396],[123.93161,10.99408],[123.931396,10.99429],[123.931122,10.99429],[123.930702,10.9945],[123.930153,10.99477],[123.930008,10.99505],[123.930008,10.99539],[123.930206,10.99588],[123.930351,10.99615],[123.930351,10.9965],[123.930153,10.99698],[123.930077,10.99719],[123.930077,10.99754],[123.930283,10.99788],[123.930428,10.99816],[123.930428,10.99854],[123.947487,11.00221]]]]}},{"type":"Feature","properties":{"ID_0":177,"ISO":"PHL","NAME_0":"Philippines","ID_1":7022,"NAME_1":"Cebu","ID_2":702243,"NAME_2":"San Remigio","ID_3":702243025,"NAME_3":"Tambongon","NL_NAME_3":null,"VARNAME_3":null,"TYPE_3":"Barangay","ENGTYPE_3":"Village","PROVINCE":"Cebu","REGION":"Region VII (Central Visayas)","id":"barangay-0702243025","name":"Tambongon","barangayCode":"0702243025","population":null,"formattedPop":null,"densityCategory":"No data","vulnerabilityRating":"No data","healthRiskLevel":"No data","areaKm2":4.657192,"centerLat":11.015821,"centerLng":123.923746,"geometrySource":"all_barangay-2.csv detailed WKT","geometryMatchMethod":"unique_official_admin_names","boundaryPointCount":76},"geometry":{"type":"MultiPolygon","coordinates":[[[[123.932297,11.02697],[123.945732,11.0263],[123.940887,11.01588],[123.933022,11.01059],[123.932503,11.01111],[123.93222,11.01111],[123.931953,11.01083],[123.931664,11.01083],[123.930557,11.00972],[123.930267,11.00972],[123.930122,11.00957],[123.93,11.00944],[123.93,11.00917],[123.929733,11.00917],[123.929001,11.00879],[123.928947,11.00876],[123.928253,11.00828],[123.927834,11.00849],[123.927368,11.00907],[123.926666,11.00889],[123.926666,11.00778],[123.926109,11.00722],[123.926109,11.00718],[123.926109,11.00667],[123.925827,11.00639],[123.925827,11.00556],[123.925552,11.00528],[123.925453,11.00487],[123.92524,11.00442],[123.924873,11.004],[123.924492,11.00353],[123.924156,11.00303],[123.92382,11.00257],[123.923431,11.00221],[123.922943,11.00191],[123.922318,11.00195],[123.921783,11.00219],[123.921707,11.00223],[123.921242,11.00259],[123.920837,11.00297],[123.920418,11.00332],[123.92009,11.00374],[123.920036,11.0038],[123.919647,11.00422],[123.919273,11.00454],[123.918983,11.0048],[123.918716,11.00505],[123.918488,11.0053],[123.918198,11.00556],[123.917809,11.00584],[123.917374,11.00614],[123.917313,11.00619],[123.916977,11.00649],[123.916656,11.00686],[123.916313,11.00721],[123.915932,11.00755],[123.915581,11.00795],[123.915268,11.00842],[123.914963,11.00885],[123.91468,11.00921],[123.914436,11.00952],[123.91423,11.00978],[123.914047,11.01002],[123.913963,11.01021],[123.913933,11.01029],[123.913849,11.01066],[123.913673,11.01102],[123.913383,11.01138],[123.913078,11.01186],[123.912788,11.01238],[123.912514,11.01286],[123.912216,11.01327],[123.911926,11.01363],[123.911621,11.01397],[123.911583,11.01404],[123.932297,11.02697]]]]}},{"type":"Feature","properties":{"ID_0":177,"ISO":"PHL","NAME_0":"Philippines","ID_1":7022,"NAME_1":"Cebu","ID_2":702243,"NAME_2":"San Remigio","ID_3":702243026,"NAME_3":"To-ong","NL_NAME_3":null,"VARNAME_3":null,"TYPE_3":"Barangay","ENGTYPE_3":"Village","PROVINCE":"Cebu","REGION":"Region VII (Central Visayas)","id":"barangay-0702243026","name":"To-ong","barangayCode":"0702243026","population":null,"formattedPop":null,"densityCategory":"No data","vulnerabilityRating":"No data","healthRiskLevel":"No data","areaKm2":2.643223,"centerLat":11.027846,"centerLng":123.942779,"geometrySource":"all_barangay-2.csv detailed WKT","geometryMatchMethod":"unique_official_admin_names","boundaryPointCount":8},"geometry":{"type":"MultiPolygon","coordinates":[[[[123.958473,11.04346],[123.959351,11.0366],[123.959976,11.03322],[123.952492,11.02973],[123.945732,11.0263],[123.932297,11.02697],[123.935219,11.03561],[123.958473,11.04346]]]]}},{"type":"Feature","properties":{"ID_0":177,"ISO":"PHL","NAME_0":"Philippines","ID_1":7022,"NAME_1":"Cebu","ID_2":702243,"NAME_2":"San Remigio","ID_3":702243027,"NAME_3":"Victoria","NL_NAME_3":null,"VARNAME_3":null,"TYPE_3":"Barangay","ENGTYPE_3":"Village","PROVINCE":"Cebu","REGION":"Region VII (Central Visayas)","id":"barangay-0702243027","name":"Victoria","barangayCode":"0702243027","population":null,"formattedPop":null,"densityCategory":"No data","vulnerabilityRating":"No data","healthRiskLevel":"No data","areaKm2":4.35004,"centerLat":10.930911,"centerLng":123.915795,"geometrySource":"all_barangay-2.csv detailed WKT","geometryMatchMethod":"unique_official_admin_names","boundaryPointCount":118},"geometry":{"type":"MultiPolygon","coordinates":[[[[123.932823,10.93511],[123.92923,10.92515],[123.928101,10.91946],[123.921059,10.9203],[123.913986,10.91975],[123.911652,10.91932],[123.909843,10.9194],[123.90937,10.92033],[123.908928,10.92086],[123.907257,10.92127],[123.905693,10.92176],[123.904701,10.92149],[123.903297,10.92037],[123.903061,10.92022],[123.902168,10.91982],[123.90136,10.91969],[123.900146,10.91934],[123.899422,10.91918],[123.898727,10.91896],[123.898354,10.91855],[123.898376,10.91873],[123.898483,10.91896],[123.898483,10.91931],[123.898376,10.91949],[123.898338,10.91975],[123.898331,10.92001],[123.898331,10.92007],[123.898331,10.92042],[123.898331,10.92077],[123.898331,10.92114],[123.898338,10.92158],[123.898956,10.92201],[123.899658,10.92284],[123.900078,10.92339],[123.900223,10.92415],[123.900261,10.92454],[123.900284,10.9247],[123.900681,10.92632],[123.901077,10.92661],[123.901489,10.9268],[123.901833,10.92697],[123.90226,10.92699],[123.90274,10.92699],[123.903183,10.92713],[123.903557,10.92737],[123.903877,10.92765],[123.904099,10.92792],[123.904083,10.92798],[123.904114,10.92815],[123.904037,10.92828],[123.903992,10.92836],[123.903748,10.92856],[123.903419,10.92873],[123.903091,10.92893],[123.902817,10.92914],[123.902603,10.92937],[123.902382,10.92962],[123.902153,10.92992],[123.901894,10.9303],[123.901627,10.93075],[123.901512,10.93118],[123.901512,10.93164],[123.901627,10.93212],[123.901817,10.93264],[123.902122,10.93316],[123.902527,10.93359],[123.902946,10.93394],[123.90329,10.93429],[123.903519,10.93465],[123.903671,10.93501],[123.90387,10.93529],[123.904037,10.93556],[123.904213,10.93585],[123.904442,10.93611],[123.904716,10.93638],[123.905037,10.93665],[123.905479,10.93689],[123.906036,10.93706],[123.90667,10.93722],[123.906937,10.93722],[123.906982,10.93717],[123.907242,10.93678],[123.907501,10.93639],[123.907784,10.93611],[123.908257,10.93479],[123.908684,10.93424],[123.909027,10.93396],[123.909279,10.93374],[123.909698,10.93367],[123.909973,10.93367],[123.910393,10.93388],[123.910461,10.93388],[123.91053,10.93416],[123.910599,10.9345],[123.910667,10.93499],[123.910553,10.93537],[123.910812,10.93678],[123.910927,10.93694],[123.910988,10.93702],[123.911034,10.93704],[123.911209,10.9371],[123.911652,10.9372],[123.912354,10.9372],[123.912697,10.93727],[123.912743,10.93731],[123.91304,10.93761],[123.913193,10.93782],[123.913322,10.93803],[123.913322,10.93858],[123.913254,10.93886],[123.912827,10.93934],[123.912697,10.93982],[123.912697,10.94065],[123.912827,10.94128],[123.912872,10.94156],[123.91291,10.94076],[123.913353,10.93945],[123.932823,10.93511]]]]}}]}
