{"type":"FeatureCollection","features":[{"type":"Feature","properties":{"ID_0":177,"ISO":"PHL","NAME_0":"Philippines","ID_1":1029,"NAME_1":"Ilocos Sur","ID_2":102927,"NAME_2":"Santiago","ID_3":102927001,"NAME_3":"Al-aludig","NL_NAME_3":null,"VARNAME_3":null,"TYPE_3":"Barangay","ENGTYPE_3":"Village","PROVINCE":"Ilocos Sur","REGION":"Region I (Ilocos Region)","id":"barangay-0102927001","name":"Al-aludig","barangayCode":"0102927001","population":null,"formattedPop":null,"densityCategory":"No data","vulnerabilityRating":"No data","healthRiskLevel":"No data","areaKm2":3.900609,"centerLat":17.268603,"centerLng":120.47826,"geometrySource":"all_barangay-2.csv detailed WKT","geometryMatchMethod":"unique_official_admin_names","boundaryPointCount":19},"geometry":{"type":"MultiPolygon","coordinates":[[[[120.485741,17.294241],[120.499924,17.295],[120.50489,17.29163],[120.506577,17.2892],[120.509651,17.28739],[120.512787,17.28437],[120.509819,17.278641],[120.504997,17.270981],[120.498863,17.260571],[120.496094,17.260889],[120.493874,17.260851],[120.490646,17.26053],[120.489311,17.26034],[120.486961,17.259939],[120.481583,17.257931],[120.478043,17.25629],[120.476196,17.25491],[120.468689,17.258051],[120.485741,17.294241]]]]}},{"type":"Feature","properties":{"ID_0":177,"ISO":"PHL","NAME_0":"Philippines","ID_1":1029,"NAME_1":"Ilocos Sur","ID_2":102927,"NAME_2":"Santiago","ID_3":102927002,"NAME_3":"Ambucao","NL_NAME_3":null,"VARNAME_3":null,"TYPE_3":"Barangay","ENGTYPE_3":"Village","PROVINCE":"Ilocos Sur","REGION":"Region I (Ilocos Region)","id":"barangay-0102927002","name":"Ambucao","barangayCode":"0102927002","population":null,"formattedPop":null,"densityCategory":"No data","vulnerabilityRating":"No data","healthRiskLevel":"No data","areaKm2":2.385407,"centerLat":17.299856,"centerLng":120.427567,"geometrySource":"all_barangay-2.csv detailed WKT","geometryMatchMethod":"unique_official_admin_names","boundaryPointCount":73},"geometry":{"type":"MultiPolygon","coordinates":[[[[120.433762,17.318359],[120.431831,17.297911],[120.429962,17.288059],[120.429932,17.287901],[120.429169,17.287781],[120.428886,17.2875],[120.428337,17.2875],[120.428047,17.28722],[120.42778,17.28722],[120.427498,17.286949],[120.425552,17.286949],[120.425278,17.28722],[120.423607,17.28722],[120.422501,17.28833],[120.422501,17.288891],[120.422783,17.289169],[120.422783,17.290001],[120.422501,17.290279],[120.422501,17.29056],[120.422234,17.290831],[120.422234,17.2925],[120.422501,17.29278],[120.422501,17.29389],[120.422783,17.29417],[120.422783,17.295],[120.423058,17.29528],[120.423058,17.295561],[120.423241,17.29574],[120.423332,17.29583],[120.423332,17.296391],[120.423607,17.296671],[120.423607,17.29694],[120.423332,17.29722],[120.423332,17.297501],[120.423393,17.29755],[120.423607,17.297779],[120.423607,17.298889],[120.423508,17.29899],[120.423332,17.29917],[120.423332,17.30056],[120.423058,17.300831],[120.423058,17.305],[120.422783,17.305281],[120.422783,17.305559],[120.422234,17.30611],[120.422234,17.306669],[120.422501,17.30694],[120.423058,17.30694],[120.423889,17.307779],[120.423889,17.308331],[120.424156,17.308611],[120.424156,17.308889],[120.424454,17.30917],[120.424454,17.309719],[120.424721,17.309999],[120.424721,17.31028],[120.425003,17.31056],[120.425003,17.31111],[120.425552,17.31167],[120.425552,17.31278],[120.425827,17.313061],[120.425827,17.31333],[120.426109,17.31361],[120.426109,17.31389],[120.428047,17.31583],[120.428047,17.316111],[120.428337,17.316389],[120.42778,17.31694],[120.42778,17.317221],[120.427307,17.31768],[120.428299,17.31777],[120.429024,17.317789],[120.433762,17.318359]]]]}},{"type":"Feature","properties":{"ID_0":177,"ISO":"PHL","NAME_0":"Philippines","ID_1":1029,"NAME_1":"Ilocos Sur","ID_2":102927,"NAME_2":"Santiago","ID_3":102927003,"NAME_3":"San Jose","NL_NAME_3":null,"VARNAME_3":null,"TYPE_3":"Barangay","ENGTYPE_3":"Village","PROVINCE":"Ilocos Sur","REGION":"Region I (Ilocos Region)","id":"barangay-0102927003","name":"San Jose","barangayCode":"0102927003","population":null,"formattedPop":null,"densityCategory":"No data","vulnerabilityRating":"No data","healthRiskLevel":"No data","areaKm2":0.671359,"centerLat":17.285711,"centerLng":120.441453,"geometrySource":"all_barangay-2.csv detailed WKT","geometryMatchMethod":"unique_official_admin_names","boundaryPointCount":22},"geometry":{"type":"MultiPolygon","coordinates":[[[[120.442329,17.289949],[120.443642,17.28923],[120.446342,17.288361],[120.448097,17.28768],[120.447853,17.28656],[120.447952,17.285669],[120.447517,17.284121],[120.442909,17.279079],[120.442711,17.279461],[120.441399,17.28027],[120.440399,17.28075],[120.43943,17.28125],[120.438538,17.28171],[120.437843,17.283159],[120.437653,17.28371],[120.437553,17.284611],[120.438362,17.285061],[120.439407,17.285959],[120.44043,17.28787],[120.441002,17.288639],[120.441971,17.289351],[120.442329,17.289949]]]]}},{"type":"Feature","properties":{"ID_0":177,"ISO":"PHL","NAME_0":"Philippines","ID_1":1029,"NAME_1":"Ilocos Sur","ID_2":102927,"NAME_2":"Santiago","ID_3":102927004,"NAME_3":"Baybayabas","NL_NAME_3":null,"VARNAME_3":null,"TYPE_3":"Barangay","ENGTYPE_3":"Village","PROVINCE":"Ilocos Sur","REGION":"Region I (Ilocos Region)","id":"barangay-0102927004","name":"Baybayabas","barangayCode":"0102927004","population":null,"formattedPop":null,"densityCategory":"No data","vulnerabilityRating":"No data","healthRiskLevel":"No data","areaKm2":1.678839,"centerLat":17.248849,"centerLng":120.461916,"geometrySource":"all_barangay-2.csv detailed WKT","geometryMatchMethod":"unique_official_admin_names","boundaryPointCount":9},"geometry":{"type":"MultiPolygon","coordinates":[[[[120.456459,17.263241],[120.468689,17.258051],[120.476196,17.25491],[120.472969,17.252581],[120.47081,17.250771],[120.467796,17.247101],[120.466873,17.245501],[120.451477,17.25552],[120.456459,17.263241]]]]}},{"type":"Feature","properties":{"ID_0":177,"ISO":"PHL","NAME_0":"Philippines","ID_1":1029,"NAME_1":"Ilocos Sur","ID_2":102927,"NAME_2":"Santiago","ID_3":102927005,"NAME_3":"Bigbiga","NL_NAME_3":null,"VARNAME_3":null,"TYPE_3":"Barangay","ENGTYPE_3":"Village","PROVINCE":"Ilocos Sur","REGION":"Region I (Ilocos Region)","id":"barangay-0102927005","name":"Bigbiga","barangayCode":"0102927005","population":null,"formattedPop":null,"densityCategory":"No data","vulnerabilityRating":"No data","healthRiskLevel":"No data","areaKm2":1.368376,"centerLat":17.30705,"centerLng":120.445235,"geometrySource":"all_barangay-2.csv detailed WKT","geometryMatchMethod":"unique_official_admin_names","boundaryPointCount":8},"geometry":{"type":"MultiPolygon","coordinates":[[[[120.442596,17.31827],[120.447342,17.31765],[120.450363,17.317829],[120.453072,17.317181],[120.453377,17.30065],[120.443382,17.30081],[120.441628,17.318451],[120.442596,17.31827]]]]}},{"type":"Feature","properties":{"ID_0":177,"ISO":"PHL","NAME_0":"Philippines","ID_1":1029,"NAME_1":"Ilocos Sur","ID_2":102927,"NAME_2":"Santiago","ID_3":102927006,"NAME_3":"Bulbulala","NL_NAME_3":null,"VARNAME_3":null,"TYPE_3":"Barangay","ENGTYPE_3":"Village","PROVINCE":"Ilocos Sur","REGION":"Region I (Ilocos Region)","id":"barangay-0102927006","name":"Bulbulala","barangayCode":"0102927006","population":null,"formattedPop":null,"densityCategory":"No data","vulnerabilityRating":"No data","healthRiskLevel":"No data","areaKm2":1.13192,"centerLat":17.269421,"centerLng":120.450486,"geometrySource":"all_barangay-2.csv detailed WKT","geometryMatchMethod":"unique_official_admin_names","boundaryPointCount":7},"geometry":{"type":"MultiPolygon","coordinates":[[[[120.462486,17.273479],[120.456459,17.263241],[120.442139,17.268829],[120.443123,17.270269],[120.443314,17.270729],[120.443443,17.27178],[120.462486,17.273479]]]]}},{"type":"Feature","properties":{"ID_0":177,"ISO":"PHL","NAME_0":"Philippines","ID_1":1029,"NAME_1":"Ilocos Sur","ID_2":102927,"NAME_2":"Santiago","ID_3":102927007,"NAME_3":"Busel-busel","NL_NAME_3":null,"VARNAME_3":null,"TYPE_3":"Barangay","ENGTYPE_3":"Village","PROVINCE":"Ilocos Sur","REGION":"Region I (Ilocos Region)","id":"barangay-0102927007","name":"Busel-busel","barangayCode":"0102927007","population":null,"formattedPop":null,"densityCategory":"No data","vulnerabilityRating":"No data","healthRiskLevel":"No data","areaKm2":1.613809,"centerLat":17.301889,"centerLng":120.437043,"geometrySource":"all_barangay-2.csv detailed WKT","geometryMatchMethod":"unique_official_admin_names","boundaryPointCount":8},"geometry":{"type":"MultiPolygon","coordinates":[[[[120.441628,17.318451],[120.443382,17.30081],[120.443871,17.29726],[120.444489,17.29315],[120.441856,17.293381],[120.431831,17.297911],[120.433762,17.318359],[120.441628,17.318451]]]]}},{"type":"Feature","properties":{"ID_0":177,"ISO":"PHL","NAME_0":"Philippines","ID_1":1029,"NAME_1":"Ilocos Sur","ID_2":102927,"NAME_2":"Santiago","ID_3":102927008,"NAME_3":"Butol","NL_NAME_3":null,"VARNAME_3":null,"TYPE_3":"Barangay","ENGTYPE_3":"Village","PROVINCE":"Ilocos Sur","REGION":"Region I (Ilocos Region)","id":"barangay-0102927008","name":"Butol","barangayCode":"0102927008","population":null,"formattedPop":null,"densityCategory":"No data","vulnerabilityRating":"No data","healthRiskLevel":"No data","areaKm2":2.837655,"centerLat":17.244358,"centerLng":120.424711,"geometrySource":"all_barangay-2.csv detailed WKT","geometryMatchMethod":"unique_official_admin_names","boundaryPointCount":66},"geometry":{"type":"MultiPolygon","coordinates":[[[[120.418488,17.26404],[120.418427,17.263849],[120.432442,17.261499],[120.430946,17.25069],[120.431427,17.243111],[120.432907,17.2332],[120.424927,17.229521],[120.420418,17.229891],[120.419998,17.22991],[120.419998,17.230829],[120.420547,17.231119],[120.420761,17.232479],[120.421181,17.233841],[120.421112,17.235001],[120.421112,17.237221],[120.42083,17.237499],[120.42083,17.23806],[120.420563,17.238331],[120.420563,17.238609],[120.42028,17.23889],[120.42028,17.23917],[120.420563,17.239441],[120.42028,17.239719],[120.42028,17.240549],[120.419998,17.240829],[120.419998,17.24139],[120.419724,17.241671],[120.419724,17.243059],[120.419998,17.24333],[120.419998,17.244169],[120.419724,17.24444],[120.419724,17.24556],[120.419441,17.245831],[120.419441,17.246111],[120.419167,17.246389],[120.419167,17.247219],[120.418892,17.247499],[120.418892,17.24806],[120.41861,17.248329],[120.41861,17.24889],[120.418327,17.24917],[120.418327,17.249451],[120.418053,17.24972],[120.418053,17.25083],[120.417778,17.25111],[120.417778,17.25139],[120.416946,17.25222],[120.417221,17.252501],[120.417221,17.252781],[120.416656,17.25333],[120.416656,17.25444],[120.416389,17.254721],[120.416389,17.25556],[120.416946,17.256109],[120.417427,17.256411],[120.417664,17.257179],[120.417778,17.257561],[120.417778,17.258261],[120.417778,17.26083],[120.418053,17.26111],[120.418053,17.262501],[120.418259,17.262711],[120.418327,17.262779],[120.418327,17.26329],[120.418327,17.263889],[120.418488,17.26404]]]]}},{"type":"Feature","properties":{"ID_0":177,"ISO":"PHL","NAME_0":"Philippines","ID_1":1029,"NAME_1":"Ilocos Sur","ID_2":102927,"NAME_2":"Santiago","ID_3":102927009,"NAME_3":"Caburao","NL_NAME_3":null,"VARNAME_3":null,"TYPE_3":"Barangay","ENGTYPE_3":"Village","PROVINCE":"Ilocos Sur","REGION":"Region I (Ilocos Region)","id":"barangay-0102927009","name":"Caburao","barangayCode":"0102927009","population":null,"formattedPop":null,"densityCategory":"No data","vulnerabilityRating":"No data","healthRiskLevel":"No data","areaKm2":1.497043,"centerLat":17.238235,"centerLng":120.453727,"geometrySource":"all_barangay-2.csv detailed WKT","geometryMatchMethod":"unique_official_admin_names","boundaryPointCount":14},"geometry":{"type":"MultiPolygon","coordinates":[[[[120.431427,17.243111],[120.447998,17.24436],[120.450844,17.242041],[120.451607,17.239771],[120.461571,17.238569],[120.460663,17.236771],[120.459717,17.2351],[120.458977,17.233829],[120.45681,17.23308],[120.454208,17.23192],[120.442902,17.235291],[120.434822,17.233431],[120.432907,17.2332],[120.431427,17.243111]]]]}},{"type":"Feature","properties":{"ID_0":177,"ISO":"PHL","NAME_0":"Philippines","ID_1":1029,"NAME_1":"Ilocos Sur","ID_2":102927,"NAME_2":"Santiago","ID_3":102927010,"NAME_3":"Dan-ar","NL_NAME_3":null,"VARNAME_3":null,"TYPE_3":"Barangay","ENGTYPE_3":"Village","PROVINCE":"Ilocos Sur","REGION":"Region I (Ilocos Region)","id":"barangay-0102927010","name":"Dan-ar","barangayCode":"0102927010","population":null,"formattedPop":null,"densityCategory":"No data","vulnerabilityRating":"No data","healthRiskLevel":"No data","areaKm2":4.598968,"centerLat":17.249426,"centerLng":120.437345,"geometrySource":"all_barangay-2.csv detailed WKT","geometryMatchMethod":"unique_official_admin_names","boundaryPointCount":6},"geometry":{"type":"MultiPolygon","coordinates":[[[[120.451477,17.25552],[120.447998,17.24436],[120.431427,17.243111],[120.430946,17.25069],[120.432442,17.261499],[120.451477,17.25552]]]]}},{"type":"Feature","properties":{"ID_0":177,"ISO":"PHL","NAME_0":"Philippines","ID_1":1029,"NAME_1":"Ilocos Sur","ID_2":102927,"NAME_2":"Santiago","ID_3":102927011,"NAME_3":"Gabao","NL_NAME_3":null,"VARNAME_3":null,"TYPE_3":"Barangay","ENGTYPE_3":"Village","PROVINCE":"Ilocos Sur","REGION":"Region I (Ilocos Region)","id":"barangay-0102927011","name":"Gabao","barangayCode":"0102927011","population":null,"formattedPop":null,"densityCategory":"No data","vulnerabilityRating":"No data","healthRiskLevel":"No data","areaKm2":1.766652,"centerLat":17.263107,"centerLng":120.424208,"geometrySource":"all_barangay-2.csv detailed WKT","geometryMatchMethod":"unique_official_admin_names","boundaryPointCount":27},"geometry":{"type":"MultiPolygon","coordinates":[[[[120.433296,17.266979],[120.432442,17.261499],[120.418427,17.263849],[120.418488,17.26404],[120.41861,17.26417],[120.41861,17.2645],[120.41861,17.26528],[120.418854,17.265511],[120.418892,17.26556],[120.418892,17.26572],[120.418892,17.26667],[120.419113,17.26689],[120.419167,17.266951],[120.419167,17.26721],[120.419167,17.2675],[120.419228,17.267559],[120.419441,17.26778],[120.419441,17.268061],[120.42028,17.26889],[120.42028,17.269171],[120.420563,17.26944],[120.420563,17.270281],[120.42083,17.270559],[120.42083,17.27083],[120.421112,17.271111],[120.421112,17.271561],[120.433296,17.266979]]]]}},{"type":"Feature","properties":{"ID_0":177,"ISO":"PHL","NAME_0":"Philippines","ID_1":1029,"NAME_1":"Ilocos Sur","ID_2":102927,"NAME_2":"Santiago","ID_3":102927012,"NAME_3":"Guinabang","NL_NAME_3":null,"VARNAME_3":null,"TYPE_3":"Barangay","ENGTYPE_3":"Village","PROVINCE":"Ilocos Sur","REGION":"Region I (Ilocos Region)","id":"barangay-0102927012","name":"Guinabang","barangayCode":"0102927012","population":null,"formattedPop":null,"densityCategory":"No data","vulnerabilityRating":"No data","healthRiskLevel":"No data","areaKm2":0.334215,"centerLat":17.282518,"centerLng":120.434494,"geometrySource":"all_barangay-2.csv detailed WKT","geometryMatchMethod":"unique_official_admin_names","boundaryPointCount":27},"geometry":{"type":"MultiPolygon","coordinates":[[[[120.437553,17.284611],[120.437653,17.28371],[120.437843,17.283159],[120.438538,17.28171],[120.434158,17.27346],[120.424927,17.279301],[120.424553,17.279539],[120.425827,17.28083],[120.426109,17.28083],[120.426392,17.281111],[120.426941,17.281111],[120.43,17.28417],[120.430267,17.28417],[120.430832,17.284719],[120.431389,17.284719],[120.431664,17.284439],[120.431953,17.284439],[120.43222,17.284719],[120.432503,17.284719],[120.432701,17.284519],[120.432777,17.284439],[120.433052,17.284439],[120.433327,17.284719],[120.433456,17.284719],[120.433617,17.284731],[120.43544,17.28479],[120.437553,17.284611]]]]}},{"type":"Feature","properties":{"ID_0":177,"ISO":"PHL","NAME_0":"Philippines","ID_1":1029,"NAME_1":"Ilocos Sur","ID_2":102927,"NAME_2":"Santiago","ID_3":102927013,"NAME_3":"Imus","NL_NAME_3":null,"VARNAME_3":null,"TYPE_3":"Barangay","ENGTYPE_3":"Village","PROVINCE":"Ilocos Sur","REGION":"Region I (Ilocos Region)","id":"barangay-0102927013","name":"Imus","barangayCode":"0102927013","population":null,"formattedPop":null,"densityCategory":"No data","vulnerabilityRating":"No data","healthRiskLevel":"No data","areaKm2":2.229534,"centerLat":17.262857,"centerLng":120.443511,"geometrySource":"all_barangay-2.csv detailed WKT","geometryMatchMethod":"unique_official_admin_names","boundaryPointCount":7},"geometry":{"type":"MultiPolygon","coordinates":[[[[120.442139,17.268829],[120.456459,17.263241],[120.451477,17.25552],[120.432442,17.261499],[120.433296,17.266979],[120.433327,17.267441],[120.442139,17.268829]]]]}},{"type":"Feature","properties":{"ID_0":177,"ISO":"PHL","NAME_0":"Philippines","ID_1":1029,"NAME_1":"Ilocos Sur","ID_2":102927,"NAME_2":"Santiago","ID_3":102927014,"NAME_3":"Lang-ayan","NL_NAME_3":null,"VARNAME_3":null,"TYPE_3":"Barangay","ENGTYPE_3":"Village","PROVINCE":"Ilocos Sur","REGION":"Region I (Ilocos Region)","id":"barangay-0102927014","name":"Lang-ayan","barangayCode":"0102927014","population":null,"formattedPop":null,"densityCategory":"No data","vulnerabilityRating":"No data","healthRiskLevel":"No data","areaKm2":1.605035,"centerLat":17.273925,"centerLng":120.437767,"geometrySource":"all_barangay-2.csv detailed WKT","geometryMatchMethod":"unique_official_admin_names","boundaryPointCount":19},"geometry":{"type":"MultiPolygon","coordinates":[[[[120.438538,17.28171],[120.43943,17.28125],[120.440399,17.28075],[120.441399,17.28027],[120.442711,17.279461],[120.442909,17.279079],[120.443314,17.27754],[120.443466,17.27639],[120.443443,17.275709],[120.443352,17.275391],[120.443367,17.274309],[120.443443,17.27178],[120.443314,17.270729],[120.443123,17.270269],[120.442139,17.268829],[120.433327,17.267441],[120.434387,17.273121],[120.434158,17.27346],[120.438538,17.28171]]]]}},{"type":"Feature","properties":{"ID_0":177,"ISO":"PHL","NAME_0":"Philippines","ID_1":1029,"NAME_1":"Ilocos Sur","ID_2":102927,"NAME_2":"Santiago","ID_3":102927015,"NAME_3":"Mambug","NL_NAME_3":null,"VARNAME_3":null,"TYPE_3":"Barangay","ENGTYPE_3":"Village","PROVINCE":"Ilocos Sur","REGION":"Region I (Ilocos Region)","id":"barangay-0102927015","name":"Mambug","barangayCode":"0102927015","population":null,"formattedPop":null,"densityCategory":"No data","vulnerabilityRating":"No data","healthRiskLevel":"No data","areaKm2":5.885453,"centerLat":17.300464,"centerLng":120.460817,"geometrySource":"all_barangay-2.csv detailed WKT","geometryMatchMethod":"unique_official_admin_names","boundaryPointCount":24},"geometry":{"type":"MultiPolygon","coordinates":[[[[120.458649,17.31637],[120.46257,17.31555],[120.465347,17.31456],[120.468674,17.31329],[120.471107,17.312799],[120.471542,17.312469],[120.473663,17.311769],[120.476318,17.31064],[120.481529,17.308189],[120.483612,17.30686],[120.485992,17.305531],[120.490028,17.302299],[120.494591,17.299459],[120.49646,17.29809],[120.497719,17.29697],[120.499924,17.295],[120.485741,17.294241],[120.473984,17.29377],[120.456032,17.293449],[120.454399,17.29693],[120.453377,17.30065],[120.453072,17.317181],[120.456383,17.31673],[120.458649,17.31637]]]]}},{"type":"Feature","properties":{"ID_0":177,"ISO":"PHL","NAME_0":"Philippines","ID_1":1029,"NAME_1":"Ilocos Sur","ID_2":102927,"NAME_2":"Santiago","ID_3":102927016,"NAME_3":"Nalasin","NL_NAME_3":null,"VARNAME_3":null,"TYPE_3":"Barangay","ENGTYPE_3":"Village","PROVINCE":"Ilocos Sur","REGION":"Region I (Ilocos Region)","id":"barangay-0102927016","name":"Nalasin","barangayCode":"0102927016","population":null,"formattedPop":null,"densityCategory":"No data","vulnerabilityRating":"No data","healthRiskLevel":"No data","areaKm2":1.711775,"centerLat":17.288737,"centerLng":120.461619,"geometrySource":"all_barangay-2.csv detailed WKT","geometryMatchMethod":"unique_official_admin_names","boundaryPointCount":23},"geometry":{"type":"MultiPolygon","coordinates":[[[[120.473984,17.29377],[120.470062,17.286449],[120.447517,17.284121],[120.447952,17.285669],[120.447853,17.28656],[120.448097,17.28768],[120.446342,17.288361],[120.443642,17.28923],[120.442329,17.289949],[120.442627,17.290739],[120.443527,17.292509],[120.443916,17.293011],[120.444489,17.29315],[120.446968,17.293261],[120.448029,17.291559],[120.448257,17.29151],[120.449211,17.29211],[120.449867,17.29323],[120.450378,17.29373],[120.451683,17.29285],[120.453506,17.29233],[120.456032,17.293449],[120.473984,17.29377]]]]}},{"type":"Feature","properties":{"ID_0":177,"ISO":"PHL","NAME_0":"Philippines","ID_1":1029,"NAME_1":"Ilocos Sur","ID_2":102927,"NAME_2":"Santiago","ID_3":102927017,"NAME_3":"Olo-olo Norte","NL_NAME_3":null,"VARNAME_3":null,"TYPE_3":"Barangay","ENGTYPE_3":"Village","PROVINCE":"Ilocos Sur","REGION":"Region I (Ilocos Region)","id":"barangay-0102927017","name":"Olo-olo Norte","barangayCode":"0102927017","population":null,"formattedPop":null,"densityCategory":"No data","vulnerabilityRating":"No data","healthRiskLevel":"No data","areaKm2":2.742798,"centerLat":17.281727,"centerLng":120.456733,"geometrySource":"all_barangay-2.csv detailed WKT","geometryMatchMethod":"unique_official_admin_names","boundaryPointCount":8},"geometry":{"type":"MultiPolygon","coordinates":[[[[120.470062,17.286449],[120.464973,17.27766],[120.443443,17.275709],[120.443466,17.27639],[120.443314,17.27754],[120.442909,17.279079],[120.447517,17.284121],[120.470062,17.286449]]]]}},{"type":"Feature","properties":{"ID_0":177,"ISO":"PHL","NAME_0":"Philippines","ID_1":1029,"NAME_1":"Ilocos Sur","ID_2":102927,"NAME_2":"Santiago","ID_3":102927018,"NAME_3":"Olo-olo Sur","NL_NAME_3":null,"VARNAME_3":null,"TYPE_3":"Barangay","ENGTYPE_3":"Village","PROVINCE":"Ilocos Sur","REGION":"Region I (Ilocos Region)","id":"barangay-0102927018","name":"Olo-olo Sur","barangayCode":"0102927018","population":null,"formattedPop":null,"densityCategory":"No data","vulnerabilityRating":"No data","healthRiskLevel":"No data","areaKm2":0.981464,"centerLat":17.274715,"centerLng":120.453038,"geometrySource":"all_barangay-2.csv detailed WKT","geometryMatchMethod":"unique_official_admin_names","boundaryPointCount":7},"geometry":{"type":"MultiPolygon","coordinates":[[[[120.443443,17.275709],[120.464973,17.27766],[120.462486,17.273479],[120.443443,17.27178],[120.443367,17.274309],[120.443352,17.275391],[120.443443,17.275709]]]]}},{"type":"Feature","properties":{"ID_0":177,"ISO":"PHL","NAME_0":"Philippines","ID_1":1029,"NAME_1":"Ilocos Sur","ID_2":102927,"NAME_2":"Santiago","ID_3":102927019,"NAME_3":"Poblacion Norte","NL_NAME_3":null,"VARNAME_3":null,"TYPE_3":"Barangay","ENGTYPE_3":"Village","PROVINCE":"Ilocos Sur","REGION":"Region I (Ilocos Region)","id":"barangay-0102927019","name":"Poblacion Norte","barangayCode":"0102927019","population":null,"formattedPop":null,"densityCategory":"No data","vulnerabilityRating":"No data","healthRiskLevel":"No data","areaKm2":0.49302,"centerLat":17.296418,"centerLng":120.445294,"geometrySource":"all_barangay-2.csv detailed WKT","geometryMatchMethod":"unique_official_admin_names","boundaryPointCount":5},"geometry":{"type":"MultiPolygon","coordinates":[[[[120.443382,17.30081],[120.453377,17.30065],[120.454399,17.29693],[120.443871,17.29726],[120.443382,17.30081]]]]}},{"type":"Feature","properties":{"ID_0":177,"ISO":"PHL","NAME_0":"Philippines","ID_1":1029,"NAME_1":"Ilocos Sur","ID_2":102927,"NAME_2":"Santiago","ID_3":102927020,"NAME_3":"Poblacion Sur","NL_NAME_3":null,"VARNAME_3":null,"TYPE_3":"Barangay","ENGTYPE_3":"Village","PROVINCE":"Ilocos Sur","REGION":"Region I (Ilocos Region)","id":"barangay-0102927020","name":"Poblacion Sur","barangayCode":"0102927020","population":null,"formattedPop":null,"densityCategory":"No data","vulnerabilityRating":"No data","healthRiskLevel":"No data","areaKm2":0.267955,"centerLat":17.291491,"centerLng":120.44532,"geometrySource":"all_barangay-2.csv detailed WKT","geometryMatchMethod":"unique_official_admin_names","boundaryPointCount":13},"geometry":{"type":"MultiPolygon","coordinates":[[[[120.454399,17.29693],[120.456032,17.293449],[120.453506,17.29233],[120.451683,17.29285],[120.450378,17.29373],[120.449867,17.29323],[120.449211,17.29211],[120.448257,17.29151],[120.448029,17.291559],[120.446968,17.293261],[120.444489,17.29315],[120.443871,17.29726],[120.454399,17.29693]]]]}},{"type":"Feature","properties":{"ID_0":177,"ISO":"PHL","NAME_0":"Philippines","ID_1":1029,"NAME_1":"Ilocos Sur","ID_2":102927,"NAME_2":"Santiago","ID_3":102927021,"NAME_3":"Sabangan","NL_NAME_3":null,"VARNAME_3":null,"TYPE_3":"Barangay","ENGTYPE_3":"Village","PROVINCE":"Ilocos Sur","REGION":"Region I (Ilocos Region)","id":"barangay-0102927021","name":"Sabangan","barangayCode":"0102927021","population":null,"formattedPop":null,"densityCategory":"No data","vulnerabilityRating":"No data","healthRiskLevel":"No data","areaKm2":0.870885,"centerLat":17.290986,"centerLng":120.435472,"geometrySource":"all_barangay-2.csv detailed WKT","geometryMatchMethod":"unique_official_admin_names","boundaryPointCount":34},"geometry":{"type":"MultiPolygon","coordinates":[[[[120.431831,17.297911],[120.441856,17.293381],[120.444489,17.29315],[120.443916,17.293011],[120.443527,17.292509],[120.442627,17.290739],[120.442329,17.289949],[120.441971,17.289351],[120.441002,17.288639],[120.44043,17.28787],[120.439407,17.285959],[120.438362,17.285061],[120.437553,17.284611],[120.43544,17.28479],[120.433617,17.284731],[120.434174,17.28528],[120.434174,17.285561],[120.434448,17.28583],[120.434448,17.28611],[120.434998,17.286671],[120.434998,17.2875],[120.434723,17.287781],[120.434723,17.288059],[120.434059,17.288719],[120.433891,17.288891],[120.433327,17.288891],[120.433052,17.289169],[120.432777,17.288891],[120.431389,17.28861],[120.430923,17.288151],[120.430832,17.288059],[120.429932,17.287901],[120.429962,17.288059],[120.431831,17.297911]]]]}},{"type":"Feature","properties":{"ID_0":177,"ISO":"PHL","NAME_0":"Philippines","ID_1":1029,"NAME_1":"Ilocos Sur","ID_2":102927,"NAME_2":"Santiago","ID_3":102927022,"NAME_3":"Salincub","NL_NAME_3":null,"VARNAME_3":null,"TYPE_3":"Barangay","ENGTYPE_3":"Village","PROVINCE":"Ilocos Sur","REGION":"Region I (Ilocos Region)","id":"barangay-0102927022","name":"Salincub","barangayCode":"0102927022","population":null,"formattedPop":null,"densityCategory":"No data","vulnerabilityRating":"No data","healthRiskLevel":"No data","areaKm2":3.876529,"centerLat":17.26859,"centerLng":120.46494,"geometrySource":"all_barangay-2.csv detailed WKT","geometryMatchMethod":"unique_official_admin_names","boundaryPointCount":8},"geometry":{"type":"MultiPolygon","coordinates":[[[[120.485741,17.294241],[120.468689,17.258051],[120.456459,17.263241],[120.462486,17.273479],[120.464973,17.27766],[120.470062,17.286449],[120.473984,17.29377],[120.485741,17.294241]]]]}},{"type":"Feature","properties":{"ID_0":177,"ISO":"PHL","NAME_0":"Philippines","ID_1":1029,"NAME_1":"Ilocos Sur","ID_2":102927,"NAME_2":"Santiago","ID_3":102927023,"NAME_3":"San Roque","NL_NAME_3":null,"VARNAME_3":null,"TYPE_3":"Barangay","ENGTYPE_3":"Village","PROVINCE":"Ilocos Sur","REGION":"Region I (Ilocos Region)","id":"barangay-0102927023","name":"San Roque","barangayCode":"0102927023","population":null,"formattedPop":null,"densityCategory":"No data","vulnerabilityRating":"No data","healthRiskLevel":"No data","areaKm2":1.521274,"centerLat":17.275274,"centerLng":120.427836,"geometrySource":"all_barangay-2.csv detailed WKT","geometryMatchMethod":"unique_official_admin_names","boundaryPointCount":24},"geometry":{"type":"MultiPolygon","coordinates":[[[[120.424553,17.279539],[120.424927,17.279301],[120.434158,17.27346],[120.434387,17.273121],[120.433327,17.267441],[120.433296,17.266979],[120.421112,17.271561],[120.421112,17.27306],[120.421387,17.273331],[120.421387,17.273609],[120.421112,17.27389],[120.421112,17.274071],[120.421112,17.27417],[120.421188,17.27424],[120.421387,17.274441],[120.421387,17.274599],[120.421387,17.27528],[120.421669,17.275551],[120.421669,17.27611],[120.421944,17.27639],[120.421944,17.27667],[120.422501,17.27722],[120.422501,17.2775],[120.424553,17.279539]]]]}},{"type":"Feature","properties":{"ID_0":177,"ISO":"PHL","NAME_0":"Philippines","ID_1":1029,"NAME_1":"Ilocos Sur","ID_2":102927,"NAME_2":"Santiago","ID_3":102927024,"NAME_3":"Ubbog","NL_NAME_3":null,"VARNAME_3":null,"TYPE_3":"Barangay","ENGTYPE_3":"Village","PROVINCE":"Ilocos Sur","REGION":"Region I (Ilocos Region)","id":"barangay-0102927024","name":"Ubbog","barangayCode":"0102927024","population":null,"formattedPop":null,"densityCategory":"No data","vulnerabilityRating":"No data","healthRiskLevel":"No data","areaKm2":1.783633,"centerLat":17.249356,"centerLng":120.45229,"geometrySource":"all_barangay-2.csv detailed WKT","geometryMatchMethod":"unique_official_admin_names","boundaryPointCount":9},"geometry":{"type":"MultiPolygon","coordinates":[[[[120.466873,17.245501],[120.465569,17.24338],[120.463181,17.240919],[120.461571,17.238569],[120.451607,17.239771],[120.450844,17.242041],[120.447998,17.24436],[120.451477,17.25552],[120.466873,17.245501]]]]}}]}
