{"type":"FeatureCollection","features":[{"type":"Feature","properties":{"ID_0":177,"ISO":"PHL","NAME_0":"Philippines","ID_1":7022,"NAME_1":"Cebu","ID_2":702215,"NAME_2":"Carmen","ID_3":702215001,"NAME_3":"Baring","NL_NAME_3":null,"VARNAME_3":null,"TYPE_3":"Barangay","ENGTYPE_3":"Village","PROVINCE":"Cebu","REGION":"Region VII (Central Visayas)","id":"barangay-0702215001","name":"Baring","barangayCode":"0702215001","population":null,"formattedPop":null,"densityCategory":"No data","vulnerabilityRating":"No data","healthRiskLevel":"No data","areaKm2":4.445297,"centerLat":10.589431,"centerLng":124.003211,"geometrySource":"all_barangay-2.csv detailed WKT","geometryMatchMethod":"unique_official_admin_names","boundaryPointCount":31},"geometry":{"type":"MultiPolygon","coordinates":[[[[124.004143,10.59692],[124.004784,10.5965],[124.005287,10.59651],[124.006241,10.59654],[124.007408,10.59684],[124.008476,10.59718],[124.010048,10.59745],[124.011879,10.59709],[124.017143,10.59506],[124.015038,10.59031],[124.014633,10.58983],[124.014229,10.58894],[124.013977,10.58852],[124.012787,10.58804],[124.012131,10.58795],[124.011269,10.58792],[124.010719,10.58805],[124.010017,10.5882],[124.009331,10.5884],[124.008743,10.58787],[124.008057,10.5878],[124.007538,10.58787],[124.006477,10.58838],[124.005653,10.58863],[124.005157,10.58854],[124.00489,10.58888],[124.004509,10.58929],[124.003708,10.58951],[124.002724,10.58945],[124.00061,10.58901],[124.004143,10.59692]]]]}},{"type":"Feature","properties":{"ID_0":177,"ISO":"PHL","NAME_0":"Philippines","ID_1":7022,"NAME_1":"Cebu","ID_2":702215,"NAME_2":"Carmen","ID_3":702215002,"NAME_3":"Cantipay","NL_NAME_3":null,"VARNAME_3":null,"TYPE_3":"Barangay","ENGTYPE_3":"Village","PROVINCE":"Cebu","REGION":"Region VII (Central Visayas)","id":"barangay-0702215002","name":"Cantipay","barangayCode":"0702215002","population":null,"formattedPop":null,"densityCategory":"No data","vulnerabilityRating":"No data","healthRiskLevel":"No data","areaKm2":3.994474,"centerLat":10.608541,"centerLng":124.006206,"geometrySource":"all_barangay-2.csv detailed WKT","geometryMatchMethod":"unique_official_admin_names","boundaryPointCount":45},"geometry":{"type":"MultiPolygon","coordinates":[[[[124.011124,10.61274],[124.011223,10.61065],[124.011749,10.60917],[124.011978,10.60825],[124.012466,10.60765],[124.013611,10.60722],[124.014343,10.60716],[124.015381,10.60657],[124.016312,10.60595],[124.017372,10.606],[124.01841,10.60556],[124.019783,10.60518],[124.021202,10.60531],[124.022423,10.60567],[124.023148,10.60617],[124.023956,10.60667],[124.024437,10.6068],[124.023697,10.60489],[124.022141,10.60053],[124.021263,10.59734],[124.020523,10.59489],[124.020393,10.59438],[124.017143,10.59506],[124.011879,10.59709],[124.010048,10.59745],[124.008476,10.59718],[124.007408,10.59684],[124.006241,10.59654],[124.005287,10.59651],[124.004784,10.5965],[124.004143,10.59692],[124.005493,10.59966],[124.005348,10.60067],[124.004257,10.60103],[124.003281,10.60172],[124.00264,10.60218],[124.002403,10.60292],[124.002457,10.60449],[124.003258,10.60488],[124.003738,10.60524],[124.004097,10.60587],[124.004494,10.60724],[124.004837,10.60798],[124.006958,10.61433],[124.011124,10.61274]]]]}},{"type":"Feature","properties":{"ID_0":177,"ISO":"PHL","NAME_0":"Philippines","ID_1":7022,"NAME_1":"Cebu","ID_2":702215,"NAME_2":"Carmen","ID_3":702215003,"NAME_3":"Cantumog","NL_NAME_3":null,"VARNAME_3":null,"TYPE_3":"Barangay","ENGTYPE_3":"Village","PROVINCE":"Cebu","REGION":"Region VII (Central Visayas)","id":"barangay-0702215003","name":"Cantumog","barangayCode":"0702215003","population":null,"formattedPop":null,"densityCategory":"No data","vulnerabilityRating":"No data","healthRiskLevel":"No data","areaKm2":1.714545,"centerLat":10.599388,"centerLng":123.9926,"geometrySource":"all_barangay-2.csv detailed WKT","geometryMatchMethod":"unique_official_admin_names","boundaryPointCount":42},"geometry":{"type":"MultiPolygon","coordinates":[[[[123.992813,10.60557],[123.99337,10.60544],[123.994034,10.6053],[123.994423,10.60516],[123.995033,10.60478],[123.995644,10.60434],[123.996521,10.60381],[123.99691,10.60321],[123.998169,10.6022],[123.998917,10.6018],[124.00032,10.60121],[124.001717,10.60051],[124.002937,10.60043],[124.004051,10.60002],[124.004898,10.59978],[124.005493,10.59966],[124.004143,10.59692],[124.00061,10.58901],[123.998894,10.58932],[123.997887,10.58922],[123.996513,10.58978],[123.994713,10.59049],[123.993057,10.59134],[123.991592,10.59235],[123.990082,10.59366],[123.987846,10.59519],[123.986237,10.5959],[123.984932,10.59616],[123.98526,10.59677],[123.986107,10.59808],[123.986656,10.59921],[123.98719,10.60106],[123.987221,10.60219],[123.987068,10.60352],[123.986954,10.60376],[123.98629,10.60444],[123.987968,10.6054],[123.988609,10.60555],[123.989418,10.60524],[123.990013,10.60474],[123.99189,10.60551],[123.992813,10.60557]]]]}},{"type":"Feature","properties":{"ID_0":177,"ISO":"PHL","NAME_0":"Philippines","ID_1":7022,"NAME_1":"Cebu","ID_2":702215,"NAME_2":"Carmen","ID_3":702215004,"NAME_3":"Cantukong","NL_NAME_3":null,"VARNAME_3":null,"TYPE_3":"Barangay","ENGTYPE_3":"Village","PROVINCE":"Cebu","REGION":"Region VII (Central Visayas)","id":"barangay-0702215004","name":"Cantukong","barangayCode":"0702215004","population":null,"formattedPop":null,"densityCategory":"No data","vulnerabilityRating":"No data","healthRiskLevel":"No data","areaKm2":2.854854,"centerLat":10.616296,"centerLng":123.992674,"geometrySource":"all_barangay-2.csv detailed WKT","geometryMatchMethod":"unique_official_admin_names","boundaryPointCount":45},"geometry":{"type":"MultiPolygon","coordinates":[[[[123.999367,10.61691],[124.006958,10.61433],[124.004837,10.60798],[124.004494,10.60724],[124.004097,10.60587],[124.003738,10.60524],[124.003258,10.60488],[124.002457,10.60449],[124.002403,10.60292],[124.00264,10.60218],[124.003281,10.60172],[124.004257,10.60103],[124.005348,10.60067],[124.005493,10.59966],[124.004898,10.59978],[124.004051,10.60002],[124.002937,10.60043],[124.001717,10.60051],[124.00032,10.60121],[123.998917,10.6018],[123.998169,10.6022],[123.99691,10.60321],[123.996521,10.60381],[123.995644,10.60434],[123.995033,10.60478],[123.994423,10.60516],[123.994034,10.6053],[123.99337,10.60544],[123.992813,10.60557],[123.992538,10.60602],[123.992828,10.60695],[123.993233,10.60826],[123.99398,10.60916],[123.995003,10.60971],[123.995743,10.6101],[123.995773,10.61016],[123.996002,10.61127],[123.995651,10.6125],[123.995399,10.61345],[123.995354,10.61446],[123.995537,10.61521],[123.995979,10.6159],[123.996407,10.61679],[123.996513,10.61805],[123.999367,10.61691]]]]}},{"type":"Feature","properties":{"ID_0":177,"ISO":"PHL","NAME_0":"Philippines","ID_1":7022,"NAME_1":"Cebu","ID_2":702215,"NAME_2":"Carmen","ID_3":702215005,"NAME_3":"Caurasan","NL_NAME_3":null,"VARNAME_3":null,"TYPE_3":"Barangay","ENGTYPE_3":"Village","PROVINCE":"Cebu","REGION":"Region VII (Central Visayas)","id":"barangay-0702215005","name":"Caurasan","barangayCode":"0702215005","population":null,"formattedPop":null,"densityCategory":"No data","vulnerabilityRating":"No data","healthRiskLevel":"No data","areaKm2":14.371603,"centerLat":10.621281,"centerLng":123.934644,"geometrySource":"all_barangay-2.csv detailed WKT","geometryMatchMethod":"unique_official_admin_names","boundaryPointCount":20},"geometry":{"type":"MultiPolygon","coordinates":[[[[123.954567,10.63411],[123.947868,10.60851],[123.945503,10.6091],[123.942772,10.61037],[123.939789,10.61117],[123.936867,10.61168],[123.934174,10.61177],[123.932182,10.61213],[123.930687,10.6122],[123.928337,10.61265],[123.931763,10.62236],[123.933006,10.62778],[123.934776,10.63569],[123.936363,10.64037],[123.938744,10.64],[123.94046,10.63931],[123.943413,10.63846],[123.947258,10.63719],[123.951073,10.636],[123.954567,10.63411]]]]}},{"type":"Feature","properties":{"ID_0":177,"ISO":"PHL","NAME_0":"Philippines","ID_1":7022,"NAME_1":"Cebu","ID_2":702215,"NAME_2":"Carmen","ID_3":702215006,"NAME_3":"Corte","NL_NAME_3":null,"VARNAME_3":null,"TYPE_3":"Barangay","ENGTYPE_3":"Village","PROVINCE":"Cebu","REGION":"Region VII (Central Visayas)","id":"barangay-0702215006","name":"Corte","barangayCode":"0702215006","population":null,"formattedPop":null,"densityCategory":"No data","vulnerabilityRating":"No data","healthRiskLevel":"No data","areaKm2":5.39769,"centerLat":10.588988,"centerLng":123.970277,"geometrySource":"all_barangay-2.csv detailed WKT","geometryMatchMethod":"unique_official_admin_names","boundaryPointCount":45},"geometry":{"type":"MultiPolygon","coordinates":[[[[123.97821,10.6061],[123.978867,10.60664],[123.979378,10.60703],[123.981003,10.6068],[123.981323,10.60623],[123.982307,10.6065],[123.982964,10.60598],[123.983383,10.60591],[123.983566,10.60621],[123.984489,10.60696],[123.984909,10.60721],[123.986412,10.60687],[123.986,10.60637],[123.986313,10.60536],[123.98629,10.60444],[123.986954,10.60376],[123.987068,10.60352],[123.987221,10.60219],[123.98719,10.60106],[123.986656,10.59921],[123.986107,10.59808],[123.98526,10.59677],[123.984932,10.59616],[123.97715,10.58889],[123.967651,10.58123],[123.964417,10.58254],[123.961533,10.5838],[123.965683,10.58864],[123.966454,10.59035],[123.966537,10.5907],[123.966637,10.59177],[123.967056,10.59289],[123.968048,10.59404],[123.969078,10.59517],[123.969971,10.59703],[123.97039,10.59809],[123.971413,10.59983],[123.972649,10.60112],[123.972778,10.60193],[123.973778,10.60271],[123.975182,10.6031],[123.976021,10.6035],[123.976624,10.6046],[123.977127,10.6052],[123.97821,10.6061]]]]}},{"type":"Feature","properties":{"ID_0":177,"ISO":"PHL","NAME_0":"Philippines","ID_1":7022,"NAME_1":"Cebu","ID_2":702215,"NAME_2":"Carmen","ID_3":702215007,"NAME_3":"Dawis Norte","NL_NAME_3":null,"VARNAME_3":null,"TYPE_3":"Barangay","ENGTYPE_3":"Village","PROVINCE":"Cebu","REGION":"Region VII (Central Visayas)","id":"barangay-0702215007","name":"Dawis Norte","barangayCode":"0702215007","population":null,"formattedPop":null,"densityCategory":"No data","vulnerabilityRating":"No data","healthRiskLevel":"No data","areaKm2":1.874451,"centerLat":10.576799,"centerLng":124.014639,"geometrySource":"all_barangay-2.csv detailed WKT","geometryMatchMethod":"unique_official_admin_names","boundaryPointCount":61},"geometry":{"type":"MultiPolygon","coordinates":[[[[124.007378,10.58206],[124.007813,10.58213],[124.008339,10.58238],[124.008797,10.58235],[124.009407,10.58218],[124.010246,10.5818],[124.010986,10.58159],[124.011673,10.58164],[124.012741,10.5817],[124.013863,10.5812],[124.014763,10.58117],[124.015572,10.58098],[124.016579,10.58036],[124.017464,10.57973],[124.01828,10.57971],[124.01976,10.5796],[124.020523,10.57912],[124.021156,10.5785],[124.022011,10.57802],[124.022751,10.57744],[124.02282,10.57636],[124.023003,10.5756],[124.023483,10.57533],[124.024109,10.57519],[124.024986,10.57502],[124.025162,10.5749],[124.025124,10.57487],[124.024498,10.57432],[124.023918,10.57391],[124.023148,10.57338],[124.023102,10.57335],[124.022186,10.57224],[124.021782,10.57128],[124.021912,10.57074],[124.021652,10.57072],[124.021202,10.57068],[124.02066,10.57118],[124.020653,10.57137],[124.020622,10.57158],[124.0205,10.57187],[124.019814,10.57242],[124.018898,10.57235],[124.017937,10.57185],[124.017448,10.57175],[124.016823,10.57186],[124.016411,10.57194],[124.016037,10.57251],[124.01532,10.57312],[124.014023,10.57374],[124.013023,10.57389],[124.012062,10.5734],[124.011223,10.573],[124.010597,10.57292],[124.010147,10.57302],[124.008904,10.57341],[124.007362,10.57341],[124.006851,10.5731],[124.006279,10.57296],[124.005676,10.57276],[124.005371,10.57269],[124.007378,10.58206]]]]}},{"type":"Feature","properties":{"ID_0":177,"ISO":"PHL","NAME_0":"Philippines","ID_1":7022,"NAME_1":"Cebu","ID_2":702215,"NAME_2":"Carmen","ID_3":702215008,"NAME_3":"Dawis Sur","NL_NAME_3":null,"VARNAME_3":null,"TYPE_3":"Barangay","ENGTYPE_3":"Village","PROVINCE":"Cebu","REGION":"Region VII (Central Visayas)","id":"barangay-0702215008","name":"Dawis Sur","barangayCode":"0702215008","population":null,"formattedPop":null,"densityCategory":"No data","vulnerabilityRating":"No data","healthRiskLevel":"No data","areaKm2":2.035732,"centerLat":10.567272,"centerLng":124.01323,"geometrySource":"all_barangay-2.csv detailed WKT","geometryMatchMethod":"unique_official_admin_names","boundaryPointCount":128},"geometry":{"type":"MultiPolygon","coordinates":[[[[124.034157,10.56957],[124.034157,10.5693],[124.034714,10.5693],[124.034714,10.56874],[124.034973,10.56874],[124.034973,10.56619],[124.034698,10.56619],[124.034698,10.56704],[124.034401,10.56704],[124.034401,10.5676],[124.034142,10.5676],[124.034142,10.56816],[124.034447,10.56816],[124.034447,10.56874],[124.03389,10.56874],[124.03389,10.56899],[124.033607,10.56899],[124.033607,10.5693],[124.033897,10.5693],[124.033897,10.56957],[124.034157,10.56957]]],[[[124.027222,10.56778],[124.027222,10.5675],[124.02639,10.56667],[124.025833,10.56667],[124.025558,10.56639],[124.025833,10.56611],[124.025833,10.56444],[124.024437,10.56306],[124.023613,10.56306],[124.023376,10.56285],[124.023193,10.5627],[124.023132,10.56265],[124.023033,10.56228],[124.022888,10.56186],[124.02298,10.56129],[124.023117,10.56075],[124.023216,10.56054],[124.023323,10.56031],[124.02359,10.56001],[124.023827,10.5598],[124.024101,10.55961],[124.024384,10.55941],[124.02475,10.55936],[124.025093,10.55918],[124.02549,10.559],[124.025879,10.55885],[124.026253,10.55871],[124.026489,10.55852],[124.02684,10.55839],[124.027046,10.5581],[124.027008,10.55767],[124.026588,10.55728],[124.025993,10.55702],[124.025383,10.55687],[124.024986,10.5566],[124.02478,10.55627],[124.02478,10.55592],[124.025017,10.55556],[124.025421,10.55523],[124.025864,10.55477],[124.02594,10.55409],[124.025757,10.55349],[124.025787,10.55336],[124.025459,10.55328],[124.022369,10.55404],[124.012642,10.55841],[124.00695,10.56202],[124.004173,10.56397],[124.002579,10.5648],[124.006729,10.56726],[124.006943,10.56738],[124.010361,10.56941],[124.010597,10.57292],[124.011223,10.573],[124.012062,10.5734],[124.013023,10.57389],[124.014023,10.57374],[124.01532,10.57312],[124.016037,10.57251],[124.016411,10.57194],[124.016823,10.57186],[124.017448,10.57175],[124.017937,10.57185],[124.018898,10.57235],[124.019814,10.57242],[124.0205,10.57187],[124.020622,10.57158],[124.020653,10.57137],[124.02066,10.57118],[124.021202,10.57068],[124.021652,10.57072],[124.021912,10.57074],[124.021988,10.5704],[124.022186,10.57005],[124.022301,10.5696],[124.022491,10.56921],[124.022713,10.56887],[124.02285,10.56856],[124.023048,10.56834],[124.023331,10.56806],[124.023331,10.56778],[124.024437,10.56778],[124.024719,10.56806],[124.024719,10.56833],[124.025002,10.56861],[124.025002,10.56917],[124.024719,10.56944],[124.024719,10.57056],[124.025284,10.57111],[124.025284,10.57222],[124.026237,10.57223],[124.027206,10.57279],[124.028053,10.57348],[124.029167,10.57444],[124.029716,10.57444],[124.029716,10.57389],[124.029999,10.57361],[124.029999,10.57333],[124.02861,10.57194],[124.028343,10.57194],[124.028343,10.57111],[124.028053,10.57056],[124.02861,10.57],[124.02861,10.56944],[124.027496,10.56833],[124.027496,10.56806],[124.027222,10.56778]]]]}},{"type":"Feature","properties":{"ID_0":177,"ISO":"PHL","NAME_0":"Philippines","ID_1":7022,"NAME_1":"Cebu","ID_2":702215,"NAME_2":"Carmen","ID_3":702215009,"NAME_3":"Cogon East","NL_NAME_3":null,"VARNAME_3":null,"TYPE_3":"Barangay","ENGTYPE_3":"Village","PROVINCE":"Cebu","REGION":"Region VII (Central Visayas)","id":"barangay-0702215009","name":"Cogon East","barangayCode":"0702215009","population":null,"formattedPop":null,"densityCategory":"No data","vulnerabilityRating":"No data","healthRiskLevel":"No data","areaKm2":0.304631,"centerLat":10.591924,"centerLng":124.02026,"geometrySource":"all_barangay-2.csv detailed WKT","geometryMatchMethod":"unique_official_admin_names","boundaryPointCount":34},"geometry":{"type":"MultiPolygon","coordinates":[[[[124.020523,10.59489],[124.021149,10.59491],[124.021523,10.59498],[124.02169,10.59501],[124.022049,10.59496],[124.022537,10.59456],[124.023033,10.59433],[124.022713,10.59403],[124.022591,10.59343],[124.022133,10.59283],[124.022324,10.59254],[124.022453,10.59244],[124.023018,10.59146],[124.023163,10.59058],[124.022888,10.59009],[124.022827,10.58999],[124.021927,10.58999],[124.021301,10.58978],[124.020264,10.58881],[124.019691,10.58792],[124.019417,10.58734],[124.018883,10.58742],[124.018623,10.5875],[124.018097,10.58804],[124.017593,10.58869],[124.018066,10.58921],[124.01844,10.58976],[124.018051,10.5909],[124.017197,10.59113],[124.015968,10.59093],[124.015038,10.59031],[124.017143,10.59506],[124.020393,10.59438],[124.020523,10.59489]]]]}},{"type":"Feature","properties":{"ID_0":177,"ISO":"PHL","NAME_0":"Philippines","ID_1":7022,"NAME_1":"Cebu","ID_2":702215,"NAME_2":"Carmen","ID_3":702215010,"NAME_3":"Hagnaya","NL_NAME_3":null,"VARNAME_3":null,"TYPE_3":"Barangay","ENGTYPE_3":"Village","PROVINCE":"Cebu","REGION":"Region VII (Central Visayas)","id":"barangay-0702215010","name":"Hagnaya","barangayCode":"0702215010","population":null,"formattedPop":null,"densityCategory":"No data","vulnerabilityRating":"No data","healthRiskLevel":"No data","areaKm2":5.257746,"centerLat":10.569766,"centerLng":123.977446,"geometrySource":"all_barangay-2.csv detailed WKT","geometryMatchMethod":"unique_official_admin_names","boundaryPointCount":12},"geometry":{"type":"MultiPolygon","coordinates":[[[[123.97715,10.58889],[123.979317,10.58729],[123.982384,10.58515],[123.987373,10.58253],[123.991608,10.58069],[123.989853,10.57646],[123.987663,10.57275],[123.986412,10.57332],[123.981712,10.57542],[123.970482,10.58046],[123.967651,10.58123],[123.97715,10.58889]]]]}},{"type":"Feature","properties":{"ID_0":177,"ISO":"PHL","NAME_0":"Philippines","ID_1":7022,"NAME_1":"Cebu","ID_2":702215,"NAME_2":"Carmen","ID_3":702215011,"NAME_3":"Ipil","NL_NAME_3":null,"VARNAME_3":null,"TYPE_3":"Barangay","ENGTYPE_3":"Village","PROVINCE":"Cebu","REGION":"Region VII (Central Visayas)","id":"barangay-0702215011","name":"Ipil","barangayCode":"0702215011","population":null,"formattedPop":null,"densityCategory":"No data","vulnerabilityRating":"No data","healthRiskLevel":"No data","areaKm2":25.991806,"centerLat":10.583734,"centerLng":123.986149,"geometrySource":"all_barangay-2.csv detailed WKT","geometryMatchMethod":"unique_official_admin_names","boundaryPointCount":29},"geometry":{"type":"MultiPolygon","coordinates":[[[[124.00061,10.58901],[124.002724,10.58945],[124.003708,10.58951],[124.004509,10.58929],[124.00489,10.58888],[124.005157,10.58854],[124.005653,10.58863],[124.006477,10.58838],[124.007538,10.58787],[124.008057,10.5878],[124.007378,10.58206],[124.005371,10.57269],[123.989853,10.57646],[123.991608,10.58069],[123.987373,10.58253],[123.982384,10.58515],[123.979317,10.58729],[123.97715,10.58889],[123.984932,10.59616],[123.986237,10.5959],[123.987846,10.59519],[123.990082,10.59366],[123.991592,10.59235],[123.993057,10.59134],[123.994713,10.59049],[123.996513,10.58978],[123.997887,10.58922],[123.998894,10.58932],[124.00061,10.58901]]]]}},{"type":"Feature","properties":{"ID_0":177,"ISO":"PHL","NAME_0":"Philippines","ID_1":7022,"NAME_1":"Cebu","ID_2":702215,"NAME_2":"Carmen","ID_3":702215012,"NAME_3":"Lanipga","NL_NAME_3":null,"VARNAME_3":null,"TYPE_3":"Barangay","ENGTYPE_3":"Village","PROVINCE":"Cebu","REGION":"Region VII (Central Visayas)","id":"barangay-0702215012","name":"Lanipga","barangayCode":"0702215012","population":null,"formattedPop":null,"densityCategory":"No data","vulnerabilityRating":"No data","healthRiskLevel":"No data","areaKm2":5.261882,"centerLat":10.585125,"centerLng":123.949232,"geometrySource":"all_barangay-2.csv detailed WKT","geometryMatchMethod":"unique_official_admin_names","boundaryPointCount":35},"geometry":{"type":"MultiPolygon","coordinates":[[[[123.951134,10.59527],[123.955528,10.59297],[123.959702,10.59231],[123.961937,10.59205],[123.963821,10.59167],[123.96521,10.59166],[123.966637,10.59177],[123.966537,10.5907],[123.966454,10.59035],[123.965683,10.58864],[123.961533,10.5838],[123.956512,10.58577],[123.951103,10.5876],[123.948402,10.58878],[123.946877,10.5893],[123.944077,10.59023],[123.941399,10.5909],[123.940041,10.59143],[123.937828,10.59198],[123.938179,10.59251],[123.938759,10.59292],[123.939247,10.59328],[123.940559,10.59367],[123.941231,10.59368],[123.941917,10.59405],[123.942467,10.59491],[123.943733,10.5952],[123.944809,10.59485],[123.945473,10.59514],[123.947502,10.59514],[123.948593,10.59486],[123.949493,10.5946],[123.949738,10.59471],[123.950142,10.59482],[123.951134,10.59527]]]]}},{"type":"Feature","properties":{"ID_0":177,"ISO":"PHL","NAME_0":"Philippines","ID_1":7022,"NAME_1":"Cebu","ID_2":702215,"NAME_2":"Carmen","ID_3":702215013,"NAME_3":"Liboron","NL_NAME_3":null,"VARNAME_3":null,"TYPE_3":"Barangay","ENGTYPE_3":"Village","PROVINCE":"Cebu","REGION":"Region VII (Central Visayas)","id":"barangay-0702215013","name":"Liboron","barangayCode":"0702215013","population":null,"formattedPop":null,"densityCategory":"No data","vulnerabilityRating":"No data","healthRiskLevel":"No data","areaKm2":12.052818,"centerLat":10.595411,"centerLng":123.929024,"geometrySource":"all_barangay-2.csv detailed WKT","geometryMatchMethod":"unique_official_admin_names","boundaryPointCount":64},"geometry":{"type":"MultiPolygon","coordinates":[[[[123.947868,10.60851],[123.949249,10.60832],[123.950111,10.6083],[123.952164,10.60828],[123.954643,10.60831],[123.956329,10.60819],[123.95977,10.60744],[123.962341,10.60711],[123.9636,10.60674],[123.963333,10.60652],[123.962547,10.60558],[123.962067,10.60478],[123.961868,10.60417],[123.961868,10.60349],[123.961761,10.60295],[123.96109,10.60277],[123.960274,10.6028],[123.959641,10.60276],[123.958992,10.60203],[123.958504,10.60159],[123.958168,10.60154],[123.957916,10.60119],[123.95726,10.60013],[123.9571,10.59955],[123.956573,10.59939],[123.95578,10.59934],[123.955383,10.59879],[123.955116,10.59768],[123.95475,10.59668],[123.953827,10.59606],[123.952713,10.59545],[123.952553,10.59558],[123.952164,10.59575],[123.951134,10.59527],[123.950142,10.59482],[123.949738,10.59471],[123.949493,10.5946],[123.948593,10.59486],[123.947502,10.59514],[123.945473,10.59514],[123.944809,10.59485],[123.943733,10.5952],[123.942467,10.59491],[123.941917,10.59405],[123.941231,10.59368],[123.940559,10.59367],[123.939247,10.59328],[123.938759,10.59292],[123.938179,10.59251],[123.937828,10.59198],[123.934677,10.59249],[123.93145,10.59266],[123.928886,10.59257],[123.926353,10.59177],[123.923691,10.59108],[123.928337,10.61265],[123.930687,10.6122],[123.932182,10.61213],[123.934174,10.61177],[123.936867,10.61168],[123.939789,10.61117],[123.942772,10.61037],[123.945503,10.6091],[123.947868,10.60851]]]]}},{"type":"Feature","properties":{"ID_0":177,"ISO":"PHL","NAME_0":"Philippines","ID_1":7022,"NAME_1":"Cebu","ID_2":702215,"NAME_2":"Carmen","ID_3":702215014,"NAME_3":"Lower Natimao-an","NL_NAME_3":null,"VARNAME_3":null,"TYPE_3":"Barangay","ENGTYPE_3":"Village","PROVINCE":"Cebu","REGION":"Region VII (Central Visayas)","id":"barangay-0702215014","name":"Lower Natimao-an","barangayCode":"0702215014","population":null,"formattedPop":null,"densityCategory":"No data","vulnerabilityRating":"No data","healthRiskLevel":"No data","areaKm2":2.6816,"centerLat":10.618016,"centerLng":123.982945,"geometrySource":"all_barangay-2.csv detailed WKT","geometryMatchMethod":"unique_official_admin_names","boundaryPointCount":73},"geometry":{"type":"MultiPolygon","coordinates":[[[[123.996513,10.61805],[123.996407,10.61679],[123.995979,10.6159],[123.995537,10.61521],[123.995354,10.61446],[123.995399,10.61345],[123.995651,10.6125],[123.996002,10.61127],[123.995773,10.61016],[123.995743,10.6101],[123.995003,10.60971],[123.99398,10.60916],[123.993233,10.60826],[123.992828,10.60695],[123.992538,10.60602],[123.992813,10.60557],[123.99189,10.60551],[123.990013,10.60474],[123.989418,10.60524],[123.988609,10.60555],[123.987968,10.6054],[123.98629,10.60444],[123.986313,10.60536],[123.986,10.60637],[123.986412,10.60687],[123.984909,10.60721],[123.984489,10.60696],[123.983566,10.60621],[123.983383,10.60591],[123.982964,10.60598],[123.982307,10.6065],[123.981323,10.60623],[123.981003,10.6068],[123.979378,10.60703],[123.978867,10.60664],[123.97821,10.6061],[123.977783,10.60597],[123.977203,10.60596],[123.975853,10.60685],[123.975189,10.60652],[123.973793,10.6068],[123.971672,10.6076],[123.97113,10.60808],[123.969856,10.60851],[123.969276,10.60864],[123.968437,10.60874],[123.96711,10.60895],[123.967407,10.60925],[123.966454,10.61065],[123.965973,10.61167],[123.965981,10.61269],[123.966293,10.61321],[123.966583,10.61388],[123.966408,10.61508],[123.965843,10.61583],[123.965752,10.61665],[123.965897,10.61694],[123.966179,10.61766],[123.96627,10.61862],[123.966042,10.61946],[123.966187,10.62086],[123.966728,10.6221],[123.966873,10.62335],[123.966438,10.62465],[123.966583,10.6259],[123.965797,10.62679],[123.965736,10.62767],[123.965828,10.62938],[123.971893,10.628],[123.976212,10.62694],[123.978851,10.62612],[123.981087,10.62459],[123.996513,10.61805]]]]}},{"type":"Feature","properties":{"ID_0":177,"ISO":"PHL","NAME_0":"Philippines","ID_1":7022,"NAME_1":"Cebu","ID_2":702215,"NAME_2":"Carmen","ID_3":702215015,"NAME_3":"Luyang","NL_NAME_3":null,"VARNAME_3":null,"TYPE_3":"Barangay","ENGTYPE_3":"Village","PROVINCE":"Cebu","REGION":"Region VII (Central Visayas)","id":"barangay-0702215015","name":"Luyang","barangayCode":"0702215015","population":null,"formattedPop":null,"densityCategory":"No data","vulnerabilityRating":"No data","healthRiskLevel":"No data","areaKm2":2.394055,"centerLat":10.596676,"centerLng":124.024386,"geometrySource":"all_barangay-2.csv detailed WKT","geometryMatchMethod":"unique_official_admin_names","boundaryPointCount":92},"geometry":{"type":"MultiPolygon","coordinates":[[[[124.026611,10.60658],[124.026642,10.60519],[124.026871,10.60408],[124.026917,10.60381],[124.027199,10.60236],[124.027786,10.6016],[124.028152,10.60113],[124.028343,10.60089],[124.028511,10.60064],[124.028618,10.60035],[124.028702,10.60006],[124.028687,10.59999],[124.028687,10.59985],[124.030441,10.59821],[124.030823,10.59783],[124.030899,10.59775],[124.03183,10.59682],[124.032738,10.59558],[124.03299,10.59436],[124.03302,10.5942],[124.033157,10.59136],[124.033363,10.58818],[124.033287,10.58604],[124.033157,10.58473],[124.033287,10.58355],[124.033783,10.58224],[124.03376,10.58194],[124.033707,10.58141],[124.033188,10.58055],[124.033157,10.58051],[124.032387,10.58003],[124.032249,10.58003],[124.031563,10.58003],[124.030724,10.58051],[124.030441,10.58127],[124.030296,10.58196],[124.030853,10.58231],[124.031273,10.58272],[124.031616,10.58307],[124.031616,10.58376],[124.031418,10.58397],[124.03093,10.58438],[124.03093,10.58507],[124.031616,10.58604],[124.03183,10.58652],[124.031914,10.58735],[124.031914,10.58846],[124.031616,10.58963],[124.031151,10.59015],[124.031113,10.59028],[124.03083,10.59056],[124.030457,10.59056],[124.030281,10.59056],[124.029953,10.5903],[124.029694,10.59009],[124.029419,10.58993],[124.029167,10.58974],[124.028908,10.5896],[124.028679,10.58945],[124.028458,10.58929],[124.028198,10.58916],[124.027367,10.58854],[124.02597,10.58847],[124.025162,10.58898],[124.024986,10.58909],[124.024437,10.58978],[124.023529,10.58999],[124.022827,10.58999],[124.022888,10.59009],[124.023163,10.59058],[124.023018,10.59146],[124.022453,10.59244],[124.022324,10.59254],[124.022133,10.59283],[124.022591,10.59343],[124.022713,10.59403],[124.023033,10.59433],[124.022537,10.59456],[124.022049,10.59496],[124.02169,10.59501],[124.021523,10.59498],[124.021149,10.59491],[124.020523,10.59489],[124.021263,10.59734],[124.022141,10.60053],[124.023697,10.60489],[124.024437,10.6068],[124.024887,10.60671],[124.025101,10.60644],[124.025269,10.60645],[124.026176,10.60642],[124.026611,10.60658]]]]}},{"type":"Feature","properties":{"ID_0":177,"ISO":"PHL","NAME_0":"Philippines","ID_1":7022,"NAME_1":"Cebu","ID_2":702215,"NAME_2":"Carmen","ID_3":702215016,"NAME_3":"Poblacion","NL_NAME_3":null,"VARNAME_3":null,"TYPE_3":"Barangay","ENGTYPE_3":"Village","PROVINCE":"Cebu","REGION":"Region VII (Central Visayas)","id":"barangay-0702215016","name":"Poblacion","barangayCode":"0702215016","population":null,"formattedPop":null,"densityCategory":"No data","vulnerabilityRating":"No data","healthRiskLevel":"No data","areaKm2":0.904102,"centerLat":10.582391,"centerLng":124.017765,"geometrySource":"barangays.geojson simplified fallback","geometryMatchMethod":"simplified_fallback","boundaryPointCount":4},"geometry":{"type":"Polygon","coordinates":[[[124.00757557300005,10.58279032400003],[124.02451338300011,10.58439009500006],[124.02710612200008,10.578416681000022],[124.00757557300005,10.58279032400003]]]}},{"type":"Feature","properties":{"ID_0":177,"ISO":"PHL","NAME_0":"Philippines","ID_1":7022,"NAME_1":"Cebu","ID_2":702215,"NAME_2":"Carmen","ID_3":702215017,"NAME_3":"Puente","NL_NAME_3":null,"VARNAME_3":null,"TYPE_3":"Barangay","ENGTYPE_3":"Village","PROVINCE":"Cebu","REGION":"Region VII (Central Visayas)","id":"barangay-0702215017","name":"Puente","barangayCode":"0702215017","population":null,"formattedPop":null,"densityCategory":"No data","vulnerabilityRating":"No data","healthRiskLevel":"No data","areaKm2":3.2772,"centerLat":10.614648,"centerLng":124.019179,"geometrySource":"all_barangay-2.csv detailed WKT","geometryMatchMethod":"unique_official_admin_names","boundaryPointCount":32},"geometry":{"type":"MultiPolygon","coordinates":[[[[124.02681,10.61028],[124.026688,10.60973],[124.026657,10.60918],[124.026611,10.60866],[124.02652,10.60815],[124.026443,10.60765],[124.026604,10.60716],[124.026611,10.60658],[124.026176,10.60642],[124.025269,10.60645],[124.025101,10.60644],[124.024887,10.60671],[124.024437,10.6068],[124.023956,10.60667],[124.023148,10.60617],[124.022423,10.60567],[124.021202,10.60531],[124.019783,10.60518],[124.01841,10.60556],[124.017372,10.606],[124.016312,10.60595],[124.015381,10.60657],[124.014343,10.60716],[124.013611,10.60722],[124.012466,10.60765],[124.011978,10.60825],[124.011749,10.60917],[124.011223,10.61065],[124.011124,10.61274],[124.01683,10.6108],[124.021843,10.60981],[124.02681,10.61028]]]]}},{"type":"Feature","properties":{"ID_0":177,"ISO":"PHL","NAME_0":"Philippines","ID_1":7022,"NAME_1":"Cebu","ID_2":702215,"NAME_2":"Carmen","ID_3":702215018,"NAME_3":"Sac-on","NL_NAME_3":null,"VARNAME_3":null,"TYPE_3":"Barangay","ENGTYPE_3":"Village","PROVINCE":"Cebu","REGION":"Region VII (Central Visayas)","id":"barangay-0702215018","name":"Sac-on","barangayCode":"0702215018","population":null,"formattedPop":null,"densityCategory":"No data","vulnerabilityRating":"No data","healthRiskLevel":"No data","areaKm2":2.727654,"centerLat":10.599954,"centerLng":123.963968,"geometrySource":"all_barangay-2.csv detailed WKT","geometryMatchMethod":"unique_official_admin_names","boundaryPointCount":61},"geometry":{"type":"MultiPolygon","coordinates":[[[[123.96711,10.60895],[123.968437,10.60874],[123.969276,10.60864],[123.969856,10.60851],[123.97113,10.60808],[123.971672,10.6076],[123.973793,10.6068],[123.975189,10.60652],[123.975853,10.60685],[123.977203,10.60596],[123.977783,10.60597],[123.97821,10.6061],[123.977127,10.6052],[123.976624,10.6046],[123.976021,10.6035],[123.975182,10.6031],[123.973778,10.60271],[123.972778,10.60193],[123.972649,10.60112],[123.971413,10.59983],[123.97039,10.59809],[123.969971,10.59703],[123.969078,10.59517],[123.968048,10.59404],[123.967056,10.59289],[123.966637,10.59177],[123.96521,10.59166],[123.963821,10.59167],[123.961937,10.59205],[123.959702,10.59231],[123.955528,10.59297],[123.951134,10.59527],[123.952164,10.59575],[123.952553,10.59558],[123.952713,10.59545],[123.953827,10.59606],[123.95475,10.59668],[123.955116,10.59768],[123.955383,10.59879],[123.95578,10.59934],[123.956573,10.59939],[123.9571,10.59955],[123.95726,10.60013],[123.957916,10.60119],[123.958168,10.60154],[123.958504,10.60159],[123.958992,10.60203],[123.959641,10.60276],[123.960274,10.6028],[123.96109,10.60277],[123.961761,10.60295],[123.961868,10.60349],[123.961868,10.60417],[123.962067,10.60478],[123.962547,10.60558],[123.963333,10.60652],[123.9636,10.60674],[123.964317,10.60732],[123.964981,10.60789],[123.965851,10.60852],[123.96711,10.60895]]]]}},{"type":"Feature","properties":{"ID_0":177,"ISO":"PHL","NAME_0":"Philippines","ID_1":7022,"NAME_1":"Cebu","ID_2":702215,"NAME_2":"Carmen","ID_3":702215019,"NAME_3":"Triumfo","NL_NAME_3":null,"VARNAME_3":null,"TYPE_3":"Barangay","ENGTYPE_3":"Village","PROVINCE":"Cebu","REGION":"Region VII (Central Visayas)","id":"barangay-0702215019","name":"Triumfo","barangayCode":"0702215019","population":null,"formattedPop":null,"densityCategory":"No data","vulnerabilityRating":"No data","healthRiskLevel":"No data","areaKm2":3.156658,"centerLat":10.567789,"centerLng":123.997606,"geometrySource":"all_barangay-2.csv detailed WKT","geometryMatchMethod":"unique_official_admin_names","boundaryPointCount":18},"geometry":{"type":"MultiPolygon","coordinates":[[[[123.987663,10.57275],[123.989853,10.57646],[124.005371,10.57269],[124.005676,10.57276],[124.006279,10.57296],[124.006851,10.5731],[124.007362,10.57341],[124.008904,10.57341],[124.010147,10.57302],[124.010597,10.57292],[124.010361,10.56941],[124.006943,10.56738],[124.006729,10.56726],[124.002579,10.5648],[123.99781,10.56771],[123.996582,10.56844],[123.993446,10.57003],[123.987663,10.57275]]]]}},{"type":"Feature","properties":{"ID_0":177,"ISO":"PHL","NAME_0":"Philippines","ID_1":7022,"NAME_1":"Cebu","ID_2":702215,"NAME_2":"Carmen","ID_3":702215020,"NAME_3":"Upper Natimao-an","NL_NAME_3":null,"VARNAME_3":null,"TYPE_3":"Barangay","ENGTYPE_3":"Village","PROVINCE":"Cebu","REGION":"Region VII (Central Visayas)","id":"barangay-0702215020","name":"Upper Natimao-an","barangayCode":"0702215020","population":null,"formattedPop":null,"densityCategory":"No data","vulnerabilityRating":"No data","healthRiskLevel":"No data","areaKm2":7.402613,"centerLat":10.619501,"centerLng":123.96602,"geometrySource":"all_barangay-2.csv detailed WKT","geometryMatchMethod":"unique_official_admin_names","boundaryPointCount":37},"geometry":{"type":"MultiPolygon","coordinates":[[[[123.965828,10.62938],[123.965736,10.62767],[123.965797,10.62679],[123.966583,10.6259],[123.966438,10.62465],[123.966873,10.62335],[123.966728,10.6221],[123.966187,10.62086],[123.966042,10.61946],[123.96627,10.61862],[123.966179,10.61766],[123.965897,10.61694],[123.965752,10.61665],[123.965843,10.61583],[123.966408,10.61508],[123.966583,10.61388],[123.966293,10.61321],[123.965981,10.61269],[123.965973,10.61167],[123.966454,10.61065],[123.967407,10.60925],[123.96711,10.60895],[123.965851,10.60852],[123.964981,10.60789],[123.964317,10.60732],[123.9636,10.60674],[123.962341,10.60711],[123.95977,10.60744],[123.956329,10.60819],[123.954643,10.60831],[123.952164,10.60828],[123.950111,10.6083],[123.949249,10.60832],[123.947868,10.60851],[123.954567,10.63411],[123.963562,10.63011],[123.965828,10.62938]]]]}},{"type":"Feature","properties":{"ID_0":177,"ISO":"PHL","NAME_0":"Philippines","ID_1":7022,"NAME_1":"Cebu","ID_2":702215,"NAME_2":"Carmen","ID_3":702215021,"NAME_3":"Cogon West","NL_NAME_3":null,"VARNAME_3":null,"TYPE_3":"Barangay","ENGTYPE_3":"Village","PROVINCE":"Cebu","REGION":"Region VII (Central Visayas)","id":"barangay-0702215021","name":"Cogon West","barangayCode":"0702215021","population":null,"formattedPop":null,"densityCategory":"No data","vulnerabilityRating":"No data","healthRiskLevel":"No data","areaKm2":0.231367,"centerLat":10.592269,"centerLng":124.016956,"geometrySource":"all_barangay-2.csv detailed WKT","geometryMatchMethod":"unique_official_admin_names","boundaryPointCount":30},"geometry":{"type":"MultiPolygon","coordinates":[[[[124.015038,10.59031],[124.015968,10.59093],[124.017197,10.59113],[124.018051,10.5909],[124.01844,10.58976],[124.018066,10.58921],[124.017593,10.58869],[124.018097,10.58804],[124.018623,10.5875],[124.018883,10.58742],[124.019417,10.58734],[124.019279,10.58702],[124.018997,10.58619],[124.019257,10.5853],[124.018044,10.58553],[124.015167,10.58611],[124.012299,10.58664],[124.009567,10.58731],[124.008057,10.5878],[124.008743,10.58787],[124.009331,10.5884],[124.010017,10.5882],[124.010719,10.58805],[124.011269,10.58792],[124.012131,10.58795],[124.012787,10.58804],[124.013977,10.58852],[124.014229,10.58894],[124.014633,10.58983],[124.015038,10.59031]]]]}}]}
