{"type":"FeatureCollection","features":[{"type":"Feature","properties":{"ID_0":177,"ISO":"PHL","NAME_0":"Philippines","ID_1":4034,"NAME_1":"Laguna","ID_2":403403,"NAME_2":"City of Biñan","ID_3":403403001,"NAME_3":"Biñan","NL_NAME_3":null,"VARNAME_3":"Binan (Poblacion)","TYPE_3":"Barangay","ENGTYPE_3":"Village","PROVINCE":"Laguna","REGION":"Region IV-A (Calabarzon)","id":"barangay-0403403001","name":"Biñan","barangayCode":"0403403001","population":null,"formattedPop":null,"densityCategory":"No data","vulnerabilityRating":"No data","healthRiskLevel":"No data","areaKm2":5.785874,"centerLat":14.264791,"centerLng":121.049998,"geometrySource":"barangays.geojson simplified fallback","geometryMatchMethod":"simplified_fallback","boundaryPointCount":6},"geometry":{"type":"Polygon","coordinates":[[[121.06225922600004,14.27864595400007],[121.06562572200005,14.270304134000071],[121.05604713200012,14.257533403000025],[121.03531840500011,14.248877594000021],[121.0391374720001,14.271101015000056],[121.06225922600004,14.27864595400007]]]}},{"type":"Feature","properties":{"ID_0":177,"ISO":"PHL","NAME_0":"Philippines","ID_1":4034,"NAME_1":"Laguna","ID_2":403403,"NAME_2":"City of Biñan","ID_3":403403002,"NAME_3":"Bungahan","NL_NAME_3":null,"VARNAME_3":null,"TYPE_3":"Barangay","ENGTYPE_3":"Village","PROVINCE":"Laguna","REGION":"Region IV-A (Calabarzon)","id":"barangay-0403403002","name":"Bungahan","barangayCode":"0403403002","population":null,"formattedPop":null,"densityCategory":"No data","vulnerabilityRating":"No data","healthRiskLevel":"No data","areaKm2":0.858949,"centerLat":14.30237,"centerLng":121.075195,"geometrySource":"barangays.geojson simplified fallback","geometryMatchMethod":"simplified_fallback","boundaryPointCount":4},"geometry":{"type":"Polygon","coordinates":[[[121.06916106100005,14.301095471000053],[121.08067990300003,14.305680645000052],[121.07354468100004,14.295193089000065],[121.06916106100005,14.301095471000053]]]}},{"type":"Feature","properties":{"ID_0":177,"ISO":"PHL","NAME_0":"Philippines","ID_1":4034,"NAME_1":"Laguna","ID_2":403403,"NAME_2":"City of Biñan","ID_3":403403003,"NAME_3":"Santo Tomas","NL_NAME_3":null,"VARNAME_3":null,"TYPE_3":"Barangay","ENGTYPE_3":"Village","PROVINCE":"Laguna","REGION":"Region IV-A (Calabarzon)","id":"barangay-0403403003","name":"Santo Tomas","barangayCode":"0403403003","population":null,"formattedPop":null,"densityCategory":"No data","vulnerabilityRating":"No data","healthRiskLevel":"No data","areaKm2":3.658776,"centerLat":14.313639,"centerLng":121.072167,"geometrySource":"barangays.geojson simplified fallback","geometryMatchMethod":"simplified_fallback","boundaryPointCount":10},"geometry":{"type":"Polygon","coordinates":[[[121.08100144700006,14.329689495000025],[121.07619665300001,14.307097332000069],[121.06471289500007,14.299059085000067],[121.06204527600005,14.31112352200006],[121.0703114160001,14.323507009000025],[121.08100144700006,14.329689495000025]],[[121.07329909900011,14.319782361000023],[121.07139538700005,14.32077582200003],[121.07255397400002,14.31888910500004],[121.07329909900011,14.319782361000023]]]}},{"type":"Feature","properties":{"ID_0":177,"ISO":"PHL","NAME_0":"Philippines","ID_1":4034,"NAME_1":"Laguna","ID_2":403403,"NAME_2":"City of Biñan","ID_3":403403004,"NAME_3":"Canlalay","NL_NAME_3":null,"VARNAME_3":null,"TYPE_3":"Barangay","ENGTYPE_3":"Village","PROVINCE":"Laguna","REGION":"Region IV-A (Calabarzon)","id":"barangay-0403403004","name":"Canlalay","barangayCode":"0403403004","population":null,"formattedPop":null,"densityCategory":"No data","vulnerabilityRating":"No data","healthRiskLevel":"No data","areaKm2":2.259114,"centerLat":14.341889,"centerLng":121.074147,"geometrySource":"barangays.geojson simplified fallback","geometryMatchMethod":"simplified_fallback","boundaryPointCount":9},"geometry":{"type":"MultiPolygon","coordinates":[[[[121.07329909900011,14.319782361000023],[121.07139538700005,14.32077582200003],[121.0725738860001,14.321992094000052],[121.07329909900011,14.319782361000023]]],[[[121.075446843,14.351148372000068],[121.08172416600007,14.338049357000045],[121.07105917100012,14.333661686000028],[121.06423689500002,14.343586009000035],[121.075446843,14.351148372000068]]]]}},{"type":"Feature","properties":{"ID_0":177,"ISO":"PHL","NAME_0":"Philippines","ID_1":4034,"NAME_1":"Laguna","ID_2":403403,"NAME_2":"City of Biñan","ID_3":403403005,"NAME_3":"Casile","NL_NAME_3":null,"VARNAME_3":null,"TYPE_3":"Barangay","ENGTYPE_3":"Village","PROVINCE":"Laguna","REGION":"Region IV-A (Calabarzon)","id":"barangay-0403403005","name":"Casile","barangayCode":"0403403005","population":null,"formattedPop":null,"densityCategory":"No data","vulnerabilityRating":"No data","healthRiskLevel":"No data","areaKm2":0.12284,"centerLat":14.343779,"centerLng":121.088354,"geometrySource":"barangays.geojson simplified fallback","geometryMatchMethod":"simplified_fallback","boundaryPointCount":4},"geometry":{"type":"Polygon","coordinates":[[[121.08660613600011,14.344695713000021],[121.09046089500009,14.342294981000066],[121.08663222500002,14.34207471700006],[121.08660613600011,14.344695713000021]]]}},{"type":"Feature","properties":{"ID_0":177,"ISO":"PHL","NAME_0":"Philippines","ID_1":4034,"NAME_1":"Laguna","ID_2":403403,"NAME_2":"City of Biñan","ID_3":403403006,"NAME_3":"De La Paz","NL_NAME_3":null,"VARNAME_3":null,"TYPE_3":"Barangay","ENGTYPE_3":"Village","PROVINCE":"Laguna","REGION":"Region IV-A (Calabarzon)","id":"barangay-0403403006","name":"De La Paz","barangayCode":"0403403006","population":null,"formattedPop":null,"densityCategory":"No data","vulnerabilityRating":"No data","healthRiskLevel":"No data","areaKm2":1.602762,"centerLat":14.352514,"centerLng":121.081816,"geometrySource":"barangays.geojson simplified fallback","geometryMatchMethod":"simplified_fallback","boundaryPointCount":5},"geometry":{"type":"Polygon","coordinates":[[[121.07654613900002,14.360803023000074],[121.08634964300006,14.358807116000037],[121.08658266400005,14.342714664000027],[121.07495657200002,14.351523349000047],[121.07654613900002,14.360803023000074]]]}},{"type":"Feature","properties":{"ID_0":177,"ISO":"PHL","NAME_0":"Philippines","ID_1":4034,"NAME_1":"Laguna","ID_2":403403,"NAME_2":"City of Biñan","ID_3":403403007,"NAME_3":"Ganado","NL_NAME_3":null,"VARNAME_3":null,"TYPE_3":"Barangay","ENGTYPE_3":"Village","PROVINCE":"Laguna","REGION":"Region IV-A (Calabarzon)","id":"barangay-0403403007","name":"Ganado","barangayCode":"0403403007","population":null,"formattedPop":null,"densityCategory":"No data","vulnerabilityRating":"No data","healthRiskLevel":"No data","areaKm2":0.374303,"centerLat":14.286278,"centerLng":121.083004,"geometrySource":"barangays.geojson simplified fallback","geometryMatchMethod":"simplified_fallback","boundaryPointCount":5},"geometry":{"type":"Polygon","coordinates":[[[121.08961542000009,14.291679974000033],[121.08365883700003,14.283450925000068],[121.07393318600009,14.281227288000025],[121.07972411100002,14.286222133000024],[121.08961542000009,14.291679974000033]]]}},{"type":"Feature","properties":{"ID_0":177,"ISO":"PHL","NAME_0":"Philippines","ID_1":4034,"NAME_1":"Laguna","ID_2":403403,"NAME_2":"City of Biñan","ID_3":403403008,"NAME_3":"San Francisco","NL_NAME_3":null,"VARNAME_3":null,"TYPE_3":"Barangay","ENGTYPE_3":"Village","PROVINCE":"Laguna","REGION":"Region IV-A (Calabarzon)","id":"barangay-0403403008","name":"San Francisco","barangayCode":"0403403008","population":null,"formattedPop":null,"densityCategory":"No data","vulnerabilityRating":"No data","healthRiskLevel":"No data","areaKm2":3.150418,"centerLat":14.333356,"centerLng":121.055044,"geometrySource":"barangays.geojson simplified fallback","geometryMatchMethod":"simplified_fallback","boundaryPointCount":5},"geometry":{"type":"Polygon","coordinates":[[[121.06528049300005,14.342381945000056],[121.06791318100011,14.332057331000044],[121.03917911700012,14.32357595700006],[121.03959110300002,14.331612136000047],[121.06528049300005,14.342381945000056]]]}},{"type":"Feature","properties":{"ID_0":177,"ISO":"PHL","NAME_0":"Philippines","ID_1":4034,"NAME_1":"Laguna","ID_2":403403,"NAME_2":"City of Biñan","ID_3":403403009,"NAME_3":"Langkiwa","NL_NAME_3":null,"VARNAME_3":null,"TYPE_3":"Barangay","ENGTYPE_3":"Village","PROVINCE":"Laguna","REGION":"Region IV-A (Calabarzon)","id":"barangay-0403403009","name":"Langkiwa","barangayCode":"0403403009","population":null,"formattedPop":null,"densityCategory":"No data","vulnerabilityRating":"No data","healthRiskLevel":"No data","areaKm2":1.74684,"centerLat":14.296004,"centerLng":121.059188,"geometrySource":"barangays.geojson simplified fallback","geometryMatchMethod":"simplified_fallback","boundaryPointCount":5},"geometry":{"type":"Polygon","coordinates":[[[121.06216733400004,14.306275565000021],[121.0661242000001,14.293858217000036],[121.04858698400005,14.289845783000032],[121.05020013300009,14.294960811000067],[121.06216733400004,14.306275565000021]]]}},{"type":"Feature","properties":{"ID_0":177,"ISO":"PHL","NAME_0":"Philippines","ID_1":4034,"NAME_1":"Laguna","ID_2":403403,"NAME_2":"City of Biñan","ID_3":403403011,"NAME_3":"Loma","NL_NAME_3":null,"VARNAME_3":null,"TYPE_3":"Barangay","ENGTYPE_3":"Village","PROVINCE":"Laguna","REGION":"Region IV-A (Calabarzon)","id":"barangay-0403403011","name":"Loma","barangayCode":"0403403011","population":null,"formattedPop":null,"densityCategory":"No data","vulnerabilityRating":"No data","healthRiskLevel":"No data","areaKm2":3.18095,"centerLat":14.28464,"centerLng":121.069097,"geometrySource":"barangays.geojson simplified fallback","geometryMatchMethod":"simplified_fallback","boundaryPointCount":6},"geometry":{"type":"Polygon","coordinates":[[[121.07201405700005,14.297047551000048],[121.07393318600009,14.281227288000025],[121.08280640100008,14.282173318000048],[121.06562572200005,14.270304134000071],[121.05895652200002,14.288030379000077],[121.07201405700005,14.297047551000048]]]}},{"type":"Feature","properties":{"ID_0":177,"ISO":"PHL","NAME_0":"Philippines","ID_1":4034,"NAME_1":"Laguna","ID_2":403403,"NAME_2":"City of Biñan","ID_3":403403012,"NAME_3":"Malaban","NL_NAME_3":null,"VARNAME_3":null,"TYPE_3":"Barangay","ENGTYPE_3":"Village","PROVINCE":"Laguna","REGION":"Region IV-A (Calabarzon)","id":"barangay-0403403012","name":"Malaban","barangayCode":"0403403012","population":null,"formattedPop":null,"densityCategory":"No data","vulnerabilityRating":"No data","healthRiskLevel":"No data","areaKm2":1.183254,"centerLat":14.346479,"centerLng":121.09119,"geometrySource":"barangays.geojson simplified fallback","geometryMatchMethod":"simplified_fallback","boundaryPointCount":5},"geometry":{"type":"Polygon","coordinates":[[[121.08701428400002,14.358395428000051],[121.09989208600007,14.33644620800004],[121.0976944250001,14.334045875000072],[121.08619111100006,14.34534760200006],[121.08701428400002,14.358395428000051]]]}},{"type":"Feature","properties":{"ID_0":177,"ISO":"PHL","NAME_0":"Philippines","ID_1":4034,"NAME_1":"Laguna","ID_2":403403,"NAME_2":"City of Biñan","ID_3":403403013,"NAME_3":"Malamig","NL_NAME_3":null,"VARNAME_3":null,"TYPE_3":"Barangay","ENGTYPE_3":"Village","PROVINCE":"Laguna","REGION":"Region IV-A (Calabarzon)","id":"barangay-0403403013","name":"Malamig","barangayCode":"0403403013","population":null,"formattedPop":null,"densityCategory":"No data","vulnerabilityRating":"No data","healthRiskLevel":"No data","areaKm2":0.523864,"centerLat":14.27555,"centerLng":121.047969,"geometrySource":"barangays.geojson simplified fallback","geometryMatchMethod":"simplified_fallback","boundaryPointCount":4},"geometry":{"type":"Polygon","coordinates":[[[121.0391374720001,14.271101015000056],[121.05566205500008,14.277949916000068],[121.05135874700011,14.273984459000076],[121.0391374720001,14.271101015000056]]]}},{"type":"Feature","properties":{"ID_0":177,"ISO":"PHL","NAME_0":"Philippines","ID_1":4034,"NAME_1":"Laguna","ID_2":403403,"NAME_2":"City of Biñan","ID_3":403403014,"NAME_3":"Mampalasan","NL_NAME_3":null,"VARNAME_3":null,"TYPE_3":"Barangay","ENGTYPE_3":"Village","PROVINCE":"Laguna","REGION":"Region IV-A (Calabarzon)","id":"barangay-0403403014","name":"Mampalasan","barangayCode":"0403403014","population":null,"formattedPop":null,"densityCategory":"No data","vulnerabilityRating":"No data","healthRiskLevel":"No data","areaKm2":3.367421,"centerLat":14.295663,"centerLng":121.08113,"geometrySource":"barangays.geojson simplified fallback","geometryMatchMethod":"simplified_fallback","boundaryPointCount":5},"geometry":{"type":"Polygon","coordinates":[[[121.08512673700011,14.306866676000027],[121.08939972200005,14.29178637800004],[121.07375302000003,14.282119631000057],[121.07262577800009,14.294491820000076],[121.08512673700011,14.306866676000027]]]}},{"type":"Feature","properties":{"ID_0":177,"ISO":"PHL","NAME_0":"Philippines","ID_1":4034,"NAME_1":"Laguna","ID_2":403403,"NAME_2":"City of Biñan","ID_3":403403015,"NAME_3":"Platero","NL_NAME_3":null,"VARNAME_3":null,"TYPE_3":"Barangay","ENGTYPE_3":"Village","PROVINCE":"Laguna","REGION":"Region IV-A (Calabarzon)","id":"barangay-0403403015","name":"Platero","barangayCode":"0403403015","population":null,"formattedPop":null,"densityCategory":"No data","vulnerabilityRating":"No data","healthRiskLevel":"No data","areaKm2":0.814462,"centerLat":14.32246,"centerLng":121.09172,"geometrySource":"barangays.geojson simplified fallback","geometryMatchMethod":"simplified_fallback","boundaryPointCount":5},"geometry":{"type":"Polygon","coordinates":[[[121.09615974200005,14.327900344000057],[121.09665665000011,14.321484725000062],[121.08527792000007,14.318279597000071],[121.08827043300005,14.325091474000033],[121.09615974200005,14.327900344000057]]]}},{"type":"Feature","properties":{"ID_0":177,"ISO":"PHL","NAME_0":"Philippines","ID_1":4034,"NAME_1":"Laguna","ID_2":403403,"NAME_2":"City of Biñan","ID_3":403403016,"NAME_3":"Poblacion","NL_NAME_3":null,"VARNAME_3":null,"TYPE_3":"Barangay","ENGTYPE_3":"Village","PROVINCE":"Laguna","REGION":"Region IV-A (Calabarzon)","id":"barangay-0403403016","name":"Poblacion","barangayCode":"0403403016","population":null,"formattedPop":null,"densityCategory":"No data","vulnerabilityRating":"No data","healthRiskLevel":"No data","areaKm2":0.224003,"centerLat":14.338142,"centerLng":121.08432,"geometrySource":"barangays.geojson simplified fallback","geometryMatchMethod":"simplified_fallback","boundaryPointCount":4},"geometry":{"type":"Polygon","coordinates":[[[121.08288372600009,14.339974612000049],[121.08604752000008,14.334765796000056],[121.08339347800006,14.333643970000026],[121.08288372600009,14.339974612000049]]]}},{"type":"Feature","properties":{"ID_0":177,"ISO":"PHL","NAME_0":"Philippines","ID_1":4034,"NAME_1":"Laguna","ID_2":403403,"NAME_2":"City of Biñan","ID_3":403403018,"NAME_3":"Santo Niño","NL_NAME_3":null,"VARNAME_3":"Santo Nino","TYPE_3":"Barangay","ENGTYPE_3":"Village","PROVINCE":"Laguna","REGION":"Region IV-A (Calabarzon)","id":"barangay-0403403018","name":"Santo Niño","barangayCode":"0403403018","population":null,"formattedPop":null,"densityCategory":"No data","vulnerabilityRating":"No data","healthRiskLevel":"No data","areaKm2":0.548681,"centerLat":14.327451,"centerLng":121.084342,"geometrySource":"barangays.geojson simplified fallback","geometryMatchMethod":"simplified_fallback","boundaryPointCount":4},"geometry":{"type":"Polygon","coordinates":[[[121.0808288500001,14.32991099700007],[121.08827043300005,14.325091474000033],[121.08171424400007,14.322355866000066],[121.0808288500001,14.32991099700007]]]}},{"type":"Feature","properties":{"ID_0":177,"ISO":"PHL","NAME_0":"Philippines","ID_1":4034,"NAME_1":"Laguna","ID_2":403403,"NAME_2":"City of Biñan","ID_3":403403019,"NAME_3":"San Antonio","NL_NAME_3":null,"VARNAME_3":null,"TYPE_3":"Barangay","ENGTYPE_3":"Village","PROVINCE":"Laguna","REGION":"Region IV-A (Calabarzon)","id":"barangay-0403403019","name":"San Antonio","barangayCode":"0403403019","population":null,"formattedPop":null,"densityCategory":"No data","vulnerabilityRating":"No data","healthRiskLevel":"No data","areaKm2":1.75449,"centerLat":14.333857,"centerLng":121.090675,"geometrySource":"barangays.geojson simplified fallback","geometryMatchMethod":"simplified_fallback","boundaryPointCount":5},"geometry":{"type":"Polygon","coordinates":[[[121.08556397300003,14.342752219000033],[121.09731460700004,14.334088348000023],[121.08877447000009,14.32465897700007],[121.08493820300009,14.331650832000037],[121.08556397300003,14.342752219000033]]]}},{"type":"Feature","properties":{"ID_0":177,"ISO":"PHL","NAME_0":"Philippines","ID_1":4034,"NAME_1":"Laguna","ID_2":403403,"NAME_2":"City of Biñan","ID_3":403403020,"NAME_3":"San Jose","NL_NAME_3":null,"VARNAME_3":null,"TYPE_3":"Barangay","ENGTYPE_3":"Village","PROVINCE":"Laguna","REGION":"Region IV-A (Calabarzon)","id":"barangay-0403403020","name":"San Jose","barangayCode":"0403403020","population":null,"formattedPop":null,"densityCategory":"No data","vulnerabilityRating":"No data","healthRiskLevel":"No data","areaKm2":0.210278,"centerLat":14.342363,"centerLng":121.082308,"geometrySource":"barangays.geojson simplified fallback","geometryMatchMethod":"simplified_fallback","boundaryPointCount":4},"geometry":{"type":"Polygon","coordinates":[[[121.07902054200008,14.345699721000074],[121.08411391100003,14.343034284000055],[121.0830882030001,14.333589197000038],[121.07902054200008,14.345699721000074]]]}},{"type":"Feature","properties":{"ID_0":177,"ISO":"PHL","NAME_0":"Philippines","ID_1":4034,"NAME_1":"Laguna","ID_2":403403,"NAME_2":"City of Biñan","ID_3":403403021,"NAME_3":"San Vicente","NL_NAME_3":null,"VARNAME_3":null,"TYPE_3":"Barangay","ENGTYPE_3":"Village","PROVINCE":"Laguna","REGION":"Region IV-A (Calabarzon)","id":"barangay-0403403021","name":"San Vicente","barangayCode":"0403403021","population":null,"formattedPop":null,"densityCategory":"No data","vulnerabilityRating":"No data","healthRiskLevel":"No data","areaKm2":0.4894,"centerLat":14.33233,"centerLng":121.080052,"geometrySource":"barangays.geojson simplified fallback","geometryMatchMethod":"simplified_fallback","boundaryPointCount":5},"geometry":{"type":"Polygon","coordinates":[[[121.0783809190001,14.335458414000072],[121.08604752000008,14.334765796000056],[121.08646884300003,14.332735781000054],[121.07810139700007,14.32821434300007],[121.0783809190001,14.335458414000072]]]}},{"type":"Feature","properties":{"ID_0":177,"ISO":"PHL","NAME_0":"Philippines","ID_1":4034,"NAME_1":"Laguna","ID_2":403403,"NAME_2":"City of Biñan","ID_3":403403022,"NAME_3":"Soro-soro","NL_NAME_3":null,"VARNAME_3":null,"TYPE_3":"Barangay","ENGTYPE_3":"Village","PROVINCE":"Laguna","REGION":"Region IV-A (Calabarzon)","id":"barangay-0403403022","name":"Soro-soro","barangayCode":"0403403022","population":null,"formattedPop":null,"densityCategory":"No data","vulnerabilityRating":"No data","healthRiskLevel":"No data","areaKm2":0.710862,"centerLat":14.327099,"centerLng":121.060426,"geometrySource":"barangays.geojson simplified fallback","geometryMatchMethod":"simplified_fallback","boundaryPointCount":5},"geometry":{"type":"Polygon","coordinates":[[[121.06459227200003,14.332357984000055],[121.0611363810001,14.322720255000036],[121.05429631000004,14.325453757000048],[121.0549364420001,14.331093791000058],[121.06459227200003,14.332357984000055]]]}},{"type":"Feature","properties":{"ID_0":177,"ISO":"PHL","NAME_0":"Philippines","ID_1":4034,"NAME_1":"Laguna","ID_2":403403,"NAME_2":"City of Biñan","ID_3":403403023,"NAME_3":"Santo Domingo","NL_NAME_3":null,"VARNAME_3":null,"TYPE_3":"Barangay","ENGTYPE_3":"Village","PROVINCE":"Laguna","REGION":"Region IV-A (Calabarzon)","id":"barangay-0403403023","name":"Santo Domingo","barangayCode":"0403403023","population":null,"formattedPop":null,"densityCategory":"No data","vulnerabilityRating":"No data","healthRiskLevel":"No data","areaKm2":0.209024,"centerLat":14.337983,"centerLng":121.081431,"geometrySource":"barangays.geojson simplified fallback","geometryMatchMethod":"simplified_fallback","boundaryPointCount":5},"geometry":{"type":"Polygon","coordinates":[[[121.08123974800003,14.344108386000073],[121.0830882030001,14.333589197000038],[121.08215067600008,14.333259647000034],[121.07960080400005,14.334745844000054],[121.08123974800003,14.344108386000073]]]}},{"type":"Feature","properties":{"ID_0":177,"ISO":"PHL","NAME_0":"Philippines","ID_1":4034,"NAME_1":"Laguna","ID_2":403403,"NAME_2":"City of Biñan","ID_3":403403024,"NAME_3":"Timbao","NL_NAME_3":null,"VARNAME_3":null,"TYPE_3":"Barangay","ENGTYPE_3":"Village","PROVINCE":"Laguna","REGION":"Region IV-A (Calabarzon)","id":"barangay-0403403024","name":"Timbao","barangayCode":"0403403024","population":null,"formattedPop":null,"densityCategory":"No data","vulnerabilityRating":"No data","healthRiskLevel":"No data","areaKm2":2.306498,"centerLat":14.28348,"centerLng":121.054368,"geometrySource":"barangays.geojson simplified fallback","geometryMatchMethod":"simplified_fallback","boundaryPointCount":4},"geometry":{"type":"Polygon","coordinates":[[[121.04789467400008,14.28957020300004],[121.06524215000002,14.280354154000065],[121.04493388600008,14.27404924700005],[121.04789467400008,14.28957020300004]]]}},{"type":"Feature","properties":{"ID_0":177,"ISO":"PHL","NAME_0":"Philippines","ID_1":4034,"NAME_1":"Laguna","ID_2":403403,"NAME_2":"City of Biñan","ID_3":403403025,"NAME_3":"Tubigan","NL_NAME_3":null,"VARNAME_3":null,"TYPE_3":"Barangay","ENGTYPE_3":"Village","PROVINCE":"Laguna","REGION":"Region IV-A (Calabarzon)","id":"barangay-0403403025","name":"Tubigan","barangayCode":"0403403025","population":null,"formattedPop":null,"densityCategory":"No data","vulnerabilityRating":"No data","healthRiskLevel":"No data","areaKm2":0.815999,"centerLat":14.330994,"centerLng":121.070758,"geometrySource":"barangays.geojson simplified fallback","geometryMatchMethod":"simplified_fallback","boundaryPointCount":4},"geometry":{"type":"Polygon","coordinates":[[[121.06442042800006,14.33270906100006],[121.07810139700007,14.32821434300007],[121.06329596100011,14.326607780000074],[121.06442042800006,14.33270906100006]]]}},{"type":"Feature","properties":{"ID_0":177,"ISO":"PHL","NAME_0":"Philippines","ID_1":4034,"NAME_1":"Laguna","ID_2":403403,"NAME_2":"City of Biñan","ID_3":403403026,"NAME_3":"Zapote","NL_NAME_3":null,"VARNAME_3":null,"TYPE_3":"Barangay","ENGTYPE_3":"Village","PROVINCE":"Laguna","REGION":"Region IV-A (Calabarzon)","id":"barangay-0403403026","name":"Zapote","barangayCode":"0403403026","population":null,"formattedPop":null,"densityCategory":"No data","vulnerabilityRating":"No data","healthRiskLevel":"No data","areaKm2":1.688073,"centerLat":14.314271,"centerLng":121.084113,"geometrySource":"barangays.geojson simplified fallback","geometryMatchMethod":"simplified_fallback","boundaryPointCount":5},"geometry":{"type":"Polygon","coordinates":[[[121.08826869200004,14.324804143000051],[121.08518426,14.318719439000063],[121.08964368700003,14.305692780000072],[121.07678030300008,14.310695578000036],[121.08826869200004,14.324804143000051]]]}}]}
