{"type":"FeatureCollection","features":[{"type":"Feature","properties":{"ID_0":177,"ISO":"PHL","NAME_0":"Philippines","ID_1":6004,"NAME_1":"Aklan","ID_2":600410,"NAME_2":"Madalag","ID_3":600410001,"NAME_3":"Alaminos","NL_NAME_3":null,"VARNAME_3":null,"TYPE_3":"Barangay","ENGTYPE_3":"Village","PROVINCE":"Aklan","REGION":"Region VI (Western Visayas)","id":"barangay-0600410001","name":"Alaminos","barangayCode":"0600410001","population":null,"formattedPop":null,"densityCategory":"No data","vulnerabilityRating":"No data","healthRiskLevel":"No data","areaKm2":3.102984,"centerLat":11.556735,"centerLng":122.274997,"geometrySource":"all_barangay-2.csv detailed WKT","geometryMatchMethod":"unique_official_admin_names","boundaryPointCount":76},"geometry":{"type":"MultiPolygon","coordinates":[[[[122.281837,11.5633],[122.282249,11.56303],[122.282417,11.5619],[122.281242,11.56081],[122.281914,11.56075],[122.282173,11.56065],[122.282471,11.56047],[122.282921,11.55993],[122.2836,11.55863],[122.284943,11.55798],[122.283241,11.55695],[122.283363,11.55632],[122.285294,11.55629],[122.285393,11.55576],[122.28421,11.55567],[122.283867,11.55538],[122.283386,11.55508],[122.283302,11.55455],[122.283829,11.55462],[122.284042,11.55343],[122.28466,11.5529],[122.284523,11.55192],[122.283783,11.55102],[122.283707,11.55039],[122.28405,11.55012],[122.284523,11.54995],[122.284813,11.54991],[122.285233,11.54991],[122.285637,11.54957],[122.285851,11.5492],[122.285507,11.54873],[122.284859,11.54829],[122.284233,11.54772],[122.283913,11.54725],[122.283897,11.54701],[122.284309,11.54642],[122.28289,11.54527],[122.282722,11.54592],[122.282608,11.54658],[122.282219,11.54766],[122.281227,11.54811],[122.280197,11.54859],[122.278839,11.5491],[122.276772,11.5496],[122.275177,11.54941],[122.27404,11.54896],[122.271606,11.54863],[122.270271,11.54859],[122.268318,11.54844],[122.267532,11.55234],[122.267189,11.55232],[122.2668,11.5524],[122.266609,11.5528],[122.266708,11.55318],[122.26709,11.55363],[122.26712,11.55433],[122.266701,11.55443],[122.266472,11.55584],[122.267563,11.55678],[122.268967,11.55992],[122.274696,11.56035],[122.275757,11.56108],[122.276047,11.5616],[122.276367,11.56228],[122.276848,11.56309],[122.277069,11.5634],[122.277451,11.56385],[122.277924,11.56389],[122.27858,11.56374],[122.278969,11.56337],[122.279411,11.56316],[122.279999,11.56289],[122.280739,11.56268],[122.281303,11.56283],[122.281448,11.56294],[122.281837,11.5633]]]]}},{"type":"Feature","properties":{"ID_0":177,"ISO":"PHL","NAME_0":"Philippines","ID_1":6004,"NAME_1":"Aklan","ID_2":600410,"NAME_2":"Madalag","ID_3":600410002,"NAME_3":"Alas-as","NL_NAME_3":null,"VARNAME_3":null,"TYPE_3":"Barangay","ENGTYPE_3":"Village","PROVINCE":"Aklan","REGION":"Region VI (Western Visayas)","id":"barangay-0600410002","name":"Alas-as","barangayCode":"0600410002","population":null,"formattedPop":null,"densityCategory":"No data","vulnerabilityRating":"No data","healthRiskLevel":"No data","areaKm2":2.961985,"centerLat":11.503093,"centerLng":122.285026,"geometrySource":"all_barangay-2.csv detailed WKT","geometryMatchMethod":"unique_official_admin_names","boundaryPointCount":29},"geometry":{"type":"MultiPolygon","coordinates":[[[[122.293808,11.51129],[122.29451,11.50519],[122.294601,11.50288],[122.294891,11.49877],[122.292488,11.49604],[122.291039,11.49592],[122.29055,11.49574],[122.28965,11.49477],[122.287979,11.49424],[122.283363,11.49372],[122.282097,11.49433],[122.281837,11.49523],[122.281082,11.49598],[122.281029,11.50057],[122.280243,11.50044],[122.280006,11.50085],[122.277618,11.50181],[122.278641,11.50448],[122.281502,11.51384],[122.281883,11.51338],[122.282578,11.51381],[122.284447,11.51249],[122.285103,11.51288],[122.285378,11.51178],[122.286613,11.51186],[122.287033,11.51085],[122.287483,11.51191],[122.289268,11.51205],[122.293808,11.51129]]]]}},{"type":"Feature","properties":{"ID_0":177,"ISO":"PHL","NAME_0":"Philippines","ID_1":6004,"NAME_1":"Aklan","ID_2":600410,"NAME_2":"Madalag","ID_3":600410003,"NAME_3":"Bacyang","NL_NAME_3":null,"VARNAME_3":null,"TYPE_3":"Barangay","ENGTYPE_3":"Village","PROVINCE":"Aklan","REGION":"Region VI (Western Visayas)","id":"barangay-0600410003","name":"Bacyang","barangayCode":"0600410003","population":null,"formattedPop":null,"densityCategory":"No data","vulnerabilityRating":"No data","healthRiskLevel":"No data","areaKm2":2.374069,"centerLat":11.550812,"centerLng":122.259693,"geometrySource":"all_barangay-2.csv detailed WKT","geometryMatchMethod":"unique_official_admin_names","boundaryPointCount":43},"geometry":{"type":"MultiPolygon","coordinates":[[[[122.268967,11.55992],[122.267563,11.55678],[122.266472,11.55584],[122.266701,11.55443],[122.26712,11.55433],[122.26709,11.55363],[122.266708,11.55318],[122.266609,11.5528],[122.2668,11.5524],[122.267189,11.55232],[122.267532,11.55234],[122.268318,11.54844],[122.26754,11.54776],[122.267014,11.54705],[122.266769,11.54579],[122.266762,11.54446],[122.26638,11.54338],[122.26606,11.54289],[122.265533,11.54221],[122.264557,11.54197],[122.263718,11.54231],[122.262718,11.54314],[122.262367,11.54387],[122.261513,11.54503],[122.260277,11.54577],[122.259613,11.54584],[122.25824,11.54521],[122.257103,11.54426],[122.25618,11.54376],[122.25573,11.54364],[122.255547,11.54423],[122.255577,11.54484],[122.255096,11.54603],[122.25444,11.54718],[122.253578,11.54838],[122.253029,11.5492],[122.252647,11.54993],[122.252434,11.55131],[122.252243,11.55259],[122.252274,11.55388],[122.252296,11.55517],[122.25248,11.55661],[122.268967,11.55992]]]]}},{"type":"Feature","properties":{"ID_0":177,"ISO":"PHL","NAME_0":"Philippines","ID_1":6004,"NAME_1":"Aklan","ID_2":600410,"NAME_2":"Madalag","ID_3":600410004,"NAME_3":"Balactasan","NL_NAME_3":null,"VARNAME_3":null,"TYPE_3":"Barangay","ENGTYPE_3":"Village","PROVINCE":"Aklan","REGION":"Region VI (Western Visayas)","id":"barangay-0600410004","name":"Balactasan","barangayCode":"0600410004","population":null,"formattedPop":null,"densityCategory":"No data","vulnerabilityRating":"No data","healthRiskLevel":"No data","areaKm2":1.806657,"centerLat":11.531542,"centerLng":122.286509,"geometrySource":"all_barangay-2.csv detailed WKT","geometryMatchMethod":"unique_official_admin_names","boundaryPointCount":56},"geometry":{"type":"MultiPolygon","coordinates":[[[[122.293571,11.5295],[122.291588,11.52653],[122.291573,11.52473],[122.291901,11.52448],[122.291817,11.52403],[122.291458,11.52382],[122.289833,11.52405],[122.289551,11.52455],[122.288406,11.52449],[122.287621,11.52383],[122.287529,11.52247],[122.284576,11.52255],[122.283951,11.5225],[122.283234,11.52201],[122.28273,11.52257],[122.283524,11.5232],[122.281464,11.52407],[122.282089,11.52466],[122.280083,11.52578],[122.282219,11.52862],[122.283379,11.52889],[122.283279,11.52993],[122.282654,11.5299],[122.28241,11.53107],[122.281967,11.53156],[122.282494,11.53284],[122.282738,11.53298],[122.28344,11.53288],[122.283707,11.5331],[122.283073,11.53383],[122.283257,11.53429],[122.283913,11.53475],[122.284218,11.53509],[122.284439,11.53613],[122.284592,11.53632],[122.285141,11.53668],[122.285316,11.53709],[122.285118,11.53758],[122.285309,11.5385],[122.285873,11.5384],[122.287163,11.53801],[122.288597,11.53834],[122.289207,11.5386],[122.290176,11.53917],[122.291039,11.53953],[122.291763,11.53947],[122.292519,11.53869],[122.29306,11.53757],[122.293213,11.53665],[122.29319,11.53511],[122.293159,11.53336],[122.292877,11.53216],[122.292549,11.5315],[122.292847,11.53035],[122.292839,11.52956],[122.293571,11.5295]]]]}},{"type":"Feature","properties":{"ID_0":177,"ISO":"PHL","NAME_0":"Philippines","ID_1":6004,"NAME_1":"Aklan","ID_2":600410,"NAME_2":"Madalag","ID_3":600410005,"NAME_3":"Cabangahan","NL_NAME_3":null,"VARNAME_3":null,"TYPE_3":"Barangay","ENGTYPE_3":"Village","PROVINCE":"Aklan","REGION":"Region VI (Western Visayas)","id":"barangay-0600410005","name":"Cabangahan","barangayCode":"0600410005","population":null,"formattedPop":null,"densityCategory":"No data","vulnerabilityRating":"No data","healthRiskLevel":"No data","areaKm2":1.673024,"centerLat":11.518378,"centerLng":122.287558,"geometrySource":"all_barangay-2.csv detailed WKT","geometryMatchMethod":"unique_official_admin_names","boundaryPointCount":37},"geometry":{"type":"MultiPolygon","coordinates":[[[[122.291458,11.52382],[122.293411,11.52364],[122.294006,11.52328],[122.294777,11.52328],[122.295128,11.52297],[122.295647,11.52293],[122.296066,11.52328],[122.296654,11.51905],[122.295898,11.51845],[122.294907,11.51826],[122.294418,11.51717],[122.295593,11.51628],[122.295792,11.51544],[122.295433,11.5116],[122.293808,11.51129],[122.289268,11.51205],[122.287483,11.51191],[122.287033,11.51085],[122.286613,11.51186],[122.285378,11.51178],[122.285103,11.51288],[122.284447,11.51249],[122.282578,11.51381],[122.281883,11.51338],[122.281502,11.51384],[122.282127,11.51471],[122.282372,11.51759],[122.283318,11.51855],[122.283279,11.51932],[122.284843,11.5219],[122.284576,11.52255],[122.287529,11.52247],[122.287621,11.52383],[122.288406,11.52449],[122.289551,11.52455],[122.289833,11.52405],[122.291458,11.52382]]]]}},{"type":"Feature","properties":{"ID_0":177,"ISO":"PHL","NAME_0":"Philippines","ID_1":6004,"NAME_1":"Aklan","ID_2":600410,"NAME_2":"Madalag","ID_3":600410006,"NAME_3":"Cabilawan","NL_NAME_3":null,"VARNAME_3":null,"TYPE_3":"Barangay","ENGTYPE_3":"Village","PROVINCE":"Aklan","REGION":"Region VI (Western Visayas)","id":"barangay-0600410006","name":"Cabilawan","barangayCode":"0600410006","population":null,"formattedPop":null,"densityCategory":"No data","vulnerabilityRating":"No data","healthRiskLevel":"No data","areaKm2":1.427039,"centerLat":11.545101,"centerLng":122.286516,"geometrySource":"all_barangay-2.csv detailed WKT","geometryMatchMethod":"unique_official_admin_names","boundaryPointCount":128},"geometry":{"type":"MultiPolygon","coordinates":[[[[122.285851,11.5492],[122.286507,11.54895],[122.287086,11.54888],[122.287621,11.54916],[122.288399,11.54981],[122.288902,11.54951],[122.28907,11.54953],[122.28994,11.55024],[122.290939,11.54962],[122.29068,11.54962],[122.291107,11.54927],[122.291588,11.5492],[122.292236,11.54959],[122.293167,11.55014],[122.2939,11.55004],[122.294144,11.54951],[122.294518,11.54844],[122.294487,11.54747],[122.293747,11.54674],[122.294083,11.5462],[122.2948,11.54595],[122.295021,11.54558],[122.294594,11.54518],[122.294937,11.54485],[122.294632,11.5444],[122.295517,11.54409],[122.29493,11.54341],[122.295998,11.54246],[122.295639,11.54207],[122.295769,11.54151],[122.29525,11.54049],[122.295868,11.54001],[122.296143,11.53813],[122.295517,11.53752],[122.29528,11.53691],[122.294357,11.53683],[122.293739,11.53729],[122.293762,11.53701],[122.293739,11.53618],[122.293617,11.53458],[122.293633,11.53382],[122.293266,11.53228],[122.292923,11.53105],[122.293007,11.53018],[122.29377,11.52975],[122.294167,11.53066],[122.295013,11.53113],[122.295143,11.53196],[122.295067,11.53287],[122.295029,11.53371],[122.295143,11.53456],[122.295341,11.53512],[122.297943,11.53538],[122.297256,11.53515],[122.296501,11.53489],[122.295868,11.53455],[122.29554,11.53407],[122.295731,11.5335],[122.295891,11.53248],[122.296082,11.53157],[122.296257,11.53106],[122.295486,11.53061],[122.294502,11.52972],[122.293571,11.5295],[122.292839,11.52956],[122.292847,11.53035],[122.292549,11.5315],[122.292877,11.53216],[122.293159,11.53336],[122.29319,11.53511],[122.293213,11.53665],[122.29306,11.53757],[122.292519,11.53869],[122.291763,11.53947],[122.291039,11.53953],[122.290176,11.53917],[122.289207,11.5386],[122.288597,11.53834],[122.287163,11.53801],[122.285873,11.5384],[122.285309,11.5385],[122.284897,11.53942],[122.284554,11.54069],[122.284317,11.54141],[122.283752,11.54284],[122.28302,11.54389],[122.282722,11.54475],[122.282478,11.5458],[122.28215,11.54671],[122.282112,11.54675],[122.281197,11.54733],[122.28054,11.54726],[122.278503,11.54801],[122.277122,11.54824],[122.275414,11.54798],[122.274597,11.54794],[122.275047,11.54672],[122.273354,11.54691],[122.269699,11.54686],[122.26738,11.54554],[122.267509,11.54483],[122.267441,11.54397],[122.266937,11.54295],[122.26638,11.54338],[122.266762,11.54446],[122.266769,11.54579],[122.267014,11.54705],[122.26754,11.54776],[122.268318,11.54844],[122.270271,11.54859],[122.271606,11.54863],[122.27404,11.54896],[122.275177,11.54941],[122.276772,11.5496],[122.278839,11.5491],[122.280197,11.54859],[122.281227,11.54811],[122.282219,11.54766],[122.282608,11.54658],[122.282722,11.54592],[122.28289,11.54527],[122.284309,11.54642],[122.283897,11.54701],[122.283913,11.54725],[122.284233,11.54772],[122.284859,11.54829],[122.285507,11.54873],[122.285851,11.5492]]]]}},{"type":"Feature","properties":{"ID_0":177,"ISO":"PHL","NAME_0":"Philippines","ID_1":6004,"NAME_1":"Aklan","ID_2":600410,"NAME_2":"Madalag","ID_3":600410007,"NAME_3":"Catabana","NL_NAME_3":null,"VARNAME_3":null,"TYPE_3":"Barangay","ENGTYPE_3":"Village","PROVINCE":"Aklan","REGION":"Region VI (Western Visayas)","id":"barangay-0600410007","name":"Catabana","barangayCode":"0600410007","population":null,"formattedPop":null,"densityCategory":"No data","vulnerabilityRating":"No data","healthRiskLevel":"No data","areaKm2":1.840844,"centerLat":11.560688,"centerLng":122.287027,"geometrySource":"all_barangay-2.csv detailed WKT","geometryMatchMethod":"unique_official_admin_names","boundaryPointCount":80},"geometry":{"type":"MultiPolygon","coordinates":[[[[122.294022,11.56868],[122.293961,11.56789],[122.29335,11.56706],[122.29303,11.56664],[122.293373,11.5656],[122.293388,11.56503],[122.292763,11.56426],[122.292122,11.56333],[122.291367,11.56182],[122.291382,11.56087],[122.292122,11.55986],[122.292389,11.5589],[122.292374,11.55807],[122.292618,11.55742],[122.292389,11.55638],[122.291946,11.55594],[122.292526,11.55505],[122.292793,11.55467],[122.292351,11.55367],[122.292664,11.55267],[122.292099,11.5515],[122.291946,11.55105],[122.291382,11.55017],[122.290939,11.54962],[122.28994,11.55024],[122.28907,11.54953],[122.288902,11.54951],[122.288399,11.54981],[122.287621,11.54916],[122.287086,11.54888],[122.286507,11.54895],[122.285851,11.5492],[122.285637,11.54957],[122.285233,11.54991],[122.284813,11.54991],[122.284523,11.54995],[122.28405,11.55012],[122.283707,11.55039],[122.283783,11.55102],[122.284523,11.55192],[122.28466,11.5529],[122.284042,11.55343],[122.283829,11.55462],[122.283302,11.55455],[122.283386,11.55508],[122.283867,11.55538],[122.28421,11.55567],[122.285393,11.55576],[122.285294,11.55629],[122.283363,11.55632],[122.283241,11.55695],[122.284943,11.55798],[122.2836,11.55863],[122.282921,11.55993],[122.282471,11.56047],[122.282173,11.56065],[122.281914,11.56075],[122.281242,11.56081],[122.282417,11.5619],[122.282249,11.56303],[122.281837,11.5633],[122.282082,11.56404],[122.282761,11.56464],[122.2836,11.56514],[122.284927,11.56565],[122.285698,11.56638],[122.286133,11.56693],[122.28653,11.56725],[122.286942,11.56725],[122.287628,11.56738],[122.288368,11.56793],[122.288559,11.5684],[122.289063,11.56824],[122.289528,11.5685],[122.290169,11.56883],[122.290497,11.56896],[122.291687,11.5691],[122.292236,11.56916],[122.292976,11.56909],[122.294022,11.56868]]]]}},{"type":"Feature","properties":{"ID_0":177,"ISO":"PHL","NAME_0":"Philippines","ID_1":6004,"NAME_1":"Aklan","ID_2":600410,"NAME_2":"Madalag","ID_3":600410008,"NAME_3":"Dit-Ana","NL_NAME_3":null,"VARNAME_3":null,"TYPE_3":"Barangay","ENGTYPE_3":"Village","PROVINCE":"Aklan","REGION":"Region VI (Western Visayas)","id":"barangay-0600410008","name":"Dit-Ana","barangayCode":"0600410008","population":null,"formattedPop":null,"densityCategory":"No data","vulnerabilityRating":"No data","healthRiskLevel":"No data","areaKm2":1.630269,"centerLat":11.475247,"centerLng":122.266136,"geometrySource":"all_barangay-2.csv detailed WKT","geometryMatchMethod":"unique_official_admin_names","boundaryPointCount":55},"geometry":{"type":"MultiPolygon","coordinates":[[[[122.271729,11.48177],[122.272118,11.48169],[122.272133,11.48045],[122.272087,11.47893],[122.272568,11.4786],[122.272858,11.47644],[122.272659,11.47629],[122.272499,11.4753],[122.272057,11.47518],[122.272331,11.47455],[122.271538,11.47441],[122.269974,11.47319],[122.271111,11.47103],[122.271103,11.47032],[122.271004,11.46983],[122.269669,11.4677],[122.269211,11.4669],[122.268837,11.46577],[122.268806,11.46476],[122.268013,11.46383],[122.263023,11.46272],[122.260017,11.45633],[122.260109,11.45595],[122.254967,11.45569],[122.25592,11.4577],[122.256912,11.45942],[122.257202,11.46083],[122.258049,11.4618],[122.25882,11.46246],[122.259972,11.4637],[122.260223,11.46457],[122.261581,11.46685],[122.262009,11.46903],[122.261971,11.46999],[122.262001,11.47142],[122.261833,11.47357],[122.261581,11.47502],[122.261398,11.47619],[122.261581,11.47725],[122.262199,11.47914],[122.262817,11.48015],[122.263924,11.48101],[122.264687,11.48121],[122.265282,11.48101],[122.266083,11.48088],[122.26667,11.4811],[122.267868,11.48134],[122.268623,11.48168],[122.269493,11.4816],[122.27018,11.48144],[122.270378,11.48127],[122.270638,11.48101],[122.270866,11.48075],[122.271263,11.48107],[122.271729,11.48177]]]]}},{"type":"Feature","properties":{"ID_0":177,"ISO":"PHL","NAME_0":"Philippines","ID_1":6004,"NAME_1":"Aklan","ID_2":600410,"NAME_2":"Madalag","ID_3":600410009,"NAME_3":"Galicia","NL_NAME_3":null,"VARNAME_3":null,"TYPE_3":"Barangay","ENGTYPE_3":"Village","PROVINCE":"Aklan","REGION":"Region VI (Western Visayas)","id":"barangay-0600410009","name":"Galicia","barangayCode":"0600410009","population":null,"formattedPop":null,"densityCategory":"No data","vulnerabilityRating":"No data","healthRiskLevel":"No data","areaKm2":4.102544,"centerLat":11.531465,"centerLng":122.251401,"geometrySource":"all_barangay-2.csv detailed WKT","geometryMatchMethod":"unique_official_admin_names","boundaryPointCount":55},"geometry":{"type":"MultiPolygon","coordinates":[[[[122.266937,11.54295],[122.268227,11.54244],[122.268463,11.54204],[122.26931,11.54218],[122.268806,11.54116],[122.269432,11.54125],[122.268997,11.53992],[122.26857,11.53847],[122.268227,11.53753],[122.268044,11.53643],[122.267929,11.53584],[122.266983,11.53589],[122.266182,11.53543],[122.265984,11.53465],[122.265541,11.53439],[122.265518,11.53318],[122.264679,11.53271],[122.265419,11.53217],[122.264381,11.53115],[122.263588,11.53139],[122.262604,11.53097],[122.262077,11.53164],[122.259621,11.53317],[122.258003,11.53278],[122.256439,11.53086],[122.257004,11.53093],[122.257187,11.53069],[122.257088,11.53026],[122.256569,11.52985],[122.252907,11.53006],[122.246452,11.5321],[122.244789,11.53487],[122.242653,11.53724],[122.253433,11.53859],[122.253609,11.53954],[122.253693,11.53984],[122.253822,11.541],[122.253967,11.54158],[122.254356,11.54214],[122.255112,11.54303],[122.25573,11.54364],[122.25618,11.54376],[122.257103,11.54426],[122.25824,11.54521],[122.259613,11.54584],[122.260277,11.54577],[122.261513,11.54503],[122.262367,11.54387],[122.262718,11.54314],[122.263718,11.54231],[122.264557,11.54197],[122.265533,11.54221],[122.26606,11.54289],[122.26638,11.54338],[122.266937,11.54295]]]]}},{"type":"Feature","properties":{"ID_0":177,"ISO":"PHL","NAME_0":"Philippines","ID_1":6004,"NAME_1":"Aklan","ID_2":600410,"NAME_2":"Madalag","ID_3":600410010,"NAME_3":"Guinatu-an","NL_NAME_3":null,"VARNAME_3":null,"TYPE_3":"Barangay","ENGTYPE_3":"Village","PROVINCE":"Aklan","REGION":"Region VI (Western Visayas)","id":"barangay-0600410010","name":"Guinatu-an","barangayCode":"0600410010","population":null,"formattedPop":null,"densityCategory":"No data","vulnerabilityRating":"No data","healthRiskLevel":"No data","areaKm2":1.518441,"centerLat":11.512853,"centerLng":122.309775,"geometrySource":"all_barangay-2.csv detailed WKT","geometryMatchMethod":"unique_official_admin_names","boundaryPointCount":59},"geometry":{"type":"MultiPolygon","coordinates":[[[[122.317657,11.51998],[122.318283,11.5191],[122.318802,11.5184],[122.319099,11.51777],[122.319237,11.51701],[122.319237,11.51637],[122.318947,11.51568],[122.318687,11.51498],[122.318283,11.51449],[122.318039,11.51386],[122.317741,11.51322],[122.317703,11.51247],[122.317497,11.51177],[122.31723,11.51113],[122.316757,11.5105],[122.316353,11.51003],[122.315987,11.50951],[122.315483,11.50905],[122.314873,11.50839],[122.314499,11.50775],[122.31427,11.50709],[122.313927,11.50636],[122.313652,11.50584],[122.313553,11.50524],[122.313057,11.50513],[122.312988,11.50511],[122.312447,11.50482],[122.312202,11.50468],[122.311996,11.50467],[122.311462,11.50471],[122.310837,11.50475],[122.310402,11.50484],[122.309624,11.50542],[122.308937,11.50587],[122.307953,11.50671],[122.307579,11.50721],[122.307251,11.50755],[122.307472,11.5097],[122.306328,11.51096],[122.30629,11.51209],[122.30558,11.51249],[122.305656,11.51277],[122.306381,11.51355],[122.306084,11.51559],[122.307022,11.51715],[122.30674,11.5175],[122.307037,11.51782],[122.307503,11.51764],[122.308281,11.51869],[122.309792,11.51832],[122.311089,11.51875],[122.311508,11.51953],[122.312019,11.51944],[122.312057,11.5189],[122.312988,11.51898],[122.313766,11.51885],[122.315086,11.51949],[122.317337,11.51957],[122.317657,11.51998]]]]}},{"type":"Feature","properties":{"ID_0":177,"ISO":"PHL","NAME_0":"Philippines","ID_1":6004,"NAME_1":"Aklan","ID_2":600410,"NAME_2":"Madalag","ID_3":600410011,"NAME_3":"Logohon","NL_NAME_3":null,"VARNAME_3":null,"TYPE_3":"Barangay","ENGTYPE_3":"Village","PROVINCE":"Aklan","REGION":"Region VI (Western Visayas)","id":"barangay-0600410011","name":"Logohon","barangayCode":"0600410011","population":null,"formattedPop":null,"densityCategory":"No data","vulnerabilityRating":"No data","healthRiskLevel":"No data","areaKm2":1.288613,"centerLat":11.530094,"centerLng":122.297268,"geometrySource":"all_barangay-2.csv detailed WKT","geometryMatchMethod":"unique_official_admin_names","boundaryPointCount":59},"geometry":{"type":"MultiPolygon","coordinates":[[[[122.302437,11.53496],[122.302399,11.53444],[122.301224,11.53005],[122.304161,11.52294],[122.308281,11.51869],[122.307503,11.51764],[122.307037,11.51782],[122.30674,11.5175],[122.307022,11.51715],[122.306084,11.51559],[122.304909,11.51626],[122.304787,11.51572],[122.304237,11.51565],[122.303162,11.51672],[122.302116,11.51676],[122.301682,11.51721],[122.301437,11.51738],[122.300743,11.51702],[122.299873,11.5165],[122.298714,11.51606],[122.29776,11.51721],[122.296829,11.51662],[122.296577,11.51569],[122.295792,11.51544],[122.295593,11.51628],[122.294418,11.51717],[122.294907,11.51826],[122.295898,11.51845],[122.296654,11.51905],[122.296066,11.52328],[122.295647,11.52293],[122.295128,11.52297],[122.294777,11.52328],[122.294006,11.52328],[122.293411,11.52364],[122.291458,11.52382],[122.291817,11.52403],[122.291901,11.52448],[122.291573,11.52473],[122.291588,11.52653],[122.293571,11.5295],[122.294502,11.52972],[122.295486,11.53061],[122.296257,11.53106],[122.296082,11.53157],[122.295891,11.53248],[122.295731,11.5335],[122.29554,11.53407],[122.295868,11.53455],[122.296501,11.53489],[122.297256,11.53515],[122.297943,11.53538],[122.298599,11.53547],[122.299156,11.53556],[122.299713,11.53556],[122.300293,11.53519],[122.30088,11.53505],[122.30172,11.535],[122.302437,11.53496]]]]}},{"type":"Feature","properties":{"ID_0":177,"ISO":"PHL","NAME_0":"Philippines","ID_1":6004,"NAME_1":"Aklan","ID_2":600410,"NAME_2":"Madalag","ID_3":600410012,"NAME_3":"Mamba","NL_NAME_3":null,"VARNAME_3":null,"TYPE_3":"Barangay","ENGTYPE_3":"Village","PROVINCE":"Aklan","REGION":"Region VI (Western Visayas)","id":"barangay-0600410012","name":"Mamba","barangayCode":"0600410012","population":null,"formattedPop":null,"densityCategory":"No data","vulnerabilityRating":"No data","healthRiskLevel":"No data","areaKm2":3.645033,"centerLat":11.491599,"centerLng":122.272062,"geometrySource":"all_barangay-2.csv detailed WKT","geometryMatchMethod":"unique_official_admin_names","boundaryPointCount":18},"geometry":{"type":"MultiPolygon","coordinates":[[[[122.277618,11.50181],[122.280006,11.50085],[122.280243,11.50044],[122.281029,11.50057],[122.281082,11.49598],[122.281837,11.49523],[122.282097,11.49433],[122.283363,11.49372],[122.274841,11.48016],[122.273277,11.48161],[122.272118,11.48169],[122.271729,11.48177],[122.271004,11.48186],[122.255989,11.48561],[122.272217,11.49925],[122.274361,11.50127],[122.275269,11.50094],[122.277618,11.50181]]]]}},{"type":"Feature","properties":{"ID_0":177,"ISO":"PHL","NAME_0":"Philippines","ID_1":6004,"NAME_1":"Aklan","ID_2":600410,"NAME_2":"Madalag","ID_3":600410013,"NAME_3":"Maria Cristina","NL_NAME_3":null,"VARNAME_3":null,"TYPE_3":"Barangay","ENGTYPE_3":"Village","PROVINCE":"Aklan","REGION":"Region VI (Western Visayas)","id":"barangay-0600410013","name":"Maria Cristina","barangayCode":"0600410013","population":null,"formattedPop":null,"densityCategory":"No data","vulnerabilityRating":"No data","healthRiskLevel":"No data","areaKm2":122.437718,"centerLat":11.493889,"centerLng":122.195609,"geometrySource":"all_barangay-2.csv detailed WKT","geometryMatchMethod":"unique_official_admin_names","boundaryPointCount":93},"geometry":{"type":"MultiPolygon","coordinates":[[[[122.234398,11.55267],[122.234528,11.55176],[122.234741,11.55104],[122.235573,11.5488],[122.23613,11.54759],[122.237007,11.54609],[122.237907,11.54442],[122.238647,11.54293],[122.239807,11.54131],[122.240868,11.53977],[122.241417,11.53844],[122.24157,11.53796],[122.242653,11.53724],[122.244789,11.53487],[122.246452,11.5321],[122.252907,11.53006],[122.256569,11.52985],[122.257248,11.5293],[122.258453,11.52944],[122.259621,11.52784],[122.260017,11.52518],[122.25882,11.52633],[122.258347,11.52632],[122.257599,11.52613],[122.25708,11.52574],[122.256477,11.52505],[122.256348,11.52313],[122.257187,11.52305],[122.257584,11.52221],[122.258018,11.52201],[122.259529,11.52189],[122.259911,11.51758],[122.257607,11.51472],[122.256599,11.51293],[122.255867,11.51131],[122.254623,11.508],[122.253868,11.50479],[122.252907,11.50078],[122.252289,11.49708],[122.251984,11.49502],[122.251984,11.49339],[122.252357,11.49136],[122.253067,11.48959],[122.253922,11.48758],[122.254723,11.48704],[122.25547,11.48572],[122.255989,11.48561],[122.242393,11.45969],[122.218597,11.45097],[122.208931,11.4458],[122.176498,11.44584],[122.162193,11.44589],[122.161362,11.44718],[122.160667,11.44884],[122.159599,11.45047],[122.158852,11.45219],[122.157211,11.45551],[122.154953,11.45748],[122.151772,11.4602],[122.149147,11.4615],[122.146118,11.46226],[122.143219,11.46304],[122.140533,11.46381],[122.138771,11.46496],[122.136681,11.46713],[122.135437,11.46901],[122.134911,11.47349],[122.134872,11.47889],[122.13517,11.48683],[122.135132,11.49585],[122.135986,11.4993],[122.136787,11.50539],[122.139977,11.51124],[122.142616,11.51549],[122.145157,11.51976],[122.146179,11.5207],[122.148743,11.52281],[122.15139,11.52585],[122.153397,11.52828],[122.154198,11.53013],[122.154572,11.53194],[122.15477,11.53315],[122.15464,11.53482],[122.165024,11.53637],[122.182953,11.53892],[122.192787,11.54193],[122.199669,11.54385],[122.203056,11.54417],[122.209457,11.54478],[122.215492,11.54583],[122.222137,11.54842],[122.227112,11.55002],[122.234398,11.55267]]]]}},{"type":"Feature","properties":{"ID_0":177,"ISO":"PHL","NAME_0":"Philippines","ID_1":6004,"NAME_1":"Aklan","ID_2":600410,"NAME_2":"Madalag","ID_3":600410014,"NAME_3":"Medina","NL_NAME_3":null,"VARNAME_3":null,"TYPE_3":"Barangay","ENGTYPE_3":"Village","PROVINCE":"Aklan","REGION":"Region VI (Western Visayas)","id":"barangay-0600410014","name":"Medina","barangayCode":"0600410014","population":null,"formattedPop":null,"densityCategory":"No data","vulnerabilityRating":"No data","healthRiskLevel":"No data","areaKm2":6.535569,"centerLat":11.464102,"centerLng":122.25451,"geometrySource":"all_barangay-2.csv detailed WKT","geometryMatchMethod":"unique_official_admin_names","boundaryPointCount":36},"geometry":{"type":"MultiPolygon","coordinates":[[[[122.255989,11.48561],[122.271004,11.48186],[122.271729,11.48177],[122.271263,11.48107],[122.270866,11.48075],[122.270638,11.48101],[122.270378,11.48127],[122.27018,11.48144],[122.269493,11.4816],[122.268623,11.48168],[122.267868,11.48134],[122.26667,11.4811],[122.266083,11.48088],[122.265282,11.48101],[122.264687,11.48121],[122.263924,11.48101],[122.262817,11.48015],[122.262199,11.47914],[122.261581,11.47725],[122.261398,11.47619],[122.261581,11.47502],[122.261833,11.47357],[122.262001,11.47142],[122.261971,11.46999],[122.262009,11.46903],[122.261581,11.46685],[122.260223,11.46457],[122.259972,11.4637],[122.25882,11.46246],[122.258049,11.4618],[122.257202,11.46083],[122.256912,11.45942],[122.25592,11.4577],[122.254967,11.45569],[122.242393,11.45969],[122.255989,11.48561]]]]}},{"type":"Feature","properties":{"ID_0":177,"ISO":"PHL","NAME_0":"Philippines","ID_1":6004,"NAME_1":"Aklan","ID_2":600410,"NAME_2":"Madalag","ID_3":600410015,"NAME_3":"Mercedes","NL_NAME_3":null,"VARNAME_3":null,"TYPE_3":"Barangay","ENGTYPE_3":"Village","PROVINCE":"Aklan","REGION":"Region VI (Western Visayas)","id":"barangay-0600410015","name":"Mercedes","barangayCode":"0600410015","population":null,"formattedPop":null,"densityCategory":"No data","vulnerabilityRating":"No data","healthRiskLevel":"No data","areaKm2":3.21653,"centerLat":11.546323,"centerLng":122.244821,"geometrySource":"all_barangay-2.csv detailed WKT","geometryMatchMethod":"unique_official_admin_names","boundaryPointCount":35},"geometry":{"type":"MultiPolygon","coordinates":[[[[122.25248,11.55661],[122.252296,11.55517],[122.252274,11.55388],[122.252243,11.55259],[122.252434,11.55131],[122.252647,11.54993],[122.253029,11.5492],[122.253578,11.54838],[122.25444,11.54718],[122.255096,11.54603],[122.255577,11.54484],[122.255547,11.54423],[122.25573,11.54364],[122.255112,11.54303],[122.254356,11.54214],[122.253967,11.54158],[122.253822,11.541],[122.253693,11.53984],[122.253609,11.53954],[122.253433,11.53859],[122.242653,11.53724],[122.24157,11.53796],[122.241417,11.53844],[122.240868,11.53977],[122.239807,11.54131],[122.238647,11.54293],[122.237907,11.54442],[122.237007,11.54609],[122.23613,11.54759],[122.235573,11.5488],[122.234741,11.55104],[122.234528,11.55176],[122.234398,11.55267],[122.241829,11.55399],[122.25248,11.55661]]]]}},{"type":"Feature","properties":{"ID_0":177,"ISO":"PHL","NAME_0":"Philippines","ID_1":6004,"NAME_1":"Aklan","ID_2":600410,"NAME_2":"Madalag","ID_3":600410016,"NAME_3":"Napnot","NL_NAME_3":null,"VARNAME_3":null,"TYPE_3":"Barangay","ENGTYPE_3":"Village","PROVINCE":"Aklan","REGION":"Region VI (Western Visayas)","id":"barangay-0600410016","name":"Napnot","barangayCode":"0600410016","population":null,"formattedPop":null,"densityCategory":"No data","vulnerabilityRating":"No data","healthRiskLevel":"No data","areaKm2":3.202095,"centerLat":11.5101,"centerLng":122.320026,"geometrySource":"all_barangay-2.csv detailed WKT","geometryMatchMethod":"unique_official_admin_names","boundaryPointCount":61},"geometry":{"type":"MultiPolygon","coordinates":[[[[122.334419,11.51264],[122.332687,11.51191],[122.331467,11.51125],[122.331688,11.51031],[122.331917,11.50937],[122.331657,11.50845],[122.331192,11.50793],[122.330566,11.50767],[122.328903,11.50774],[122.327858,11.508],[122.326767,11.50794],[122.325417,11.50724],[122.324188,11.50637],[122.323067,11.50438],[122.322456,11.50309],[122.322067,11.50207],[122.321671,11.50126],[122.321907,11.5004],[122.322548,11.49981],[122.323097,11.49902],[122.322708,11.49826],[122.321648,11.4981],[122.320702,11.49918],[122.319977,11.49935],[122.318542,11.49936],[122.317108,11.49978],[122.316223,11.50123],[122.315033,11.50282],[122.314621,11.50369],[122.313591,11.50393],[122.313263,11.50392],[122.313553,11.50524],[122.313652,11.50584],[122.313927,11.50636],[122.31427,11.50709],[122.314499,11.50775],[122.314873,11.50839],[122.315483,11.50905],[122.315987,11.50951],[122.316353,11.51003],[122.316757,11.5105],[122.31723,11.51113],[122.317497,11.51177],[122.317703,11.51247],[122.317741,11.51322],[122.318039,11.51386],[122.318283,11.51449],[122.318687,11.51498],[122.318947,11.51568],[122.319237,11.51637],[122.319237,11.51701],[122.319099,11.51777],[122.320412,11.51847],[122.321419,11.51892],[122.322647,11.51892],[122.323776,11.51883],[122.325203,11.51867],[122.326782,11.51824],[122.328697,11.51721],[122.330353,11.51591],[122.334419,11.51264]]]]}},{"type":"Feature","properties":{"ID_0":177,"ISO":"PHL","NAME_0":"Philippines","ID_1":6004,"NAME_1":"Aklan","ID_2":600410,"NAME_2":"Madalag","ID_3":600410017,"NAME_3":"Pang-Itan","NL_NAME_3":null,"VARNAME_3":null,"TYPE_3":"Barangay","ENGTYPE_3":"Village","PROVINCE":"Aklan","REGION":"Region VI (Western Visayas)","id":"barangay-0600410017","name":"Pang-Itan","barangayCode":"0600410017","population":null,"formattedPop":null,"densityCategory":"No data","vulnerabilityRating":"No data","healthRiskLevel":"No data","areaKm2":2.302595,"centerLat":11.52843,"centerLng":122.275944,"geometrySource":"all_barangay-2.csv detailed WKT","geometryMatchMethod":"unique_official_admin_names","boundaryPointCount":99},"geometry":{"type":"MultiPolygon","coordinates":[[[[122.285309,11.5385],[122.285118,11.53758],[122.285316,11.53709],[122.285141,11.53668],[122.284592,11.53632],[122.284439,11.53613],[122.284218,11.53509],[122.283913,11.53475],[122.283257,11.53429],[122.283073,11.53383],[122.283707,11.5331],[122.28344,11.53288],[122.282738,11.53298],[122.282494,11.53284],[122.281967,11.53156],[122.28241,11.53107],[122.282654,11.5299],[122.283279,11.52993],[122.283379,11.52889],[122.282219,11.52862],[122.280083,11.52578],[122.282089,11.52466],[122.281464,11.52407],[122.283524,11.5232],[122.28273,11.52257],[122.283234,11.52201],[122.283951,11.5225],[122.284576,11.52255],[122.284843,11.5219],[122.283279,11.51932],[122.277237,11.51993],[122.27533,11.52018],[122.270622,11.52086],[122.267662,11.52097],[122.266487,11.52229],[122.265747,11.52232],[122.264053,11.52217],[122.262672,11.51977],[122.260933,11.51728],[122.259911,11.51758],[122.259529,11.52189],[122.258018,11.52201],[122.257584,11.52221],[122.257187,11.52305],[122.256348,11.52313],[122.256477,11.52505],[122.25708,11.52574],[122.257599,11.52613],[122.258347,11.52632],[122.25882,11.52633],[122.260017,11.52518],[122.259621,11.52784],[122.258453,11.52944],[122.257248,11.5293],[122.256569,11.52985],[122.257088,11.53026],[122.257187,11.53069],[122.257004,11.53093],[122.256439,11.53086],[122.258003,11.53278],[122.259621,11.53317],[122.262077,11.53164],[122.262604,11.53097],[122.263588,11.53139],[122.264381,11.53115],[122.265419,11.53217],[122.264679,11.53271],[122.265518,11.53318],[122.265541,11.53439],[122.265984,11.53465],[122.266182,11.53543],[122.266983,11.53589],[122.267929,11.53584],[122.268051,11.53475],[122.269821,11.53551],[122.270607,11.53467],[122.271141,11.53444],[122.271713,11.53505],[122.272324,11.53483],[122.272728,11.53521],[122.272537,11.53595],[122.274048,11.53684],[122.275497,11.5369],[122.276176,11.53762],[122.276077,11.53823],[122.276649,11.53833],[122.277588,11.53957],[122.277939,11.54161],[122.278831,11.54167],[122.278732,11.54208],[122.279747,11.54341],[122.280167,11.5428],[122.281158,11.54319],[122.282356,11.54244],[122.282959,11.54113],[122.284317,11.54141],[122.284554,11.54069],[122.284897,11.53942],[122.285309,11.5385]]]]}},{"type":"Feature","properties":{"ID_0":177,"ISO":"PHL","NAME_0":"Philippines","ID_1":6004,"NAME_1":"Aklan","ID_2":600410,"NAME_2":"Madalag","ID_3":600410018,"NAME_3":"Paningayan","NL_NAME_3":null,"VARNAME_3":null,"TYPE_3":"Barangay","ENGTYPE_3":"Village","PROVINCE":"Aklan","REGION":"Region VI (Western Visayas)","id":"barangay-0600410018","name":"Paningayan","barangayCode":"0600410018","population":null,"formattedPop":null,"densityCategory":"No data","vulnerabilityRating":"No data","healthRiskLevel":"No data","areaKm2":5.421073,"centerLat":11.524411,"centerLng":122.327975,"geometrySource":"all_barangay-2.csv detailed WKT","geometryMatchMethod":"unique_official_admin_names","boundaryPointCount":43},"geometry":{"type":"MultiPolygon","coordinates":[[[[122.332314,11.53567],[122.334511,11.53377],[122.335167,11.5331],[122.336128,11.53226],[122.3367,11.53112],[122.345016,11.51731],[122.334419,11.51264],[122.330353,11.51591],[122.328697,11.51721],[122.326782,11.51824],[122.325203,11.51867],[122.323776,11.51883],[122.322647,11.51892],[122.321419,11.51892],[122.320412,11.51847],[122.319099,11.51777],[122.318802,11.5184],[122.318283,11.5191],[122.317657,11.51998],[122.317123,11.52045],[122.316353,11.52114],[122.315948,11.52169],[122.315308,11.52234],[122.315392,11.52337],[122.315422,11.52434],[122.315681,11.52514],[122.31588,11.5259],[122.316383,11.52647],[122.316277,11.52698],[122.315964,11.52769],[122.315453,11.52852],[122.314919,11.52915],[122.314682,11.52964],[122.314331,11.53033],[122.313728,11.53097],[122.313141,11.53157],[122.312668,11.53212],[122.31208,11.53272],[122.311531,11.53323],[122.311203,11.53362],[122.310547,11.53405],[122.323593,11.53439],[122.332314,11.53567]]]]}},{"type":"Feature","properties":{"ID_0":177,"ISO":"PHL","NAME_0":"Philippines","ID_1":6004,"NAME_1":"Aklan","ID_2":600410,"NAME_2":"Madalag","ID_3":600410019,"NAME_3":"Panipiason","NL_NAME_3":null,"VARNAME_3":null,"TYPE_3":"Barangay","ENGTYPE_3":"Village","PROVINCE":"Aklan","REGION":"Region VI (Western Visayas)","id":"barangay-0600410019","name":"Panipiason","barangayCode":"0600410019","population":null,"formattedPop":null,"densityCategory":"No data","vulnerabilityRating":"No data","healthRiskLevel":"No data","areaKm2":100.409784,"centerLat":11.396109,"centerLng":122.214727,"geometrySource":"all_barangay-2.csv detailed WKT","geometryMatchMethod":"unique_official_admin_names","boundaryPointCount":99},"geometry":{"type":"MultiPolygon","coordinates":[[[[122.254967,11.45569],[122.260109,11.45595],[122.261078,11.45496],[122.261436,11.45478],[122.261879,11.45404],[122.261971,11.4528],[122.26223,11.45057],[122.262199,11.4496],[122.261887,11.4483],[122.261642,11.44798],[122.256653,11.44321],[122.256142,11.44245],[122.256027,11.44219],[122.256248,11.43869],[122.257111,11.43434],[122.258118,11.43107],[122.258377,11.42716],[122.259178,11.42345],[122.261307,11.41349],[122.26133,11.4098],[122.261368,11.40611],[122.26107,11.40117],[122.26078,11.40053],[122.260788,11.39854],[122.259338,11.39348],[122.25737,11.38866],[122.254227,11.38414],[122.253906,11.38225],[122.250771,11.37709],[122.249153,11.37479],[122.248802,11.3742],[122.247337,11.37164],[122.244141,11.36648],[122.240227,11.36059],[122.235123,11.35419],[122.230377,11.34848],[122.226509,11.3444],[122.221573,11.33837],[122.217346,11.33304],[122.213402,11.32844],[122.209099,11.32356],[122.205139,11.3184],[122.201897,11.31499],[122.200073,11.31268],[122.195412,11.31685],[122.192062,11.32074],[122.189484,11.32491],[122.186401,11.33044],[122.184151,11.33533],[122.182938,11.33879],[122.18235,11.3429],[122.183037,11.34657],[122.184113,11.35029],[122.185097,11.35344],[122.186638,11.35605],[122.188911,11.36019],[122.190666,11.36512],[122.19339,11.37352],[122.193199,11.37502],[122.192909,11.37799],[122.192261,11.38085],[122.191803,11.38264],[122.19072,11.38597],[122.189148,11.38891],[122.187523,11.39133],[122.185753,11.39381],[122.183937,11.39561],[122.182777,11.39577],[122.181633,11.39621],[122.179947,11.39709],[122.179283,11.39733],[122.177002,11.39743],[122.174294,11.39751],[122.172127,11.39856],[122.168747,11.39834],[122.168007,11.40075],[122.16774,11.40155],[122.167229,11.40309],[122.167267,11.40659],[122.167511,11.40922],[122.167252,11.4127],[122.167084,11.41379],[122.166962,11.41445],[122.167458,11.41734],[122.167824,11.41935],[122.167976,11.4237],[122.167931,11.42657],[122.167877,11.4279],[122.167328,11.43313],[122.166634,11.43724],[122.165314,11.44072],[122.16391,11.4438],[122.162903,11.44492],[122.162193,11.44589],[122.176498,11.44584],[122.208931,11.4458],[122.218597,11.45097],[122.242393,11.45969],[122.254967,11.45569]]]]}},{"type":"Feature","properties":{"ID_0":177,"ISO":"PHL","NAME_0":"Philippines","ID_1":6004,"NAME_1":"Aklan","ID_2":600410,"NAME_2":"Madalag","ID_3":600410020,"NAME_3":"Poblacion","NL_NAME_3":null,"VARNAME_3":null,"TYPE_3":"Barangay","ENGTYPE_3":"Village","PROVINCE":"Aklan","REGION":"Region VI (Western Visayas)","id":"barangay-0600410020","name":"Poblacion","barangayCode":"0600410020","population":null,"formattedPop":null,"densityCategory":"No data","vulnerabilityRating":"No data","healthRiskLevel":"No data","areaKm2":2.551258,"centerLat":11.525979,"centerLng":122.306277,"geometrySource":"all_barangay-2.csv detailed WKT","geometryMatchMethod":"unique_official_admin_names","boundaryPointCount":49},"geometry":{"type":"MultiPolygon","coordinates":[[[[122.307961,11.53632],[122.308517,11.53589],[122.309052,11.53533],[122.309631,11.53485],[122.310547,11.53405],[122.311203,11.53362],[122.311531,11.53323],[122.31208,11.53272],[122.312668,11.53212],[122.313141,11.53157],[122.313728,11.53097],[122.314331,11.53033],[122.314682,11.52964],[122.314919,11.52915],[122.315453,11.52852],[122.315964,11.52769],[122.316277,11.52698],[122.316383,11.52647],[122.31588,11.5259],[122.315681,11.52514],[122.315422,11.52434],[122.315392,11.52337],[122.315308,11.52234],[122.315948,11.52169],[122.316353,11.52114],[122.317123,11.52045],[122.317657,11.51998],[122.317337,11.51957],[122.315086,11.51949],[122.313766,11.51885],[122.312988,11.51898],[122.312057,11.5189],[122.312019,11.51944],[122.311508,11.51953],[122.311089,11.51875],[122.309792,11.51832],[122.308281,11.51869],[122.304161,11.52294],[122.301224,11.53005],[122.302399,11.53444],[122.302437,11.53496],[122.30323,11.53488],[122.304039,11.53509],[122.304611,11.53548],[122.305321,11.53569],[122.305794,11.53573],[122.306511,11.53582],[122.307167,11.53605],[122.307961,11.53632]]]]}},{"type":"Feature","properties":{"ID_0":177,"ISO":"PHL","NAME_0":"Philippines","ID_1":6004,"NAME_1":"Aklan","ID_2":600410,"NAME_2":"Madalag","ID_3":600410021,"NAME_3":"San Jose","NL_NAME_3":null,"VARNAME_3":null,"TYPE_3":"Barangay","ENGTYPE_3":"Village","PROVINCE":"Aklan","REGION":"Region VI (Western Visayas)","id":"barangay-0600410021","name":"San Jose","barangayCode":"0600410021","population":null,"formattedPop":null,"densityCategory":"No data","vulnerabilityRating":"No data","healthRiskLevel":"No data","areaKm2":8.636895,"centerLat":11.507365,"centerLng":122.264181,"geometrySource":"all_barangay-2.csv detailed WKT","geometryMatchMethod":"unique_official_admin_names","boundaryPointCount":36},"geometry":{"type":"MultiPolygon","coordinates":[[[[122.283279,11.51932],[122.283318,11.51855],[122.282372,11.51759],[122.282127,11.51471],[122.281502,11.51384],[122.278641,11.50448],[122.277618,11.50181],[122.275269,11.50094],[122.274361,11.50127],[122.272217,11.49925],[122.255989,11.48561],[122.25547,11.48572],[122.254723,11.48704],[122.253922,11.48758],[122.253067,11.48959],[122.252357,11.49136],[122.251984,11.49339],[122.251984,11.49502],[122.252289,11.49708],[122.252907,11.50078],[122.253868,11.50479],[122.254623,11.508],[122.255867,11.51131],[122.256599,11.51293],[122.257607,11.51472],[122.259911,11.51758],[122.260933,11.51728],[122.262672,11.51977],[122.264053,11.52217],[122.265747,11.52232],[122.266487,11.52229],[122.267662,11.52097],[122.270622,11.52086],[122.27533,11.52018],[122.277237,11.51993],[122.283279,11.51932]]]]}},{"type":"Feature","properties":{"ID_0":177,"ISO":"PHL","NAME_0":"Philippines","ID_1":6004,"NAME_1":"Aklan","ID_2":600410,"NAME_2":"Madalag","ID_3":600410022,"NAME_3":"Singay","NL_NAME_3":null,"VARNAME_3":null,"TYPE_3":"Barangay","ENGTYPE_3":"Village","PROVINCE":"Aklan","REGION":"Region VI (Western Visayas)","id":"barangay-0600410022","name":"Singay","barangayCode":"0600410022","population":null,"formattedPop":null,"densityCategory":"No data","vulnerabilityRating":"No data","healthRiskLevel":"No data","areaKm2":2.290812,"centerLat":11.541113,"centerLng":122.298112,"geometrySource":"all_barangay-2.csv detailed WKT","geometryMatchMethod":"unique_official_admin_names","boundaryPointCount":73},"geometry":{"type":"MultiPolygon","coordinates":[[[[122.292664,11.55267],[122.293243,11.55199],[122.294197,11.55117],[122.295303,11.55121],[122.296051,11.55226],[122.299431,11.55283],[122.306953,11.53878],[122.307426,11.53794],[122.307587,11.53725],[122.307961,11.53632],[122.307167,11.53605],[122.306511,11.53582],[122.305794,11.53573],[122.305321,11.53569],[122.304611,11.53548],[122.304039,11.53509],[122.30323,11.53488],[122.302437,11.53496],[122.30172,11.535],[122.30088,11.53505],[122.300293,11.53519],[122.299713,11.53556],[122.299156,11.53556],[122.298599,11.53547],[122.297943,11.53538],[122.295341,11.53512],[122.295143,11.53456],[122.295029,11.53371],[122.295067,11.53287],[122.295143,11.53196],[122.295013,11.53113],[122.294167,11.53066],[122.29377,11.52975],[122.293007,11.53018],[122.292923,11.53105],[122.293266,11.53228],[122.293633,11.53382],[122.293617,11.53458],[122.293739,11.53618],[122.293762,11.53701],[122.293739,11.53729],[122.294357,11.53683],[122.29528,11.53691],[122.295517,11.53752],[122.296143,11.53813],[122.295868,11.54001],[122.29525,11.54049],[122.295769,11.54151],[122.295639,11.54207],[122.295998,11.54246],[122.29493,11.54341],[122.295517,11.54409],[122.294632,11.5444],[122.294937,11.54485],[122.294594,11.54518],[122.295021,11.54558],[122.2948,11.54595],[122.294083,11.5462],[122.293747,11.54674],[122.294487,11.54747],[122.294518,11.54844],[122.294144,11.54951],[122.2939,11.55004],[122.293167,11.55014],[122.292236,11.54959],[122.291588,11.5492],[122.291107,11.54927],[122.29068,11.54962],[122.290939,11.54962],[122.291382,11.55017],[122.291946,11.55105],[122.292099,11.5515],[122.292664,11.55267]]]]}},{"type":"Feature","properties":{"ID_0":177,"ISO":"PHL","NAME_0":"Philippines","ID_1":6004,"NAME_1":"Aklan","ID_2":600410,"NAME_2":"Madalag","ID_3":600410023,"NAME_3":"Talangban","NL_NAME_3":null,"VARNAME_3":null,"TYPE_3":"Barangay","ENGTYPE_3":"Village","PROVINCE":"Aklan","REGION":"Region VI (Western Visayas)","id":"barangay-0600410023","name":"Talangban","barangayCode":"0600410023","population":null,"formattedPop":null,"densityCategory":"No data","vulnerabilityRating":"No data","healthRiskLevel":"No data","areaKm2":2.580705,"centerLat":11.538851,"centerLng":122.266634,"geometrySource":"all_barangay-2.csv detailed WKT","geometryMatchMethod":"unique_official_admin_names","boundaryPointCount":37},"geometry":{"type":"MultiPolygon","coordinates":[[[[122.275047,11.54672],[122.276573,11.54522],[122.276459,11.54442],[122.27597,11.54371],[122.275223,11.54359],[122.275772,11.54316],[122.274979,11.54275],[122.274193,11.54232],[122.274246,11.54143],[122.275307,11.54098],[122.274231,11.53863],[122.274048,11.53684],[122.272537,11.53595],[122.272728,11.53521],[122.272324,11.53483],[122.271713,11.53505],[122.271141,11.53444],[122.270607,11.53467],[122.269821,11.53551],[122.268051,11.53475],[122.267929,11.53584],[122.268044,11.53643],[122.268227,11.53753],[122.26857,11.53847],[122.268997,11.53992],[122.269432,11.54125],[122.268806,11.54116],[122.26931,11.54218],[122.268463,11.54204],[122.268227,11.54244],[122.266937,11.54295],[122.267441,11.54397],[122.267509,11.54483],[122.26738,11.54554],[122.269699,11.54686],[122.273354,11.54691],[122.275047,11.54672]]]]}},{"type":"Feature","properties":{"ID_0":177,"ISO":"PHL","NAME_0":"Philippines","ID_1":6004,"NAME_1":"Aklan","ID_2":600410,"NAME_2":"Madalag","ID_3":600410024,"NAME_3":"Talimagao","NL_NAME_3":null,"VARNAME_3":null,"TYPE_3":"Barangay","ENGTYPE_3":"Village","PROVINCE":"Aklan","REGION":"Region VI (Western Visayas)","id":"barangay-0600410024","name":"Talimagao","barangayCode":"0600410024","population":null,"formattedPop":null,"densityCategory":"No data","vulnerabilityRating":"No data","healthRiskLevel":"No data","areaKm2":1.214497,"centerLat":11.544018,"centerLng":122.276587,"geometrySource":"all_barangay-2.csv detailed WKT","geometryMatchMethod":"unique_official_admin_names","boundaryPointCount":39},"geometry":{"type":"MultiPolygon","coordinates":[[[[122.284317,11.54141],[122.282959,11.54113],[122.282356,11.54244],[122.281158,11.54319],[122.280167,11.5428],[122.279747,11.54341],[122.278732,11.54208],[122.278831,11.54167],[122.277939,11.54161],[122.277588,11.53957],[122.276649,11.53833],[122.276077,11.53823],[122.276176,11.53762],[122.275497,11.5369],[122.274048,11.53684],[122.274231,11.53863],[122.275307,11.54098],[122.274246,11.54143],[122.274193,11.54232],[122.274979,11.54275],[122.275772,11.54316],[122.275223,11.54359],[122.27597,11.54371],[122.276459,11.54442],[122.276573,11.54522],[122.275047,11.54672],[122.274597,11.54794],[122.275414,11.54798],[122.277122,11.54824],[122.278503,11.54801],[122.28054,11.54726],[122.281197,11.54733],[122.282112,11.54675],[122.28215,11.54671],[122.282478,11.5458],[122.282722,11.54475],[122.28302,11.54389],[122.283752,11.54284],[122.284317,11.54141]]]]}},{"type":"Feature","properties":{"ID_0":177,"ISO":"PHL","NAME_0":"Philippines","ID_1":6004,"NAME_1":"Aklan","ID_2":600410,"NAME_2":"Madalag","ID_3":600410025,"NAME_3":"Tigbawan","NL_NAME_3":null,"VARNAME_3":null,"TYPE_3":"Barangay","ENGTYPE_3":"Village","PROVINCE":"Aklan","REGION":"Region VI (Western Visayas)","id":"barangay-0600410025","name":"Tigbawan","barangayCode":"0600410025","population":null,"formattedPop":null,"densityCategory":"No data","vulnerabilityRating":"No data","healthRiskLevel":"No data","areaKm2":3.464954,"centerLat":11.509723,"centerLng":122.299005,"geometrySource":"all_barangay-2.csv detailed WKT","geometryMatchMethod":"unique_official_admin_names","boundaryPointCount":66},"geometry":{"type":"MultiPolygon","coordinates":[[[[122.306084,11.51559],[122.306381,11.51355],[122.305656,11.51277],[122.30558,11.51249],[122.30629,11.51209],[122.306328,11.51096],[122.307472,11.5097],[122.307251,11.50755],[122.307579,11.50721],[122.307953,11.50671],[122.308937,11.50587],[122.309624,11.50542],[122.310402,11.50484],[122.310837,11.50475],[122.311462,11.50471],[122.311996,11.50467],[122.312202,11.50468],[122.312447,11.50482],[122.312988,11.50511],[122.313057,11.50513],[122.313553,11.50524],[122.313263,11.50392],[122.312866,11.50305],[122.312233,11.50256],[122.311691,11.50201],[122.31105,11.5014],[122.310532,11.501],[122.309891,11.50077],[122.309227,11.50067],[122.308434,11.50046],[122.306862,11.50012],[122.306084,11.49998],[122.305496,11.50031],[122.30452,11.50074],[122.30349,11.50126],[122.30265,11.50161],[122.30172,11.50186],[122.300598,11.50215],[122.300049,11.50245],[122.29892,11.50262],[122.298286,11.50252],[122.297783,11.50259],[122.297279,11.50264],[122.296562,11.50277],[122.296028,11.5029],[122.295471,11.50301],[122.295021,11.50292],[122.294601,11.50288],[122.29451,11.50519],[122.293808,11.51129],[122.295433,11.5116],[122.295792,11.51544],[122.296577,11.51569],[122.296829,11.51662],[122.29776,11.51721],[122.298714,11.51606],[122.299873,11.5165],[122.300743,11.51702],[122.301437,11.51738],[122.301682,11.51721],[122.302116,11.51676],[122.303162,11.51672],[122.304237,11.51565],[122.304787,11.51572],[122.304909,11.51626],[122.306084,11.51559]]]]}}]}
