{"type":"FeatureCollection","features":[{"type":"Feature","properties":{"ID_0":177,"ISO":"PHL","NAME_0":"Philippines","ID_1":8060,"NAME_1":"Samar (Western Samar)","ID_2":806002,"NAME_2":"Basey","ID_3":806002001,"NAME_3":"Amandayehan","NL_NAME_3":null,"VARNAME_3":null,"TYPE_3":"Barangay","ENGTYPE_3":"Village","PROVINCE":"Samar (Western Samar)","REGION":"Region VIII (Eastern Visayas)","id":"barangay-0806002001","name":"Amandayehan","barangayCode":"0806002001","population":null,"formattedPop":null,"densityCategory":"No data","vulnerabilityRating":"No data","healthRiskLevel":"No data","areaKm2":2.014805,"centerLat":11.277011,"centerLng":125.005694,"geometrySource":"all_barangay-2.csv detailed WKT","geometryMatchMethod":"psgc_coordinate_bridge","boundaryPointCount":46},"geometry":{"type":"MultiPolygon","coordinates":[[[[125.009979,11.28111],[125.011383,11.27575],[125.010986,11.27559],[125.010406,11.27538],[125.009941,11.27501],[125.009499,11.27461],[125.009148,11.27416],[125.008774,11.27375],[125.008423,11.27335],[125.00808,11.27297],[125.00779,11.27258],[125.007584,11.27215],[125.007507,11.27167],[125.0075,11.27117],[125.0075,11.27064],[125.007538,11.27011],[125.007713,11.26958],[125.007957,11.26862],[125.007751,11.26827],[125.007401,11.26772],[125.006767,11.26772],[125.005798,11.26779],[125.004471,11.26806],[125.002998,11.26848],[125.001602,11.26903],[125.001488,11.26907],[125.000267,11.26944],[125.0,11.27],[124.999733,11.27027],[124.998909,11.27113],[124.998848,11.27167],[124.998657,11.27212],[124.998581,11.27261],[124.99839,11.27302],[124.998283,11.27343],[124.998047,11.27377],[124.99778,11.27422],[124.997543,11.2748],[124.997498,11.27544],[124.997498,11.276],[124.997452,11.27646],[124.997292,11.27676],[124.997566,11.27696],[124.998131,11.27737],[124.998161,11.27739],[125.009979,11.28111]]]]}},{"type":"Feature","properties":{"ID_0":177,"ISO":"PHL","NAME_0":"Philippines","ID_1":8060,"NAME_1":"Samar (Western Samar)","ID_2":806002,"NAME_2":"Basey","ID_3":806002002,"NAME_3":"Anglit","NL_NAME_3":null,"VARNAME_3":null,"TYPE_3":"Barangay","ENGTYPE_3":"Village","PROVINCE":"Samar (Western Samar)","REGION":"Region VIII (Eastern Visayas)","id":"barangay-0806002002","name":"Anglit","barangayCode":"0806002002","population":null,"formattedPop":null,"densityCategory":"No data","vulnerabilityRating":"No data","healthRiskLevel":"No data","areaKm2":1.564087,"centerLat":11.30338,"centerLng":125.110965,"geometrySource":"all_barangay-2.csv detailed WKT","geometryMatchMethod":"psgc_coordinate_bridge","boundaryPointCount":8},"geometry":{"type":"MultiPolygon","coordinates":[[[[125.105469,11.31286],[125.113243,11.31286],[125.113876,11.29705],[125.111969,11.29683],[125.109909,11.2961],[125.108521,11.29626],[125.105637,11.29553],[125.105469,11.31286]]]]}},{"type":"Feature","properties":{"ID_0":177,"ISO":"PHL","NAME_0":"Philippines","ID_1":8060,"NAME_1":"Samar (Western Samar)","ID_2":806002,"NAME_2":"Basey","ID_3":806002003,"NAME_3":"Bacubac","NL_NAME_3":null,"VARNAME_3":null,"TYPE_3":"Barangay","ENGTYPE_3":"Village","PROVINCE":"Samar (Western Samar)","REGION":"Region VIII (Eastern Visayas)","id":"barangay-0806002003","name":"Bacubac","barangayCode":"0806002003","population":null,"formattedPop":null,"densityCategory":"No data","vulnerabilityRating":"No data","healthRiskLevel":"No data","areaKm2":1.068482,"centerLat":11.286017,"centerLng":125.048295,"geometrySource":"all_barangay-2.csv detailed WKT","geometryMatchMethod":"psgc_coordinate_bridge","boundaryPointCount":26},"geometry":{"type":"MultiPolygon","coordinates":[[[[125.052299,11.28778],[125.052933,11.28025],[125.052513,11.28056],[125.052078,11.28084],[125.051613,11.2811],[125.051079,11.28128],[125.050484,11.28138],[125.049858,11.28139],[125.049217,11.28139],[125.048576,11.28139],[125.04792,11.28139],[125.047249,11.28139],[125.04657,11.28135],[125.045914,11.28115],[125.045212,11.28106],[125.044518,11.28098],[125.043831,11.28089],[125.043472,11.28084],[125.040916,11.29288],[125.043198,11.29177],[125.044052,11.29134],[125.046387,11.29231],[125.04792,11.29168],[125.049789,11.29145],[125.050346,11.28951],[125.052299,11.28778]]]]}},{"type":"Feature","properties":{"ID_0":177,"ISO":"PHL","NAME_0":"Philippines","ID_1":8060,"NAME_1":"Samar (Western Samar)","ID_2":806002,"NAME_2":"Basey","ID_3":806002004,"NAME_3":"Baloog","NL_NAME_3":null,"VARNAME_3":null,"TYPE_3":"Barangay","ENGTYPE_3":"Village","PROVINCE":"Samar (Western Samar)","REGION":"Region VIII (Eastern Visayas)","id":"barangay-0806002004","name":"Baloog","barangayCode":"0806002004","population":null,"formattedPop":null,"densityCategory":"No data","vulnerabilityRating":"No data","healthRiskLevel":"No data","areaKm2":6.822761,"centerLat":11.354903,"centerLng":125.049142,"geometrySource":"all_barangay-2.csv detailed WKT","geometryMatchMethod":"psgc_coordinate_bridge","boundaryPointCount":8},"geometry":{"type":"MultiPolygon","coordinates":[[[[125.045013,11.37896],[125.054337,11.36222],[125.043381,11.34462],[125.036621,11.3343],[125.027153,11.34992],[125.034538,11.36222],[125.040962,11.37496],[125.045013,11.37896]]]]}},{"type":"Feature","properties":{"ID_0":177,"ISO":"PHL","NAME_0":"Philippines","ID_1":8060,"NAME_1":"Samar (Western Samar)","ID_2":806002,"NAME_2":"Basey","ID_3":806002005,"NAME_3":"Basiao","NL_NAME_3":null,"VARNAME_3":null,"TYPE_3":"Barangay","ENGTYPE_3":"Village","PROVINCE":"Samar (Western Samar)","REGION":"Region VIII (Eastern Visayas)","id":"barangay-0806002005","name":"Basiao","barangayCode":"0806002005","population":null,"formattedPop":null,"densityCategory":"No data","vulnerabilityRating":"No data","healthRiskLevel":"No data","areaKm2":15.827085,"centerLat":11.294764,"centerLng":125.206752,"geometrySource":"all_barangay-2.csv detailed WKT","geometryMatchMethod":"psgc_coordinate_bridge","boundaryPointCount":21},"geometry":{"type":"MultiPolygon","coordinates":[[[[125.249237,11.31701],[125.162064,11.26147],[125.159172,11.26251],[125.159447,11.26278],[125.159157,11.26306],[125.159157,11.26389],[125.15889,11.26417],[125.15889,11.26444],[125.157784,11.26556],[125.157501,11.26556],[125.157219,11.26583],[125.156937,11.26583],[125.15667,11.26611],[125.156387,11.26611],[125.156113,11.26639],[125.15583,11.26639],[125.154999,11.26722],[125.154716,11.26722],[125.153809,11.26814],[125.26368,11.33912],[125.249237,11.31701]]]]}},{"type":"Feature","properties":{"ID_0":177,"ISO":"PHL","NAME_0":"Philippines","ID_1":8060,"NAME_1":"Samar (Western Samar)","ID_2":806002,"NAME_2":"Basey","ID_3":806002006,"NAME_3":"Buenavista","NL_NAME_3":null,"VARNAME_3":null,"TYPE_3":"Barangay","ENGTYPE_3":"Village","PROVINCE":"Samar (Western Samar)","REGION":"Region VIII (Eastern Visayas)","id":"barangay-0806002006","name":"Buenavista","barangayCode":"0806002006","population":null,"formattedPop":null,"densityCategory":"No data","vulnerabilityRating":"No data","healthRiskLevel":"No data","areaKm2":10.20377,"centerLat":11.314925,"centerLng":125.068607,"geometrySource":"all_barangay-2.csv detailed WKT","geometryMatchMethod":"psgc_coordinate_bridge","boundaryPointCount":19},"geometry":{"type":"MultiPolygon","coordinates":[[[[125.061272,11.34453],[125.068108,11.32632],[125.077583,11.32956],[125.07753,11.31216],[125.077454,11.29594],[125.073036,11.29509],[125.070457,11.2944],[125.067047,11.29374],[125.060997,11.29301],[125.059547,11.29434],[125.057861,11.29655],[125.057243,11.29806],[125.056961,11.301],[125.05648,11.30243],[125.055969,11.30439],[125.054337,11.30652],[125.062271,11.31284],[125.049667,11.3344],[125.061272,11.34453]]]]}},{"type":"Feature","properties":{"ID_0":177,"ISO":"PHL","NAME_0":"Philippines","ID_1":8060,"NAME_1":"Samar (Western Samar)","ID_2":806002,"NAME_2":"Basey","ID_3":806002007,"NAME_3":"Burgos","NL_NAME_3":null,"VARNAME_3":null,"TYPE_3":"Barangay","ENGTYPE_3":"Village","PROVINCE":"Samar (Western Samar)","REGION":"Region VIII (Eastern Visayas)","id":"barangay-0806002007","name":"Burgos","barangayCode":"0806002007","population":null,"formattedPop":null,"densityCategory":"No data","vulnerabilityRating":"No data","healthRiskLevel":"No data","areaKm2":1.074234,"centerLat":11.317951,"centerLng":125.149817,"geometrySource":"all_barangay-2.csv detailed WKT","geometryMatchMethod":"psgc_coordinate_bridge","boundaryPointCount":19},"geometry":{"type":"MultiPolygon","coordinates":[[[[125.149597,11.33091],[125.149673,11.32845],[125.149834,11.32633],[125.151123,11.32424],[125.150497,11.32244],[125.151627,11.32118],[125.151253,11.31933],[125.150597,11.31791],[125.151367,11.31616],[125.152901,11.31507],[125.152863,11.31384],[125.152473,11.31181],[125.152199,11.30917],[125.152397,11.30719],[125.151283,11.3054],[125.143646,11.31329],[125.143623,11.32962],[125.146469,11.33009],[125.149597,11.33091]]]]}},{"type":"Feature","properties":{"ID_0":177,"ISO":"PHL","NAME_0":"Philippines","ID_1":8060,"NAME_1":"Samar (Western Samar)","ID_2":806002,"NAME_2":"Basey","ID_3":806002008,"NAME_3":"Cambayan","NL_NAME_3":null,"VARNAME_3":null,"TYPE_3":"Barangay","ENGTYPE_3":"Village","PROVINCE":"Samar (Western Samar)","REGION":"Region VIII (Eastern Visayas)","id":"barangay-0806002008","name":"Cambayan","barangayCode":"0806002008","population":null,"formattedPop":null,"densityCategory":"No data","vulnerabilityRating":"No data","healthRiskLevel":"No data","areaKm2":1.626204,"centerLat":11.284865,"centerLng":125.000649,"geometrySource":"all_barangay-2.csv detailed WKT","geometryMatchMethod":"psgc_coordinate_bridge","boundaryPointCount":26},"geometry":{"type":"MultiPolygon","coordinates":[[[[125.010063,11.29014],[125.010033,11.28713],[125.009979,11.28111],[124.998161,11.27739],[124.998131,11.27737],[124.997566,11.27696],[124.997292,11.27676],[124.997269,11.2768],[124.997032,11.27709],[124.996902,11.27741],[124.996742,11.27767],[124.996552,11.2779],[124.996353,11.27815],[124.996048,11.27835],[124.995697,11.27861],[124.995293,11.27889],[124.994858,11.27921],[124.994461,11.2796],[124.994392,11.28002],[124.99437,11.28068],[124.993874,11.28122],[124.993134,11.28129],[124.992813,11.28174],[124.993462,11.28155],[125.00042,11.29076],[125.010063,11.29014]]]]}},{"type":"Feature","properties":{"ID_0":177,"ISO":"PHL","NAME_0":"Philippines","ID_1":8060,"NAME_1":"Samar (Western Samar)","ID_2":806002,"NAME_2":"Basey","ID_3":806002009,"NAME_3":"Can-abay","NL_NAME_3":null,"VARNAME_3":null,"TYPE_3":"Barangay","ENGTYPE_3":"Village","PROVINCE":"Samar (Western Samar)","REGION":"Region VIII (Eastern Visayas)","id":"barangay-0806002009","name":"Can-abay","barangayCode":"0806002009","population":null,"formattedPop":null,"densityCategory":"No data","vulnerabilityRating":"No data","healthRiskLevel":"No data","areaKm2":0.96293,"centerLat":11.285845,"centerLng":125.022038,"geometrySource":"all_barangay-2.csv detailed WKT","geometryMatchMethod":"psgc_coordinate_bridge","boundaryPointCount":6},"geometry":{"type":"MultiPolygon","coordinates":[[[[125.025841,11.29093],[125.025543,11.28091],[125.02317,11.28112],[125.018097,11.2812],[125.017517,11.2908],[125.025841,11.29093]]]]}},{"type":"Feature","properties":{"ID_0":177,"ISO":"PHL","NAME_0":"Philippines","ID_1":8060,"NAME_1":"Samar (Western Samar)","ID_2":806002,"NAME_2":"Basey","ID_3":806002010,"NAME_3":"Cancaiyas","NL_NAME_3":null,"VARNAME_3":null,"TYPE_3":"Barangay","ENGTYPE_3":"Village","PROVINCE":"Samar (Western Samar)","REGION":"Region VIII (Eastern Visayas)","id":"barangay-0806002010","name":"Cancaiyas","barangayCode":"0806002010","population":null,"formattedPop":null,"densityCategory":"No data","vulnerabilityRating":"No data","healthRiskLevel":"No data","areaKm2":26.052302,"centerLat":11.392784,"centerLng":125.091111,"geometrySource":"all_barangay-2.csv detailed WKT","geometryMatchMethod":"psgc_coordinate_bridge","boundaryPointCount":9},"geometry":{"type":"MultiPolygon","coordinates":[[[[125.094948,11.48262],[125.097992,11.49016],[125.10006,11.38608],[125.076462,11.38501],[125.074028,11.4388],[125.075653,11.44085],[125.079437,11.44917],[125.088181,11.46737],[125.094948,11.48262]]]]}},{"type":"Feature","properties":{"ID_0":177,"ISO":"PHL","NAME_0":"Philippines","ID_1":8060,"NAME_1":"Samar (Western Samar)","ID_2":806002,"NAME_2":"Basey","ID_3":806002011,"NAME_3":"Canmanila","NL_NAME_3":null,"VARNAME_3":null,"TYPE_3":"Barangay","ENGTYPE_3":"Village","PROVINCE":"Samar (Western Samar)","REGION":"Region VIII (Eastern Visayas)","id":"barangay-0806002011","name":"Canmanila","barangayCode":"0806002011","population":null,"formattedPop":null,"densityCategory":"No data","vulnerabilityRating":"No data","healthRiskLevel":"No data","areaKm2":1.131289,"centerLat":11.283317,"centerLng":125.058959,"geometrySource":"all_barangay-2.csv detailed WKT","geometryMatchMethod":"psgc_coordinate_bridge","boundaryPointCount":33},"geometry":{"type":"MultiPolygon","coordinates":[[[[125.060997,11.29301],[125.061737,11.28598],[125.061661,11.28475],[125.062218,11.27806],[125.062119,11.27806],[125.0616,11.27807],[125.061089,11.27807],[125.060623,11.27806],[125.060577,11.27806],[125.060081,11.27812],[125.060013,11.27813],[125.059631,11.27829],[125.059143,11.27833],[125.058647,11.27834],[125.058159,11.27833],[125.057648,11.27833],[125.057098,11.27833],[125.056534,11.27832],[125.056389,11.27831],[125.055946,11.27827],[125.055382,11.27836],[125.054871,11.2786],[125.054367,11.2789],[125.053947,11.27923],[125.053612,11.27959],[125.053284,11.27995],[125.052933,11.28025],[125.052299,11.28778],[125.053642,11.2881],[125.055359,11.2891],[125.057037,11.28937],[125.058693,11.28886],[125.060997,11.29301]]]]}},{"type":"Feature","properties":{"ID_0":177,"ISO":"PHL","NAME_0":"Philippines","ID_1":8060,"NAME_1":"Samar (Western Samar)","ID_2":806002,"NAME_2":"Basey","ID_3":806002012,"NAME_3":"Catadman","NL_NAME_3":null,"VARNAME_3":null,"TYPE_3":"Barangay","ENGTYPE_3":"Village","PROVINCE":"Samar (Western Samar)","REGION":"Region VIII (Eastern Visayas)","id":"barangay-0806002012","name":"Catadman","barangayCode":"0806002012","population":null,"formattedPop":null,"densityCategory":"No data","vulnerabilityRating":"No data","healthRiskLevel":"No data","areaKm2":16.340671,"centerLat":11.313876,"centerLng":125.217439,"geometrySource":"all_barangay-2.csv detailed WKT","geometryMatchMethod":"psgc_coordinate_bridge","boundaryPointCount":34},"geometry":{"type":"MultiPolygon","coordinates":[[[[125.279343,11.36391],[125.26368,11.33912],[125.153809,11.26814],[125.153053,11.26889],[125.153053,11.26917],[125.152779,11.26944],[125.152779,11.26972],[125.152496,11.27],[125.152496,11.27028],[125.152222,11.27056],[125.152222,11.27083],[125.151657,11.27139],[125.151657,11.27167],[125.15139,11.27194],[125.15139,11.2725],[125.151108,11.27278],[125.151108,11.27333],[125.15139,11.27361],[125.15139,11.27417],[125.151108,11.27444],[125.151108,11.275],[125.150833,11.275],[125.150284,11.27556],[125.149719,11.27556],[125.149437,11.27583],[125.148888,11.27583],[125.148613,11.27611],[125.148331,11.27611],[125.148064,11.27639],[125.147781,11.27639],[125.147476,11.27685],[125.147423,11.27693],[125.14679,11.27759],[125.279343,11.36391]]]]}},{"type":"Feature","properties":{"ID_0":177,"ISO":"PHL","NAME_0":"Philippines","ID_1":8060,"NAME_1":"Samar (Western Samar)","ID_2":806002,"NAME_2":"Basey","ID_3":806002013,"NAME_3":"Cogon","NL_NAME_3":null,"VARNAME_3":null,"TYPE_3":"Barangay","ENGTYPE_3":"Village","PROVINCE":"Samar (Western Samar)","REGION":"Region VIII (Eastern Visayas)","id":"barangay-0806002013","name":"Cogon","barangayCode":"0806002013","population":null,"formattedPop":null,"densityCategory":"No data","vulnerabilityRating":"No data","healthRiskLevel":"No data","areaKm2":3.230431,"centerLat":11.333852,"centerLng":125.090236,"geometrySource":"all_barangay-2.csv detailed WKT","geometryMatchMethod":"psgc_coordinate_bridge","boundaryPointCount":7},"geometry":{"type":"MultiPolygon","coordinates":[[[[125.10006,11.38608],[125.100327,11.36517],[125.100861,11.32995],[125.077583,11.32956],[125.076073,11.35899],[125.076462,11.38501],[125.10006,11.38608]]]]}},{"type":"Feature","properties":{"ID_0":177,"ISO":"PHL","NAME_0":"Philippines","ID_1":8060,"NAME_1":"Samar (Western Samar)","ID_2":806002,"NAME_2":"Basey","ID_3":806002014,"NAME_3":"Dolongan","NL_NAME_3":null,"VARNAME_3":null,"TYPE_3":"Barangay","ENGTYPE_3":"Village","PROVINCE":"Samar (Western Samar)","REGION":"Region VIII (Eastern Visayas)","id":"barangay-0806002014","name":"Dolongan","barangayCode":"0806002014","population":null,"formattedPop":null,"densityCategory":"No data","vulnerabilityRating":"No data","healthRiskLevel":"No data","areaKm2":3.1474,"centerLat":11.327613,"centerLng":125.027023,"geometrySource":"all_barangay-2.csv detailed WKT","geometryMatchMethod":"psgc_coordinate_bridge","boundaryPointCount":9},"geometry":{"type":"MultiPolygon","coordinates":[[[[125.036621,11.3343],[125.048264,11.31316],[125.045341,11.31231],[125.038261,11.31058],[125.027191,11.31642],[125.014214,11.32449],[125.018707,11.33429],[125.027153,11.34992],[125.036621,11.3343]]]]}},{"type":"Feature","properties":{"ID_0":177,"ISO":"PHL","NAME_0":"Philippines","ID_1":8060,"NAME_1":"Samar (Western Samar)","ID_2":806002,"NAME_2":"Basey","ID_3":806002015,"NAME_3":"Guintigui-an","NL_NAME_3":null,"VARNAME_3":null,"TYPE_3":"Barangay","ENGTYPE_3":"Village","PROVINCE":"Samar (Western Samar)","REGION":"Region VIII (Eastern Visayas)","id":"barangay-0806002015","name":"Guintigui-an","barangayCode":"0806002015","population":null,"formattedPop":null,"densityCategory":"No data","vulnerabilityRating":"No data","healthRiskLevel":"No data","areaKm2":1.678688,"centerLat":11.306391,"centerLng":125.033216,"geometrySource":"all_barangay-2.csv detailed WKT","geometryMatchMethod":"psgc_coordinate_bridge","boundaryPointCount":9},"geometry":{"type":"MultiPolygon","coordinates":[[[[125.038261,11.31058],[125.035301,11.29674],[125.033524,11.29842],[125.031807,11.301],[125.029556,11.30138],[125.02845,11.30281],[125.027611,11.30474],[125.027191,11.31642],[125.038261,11.31058]]]]}},{"type":"Feature","properties":{"ID_0":177,"ISO":"PHL","NAME_0":"Philippines","ID_1":8060,"NAME_1":"Samar (Western Samar)","ID_2":806002,"NAME_2":"Basey","ID_3":806002016,"NAME_3":"Guirang","NL_NAME_3":null,"VARNAME_3":null,"TYPE_3":"Barangay","ENGTYPE_3":"Village","PROVINCE":"Samar (Western Samar)","REGION":"Region VIII (Eastern Visayas)","id":"barangay-0806002016","name":"Guirang","barangayCode":"0806002016","population":null,"formattedPop":null,"densityCategory":"No data","vulnerabilityRating":"No data","healthRiskLevel":"No data","areaKm2":54.382171,"centerLat":11.387229,"centerLng":125.208286,"geometrySource":"all_barangay-2.csv detailed WKT","geometryMatchMethod":"psgc_coordinate_bridge","boundaryPointCount":22},"geometry":{"type":"MultiPolygon","coordinates":[[[[125.241272,11.43457],[125.28521,11.42476],[125.149597,11.33091],[125.146469,11.33009],[125.143623,11.32962],[125.130836,11.33003],[125.13076,11.34362],[125.131233,11.34308],[125.13327,11.34286],[125.134758,11.3434],[125.135818,11.34482],[125.136841,11.3446],[125.138611,11.34446],[125.1399,11.34482],[125.141693,11.34504],[125.143211,11.34678],[125.144493,11.34744],[125.14653,11.34766],[125.149651,11.34825],[125.15033,11.36309],[125.183456,11.39451],[125.241272,11.43457]]]]}},{"type":"Feature","properties":{"ID_0":177,"ISO":"PHL","NAME_0":"Philippines","ID_1":8060,"NAME_1":"Samar (Western Samar)","ID_2":806002,"NAME_2":"Basey","ID_3":806002017,"NAME_3":"Balante","NL_NAME_3":null,"VARNAME_3":null,"TYPE_3":"Barangay","ENGTYPE_3":"Village","PROVINCE":"Samar (Western Samar)","REGION":"Region VIII (Eastern Visayas)","id":"barangay-0806002017","name":"Balante","barangayCode":"0806002017","population":null,"formattedPop":null,"densityCategory":"No data","vulnerabilityRating":"No data","healthRiskLevel":"No data","areaKm2":8.85318,"centerLat":11.322359,"centerLng":125.046563,"geometrySource":"all_barangay-2.csv detailed WKT","geometryMatchMethod":"psgc_coordinate_bridge","boundaryPointCount":10},"geometry":{"type":"MultiPolygon","coordinates":[[[[125.043381,11.34462],[125.049667,11.3344],[125.062271,11.31284],[125.054337,11.30652],[125.052933,11.30866],[125.052139,11.30986],[125.050346,11.31204],[125.048264,11.31316],[125.036621,11.3343],[125.043381,11.34462]]]]}},{"type":"Feature","properties":{"ID_0":177,"ISO":"PHL","NAME_0":"Philippines","ID_1":8060,"NAME_1":"Samar (Western Samar)","ID_2":806002,"NAME_2":"Basey","ID_3":806002018,"NAME_3":"Iba","NL_NAME_3":null,"VARNAME_3":null,"TYPE_3":"Barangay","ENGTYPE_3":"Village","PROVINCE":"Samar (Western Samar)","REGION":"Region VIII (Eastern Visayas)","id":"barangay-0806002018","name":"Iba","barangayCode":"0806002018","population":null,"formattedPop":null,"densityCategory":"No data","vulnerabilityRating":"No data","healthRiskLevel":"No data","areaKm2":4.441747,"centerLat":11.289729,"centerLng":125.089587,"geometrySource":"all_barangay-2.csv detailed WKT","geometryMatchMethod":"psgc_coordinate_bridge","boundaryPointCount":53},"geometry":{"type":"MultiPolygon","coordinates":[[[[125.07753,11.31216],[125.096191,11.31293],[125.098251,11.28727],[125.097908,11.28658],[125.097862,11.28536],[125.098053,11.28444],[125.098297,11.28364],[125.098328,11.28314],[125.09819,11.28237],[125.098381,11.28102],[125.098473,11.28084],[125.098343,11.28013],[125.098267,11.28008],[125.097504,11.27944],[125.095833,11.27944],[125.095558,11.27972],[125.095284,11.27972],[125.095001,11.28],[125.094437,11.28],[125.094353,11.28],[125.093826,11.27997],[125.093323,11.27985],[125.092789,11.2797],[125.09227,11.27949],[125.091667,11.27945],[125.091057,11.27944],[125.090553,11.27944],[125.086937,11.27944],[125.08667,11.27917],[125.086113,11.27917],[125.085564,11.27972],[125.085281,11.27972],[125.084999,11.28],[125.084442,11.28],[125.084167,11.28028],[125.083344,11.28028],[125.083054,11.28056],[125.082779,11.28056],[125.082497,11.28083],[125.082222,11.28083],[125.081947,11.28111],[125.08139,11.28111],[125.081337,11.28125],[125.080078,11.28164],[125.079399,11.28183],[125.078697,11.28204],[125.078049,11.28238],[125.077377,11.28276],[125.078629,11.28552],[125.078529,11.28719],[125.078018,11.29165],[125.077454,11.29594],[125.07753,11.31216]]]]}},{"type":"Feature","properties":{"ID_0":177,"ISO":"PHL","NAME_0":"Philippines","ID_1":8060,"NAME_1":"Samar (Western Samar)","ID_2":806002,"NAME_2":"Basey","ID_3":806002019,"NAME_3":"Inuntan","NL_NAME_3":null,"VARNAME_3":null,"TYPE_3":"Barangay","ENGTYPE_3":"Village","PROVINCE":"Samar (Western Samar)","REGION":"Region VIII (Eastern Visayas)","id":"barangay-0806002019","name":"Inuntan","barangayCode":"0806002019","population":null,"formattedPop":null,"densityCategory":"No data","vulnerabilityRating":"No data","healthRiskLevel":"No data","areaKm2":5.663017,"centerLat":11.351593,"centerLng":125.144451,"geometrySource":"all_barangay-2.csv detailed WKT","geometryMatchMethod":"psgc_coordinate_bridge","boundaryPointCount":16},"geometry":{"type":"MultiPolygon","coordinates":[[[[125.131042,11.36276],[125.15033,11.36309],[125.149651,11.34825],[125.14653,11.34766],[125.144493,11.34744],[125.143211,11.34678],[125.141693,11.34504],[125.1399,11.34482],[125.138611,11.34446],[125.136841,11.3446],[125.135818,11.34482],[125.134758,11.3434],[125.13327,11.34286],[125.131233,11.34308],[125.13076,11.34362],[125.131042,11.36276]]]]}},{"type":"Feature","properties":{"ID_0":177,"ISO":"PHL","NAME_0":"Philippines","ID_1":8060,"NAME_1":"Samar (Western Samar)","ID_2":806002,"NAME_2":"Basey","ID_3":806002021,"NAME_3":"Loog","NL_NAME_3":null,"VARNAME_3":null,"TYPE_3":"Barangay","ENGTYPE_3":"Village","PROVINCE":"Samar (Western Samar)","REGION":"Region VIII (Eastern Visayas)","id":"barangay-0806002021","name":"Loog","barangayCode":"0806002021","population":null,"formattedPop":null,"densityCategory":"No data","vulnerabilityRating":"No data","healthRiskLevel":"No data","areaKm2":42.848225,"centerLat":11.366878,"centerLng":125.223548,"geometrySource":"all_barangay-2.csv detailed WKT","geometryMatchMethod":"psgc_coordinate_bridge","boundaryPointCount":47},"geometry":{"type":"MultiPolygon","coordinates":[[[[125.298203,11.40796],[125.193123,11.33597],[125.191742,11.33585],[125.190361,11.33525],[125.189667,11.33427],[125.189667,11.33328],[125.189209,11.3323],[125.188316,11.33203],[125.186218,11.33171],[125.18576,11.33052],[125.185066,11.32981],[125.183456,11.32915],[125.182312,11.32954],[125.180931,11.32993],[125.179916,11.32893],[125.178864,11.32816],[125.17794,11.32658],[125.177017,11.32698],[125.175873,11.32678],[125.175552,11.3259],[125.173714,11.32518],[125.17218,11.32481],[125.171043,11.32422],[125.170113,11.32264],[125.169807,11.32154],[125.169189,11.32008],[125.168732,11.3187],[125.167427,11.31806],[125.164307,11.31691],[125.160973,11.31558],[125.159286,11.31535],[125.158379,11.31456],[125.15699,11.31312],[125.154228,11.31315],[125.152863,11.31384],[125.152901,11.31507],[125.151367,11.31616],[125.150597,11.31791],[125.151253,11.31933],[125.151627,11.32118],[125.150497,11.32244],[125.151123,11.32424],[125.149834,11.32633],[125.149673,11.32845],[125.149597,11.33091],[125.28521,11.42476],[125.298203,11.40796]]]]}},{"type":"Feature","properties":{"ID_0":177,"ISO":"PHL","NAME_0":"Philippines","ID_1":8060,"NAME_1":"Samar (Western Samar)","ID_2":806002,"NAME_2":"Basey","ID_3":806002022,"NAME_3":"Mabini","NL_NAME_3":null,"VARNAME_3":null,"TYPE_3":"Barangay","ENGTYPE_3":"Village","PROVINCE":"Samar (Western Samar)","REGION":"Region VIII (Eastern Visayas)","id":"barangay-0806002022","name":"Mabini","barangayCode":"0806002022","population":null,"formattedPop":null,"densityCategory":"No data","vulnerabilityRating":"No data","healthRiskLevel":"No data","areaKm2":149.05024,"centerLat":11.480249,"centerLng":125.179486,"geometrySource":"all_barangay-2.csv detailed WKT","geometryMatchMethod":"psgc_coordinate_bridge","boundaryPointCount":16},"geometry":{"type":"MultiPolygon","coordinates":[[[[125.210831,11.57523],[125.220383,11.53986],[125.226257,11.52038],[125.229622,11.48817],[125.219917,11.47114],[125.222603,11.46223],[125.225029,11.45577],[125.227737,11.44954],[125.230713,11.44331],[125.236313,11.43765],[125.241272,11.43457],[125.183456,11.39451],[125.164597,11.41666],[125.134537,11.41585],[125.131813,11.53431],[125.210831,11.57523]]]]}},{"type":"Feature","properties":{"ID_0":177,"ISO":"PHL","NAME_0":"Philippines","ID_1":8060,"NAME_1":"Samar (Western Samar)","ID_2":806002,"NAME_2":"Basey","ID_3":806002023,"NAME_3":"Magallanes","NL_NAME_3":null,"VARNAME_3":null,"TYPE_3":"Barangay","ENGTYPE_3":"Village","PROVINCE":"Samar (Western Samar)","REGION":"Region VIII (Eastern Visayas)","id":"barangay-0806002023","name":"Magallanes","barangayCode":"0806002023","population":null,"formattedPop":null,"densityCategory":"No data","vulnerabilityRating":"No data","healthRiskLevel":"No data","areaKm2":2.015318,"centerLat":11.302979,"centerLng":125.119481,"geometrySource":"all_barangay-2.csv detailed WKT","geometryMatchMethod":"psgc_coordinate_bridge","boundaryPointCount":12},"geometry":{"type":"MultiPolygon","coordinates":[[[[125.113243,11.31286],[125.122513,11.31318],[125.123497,11.2947],[125.122261,11.29455],[125.119827,11.2951],[125.118469,11.29539],[125.117447,11.29648],[125.116669,11.29639],[125.116623,11.29639],[125.116028,11.29633],[125.113876,11.29705],[125.113243,11.31286]]]]}},{"type":"Feature","properties":{"ID_0":177,"ISO":"PHL","NAME_0":"Philippines","ID_1":8060,"NAME_1":"Samar (Western Samar)","ID_2":806002,"NAME_2":"Basey","ID_3":806002024,"NAME_3":"Manlilinab","NL_NAME_3":null,"VARNAME_3":null,"TYPE_3":"Barangay","ENGTYPE_3":"Village","PROVINCE":"Samar (Western Samar)","REGION":"Region VIII (Eastern Visayas)","id":"barangay-0806002024","name":"Manlilinab","barangayCode":"0806002024","population":null,"formattedPop":null,"densityCategory":"No data","vulnerabilityRating":"No data","healthRiskLevel":"No data","areaKm2":29.415662,"centerLat":11.389959,"centerLng":125.149076,"geometrySource":"all_barangay-2.csv detailed WKT","geometryMatchMethod":"psgc_coordinate_bridge","boundaryPointCount":7},"geometry":{"type":"MultiPolygon","coordinates":[[[[125.183456,11.39451],[125.15033,11.36309],[125.131042,11.36276],[125.130966,11.3849],[125.134537,11.41585],[125.164597,11.41666],[125.183456,11.39451]]]]}},{"type":"Feature","properties":{"ID_0":177,"ISO":"PHL","NAME_0":"Philippines","ID_1":8060,"NAME_1":"Samar (Western Samar)","ID_2":806002,"NAME_2":"Basey","ID_3":806002025,"NAME_3":"Del Pilar","NL_NAME_3":null,"VARNAME_3":null,"TYPE_3":"Barangay","ENGTYPE_3":"Village","PROVINCE":"Samar (Western Samar)","REGION":"Region VIII (Eastern Visayas)","id":"barangay-0806002025","name":"Del Pilar","barangayCode":"0806002025","population":null,"formattedPop":null,"densityCategory":"No data","vulnerabilityRating":"No data","healthRiskLevel":"No data","areaKm2":3.747158,"centerLat":11.322207,"centerLng":125.140251,"geometrySource":"all_barangay-2.csv detailed WKT","geometryMatchMethod":"psgc_coordinate_bridge","boundaryPointCount":6},"geometry":{"type":"MultiPolygon","coordinates":[[[[125.143623,11.32962],[125.143646,11.31329],[125.13607,11.31279],[125.131561,11.31333],[125.130836,11.33003],[125.143623,11.32962]]]]}},{"type":"Feature","properties":{"ID_0":177,"ISO":"PHL","NAME_0":"Philippines","ID_1":8060,"NAME_1":"Samar (Western Samar)","ID_2":806002,"NAME_2":"Basey","ID_3":806002026,"NAME_3":"May-it","NL_NAME_3":null,"VARNAME_3":null,"TYPE_3":"Barangay","ENGTYPE_3":"Village","PROVINCE":"Samar (Western Samar)","REGION":"Region VIII (Eastern Visayas)","id":"barangay-0806002026","name":"May-it","barangayCode":"0806002026","population":null,"formattedPop":null,"densityCategory":"No data","vulnerabilityRating":"No data","healthRiskLevel":"No data","areaKm2":2.320472,"centerLat":11.293801,"centerLng":125.051863,"geometrySource":"all_barangay-2.csv detailed WKT","geometryMatchMethod":"psgc_coordinate_bridge","boundaryPointCount":15},"geometry":{"type":"MultiPolygon","coordinates":[[[[125.027611,11.30474],[125.02845,11.30281],[125.029556,11.30138],[125.031807,11.301],[125.033524,11.29842],[125.035301,11.29674],[125.036819,11.2946],[125.037971,11.29363],[125.039124,11.29305],[125.025841,11.29093],[125.017517,11.2908],[125.010063,11.29014],[125.00042,11.29076],[125.005547,11.30505],[125.027611,11.30474]]]]}},{"type":"Feature","properties":{"ID_0":177,"ISO":"PHL","NAME_0":"Philippines","ID_1":8060,"NAME_1":"Samar (Western Samar)","ID_2":806002,"NAME_2":"Basey","ID_3":806002027,"NAME_3":"Mongabong","NL_NAME_3":null,"VARNAME_3":null,"TYPE_3":"Barangay","ENGTYPE_3":"Village","PROVINCE":"Samar (Western Samar)","REGION":"Region VIII (Eastern Visayas)","id":"barangay-0806002027","name":"Mongabong","barangayCode":"0806002027","population":null,"formattedPop":null,"densityCategory":"No data","vulnerabilityRating":"No data","healthRiskLevel":"No data","areaKm2":8.251416,"centerLat":11.302669,"centerLng":125.018235,"geometrySource":"all_barangay-2.csv detailed WKT","geometryMatchMethod":"psgc_coordinate_bridge","boundaryPointCount":10},"geometry":{"type":"MultiPolygon","coordinates":[[[[125.014214,11.32449],[125.027191,11.31642],[125.027611,11.30474],[125.005547,11.30505],[125.007431,11.31065],[125.008591,11.31341],[125.00869,11.31364],[125.010406,11.31775],[125.012657,11.32173],[125.014214,11.32449]]]]}},{"type":"Feature","properties":{"ID_0":177,"ISO":"PHL","NAME_0":"Philippines","ID_1":8060,"NAME_1":"Samar (Western Samar)","ID_2":806002,"NAME_2":"Basey","ID_3":806002028,"NAME_3":"New San Agustin","NL_NAME_3":null,"VARNAME_3":null,"TYPE_3":"Barangay","ENGTYPE_3":"Village","PROVINCE":"Samar (Western Samar)","REGION":"Region VIII (Eastern Visayas)","id":"barangay-0806002028","name":"New San Agustin","barangayCode":"0806002028","population":null,"formattedPop":null,"densityCategory":"No data","vulnerabilityRating":"No data","healthRiskLevel":"No data","areaKm2":4.838014,"centerLat":11.319843,"centerLng":125.090438,"geometrySource":"all_barangay-2.csv detailed WKT","geometryMatchMethod":"psgc_coordinate_bridge","boundaryPointCount":6},"geometry":{"type":"MultiPolygon","coordinates":[[[[125.100861,11.32995],[125.101303,11.31313],[125.096191,11.31293],[125.07753,11.31216],[125.077583,11.32956],[125.100861,11.32995]]]]}},{"type":"Feature","properties":{"ID_0":177,"ISO":"PHL","NAME_0":"Philippines","ID_1":8060,"NAME_1":"Samar (Western Samar)","ID_2":806002,"NAME_2":"Basey","ID_3":806002029,"NAME_3":"Nouvelas Occidental","NL_NAME_3":null,"VARNAME_3":null,"TYPE_3":"Barangay","ENGTYPE_3":"Village","PROVINCE":"Samar (Western Samar)","REGION":"Region VIII (Eastern Visayas)","id":"barangay-0806002029","name":"Nouvelas Occidental","barangayCode":"0806002029","population":null,"formattedPop":null,"densityCategory":"No data","vulnerabilityRating":"No data","healthRiskLevel":"No data","areaKm2":3.650353,"centerLat":11.290929,"centerLng":125.136427,"geometrySource":"all_barangay-2.csv detailed WKT","geometryMatchMethod":"psgc_coordinate_bridge","boundaryPointCount":34},"geometry":{"type":"MultiPolygon","coordinates":[[[[125.123497,11.2947],[125.12484,11.29513],[125.126122,11.29626],[125.126381,11.29757],[125.128311,11.2978],[125.131622,11.29795],[125.13353,11.29737],[125.135246,11.29716],[125.136513,11.28355],[125.136726,11.28193],[125.136414,11.28195],[125.13591,11.282],[125.135429,11.28211],[125.134933,11.28221],[125.134407,11.28224],[125.133858,11.28225],[125.133324,11.28228],[125.132851,11.28246],[125.132393,11.28254],[125.13192,11.28274],[125.131416,11.28274],[125.130852,11.2826],[125.130302,11.28276],[125.129768,11.28292],[125.129257,11.28306],[125.128777,11.28318],[125.128304,11.28327],[125.127831,11.28333],[125.127502,11.28333],[125.126663,11.28333],[125.126389,11.28361],[125.125313,11.28361],[125.124931,11.28501],[125.123497,11.2947]]]]}},{"type":"Feature","properties":{"ID_0":177,"ISO":"PHL","NAME_0":"Philippines","ID_1":8060,"NAME_1":"Samar (Western Samar)","ID_2":806002,"NAME_2":"Basey","ID_3":806002030,"NAME_3":"San Fernando","NL_NAME_3":null,"VARNAME_3":null,"TYPE_3":"Barangay","ENGTYPE_3":"Village","PROVINCE":"Samar (Western Samar)","REGION":"Region VIII (Eastern Visayas)","id":"barangay-0806002030","name":"San Fernando","barangayCode":"0806002030","population":null,"formattedPop":null,"densityCategory":"No data","vulnerabilityRating":"No data","healthRiskLevel":"No data","areaKm2":48.317769,"centerLat":11.344333,"centerLng":125.233005,"geometrySource":"all_barangay-2.csv detailed WKT","geometryMatchMethod":"psgc_coordinate_bridge","boundaryPointCount":52},"geometry":{"type":"MultiPolygon","coordinates":[[[[125.306557,11.39812],[125.279343,11.36391],[125.14679,11.27759],[125.147423,11.27693],[125.147476,11.27685],[125.147781,11.27639],[125.147499,11.27667],[125.147217,11.27667],[125.146942,11.27694],[125.146667,11.27694],[125.146393,11.27722],[125.146111,11.27722],[125.145844,11.2775],[125.145554,11.2775],[125.145279,11.27778],[125.144722,11.27778],[125.144447,11.27806],[125.14389,11.27806],[125.14222,11.27972],[125.142212,11.2796],[125.141869,11.27996],[125.141479,11.28028],[125.141083,11.28055],[125.140663,11.28078],[125.14016,11.28089],[125.139717,11.28108],[125.139236,11.28119],[125.138809,11.28139],[125.138367,11.2816],[125.137871,11.28168],[125.137367,11.28179],[125.136909,11.28192],[125.136726,11.28193],[125.136513,11.28355],[125.135246,11.29716],[125.138107,11.29741],[125.139137,11.29846],[125.14093,11.29889],[125.141586,11.29997],[125.14328,11.30192],[125.143898,11.30309],[125.14399,11.30327],[125.144753,11.30457],[125.146011,11.30497],[125.148529,11.30543],[125.149963,11.30475],[125.151283,11.3054],[125.155861,11.29619],[125.192703,11.31985],[125.193123,11.33597],[125.298203,11.40796],[125.306557,11.39812]]]]}},{"type":"Feature","properties":{"ID_0":177,"ISO":"PHL","NAME_0":"Philippines","ID_1":8060,"NAME_1":"Samar (Western Samar)","ID_2":806002,"NAME_2":"Basey","ID_3":806002031,"NAME_3":"Old San Agustin","NL_NAME_3":null,"VARNAME_3":null,"TYPE_3":"Barangay","ENGTYPE_3":"Village","PROVINCE":"Samar (Western Samar)","REGION":"Region VIII (Eastern Visayas)","id":"barangay-0806002031","name":"Old San Agustin","barangayCode":"0806002031","population":null,"formattedPop":null,"densityCategory":"No data","vulnerabilityRating":"No data","healthRiskLevel":"No data","areaKm2":14.588258,"centerLat":11.333248,"centerLng":125.119287,"geometrySource":"all_barangay-2.csv detailed WKT","geometryMatchMethod":"psgc_coordinate_bridge","boundaryPointCount":12},"geometry":{"type":"MultiPolygon","coordinates":[[[[125.130966,11.3849],[125.131042,11.36276],[125.13076,11.34362],[125.130836,11.33003],[125.131561,11.31333],[125.122513,11.31318],[125.113243,11.31286],[125.105469,11.31286],[125.101303,11.31313],[125.100861,11.32995],[125.100327,11.36517],[125.130966,11.3849]]]]}},{"type":"Feature","properties":{"ID_0":177,"ISO":"PHL","NAME_0":"Philippines","ID_1":8060,"NAME_1":"Samar (Western Samar)","ID_2":806002,"NAME_2":"Basey","ID_3":806002032,"NAME_3":"Panugmonon","NL_NAME_3":null,"VARNAME_3":null,"TYPE_3":"Barangay","ENGTYPE_3":"Village","PROVINCE":"Samar (Western Samar)","REGION":"Region VIII (Eastern Visayas)","id":"barangay-0806002032","name":"Panugmonon","barangayCode":"0806002032","population":null,"formattedPop":null,"densityCategory":"No data","vulnerabilityRating":"No data","healthRiskLevel":"No data","areaKm2":2.255971,"centerLat":11.305362,"centerLng":125.143912,"geometrySource":"all_barangay-2.csv detailed WKT","geometryMatchMethod":"psgc_coordinate_bridge","boundaryPointCount":16},"geometry":{"type":"MultiPolygon","coordinates":[[[[125.13607,11.31279],[125.143646,11.31329],[125.151283,11.3054],[125.149963,11.30475],[125.148529,11.30543],[125.146011,11.30497],[125.144753,11.30457],[125.14399,11.30327],[125.143898,11.30309],[125.14328,11.30192],[125.141586,11.29997],[125.14093,11.29889],[125.139137,11.29846],[125.138107,11.29741],[125.135246,11.29716],[125.13607,11.31279]]]]}},{"type":"Feature","properties":{"ID_0":177,"ISO":"PHL","NAME_0":"Philippines","ID_1":8060,"NAME_1":"Samar (Western Samar)","ID_2":806002,"NAME_2":"Basey","ID_3":806002033,"NAME_3":"Pelit","NL_NAME_3":null,"VARNAME_3":null,"TYPE_3":"Barangay","ENGTYPE_3":"Village","PROVINCE":"Samar (Western Samar)","REGION":"Region VIII (Eastern Visayas)","id":"barangay-0806002033","name":"Pelit","barangayCode":"0806002033","population":null,"formattedPop":null,"densityCategory":"No data","vulnerabilityRating":"No data","healthRiskLevel":"No data","areaKm2":8.995211,"centerLat":11.312145,"centerLng":125.173025,"geometrySource":"all_barangay-2.csv detailed WKT","geometryMatchMethod":"psgc_coordinate_bridge","boundaryPointCount":41},"geometry":{"type":"MultiPolygon","coordinates":[[[[125.152863,11.31384],[125.154228,11.31315],[125.15699,11.31312],[125.158379,11.31456],[125.159286,11.31535],[125.160973,11.31558],[125.164307,11.31691],[125.167427,11.31806],[125.168732,11.3187],[125.169189,11.32008],[125.169807,11.32154],[125.170113,11.32264],[125.171043,11.32422],[125.17218,11.32481],[125.173714,11.32518],[125.175552,11.3259],[125.175873,11.32678],[125.177017,11.32698],[125.17794,11.32658],[125.178864,11.32816],[125.179916,11.32893],[125.180931,11.32993],[125.182312,11.32954],[125.183456,11.32915],[125.185066,11.32981],[125.18576,11.33052],[125.186218,11.33171],[125.188316,11.33203],[125.189209,11.3323],[125.189667,11.33328],[125.189667,11.33427],[125.190361,11.33525],[125.191742,11.33585],[125.193123,11.33597],[125.192703,11.31985],[125.155861,11.29619],[125.151283,11.3054],[125.152397,11.30719],[125.152199,11.30917],[125.152473,11.31181],[125.152863,11.31384]]]]}},{"type":"Feature","properties":{"ID_0":177,"ISO":"PHL","NAME_0":"Philippines","ID_1":8060,"NAME_1":"Samar (Western Samar)","ID_2":806002,"NAME_2":"Basey","ID_3":806002034,"NAME_3":"Baybay","NL_NAME_3":null,"VARNAME_3":null,"TYPE_3":"Barangay","ENGTYPE_3":"Village","PROVINCE":"Samar (Western Samar)","REGION":"Region VIII (Eastern Visayas)","id":"barangay-0806002034","name":"Baybay","barangayCode":"0806002034","population":null,"formattedPop":null,"densityCategory":"No data","vulnerabilityRating":"No data","healthRiskLevel":"No data","areaKm2":0.046719,"centerLat":11.283115,"centerLng":125.070909,"geometrySource":"all_barangay-2.csv detailed WKT","geometryMatchMethod":"psgc_coordinate_bridge","boundaryPointCount":40},"geometry":{"type":"MultiPolygon","coordinates":[[[[125.078529,11.28719],[125.078629,11.28552],[125.077377,11.28276],[125.076736,11.28311],[125.076103,11.28349],[125.075447,11.28383],[125.074768,11.28408],[125.074173,11.28444],[125.073891,11.28444],[125.073608,11.28472],[125.073334,11.28472],[125.073059,11.285],[125.072777,11.285],[125.072502,11.28528],[125.071953,11.28528],[125.071114,11.28611],[125.070831,11.28611],[125.070557,11.28583],[125.070267,11.28583],[125.071388,11.28472],[125.071388,11.28389],[125.071663,11.28361],[125.071663,11.28333],[125.071388,11.28306],[125.071587,11.28304],[125.071663,11.2825],[125.071663,11.28194],[125.071388,11.28167],[125.071388,11.28139],[125.071114,11.28111],[125.071114,11.28056],[125.070831,11.28028],[125.070549,11.28002],[125.070091,11.27983],[125.069572,11.27974],[125.069008,11.2797],[125.068901,11.27967],[125.069107,11.28608],[125.074783,11.28669],[125.078529,11.28719]]]]}},{"type":"Feature","properties":{"ID_0":177,"ISO":"PHL","NAME_0":"Philippines","ID_1":8060,"NAME_1":"Samar (Western Samar)","ID_2":806002,"NAME_2":"Basey","ID_3":806002035,"NAME_3":"Buscada","NL_NAME_3":null,"VARNAME_3":null,"TYPE_3":"Barangay","ENGTYPE_3":"Village","PROVINCE":"Samar (Western Samar)","REGION":"Region VIII (Eastern Visayas)","id":"barangay-0806002035","name":"Buscada","barangayCode":"0806002035","population":null,"formattedPop":null,"densityCategory":"No data","vulnerabilityRating":"No data","healthRiskLevel":"No data","areaKm2":0.779436,"centerLat":11.287125,"centerLng":125.065803,"geometrySource":"all_barangay-2.csv detailed WKT","geometryMatchMethod":"psgc_coordinate_bridge","boundaryPointCount":7},"geometry":{"type":"MultiPolygon","coordinates":[[[[125.067047,11.29374],[125.068047,11.29013],[125.069107,11.28608],[125.061661,11.28475],[125.061737,11.28598],[125.060997,11.29301],[125.067047,11.29374]]]]}},{"type":"Feature","properties":{"ID_0":177,"ISO":"PHL","NAME_0":"Philippines","ID_1":8060,"NAME_1":"Samar (Western Samar)","ID_2":806002,"NAME_2":"Basey","ID_3":806002036,"NAME_3":"Lawa-an","NL_NAME_3":null,"VARNAME_3":null,"TYPE_3":"Barangay","ENGTYPE_3":"Village","PROVINCE":"Samar (Western Samar)","REGION":"Region VIII (Eastern Visayas)","id":"barangay-0806002036","name":"Lawa-an","barangayCode":"0806002036","population":null,"formattedPop":null,"densityCategory":"No data","vulnerabilityRating":"No data","healthRiskLevel":"No data","areaKm2":0.318602,"centerLat":11.289181,"centerLng":125.070597,"geometrySource":"all_barangay-2.csv detailed WKT","geometryMatchMethod":"psgc_coordinate_bridge","boundaryPointCount":14},"geometry":{"type":"MultiPolygon","coordinates":[[[[125.073036,11.29509],[125.0728,11.29463],[125.0728,11.29381],[125.072884,11.29307],[125.073151,11.2928],[125.073708,11.29281],[125.074089,11.293],[125.074387,11.29283],[125.074562,11.29226],[125.074539,11.29122],[125.068047,11.29013],[125.067047,11.29374],[125.070457,11.2944],[125.073036,11.29509]]]]}},{"type":"Feature","properties":{"ID_0":177,"ISO":"PHL","NAME_0":"Philippines","ID_1":8060,"NAME_1":"Samar (Western Samar)","ID_2":806002,"NAME_2":"Basey","ID_3":806002037,"NAME_3":"Loyo","NL_NAME_3":null,"VARNAME_3":null,"TYPE_3":"Barangay","ENGTYPE_3":"Village","PROVINCE":"Samar (Western Samar)","REGION":"Region VIII (Eastern Visayas)","id":"barangay-0806002037","name":"Loyo","barangayCode":"0806002037","population":null,"formattedPop":null,"densityCategory":"No data","vulnerabilityRating":"No data","healthRiskLevel":"No data","areaKm2":0.154966,"centerLat":11.28033,"centerLng":125.066572,"geometrySource":"all_barangay-2.csv detailed WKT","geometryMatchMethod":"psgc_coordinate_bridge","boundaryPointCount":19},"geometry":{"type":"MultiPolygon","coordinates":[[[[125.061661,11.28475],[125.069107,11.28608],[125.068901,11.27967],[125.068466,11.27954],[125.068001,11.2792],[125.067497,11.27888],[125.067009,11.27853],[125.066551,11.27812],[125.066109,11.27786],[125.065979,11.27779],[125.065353,11.27756],[125.064743,11.27755],[125.064209,11.27776],[125.064056,11.27781],[125.063698,11.27795],[125.063171,11.27804],[125.062637,11.27806],[125.062218,11.27806],[125.061661,11.28475]]]]}},{"type":"Feature","properties":{"ID_0":177,"ISO":"PHL","NAME_0":"Philippines","ID_1":8060,"NAME_1":"Samar (Western Samar)","ID_2":806002,"NAME_2":"Basey","ID_3":806002038,"NAME_3":"Mercado","NL_NAME_3":null,"VARNAME_3":null,"TYPE_3":"Barangay","ENGTYPE_3":"Village","PROVINCE":"Samar (Western Samar)","REGION":"Region VIII (Eastern Visayas)","id":"barangay-0806002038","name":"Mercado","barangayCode":"0806002038","population":null,"formattedPop":null,"densityCategory":"No data","vulnerabilityRating":"No data","healthRiskLevel":"No data","areaKm2":0.029557,"centerLat":11.280672,"centerLng":125.069942,"geometrySource":"all_barangay-2.csv detailed WKT","geometryMatchMethod":"psgc_coordinate_bridge","boundaryPointCount":6},"geometry":{"type":"MultiPolygon","coordinates":[[[[125.078018,11.29165],[125.078529,11.28719],[125.074783,11.28669],[125.074738,11.28863],[125.074539,11.29122],[125.078018,11.29165]]]]}},{"type":"Feature","properties":{"ID_0":177,"ISO":"PHL","NAME_0":"Philippines","ID_1":8060,"NAME_1":"Samar (Western Samar)","ID_2":806002,"NAME_2":"Basey","ID_3":806002039,"NAME_3":"Palaypay","NL_NAME_3":null,"VARNAME_3":null,"TYPE_3":"Barangay","ENGTYPE_3":"Village","PROVINCE":"Samar (Western Samar)","REGION":"Region VIII (Eastern Visayas)","id":"barangay-0806002039","name":"Palaypay","barangayCode":"0806002039","population":null,"formattedPop":null,"densityCategory":"No data","vulnerabilityRating":"No data","healthRiskLevel":"No data","areaKm2":0.955648,"centerLat":11.288421,"centerLng":125.076348,"geometrySource":"all_barangay-2.csv detailed WKT","geometryMatchMethod":"psgc_coordinate_bridge","boundaryPointCount":13},"geometry":{"type":"MultiPolygon","coordinates":[[[[125.077454,11.29594],[125.078018,11.29165],[125.074539,11.29122],[125.074562,11.29226],[125.074387,11.29283],[125.074089,11.293],[125.073708,11.29281],[125.073151,11.2928],[125.072884,11.29307],[125.0728,11.29381],[125.0728,11.29463],[125.073036,11.29509],[125.077454,11.29594]]]]}},{"type":"Feature","properties":{"ID_0":177,"ISO":"PHL","NAME_0":"Philippines","ID_1":8060,"NAME_1":"Samar (Western Samar)","ID_2":806002,"NAME_2":"Basey","ID_3":806002040,"NAME_3":"Sulod","NL_NAME_3":null,"VARNAME_3":null,"TYPE_3":"Barangay","ENGTYPE_3":"Village","PROVINCE":"Samar (Western Samar)","REGION":"Region VIII (Eastern Visayas)","id":"barangay-0806002040","name":"Sulod","barangayCode":"0806002040","population":null,"formattedPop":null,"densityCategory":"No data","vulnerabilityRating":"No data","healthRiskLevel":"No data","areaKm2":0.030131,"centerLat":11.281987,"centerLng":125.069619,"geometrySource":"all_barangay-2.csv detailed WKT","geometryMatchMethod":"psgc_coordinate_bridge","boundaryPointCount":6},"geometry":{"type":"MultiPolygon","coordinates":[[[[125.074539,11.29122],[125.074738,11.28863],[125.074783,11.28669],[125.069107,11.28608],[125.068047,11.29013],[125.074539,11.29122]]]]}},{"type":"Feature","properties":{"ID_0":177,"ISO":"PHL","NAME_0":"Philippines","ID_1":8060,"NAME_1":"Samar (Western Samar)","ID_2":806002,"NAME_2":"Basey","ID_3":806002041,"NAME_3":"Roxas","NL_NAME_3":null,"VARNAME_3":null,"TYPE_3":"Barangay","ENGTYPE_3":"Village","PROVINCE":"Samar (Western Samar)","REGION":"Region VIII (Eastern Visayas)","id":"barangay-0806002041","name":"Roxas","barangayCode":"0806002041","population":null,"formattedPop":null,"densityCategory":"No data","vulnerabilityRating":"No data","healthRiskLevel":"No data","areaKm2":2.702077,"centerLat":11.303659,"centerLng":125.046819,"geometrySource":"all_barangay-2.csv detailed WKT","geometryMatchMethod":"psgc_coordinate_bridge","boundaryPointCount":31},"geometry":{"type":"MultiPolygon","coordinates":[[[[125.038261,11.31058],[125.045341,11.31231],[125.048264,11.31316],[125.050346,11.31204],[125.052139,11.30986],[125.052933,11.30866],[125.054337,11.30652],[125.055969,11.30439],[125.05648,11.30243],[125.056961,11.301],[125.057243,11.29806],[125.057861,11.29655],[125.059547,11.29434],[125.060997,11.29301],[125.058693,11.28886],[125.057037,11.28937],[125.055359,11.2891],[125.053642,11.2881],[125.052299,11.28778],[125.050346,11.28951],[125.049789,11.29145],[125.04792,11.29168],[125.046387,11.29231],[125.044052,11.29134],[125.043198,11.29177],[125.040916,11.29288],[125.039124,11.29305],[125.037971,11.29363],[125.036819,11.2946],[125.035301,11.29674],[125.038261,11.31058]]]]}},{"type":"Feature","properties":{"ID_0":177,"ISO":"PHL","NAME_0":"Philippines","ID_1":8060,"NAME_1":"Samar (Western Samar)","ID_2":806002,"NAME_2":"Basey","ID_3":806002042,"NAME_3":"Salvacion","NL_NAME_3":null,"VARNAME_3":null,"TYPE_3":"Barangay","ENGTYPE_3":"Village","PROVINCE":"Samar (Western Samar)","REGION":"Region VIII (Eastern Visayas)","id":"barangay-0806002042","name":"Salvacion","barangayCode":"0806002042","population":null,"formattedPop":null,"densityCategory":"No data","vulnerabilityRating":"No data","healthRiskLevel":"No data","areaKm2":1.385318,"centerLat":11.261613,"centerLng":125.078241,"geometrySource":"all_barangay-2.csv detailed WKT","geometryMatchMethod":"psgc_coordinate_bridge","boundaryPointCount":106},"geometry":{"type":"MultiPolygon","coordinates":[[[[125.074989,11.26973],[125.075027,11.26972],[125.075279,11.26972],[125.075371,11.26963],[125.077217,11.26778],[125.077217,11.2675],[125.077461,11.26726],[125.077499,11.26722],[125.077766,11.26722],[125.077988,11.26702],[125.078056,11.26695],[125.078331,11.26695],[125.078613,11.26667],[125.07917,11.26611],[125.079437,11.26611],[125.08139,11.26417],[125.08139,11.26389],[125.081528,11.26375],[125.081657,11.26361],[125.081657,11.26278],[125.082497,11.26194],[125.082497,11.26167],[125.083054,11.26111],[125.083054,11.26083],[125.083168,11.26072],[125.083344,11.26056],[125.083344,11.26028],[125.084717,11.25889],[125.084717,11.25861],[125.0849,11.25843],[125.084999,11.25833],[125.084999,11.25722],[125.085052,11.25717],[125.085281,11.25694],[125.085281,11.25611],[125.085564,11.25583],[125.085564,11.255],[125.085281,11.25472],[125.084961,11.2544],[125.084717,11.25417],[125.083229,11.25417],[125.082497,11.25417],[125.082443,11.25422],[125.082222,11.25444],[125.082062,11.25444],[125.081657,11.25444],[125.081528,11.25459],[125.08139,11.25472],[125.081108,11.25472],[125.080833,11.255],[125.080559,11.255],[125.08036,11.25519],[125.080276,11.25528],[125.080002,11.25528],[125.079903,11.25538],[125.07972,11.25556],[125.079437,11.25556],[125.078377,11.25662],[125.078056,11.25694],[125.077873,11.25694],[125.077766,11.25694],[125.077591,11.25713],[125.077499,11.25722],[125.077454,11.25722],[125.077217,11.25722],[125.076759,11.25769],[125.075844,11.25861],[125.075546,11.25861],[125.074997,11.25917],[125.074722,11.25917],[125.074677,11.2592],[125.074173,11.25972],[125.073952,11.25972],[125.073891,11.25972],[125.073517,11.2601],[125.073303,11.26028],[125.073059,11.26028],[125.072853,11.26048],[125.072777,11.26056],[125.072502,11.26056],[125.072227,11.26083],[125.071663,11.26139],[125.071663,11.26167],[125.071472,11.26186],[125.07132,11.26201],[125.071114,11.26222],[125.071114,11.26306],[125.070953,11.26321],[125.070831,11.26333],[125.070831,11.26417],[125.070267,11.26472],[125.070267,11.265],[125.071587,11.26632],[125.071953,11.26667],[125.071953,11.26695],[125.072212,11.26721],[125.072777,11.26778],[125.072777,11.26806],[125.073174,11.26845],[125.073334,11.26861],[125.073334,11.26889],[125.074348,11.2699],[125.074448,11.27],[125.074722,11.27],[125.07476,11.26996],[125.074989,11.26973]]]]}},{"type":"Feature","properties":{"ID_0":177,"ISO":"PHL","NAME_0":"Philippines","ID_1":8060,"NAME_1":"Samar (Western Samar)","ID_2":806002,"NAME_2":"Basey","ID_3":806002043,"NAME_3":"San Antonio","NL_NAME_3":null,"VARNAME_3":null,"TYPE_3":"Barangay","ENGTYPE_3":"Village","PROVINCE":"Samar (Western Samar)","REGION":"Region VIII (Eastern Visayas)","id":"barangay-0806002043","name":"San Antonio","barangayCode":"0806002043","population":null,"formattedPop":null,"densityCategory":"No data","vulnerabilityRating":"No data","healthRiskLevel":"No data","areaKm2":1.155277,"centerLat":11.283859,"centerLng":125.015704,"geometrySource":"all_barangay-2.csv detailed WKT","geometryMatchMethod":"psgc_coordinate_bridge","boundaryPointCount":29},"geometry":{"type":"MultiPolygon","coordinates":[[[[125.017517,11.2908],[125.018097,11.2812],[125.02317,11.28112],[125.022629,11.27621],[125.022423,11.27632],[125.021912,11.27644],[125.021446,11.27667],[125.020958,11.27689],[125.020393,11.27701],[125.019836,11.27723],[125.019272,11.27746],[125.018646,11.27749],[125.018013,11.27742],[125.017357,11.27726],[125.016693,11.27722],[125.01606,11.27718],[125.01548,11.27699],[125.014877,11.27693],[125.014297,11.27681],[125.013748,11.27664],[125.013237,11.2764],[125.012718,11.27615],[125.012131,11.27601],[125.011551,11.27582],[125.011383,11.27575],[125.009979,11.28111],[125.010033,11.28713],[125.010063,11.29014],[125.017517,11.2908]]]]}},{"type":"Feature","properties":{"ID_0":177,"ISO":"PHL","NAME_0":"Philippines","ID_1":8060,"NAME_1":"Samar (Western Samar)","ID_2":806002,"NAME_2":"Basey","ID_3":806002044,"NAME_3":"Sawa","NL_NAME_3":null,"VARNAME_3":null,"TYPE_3":"Barangay","ENGTYPE_3":"Village","PROVINCE":"Samar (Western Samar)","REGION":"Region VIII (Eastern Visayas)","id":"barangay-0806002044","name":"Sawa","barangayCode":"0806002044","population":null,"formattedPop":null,"densityCategory":"No data","vulnerabilityRating":"No data","healthRiskLevel":"No data","areaKm2":2.757371,"centerLat":11.305339,"centerLng":125.088226,"geometrySource":"all_barangay-2.csv detailed WKT","geometryMatchMethod":"psgc_coordinate_bridge","boundaryPointCount":5},"geometry":{"type":"MultiPolygon","coordinates":[[[[125.076073,11.35899],[125.077583,11.32956],[125.068108,11.32632],[125.061272,11.34453],[125.076073,11.35899]]]]}},{"type":"Feature","properties":{"ID_0":177,"ISO":"PHL","NAME_0":"Philippines","ID_1":8060,"NAME_1":"Samar (Western Samar)","ID_2":806002,"NAME_2":"Basey","ID_3":806002045,"NAME_3":"Serum","NL_NAME_3":null,"VARNAME_3":null,"TYPE_3":"Barangay","ENGTYPE_3":"Village","PROVINCE":"Samar (Western Samar)","REGION":"Region VIII (Eastern Visayas)","id":"barangay-0806002045","name":"Serum","barangayCode":"0806002045","population":null,"formattedPop":null,"densityCategory":"No data","vulnerabilityRating":"No data","healthRiskLevel":"No data","areaKm2":2.419476,"centerLat":11.303873,"centerLng":125.129941,"geometrySource":"all_barangay-2.csv detailed WKT","geometryMatchMethod":"psgc_coordinate_bridge","boundaryPointCount":12},"geometry":{"type":"MultiPolygon","coordinates":[[[[125.131561,11.31333],[125.13607,11.31279],[125.135246,11.29716],[125.13353,11.29737],[125.131622,11.29795],[125.128311,11.2978],[125.126381,11.29757],[125.126122,11.29626],[125.12484,11.29513],[125.123497,11.2947],[125.122513,11.31318],[125.131561,11.31333]]]]}},{"type":"Feature","properties":{"ID_0":177,"ISO":"PHL","NAME_0":"Philippines","ID_1":8060,"NAME_1":"Samar (Western Samar)","ID_2":806002,"NAME_2":"Basey","ID_3":806002046,"NAME_3":"Sugca","NL_NAME_3":null,"VARNAME_3":null,"TYPE_3":"Barangay","ENGTYPE_3":"Village","PROVINCE":"Samar (Western Samar)","REGION":"Region VIII (Eastern Visayas)","id":"barangay-0806002046","name":"Sugca","barangayCode":"0806002046","population":null,"formattedPop":null,"densityCategory":"No data","vulnerabilityRating":"No data","healthRiskLevel":"No data","areaKm2":2.511687,"centerLat":11.300627,"centerLng":125.102555,"geometrySource":"all_barangay-2.csv detailed WKT","geometryMatchMethod":"psgc_coordinate_bridge","boundaryPointCount":12},"geometry":{"type":"MultiPolygon","coordinates":[[[[125.096191,11.31293],[125.101303,11.31313],[125.105469,11.31286],[125.105637,11.29553],[125.104691,11.29517],[125.104111,11.29391],[125.102402,11.29234],[125.101486,11.29099],[125.099854,11.29015],[125.099327,11.28884],[125.098251,11.28727],[125.096191,11.31293]]]]}},{"type":"Feature","properties":{"ID_0":177,"ISO":"PHL","NAME_0":"Philippines","ID_1":8060,"NAME_1":"Samar (Western Samar)","ID_2":806002,"NAME_2":"Basey","ID_3":806002047,"NAME_3":"Sugponon","NL_NAME_3":null,"VARNAME_3":null,"TYPE_3":"Barangay","ENGTYPE_3":"Village","PROVINCE":"Samar (Western Samar)","REGION":"Region VIII (Eastern Visayas)","id":"barangay-0806002047","name":"Sugponon","barangayCode":"0806002047","population":null,"formattedPop":null,"densityCategory":"No data","vulnerabilityRating":"No data","healthRiskLevel":"No data","areaKm2":2.247165,"centerLat":11.286711,"centerLng":125.108601,"geometrySource":"all_barangay-2.csv detailed WKT","geometryMatchMethod":"psgc_coordinate_bridge","boundaryPointCount":63},"geometry":{"type":"MultiPolygon","coordinates":[[[[125.098396,11.28179],[125.098473,11.28084],[125.098381,11.28102],[125.09819,11.28237],[125.098328,11.28314],[125.098396,11.28179]]],[[[125.113876,11.29705],[125.115112,11.28417],[125.115379,11.28288],[125.114998,11.2825],[125.114166,11.2825],[125.113609,11.28194],[125.113121,11.28172],[125.112694,11.28145],[125.112259,11.28125],[125.111847,11.28102],[125.111427,11.2808],[125.111023,11.28058],[125.110573,11.28043],[125.110046,11.28035],[125.109528,11.28029],[125.108994,11.28028],[125.108467,11.28025],[125.107979,11.28014],[125.107483,11.28002],[125.106918,11.27997],[125.106354,11.27979],[125.105743,11.27962],[125.105087,11.27965],[125.10453,11.27968],[125.103973,11.27955],[125.103371,11.27945],[125.102722,11.27944],[125.102028,11.27959],[125.101334,11.2798],[125.10083,11.28028],[125.10083,11.28055],[125.100563,11.28083],[125.100433,11.28283],[125.100708,11.28379],[125.101196,11.2849],[125.101219,11.28502],[125.100792,11.28528],[125.099869,11.28584],[125.099213,11.28635],[125.09861,11.28538],[125.098259,11.28434],[125.098297,11.28364],[125.098053,11.28444],[125.097862,11.28536],[125.097908,11.28658],[125.098251,11.28727],[125.099327,11.28884],[125.099854,11.29015],[125.101486,11.29099],[125.102402,11.29234],[125.104111,11.29391],[125.104691,11.29517],[125.105637,11.29553],[125.108521,11.29626],[125.109909,11.2961],[125.111969,11.29683],[125.113876,11.29705]]]]}},{"type":"Feature","properties":{"ID_0":177,"ISO":"PHL","NAME_0":"Philippines","ID_1":8060,"NAME_1":"Samar (Western Samar)","ID_2":806002,"NAME_2":"Basey","ID_3":806002048,"NAME_3":"Tinaogan","NL_NAME_3":null,"VARNAME_3":null,"TYPE_3":"Barangay","ENGTYPE_3":"Village","PROVINCE":"Samar (Western Samar)","REGION":"Region VIII (Eastern Visayas)","id":"barangay-0806002048","name":"Tinaogan","barangayCode":"0806002048","population":null,"formattedPop":null,"densityCategory":"No data","vulnerabilityRating":"No data","healthRiskLevel":"No data","areaKm2":4.127559,"centerLat":11.293999,"centerLng":124.992149,"geometrySource":"all_barangay-2.csv detailed WKT","geometryMatchMethod":"psgc_coordinate_bridge","boundaryPointCount":69},"geometry":{"type":"MultiPolygon","coordinates":[[[[125.005547,11.30505],[125.00042,11.29076],[124.993462,11.28155],[124.992813,11.28174],[124.992554,11.28215],[124.992477,11.28265],[124.992081,11.28292],[124.991837,11.2833],[124.991447,11.28358],[124.990967,11.28419],[124.990227,11.28453],[124.989677,11.28436],[124.989227,11.28471],[124.988899,11.28516],[124.988159,11.28508],[124.987663,11.2853],[124.987122,11.28552],[124.986473,11.28564],[124.985786,11.2858],[124.985062,11.28584],[124.984337,11.28603],[124.983688,11.28616],[124.983223,11.28617],[124.982841,11.2861],[124.982552,11.28605],[124.981842,11.28596],[124.981697,11.28428],[124.981377,11.28396],[124.981056,11.28368],[124.980698,11.28348],[124.980339,11.28331],[124.980003,11.2831],[124.979553,11.28306],[124.979012,11.28313],[124.978523,11.28341],[124.978249,11.28396],[124.977982,11.28452],[124.977737,11.28504],[124.977493,11.28555],[124.977272,11.28605],[124.97718,11.2866],[124.976997,11.28707],[124.976883,11.28753],[124.976669,11.28796],[124.976486,11.28844],[124.976517,11.28899],[124.976868,11.2895],[124.977203,11.28999],[124.977501,11.29041],[124.977783,11.2908],[124.97805,11.29116],[124.978317,11.29142],[124.978638,11.29151],[124.979156,11.2911],[124.979568,11.29101],[124.979874,11.29112],[124.980019,11.29127],[124.980118,11.29136],[124.980377,11.29173],[124.980667,11.29222],[124.980888,11.29276],[124.981033,11.29325],[124.980988,11.29359],[124.980812,11.29377],[124.980476,11.29377],[124.980766,11.29556],[124.980957,11.29679],[125.007431,11.31065],[125.005547,11.30505]]]]}},{"type":"Feature","properties":{"ID_0":177,"ISO":"PHL","NAME_0":"Philippines","ID_1":8060,"NAME_1":"Samar (Western Samar)","ID_2":806002,"NAME_2":"Basey","ID_3":806002049,"NAME_3":"Tingib","NL_NAME_3":null,"VARNAME_3":null,"TYPE_3":"Barangay","ENGTYPE_3":"Village","PROVINCE":"Samar (Western Samar)","REGION":"Region VIII (Eastern Visayas)","id":"barangay-0806002049","name":"Tingib","barangayCode":"0806002049","population":null,"formattedPop":null,"densityCategory":"No data","vulnerabilityRating":"No data","healthRiskLevel":"No data","areaKm2":3.355506,"centerLat":11.284254,"centerLng":125.032818,"geometrySource":"all_barangay-2.csv detailed WKT","geometryMatchMethod":"psgc_coordinate_bridge","boundaryPointCount":52},"geometry":{"type":"MultiPolygon","coordinates":[[[[125.040916,11.29288],[125.043472,11.28084],[125.043159,11.2808],[125.042542,11.2806],[125.04187,11.28052],[125.041206,11.28033],[125.040527,11.28022],[125.039932,11.28],[125.039337,11.27976],[125.038727,11.27958],[125.038132,11.27942],[125.037582,11.27917],[125.037064,11.27889],[125.036392,11.27861],[125.035843,11.27861],[125.035553,11.27833],[125.035278,11.27833],[125.035004,11.27806],[125.034447,11.27806],[125.034157,11.27778],[125.03389,11.27778],[125.033607,11.2775],[125.033058,11.2775],[125.032784,11.27722],[125.032501,11.27722],[125.031937,11.27667],[125.032143,11.27667],[125.031853,11.27639],[125.03154,11.27605],[125.031303,11.27557],[125.030983,11.27509],[125.030403,11.27474],[125.029709,11.2745],[125.029022,11.27439],[125.028389,11.27447],[125.027786,11.27448],[125.027199,11.27462],[125.026627,11.27475],[125.026131,11.27494],[125.025574,11.2749],[125.025002,11.27499],[125.024467,11.27513],[125.023987,11.27531],[125.023598,11.27557],[125.023216,11.27584],[125.022827,11.2761],[125.022629,11.27621],[125.02317,11.28112],[125.025543,11.28091],[125.025841,11.29093],[125.039124,11.29305],[125.040916,11.29288]]]]}},{"type":"Feature","properties":{"ID_0":177,"ISO":"PHL","NAME_0":"Philippines","ID_1":8060,"NAME_1":"Samar (Western Samar)","ID_2":806002,"NAME_2":"Basey","ID_3":806002050,"NAME_3":"Villa Aurora","NL_NAME_3":null,"VARNAME_3":null,"TYPE_3":"Barangay","ENGTYPE_3":"Village","PROVINCE":"Samar (Western Samar)","REGION":"Region VIII (Eastern Visayas)","id":"barangay-0806002050","name":"Villa Aurora","barangayCode":"0806002050","population":null,"formattedPop":null,"densityCategory":"No data","vulnerabilityRating":"No data","healthRiskLevel":"No data","areaKm2":19.355002,"centerLat":11.376,"centerLng":125.070529,"geometrySource":"all_barangay-2.csv detailed WKT","geometryMatchMethod":"psgc_coordinate_bridge","boundaryPointCount":12},"geometry":{"type":"MultiPolygon","coordinates":[[[[125.074028,11.4388],[125.076462,11.38501],[125.076073,11.35899],[125.061272,11.34453],[125.049667,11.3344],[125.043381,11.34462],[125.054337,11.36222],[125.045013,11.37896],[125.048973,11.38781],[125.056328,11.40328],[125.065353,11.42117],[125.074028,11.4388]]]]}},{"type":"Feature","properties":{"ID_0":177,"ISO":"PHL","NAME_0":"Philippines","ID_1":8060,"NAME_1":"Samar (Western Samar)","ID_2":806002,"NAME_2":"Basey","ID_3":806002051,"NAME_3":"Binongtu-an","NL_NAME_3":null,"VARNAME_3":null,"TYPE_3":"Barangay","ENGTYPE_3":"Village","PROVINCE":"Samar (Western Samar)","REGION":"Region VIII (Eastern Visayas)","id":"barangay-0806002051","name":"Binongtu-an","barangayCode":"0806002051","population":null,"formattedPop":null,"densityCategory":"No data","vulnerabilityRating":"No data","healthRiskLevel":"No data","areaKm2":0.993034,"centerLat":11.29008,"centerLng":125.120271,"geometrySource":"all_barangay-2.csv detailed WKT","geometryMatchMethod":"psgc_coordinate_bridge","boundaryPointCount":25},"geometry":{"type":"MultiPolygon","coordinates":[[[[125.123497,11.2947],[125.124931,11.28501],[125.125313,11.28361],[125.125267,11.28361],[125.125,11.28389],[125.12278,11.28389],[125.122498,11.28361],[125.122223,11.28361],[125.121948,11.28389],[125.120827,11.28389],[125.120552,11.28361],[125.117767,11.28361],[125.117233,11.28306],[125.115547,11.28306],[125.115379,11.28288],[125.115112,11.28417],[125.113876,11.29705],[125.116028,11.29633],[125.116623,11.29639],[125.116669,11.29639],[125.117447,11.29648],[125.118469,11.29539],[125.119827,11.2951],[125.122261,11.29455],[125.123497,11.2947]]]]}},{"type":"Feature","properties":{"ID_0":177,"ISO":"PHL","NAME_0":"Philippines","ID_1":8060,"NAME_1":"Samar (Western Samar)","ID_2":806002,"NAME_2":"Basey","ID_3":806002052,"NAME_3":"Bulao","NL_NAME_3":null,"VARNAME_3":null,"TYPE_3":"Barangay","ENGTYPE_3":"Village","PROVINCE":"Samar (Western Samar)","REGION":"Region VIII (Eastern Visayas)","id":"barangay-0806002052","name":"Bulao","barangayCode":"0806002052","population":null,"formattedPop":null,"densityCategory":"No data","vulnerabilityRating":"No data","healthRiskLevel":"No data","areaKm2":64.254425,"centerLat":11.437579,"centerLng":125.115606,"geometrySource":"all_barangay-2.csv detailed WKT","geometryMatchMethod":"psgc_coordinate_bridge","boundaryPointCount":9},"geometry":{"type":"MultiPolygon","coordinates":[[[[125.131813,11.53431],[125.134537,11.41585],[125.130966,11.3849],[125.100327,11.36517],[125.10006,11.38608],[125.097992,11.49016],[125.108902,11.51119],[125.115761,11.52685],[125.131813,11.53431]]]]}}]}
