{"type":"FeatureCollection","features":[{"type":"Feature","properties":{"ID_0":177,"ISO":"PHL","NAME_0":"Philippines","ID_1":10043,"NAME_1":"Misamis Oriental","ID_2":1004321,"NAME_2":"Opol","ID_3":1004321001,"NAME_3":"Awang","NL_NAME_3":null,"VARNAME_3":null,"TYPE_3":"Barangay","ENGTYPE_3":"Village","PROVINCE":"Misamis Oriental","REGION":"Region X (Northern Mindanao)","id":"barangay-1004321001","name":"Awang","barangayCode":"1004321001","population":null,"formattedPop":null,"densityCategory":"No data","vulnerabilityRating":"No data","healthRiskLevel":"No data","areaKm2":12.110408,"centerLat":8.472929,"centerLng":124.487716,"geometrySource":"all_barangay-2.csv detailed WKT","geometryMatchMethod":"unique_official_admin_names","boundaryPointCount":68},"geometry":{"type":"MultiPolygon","coordinates":[[[[124.551552,8.4918],[124.551361,8.49119],[124.551163,8.49053],[124.551247,8.4895],[124.551193,8.48818],[124.550697,8.48731],[124.550247,8.48652],[124.549988,8.48589],[124.549522,8.48515],[124.54789,8.48423],[124.546532,8.4837],[124.545998,8.48316],[124.544937,8.48192],[124.543427,8.48122],[124.542267,8.48053],[124.541023,8.47943],[124.540466,8.47828],[124.540237,8.47694],[124.539963,8.47587],[124.5392,8.47384],[124.538727,8.47313],[124.537262,8.47214],[124.53614,8.47152],[124.535316,8.47107],[124.534416,8.47104],[124.531441,8.47075],[124.530357,8.47061],[124.528923,8.46931],[124.52771,8.46767],[124.525879,8.46537],[124.524422,8.46275],[124.523521,8.46119],[124.522903,8.46013],[124.521667,8.45825],[124.521004,8.45664],[124.520607,8.45597],[124.490494,8.46154],[124.49192,8.46312],[124.493279,8.46416],[124.493927,8.46536],[124.494637,8.46636],[124.495537,8.46793],[124.496422,8.46927],[124.496788,8.4698],[124.497147,8.47017],[124.50782,8.4784],[124.532257,8.49912],[124.534264,8.50086],[124.537117,8.4967],[124.538109,8.49488],[124.538879,8.49314],[124.539307,8.49254],[124.539726,8.49263],[124.540588,8.49299],[124.541847,8.49345],[124.542953,8.49368],[124.54377,8.4938],[124.544632,8.49372],[124.545067,8.49363],[124.54554,8.49331],[124.545837,8.49282],[124.546463,8.49206],[124.546768,8.49153],[124.547523,8.49127],[124.548897,8.49123],[124.549751,8.49152],[124.55088,8.49186],[124.551552,8.4918]]]]}},{"type":"Feature","properties":{"ID_0":177,"ISO":"PHL","NAME_0":"Philippines","ID_1":10043,"NAME_1":"Misamis Oriental","ID_2":1004321,"NAME_2":"Opol","ID_3":1004321002,"NAME_3":"Bagocboc","NL_NAME_3":null,"VARNAME_3":null,"TYPE_3":"Barangay","ENGTYPE_3":"Village","PROVINCE":"Misamis Oriental","REGION":"Region X (Northern Mindanao)","id":"barangay-1004321002","name":"Bagocboc","barangayCode":"1004321002","population":null,"formattedPop":null,"densityCategory":"No data","vulnerabilityRating":"No data","healthRiskLevel":"No data","areaKm2":56.869466,"centerLat":8.437132,"centerLng":124.507159,"geometrySource":"all_barangay-2.csv detailed WKT","geometryMatchMethod":"unique_official_admin_names","boundaryPointCount":172},"geometry":{"type":"MultiPolygon","coordinates":[[[[124.490494,8.46154],[124.520607,8.45597],[124.542862,8.43497],[124.538391,8.42919],[124.539963,8.42855],[124.540154,8.42863],[124.541412,8.4285],[124.544411,8.42821],[124.545883,8.42812],[124.547943,8.42814],[124.547913,8.42731],[124.548424,8.42575],[124.549942,8.42342],[124.551277,8.42168],[124.552017,8.42101],[124.552307,8.42028],[124.551483,8.41887],[124.550957,8.41783],[124.550133,8.41694],[124.548119,8.41558],[124.546738,8.41466],[124.545761,8.41463],[124.54512,8.41533],[124.544769,8.41627],[124.545097,8.41813],[124.544922,8.41943],[124.54393,8.42017],[124.543602,8.42029],[124.542877,8.42027],[124.542168,8.41963],[124.541786,8.41831],[124.542107,8.41719],[124.543251,8.41459],[124.54245,8.41271],[124.541588,8.41171],[124.540657,8.40878],[124.539787,8.40774],[124.537033,8.40752],[124.536926,8.40766],[124.536346,8.40768],[124.536148,8.40776],[124.535896,8.40765],[124.535118,8.40763],[124.534637,8.40779],[124.533447,8.4073],[124.532639,8.40777],[124.532753,8.40924],[124.53376,8.41106],[124.53418,8.41224],[124.534081,8.41345],[124.532532,8.41456],[124.531807,8.4149],[124.531082,8.41389],[124.529716,8.41223],[124.528519,8.41149],[124.526901,8.41101],[124.525383,8.41141],[124.524834,8.41377],[124.524323,8.41594],[124.523781,8.41727],[124.522591,8.41778],[124.520576,8.41804],[124.519493,8.41734],[124.519341,8.41593],[124.519432,8.41428],[124.519341,8.41364],[124.518341,8.41292],[124.517723,8.41243],[124.516823,8.41214],[124.516006,8.41173],[124.514397,8.41081],[124.513138,8.41007],[124.512451,8.41012],[124.51207,8.41091],[124.51162,8.41161],[124.51133,8.41164],[124.510887,8.41152],[124.51088,8.4108],[124.511093,8.41009],[124.511017,8.40963],[124.509377,8.40975],[124.507927,8.41048],[124.506401,8.41156],[124.505142,8.41216],[124.503464,8.41191],[124.503754,8.41236],[124.503517,8.41369],[124.503479,8.41464],[124.504066,8.41519],[124.504761,8.41572],[124.505287,8.41627],[124.505219,8.41662],[124.504189,8.41678],[124.502769,8.41686],[124.501869,8.41738],[124.500954,8.41785],[124.500389,8.41804],[124.499763,8.41781],[124.498947,8.41753],[124.497864,8.41745],[124.497391,8.41793],[124.496788,8.41855],[124.496223,8.4195],[124.495506,8.42016],[124.49485,8.42057],[124.494003,8.42103],[124.493179,8.42138],[124.492447,8.42172],[124.490967,8.42205],[124.489578,8.42238],[124.488548,8.42292],[124.487717,8.42341],[124.48777,8.42407],[124.488159,8.42487],[124.488274,8.42524],[124.488197,8.42581],[124.487938,8.42624],[124.487579,8.42653],[124.487061,8.42684],[124.485924,8.42723],[124.485626,8.42749],[124.486847,8.43031],[124.485558,8.43092],[124.485382,8.43123],[124.485336,8.43151],[124.485764,8.43157],[124.486,8.43168],[124.486031,8.43224],[124.485298,8.43261],[124.484917,8.43328],[124.484978,8.43378],[124.484573,8.43419],[124.484093,8.43436],[124.484001,8.43505],[124.483963,8.43583],[124.483177,8.43653],[124.482674,8.43688],[124.48214,8.43705],[124.481644,8.43749],[124.481667,8.43826],[124.481842,8.43882],[124.48204,8.43902],[124.482887,8.43966],[124.483017,8.44033],[124.483452,8.44121],[124.483437,8.44206],[124.483833,8.44234],[124.484207,8.44283],[124.484612,8.44372],[124.485733,8.44532],[124.48568,8.44553],[124.485313,8.44553],[124.485283,8.44612],[124.485718,8.44655],[124.486053,8.44774],[124.486267,8.44822],[124.485893,8.44891],[124.484489,8.44907],[124.483833,8.44988],[124.483932,8.45059],[124.483757,8.45116],[124.482872,8.45099],[124.482536,8.4516],[124.482758,8.45218],[124.482887,8.45266],[124.48291,8.45301],[124.48214,8.45371],[124.48333,8.45526],[124.483971,8.45567],[124.485527,8.45688],[124.486771,8.45792],[124.490494,8.46154]]]]}},{"type":"Feature","properties":{"ID_0":177,"ISO":"PHL","NAME_0":"Philippines","ID_1":10043,"NAME_1":"Misamis Oriental","ID_2":1004321,"NAME_2":"Opol","ID_3":1004321003,"NAME_3":"Barra","NL_NAME_3":null,"VARNAME_3":null,"TYPE_3":"Barangay","ENGTYPE_3":"Village","PROVINCE":"Misamis Oriental","REGION":"Region X (Northern Mindanao)","id":"barangay-1004321003","name":"Barra","barangayCode":"1004321003","population":null,"formattedPop":null,"densityCategory":"No data","vulnerabilityRating":"No data","healthRiskLevel":"No data","areaKm2":2.783245,"centerLat":8.512076,"centerLng":124.602942,"geometrySource":"all_barangay-2.csv detailed WKT","geometryMatchMethod":"unique_official_admin_names","boundaryPointCount":65},"geometry":{"type":"MultiPolygon","coordinates":[[[[124.599281,8.51861],[124.599998,8.51861],[124.600281,8.51889],[124.60083,8.51889],[124.601112,8.51861],[124.601669,8.51861],[124.601936,8.51889],[124.603607,8.51889],[124.603889,8.51917],[124.604721,8.51917],[124.605003,8.51944],[124.605553,8.51944],[124.605827,8.51972],[124.606392,8.51972],[124.606941,8.52028],[124.607224,8.52028],[124.607498,8.52056],[124.60833,8.52056],[124.608612,8.52083],[124.609627,8.52083],[124.609642,8.5202],[124.609703,8.52018],[124.610001,8.51986],[124.61013,8.51943],[124.610153,8.51938],[124.610283,8.51896],[124.610512,8.51651],[124.610733,8.51566],[124.610817,8.51464],[124.610703,8.51355],[124.610603,8.51337],[124.610474,8.51316],[124.609154,8.51079],[124.608704,8.51016],[124.608147,8.5094],[124.6064,8.50779],[124.605843,8.50734],[124.604927,8.50662],[124.604713,8.5063],[124.604424,8.50591],[124.60424,8.50467],[124.604492,8.50333],[124.602821,8.50326],[124.601433,8.50347],[124.599663,8.50348],[124.598,8.50354],[124.596031,8.50363],[124.594597,8.50374],[124.59407,8.50419],[124.592987,8.505],[124.593513,8.50694],[124.594017,8.50807],[124.594048,8.50812],[124.595016,8.5098],[124.596123,8.51175],[124.59668,8.51291],[124.597023,8.51353],[124.597549,8.51431],[124.597603,8.51437],[124.597908,8.51483],[124.598251,8.51528],[124.598701,8.517462],[124.598846,8.51754],[124.599007,8.51803],[124.599281,8.51861]]]]}},{"type":"Feature","properties":{"ID_0":177,"ISO":"PHL","NAME_0":"Philippines","ID_1":10043,"NAME_1":"Misamis Oriental","ID_2":1004321,"NAME_2":"Opol","ID_3":1004321004,"NAME_3":"Bonbon","NL_NAME_3":null,"VARNAME_3":null,"TYPE_3":"Barangay","ENGTYPE_3":"Village","PROVINCE":"Misamis Oriental","REGION":"Region X (Northern Mindanao)","id":"barangay-1004321004","name":"Bonbon","barangayCode":"1004321004","population":null,"formattedPop":null,"densityCategory":"No data","vulnerabilityRating":"No data","healthRiskLevel":"No data","areaKm2":0.990096,"centerLat":8.521234,"centerLng":124.566564,"geometrySource":"all_barangay-2.csv detailed WKT","geometryMatchMethod":"unique_official_admin_names","boundaryPointCount":17},"geometry":{"type":"MultiPolygon","coordinates":[[[[124.57164,8.525298],[124.571663,8.52472],[124.57222,8.52417],[124.57222,8.52389],[124.572777,8.52333],[124.573059,8.52333],[124.573288,8.5231],[124.572281,8.52148],[124.571854,8.52032],[124.571121,8.51933],[124.570457,8.51826],[124.567734,8.52053],[124.57164,8.525298]]],[[[124.57164,8.525298],[124.571953,8.52568],[124.571953,8.52556],[124.57164,8.525298]]]]}},{"type":"Feature","properties":{"ID_0":177,"ISO":"PHL","NAME_0":"Philippines","ID_1":10043,"NAME_1":"Misamis Oriental","ID_2":1004321,"NAME_2":"Opol","ID_3":1004321005,"NAME_3":"Cauyonan","NL_NAME_3":null,"VARNAME_3":null,"TYPE_3":"Barangay","ENGTYPE_3":"Village","PROVINCE":"Misamis Oriental","REGION":"Region X (Northern Mindanao)","id":"barangay-1004321005","name":"Cauyonan","barangayCode":"1004321005","population":null,"formattedPop":null,"densityCategory":"No data","vulnerabilityRating":"No data","healthRiskLevel":"No data","areaKm2":4.23595,"centerLat":8.326417,"centerLng":124.446043,"geometrySource":"all_barangay-2.csv detailed WKT","geometryMatchMethod":"unique_official_admin_names","boundaryPointCount":114},"geometry":{"type":"MultiPolygon","coordinates":[[[[124.482826,8.36834],[124.482323,8.36764],[124.481613,8.36622],[124.480583,8.36526],[124.47937,8.36372],[124.479919,8.36247],[124.481133,8.36254],[124.482567,8.36319],[124.483597,8.36303],[124.483002,8.36082],[124.482239,8.35932],[124.480759,8.35716],[124.479462,8.35791],[124.47892,8.36093],[124.477707,8.36176],[124.477089,8.36088],[124.477287,8.35866],[124.476883,8.35775],[124.475807,8.35658],[124.476242,8.35507],[124.475021,8.35542],[124.472893,8.35585],[124.472702,8.35567],[124.472183,8.35432],[124.470734,8.35435],[124.470444,8.35534],[124.470879,8.3576],[124.470337,8.35816],[124.469208,8.35715],[124.468651,8.35654],[124.467873,8.35592],[124.46656,8.35588],[124.466347,8.35556],[124.466209,8.3544],[124.466293,8.353],[124.465477,8.35157],[124.465286,8.35167],[124.464203,8.34987],[124.46347,8.34957],[124.462807,8.35127],[124.46331,8.3527],[124.463287,8.35459],[124.461922,8.35613],[124.459,8.35783],[124.45787,8.35776],[124.457573,8.35651],[124.457573,8.35547],[124.457024,8.35484],[124.457031,8.35334],[124.45742,8.35209],[124.45639,8.35225],[124.454681,8.35257],[124.454353,8.35252],[124.454567,8.35123],[124.454651,8.34966],[124.453133,8.34896],[124.452301,8.34878],[124.451637,8.34846],[124.451286,8.34824],[124.449547,8.34784],[124.449043,8.34758],[124.448921,8.34707],[124.449783,8.34608],[124.451424,8.34546],[124.452881,8.34395],[124.453537,8.34192],[124.453178,8.34107],[124.451721,8.33994],[124.450951,8.33909],[124.450684,8.33868],[124.450432,8.33801],[124.450577,8.3371],[124.451591,8.33608],[124.454033,8.33575],[124.454292,8.33567],[124.454552,8.33499],[124.454422,8.3342],[124.423607,8.33605],[124.460373,8.3825],[124.46096,8.38196],[124.461403,8.38104],[124.462021,8.37904],[124.462692,8.37842],[124.463364,8.37911],[124.464378,8.37868],[124.465317,8.37824],[124.466171,8.37862],[124.467239,8.37868],[124.467697,8.37831],[124.467148,8.37799],[124.466904,8.37691],[124.46801,8.37627],[124.468643,8.37585],[124.469414,8.37525],[124.469711,8.37426],[124.469383,8.374],[124.468529,8.37384],[124.467857,8.37382],[124.467773,8.37287],[124.468849,8.37258],[124.47097,8.37301],[124.472099,8.37392],[124.472794,8.37406],[124.475143,8.37411],[124.476173,8.37403],[124.477074,8.37279],[124.47773,8.3723],[124.478996,8.37181],[124.479973,8.37177],[124.480782,8.37084],[124.482521,8.3697],[124.482521,8.36963],[124.482628,8.36891],[124.482826,8.36834]]]]}},{"type":"Feature","properties":{"ID_0":177,"ISO":"PHL","NAME_0":"Philippines","ID_1":10043,"NAME_1":"Misamis Oriental","ID_2":1004321,"NAME_2":"Opol","ID_3":1004321006,"NAME_3":"Igpit","NL_NAME_3":null,"VARNAME_3":null,"TYPE_3":"Barangay","ENGTYPE_3":"Village","PROVINCE":"Misamis Oriental","REGION":"Region X (Northern Mindanao)","id":"barangay-1004321006","name":"Igpit","barangayCode":"1004321006","population":null,"formattedPop":null,"densityCategory":"No data","vulnerabilityRating":"No data","healthRiskLevel":"No data","areaKm2":4.771215,"centerLat":8.500179,"centerLng":124.584906,"geometrySource":"all_barangay-2.csv detailed WKT","geometryMatchMethod":"unique_official_admin_names","boundaryPointCount":68},"geometry":{"type":"MultiPolygon","coordinates":[[[[124.588898,8.51806],[124.589722,8.51806],[124.589996,8.51833],[124.591667,8.51833],[124.591942,8.51861],[124.59417,8.51861],[124.594437,8.51833],[124.595284,8.51833],[124.595558,8.51861],[124.599281,8.51861],[124.599007,8.51803],[124.598846,8.51754],[124.598701,8.517462],[124.598251,8.51528],[124.597908,8.51483],[124.597603,8.51437],[124.597549,8.51431],[124.597023,8.51353],[124.59668,8.51291],[124.596123,8.51175],[124.595016,8.5098],[124.594048,8.50812],[124.594017,8.50807],[124.593513,8.50694],[124.592987,8.505],[124.591888,8.5035],[124.591011,8.5025],[124.58709,8.49729],[124.585838,8.49755],[124.585052,8.49772],[124.584869,8.49779],[124.584732,8.49785],[124.583267,8.49847],[124.582291,8.49914],[124.582253,8.49917],[124.581329,8.49979],[124.582176,8.50066],[124.58252,8.50136],[124.582458,8.50196],[124.582222,8.50245],[124.582176,8.50295],[124.58239,8.50452],[124.582428,8.50573],[124.582329,8.50615],[124.582176,8.50681],[124.581947,8.5073],[124.581757,8.50795],[124.581703,8.50856],[124.581833,8.50931],[124.582199,8.50977],[124.582497,8.50999],[124.582626,8.51083],[124.582413,8.51145],[124.582573,8.5118],[124.583061,8.51201],[124.583389,8.51231],[124.583771,8.51301],[124.584229,8.51358],[124.584488,8.5138],[124.584953,8.51431],[124.585419,8.51511],[124.586227,8.51603],[124.587372,8.51691],[124.587608,8.51719],[124.587936,8.51735],[124.588249,8.51752],[124.588509,8.51777],[124.588898,8.51806]]]]}},{"type":"Feature","properties":{"ID_0":177,"ISO":"PHL","NAME_0":"Philippines","ID_1":10043,"NAME_1":"Misamis Oriental","ID_2":1004321,"NAME_2":"Opol","ID_3":1004321007,"NAME_3":"Limonda","NL_NAME_3":null,"VARNAME_3":null,"TYPE_3":"Barangay","ENGTYPE_3":"Village","PROVINCE":"Misamis Oriental","REGION":"Region X (Northern Mindanao)","id":"barangay-1004321007","name":"Limonda","barangayCode":"1004321007","population":null,"formattedPop":null,"densityCategory":"No data","vulnerabilityRating":"No data","healthRiskLevel":"No data","areaKm2":10.772109,"centerLat":8.33273,"centerLng":124.424765,"geometrySource":"all_barangay-2.csv detailed WKT","geometryMatchMethod":"unique_official_admin_names","boundaryPointCount":46},"geometry":{"type":"MultiPolygon","coordinates":[[[[124.446648,8.40159],[124.447906,8.40164],[124.448273,8.40084],[124.447838,8.40025],[124.447548,8.39999],[124.447517,8.39944],[124.447998,8.39881],[124.447769,8.39814],[124.447563,8.39712],[124.44838,8.39657],[124.448936,8.39591],[124.448761,8.39466],[124.448868,8.39358],[124.449173,8.39341],[124.450188,8.3933],[124.450722,8.39236],[124.45134,8.38949],[124.451523,8.38828],[124.452454,8.38705],[124.454681,8.38596],[124.455177,8.38519],[124.456757,8.38351],[124.458817,8.38317],[124.459312,8.38327],[124.460373,8.3825],[124.423607,8.33605],[124.39814,8.33544],[124.400932,8.3392],[124.403809,8.34389],[124.405067,8.34568],[124.406311,8.34666],[124.407112,8.3483],[124.408112,8.34987],[124.40934,8.35154],[124.410347,8.35282],[124.411583,8.35421],[124.412941,8.35585],[124.414482,8.35799],[124.415863,8.36011],[124.419159,8.36464],[124.421997,8.36843],[124.424217,8.371],[124.426727,8.37473],[124.429337,8.37786],[124.434433,8.38495],[124.446648,8.40159]]]]}},{"type":"Feature","properties":{"ID_0":177,"ISO":"PHL","NAME_0":"Philippines","ID_1":10043,"NAME_1":"Misamis Oriental","ID_2":1004321,"NAME_2":"Opol","ID_3":1004321008,"NAME_3":"Luyongbonbon","NL_NAME_3":null,"VARNAME_3":null,"TYPE_3":"Barangay","ENGTYPE_3":"Village","PROVINCE":"Misamis Oriental","REGION":"Region X (Northern Mindanao)","id":"barangay-1004321008","name":"Luyongbonbon","barangayCode":"1004321008","population":null,"formattedPop":null,"densityCategory":"No data","vulnerabilityRating":"No data","healthRiskLevel":"No data","areaKm2":0.50948,"centerLat":8.528573,"centerLng":124.5697,"geometrySource":"all_barangay-2.csv detailed WKT","geometryMatchMethod":"unique_official_admin_names","boundaryPointCount":28},"geometry":{"type":"MultiPolygon","coordinates":[[[[124.56797,8.52833],[124.571167,8.53151],[124.572769,8.53287],[124.573174,8.53341],[124.573807,8.53285],[124.573891,8.53278],[124.573776,8.53267],[124.573608,8.5325],[124.573608,8.53167],[124.573891,8.53139],[124.573891,8.53056],[124.574173,8.53028],[124.574173,8.53003],[124.574448,8.52972],[124.574448,8.52944],[124.574722,8.52917],[124.574722,8.52833],[124.574173,8.52778],[124.573891,8.52778],[124.573608,8.5275],[124.573059,8.5275],[124.572113,8.52655],[124.571953,8.52639],[124.571953,8.52568],[124.57164,8.525298],[124.567734,8.52053],[124.562927,8.52411],[124.56797,8.52833]]]]}},{"type":"Feature","properties":{"ID_0":177,"ISO":"PHL","NAME_0":"Philippines","ID_1":10043,"NAME_1":"Misamis Oriental","ID_2":1004321,"NAME_2":"Opol","ID_3":1004321009,"NAME_3":"Malanang","NL_NAME_3":null,"VARNAME_3":null,"TYPE_3":"Barangay","ENGTYPE_3":"Village","PROVINCE":"Misamis Oriental","REGION":"Region X (Northern Mindanao)","id":"barangay-1004321009","name":"Malanang","barangayCode":"1004321009","population":null,"formattedPop":null,"densityCategory":"No data","vulnerabilityRating":"No data","healthRiskLevel":"No data","areaKm2":14.028463,"centerLat":8.474284,"centerLng":124.556993,"geometrySource":"all_barangay-2.csv detailed WKT","geometryMatchMethod":"unique_official_admin_names","boundaryPointCount":213},"geometry":{"type":"MultiPolygon","coordinates":[[[[124.581329,8.49979],[124.580704,8.49888],[124.580177,8.49832],[124.578461,8.49733],[124.577637,8.49662],[124.577019,8.49579],[124.576523,8.49424],[124.57605,8.49366],[124.574516,8.49322],[124.574188,8.49329],[124.573929,8.49325],[124.573608,8.49288],[124.573624,8.49251],[124.573517,8.49183],[124.573257,8.49093],[124.572792,8.49044],[124.57296,8.48986],[124.573547,8.48941],[124.573082,8.48907],[124.572723,8.4891],[124.572319,8.48875],[124.572037,8.48834],[124.571564,8.48852],[124.571327,8.48888],[124.570412,8.48817],[124.570137,8.48754],[124.570236,8.48703],[124.570824,8.48693],[124.571083,8.48634],[124.571716,8.48525],[124.571533,8.48468],[124.571533,8.48385],[124.57193,8.48349],[124.572113,8.48259],[124.572197,8.48182],[124.572563,8.48133],[124.572319,8.48068],[124.571693,8.47999],[124.571167,8.47964],[124.57048,8.47948],[124.569893,8.47901],[124.56897,8.47911],[124.568604,8.47905],[124.568497,8.47866],[124.567383,8.47798],[124.567093,8.47758],[124.567459,8.47751],[124.567574,8.47745],[124.567352,8.47721],[124.567101,8.47691],[124.567307,8.47675],[124.56739,8.47662],[124.567329,8.47638],[124.567589,8.47596],[124.5681,8.47547],[124.568108,8.47529],[124.568138,8.47461],[124.567657,8.47385],[124.567459,8.4737],[124.566917,8.47308],[124.566483,8.47197],[124.566383,8.47175],[124.565971,8.47158],[124.565887,8.47259],[124.565643,8.4731],[124.565308,8.47319],[124.564789,8.47228],[124.564774,8.47184],[124.564728,8.47145],[124.56424,8.47154],[124.563461,8.47044],[124.563347,8.47023],[124.563461,8.46968],[124.563957,8.46941],[124.564056,8.46785],[124.563622,8.46795],[124.5625,8.46788],[124.562202,8.46762],[124.562798,8.46656],[124.562553,8.46622],[124.562119,8.46572],[124.561867,8.46544],[124.561409,8.46436],[124.561249,8.46392],[124.560547,8.46323],[124.560127,8.46326],[124.559578,8.46334],[124.559067,8.46289],[124.558327,8.46259],[124.558022,8.46264],[124.55732,8.46208],[124.556808,8.46183],[124.556038,8.46132],[124.555679,8.46071],[124.555458,8.45974],[124.555527,8.45956],[124.556053,8.45872],[124.55616,8.45772],[124.555397,8.45758],[124.55529,8.45695],[124.55542,8.45682],[124.555817,8.4564],[124.556183,8.4558],[124.55603,8.45487],[124.555901,8.45428],[124.555443,8.45353],[124.554916,8.45308],[124.554039,8.45231],[124.554123,8.45185],[124.554329,8.45163],[124.554619,8.4505],[124.553978,8.44983],[124.553177,8.44945],[124.552498,8.44883],[124.551941,8.44844],[124.551224,8.44802],[124.550781,8.44763],[124.551407,8.44719],[124.552071,8.44674],[124.550697,8.44588],[124.550148,8.44558],[124.549606,8.44522],[124.549438,8.44494],[124.549103,8.44463],[124.549026,8.44323],[124.548958,8.44281],[124.548737,8.44255],[124.548233,8.44232],[124.547447,8.4418],[124.546661,8.44097],[124.546387,8.44055],[124.546127,8.43973],[124.546387,8.43891],[124.546532,8.43819],[124.546471,8.43781],[124.545891,8.43726],[124.545029,8.43663],[124.543983,8.43641],[124.543739,8.43635],[124.543083,8.43551],[124.542862,8.43497],[124.520607,8.45597],[124.521004,8.45664],[124.521667,8.45825],[124.522903,8.46013],[124.523521,8.46119],[124.524422,8.46275],[124.525879,8.46537],[124.52771,8.46767],[124.528923,8.46931],[124.530357,8.47061],[124.531441,8.47075],[124.534416,8.47104],[124.535316,8.47107],[124.53614,8.47152],[124.537262,8.47214],[124.538727,8.47313],[124.5392,8.47384],[124.539963,8.47587],[124.540237,8.47694],[124.540466,8.47828],[124.541023,8.47943],[124.542267,8.48053],[124.543427,8.48122],[124.544937,8.48192],[124.545998,8.48316],[124.546532,8.4837],[124.54789,8.48423],[124.549522,8.48515],[124.549988,8.48589],[124.550247,8.48652],[124.550697,8.48731],[124.551193,8.48818],[124.551247,8.4895],[124.551163,8.49053],[124.551361,8.49119],[124.551552,8.4918],[124.552223,8.49214],[124.552399,8.4923],[124.553596,8.49228],[124.554077,8.4922],[124.554573,8.49239],[124.555069,8.49261],[124.556152,8.49243],[124.556374,8.49305],[124.55661,8.49364],[124.557266,8.49462],[124.556847,8.49502],[124.556747,8.49549],[124.557404,8.49598],[124.558578,8.49614],[124.559067,8.49635],[124.560089,8.49702],[124.560822,8.49795],[124.560654,8.49866],[124.560722,8.49969],[124.56144,8.50008],[124.564148,8.50021],[124.567146,8.50033],[124.567253,8.50037],[124.567902,8.50071],[124.569344,8.50057],[124.570038,8.50252],[124.570976,8.50466],[124.572006,8.50738],[124.572891,8.51041],[124.573807,8.51288],[124.574707,8.51627],[124.576736,8.51027],[124.579514,8.50337],[124.580513,8.50142],[124.580551,8.50132],[124.581329,8.49979]]]]}},{"type":"Feature","properties":{"ID_0":177,"ISO":"PHL","NAME_0":"Philippines","ID_1":10043,"NAME_1":"Misamis Oriental","ID_2":1004321,"NAME_2":"Opol","ID_3":1004321011,"NAME_3":"Nangcaon","NL_NAME_3":null,"VARNAME_3":null,"TYPE_3":"Barangay","ENGTYPE_3":"Village","PROVINCE":"Misamis Oriental","REGION":"Region X (Northern Mindanao)","id":"barangay-1004321011","name":"Nangcaon","barangayCode":"1004321011","population":null,"formattedPop":null,"densityCategory":"No data","vulnerabilityRating":"No data","healthRiskLevel":"No data","areaKm2":13.334267,"centerLat":8.355182,"centerLng":124.451638,"geometrySource":"all_barangay-2.csv detailed WKT","geometryMatchMethod":"unique_official_admin_names","boundaryPointCount":175},"geometry":{"type":"MultiPolygon","coordinates":[[[[124.468468,8.42189],[124.468803,8.42176],[124.469238,8.4216],[124.469757,8.42083],[124.470039,8.42057],[124.47036,8.41958],[124.470642,8.41856],[124.470757,8.41756],[124.471008,8.41649],[124.471291,8.41595],[124.472237,8.41515],[124.473488,8.41468],[124.475197,8.41397],[124.477097,8.41395],[124.477997,8.41431],[124.478561,8.41459],[124.479507,8.41422],[124.479736,8.41342],[124.480637,8.41285],[124.482628,8.41192],[124.483704,8.41136],[124.483963,8.41036],[124.483673,8.40955],[124.482567,8.40782],[124.482117,8.40726],[124.480904,8.40551],[124.478981,8.40365],[124.475357,8.40063],[124.472656,8.39811],[124.472023,8.39712],[124.472191,8.39657],[124.473007,8.39586],[124.473701,8.39473],[124.475433,8.39449],[124.477074,8.39334],[124.478081,8.39209],[124.479927,8.3905],[124.480232,8.39035],[124.480759,8.39008],[124.482231,8.38952],[124.483833,8.38963],[124.486023,8.39083],[124.487823,8.3919],[124.48912,8.3925],[124.490784,8.39289],[124.491707,8.38844],[124.492722,8.38809],[124.492897,8.3884],[124.493156,8.38703],[124.492508,8.38608],[124.49205,8.38505],[124.490471,8.38439],[124.489166,8.38397],[124.488167,8.38232],[124.488403,8.3811],[124.489517,8.38048],[124.492126,8.38139],[124.493759,8.38223],[124.494324,8.38156],[124.494377,8.37926],[124.494926,8.37784],[124.494034,8.37648],[124.492996,8.37636],[124.49147,8.37704],[124.490448,8.37717],[124.489189,8.37664],[124.488953,8.37639],[124.488579,8.37592],[124.485924,8.37506],[124.485703,8.37426],[124.486427,8.37358],[124.487587,8.37319],[124.48912,8.37241],[124.489807,8.37131],[124.489998,8.37017],[124.490784,8.36921],[124.492073,8.36926],[124.492523,8.36896],[124.493362,8.36735],[124.493462,8.36603],[124.492523,8.3656],[124.490936,8.36588],[124.489723,8.36623],[124.488953,8.36621],[124.487823,8.36597],[124.485939,8.36678],[124.485367,8.36713],[124.484573,8.36839],[124.483871,8.36865],[124.483238,8.36851],[124.482826,8.36834],[124.482628,8.36891],[124.482521,8.36963],[124.482521,8.3697],[124.480782,8.37084],[124.479973,8.37177],[124.478996,8.37181],[124.47773,8.3723],[124.477074,8.37279],[124.476173,8.37403],[124.475143,8.37411],[124.472794,8.37406],[124.472099,8.37392],[124.47097,8.37301],[124.468849,8.37258],[124.467773,8.37287],[124.467857,8.37382],[124.468529,8.37384],[124.469383,8.374],[124.469711,8.37426],[124.469414,8.37525],[124.468643,8.37585],[124.46801,8.37627],[124.466904,8.37691],[124.467148,8.37799],[124.467697,8.37831],[124.467239,8.37868],[124.466171,8.37862],[124.465317,8.37824],[124.464378,8.37868],[124.463364,8.37911],[124.462692,8.37842],[124.462021,8.37904],[124.461403,8.38104],[124.46096,8.38196],[124.460373,8.3825],[124.459312,8.38327],[124.458817,8.38317],[124.456757,8.38351],[124.455177,8.38519],[124.454681,8.38596],[124.452454,8.38705],[124.451523,8.38828],[124.45134,8.38949],[124.450722,8.39236],[124.450188,8.3933],[124.449173,8.39341],[124.448868,8.39358],[124.448761,8.39466],[124.448936,8.39591],[124.44838,8.39657],[124.447563,8.39712],[124.447769,8.39814],[124.447998,8.39881],[124.447517,8.39944],[124.447548,8.39999],[124.447838,8.40025],[124.448273,8.40084],[124.447906,8.40164],[124.446648,8.40159],[124.448227,8.40334],[124.448738,8.40394],[124.449593,8.40486],[124.450081,8.4054],[124.450684,8.40601],[124.451103,8.40631],[124.45134,8.4065],[124.45166,8.40675],[124.45256,8.40708],[124.453712,8.40757],[124.454086,8.40774],[124.454842,8.40822],[124.455841,8.40869],[124.456444,8.409],[124.457153,8.40946],[124.457626,8.40989],[124.459702,8.41101],[124.461418,8.41206],[124.462898,8.41334],[124.463898,8.41457],[124.464882,8.41567],[124.466042,8.4173],[124.467056,8.41877],[124.467819,8.42036],[124.468468,8.42189]]]]}},{"type":"Feature","properties":{"ID_0":177,"ISO":"PHL","NAME_0":"Philippines","ID_1":10043,"NAME_1":"Misamis Oriental","ID_2":1004321,"NAME_2":"Opol","ID_3":1004321013,"NAME_3":"Patag","NL_NAME_3":null,"VARNAME_3":null,"TYPE_3":"Barangay","ENGTYPE_3":"Village","PROVINCE":"Misamis Oriental","REGION":"Region X (Northern Mindanao)","id":"barangay-1004321013","name":"Patag","barangayCode":"1004321013","population":null,"formattedPop":null,"densityCategory":"No data","vulnerabilityRating":"No data","healthRiskLevel":"No data","areaKm2":20.224978,"centerLat":8.489245,"centerLng":124.538494,"geometrySource":"all_barangay-2.csv detailed WKT","geometryMatchMethod":"unique_official_admin_names","boundaryPointCount":60},"geometry":{"type":"MultiPolygon","coordinates":[[[[124.562927,8.52411],[124.567734,8.52053],[124.570457,8.51826],[124.570709,8.51746],[124.574707,8.51627],[124.573807,8.51288],[124.572891,8.51041],[124.572006,8.50738],[124.570976,8.50466],[124.570038,8.50252],[124.569344,8.50057],[124.567902,8.50071],[124.567253,8.50037],[124.567146,8.50033],[124.564148,8.50021],[124.56144,8.50008],[124.560722,8.49969],[124.560654,8.49866],[124.560822,8.49795],[124.560089,8.49702],[124.559067,8.49635],[124.558578,8.49614],[124.557404,8.49598],[124.556747,8.49549],[124.556847,8.49502],[124.557266,8.49462],[124.55661,8.49364],[124.556374,8.49305],[124.556152,8.49243],[124.555069,8.49261],[124.554573,8.49239],[124.554077,8.4922],[124.553596,8.49228],[124.552399,8.4923],[124.552223,8.49214],[124.551552,8.4918],[124.55088,8.49186],[124.549751,8.49152],[124.548897,8.49123],[124.547523,8.49127],[124.546768,8.49153],[124.546463,8.49206],[124.545837,8.49282],[124.54554,8.49331],[124.545067,8.49363],[124.544632,8.49372],[124.54377,8.4938],[124.542953,8.49368],[124.541847,8.49345],[124.540588,8.49299],[124.539726,8.49263],[124.539307,8.49254],[124.538879,8.49314],[124.538109,8.49488],[124.537117,8.4967],[124.534264,8.50086],[124.549004,8.51208],[124.555893,8.51753],[124.557243,8.51856],[124.562927,8.52411]]]]}},{"type":"Feature","properties":{"ID_0":177,"ISO":"PHL","NAME_0":"Philippines","ID_1":10043,"NAME_1":"Misamis Oriental","ID_2":1004321,"NAME_2":"Opol","ID_3":1004321014,"NAME_3":"Poblacion","NL_NAME_3":null,"VARNAME_3":null,"TYPE_3":"Barangay","ENGTYPE_3":"Village","PROVINCE":"Misamis Oriental","REGION":"Region X (Northern Mindanao)","id":"barangay-1004321014","name":"Poblacion","barangayCode":"1004321014","population":null,"formattedPop":null,"densityCategory":"No data","vulnerabilityRating":"No data","healthRiskLevel":"No data","areaKm2":0.458369,"centerLat":8.518079,"centerLng":124.572588,"geometrySource":"all_barangay-2.csv detailed WKT","geometryMatchMethod":"unique_official_admin_names","boundaryPointCount":17},"geometry":{"type":"MultiPolygon","coordinates":[[[[124.573288,8.5231],[124.573334,8.52306],[124.573608,8.52306],[124.574997,8.52167],[124.574997,8.52139],[124.575279,8.52111],[124.575546,8.52111],[124.576393,8.52028],[124.576561,8.52028],[124.575783,8.51858],[124.574707,8.51627],[124.570709,8.51746],[124.570457,8.51826],[124.571121,8.51933],[124.571854,8.52032],[124.572281,8.52148],[124.573288,8.5231]]]]}},{"type":"Feature","properties":{"ID_0":177,"ISO":"PHL","NAME_0":"Philippines","ID_1":10043,"NAME_1":"Misamis Oriental","ID_2":1004321,"NAME_2":"Opol","ID_3":1004321015,"NAME_3":"Taboc","NL_NAME_3":null,"VARNAME_3":null,"TYPE_3":"Barangay","ENGTYPE_3":"Village","PROVINCE":"Misamis Oriental","REGION":"Region X (Northern Mindanao)","id":"barangay-1004321015","name":"Taboc","barangayCode":"1004321015","population":null,"formattedPop":null,"densityCategory":"No data","vulnerabilityRating":"No data","healthRiskLevel":"No data","areaKm2":2.283188,"centerLat":8.509465,"centerLng":124.578557,"geometrySource":"all_barangay-2.csv detailed WKT","geometryMatchMethod":"unique_official_admin_names","boundaryPointCount":66},"geometry":{"type":"MultiPolygon","coordinates":[[[[124.576561,8.52028],[124.57666,8.52028],[124.577766,8.51917],[124.578056,8.51917],[124.578308,8.51891],[124.578888,8.51889],[124.57917,8.51861],[124.579437,8.51861],[124.57972,8.51833],[124.581657,8.51833],[124.581757,8.51833],[124.584167,8.51833],[124.584442,8.51804],[124.584747,8.51806],[124.585007,8.51807],[124.585281,8.51833],[124.585541,8.51807],[124.5858,8.51806],[124.586113,8.51804],[124.586388,8.51833],[124.587219,8.51833],[124.587502,8.51806],[124.587784,8.51806],[124.588058,8.51833],[124.588333,8.51833],[124.588608,8.51806],[124.588898,8.51806],[124.588509,8.51777],[124.588249,8.51752],[124.587936,8.51735],[124.587608,8.51719],[124.587372,8.51691],[124.586227,8.51603],[124.585419,8.51511],[124.584953,8.51431],[124.584488,8.5138],[124.584229,8.51358],[124.583771,8.51301],[124.583389,8.51231],[124.583061,8.51201],[124.582573,8.5118],[124.582413,8.51145],[124.582626,8.51083],[124.582497,8.50999],[124.582199,8.50977],[124.581833,8.50931],[124.581703,8.50856],[124.581757,8.50795],[124.581947,8.5073],[124.582176,8.50681],[124.582329,8.50615],[124.582428,8.50573],[124.58239,8.50452],[124.582176,8.50295],[124.582222,8.50245],[124.582458,8.50196],[124.58252,8.50136],[124.582176,8.50066],[124.581329,8.49979],[124.580551,8.50132],[124.580513,8.50142],[124.579514,8.50337],[124.576736,8.51027],[124.574707,8.51627],[124.575783,8.51858],[124.576561,8.52028]]]]}},{"type":"Feature","properties":{"ID_0":177,"ISO":"PHL","NAME_0":"Philippines","ID_1":10043,"NAME_1":"Misamis Oriental","ID_2":1004321,"NAME_2":"Opol","ID_3":1004321016,"NAME_3":"Tingalan","NL_NAME_3":null,"VARNAME_3":null,"TYPE_3":"Barangay","ENGTYPE_3":"Village","PROVINCE":"Misamis Oriental","REGION":"Region X (Northern Mindanao)","id":"barangay-1004321016","name":"Tingalan","barangayCode":"1004321016","population":null,"formattedPop":null,"densityCategory":"No data","vulnerabilityRating":"No data","healthRiskLevel":"No data","areaKm2":48.733388,"centerLat":8.392767,"centerLng":124.475746,"geometrySource":"all_barangay-2.csv detailed WKT","geometryMatchMethod":"unique_official_admin_names","boundaryPointCount":220},"geometry":{"type":"MultiPolygon","coordinates":[[[[124.48214,8.45371],[124.48291,8.45301],[124.482887,8.45266],[124.482758,8.45218],[124.482536,8.4516],[124.482872,8.45099],[124.483757,8.45116],[124.483932,8.45059],[124.483833,8.44988],[124.484489,8.44907],[124.485893,8.44891],[124.486267,8.44822],[124.486053,8.44774],[124.485718,8.44655],[124.485283,8.44612],[124.485313,8.44553],[124.48568,8.44553],[124.485733,8.44532],[124.484612,8.44372],[124.484207,8.44283],[124.483833,8.44234],[124.483437,8.44206],[124.483452,8.44121],[124.483017,8.44033],[124.482887,8.43966],[124.48204,8.43902],[124.481842,8.43882],[124.481667,8.43826],[124.481644,8.43749],[124.48214,8.43705],[124.482674,8.43688],[124.483177,8.43653],[124.483963,8.43583],[124.484001,8.43505],[124.484093,8.43436],[124.484573,8.43419],[124.484978,8.43378],[124.484917,8.43328],[124.485298,8.43261],[124.486031,8.43224],[124.486,8.43168],[124.485764,8.43157],[124.485336,8.43151],[124.485382,8.43123],[124.485558,8.43092],[124.486847,8.43031],[124.485626,8.42749],[124.485924,8.42723],[124.487061,8.42684],[124.487579,8.42653],[124.487938,8.42624],[124.488197,8.42581],[124.488274,8.42524],[124.488159,8.42487],[124.48777,8.42407],[124.487717,8.42341],[124.488548,8.42292],[124.489578,8.42238],[124.490967,8.42205],[124.492447,8.42172],[124.493179,8.42138],[124.494003,8.42103],[124.49485,8.42057],[124.495506,8.42016],[124.496223,8.4195],[124.496788,8.41855],[124.497391,8.41793],[124.497864,8.41745],[124.498947,8.41753],[124.499763,8.41781],[124.500389,8.41804],[124.500954,8.41785],[124.501869,8.41738],[124.502769,8.41686],[124.504189,8.41678],[124.505219,8.41662],[124.505287,8.41627],[124.504761,8.41572],[124.504066,8.41519],[124.503479,8.41464],[124.503517,8.41369],[124.503754,8.41236],[124.503464,8.41191],[124.505142,8.41216],[124.506401,8.41156],[124.507927,8.41048],[124.509377,8.40975],[124.511017,8.40963],[124.511093,8.41009],[124.51088,8.4108],[124.510887,8.41152],[124.51133,8.41164],[124.51162,8.41161],[124.51207,8.41091],[124.512451,8.41012],[124.513138,8.41007],[124.514397,8.41081],[124.516006,8.41173],[124.516823,8.41214],[124.517769,8.41002],[124.517982,8.40866],[124.518044,8.40723],[124.518433,8.40664],[124.519363,8.4062],[124.519333,8.40562],[124.518028,8.40488],[124.516937,8.40429],[124.515053,8.40336],[124.513969,8.4024],[124.512894,8.40133],[124.511902,8.40088],[124.510277,8.40074],[124.509506,8.40052],[124.508919,8.39963],[124.50869,8.39934],[124.507721,8.39898],[124.506599,8.39874],[124.504448,8.39835],[124.503448,8.39806],[124.502434,8.39767],[124.501846,8.39728],[124.50132,8.39593],[124.501671,8.39431],[124.502502,8.3927],[124.50338,8.39152],[124.505188,8.39111],[124.506233,8.39109],[124.507584,8.39063],[124.50856,8.39001],[124.508827,8.38931],[124.509163,8.388],[124.509377,8.38706],[124.508461,8.38651],[124.507584,8.38608],[124.506538,8.38621],[124.505661,8.38705],[124.504913,8.38789],[124.503967,8.38827],[124.502724,8.38813],[124.502357,8.38761],[124.501747,8.38626],[124.501297,8.38577],[124.500038,8.38561],[124.498077,8.38593],[124.496742,8.38653],[124.496132,8.38734],[124.495682,8.38856],[124.49485,8.38889],[124.493538,8.38891],[124.492897,8.3884],[124.492722,8.38809],[124.491707,8.38844],[124.490784,8.39289],[124.48912,8.3925],[124.487823,8.3919],[124.486023,8.39083],[124.483833,8.38963],[124.482231,8.38952],[124.480759,8.39008],[124.480232,8.39035],[124.479927,8.3905],[124.478081,8.39209],[124.477074,8.39334],[124.475433,8.39449],[124.473701,8.39473],[124.473007,8.39586],[124.472191,8.39657],[124.472023,8.39712],[124.472656,8.39811],[124.475357,8.40063],[124.478981,8.40365],[124.480904,8.40551],[124.482117,8.40726],[124.482567,8.40782],[124.483673,8.40955],[124.483963,8.41036],[124.483704,8.41136],[124.482628,8.41192],[124.480637,8.41285],[124.479736,8.41342],[124.479507,8.41422],[124.478561,8.41459],[124.477997,8.41431],[124.477097,8.41395],[124.475197,8.41397],[124.473488,8.41468],[124.472237,8.41515],[124.471291,8.41595],[124.471008,8.41649],[124.470757,8.41756],[124.470642,8.41856],[124.47036,8.41958],[124.470039,8.42057],[124.469757,8.42083],[124.469238,8.4216],[124.468803,8.42176],[124.468468,8.42189],[124.468758,8.42287],[124.469063,8.42314],[124.469437,8.42433],[124.470078,8.42537],[124.470207,8.42644],[124.471207,8.42831],[124.471581,8.43003],[124.471909,8.43199],[124.472649,8.43382],[124.473351,8.43582],[124.473846,8.43806],[124.474007,8.43929],[124.473938,8.44112],[124.473999,8.44145],[124.474327,8.4421],[124.474663,8.44424],[124.475067,8.44536],[124.476112,8.44711],[124.47702,8.44837],[124.478073,8.44964],[124.479523,8.45113],[124.480583,8.45197],[124.48214,8.45371]]]]}}]}
