{"type":"FeatureCollection","features":[{"type":"Feature","properties":{"ID_0":177,"ISO":"PHL","NAME_0":"Philippines","ID_1":3008,"NAME_1":"Bataan","ID_2":300805,"NAME_2":"Hermosa","ID_3":300805001,"NAME_3":"A. Rivera","NL_NAME_3":null,"VARNAME_3":null,"TYPE_3":"Barangay","ENGTYPE_3":"Village","PROVINCE":"Bataan","REGION":"Region III (Central Luzon)","id":"barangay-0300805001","name":"A. Rivera","barangayCode":"0300805001","population":null,"formattedPop":null,"densityCategory":"No data","vulnerabilityRating":"No data","healthRiskLevel":"No data","areaKm2":0.207133,"centerLat":14.830826,"centerLng":120.511982,"geometrySource":"all_barangay-2.csv detailed WKT","geometryMatchMethod":"unique_official_admin_names","boundaryPointCount":12},"geometry":{"type":"MultiPolygon","coordinates":[[[[120.517014,14.82221],[120.518066,14.8192],[120.515121,14.81793],[120.513947,14.81724],[120.513512,14.8169],[120.513153,14.81601],[120.510529,14.81996],[120.511703,14.82096],[120.513123,14.82169],[120.514214,14.82131],[120.514351,14.82142],[120.517014,14.82221]]]]}},{"type":"Feature","properties":{"ID_0":177,"ISO":"PHL","NAME_0":"Philippines","ID_1":3008,"NAME_1":"Bataan","ID_2":300805,"NAME_2":"Hermosa","ID_3":300805002,"NAME_3":"Almacen","NL_NAME_3":null,"VARNAME_3":null,"TYPE_3":"Barangay","ENGTYPE_3":"Village","PROVINCE":"Bataan","REGION":"Region III (Central Luzon)","id":"barangay-0300805002","name":"Almacen","barangayCode":"0300805002","population":null,"formattedPop":null,"densityCategory":"No data","vulnerabilityRating":"No data","healthRiskLevel":"No data","areaKm2":1.638315,"centerLat":14.834259,"centerLng":120.521386,"geometrySource":"all_barangay-2.csv detailed WKT","geometryMatchMethod":"unique_official_admin_names","boundaryPointCount":11},"geometry":{"type":"MultiPolygon","coordinates":[[[[120.517014,14.82221],[120.518707,14.8232],[120.519997,14.82441],[120.52066,14.82406],[120.521622,14.8239],[120.523521,14.82346],[120.524651,14.82248],[120.524971,14.8221],[120.524933,14.82181],[120.518066,14.8192],[120.517014,14.82221]]]]}},{"type":"Feature","properties":{"ID_0":177,"ISO":"PHL","NAME_0":"Philippines","ID_1":3008,"NAME_1":"Bataan","ID_2":300805,"NAME_2":"Hermosa","ID_3":300805003,"NAME_3":"Bacong","NL_NAME_3":null,"VARNAME_3":null,"TYPE_3":"Barangay","ENGTYPE_3":"Village","PROVINCE":"Bataan","REGION":"Region III (Central Luzon)","id":"barangay-0300805003","name":"Bacong","barangayCode":"0300805003","population":null,"formattedPop":null,"densityCategory":"No data","vulnerabilityRating":"No data","healthRiskLevel":"No data","areaKm2":16.43662,"centerLat":14.824532,"centerLng":120.445929,"geometrySource":"all_barangay-2.csv detailed WKT","geometryMatchMethod":"unique_official_admin_names","boundaryPointCount":59},"geometry":{"type":"MultiPolygon","coordinates":[[[[120.444107,14.84708],[120.444527,14.84689],[120.444832,14.84559],[120.445488,14.84487],[120.446533,14.84451],[120.447144,14.84384],[120.447731,14.8437],[120.447891,14.84312],[120.447937,14.84124],[120.448677,14.83901],[120.449539,14.83832],[120.449966,14.83772],[120.450302,14.8374],[120.451462,14.83773],[120.452301,14.83834],[120.453499,14.83923],[120.454552,14.83933],[120.455612,14.83968],[120.456253,14.83929],[120.456627,14.83894],[120.457733,14.83934],[120.45797,14.83992],[120.457771,14.84057],[120.457764,14.84152],[120.458527,14.84197],[120.459061,14.84113],[120.458939,14.84112],[120.462067,14.83898],[120.463959,14.83837],[120.465599,14.83823],[120.466957,14.83816],[120.467117,14.83669],[120.468018,14.83496],[120.468498,14.83291],[120.467628,14.831],[120.467659,14.82965],[120.445152,14.83083],[120.432503,14.83181],[120.432693,14.83209],[120.432777,14.83237],[120.433029,14.83363],[120.433167,14.83538],[120.434059,14.83595],[120.434052,14.83574],[120.435204,14.83584],[120.435661,14.83633],[120.435837,14.83774],[120.435654,14.83922],[120.435997,14.84079],[120.436996,14.84179],[120.438049,14.84287],[120.438507,14.84394],[120.438797,14.84411],[120.439484,14.84367],[120.440079,14.8433],[120.440781,14.84391],[120.442009,14.8452],[120.443321,14.84661],[120.444107,14.84708]]]]}},{"type":"Feature","properties":{"ID_0":177,"ISO":"PHL","NAME_0":"Philippines","ID_1":3008,"NAME_1":"Bataan","ID_2":300805,"NAME_2":"Hermosa","ID_3":300805004,"NAME_3":"Balsic","NL_NAME_3":null,"VARNAME_3":null,"TYPE_3":"Barangay","ENGTYPE_3":"Village","PROVINCE":"Bataan","REGION":"Region III (Central Luzon)","id":"barangay-0300805004","name":"Balsic","barangayCode":"0300805004","population":null,"formattedPop":null,"densityCategory":"No data","vulnerabilityRating":"No data","healthRiskLevel":"No data","areaKm2":9.050049,"centerLat":14.871314,"centerLng":120.487348,"geometrySource":"all_barangay-2.csv detailed WKT","geometryMatchMethod":"unique_official_admin_names","boundaryPointCount":80},"geometry":{"type":"MultiPolygon","coordinates":[[[[120.507446,14.87971],[120.507339,14.87736],[120.506989,14.87652],[120.505608,14.87509],[120.504471,14.87357],[120.502777,14.87022],[120.503014,14.86798],[120.504311,14.86493],[120.506477,14.86189],[120.508324,14.85895],[120.509819,14.85685],[120.511597,14.8547],[120.513634,14.85272],[120.514328,14.85118],[120.515167,14.84953],[120.515587,14.84879],[120.515793,14.84796],[120.515747,14.84726],[120.51609,14.84697],[120.51622,14.84663],[120.516113,14.84579],[120.516434,14.84555],[120.51683,14.84572],[120.517097,14.84545],[120.516991,14.84457],[120.517273,14.84392],[120.518013,14.84383],[120.518723,14.84378],[120.519257,14.84154],[120.519012,14.84037],[120.517906,14.83914],[120.517128,14.83833],[120.516739,14.83766],[120.516747,14.83726],[120.51693,14.83658],[120.517067,14.83597],[120.516907,14.83513],[120.516899,14.83422],[120.517143,14.83328],[120.51757,14.83257],[120.51767,14.83219],[120.517342,14.83127],[120.516823,14.83143],[120.516144,14.83196],[120.514717,14.83297],[120.513153,14.83428],[120.510948,14.83594],[120.508537,14.83688],[120.507057,14.83731],[120.495193,14.83144],[120.495773,14.83237],[120.49575,14.83322],[120.495422,14.83412],[120.494591,14.83563],[120.4944,14.8362],[120.494339,14.83701],[120.493477,14.83796],[120.49295,14.83903],[120.492607,14.84001],[120.491676,14.84091],[120.490738,14.84186],[120.489166,14.8433],[120.487587,14.84446],[120.485168,14.84541],[120.48484,14.84552],[120.485657,14.84818],[120.48349,14.84983],[120.481171,14.8516],[120.478996,14.85404],[120.477921,14.85668],[120.477448,14.85897],[120.477127,14.86142],[120.476913,14.86388],[120.476913,14.8651],[120.476517,14.86978],[120.476868,14.87307],[120.478271,14.87627],[120.47966,14.87808],[120.480278,14.87869],[120.507446,14.87971]]]]}},{"type":"Feature","properties":{"ID_0":177,"ISO":"PHL","NAME_0":"Philippines","ID_1":3008,"NAME_1":"Bataan","ID_2":300805,"NAME_2":"Hermosa","ID_3":300805005,"NAME_3":"Bamban","NL_NAME_3":null,"VARNAME_3":null,"TYPE_3":"Barangay","ENGTYPE_3":"Village","PROVINCE":"Bataan","REGION":"Region III (Central Luzon)","id":"barangay-0300805005","name":"Bamban","barangayCode":"0300805005","population":null,"formattedPop":null,"densityCategory":"No data","vulnerabilityRating":"No data","healthRiskLevel":"No data","areaKm2":25.739185,"centerLat":14.790837,"centerLng":120.41994,"geometrySource":"all_barangay-2.csv detailed WKT","geometryMatchMethod":"unique_official_admin_names","boundaryPointCount":66},"geometry":{"type":"MultiPolygon","coordinates":[[[[120.430443,14.83366],[120.430527,14.83242],[120.430496,14.83123],[120.431931,14.8314],[120.432503,14.83181],[120.445152,14.83083],[120.445053,14.82882],[120.444412,14.82792],[120.44313,14.8272],[120.442139,14.82624],[120.442017,14.82488],[120.442543,14.82397],[120.442757,14.82322],[120.442146,14.82175],[120.441353,14.82112],[120.440483,14.82025],[120.440201,14.81893],[120.439857,14.81775],[120.439537,14.81643],[120.439873,14.81554],[120.440269,14.815],[120.440102,14.8145],[120.439034,14.81382],[120.43869,14.81347],[120.438629,14.81247],[120.438469,14.81165],[120.438133,14.81143],[120.437508,14.81103],[120.437393,14.81014],[120.438026,14.80935],[120.437866,14.80882],[120.437462,14.80813],[120.437286,14.80685],[120.436821,14.80558],[120.435722,14.80471],[120.434952,14.80413],[120.434959,14.80329],[120.434357,14.80215],[120.433983,14.80145],[120.433434,14.80078],[120.433151,14.7999],[120.433647,14.79911],[120.433968,14.79845],[120.432838,14.79667],[120.431664,14.79549],[120.430649,14.79413],[120.43026,14.79316],[120.430077,14.79184],[120.429527,14.79045],[120.429199,14.78943],[120.429008,14.78832],[120.429123,14.78653],[120.429398,14.78504],[120.428947,14.78304],[120.428284,14.78176],[120.427406,14.7805],[120.427094,14.7792],[120.427048,14.77781],[120.426826,14.77624],[120.426682,14.77507],[120.426491,14.77417],[120.42469,14.7715],[120.422943,14.77206],[120.421928,14.77191],[120.427689,14.82148],[120.430443,14.83366]]]]}},{"type":"Feature","properties":{"ID_0":177,"ISO":"PHL","NAME_0":"Philippines","ID_1":3008,"NAME_1":"Bataan","ID_2":300805,"NAME_2":"Hermosa","ID_3":300805006,"NAME_3":"Burgos-Soliman","NL_NAME_3":null,"VARNAME_3":null,"TYPE_3":"Barangay","ENGTYPE_3":"Village","PROVINCE":"Bataan","REGION":"Region III (Central Luzon)","id":"barangay-0300805006","name":"Burgos-Soliman","barangayCode":"0300805006","population":null,"formattedPop":null,"densityCategory":"No data","vulnerabilityRating":"No data","healthRiskLevel":"No data","areaKm2":0.066938,"centerLat":14.830391,"centerLng":120.509347,"geometrySource":"all_barangay-2.csv detailed WKT","geometryMatchMethod":"unique_official_admin_names","boundaryPointCount":31},"geometry":{"type":"MultiPolygon","coordinates":[[[[120.524933,14.82181],[120.526947,14.81812],[120.527031,14.81806],[120.527542,14.8176],[120.528923,14.81709],[120.531197,14.81697],[120.534203,14.81685],[120.537376,14.81624],[120.536484,14.81539],[120.535088,14.81438],[120.533623,14.81389],[120.532433,14.81369],[120.531387,14.81319],[120.530548,14.81184],[120.530296,14.81051],[120.529572,14.80959],[120.527489,14.8097],[120.525833,14.81001],[120.525436,14.80981],[120.524109,14.80952],[120.521111,14.80831],[120.517342,14.81221],[120.516373,14.81293],[120.515129,14.81392],[120.514343,14.815],[120.513153,14.81601],[120.513512,14.8169],[120.513947,14.81724],[120.515121,14.81793],[120.518066,14.8192],[120.524933,14.82181]]]]}},{"type":"Feature","properties":{"ID_0":177,"ISO":"PHL","NAME_0":"Philippines","ID_1":3008,"NAME_1":"Bataan","ID_2":300805,"NAME_2":"Hermosa","ID_3":300805007,"NAME_3":"Cataning","NL_NAME_3":null,"VARNAME_3":null,"TYPE_3":"Barangay","ENGTYPE_3":"Village","PROVINCE":"Bataan","REGION":"Region III (Central Luzon)","id":"barangay-0300805007","name":"Cataning","barangayCode":"0300805007","population":null,"formattedPop":null,"densityCategory":"No data","vulnerabilityRating":"No data","healthRiskLevel":"No data","areaKm2":3.423218,"centerLat":14.828352,"centerLng":120.495764,"geometrySource":"all_barangay-2.csv detailed WKT","geometryMatchMethod":"unique_official_admin_names","boundaryPointCount":10},"geometry":{"type":"MultiPolygon","coordinates":[[[[120.50782,14.81974],[120.504387,14.81593],[120.502602,14.8167],[120.502098,14.81691],[120.501137,14.81785],[120.501717,14.82145],[120.503166,14.82123],[120.505814,14.82037],[120.507637,14.81987],[120.50782,14.81974]]]]}},{"type":"Feature","properties":{"ID_0":177,"ISO":"PHL","NAME_0":"Philippines","ID_1":3008,"NAME_1":"Bataan","ID_2":300805,"NAME_2":"Hermosa","ID_3":300805008,"NAME_3":"Culis","NL_NAME_3":null,"VARNAME_3":null,"TYPE_3":"Barangay","ENGTYPE_3":"Village","PROVINCE":"Bataan","REGION":"Region III (Central Luzon)","id":"barangay-0300805008","name":"Culis","barangayCode":"0300805008","population":null,"formattedPop":null,"densityCategory":"No data","vulnerabilityRating":"No data","healthRiskLevel":"No data","areaKm2":2.700124,"centerLat":14.838254,"centerLng":120.476926,"geometrySource":"all_barangay-2.csv detailed WKT","geometryMatchMethod":"unique_official_admin_names","boundaryPointCount":25},"geometry":{"type":"MultiPolygon","coordinates":[[[[120.488831,14.83407],[120.489754,14.83324],[120.489922,14.83232],[120.489227,14.83123],[120.48996,14.83091],[120.49057,14.83077],[120.491211,14.83015],[120.492012,14.82965],[120.492577,14.82932],[120.492752,14.82928],[120.492203,14.82796],[120.491241,14.82716],[120.490669,14.82698],[120.488426,14.82628],[120.487198,14.8247],[120.486313,14.82379],[120.485336,14.82381],[120.484741,14.82411],[120.483887,14.82364],[120.482384,14.82213],[120.481033,14.82151],[120.479767,14.82085],[120.479797,14.82079],[120.470161,14.82169],[120.488831,14.83407]]]]}},{"type":"Feature","properties":{"ID_0":177,"ISO":"PHL","NAME_0":"Philippines","ID_1":3008,"NAME_1":"Bataan","ID_2":300805,"NAME_2":"Hermosa","ID_3":300805009,"NAME_3":"Daungan","NL_NAME_3":null,"VARNAME_3":null,"TYPE_3":"Barangay","ENGTYPE_3":"Village","PROVINCE":"Bataan","REGION":"Region III (Central Luzon)","id":"barangay-0300805009","name":"Daungan","barangayCode":"0300805009","population":null,"formattedPop":null,"densityCategory":"No data","vulnerabilityRating":"No data","healthRiskLevel":"No data","areaKm2":0.358293,"centerLat":14.835027,"centerLng":120.51069,"geometrySource":"all_barangay-2.csv detailed WKT","geometryMatchMethod":"unique_official_admin_names","boundaryPointCount":17},"geometry":{"type":"MultiPolygon","coordinates":[[[[120.518959,14.82592],[120.519997,14.82441],[120.518707,14.8232],[120.517014,14.82221],[120.514351,14.82142],[120.514214,14.82131],[120.513123,14.82169],[120.512802,14.82216],[120.513878,14.82617],[120.514542,14.82559],[120.515358,14.8254],[120.515556,14.82536],[120.517143,14.82565],[120.517647,14.82575],[120.518272,14.82586],[120.518692,14.82591],[120.518959,14.82592]]]]}},{"type":"Feature","properties":{"ID_0":177,"ISO":"PHL","NAME_0":"Philippines","ID_1":3008,"NAME_1":"Bataan","ID_2":300805,"NAME_2":"Hermosa","ID_3":300805010,"NAME_3":"Mabiga","NL_NAME_3":null,"VARNAME_3":null,"TYPE_3":"Barangay","ENGTYPE_3":"Village","PROVINCE":"Bataan","REGION":"Region III (Central Luzon)","id":"barangay-0300805010","name":"Mabiga","barangayCode":"0300805010","population":null,"formattedPop":null,"densityCategory":"No data","vulnerabilityRating":"No data","healthRiskLevel":"No data","areaKm2":30.562646,"centerLat":14.797148,"centerLng":120.386947,"geometrySource":"all_barangay-2.csv detailed WKT","geometryMatchMethod":"unique_official_admin_names","boundaryPointCount":11},"geometry":{"type":"MultiPolygon","coordinates":[[[[120.413857,14.8259],[120.402702,14.74471],[120.400917,14.74395],[120.398293,14.74291],[120.396446,14.7426],[120.395218,14.74271],[120.3918,14.74494],[120.384216,14.75556],[120.372391,14.77899],[120.398651,14.82934],[120.413857,14.8259]]]]}},{"type":"Feature","properties":{"ID_0":177,"ISO":"PHL","NAME_0":"Philippines","ID_1":3008,"NAME_1":"Bataan","ID_2":300805,"NAME_2":"Hermosa","ID_3":300805011,"NAME_3":"Mabuco","NL_NAME_3":null,"VARNAME_3":null,"TYPE_3":"Barangay","ENGTYPE_3":"Village","PROVINCE":"Bataan","REGION":"Region III (Central Luzon)","id":"barangay-0300805011","name":"Mabuco","barangayCode":"0300805011","population":null,"formattedPop":null,"densityCategory":"No data","vulnerabilityRating":"No data","healthRiskLevel":"No data","areaKm2":2.280459,"centerLat":14.822756,"centerLng":120.510933,"geometrySource":"all_barangay-2.csv detailed WKT","geometryMatchMethod":"unique_official_admin_names","boundaryPointCount":17},"geometry":{"type":"MultiPolygon","coordinates":[[[[120.513153,14.81601],[120.514343,14.815],[120.515129,14.81392],[120.516373,14.81293],[120.517342,14.81221],[120.521111,14.80831],[120.519112,14.80731],[120.517067,14.80619],[120.513634,14.80462],[120.511292,14.80375],[120.509537,14.8032],[120.507736,14.80711],[120.506577,14.80964],[120.505997,14.81127],[120.506317,14.81235],[120.507187,14.81391],[120.513153,14.81601]]]]}},{"type":"Feature","properties":{"ID_0":177,"ISO":"PHL","NAME_0":"Philippines","ID_1":3008,"NAME_1":"Bataan","ID_2":300805,"NAME_2":"Hermosa","ID_3":300805012,"NAME_3":"Maite","NL_NAME_3":null,"VARNAME_3":null,"TYPE_3":"Barangay","ENGTYPE_3":"Village","PROVINCE":"Bataan","REGION":"Region III (Central Luzon)","id":"barangay-0300805012","name":"Maite","barangayCode":"0300805012","population":null,"formattedPop":null,"densityCategory":"No data","vulnerabilityRating":"No data","healthRiskLevel":"No data","areaKm2":10.914184,"centerLat":14.816933,"centerLng":120.409864,"geometrySource":"all_barangay-2.csv detailed WKT","geometryMatchMethod":"unique_official_admin_names","boundaryPointCount":27},"geometry":{"type":"MultiPolygon","coordinates":[[[[120.415863,14.83426],[120.416771,14.83408],[120.417877,14.83299],[120.418427,14.83256],[120.419548,14.83268],[120.421333,14.83309],[120.422401,14.83307],[120.423233,14.83289],[120.424423,14.83254],[120.425499,14.83273],[120.427162,14.83345],[120.428749,14.83408],[120.430443,14.83366],[120.427689,14.82148],[120.421928,14.77191],[120.4217,14.77005],[120.421547,14.76902],[120.41983,14.7663],[120.416718,14.76186],[120.414917,14.75901],[120.411522,14.75278],[120.4105,14.75071],[120.409409,14.74917],[120.407097,14.74719],[120.402702,14.74471],[120.413857,14.8259],[120.415863,14.83426]]]]}},{"type":"Feature","properties":{"ID_0":177,"ISO":"PHL","NAME_0":"Philippines","ID_1":3008,"NAME_1":"Bataan","ID_2":300805,"NAME_2":"Hermosa","ID_3":300805013,"NAME_3":"Mambog - Mandama","NL_NAME_3":null,"VARNAME_3":null,"TYPE_3":"Barangay","ENGTYPE_3":"Village","PROVINCE":"Bataan","REGION":"Region III (Central Luzon)","id":"barangay-0300805013","name":"Mambog - Mandama","barangayCode":"0300805013","population":null,"formattedPop":null,"densityCategory":"No data","vulnerabilityRating":"No data","healthRiskLevel":"No data","areaKm2":2.982719,"centerLat":14.817048,"centerLng":120.482229,"geometrySource":"all_barangay-2.csv detailed WKT","geometryMatchMethod":"unique_official_admin_names","boundaryPointCount":24},"geometry":{"type":"MultiPolygon","coordinates":[[[[120.495193,14.83144],[120.498749,14.83049],[120.498947,14.83036],[120.499947,14.82949],[120.501648,14.82864],[120.502708,14.82844],[120.503326,14.82834],[120.501717,14.82145],[120.501137,14.81785],[120.499947,14.81726],[120.497192,14.81614],[120.495537,14.81577],[120.494247,14.81574],[120.492233,14.8177],[120.496269,14.81954],[120.494324,14.82294],[120.491241,14.82716],[120.492203,14.82796],[120.492752,14.82928],[120.493248,14.82951],[120.493759,14.83008],[120.494186,14.83048],[120.494698,14.83075],[120.495193,14.83144]]]]}},{"type":"Feature","properties":{"ID_0":177,"ISO":"PHL","NAME_0":"Philippines","ID_1":3008,"NAME_1":"Bataan","ID_2":300805,"NAME_2":"Hermosa","ID_3":300805014,"NAME_3":"Palihan","NL_NAME_3":null,"VARNAME_3":null,"TYPE_3":"Barangay","ENGTYPE_3":"Village","PROVINCE":"Bataan","REGION":"Region III (Central Luzon)","id":"barangay-0300805014","name":"Palihan","barangayCode":"0300805014","population":null,"formattedPop":null,"densityCategory":"No data","vulnerabilityRating":"No data","healthRiskLevel":"No data","areaKm2":5.348368,"centerLat":14.848513,"centerLng":120.464527,"geometrySource":"all_barangay-2.csv detailed WKT","geometryMatchMethod":"unique_official_admin_names","boundaryPointCount":70},"geometry":{"type":"MultiPolygon","coordinates":[[[[120.469727,14.85006],[120.469833,14.84878],[120.470039,14.84818],[120.470581,14.84715],[120.471237,14.84672],[120.471817,14.84565],[120.472198,14.84509],[120.473053,14.84451],[120.473137,14.84428],[120.473381,14.84351],[120.473801,14.84259],[120.47422,14.84203],[120.475548,14.84129],[120.477158,14.84025],[120.479286,14.83947],[120.481071,14.83892],[120.482231,14.83825],[120.483887,14.83753],[120.484871,14.8376],[120.485199,14.83761],[120.485977,14.83693],[120.486992,14.83603],[120.487869,14.83562],[120.488358,14.83479],[120.488831,14.83407],[120.470161,14.82169],[120.469711,14.82213],[120.469498,14.8225],[120.469292,14.82304],[120.468063,14.82343],[120.466721,14.82337],[120.465759,14.82384],[120.465591,14.82469],[120.466537,14.82551],[120.468361,14.82663],[120.468239,14.82786],[120.467659,14.82965],[120.467628,14.831],[120.468498,14.83291],[120.468018,14.83496],[120.467117,14.83669],[120.466957,14.83816],[120.465599,14.83823],[120.463959,14.83837],[120.462067,14.83898],[120.458939,14.84112],[120.459061,14.84113],[120.458527,14.84197],[120.45919,14.84162],[120.460136,14.84172],[120.461227,14.84166],[120.462067,14.84129],[120.462677,14.84087],[120.463013,14.84083],[120.463043,14.84141],[120.463287,14.84199],[120.463676,14.84253],[120.463921,14.8429],[120.464394,14.84374],[120.464394,14.84441],[120.46402,14.84564],[120.464073,14.84655],[120.464577,14.84758],[120.464813,14.84818],[120.464973,14.84832],[120.465637,14.84842],[120.466454,14.8481],[120.467369,14.84808],[120.467972,14.84864],[120.469727,14.85006]]]]}},{"type":"Feature","properties":{"ID_0":177,"ISO":"PHL","NAME_0":"Philippines","ID_1":3008,"NAME_1":"Bataan","ID_2":300805,"NAME_2":"Hermosa","ID_3":300805015,"NAME_3":"Pandatung","NL_NAME_3":null,"VARNAME_3":null,"TYPE_3":"Barangay","ENGTYPE_3":"Village","PROVINCE":"Bataan","REGION":"Region III (Central Luzon)","id":"barangay-0300805015","name":"Pandatung","barangayCode":"0300805015","population":null,"formattedPop":null,"densityCategory":"No data","vulnerabilityRating":"No data","healthRiskLevel":"No data","areaKm2":2.842999,"centerLat":14.822339,"centerLng":120.470054,"geometrySource":"all_barangay-2.csv detailed WKT","geometryMatchMethod":"unique_official_admin_names","boundaryPointCount":121},"geometry":{"type":"MultiPolygon","coordinates":[[[[120.445152,14.83083],[120.467659,14.82965],[120.468239,14.82786],[120.468361,14.82663],[120.466537,14.82551],[120.465591,14.82469],[120.465759,14.82384],[120.466721,14.82337],[120.468063,14.82343],[120.469292,14.82304],[120.469498,14.8225],[120.469711,14.82213],[120.470161,14.82169],[120.468361,14.82003],[120.468811,14.81906],[120.469757,14.81784],[120.469742,14.8162],[120.468437,14.81514],[120.466003,14.81407],[120.463676,14.81188],[120.46376,14.81017],[120.464233,14.80888],[120.464073,14.80789],[120.463074,14.80667],[120.462952,14.80596],[120.462883,14.80522],[120.461899,14.80445],[120.461479,14.80362],[120.46125,14.80247],[120.460892,14.80069],[120.460152,14.79983],[120.459862,14.79866],[120.46003,14.79739],[120.460136,14.79692],[120.458977,14.79662],[120.457748,14.79602],[120.457352,14.79512],[120.456467,14.79447],[120.456146,14.79388],[120.455948,14.79356],[120.455254,14.79327],[120.454536,14.79209],[120.453667,14.79138],[120.453346,14.7917],[120.452583,14.79148],[120.451561,14.79064],[120.450722,14.78981],[120.450401,14.78845],[120.445343,14.78597],[120.437973,14.78946],[120.437737,14.78957],[120.437317,14.79026],[120.436867,14.79073],[120.43602,14.79069],[120.435173,14.78986],[120.434647,14.78779],[120.433769,14.78388],[120.432861,14.7815],[120.431923,14.7799],[120.430229,14.77886],[120.429611,14.77766],[120.428459,14.77597],[120.427353,14.77263],[120.425568,14.77148],[120.42469,14.7715],[120.426491,14.77417],[120.426682,14.77507],[120.426826,14.77624],[120.427048,14.77781],[120.427094,14.7792],[120.427406,14.7805],[120.428284,14.78176],[120.428947,14.78304],[120.429398,14.78504],[120.429123,14.78653],[120.429008,14.78832],[120.429199,14.78943],[120.429527,14.79045],[120.430077,14.79184],[120.43026,14.79316],[120.430649,14.79413],[120.431664,14.79549],[120.432838,14.79667],[120.433968,14.79845],[120.433647,14.79911],[120.433151,14.7999],[120.433434,14.80078],[120.433983,14.80145],[120.434357,14.80215],[120.434959,14.80329],[120.434952,14.80413],[120.435722,14.80471],[120.436821,14.80558],[120.437286,14.80685],[120.437462,14.80813],[120.437866,14.80882],[120.438026,14.80935],[120.437393,14.81014],[120.437508,14.81103],[120.438133,14.81143],[120.438469,14.81165],[120.438629,14.81247],[120.43869,14.81347],[120.439034,14.81382],[120.440102,14.8145],[120.440269,14.815],[120.439873,14.81554],[120.439537,14.81643],[120.439857,14.81775],[120.440201,14.81893],[120.440483,14.82025],[120.441353,14.82112],[120.442146,14.82175],[120.442757,14.82322],[120.442543,14.82397],[120.442017,14.82488],[120.442139,14.82624],[120.44313,14.8272],[120.444412,14.82792],[120.445053,14.82882],[120.445152,14.83083]]]]}},{"type":"Feature","properties":{"ID_0":177,"ISO":"PHL","NAME_0":"Philippines","ID_1":3008,"NAME_1":"Bataan","ID_2":300805,"NAME_2":"Hermosa","ID_3":300805016,"NAME_3":"Pulo","NL_NAME_3":null,"VARNAME_3":null,"TYPE_3":"Barangay","ENGTYPE_3":"Village","PROVINCE":"Bataan","REGION":"Region III (Central Luzon)","id":"barangay-0300805016","name":"Pulo","barangayCode":"0300805016","population":null,"formattedPop":null,"densityCategory":"No data","vulnerabilityRating":"No data","healthRiskLevel":"No data","areaKm2":2.373877,"centerLat":14.845652,"centerLng":120.501529,"geometrySource":"all_barangay-2.csv detailed WKT","geometryMatchMethod":"unique_official_admin_names","boundaryPointCount":42},"geometry":{"type":"MultiPolygon","coordinates":[[[[120.517342,14.83127],[120.518303,14.829],[120.518967,14.82724],[120.518959,14.82592],[120.518692,14.82591],[120.518272,14.82586],[120.517647,14.82575],[120.517143,14.82565],[120.515556,14.82536],[120.515358,14.8254],[120.514542,14.82559],[120.513878,14.82617],[120.512398,14.82677],[120.512207,14.82686],[120.510986,14.82754],[120.510887,14.82777],[120.510788,14.82792],[120.510551,14.82799],[120.510109,14.82811],[120.509102,14.82823],[120.508247,14.82805],[120.507568,14.82769],[120.507019,14.82742],[120.506493,14.82732],[120.505493,14.82748],[120.504623,14.82791],[120.504272,14.8282],[120.503326,14.82834],[120.502708,14.82844],[120.501648,14.82864],[120.499947,14.82949],[120.498947,14.83036],[120.498749,14.83049],[120.495193,14.83144],[120.507057,14.83731],[120.508537,14.83688],[120.510948,14.83594],[120.513153,14.83428],[120.514717,14.83297],[120.516144,14.83196],[120.516823,14.83143],[120.517342,14.83127]]]]}},{"type":"Feature","properties":{"ID_0":177,"ISO":"PHL","NAME_0":"Philippines","ID_1":3008,"NAME_1":"Bataan","ID_2":300805,"NAME_2":"Hermosa","ID_3":300805017,"NAME_3":"Saba","NL_NAME_3":null,"VARNAME_3":null,"TYPE_3":"Barangay","ENGTYPE_3":"Village","PROVINCE":"Bataan","REGION":"Region III (Central Luzon)","id":"barangay-0300805017","name":"Saba","barangayCode":"0300805017","population":null,"formattedPop":null,"densityCategory":"No data","vulnerabilityRating":"No data","healthRiskLevel":"No data","areaKm2":4.647291,"centerLat":14.851474,"centerLng":120.512632,"geometrySource":"all_barangay-2.csv detailed WKT","geometryMatchMethod":"unique_official_admin_names","boundaryPointCount":179},"geometry":{"type":"MultiPolygon","coordinates":[[[[120.514328,14.85118],[120.515442,14.84978],[120.518608,14.84751],[120.519958,14.8457],[120.521622,14.84396],[120.525238,14.84065],[120.52774,14.83912],[120.529991,14.83742],[120.532661,14.83517],[120.534851,14.83345],[120.537079,14.83187],[120.539673,14.83005],[120.543007,14.82795],[120.545341,14.82642],[120.548561,14.82533],[120.550728,14.82472],[120.552017,14.8244],[120.554352,14.82507],[120.555779,14.82591],[120.557442,14.8265],[120.558792,14.82709],[120.559921,14.82798],[120.562447,14.82986],[120.564209,14.83071],[120.566383,14.83122],[120.568848,14.83138],[120.570969,14.83148],[120.57309,14.83156],[120.575027,14.83146],[120.577232,14.83116],[120.577766,14.83112],[120.578613,14.83028],[120.578888,14.83028],[120.57917,14.83],[120.579437,14.83],[120.580002,14.82945],[120.580002,14.82889],[120.580833,14.82806],[120.580833,14.82778],[120.581108,14.8275],[120.581108,14.82722],[120.581657,14.82667],[120.581657,14.82639],[120.581947,14.82611],[120.581947,14.82583],[120.582222,14.82556],[120.582222,14.82528],[120.582779,14.82472],[120.582779,14.82444],[120.585281,14.82194],[120.585281,14.82111],[120.584999,14.82083],[120.584999,14.82056],[120.584442,14.82],[120.584442,14.81972],[120.584167,14.81944],[120.583893,14.81944],[120.583054,14.81861],[120.583054,14.81833],[120.582497,14.81778],[120.582497,14.8175],[120.582222,14.81722],[120.582222,14.81694],[120.581947,14.81667],[120.581947,14.81611],[120.581657,14.81583],[120.581657,14.81556],[120.581947,14.81528],[120.581947,14.815],[120.580833,14.81389],[120.580559,14.81361],[120.57972,14.81361],[120.579437,14.81389],[120.57917,14.81389],[120.578613,14.81444],[120.578331,14.81444],[120.578056,14.81472],[120.577217,14.81472],[120.576942,14.815],[120.576668,14.815],[120.576393,14.81528],[120.575844,14.81528],[120.575279,14.81583],[120.575279,14.81611],[120.574997,14.81611],[120.574722,14.81639],[120.574402,14.8172],[120.574303,14.81746],[120.574173,14.8175],[120.573624,14.81623],[120.573433,14.81579],[120.573196,14.81571],[120.571777,14.81524],[120.570793,14.8149],[120.569458,14.81469],[120.56707,14.81456],[120.566368,14.81572],[120.565804,14.81627],[120.5644,14.81668],[120.56356,14.81675],[120.562927,14.81716],[120.562927,14.8162],[120.563057,14.81469],[120.562431,14.81421],[120.562363,14.81353],[120.561798,14.81319],[120.561096,14.81332],[120.560387,14.81373],[120.559273,14.81415],[120.558357,14.81463],[120.556953,14.8149],[120.556389,14.81449],[120.556107,14.81306],[120.556389,14.81278],[120.556389,14.81056],[120.555832,14.81],[120.556107,14.81],[120.556389,14.80972],[120.556389,14.80939],[120.55394,14.80941],[120.55394,14.80955],[120.554604,14.81058],[120.555267,14.81346],[120.55529,14.81485],[120.554802,14.81697],[120.552902,14.81692],[120.551964,14.81831],[120.551064,14.81894],[120.548866,14.8191],[120.542557,14.81891],[120.54158,14.81844],[120.540451,14.8176],[120.538589,14.81691],[120.537376,14.81624],[120.534203,14.81685],[120.531197,14.81697],[120.528923,14.81709],[120.527542,14.8176],[120.527031,14.81806],[120.526947,14.81812],[120.524933,14.82181],[120.524971,14.8221],[120.524651,14.82248],[120.523521,14.82346],[120.521622,14.8239],[120.52066,14.82406],[120.519997,14.82441],[120.518959,14.82592],[120.518967,14.82724],[120.518303,14.829],[120.517342,14.83127],[120.51767,14.83219],[120.51757,14.83257],[120.517143,14.83328],[120.516899,14.83422],[120.516907,14.83513],[120.517067,14.83597],[120.51693,14.83658],[120.516747,14.83726],[120.516739,14.83766],[120.517128,14.83833],[120.517906,14.83914],[120.519012,14.84037],[120.519257,14.84154],[120.518723,14.84378],[120.518013,14.84383],[120.517273,14.84392],[120.516991,14.84457],[120.517097,14.84545],[120.51683,14.84572],[120.516434,14.84555],[120.516113,14.84579],[120.51622,14.84663],[120.51609,14.84697],[120.515747,14.84726],[120.515793,14.84796],[120.515587,14.84879],[120.515167,14.84953],[120.514328,14.85118]]]]}},{"type":"Feature","properties":{"ID_0":177,"ISO":"PHL","NAME_0":"Philippines","ID_1":3008,"NAME_1":"Bataan","ID_2":300805,"NAME_2":"Hermosa","ID_3":300805019,"NAME_3":"San Pedro","NL_NAME_3":null,"VARNAME_3":null,"TYPE_3":"Barangay","ENGTYPE_3":"Village","PROVINCE":"Bataan","REGION":"Region III (Central Luzon)","id":"barangay-0300805019","name":"San Pedro","barangayCode":"0300805019","population":null,"formattedPop":null,"densityCategory":"No data","vulnerabilityRating":"No data","healthRiskLevel":"No data","areaKm2":0.915618,"centerLat":14.823831,"centerLng":120.502573,"geometrySource":"all_barangay-2.csv detailed WKT","geometryMatchMethod":"unique_official_admin_names","boundaryPointCount":27},"geometry":{"type":"MultiPolygon","coordinates":[[[[120.513878,14.82617],[120.512802,14.82216],[120.513123,14.82169],[120.511703,14.82096],[120.510529,14.81996],[120.50782,14.81974],[120.507637,14.81987],[120.505814,14.82037],[120.503166,14.82123],[120.501717,14.82145],[120.503326,14.82834],[120.504272,14.8282],[120.504623,14.82791],[120.505493,14.82748],[120.506493,14.82732],[120.507019,14.82742],[120.507568,14.82769],[120.508247,14.82805],[120.509102,14.82823],[120.510109,14.82811],[120.510551,14.82799],[120.510788,14.82792],[120.510887,14.82777],[120.510986,14.82754],[120.512207,14.82686],[120.512398,14.82677],[120.513878,14.82617]]]]}},{"type":"Feature","properties":{"ID_0":177,"ISO":"PHL","NAME_0":"Philippines","ID_1":3008,"NAME_1":"Bataan","ID_2":300805,"NAME_2":"Hermosa","ID_3":300805020,"NAME_3":"Santo Cristo","NL_NAME_3":null,"VARNAME_3":null,"TYPE_3":"Barangay","ENGTYPE_3":"Village","PROVINCE":"Bataan","REGION":"Region III (Central Luzon)","id":"barangay-0300805020","name":"Santo Cristo","barangayCode":"0300805020","population":null,"formattedPop":null,"densityCategory":"No data","vulnerabilityRating":"No data","healthRiskLevel":"No data","areaKm2":0.66695,"centerLat":14.826911,"centerLng":120.500386,"geometrySource":"all_barangay-2.csv detailed WKT","geometryMatchMethod":"unique_official_admin_names","boundaryPointCount":8},"geometry":{"type":"MultiPolygon","coordinates":[[[[120.510529,14.81996],[120.513153,14.81601],[120.507187,14.81391],[120.507027,14.81403],[120.506264,14.81469],[120.504387,14.81593],[120.50782,14.81974],[120.510529,14.81996]]]]}},{"type":"Feature","properties":{"ID_0":177,"ISO":"PHL","NAME_0":"Philippines","ID_1":3008,"NAME_1":"Bataan","ID_2":300805,"NAME_2":"Hermosa","ID_3":300805021,"NAME_3":"Sumalo","NL_NAME_3":null,"VARNAME_3":null,"TYPE_3":"Barangay","ENGTYPE_3":"Village","PROVINCE":"Bataan","REGION":"Region III (Central Luzon)","id":"barangay-0300805021","name":"Sumalo","barangayCode":"0300805021","population":null,"formattedPop":null,"densityCategory":"No data","vulnerabilityRating":"No data","healthRiskLevel":"No data","areaKm2":1.789813,"centerLat":14.811341,"centerLng":120.4634,"geometrySource":"all_barangay-2.csv detailed WKT","geometryMatchMethod":"unique_official_admin_names","boundaryPointCount":70},"geometry":{"type":"MultiPolygon","coordinates":[[[[120.479797,14.82079],[120.48011,14.82032],[120.481461,14.82017],[120.483513,14.81962],[120.485733,14.81894],[120.488403,14.81803],[120.490067,14.81723],[120.492233,14.8177],[120.494247,14.81574],[120.495537,14.81577],[120.497192,14.81614],[120.499947,14.81726],[120.501137,14.81785],[120.502098,14.81691],[120.502602,14.8167],[120.504387,14.81593],[120.506264,14.81469],[120.507027,14.81403],[120.507187,14.81391],[120.506317,14.81235],[120.505997,14.81127],[120.506577,14.80964],[120.507736,14.80711],[120.509537,14.8032],[120.509354,14.80316],[120.507927,14.80248],[120.506119,14.80172],[120.505463,14.80134],[120.504578,14.8014],[120.503616,14.80178],[120.484558,14.79563],[120.473732,14.79219],[120.460373,14.79364],[120.450401,14.78845],[120.450722,14.78981],[120.451561,14.79064],[120.452583,14.79148],[120.453346,14.7917],[120.453667,14.79138],[120.454536,14.79209],[120.455254,14.79327],[120.455948,14.79356],[120.456146,14.79388],[120.456467,14.79447],[120.457352,14.79512],[120.457748,14.79602],[120.458977,14.79662],[120.460136,14.79692],[120.46003,14.79739],[120.459862,14.79866],[120.460152,14.79983],[120.460892,14.80069],[120.46125,14.80247],[120.461479,14.80362],[120.461899,14.80445],[120.462883,14.80522],[120.462952,14.80596],[120.463074,14.80667],[120.464073,14.80789],[120.464233,14.80888],[120.46376,14.81017],[120.463676,14.81188],[120.466003,14.81407],[120.468437,14.81514],[120.469742,14.8162],[120.469757,14.81784],[120.468811,14.81906],[120.468361,14.82003],[120.470161,14.82169],[120.479797,14.82079]]]]}},{"type":"Feature","properties":{"ID_0":177,"ISO":"PHL","NAME_0":"Philippines","ID_1":3008,"NAME_1":"Bataan","ID_2":300805,"NAME_2":"Hermosa","ID_3":300805023,"NAME_3":"Tipo","NL_NAME_3":null,"VARNAME_3":null,"TYPE_3":"Barangay","ENGTYPE_3":"Village","PROVINCE":"Bataan","REGION":"Region III (Central Luzon)","id":"barangay-0300805023","name":"Tipo","barangayCode":"0300805023","population":null,"formattedPop":null,"densityCategory":"No data","vulnerabilityRating":"No data","healthRiskLevel":"No data","areaKm2":20.086233,"centerLat":14.819717,"centerLng":120.360166,"geometrySource":"all_barangay-2.csv detailed WKT","geometryMatchMethod":"unique_official_admin_names","boundaryPointCount":45},"geometry":{"type":"MultiPolygon","coordinates":[[[[120.401489,14.83333],[120.398651,14.82934],[120.372391,14.77899],[120.351242,14.82911],[120.357979,14.829],[120.35965,14.82934],[120.361397,14.82985],[120.362267,14.83079],[120.363922,14.83242],[120.365257,14.833],[120.366577,14.83333],[120.367882,14.83344],[120.368607,14.8343],[120.369102,14.8356],[120.370003,14.837],[120.371201,14.83775],[120.372742,14.83829],[120.373703,14.83941],[120.37471,14.8394],[120.375092,14.83876],[120.37574,14.83792],[120.376747,14.83748],[120.378021,14.83767],[120.379303,14.83799],[120.380966,14.83822],[120.382843,14.83888],[120.384537,14.8386],[120.385223,14.83797],[120.386543,14.83725],[120.388359,14.83674],[120.389374,14.8363],[120.38942,14.836],[120.389153,14.83527],[120.389252,14.83428],[120.389908,14.83333],[120.391144,14.83269],[120.392502,14.83302],[120.393173,14.83416],[120.394341,14.83546],[120.395691,14.83531],[120.396942,14.83475],[120.398323,14.83406],[120.399147,14.83354],[120.400307,14.83302],[120.401489,14.83333]]]]}},{"type":"Feature","properties":{"ID_0":177,"ISO":"PHL","NAME_0":"Philippines","ID_1":3008,"NAME_1":"Bataan","ID_2":300805,"NAME_2":"Hermosa","ID_3":300805024,"NAME_3":"Judge Roman Cruz Sr.","NL_NAME_3":null,"VARNAME_3":null,"TYPE_3":"Barangay","ENGTYPE_3":"Village","PROVINCE":"Bataan","REGION":"Region III (Central Luzon)","id":"barangay-0300805024","name":"Judge Roman Cruz Sr.","barangayCode":"0300805024","population":null,"formattedPop":null,"densityCategory":"No data","vulnerabilityRating":"No data","healthRiskLevel":"No data","areaKm2":2.119544,"centerLat":14.832482,"centerLng":120.484933,"geometrySource":"all_barangay-2.csv detailed WKT","geometryMatchMethod":"unique_official_admin_names","boundaryPointCount":22},"geometry":{"type":"MultiPolygon","coordinates":[[[[120.491241,14.82716],[120.494324,14.82294],[120.496269,14.81954],[120.492233,14.8177],[120.490067,14.81723],[120.488403,14.81803],[120.485733,14.81894],[120.483513,14.81962],[120.481461,14.82017],[120.48011,14.82032],[120.479797,14.82079],[120.479767,14.82085],[120.481033,14.82151],[120.482384,14.82213],[120.483887,14.82364],[120.484741,14.82411],[120.485336,14.82381],[120.486313,14.82379],[120.487198,14.8247],[120.488426,14.82628],[120.490669,14.82698],[120.491241,14.82716]]]]}},{"type":"Feature","properties":{"ID_0":177,"ISO":"PHL","NAME_0":"Philippines","ID_1":3008,"NAME_1":"Bataan","ID_2":300805,"NAME_2":"Hermosa","ID_3":300805025,"NAME_3":"Sacrifice Valley","NL_NAME_3":null,"VARNAME_3":null,"TYPE_3":"Barangay","ENGTYPE_3":"Village","PROVINCE":"Bataan","REGION":"Region III (Central Luzon)","id":"barangay-0300805025","name":"Sacrifice Valley","barangayCode":"0300805025","population":null,"formattedPop":null,"densityCategory":"No data","vulnerabilityRating":"No data","healthRiskLevel":"No data","areaKm2":1.802294,"centerLat":14.844242,"centerLng":120.384798,"geometrySource":"all_barangay-2.csv detailed WKT","geometryMatchMethod":"unique_official_admin_names","boundaryPointCount":16},"geometry":{"type":"MultiPolygon","coordinates":[[[[120.415443,14.83345],[120.415863,14.83426],[120.413857,14.8259],[120.398651,14.82934],[120.401489,14.83333],[120.402779,14.83307],[120.403763,14.83241],[120.405312,14.83247],[120.407318,14.83233],[120.408157,14.83172],[120.409348,14.83155],[120.410667,14.83197],[120.411743,14.83232],[120.413048,14.83227],[120.414482,14.83248],[120.415443,14.83345]]]]}}]}
