{"type":"FeatureCollection","features":[{"type":"Feature","properties":{"ID_0":177,"ISO":"PHL","NAME_0":"Philippines","ID_1":8037,"NAME_1":"Leyte","ID_2":803702,"NAME_2":"Alangalang","ID_3":803702001,"NAME_3":"Aslum","NL_NAME_3":null,"VARNAME_3":null,"TYPE_3":"Barangay","ENGTYPE_3":"Village","PROVINCE":"Leyte","REGION":"Region VIII (Eastern Visayas)","id":"barangay-0803702001","name":"Aslum","barangayCode":"0803702001","population":null,"formattedPop":null,"densityCategory":"No data","vulnerabilityRating":"No data","healthRiskLevel":"No data","areaKm2":1.364838,"centerLat":11.168666,"centerLng":124.886602,"geometrySource":"all_barangay-2.csv detailed WKT","geometryMatchMethod":"unique_official_admin_names","boundaryPointCount":17},"geometry":{"type":"MultiPolygon","coordinates":[[[[124.891533,11.17386],[124.894981,11.1714],[124.891357,11.16203],[124.890038,11.15675],[124.889374,11.15487],[124.890167,11.15333],[124.883293,11.15253],[124.872414,11.15137],[124.873657,11.15791],[124.875038,11.16143],[124.877136,11.16497],[124.879257,11.16678],[124.881233,11.16852],[124.883423,11.17027],[124.885658,11.17187],[124.888947,11.17276],[124.891533,11.17386]]]]}},{"type":"Feature","properties":{"ID_0":177,"ISO":"PHL","NAME_0":"Philippines","ID_1":8037,"NAME_1":"Leyte","ID_2":803702,"NAME_2":"Alangalang","ID_3":803702002,"NAME_3":"Astorga","NL_NAME_3":null,"VARNAME_3":null,"TYPE_3":"Barangay","ENGTYPE_3":"Village","PROVINCE":"Leyte","REGION":"Region VIII (Eastern Visayas)","id":"barangay-0803702002","name":"Astorga","barangayCode":"0803702002","population":null,"formattedPop":null,"densityCategory":"No data","vulnerabilityRating":"No data","healthRiskLevel":"No data","areaKm2":4.536305,"centerLat":11.155484,"centerLng":124.859164,"geometrySource":"all_barangay-2.csv detailed WKT","geometryMatchMethod":"unique_official_admin_names","boundaryPointCount":12},"geometry":{"type":"MultiPolygon","coordinates":[[[[124.877136,11.16497],[124.875038,11.16143],[124.873657,11.15791],[124.872414,11.15137],[124.861252,11.14984],[124.851448,11.1483],[124.849663,11.14765],[124.850067,11.16295],[124.856277,11.16452],[124.862152,11.16591],[124.869408,11.16657],[124.877136,11.16497]]]]}},{"type":"Feature","properties":{"ID_0":177,"ISO":"PHL","NAME_0":"Philippines","ID_1":8037,"NAME_1":"Leyte","ID_2":803702,"NAME_2":"Alangalang","ID_3":803702004,"NAME_3":"Bato","NL_NAME_3":null,"VARNAME_3":null,"TYPE_3":"Barangay","ENGTYPE_3":"Village","PROVINCE":"Leyte","REGION":"Region VIII (Eastern Visayas)","id":"barangay-0803702004","name":"Bato","barangayCode":"0803702004","population":null,"formattedPop":null,"densityCategory":"No data","vulnerabilityRating":"No data","healthRiskLevel":"No data","areaKm2":1.096944,"centerLat":11.149498,"centerLng":124.845293,"geometrySource":"all_barangay-2.csv detailed WKT","geometryMatchMethod":"unique_official_admin_names","boundaryPointCount":9},"geometry":{"type":"MultiPolygon","coordinates":[[[[124.847481,11.16414],[124.850067,11.16295],[124.849663,11.14765],[124.837753,11.14511],[124.837143,11.15094],[124.836807,11.15565],[124.837463,11.16141],[124.842552,11.16494],[124.847481,11.16414]]]]}},{"type":"Feature","properties":{"ID_0":177,"ISO":"PHL","NAME_0":"Philippines","ID_1":8037,"NAME_1":"Leyte","ID_2":803702,"NAME_2":"Alangalang","ID_3":803702005,"NAME_3":"Binongto-an","NL_NAME_3":null,"VARNAME_3":null,"TYPE_3":"Barangay","ENGTYPE_3":"Village","PROVINCE":"Leyte","REGION":"Region VIII (Eastern Visayas)","id":"barangay-0803702005","name":"Binongto-an","barangayCode":"0803702005","population":null,"formattedPop":null,"densityCategory":"No data","vulnerabilityRating":"No data","healthRiskLevel":"No data","areaKm2":4.774547,"centerLat":11.211975,"centerLng":124.832038,"geometrySource":"all_barangay-2.csv detailed WKT","geometryMatchMethod":"unique_official_admin_names","boundaryPointCount":9},"geometry":{"type":"MultiPolygon","coordinates":[[[[124.836456,11.22703],[124.837753,11.22211],[124.838943,11.21887],[124.840492,11.21607],[124.842438,11.21489],[124.839722,11.21157],[124.837402,11.20891],[124.831337,11.21509],[124.836456,11.22703]]]]}},{"type":"Feature","properties":{"ID_0":177,"ISO":"PHL","NAME_0":"Philippines","ID_1":8037,"NAME_1":"Leyte","ID_2":803702,"NAME_2":"Alangalang","ID_3":803702006,"NAME_3":"Binotong","NL_NAME_3":null,"VARNAME_3":null,"TYPE_3":"Barangay","ENGTYPE_3":"Village","PROVINCE":"Leyte","REGION":"Region VIII (Eastern Visayas)","id":"barangay-0803702006","name":"Binotong","barangayCode":"0803702006","population":null,"formattedPop":null,"densityCategory":"No data","vulnerabilityRating":"No data","healthRiskLevel":"No data","areaKm2":1.618853,"centerLat":11.241581,"centerLng":124.823037,"geometrySource":"all_barangay-2.csv detailed WKT","geometryMatchMethod":"unique_official_admin_names","boundaryPointCount":17},"geometry":{"type":"MultiPolygon","coordinates":[[[[124.840988,11.24818],[124.839798,11.24582],[124.839447,11.24159],[124.839401,11.23995],[124.839272,11.23388],[124.834839,11.23346],[124.827499,11.23355],[124.819473,11.23305],[124.817886,11.23878],[124.820602,11.24366],[124.822777,11.24778],[124.828796,11.25406],[124.828857,11.25146],[124.830704,11.24767],[124.833511,11.24577],[124.836143,11.24665],[124.840988,11.24818]]]]}},{"type":"Feature","properties":{"ID_0":177,"ISO":"PHL","NAME_0":"Philippines","ID_1":8037,"NAME_1":"Leyte","ID_2":803702,"NAME_2":"Alangalang","ID_3":803702007,"NAME_3":"Bobonon","NL_NAME_3":null,"VARNAME_3":null,"TYPE_3":"Barangay","ENGTYPE_3":"Village","PROVINCE":"Leyte","REGION":"Region VIII (Eastern Visayas)","id":"barangay-0803702007","name":"Bobonon","barangayCode":"0803702007","population":null,"formattedPop":null,"densityCategory":"No data","vulnerabilityRating":"No data","healthRiskLevel":"No data","areaKm2":3.012155,"centerLat":11.19447,"centerLng":124.909757,"geometrySource":"all_barangay-2.csv detailed WKT","geometryMatchMethod":"unique_official_admin_names","boundaryPointCount":15},"geometry":{"type":"MultiPolygon","coordinates":[[[[124.913071,11.20404],[124.910172,11.19809],[124.906677,11.19161],[124.903923,11.18828],[124.898582,11.18825],[124.896538,11.1881],[124.894569,11.1891],[124.89312,11.19151],[124.889671,11.19085],[124.891472,11.1956],[124.893997,11.20066],[124.89653,11.20411],[124.898613,11.20643],[124.902634,11.20986],[124.913071,11.20404]]]]}},{"type":"Feature","properties":{"ID_0":177,"ISO":"PHL","NAME_0":"Philippines","ID_1":8037,"NAME_1":"Leyte","ID_2":803702,"NAME_2":"Alangalang","ID_3":803702008,"NAME_3":"Borseth","NL_NAME_3":null,"VARNAME_3":null,"TYPE_3":"Barangay","ENGTYPE_3":"Village","PROVINCE":"Leyte","REGION":"Region VIII (Eastern Visayas)","id":"barangay-0803702008","name":"Borseth","barangayCode":"0803702008","population":null,"formattedPop":null,"densityCategory":"No data","vulnerabilityRating":"No data","healthRiskLevel":"No data","areaKm2":5.124598,"centerLat":11.255792,"centerLng":124.813302,"geometrySource":"all_barangay-2.csv detailed WKT","geometryMatchMethod":"unique_official_admin_names","boundaryPointCount":13},"geometry":{"type":"MultiPolygon","coordinates":[[[[124.820236,11.26531],[124.835907,11.2649],[124.837578,11.26251],[124.837509,11.26062],[124.828796,11.25406],[124.82737,11.25672],[124.825073,11.2591],[124.821251,11.26115],[124.816963,11.26128],[124.811943,11.26106],[124.797569,11.26092],[124.796654,11.26539],[124.820236,11.26531]]]]}},{"type":"Feature","properties":{"ID_0":177,"ISO":"PHL","NAME_0":"Philippines","ID_1":8037,"NAME_1":"Leyte","ID_2":803702,"NAME_2":"Alangalang","ID_3":803702009,"NAME_3":"Buenavista","NL_NAME_3":null,"VARNAME_3":null,"TYPE_3":"Barangay","ENGTYPE_3":"Village","PROVINCE":"Leyte","REGION":"Region VIII (Eastern Visayas)","id":"barangay-0803702009","name":"Buenavista","barangayCode":"0803702009","population":null,"formattedPop":null,"densityCategory":"No data","vulnerabilityRating":"No data","healthRiskLevel":"No data","areaKm2":2.626099,"centerLat":11.182661,"centerLng":124.858313,"geometrySource":"all_barangay-2.csv detailed WKT","geometryMatchMethod":"unique_official_admin_names","boundaryPointCount":13},"geometry":{"type":"MultiPolygon","coordinates":[[[[124.875587,11.1977],[124.877823,11.19378],[124.852867,11.17544],[124.849716,11.17645],[124.849663,11.18531],[124.849854,11.18481],[124.851471,11.1857],[124.856102,11.18733],[124.8591,11.1887],[124.862991,11.19098],[124.865738,11.19266],[124.870277,11.19465],[124.875587,11.1977]]]]}},{"type":"Feature","properties":{"ID_0":177,"ISO":"PHL","NAME_0":"Philippines","ID_1":8037,"NAME_1":"Leyte","ID_2":803702,"NAME_2":"Alangalang","ID_3":803702010,"NAME_3":"Bugho","NL_NAME_3":null,"VARNAME_3":null,"TYPE_3":"Barangay","ENGTYPE_3":"Village","PROVINCE":"Leyte","REGION":"Region VIII (Eastern Visayas)","id":"barangay-0803702010","name":"Bugho","barangayCode":"0803702010","population":null,"formattedPop":null,"densityCategory":"No data","vulnerabilityRating":"No data","healthRiskLevel":"No data","areaKm2":4.437819,"centerLat":11.254721,"centerLng":124.865778,"geometrySource":"all_barangay-2.csv detailed WKT","geometryMatchMethod":"unique_official_admin_names","boundaryPointCount":14},"geometry":{"type":"MultiPolygon","coordinates":[[[[124.879463,11.27698],[124.901657,11.24628],[124.89402,11.24045],[124.887756,11.23935],[124.883476,11.23884],[124.880867,11.23854],[124.87748,11.24088],[124.874893,11.24154],[124.866547,11.24042],[124.860786,11.23932],[124.861504,11.24937],[124.863052,11.26885],[124.865387,11.2702],[124.879463,11.27698]]]]}},{"type":"Feature","properties":{"ID_0":177,"ISO":"PHL","NAME_0":"Philippines","ID_1":8037,"NAME_1":"Leyte","ID_2":803702,"NAME_2":"Alangalang","ID_3":803702011,"NAME_3":"Buri","NL_NAME_3":null,"VARNAME_3":null,"TYPE_3":"Barangay","ENGTYPE_3":"Village","PROVINCE":"Leyte","REGION":"Region VIII (Eastern Visayas)","id":"barangay-0803702011","name":"Buri","barangayCode":"0803702011","population":null,"formattedPop":null,"densityCategory":"No data","vulnerabilityRating":"No data","healthRiskLevel":"No data","areaKm2":0.862298,"centerLat":11.180681,"centerLng":124.882588,"geometrySource":"all_barangay-2.csv detailed WKT","geometryMatchMethod":"unique_official_admin_names","boundaryPointCount":8},"geometry":{"type":"MultiPolygon","coordinates":[[[[124.875671,11.18516],[124.879097,11.19],[124.88604,11.18396],[124.885559,11.18108],[124.885452,11.17743],[124.885658,11.17187],[124.883423,11.17027],[124.875671,11.18516]]]]}},{"type":"Feature","properties":{"ID_0":177,"ISO":"PHL","NAME_0":"Philippines","ID_1":8037,"NAME_1":"Leyte","ID_2":803702,"NAME_2":"Alangalang","ID_3":803702012,"NAME_3":"Cabadsan","NL_NAME_3":null,"VARNAME_3":null,"TYPE_3":"Barangay","ENGTYPE_3":"Village","PROVINCE":"Leyte","REGION":"Region VIII (Eastern Visayas)","id":"barangay-0803702012","name":"Cabadsan","barangayCode":"0803702012","population":null,"formattedPop":null,"densityCategory":"No data","vulnerabilityRating":"No data","healthRiskLevel":"No data","areaKm2":4.032189,"centerLat":11.250671,"centerLng":124.834728,"geometrySource":"all_barangay-2.csv detailed WKT","geometryMatchMethod":"unique_official_admin_names","boundaryPointCount":10},"geometry":{"type":"MultiPolygon","coordinates":[[[[124.828796,11.25406],[124.837509,11.26062],[124.843727,11.25135],[124.843063,11.25004],[124.840988,11.24818],[124.836143,11.24665],[124.833511,11.24577],[124.830704,11.24767],[124.828857,11.25146],[124.828796,11.25406]]]]}},{"type":"Feature","properties":{"ID_0":177,"ISO":"PHL","NAME_0":"Philippines","ID_1":8037,"NAME_1":"Leyte","ID_2":803702,"NAME_2":"Alangalang","ID_3":803702013,"NAME_3":"Calaasan","NL_NAME_3":null,"VARNAME_3":null,"TYPE_3":"Barangay","ENGTYPE_3":"Village","PROVINCE":"Leyte","REGION":"Region VIII (Eastern Visayas)","id":"barangay-0803702013","name":"Calaasan","barangayCode":"0803702013","population":null,"formattedPop":null,"densityCategory":"No data","vulnerabilityRating":"No data","healthRiskLevel":"No data","areaKm2":1.570835,"centerLat":11.23887,"centerLng":124.861673,"geometrySource":"all_barangay-2.csv detailed WKT","geometryMatchMethod":"unique_official_admin_names","boundaryPointCount":11},"geometry":{"type":"MultiPolygon","coordinates":[[[[124.880867,11.23854],[124.879761,11.22737],[124.87561,11.22915],[124.869293,11.23067],[124.862923,11.2313],[124.859154,11.23063],[124.860786,11.23932],[124.866547,11.24042],[124.874893,11.24154],[124.87748,11.24088],[124.880867,11.23854]]]]}},{"type":"Feature","properties":{"ID_0":177,"ISO":"PHL","NAME_0":"Philippines","ID_1":8037,"NAME_1":"Leyte","ID_2":803702,"NAME_2":"Alangalang","ID_3":803702014,"NAME_3":"Cambahanon","NL_NAME_3":null,"VARNAME_3":null,"TYPE_3":"Barangay","ENGTYPE_3":"Village","PROVINCE":"Leyte","REGION":"Region VIII (Eastern Visayas)","id":"barangay-0803702014","name":"Cambahanon","barangayCode":"0803702014","population":null,"formattedPop":null,"densityCategory":"No data","vulnerabilityRating":"No data","healthRiskLevel":"No data","areaKm2":3.001014,"centerLat":11.159233,"centerLng":124.877264,"geometrySource":"all_barangay-2.csv detailed WKT","geometryMatchMethod":"unique_official_admin_names","boundaryPointCount":14},"geometry":{"type":"MultiPolygon","coordinates":[[[[124.879257,11.16678],[124.877136,11.16497],[124.869408,11.16657],[124.862152,11.16591],[124.856277,11.16452],[124.850067,11.16295],[124.847481,11.16414],[124.848907,11.16634],[124.852478,11.16846],[124.860153,11.17094],[124.86615,11.17122],[124.870163,11.1713],[124.877007,11.17059],[124.879257,11.16678]]]]}},{"type":"Feature","properties":{"ID_0":177,"ISO":"PHL","NAME_0":"Philippines","ID_1":8037,"NAME_1":"Leyte","ID_2":803702,"NAME_2":"Alangalang","ID_3":803702015,"NAME_3":"Cambolao","NL_NAME_3":null,"VARNAME_3":null,"TYPE_3":"Barangay","ENGTYPE_3":"Village","PROVINCE":"Leyte","REGION":"Region VIII (Eastern Visayas)","id":"barangay-0803702015","name":"Cambolao","barangayCode":"0803702015","population":null,"formattedPop":null,"densityCategory":"No data","vulnerabilityRating":"No data","healthRiskLevel":"No data","areaKm2":1.31347,"centerLat":11.17276,"centerLng":124.865207,"geometrySource":"all_barangay-2.csv detailed WKT","geometryMatchMethod":"unique_official_admin_names","boundaryPointCount":17},"geometry":{"type":"MultiPolygon","coordinates":[[[[124.852867,11.17544],[124.857262,11.17392],[124.862549,11.17462],[124.871017,11.17604],[124.874046,11.17278],[124.877007,11.17059],[124.870163,11.1713],[124.86615,11.17122],[124.860153,11.17094],[124.852478,11.16846],[124.848907,11.16634],[124.847481,11.16414],[124.842552,11.16494],[124.837463,11.16141],[124.836418,11.16914],[124.849716,11.17645],[124.852867,11.17544]]]]}},{"type":"Feature","properties":{"ID_0":177,"ISO":"PHL","NAME_0":"Philippines","ID_1":8037,"NAME_1":"Leyte","ID_2":803702,"NAME_2":"Alangalang","ID_3":803702016,"NAME_3":"Canvertudes","NL_NAME_3":null,"VARNAME_3":null,"TYPE_3":"Barangay","ENGTYPE_3":"Village","PROVINCE":"Leyte","REGION":"Region VIII (Eastern Visayas)","id":"barangay-0803702016","name":"Canvertudes","barangayCode":"0803702016","population":null,"formattedPop":null,"densityCategory":"No data","vulnerabilityRating":"No data","healthRiskLevel":"No data","areaKm2":1.407507,"centerLat":11.181761,"centerLng":124.873811,"geometrySource":"all_barangay-2.csv detailed WKT","geometryMatchMethod":"unique_official_admin_names","boundaryPointCount":6},"geometry":{"type":"MultiPolygon","coordinates":[[[[124.882698,11.19339],[124.888519,11.18931],[124.88739,11.18705],[124.88604,11.18396],[124.879097,11.19],[124.882698,11.19339]]]]}},{"type":"Feature","properties":{"ID_0":177,"ISO":"PHL","NAME_0":"Philippines","ID_1":8037,"NAME_1":"Leyte","ID_2":803702,"NAME_2":"Alangalang","ID_3":803702017,"NAME_3":"Capiz","NL_NAME_3":null,"VARNAME_3":null,"TYPE_3":"Barangay","ENGTYPE_3":"Village","PROVINCE":"Leyte","REGION":"Region VIII (Eastern Visayas)","id":"barangay-0803702017","name":"Capiz","barangayCode":"0803702017","population":null,"formattedPop":null,"densityCategory":"No data","vulnerabilityRating":"No data","healthRiskLevel":"No data","areaKm2":4.612409,"centerLat":11.185747,"centerLng":124.842126,"geometrySource":"all_barangay-2.csv detailed WKT","geometryMatchMethod":"unique_official_admin_names","boundaryPointCount":12},"geometry":{"type":"MultiPolygon","coordinates":[[[[124.856888,11.20466],[124.857018,11.20256],[124.857964,11.19788],[124.8591,11.1887],[124.856102,11.18733],[124.851471,11.1857],[124.849854,11.18481],[124.849663,11.18531],[124.84848,11.18959],[124.848106,11.1988],[124.847511,11.20175],[124.856888,11.20466]]]]}},{"type":"Feature","properties":{"ID_0":177,"ISO":"PHL","NAME_0":"Philippines","ID_1":8037,"NAME_1":"Leyte","ID_2":803702,"NAME_2":"Alangalang","ID_3":803702018,"NAME_3":"Cavite","NL_NAME_3":null,"VARNAME_3":null,"TYPE_3":"Barangay","ENGTYPE_3":"Village","PROVINCE":"Leyte","REGION":"Region VIII (Eastern Visayas)","id":"barangay-0803702018","name":"Cavite","barangayCode":"0803702018","population":null,"formattedPop":null,"densityCategory":"No data","vulnerabilityRating":"No data","healthRiskLevel":"No data","areaKm2":2.424716,"centerLat":11.221668,"centerLng":124.81985,"geometrySource":"all_barangay-2.csv detailed WKT","geometryMatchMethod":"unique_official_admin_names","boundaryPointCount":7},"geometry":{"type":"MultiPolygon","coordinates":[[[[124.82708,11.22122],[124.833191,11.22673],[124.835182,11.22734],[124.836456,11.22703],[124.831337,11.21509],[124.823013,11.2171],[124.82708,11.22122]]]]}},{"type":"Feature","properties":{"ID_0":177,"ISO":"PHL","NAME_0":"Philippines","ID_1":8037,"NAME_1":"Leyte","ID_2":803702,"NAME_2":"Alangalang","ID_3":803702019,"NAME_3":"Cogon","NL_NAME_3":null,"VARNAME_3":null,"TYPE_3":"Barangay","ENGTYPE_3":"Village","PROVINCE":"Leyte","REGION":"Region VIII (Eastern Visayas)","id":"barangay-0803702019","name":"Cogon","barangayCode":"0803702019","population":null,"formattedPop":null,"densityCategory":"No data","vulnerabilityRating":"No data","healthRiskLevel":"No data","areaKm2":1.514715,"centerLat":11.180269,"centerLng":124.893419,"geometrySource":"all_barangay-2.csv detailed WKT","geometryMatchMethod":"unique_official_admin_names","boundaryPointCount":14},"geometry":{"type":"MultiPolygon","coordinates":[[[[124.888519,11.18931],[124.889671,11.19085],[124.89312,11.19151],[124.894569,11.1891],[124.895027,11.18651],[124.894623,11.1826],[124.891533,11.17386],[124.888947,11.17276],[124.885658,11.17187],[124.885452,11.17743],[124.885559,11.18108],[124.88604,11.18396],[124.88739,11.18705],[124.888519,11.18931]]]]}},{"type":"Feature","properties":{"ID_0":177,"ISO":"PHL","NAME_0":"Philippines","ID_1":8037,"NAME_1":"Leyte","ID_2":803702,"NAME_2":"Alangalang","ID_3":803702020,"NAME_3":"Dapdap","NL_NAME_3":null,"VARNAME_3":null,"TYPE_3":"Barangay","ENGTYPE_3":"Village","PROVINCE":"Leyte","REGION":"Region VIII (Eastern Visayas)","id":"barangay-0803702020","name":"Dapdap","barangayCode":"0803702020","population":null,"formattedPop":null,"densityCategory":"No data","vulnerabilityRating":"No data","healthRiskLevel":"No data","areaKm2":2.128985,"centerLat":11.193172,"centerLng":124.877014,"geometrySource":"all_barangay-2.csv detailed WKT","geometryMatchMethod":"unique_official_admin_names","boundaryPointCount":12},"geometry":{"type":"MultiPolygon","coordinates":[[[[124.886833,11.2109],[124.88974,11.20557],[124.889214,11.19888],[124.882698,11.19339],[124.879097,11.19],[124.877823,11.19378],[124.875587,11.1977],[124.874336,11.20166],[124.874931,11.20329],[124.878479,11.20956],[124.881973,11.21018],[124.886833,11.2109]]]]}},{"type":"Feature","properties":{"ID_0":177,"ISO":"PHL","NAME_0":"Philippines","ID_1":8037,"NAME_1":"Leyte","ID_2":803702,"NAME_2":"Alangalang","ID_3":803702021,"NAME_3":"Divisoria","NL_NAME_3":null,"VARNAME_3":null,"TYPE_3":"Barangay","ENGTYPE_3":"Village","PROVINCE":"Leyte","REGION":"Region VIII (Eastern Visayas)","id":"barangay-0803702021","name":"Divisoria","barangayCode":"0803702021","population":null,"formattedPop":null,"densityCategory":"No data","vulnerabilityRating":"No data","healthRiskLevel":"No data","areaKm2":3.469122,"centerLat":11.244336,"centerLng":124.932086,"geometrySource":"all_barangay-2.csv detailed WKT","geometryMatchMethod":"unique_official_admin_names","boundaryPointCount":10},"geometry":{"type":"MultiPolygon","coordinates":[[[[124.880867,11.23854],[124.883476,11.23884],[124.887756,11.23935],[124.89402,11.24045],[124.898247,11.23405],[124.890083,11.23095],[124.889633,11.22473],[124.8853,11.2249],[124.879761,11.22737],[124.880867,11.23854]]]]}},{"type":"Feature","properties":{"ID_0":177,"ISO":"PHL","NAME_0":"Philippines","ID_1":8037,"NAME_1":"Leyte","ID_2":803702,"NAME_2":"Alangalang","ID_3":803702022,"NAME_3":"Ekiran","NL_NAME_3":null,"VARNAME_3":null,"TYPE_3":"Barangay","ENGTYPE_3":"Village","PROVINCE":"Leyte","REGION":"Region VIII (Eastern Visayas)","id":"barangay-0803702022","name":"Ekiran","barangayCode":"0803702022","population":null,"formattedPop":null,"densityCategory":"No data","vulnerabilityRating":"No data","healthRiskLevel":"No data","areaKm2":2.042457,"centerLat":11.255809,"centerLng":124.851573,"geometrySource":"all_barangay-2.csv detailed WKT","geometryMatchMethod":"unique_official_admin_names","boundaryPointCount":10},"geometry":{"type":"MultiPolygon","coordinates":[[[[124.863052,11.26885],[124.861504,11.24937],[124.849487,11.24834],[124.843727,11.25135],[124.837509,11.26062],[124.837578,11.26251],[124.835907,11.2649],[124.855186,11.26481],[124.857399,11.26634],[124.863052,11.26885]]]]}},{"type":"Feature","properties":{"ID_0":177,"ISO":"PHL","NAME_0":"Philippines","ID_1":8037,"NAME_1":"Leyte","ID_2":803702,"NAME_2":"Alangalang","ID_3":803702023,"NAME_3":"Hinapolan","NL_NAME_3":null,"VARNAME_3":null,"TYPE_3":"Barangay","ENGTYPE_3":"Village","PROVINCE":"Leyte","REGION":"Region VIII (Eastern Visayas)","id":"barangay-0803702023","name":"Hinapolan","barangayCode":"0803702023","population":null,"formattedPop":null,"densityCategory":"No data","vulnerabilityRating":"No data","healthRiskLevel":"No data","areaKm2":1.465195,"centerLat":11.174997,"centerLng":124.898816,"geometrySource":"all_barangay-2.csv detailed WKT","geometryMatchMethod":"unique_official_admin_names","boundaryPointCount":11},"geometry":{"type":"MultiPolygon","coordinates":[[[[124.894569,11.1891],[124.896538,11.1881],[124.898582,11.18825],[124.903923,11.18828],[124.902206,11.18451],[124.897034,11.17654],[124.894981,11.1714],[124.891533,11.17386],[124.894623,11.1826],[124.895027,11.18651],[124.894569,11.1891]]]]}},{"type":"Feature","properties":{"ID_0":177,"ISO":"PHL","NAME_0":"Philippines","ID_1":8037,"NAME_1":"Leyte","ID_2":803702,"NAME_2":"Alangalang","ID_3":803702024,"NAME_3":"Hubang","NL_NAME_3":null,"VARNAME_3":null,"TYPE_3":"Barangay","ENGTYPE_3":"Village","PROVINCE":"Leyte","REGION":"Region VIII (Eastern Visayas)","id":"barangay-0803702024","name":"Hubang","barangayCode":"0803702024","population":null,"formattedPop":null,"densityCategory":"No data","vulnerabilityRating":"No data","healthRiskLevel":"No data","areaKm2":4.807825,"centerLat":11.227489,"centerLng":124.846108,"geometrySource":"all_barangay-2.csv detailed WKT","geometryMatchMethod":"unique_official_admin_names","boundaryPointCount":19},"geometry":{"type":"MultiPolygon","coordinates":[[[[124.842239,11.22756],[124.847633,11.22515],[124.852043,11.22259],[124.85704,11.21978],[124.867119,11.21704],[124.864197,11.21543],[124.862953,11.21467],[124.860779,11.21163],[124.857384,11.21225],[124.849289,11.21389],[124.847504,11.21415],[124.846222,11.21428],[124.842438,11.21489],[124.840492,11.21607],[124.838943,11.21887],[124.837753,11.22211],[124.836456,11.22703],[124.838768,11.22804],[124.842239,11.22756]]]]}},{"type":"Feature","properties":{"ID_0":177,"ISO":"PHL","NAME_0":"Philippines","ID_1":8037,"NAME_1":"Leyte","ID_2":803702,"NAME_2":"Alangalang","ID_3":803702025,"NAME_3":"Hupit","NL_NAME_3":null,"VARNAME_3":null,"TYPE_3":"Barangay","ENGTYPE_3":"Village","PROVINCE":"Leyte","REGION":"Region VIII (Eastern Visayas)","id":"barangay-0803702025","name":"Hupit","barangayCode":"0803702025","population":null,"formattedPop":null,"densityCategory":"No data","vulnerabilityRating":"No data","healthRiskLevel":"No data","areaKm2":2.945765,"centerLat":11.239276,"centerLng":124.812154,"geometrySource":"all_barangay-2.csv detailed WKT","geometryMatchMethod":"unique_official_admin_names","boundaryPointCount":12},"geometry":{"type":"MultiPolygon","coordinates":[[[[124.811943,11.26106],[124.816963,11.26128],[124.821251,11.26115],[124.825073,11.2591],[124.82737,11.25672],[124.828796,11.25406],[124.822777,11.24778],[124.820602,11.24366],[124.817886,11.23878],[124.811012,11.2486],[124.809639,11.25159],[124.811943,11.26106]]]]}},{"type":"Feature","properties":{"ID_0":177,"ISO":"PHL","NAME_0":"Philippines","ID_1":8037,"NAME_1":"Leyte","ID_2":803702,"NAME_2":"Alangalang","ID_3":803702026,"NAME_3":"Langit","NL_NAME_3":null,"VARNAME_3":null,"TYPE_3":"Barangay","ENGTYPE_3":"Village","PROVINCE":"Leyte","REGION":"Region VIII (Eastern Visayas)","id":"barangay-0803702026","name":"Langit","barangayCode":"0803702026","population":null,"formattedPop":null,"densityCategory":"No data","vulnerabilityRating":"No data","healthRiskLevel":"No data","areaKm2":11.292101,"centerLat":11.239325,"centerLng":124.906624,"geometrySource":"all_barangay-2.csv detailed WKT","geometryMatchMethod":"unique_official_admin_names","boundaryPointCount":12},"geometry":{"type":"MultiPolygon","coordinates":[[[[124.934158,11.24192],[124.927658,11.23321],[124.922546,11.22322],[124.917793,11.21458],[124.913071,11.20404],[124.902634,11.20986],[124.896637,11.21906],[124.898331,11.22062],[124.907013,11.22868],[124.917664,11.23635],[124.93174,11.2449],[124.934158,11.24192]]]]}},{"type":"Feature","properties":{"ID_0":177,"ISO":"PHL","NAME_0":"Philippines","ID_1":8037,"NAME_1":"Leyte","ID_2":803702,"NAME_2":"Alangalang","ID_3":803702027,"NAME_3":"Lingayon","NL_NAME_3":null,"VARNAME_3":null,"TYPE_3":"Barangay","ENGTYPE_3":"Village","PROVINCE":"Leyte","REGION":"Region VIII (Eastern Visayas)","id":"barangay-0803702027","name":"Lingayon","barangayCode":"0803702027","population":null,"formattedPop":null,"densityCategory":"No data","vulnerabilityRating":"No data","healthRiskLevel":"No data","areaKm2":2.675843,"centerLat":11.191224,"centerLng":124.894934,"geometrySource":"all_barangay-2.csv detailed WKT","geometryMatchMethod":"unique_official_admin_names","boundaryPointCount":7},"geometry":{"type":"MultiPolygon","coordinates":[[[[124.891472,11.1956],[124.889671,11.19085],[124.888519,11.18931],[124.882698,11.19339],[124.889214,11.19888],[124.890137,11.19798],[124.891472,11.1956]]]]}},{"type":"Feature","properties":{"ID_0":177,"ISO":"PHL","NAME_0":"Philippines","ID_1":8037,"NAME_1":"Leyte","ID_2":803702,"NAME_2":"Alangalang","ID_3":803702028,"NAME_3":"Lourdes","NL_NAME_3":null,"VARNAME_3":null,"TYPE_3":"Barangay","ENGTYPE_3":"Village","PROVINCE":"Leyte","REGION":"Region VIII (Eastern Visayas)","id":"barangay-0803702028","name":"Lourdes","barangayCode":"0803702028","population":null,"formattedPop":null,"densityCategory":"No data","vulnerabilityRating":"No data","healthRiskLevel":"No data","areaKm2":3.006002,"centerLat":11.225714,"centerLng":124.807588,"geometrySource":"all_barangay-2.csv detailed WKT","geometryMatchMethod":"unique_official_admin_names","boundaryPointCount":11},"geometry":{"type":"MultiPolygon","coordinates":[[[[124.817886,11.23878],[124.819473,11.23305],[124.827499,11.23355],[124.82283,11.22853],[124.817833,11.22906],[124.804314,11.23035],[124.807297,11.23353],[124.8097,11.23923],[124.810417,11.24358],[124.811012,11.2486],[124.817886,11.23878]]]]}},{"type":"Feature","properties":{"ID_0":177,"ISO":"PHL","NAME_0":"Philippines","ID_1":8037,"NAME_1":"Leyte","ID_2":803702,"NAME_2":"Alangalang","ID_3":803702029,"NAME_3":"Lukay","NL_NAME_3":null,"VARNAME_3":null,"TYPE_3":"Barangay","ENGTYPE_3":"Village","PROVINCE":"Leyte","REGION":"Region VIII (Eastern Visayas)","id":"barangay-0803702029","name":"Lukay","barangayCode":"0803702029","population":null,"formattedPop":null,"densityCategory":"No data","vulnerabilityRating":"No data","healthRiskLevel":"No data","areaKm2":1.707136,"centerLat":11.231911,"centerLng":124.830592,"geometrySource":"all_barangay-2.csv detailed WKT","geometryMatchMethod":"unique_official_admin_names","boundaryPointCount":14},"geometry":{"type":"MultiPolygon","coordinates":[[[[124.845284,11.23377],[124.842239,11.22756],[124.838768,11.22804],[124.836456,11.22703],[124.835182,11.22734],[124.833191,11.22673],[124.82708,11.22122],[124.822433,11.22126],[124.82283,11.22853],[124.827499,11.23355],[124.834839,11.23346],[124.839272,11.23388],[124.841522,11.23385],[124.845284,11.23377]]]]}},{"type":"Feature","properties":{"ID_0":177,"ISO":"PHL","NAME_0":"Philippines","ID_1":8037,"NAME_1":"Leyte","ID_2":803702,"NAME_2":"Alangalang","ID_3":803702030,"NAME_3":"Magsaysay","NL_NAME_3":null,"VARNAME_3":null,"TYPE_3":"Barangay","ENGTYPE_3":"Village","PROVINCE":"Leyte","REGION":"Region VIII (Eastern Visayas)","id":"barangay-0803702030","name":"Magsaysay","barangayCode":"0803702030","population":null,"formattedPop":null,"densityCategory":"No data","vulnerabilityRating":"No data","healthRiskLevel":"No data","areaKm2":1.647211,"centerLat":11.238578,"centerLng":124.873733,"geometrySource":"all_barangay-2.csv detailed WKT","geometryMatchMethod":"unique_official_admin_names","boundaryPointCount":11},"geometry":{"type":"MultiPolygon","coordinates":[[[[124.93174,11.2449],[124.917664,11.23635],[124.907013,11.22868],[124.898331,11.22062],[124.889633,11.22473],[124.890083,11.23095],[124.898247,11.23405],[124.916344,11.2436],[124.929367,11.24951],[124.93087,11.2479],[124.93174,11.2449]]]]}},{"type":"Feature","properties":{"ID_0":177,"ISO":"PHL","NAME_0":"Philippines","ID_1":8037,"NAME_1":"Leyte","ID_2":803702,"NAME_2":"Alangalang","ID_3":803702031,"NAME_3":"Mudboron","NL_NAME_3":null,"VARNAME_3":null,"TYPE_3":"Barangay","ENGTYPE_3":"Village","PROVINCE":"Leyte","REGION":"Region VIII (Eastern Visayas)","id":"barangay-0803702031","name":"Mudboron","barangayCode":"0803702031","population":null,"formattedPop":null,"densityCategory":"No data","vulnerabilityRating":"No data","healthRiskLevel":"No data","areaKm2":6.174143,"centerLat":11.200245,"centerLng":124.862517,"geometrySource":"all_barangay-2.csv detailed WKT","geometryMatchMethod":"unique_official_admin_names","boundaryPointCount":19},"geometry":{"type":"MultiPolygon","coordinates":[[[[124.878479,11.20956],[124.874931,11.20329],[124.874336,11.20166],[124.875587,11.1977],[124.870277,11.19465],[124.865738,11.19266],[124.862991,11.19098],[124.8591,11.1887],[124.857964,11.19788],[124.857018,11.20256],[124.856888,11.20466],[124.85762,11.20651],[124.858543,11.2083],[124.860779,11.21163],[124.864487,11.21112],[124.868019,11.21136],[124.874046,11.21101],[124.87719,11.21073],[124.878479,11.20956]]]]}},{"type":"Feature","properties":{"ID_0":177,"ISO":"PHL","NAME_0":"Philippines","ID_1":8037,"NAME_1":"Leyte","ID_2":803702,"NAME_2":"Alangalang","ID_3":803702032,"NAME_3":"P. Barrantes","NL_NAME_3":null,"VARNAME_3":null,"TYPE_3":"Barangay","ENGTYPE_3":"Village","PROVINCE":"Leyte","REGION":"Region VIII (Eastern Visayas)","id":"barangay-0803702032","name":"P. Barrantes","barangayCode":"0803702032","population":null,"formattedPop":null,"densityCategory":"No data","vulnerabilityRating":"No data","healthRiskLevel":"No data","areaKm2":2.068508,"centerLat":11.213993,"centerLng":124.85634,"geometrySource":"all_barangay-2.csv detailed WKT","geometryMatchMethod":"unique_official_admin_names","boundaryPointCount":16},"geometry":{"type":"MultiPolygon","coordinates":[[[[124.859154,11.23063],[124.862923,11.2313],[124.869293,11.23067],[124.87561,11.22915],[124.872337,11.2259],[124.86956,11.22094],[124.867119,11.21704],[124.85704,11.21978],[124.852043,11.22259],[124.847633,11.22515],[124.842239,11.22756],[124.845284,11.23377],[124.850517,11.23503],[124.854408,11.23335],[124.85582,11.23197],[124.859154,11.23063]]]]}},{"type":"Feature","properties":{"ID_0":177,"ISO":"PHL","NAME_0":"Philippines","ID_1":8037,"NAME_1":"Leyte","ID_2":803702,"NAME_2":"Alangalang","ID_3":803702033,"NAME_3":"Peñalosa","NL_NAME_3":null,"VARNAME_3":"Penalosa","TYPE_3":"Barangay","ENGTYPE_3":"Village","PROVINCE":"Leyte","REGION":"Region VIII (Eastern Visayas)","id":"barangay-0803702033","name":"Peñalosa","barangayCode":"0803702033","population":null,"formattedPop":null,"densityCategory":"No data","vulnerabilityRating":"No data","healthRiskLevel":"No data","areaKm2":3.741398,"centerLat":11.167692,"centerLng":124.850322,"geometrySource":"barangays.geojson simplified fallback","geometryMatchMethod":"simplified_fallback","boundaryPointCount":5},"geometry":{"type":"Polygon","coordinates":[[[124.85640485300007,11.177203382000073],[124.86660085200003,11.165718382000023],[124.84417985300001,11.156956381000043],[124.83965385300007,11.173292382000056],[124.85640485300007,11.177203382000073]]]}},{"type":"Feature","properties":{"ID_0":177,"ISO":"PHL","NAME_0":"Philippines","ID_1":8037,"NAME_1":"Leyte","ID_2":803702,"NAME_2":"Alangalang","ID_3":803702034,"NAME_3":"Pepita","NL_NAME_3":null,"VARNAME_3":null,"TYPE_3":"Barangay","ENGTYPE_3":"Village","PROVINCE":"Leyte","REGION":"Region VIII (Eastern Visayas)","id":"barangay-0803702034","name":"Pepita","barangayCode":"0803702034","population":null,"formattedPop":null,"densityCategory":"No data","vulnerabilityRating":"No data","healthRiskLevel":"No data","areaKm2":1.169875,"centerLat":11.172544,"centerLng":124.877175,"geometrySource":"all_barangay-2.csv detailed WKT","geometryMatchMethod":"unique_official_admin_names","boundaryPointCount":9},"geometry":{"type":"MultiPolygon","coordinates":[[[[124.871017,11.17604],[124.872917,11.1833],[124.875671,11.18516],[124.883423,11.17027],[124.881233,11.16852],[124.879257,11.16678],[124.877007,11.17059],[124.874046,11.17278],[124.871017,11.17604]]]]}},{"type":"Feature","properties":{"ID_0":177,"ISO":"PHL","NAME_0":"Philippines","ID_1":8037,"NAME_1":"Leyte","ID_2":803702,"NAME_2":"Alangalang","ID_3":803702035,"NAME_3":"Salvacion Poblacion","NL_NAME_3":null,"VARNAME_3":null,"TYPE_3":"Barangay","ENGTYPE_3":"Village","PROVINCE":"Leyte","REGION":"Region VIII (Eastern Visayas)","id":"barangay-0803702035","name":"Salvacion Poblacion","barangayCode":"0803702035","population":null,"formattedPop":null,"densityCategory":"No data","vulnerabilityRating":"No data","healthRiskLevel":"No data","areaKm2":0.05272,"centerLat":11.207846,"centerLng":124.847745,"geometrySource":"all_barangay-2.csv detailed WKT","geometryMatchMethod":"unique_official_admin_names","boundaryPointCount":6},"geometry":{"type":"MultiPolygon","coordinates":[[[[124.849289,11.21389],[124.857384,11.21225],[124.853233,11.20871],[124.846832,11.21041],[124.848862,11.21305],[124.849289,11.21389]]]]}},{"type":"Feature","properties":{"ID_0":177,"ISO":"PHL","NAME_0":"Philippines","ID_1":8037,"NAME_1":"Leyte","ID_2":803702,"NAME_2":"Alangalang","ID_3":803702036,"NAME_3":"San Antonio","NL_NAME_3":null,"VARNAME_3":null,"TYPE_3":"Barangay","ENGTYPE_3":"Village","PROVINCE":"Leyte","REGION":"Region VIII (Eastern Visayas)","id":"barangay-0803702036","name":"San Antonio","barangayCode":"0803702036","population":null,"formattedPop":null,"densityCategory":"No data","vulnerabilityRating":"No data","healthRiskLevel":"No data","areaKm2":7.100622,"centerLat":11.221912,"centerLng":124.896966,"geometrySource":"all_barangay-2.csv detailed WKT","geometryMatchMethod":"unique_official_admin_names","boundaryPointCount":10},"geometry":{"type":"MultiPolygon","coordinates":[[[[124.889633,11.22473],[124.898331,11.22062],[124.896637,11.21906],[124.889351,11.21241],[124.886833,11.2109],[124.885513,11.21556],[124.885117,11.21704],[124.882858,11.2195],[124.8853,11.2249],[124.889633,11.22473]]]]}},{"type":"Feature","properties":{"ID_0":177,"ISO":"PHL","NAME_0":"Philippines","ID_1":8037,"NAME_1":"Leyte","ID_2":803702,"NAME_2":"Alangalang","ID_3":803702037,"NAME_3":"San Diego","NL_NAME_3":null,"VARNAME_3":null,"TYPE_3":"Barangay","ENGTYPE_3":"Village","PROVINCE":"Leyte","REGION":"Region VIII (Eastern Visayas)","id":"barangay-0803702037","name":"San Diego","barangayCode":"0803702037","population":null,"formattedPop":null,"densityCategory":"No data","vulnerabilityRating":"No data","healthRiskLevel":"No data","areaKm2":5.79572,"centerLat":11.226968,"centerLng":124.869947,"geometrySource":"all_barangay-2.csv detailed WKT","geometryMatchMethod":"unique_official_admin_names","boundaryPointCount":8},"geometry":{"type":"MultiPolygon","coordinates":[[[[124.879761,11.22737],[124.8853,11.2249],[124.882858,11.2195],[124.875572,11.22059],[124.86956,11.22094],[124.872337,11.2259],[124.87561,11.22915],[124.879761,11.22737]]]]}},{"type":"Feature","properties":{"ID_0":177,"ISO":"PHL","NAME_0":"Philippines","ID_1":8037,"NAME_1":"Leyte","ID_2":803702,"NAME_2":"Alangalang","ID_3":803702038,"NAME_3":"San Francisco East","NL_NAME_3":null,"VARNAME_3":null,"TYPE_3":"Barangay","ENGTYPE_3":"Village","PROVINCE":"Leyte","REGION":"Region VIII (Eastern Visayas)","id":"barangay-0803702038","name":"San Francisco East","barangayCode":"0803702038","population":null,"formattedPop":null,"densityCategory":"No data","vulnerabilityRating":"No data","healthRiskLevel":"No data","areaKm2":2.310871,"centerLat":11.244326,"centerLng":124.846265,"geometrySource":"all_barangay-2.csv detailed WKT","geometryMatchMethod":"unique_official_admin_names","boundaryPointCount":17},"geometry":{"type":"MultiPolygon","coordinates":[[[[124.843727,11.25135],[124.849487,11.24834],[124.861504,11.24937],[124.860786,11.23932],[124.859154,11.23063],[124.85582,11.23197],[124.854408,11.23335],[124.850517,11.23503],[124.845284,11.23377],[124.841522,11.23385],[124.839272,11.23388],[124.839401,11.23995],[124.839447,11.24159],[124.839798,11.24582],[124.840988,11.24818],[124.843063,11.25004],[124.843727,11.25135]]]]}},{"type":"Feature","properties":{"ID_0":177,"ISO":"PHL","NAME_0":"Philippines","ID_1":8037,"NAME_1":"Leyte","ID_2":803702,"NAME_2":"Alangalang","ID_3":803702039,"NAME_3":"San Francisco West","NL_NAME_3":null,"VARNAME_3":null,"TYPE_3":"Barangay","ENGTYPE_3":"Village","PROVINCE":"Leyte","REGION":"Region VIII (Eastern Visayas)","id":"barangay-0803702039","name":"San Francisco West","barangayCode":"0803702039","population":null,"formattedPop":null,"densityCategory":"No data","vulnerabilityRating":"No data","healthRiskLevel":"No data","areaKm2":2.650707,"centerLat":11.231808,"centerLng":124.796873,"geometrySource":"all_barangay-2.csv detailed WKT","geometryMatchMethod":"unique_official_admin_names","boundaryPointCount":8},"geometry":{"type":"MultiPolygon","coordinates":[[[[124.804314,11.23035],[124.817833,11.22906],[124.82283,11.22853],[124.822433,11.22126],[124.798729,11.21968],[124.799171,11.2215],[124.801514,11.23064],[124.804314,11.23035]]]]}},{"type":"Feature","properties":{"ID_0":177,"ISO":"PHL","NAME_0":"Philippines","ID_1":8037,"NAME_1":"Leyte","ID_2":803702,"NAME_2":"Alangalang","ID_3":803702040,"NAME_3":"San Isidro","NL_NAME_3":null,"VARNAME_3":null,"TYPE_3":"Barangay","ENGTYPE_3":"Village","PROVINCE":"Leyte","REGION":"Region VIII (Eastern Visayas)","id":"barangay-0803702040","name":"San Isidro","barangayCode":"0803702040","population":null,"formattedPop":null,"densityCategory":"No data","vulnerabilityRating":"No data","healthRiskLevel":"No data","areaKm2":3.202291,"centerLat":11.191764,"centerLng":124.832481,"geometrySource":"all_barangay-2.csv detailed WKT","geometryMatchMethod":"unique_official_admin_names","boundaryPointCount":10},"geometry":{"type":"MultiPolygon","coordinates":[[[[124.825607,11.18792],[124.84848,11.18959],[124.849663,11.18531],[124.849716,11.17645],[124.836418,11.16914],[124.834244,11.17459],[124.832314,11.17844],[124.829567,11.18302],[124.827507,11.1859],[124.825607,11.18792]]]]}},{"type":"Feature","properties":{"ID_0":177,"ISO":"PHL","NAME_0":"Philippines","ID_1":8037,"NAME_1":"Leyte","ID_2":803702,"NAME_2":"Alangalang","ID_3":803702041,"NAME_3":"San Pedro","NL_NAME_3":null,"VARNAME_3":null,"TYPE_3":"Barangay","ENGTYPE_3":"Village","PROVINCE":"Leyte","REGION":"Region VIII (Eastern Visayas)","id":"barangay-0803702041","name":"San Pedro","barangayCode":"0803702041","population":null,"formattedPop":null,"densityCategory":"No data","vulnerabilityRating":"No data","healthRiskLevel":"No data","areaKm2":2.473806,"centerLat":11.210212,"centerLng":124.880807,"geometrySource":"all_barangay-2.csv detailed WKT","geometryMatchMethod":"unique_official_admin_names","boundaryPointCount":17},"geometry":{"type":"MultiPolygon","coordinates":[[[[124.86956,11.22094],[124.875572,11.22059],[124.882858,11.2195],[124.885117,11.21704],[124.885513,11.21556],[124.886833,11.2109],[124.881973,11.21018],[124.878479,11.20956],[124.87719,11.21073],[124.874046,11.21101],[124.868019,11.21136],[124.864487,11.21112],[124.860779,11.21163],[124.862953,11.21467],[124.864197,11.21543],[124.867119,11.21704],[124.86956,11.22094]]]]}},{"type":"Feature","properties":{"ID_0":177,"ISO":"PHL","NAME_0":"Philippines","ID_1":8037,"NAME_1":"Leyte","ID_2":803702,"NAME_2":"Alangalang","ID_3":803702042,"NAME_3":"San Vicente","NL_NAME_3":null,"VARNAME_3":null,"TYPE_3":"Barangay","ENGTYPE_3":"Village","PROVINCE":"Leyte","REGION":"Region VIII (Eastern Visayas)","id":"barangay-0803702042","name":"San Vicente","barangayCode":"0803702042","population":null,"formattedPop":null,"densityCategory":"No data","vulnerabilityRating":"No data","healthRiskLevel":"No data","areaKm2":2.782109,"centerLat":11.210403,"centerLng":124.810254,"geometrySource":"all_barangay-2.csv detailed WKT","geometryMatchMethod":"unique_official_admin_names","boundaryPointCount":11},"geometry":{"type":"MultiPolygon","coordinates":[[[[124.82708,11.22122],[124.823013,11.2171],[124.831337,11.21509],[124.837402,11.20891],[124.805946,11.20516],[124.804443,11.20669],[124.801353,11.21016],[124.798752,11.21528],[124.798729,11.21968],[124.822433,11.22126],[124.82708,11.22122]]]]}},{"type":"Feature","properties":{"ID_0":177,"ISO":"PHL","NAME_0":"Philippines","ID_1":8037,"NAME_1":"Leyte","ID_2":803702,"NAME_2":"Alangalang","ID_3":803702043,"NAME_3":"Santiago","NL_NAME_3":null,"VARNAME_3":null,"TYPE_3":"Barangay","ENGTYPE_3":"Village","PROVINCE":"Leyte","REGION":"Region VIII (Eastern Visayas)","id":"barangay-0803702043","name":"Santiago","barangayCode":"0803702043","population":null,"formattedPop":null,"densityCategory":"No data","vulnerabilityRating":"No data","healthRiskLevel":"No data","areaKm2":1.231181,"centerLat":11.201183,"centerLng":124.814975,"geometrySource":"all_barangay-2.csv detailed WKT","geometryMatchMethod":"unique_official_admin_names","boundaryPointCount":19},"geometry":{"type":"MultiPolygon","coordinates":[[[[124.805946,11.20516],[124.837402,11.20891],[124.842453,11.20535],[124.844688,11.20379],[124.846863,11.20226],[124.847511,11.20175],[124.848106,11.1988],[124.84568,11.198],[124.842827,11.19664],[124.84024,11.19701],[124.837807,11.19642],[124.834213,11.1946],[124.825607,11.18792],[124.821877,11.19132],[124.817848,11.19452],[124.815262,11.19664],[124.812317,11.19904],[124.80835,11.20254],[124.805946,11.20516]]]]}},{"type":"Feature","properties":{"ID_0":177,"ISO":"PHL","NAME_0":"Philippines","ID_1":8037,"NAME_1":"Leyte","ID_2":803702,"NAME_2":"Alangalang","ID_3":803702044,"NAME_3":"Santo Niño","NL_NAME_3":null,"VARNAME_3":"Santo Nino (Pob.)","TYPE_3":"Barangay","ENGTYPE_3":"Village","PROVINCE":"Leyte","REGION":"Region VIII (Eastern Visayas)","id":"barangay-0803702044","name":"Santo Niño","barangayCode":"0803702044","population":null,"formattedPop":null,"densityCategory":"No data","vulnerabilityRating":"No data","healthRiskLevel":"No data","areaKm2":0.039355,"centerLat":11.206732,"centerLng":124.848125,"geometrySource":"all_barangay-2.csv detailed WKT","geometryMatchMethod":"unique_official_admin_names","boundaryPointCount":11},"geometry":{"type":"MultiPolygon","coordinates":[[[[124.860779,11.21163],[124.858543,11.2083],[124.85762,11.20651],[124.854919,11.20738],[124.850609,11.20847],[124.848602,11.20908],[124.846298,11.20967],[124.846832,11.21041],[124.853233,11.20871],[124.857384,11.21225],[124.860779,11.21163]]]]}},{"type":"Feature","properties":{"ID_0":177,"ISO":"PHL","NAME_0":"Philippines","ID_1":8037,"NAME_1":"Leyte","ID_2":803702,"NAME_2":"Alangalang","ID_3":803702045,"NAME_3":"Santol","NL_NAME_3":null,"VARNAME_3":null,"TYPE_3":"Barangay","ENGTYPE_3":"Village","PROVINCE":"Leyte","REGION":"Region VIII (Eastern Visayas)","id":"barangay-0803702045","name":"Santol","barangayCode":"0803702045","population":null,"formattedPop":null,"densityCategory":"No data","vulnerabilityRating":"No data","healthRiskLevel":"No data","areaKm2":4.254967,"centerLat":11.255095,"centerLng":124.794192,"geometrySource":"all_barangay-2.csv detailed WKT","geometryMatchMethod":"unique_official_admin_names","boundaryPointCount":15},"geometry":{"type":"MultiPolygon","coordinates":[[[[124.797569,11.26092],[124.811943,11.26106],[124.809639,11.25159],[124.811012,11.2486],[124.810417,11.24358],[124.8097,11.23923],[124.807297,11.23353],[124.804314,11.23035],[124.801514,11.23064],[124.802147,11.23877],[124.801064,11.24472],[124.800133,11.24832],[124.798973,11.25071],[124.797867,11.25574],[124.797569,11.26092]]]]}},{"type":"Feature","properties":{"ID_0":177,"ISO":"PHL","NAME_0":"Philippines","ID_1":8037,"NAME_1":"Leyte","ID_2":803702,"NAME_2":"Alangalang","ID_3":803702046,"NAME_3":"Tabangohay","NL_NAME_3":null,"VARNAME_3":null,"TYPE_3":"Barangay","ENGTYPE_3":"Village","PROVINCE":"Leyte","REGION":"Region VIII (Eastern Visayas)","id":"barangay-0803702046","name":"Tabangohay","barangayCode":"0803702046","population":null,"formattedPop":null,"densityCategory":"No data","vulnerabilityRating":"No data","healthRiskLevel":"No data","areaKm2":8.189609,"centerLat":11.27759,"centerLng":124.903295,"geometrySource":"all_barangay-2.csv detailed WKT","geometryMatchMethod":"unique_official_admin_names","boundaryPointCount":13},"geometry":{"type":"MultiPolygon","coordinates":[[[[124.879463,11.27698],[124.896858,11.28564],[124.901527,11.28218],[124.907738,11.27674],[124.916237,11.26861],[124.921021,11.26288],[124.923714,11.25809],[124.927002,11.2532],[124.920532,11.25438],[124.916054,11.25381],[124.906898,11.24945],[124.901657,11.24628],[124.879463,11.27698]]]]}},{"type":"Feature","properties":{"ID_0":177,"ISO":"PHL","NAME_0":"Philippines","ID_1":8037,"NAME_1":"Leyte","ID_2":803702,"NAME_2":"Alangalang","ID_3":803702047,"NAME_3":"Tombo","NL_NAME_3":null,"VARNAME_3":null,"TYPE_3":"Barangay","ENGTYPE_3":"Village","PROVINCE":"Leyte","REGION":"Region VIII (Eastern Visayas)","id":"barangay-0803702047","name":"Tombo","barangayCode":"0803702047","population":null,"formattedPop":null,"densityCategory":"No data","vulnerabilityRating":"No data","healthRiskLevel":"No data","areaKm2":2.071815,"centerLat":11.195458,"centerLng":124.822556,"geometrySource":"all_barangay-2.csv detailed WKT","geometryMatchMethod":"unique_official_admin_names","boundaryPointCount":9},"geometry":{"type":"MultiPolygon","coordinates":[[[[124.84848,11.18959],[124.825607,11.18792],[124.834213,11.1946],[124.837807,11.19642],[124.84024,11.19701],[124.842827,11.19664],[124.84568,11.198],[124.848106,11.1988],[124.84848,11.18959]]]]}},{"type":"Feature","properties":{"ID_0":177,"ISO":"PHL","NAME_0":"Philippines","ID_1":8037,"NAME_1":"Leyte","ID_2":803702,"NAME_2":"Alangalang","ID_3":803702048,"NAME_3":"Veteranos","NL_NAME_3":null,"VARNAME_3":null,"TYPE_3":"Barangay","ENGTYPE_3":"Village","PROVINCE":"Leyte","REGION":"Region VIII (Eastern Visayas)","id":"barangay-0803702048","name":"Veteranos","barangayCode":"0803702048","population":null,"formattedPop":null,"densityCategory":"No data","vulnerabilityRating":"No data","healthRiskLevel":"No data","areaKm2":6.315388,"centerLat":11.259083,"centerLng":124.883644,"geometrySource":"all_barangay-2.csv detailed WKT","geometryMatchMethod":"unique_official_admin_names","boundaryPointCount":10},"geometry":{"type":"MultiPolygon","coordinates":[[[[124.929367,11.24951],[124.916344,11.2436],[124.898247,11.23405],[124.89402,11.24045],[124.901657,11.24628],[124.906898,11.24945],[124.916054,11.25381],[124.920532,11.25438],[124.927002,11.2532],[124.929367,11.24951]]]]}},{"type":"Feature","properties":{"ID_0":177,"ISO":"PHL","NAME_0":"Philippines","ID_1":8037,"NAME_1":"Leyte","ID_2":803702,"NAME_2":"Alangalang","ID_3":803702049,"NAME_3":"Blumentritt","NL_NAME_3":null,"VARNAME_3":null,"TYPE_3":"Barangay","ENGTYPE_3":"Village","PROVINCE":"Leyte","REGION":"Region VIII (Eastern Visayas)","id":"barangay-0803702049","name":"Blumentritt","barangayCode":"0803702049","population":null,"formattedPop":null,"densityCategory":"No data","vulnerabilityRating":"No data","healthRiskLevel":"No data","areaKm2":0.095081,"centerLat":11.209322,"centerLng":124.843062,"geometrySource":"all_barangay-2.csv detailed WKT","geometryMatchMethod":"unique_official_admin_names","boundaryPointCount":6},"geometry":{"type":"MultiPolygon","coordinates":[[[[124.846222,11.21428],[124.843117,11.21059],[124.841843,11.21097],[124.839722,11.21157],[124.842438,11.21489],[124.846222,11.21428]]]]}},{"type":"Feature","properties":{"ID_0":177,"ISO":"PHL","NAME_0":"Philippines","ID_1":8037,"NAME_1":"Leyte","ID_2":803702,"NAME_2":"Alangalang","ID_3":803702050,"NAME_3":"Holy Child I","NL_NAME_3":null,"VARNAME_3":null,"TYPE_3":"Barangay","ENGTYPE_3":"Village","PROVINCE":"Leyte","REGION":"Region VIII (Eastern Visayas)","id":"barangay-0803702050","name":"Holy Child I","barangayCode":"0803702050","population":null,"formattedPop":null,"densityCategory":"No data","vulnerabilityRating":"No data","healthRiskLevel":"No data","areaKm2":0.197387,"centerLat":11.205859,"centerLng":124.842356,"geometrySource":"all_barangay-2.csv detailed WKT","geometryMatchMethod":"unique_official_admin_names","boundaryPointCount":9},"geometry":{"type":"MultiPolygon","coordinates":[[[[124.841843,11.21097],[124.840881,11.20983],[124.847763,11.20765],[124.846962,11.20655],[124.844688,11.20379],[124.842453,11.20535],[124.837402,11.20891],[124.839722,11.21157],[124.841843,11.21097]]]]}},{"type":"Feature","properties":{"ID_0":177,"ISO":"PHL","NAME_0":"Philippines","ID_1":8037,"NAME_1":"Leyte","ID_2":803702,"NAME_2":"Alangalang","ID_3":803702051,"NAME_3":"Holy Child II","NL_NAME_3":null,"VARNAME_3":null,"TYPE_3":"Barangay","ENGTYPE_3":"Village","PROVINCE":"Leyte","REGION":"Region VIII (Eastern Visayas)","id":"barangay-0803702051","name":"Holy Child II","barangayCode":"0803702051","population":null,"formattedPop":null,"densityCategory":"No data","vulnerabilityRating":"No data","healthRiskLevel":"No data","areaKm2":0.078189,"centerLat":11.206495,"centerLng":124.845022,"geometrySource":"all_barangay-2.csv detailed WKT","geometryMatchMethod":"unique_official_admin_names","boundaryPointCount":7},"geometry":{"type":"MultiPolygon","coordinates":[[[[124.843117,11.21059],[124.846298,11.20967],[124.848602,11.20908],[124.847763,11.20765],[124.840881,11.20983],[124.841843,11.21097],[124.843117,11.21059]]]]}},{"type":"Feature","properties":{"ID_0":177,"ISO":"PHL","NAME_0":"Philippines","ID_1":8037,"NAME_1":"Leyte","ID_2":803702,"NAME_2":"Alangalang","ID_3":803702052,"NAME_3":"Milagrosa","NL_NAME_3":null,"VARNAME_3":null,"TYPE_3":"Barangay","ENGTYPE_3":"Village","PROVINCE":"Leyte","REGION":"Region VIII (Eastern Visayas)","id":"barangay-0803702052","name":"Milagrosa","barangayCode":"0803702052","population":null,"formattedPop":null,"densityCategory":"No data","vulnerabilityRating":"No data","healthRiskLevel":"No data","areaKm2":0.033666,"centerLat":11.204632,"centerLng":124.847338,"geometrySource":"all_barangay-2.csv detailed WKT","geometryMatchMethod":"unique_official_admin_names","boundaryPointCount":9},"geometry":{"type":"MultiPolygon","coordinates":[[[[124.848602,11.20908],[124.850609,11.20847],[124.849579,11.20711],[124.848579,11.20582],[124.846863,11.20226],[124.844688,11.20379],[124.846962,11.20655],[124.847763,11.20765],[124.848602,11.20908]]]]}},{"type":"Feature","properties":{"ID_0":177,"ISO":"PHL","NAME_0":"Philippines","ID_1":8037,"NAME_1":"Leyte","ID_2":803702,"NAME_2":"Alangalang","ID_3":803702053,"NAME_3":"San Antonio Pob.","NL_NAME_3":null,"VARNAME_3":null,"TYPE_3":"Barangay","ENGTYPE_3":"Village","PROVINCE":"Leyte","REGION":"Region VIII (Eastern Visayas)","id":"barangay-0803702053","name":"San Antonio Pob.","barangayCode":"0803702053","population":null,"formattedPop":null,"densityCategory":"No data","vulnerabilityRating":"No data","healthRiskLevel":"No data","areaKm2":0.050838,"centerLat":11.205471,"centerLng":124.848391,"geometrySource":"all_barangay-2.csv detailed WKT","geometryMatchMethod":"unique_official_admin_names","boundaryPointCount":9},"geometry":{"type":"MultiPolygon","coordinates":[[[[124.85762,11.20651],[124.856888,11.20466],[124.847511,11.20175],[124.846863,11.20226],[124.848579,11.20582],[124.849579,11.20711],[124.850609,11.20847],[124.854919,11.20738],[124.85762,11.20651]]]]}},{"type":"Feature","properties":{"ID_0":177,"ISO":"PHL","NAME_0":"Philippines","ID_1":8037,"NAME_1":"Leyte","ID_2":803702,"NAME_2":"Alangalang","ID_3":803702054,"NAME_3":"San Roque","NL_NAME_3":null,"VARNAME_3":null,"TYPE_3":"Barangay","ENGTYPE_3":"Village","PROVINCE":"Leyte","REGION":"Region VIII (Eastern Visayas)","id":"barangay-0803702054","name":"San Roque","barangayCode":"0803702054","population":null,"formattedPop":null,"densityCategory":"No data","vulnerabilityRating":"No data","healthRiskLevel":"No data","areaKm2":0.035782,"centerLat":11.208191,"centerLng":124.845465,"geometrySource":"all_barangay-2.csv detailed WKT","geometryMatchMethod":"unique_official_admin_names","boundaryPointCount":8},"geometry":{"type":"MultiPolygon","coordinates":[[[[124.846222,11.21428],[124.847504,11.21415],[124.849289,11.21389],[124.848862,11.21305],[124.846832,11.21041],[124.846298,11.20967],[124.843117,11.21059],[124.846222,11.21428]]]]}},{"type":"Feature","properties":{"ID_0":177,"ISO":"PHL","NAME_0":"Philippines","ID_1":8037,"NAME_1":"Leyte","ID_2":803702,"NAME_2":"Alangalang","ID_3":803702055,"NAME_3":"Salvacion","NL_NAME_3":null,"VARNAME_3":null,"TYPE_3":"Barangay","ENGTYPE_3":"Village","PROVINCE":"Leyte","REGION":"Region VIII (Eastern Visayas)","id":"barangay-0803702055","name":"Salvacion","barangayCode":"0803702055","population":null,"formattedPop":null,"densityCategory":"No data","vulnerabilityRating":"No data","healthRiskLevel":"No data","areaKm2":6.561752,"centerLat":11.207387,"centerLng":124.902191,"geometrySource":"all_barangay-2.csv detailed WKT","geometryMatchMethod":"unique_official_admin_names","boundaryPointCount":12},"geometry":{"type":"MultiPolygon","coordinates":[[[[124.886833,11.2109],[124.889351,11.21241],[124.896637,11.21906],[124.902634,11.20986],[124.898613,11.20643],[124.89653,11.20411],[124.893997,11.20066],[124.891472,11.1956],[124.890137,11.19798],[124.889214,11.19888],[124.88974,11.20557],[124.886833,11.2109]]]]}}]}
