{"type":"FeatureCollection","features":[{"type":"Feature","properties":{"ID_0":177,"ISO":"PHL","NAME_0":"Philippines","ID_1":16002,"NAME_1":"Agusan del Norte","ID_2":1600202,"NAME_2":"Butuan City (Capital)","ID_3":1630400002,"NAME_3":"Agao Pob.","NL_NAME_3":null,"VARNAME_3":null,"TYPE_3":"Barangay","ENGTYPE_3":"Village","PROVINCE":"Agusan del Norte","REGION":"Region XIII (Caraga)","id":"barangay-1630400002","name":"Agao Pob.","barangayCode":"1630400002","population":null,"formattedPop":null,"densityCategory":"No data","vulnerabilityRating":"No data","healthRiskLevel":"No data","areaKm2":0.053277,"centerLat":8.943904,"centerLng":125.544806,"geometrySource":"barangays.geojson simplified fallback","geometryMatchMethod":"simplified_fallback","boundaryPointCount":4},"geometry":{"type":"Polygon","coordinates":[[[125.54327509000007,8.943322831000046],[125.54542833500011,8.94460913000006],[125.54664527300008,8.94446531400007],[125.54327509000007,8.943322831000046]]]}},{"type":"Feature","properties":{"ID_0":177,"ISO":"PHL","NAME_0":"Philippines","ID_1":16002,"NAME_1":"Agusan del Norte","ID_2":1600202,"NAME_2":"Butuan City (Capital)","ID_3":1630400003,"NAME_3":"Agusan Pequeño","NL_NAME_3":null,"VARNAME_3":"Agusan Pequeno","TYPE_3":"Barangay","ENGTYPE_3":"Village","PROVINCE":"Agusan del Norte","REGION":"Region XIII (Caraga)","id":"barangay-1630400003","name":"Agusan Pequeño","barangayCode":"1630400003","population":null,"formattedPop":null,"densityCategory":"No data","vulnerabilityRating":"No data","healthRiskLevel":"No data","areaKm2":1.384604,"centerLat":8.978609,"centerLng":125.523519,"geometrySource":"barangays.geojson simplified fallback","geometryMatchMethod":"simplified_fallback","boundaryPointCount":5},"geometry":{"type":"Polygon","coordinates":[[[125.51948001700009,8.986515154000074],[125.52766737000002,8.983189382000035],[125.52760772700003,8.971471346000044],[125.52171863600006,8.971074026000053],[125.51948001700009,8.986515154000074]]]}},{"type":"Feature","properties":{"ID_0":177,"ISO":"PHL","NAME_0":"Philippines","ID_1":16002,"NAME_1":"Agusan del Norte","ID_2":1600202,"NAME_2":"Butuan City (Capital)","ID_3":1630400004,"NAME_3":"Ambago","NL_NAME_3":null,"VARNAME_3":null,"TYPE_3":"Barangay","ENGTYPE_3":"Village","PROVINCE":"Agusan del Norte","REGION":"Region XIII (Caraga)","id":"barangay-1630400004","name":"Ambago","barangayCode":"1630400004","population":null,"formattedPop":null,"densityCategory":"No data","vulnerabilityRating":"No data","healthRiskLevel":"No data","areaKm2":6.956575,"centerLat":8.96811,"centerLng":125.50192,"geometrySource":"barangays.geojson simplified fallback","geometryMatchMethod":"simplified_fallback","boundaryPointCount":5},"geometry":{"type":"Polygon","coordinates":[[[125.5023974400001,8.985208219000071],[125.51367683800004,8.95239144900006],[125.49233219300004,8.957283203000031],[125.489154073,8.981067945000063],[125.5023974400001,8.985208219000071]]]}},{"type":"Feature","properties":{"ID_0":177,"ISO":"PHL","NAME_0":"Philippines","ID_1":16002,"NAME_1":"Agusan del Norte","ID_2":1600202,"NAME_2":"Butuan City (Capital)","ID_3":1630400006,"NAME_3":"Amparo","NL_NAME_3":null,"VARNAME_3":null,"TYPE_3":"Barangay","ENGTYPE_3":"Village","PROVINCE":"Agusan del Norte","REGION":"Region XIII (Caraga)","id":"barangay-1630400006","name":"Amparo","barangayCode":"1630400006","population":null,"formattedPop":null,"densityCategory":"No data","vulnerabilityRating":"No data","healthRiskLevel":"No data","areaKm2":12.951276,"centerLat":8.849566,"centerLng":125.558554,"geometrySource":"barangays.geojson simplified fallback","geometryMatchMethod":"simplified_fallback","boundaryPointCount":7},"geometry":{"type":"Polygon","coordinates":[[[125.54490203700004,8.876828104000026],[125.5742247720001,8.848727963000044],[125.57893782700012,8.819057888000032],[125.56072318300005,8.82381689600004],[125.54723466400003,8.858231143000069],[125.52801213300006,8.863325761000056],[125.54490203700004,8.876828104000026]]]}},{"type":"Feature","properties":{"ID_0":177,"ISO":"PHL","NAME_0":"Philippines","ID_1":16002,"NAME_1":"Agusan del Norte","ID_2":1600202,"NAME_2":"Butuan City (Capital)","ID_3":1630400007,"NAME_3":"Ampayon","NL_NAME_3":null,"VARNAME_3":null,"TYPE_3":"Barangay","ENGTYPE_3":"Village","PROVINCE":"Agusan del Norte","REGION":"Region XIII (Caraga)","id":"barangay-1630400007","name":"Ampayon","barangayCode":"1630400007","population":null,"formattedPop":null,"densityCategory":"No data","vulnerabilityRating":"No data","healthRiskLevel":"No data","areaKm2":6.426216,"centerLat":8.96238,"centerLng":125.603693,"geometrySource":"barangays.geojson simplified fallback","geometryMatchMethod":"simplified_fallback","boundaryPointCount":5},"geometry":{"type":"Polygon","coordinates":[[[125.6212477040001,8.967203869000059],[125.6219371840001,8.959475046000023],[125.58917916000007,8.950761844000056],[125.59409298800006,8.973254091000058],[125.6212477040001,8.967203869000059]]]}},{"type":"Feature","properties":{"ID_0":177,"ISO":"PHL","NAME_0":"Philippines","ID_1":16002,"NAME_1":"Agusan del Norte","ID_2":1600202,"NAME_2":"Butuan City (Capital)","ID_3":1630400008,"NAME_3":"Anticala","NL_NAME_3":null,"VARNAME_3":null,"TYPE_3":"Barangay","ENGTYPE_3":"Village","PROVINCE":"Agusan del Norte","REGION":"Region XIII (Caraga)","id":"barangay-1630400008","name":"Anticala","barangayCode":"1630400008","population":null,"formattedPop":null,"densityCategory":"No data","vulnerabilityRating":"No data","healthRiskLevel":"No data","areaKm2":47.424939,"centerLat":9.020492,"centerLng":125.683742,"geometrySource":"barangays.geojson simplified fallback","geometryMatchMethod":"simplified_fallback","boundaryPointCount":5},"geometry":{"type":"Polygon","coordinates":[[[125.7014270310001,8.991433119000021],[125.63909812300005,8.992504091000058],[125.654840497,9.046421591000069],[125.73561859100005,9.048310280000067],[125.7014270310001,8.991433119000021]]]}},{"type":"Feature","properties":{"ID_0":177,"ISO":"PHL","NAME_0":"Philippines","ID_1":16002,"NAME_1":"Agusan del Norte","ID_2":1600202,"NAME_2":"Butuan City (Capital)","ID_3":1630400009,"NAME_3":"Antongalon","NL_NAME_3":null,"VARNAME_3":null,"TYPE_3":"Barangay","ENGTYPE_3":"Village","PROVINCE":"Agusan del Norte","REGION":"Region XIII (Caraga)","id":"barangay-1630400009","name":"Antongalon","barangayCode":"1630400009","population":null,"formattedPop":null,"densityCategory":"No data","vulnerabilityRating":"No data","healthRiskLevel":"No data","areaKm2":6.943903,"centerLat":8.952492,"centerLng":125.624263,"geometrySource":"barangays.geojson simplified fallback","geometryMatchMethod":"simplified_fallback","boundaryPointCount":7},"geometry":{"type":"Polygon","coordinates":[[[125.63407194600006,8.963064469000074],[125.64367590900008,8.947175105000042],[125.60556626000005,8.944637869000076],[125.60392344700006,8.953456139000025],[125.6219371840001,8.959475046000023],[125.6212477040001,8.967203869000059],[125.63407194600006,8.963064469000074]]]}},{"type":"Feature","properties":{"ID_0":177,"ISO":"PHL","NAME_0":"Philippines","ID_1":16002,"NAME_1":"Agusan del Norte","ID_2":1600202,"NAME_2":"Butuan City (Capital)","ID_3":1630400010,"NAME_3":"Aupagan","NL_NAME_3":null,"VARNAME_3":null,"TYPE_3":"Barangay","ENGTYPE_3":"Village","PROVINCE":"Agusan del Norte","REGION":"Region XIII (Caraga)","id":"barangay-1630400010","name":"Aupagan","barangayCode":"1630400010","population":null,"formattedPop":null,"densityCategory":"No data","vulnerabilityRating":"No data","healthRiskLevel":"No data","areaKm2":8.492002,"centerLat":8.878466,"centerLng":125.559732,"geometrySource":"barangays.geojson simplified fallback","geometryMatchMethod":"simplified_fallback","boundaryPointCount":6},"geometry":{"type":"Polygon","coordinates":[[[125.55644573500001,8.898780056000021],[125.57228295400012,8.886437530000023],[125.57433096400007,8.874213659000077],[125.56346867800005,8.856873696000036],[125.54040230800001,8.884019261000049],[125.55644573500001,8.898780056000021]]]}},{"type":"Feature","properties":{"ID_0":177,"ISO":"PHL","NAME_0":"Philippines","ID_1":16002,"NAME_1":"Agusan del Norte","ID_2":1600202,"NAME_2":"Butuan City (Capital)","ID_3":1630400012,"NAME_3":"Baan KM 3","NL_NAME_3":null,"VARNAME_3":null,"TYPE_3":"Barangay","ENGTYPE_3":"Village","PROVINCE":"Agusan del Norte","REGION":"Region XIII (Caraga)","id":"barangay-1630400012","name":"Baan KM 3","barangayCode":"1630400012","population":null,"formattedPop":null,"densityCategory":"No data","vulnerabilityRating":"No data","healthRiskLevel":"No data","areaKm2":10.256248,"centerLat":8.951811,"centerLng":125.569744,"geometrySource":"barangays.geojson simplified fallback","geometryMatchMethod":"simplified_fallback","boundaryPointCount":6},"geometry":{"type":"Polygon","coordinates":[[[125.57232796200003,8.96654499300007],[125.5879194370001,8.960906327000032],[125.59007768300012,8.946239773000059],[125.55680113400001,8.937746461000074],[125.5537077780001,8.959966845000054],[125.57232796200003,8.96654499300007]]]}},{"type":"Feature","properties":{"ID_0":177,"ISO":"PHL","NAME_0":"Philippines","ID_1":16002,"NAME_1":"Agusan del Norte","ID_2":1600202,"NAME_2":"Butuan City (Capital)","ID_3":1630400013,"NAME_3":"Babag","NL_NAME_3":null,"VARNAME_3":null,"TYPE_3":"Barangay","ENGTYPE_3":"Village","PROVINCE":"Agusan del Norte","REGION":"Region XIII (Caraga)","id":"barangay-1630400013","name":"Babag","barangayCode":"1630400013","population":null,"formattedPop":null,"densityCategory":"No data","vulnerabilityRating":"No data","healthRiskLevel":"No data","areaKm2":2.791276,"centerLat":8.978341,"centerLng":125.513146,"geometrySource":"barangays.geojson simplified fallback","geometryMatchMethod":"simplified_fallback","boundaryPointCount":5},"geometry":{"type":"Polygon","coordinates":[[[125.51385539900002,8.986779221000063],[125.52091566900003,8.978612747000057],[125.5177756700001,8.968391763000056],[125.5023974400001,8.985208219000071],[125.51385539900002,8.986779221000063]]]}},{"type":"Feature","properties":{"ID_0":177,"ISO":"PHL","NAME_0":"Philippines","ID_1":16002,"NAME_1":"Agusan del Norte","ID_2":1600202,"NAME_2":"Butuan City (Capital)","ID_3":1630400014,"NAME_3":"Bading Pob.","NL_NAME_3":null,"VARNAME_3":null,"TYPE_3":"Barangay","ENGTYPE_3":"Village","PROVINCE":"Agusan del Norte","REGION":"Region XIII (Caraga)","id":"barangay-1630400014","name":"Bading Pob.","barangayCode":"1630400014","population":null,"formattedPop":null,"densityCategory":"No data","vulnerabilityRating":"No data","healthRiskLevel":"No data","areaKm2":1.027569,"centerLat":8.969474,"centerLng":125.533399,"geometrySource":"barangays.geojson simplified fallback","geometryMatchMethod":"simplified_fallback","boundaryPointCount":5},"geometry":{"type":"Polygon","coordinates":[[[125.52559287500003,8.970864961000075],[125.53700333000006,8.971893503000047],[125.54191366500004,8.967699699000036],[125.53182201600009,8.965269335000073],[125.52559287500003,8.970864961000075]]]}},{"type":"Feature","properties":{"ID_0":177,"ISO":"PHL","NAME_0":"Philippines","ID_1":16002,"NAME_1":"Agusan del Norte","ID_2":1600202,"NAME_2":"Butuan City (Capital)","ID_3":1630400016,"NAME_3":"Bancasi","NL_NAME_3":null,"VARNAME_3":null,"TYPE_3":"Barangay","ENGTYPE_3":"Village","PROVINCE":"Agusan del Norte","REGION":"Region XIII (Caraga)","id":"barangay-1630400016","name":"Bancasi","barangayCode":"1630400016","population":null,"formattedPop":null,"densityCategory":"No data","vulnerabilityRating":"No data","healthRiskLevel":"No data","areaKm2":9.158014,"centerLat":8.940108,"centerLng":125.47851,"geometrySource":"barangays.geojson simplified fallback","geometryMatchMethod":"simplified_fallback","boundaryPointCount":7},"geometry":{"type":"Polygon","coordinates":[[[125.467162357,8.959854009000026],[125.49077338300003,8.952689613000075],[125.49200814400001,8.937816549000047],[125.48112325800003,8.917855516000031],[125.4711756150001,8.91817939300006],[125.46383416700007,8.952604270000052],[125.467162357,8.959854009000026]]]}},{"type":"Feature","properties":{"ID_0":177,"ISO":"PHL","NAME_0":"Philippines","ID_1":16002,"NAME_1":"Agusan del Norte","ID_2":1600202,"NAME_2":"Butuan City (Capital)","ID_3":1630400017,"NAME_3":"Banza","NL_NAME_3":null,"VARNAME_3":null,"TYPE_3":"Barangay","ENGTYPE_3":"Village","PROVINCE":"Agusan del Norte","REGION":"Region XIII (Caraga)","id":"barangay-1630400017","name":"Banza","barangayCode":"1630400017","population":null,"formattedPop":null,"densityCategory":"No data","vulnerabilityRating":"No data","healthRiskLevel":"No data","areaKm2":5.120128,"centerLat":8.975786,"centerLng":125.550373,"geometrySource":"barangays.geojson simplified fallback","geometryMatchMethod":"simplified_fallback","boundaryPointCount":7},"geometry":{"type":"Polygon","coordinates":[[[125.5482206260001,8.989175789000058],[125.56557254600011,8.96876773200006],[125.5537077780001,8.959966845000054],[125.53633948600009,8.972241232000044],[125.54366850400004,8.99640516200003],[125.55381424300003,8.99640516200003],[125.5482206260001,8.989175789000058]]]}},{"type":"Feature","properties":{"ID_0":177,"ISO":"PHL","NAME_0":"Philippines","ID_1":16002,"NAME_1":"Agusan del Norte","ID_2":1600202,"NAME_2":"Butuan City (Capital)","ID_3":1630400018,"NAME_3":"Baobaoan","NL_NAME_3":null,"VARNAME_3":null,"TYPE_3":"Barangay","ENGTYPE_3":"Village","PROVINCE":"Agusan del Norte","REGION":"Region XIII (Caraga)","id":"barangay-1630400018","name":"Baobaoan","barangayCode":"1630400018","population":null,"formattedPop":null,"densityCategory":"No data","vulnerabilityRating":"No data","healthRiskLevel":"No data","areaKm2":7.801422,"centerLat":9.019936,"centerLng":125.581024,"geometrySource":"barangays.geojson simplified fallback","geometryMatchMethod":"simplified_fallback","boundaryPointCount":5},"geometry":{"type":"Polygon","coordinates":[[[125.57932085800007,9.04315037400005],[125.5938165020001,9.003907702000049],[125.5711459260001,9.004068797000059],[125.57120843000007,9.034258847000046],[125.57932085800007,9.04315037400005]]]}},{"type":"Feature","properties":{"ID_0":177,"ISO":"PHL","NAME_0":"Philippines","ID_1":16002,"NAME_1":"Agusan del Norte","ID_2":1600202,"NAME_2":"Butuan City (Capital)","ID_3":1630400019,"NAME_3":"Basag","NL_NAME_3":null,"VARNAME_3":null,"TYPE_3":"Barangay","ENGTYPE_3":"Village","PROVINCE":"Agusan del Norte","REGION":"Region XIII (Caraga)","id":"barangay-1630400019","name":"Basag","barangayCode":"1630400019","population":null,"formattedPop":null,"densityCategory":"No data","vulnerabilityRating":"No data","healthRiskLevel":"No data","areaKm2":8.245834,"centerLat":8.930294,"centerLng":125.612025,"geometrySource":"barangays.geojson simplified fallback","geometryMatchMethod":"simplified_fallback","boundaryPointCount":5},"geometry":{"type":"Polygon","coordinates":[[[125.61174064800002,8.945721778000063],[125.63198016100012,8.927094269000065],[125.60781626700009,8.915423130000022],[125.59341199100004,8.924300427000048],[125.61174064800002,8.945721778000063]]]}},{"type":"Feature","properties":{"ID_0":177,"ISO":"PHL","NAME_0":"Philippines","ID_1":16002,"NAME_1":"Agusan del Norte","ID_2":1600202,"NAME_2":"Butuan City (Capital)","ID_3":1630400020,"NAME_3":"Bayanihan Pob.","NL_NAME_3":null,"VARNAME_3":null,"TYPE_3":"Barangay","ENGTYPE_3":"Village","PROVINCE":"Agusan del Norte","REGION":"Region XIII (Caraga)","id":"barangay-1630400020","name":"Bayanihan Pob.","barangayCode":"1630400020","population":null,"formattedPop":null,"densityCategory":"No data","vulnerabilityRating":"No data","healthRiskLevel":"No data","areaKm2":1.389395,"centerLat":8.943285,"centerLng":125.523632,"geometrySource":"barangays.geojson simplified fallback","geometryMatchMethod":"simplified_fallback","boundaryPointCount":5},"geometry":{"type":"Polygon","coordinates":[[[125.52741250600002,8.949424202000046],[125.52854228100011,8.937092952000057],[125.51997168200012,8.936012493000021],[125.518654093,8.949613040000031],[125.52741250600002,8.949424202000046]]]}},{"type":"Feature","properties":{"ID_0":177,"ISO":"PHL","NAME_0":"Philippines","ID_1":16002,"NAME_1":"Agusan del Norte","ID_2":1600202,"NAME_2":"Butuan City (Capital)","ID_3":1630400021,"NAME_3":"Bilay","NL_NAME_3":null,"VARNAME_3":null,"TYPE_3":"Barangay","ENGTYPE_3":"Village","PROVINCE":"Agusan del Norte","REGION":"Region XIII (Caraga)","id":"barangay-1630400021","name":"Bilay","barangayCode":"1630400021","population":null,"formattedPop":null,"densityCategory":"No data","vulnerabilityRating":"No data","healthRiskLevel":"No data","areaKm2":7.73363,"centerLat":8.846653,"centerLng":125.583505,"geometrySource":"barangays.geojson simplified fallback","geometryMatchMethod":"simplified_fallback","boundaryPointCount":7},"geometry":{"type":"Polygon","coordinates":[[[125.57227895800008,8.860507304000066],[125.60159383100006,8.850395322000054],[125.59248463500012,8.839043728000036],[125.59698137200007,8.833656039000061],[125.58059801000002,8.828824242000053],[125.56346867800005,8.856873696000036],[125.57227895800008,8.860507304000066]]]}},{"type":"Feature","properties":{"ID_0":177,"ISO":"PHL","NAME_0":"Philippines","ID_1":16002,"NAME_1":"Agusan del Norte","ID_2":1600202,"NAME_2":"Butuan City (Capital)","ID_3":1630400022,"NAME_3":"Bit-os","NL_NAME_3":null,"VARNAME_3":null,"TYPE_3":"Barangay","ENGTYPE_3":"Village","PROVINCE":"Agusan del Norte","REGION":"Region XIII (Caraga)","id":"barangay-1630400022","name":"Bit-os","barangayCode":"1630400022","population":null,"formattedPop":null,"densityCategory":"No data","vulnerabilityRating":"No data","healthRiskLevel":"No data","areaKm2":17.819269,"centerLat":8.881105,"centerLng":125.521601,"geometrySource":"barangays.geojson simplified fallback","geometryMatchMethod":"simplified_fallback","boundaryPointCount":5},"geometry":{"type":"Polygon","coordinates":[[[125.49673365500007,8.897116089000065],[125.55613138300009,8.898109047000048],[125.52801213300006,8.863325761000056],[125.50314659500009,8.858632336000028],[125.49673365500007,8.897116089000065]]]}},{"type":"Feature","properties":{"ID_0":177,"ISO":"PHL","NAME_0":"Philippines","ID_1":16002,"NAME_1":"Agusan del Norte","ID_2":1600202,"NAME_2":"Butuan City (Capital)","ID_3":1630400023,"NAME_3":"Bitan-agan","NL_NAME_3":null,"VARNAME_3":null,"TYPE_3":"Barangay","ENGTYPE_3":"Village","PROVINCE":"Agusan del Norte","REGION":"Region XIII (Caraga)","id":"barangay-1630400023","name":"Bitan-agan","barangayCode":"1630400023","population":null,"formattedPop":null,"densityCategory":"No data","vulnerabilityRating":"No data","healthRiskLevel":"No data","areaKm2":11.272662,"centerLat":8.849876,"centerLng":125.527291,"geometrySource":"barangays.geojson simplified fallback","geometryMatchMethod":"simplified_fallback","boundaryPointCount":5},"geometry":{"type":"Polygon","coordinates":[[[125.54242074000001,8.860533012000076],[125.55012512000008,8.849757258000068],[125.52164763100006,8.831691918000047],[125.50314659500009,8.858632336000028],[125.54242074000001,8.860533012000076]]]}},{"type":"Feature","properties":{"ID_0":177,"ISO":"PHL","NAME_0":"Philippines","ID_1":16002,"NAME_1":"Agusan del Norte","ID_2":1600202,"NAME_2":"Butuan City (Capital)","ID_3":1630400024,"NAME_3":"Bobon","NL_NAME_3":null,"VARNAME_3":null,"TYPE_3":"Barangay","ENGTYPE_3":"Village","PROVINCE":"Agusan del Norte","REGION":"Region XIII (Caraga)","id":"barangay-1630400024","name":"Bobon","barangayCode":"1630400024","population":null,"formattedPop":null,"densityCategory":"No data","vulnerabilityRating":"No data","healthRiskLevel":"No data","areaKm2":4.732859,"centerLat":8.986475,"centerLng":125.560309,"geometrySource":"barangays.geojson simplified fallback","geometryMatchMethod":"simplified_fallback","boundaryPointCount":5},"geometry":{"type":"Polygon","coordinates":[[[125.57105007200005,8.991660239000055],[125.56406485900004,8.972597584000027],[125.54827270800001,8.986455531000047],[125.55381424300003,8.99640516200003],[125.57105007200005,8.991660239000055]]]}},{"type":"Feature","properties":{"ID_0":177,"ISO":"PHL","NAME_0":"Philippines","ID_1":16002,"NAME_1":"Agusan del Norte","ID_2":1600202,"NAME_2":"Butuan City (Capital)","ID_3":1630400025,"NAME_3":"Bonbon","NL_NAME_3":null,"VARNAME_3":null,"TYPE_3":"Barangay","ENGTYPE_3":"Village","PROVINCE":"Agusan del Norte","REGION":"Region XIII (Caraga)","id":"barangay-1630400025","name":"Bonbon","barangayCode":"1630400025","population":null,"formattedPop":null,"densityCategory":"No data","vulnerabilityRating":"No data","healthRiskLevel":"No data","areaKm2":12.900723,"centerLat":8.918475,"centerLng":125.506304,"geometrySource":"barangays.geojson simplified fallback","geometryMatchMethod":"simplified_fallback","boundaryPointCount":6},"geometry":{"type":"Polygon","coordinates":[[[125.50977770200006,8.93970230900004],[125.52458731700006,8.936358986000073],[125.51405395000006,8.89500061700005],[125.49673365500007,8.897116089000065],[125.4873366280001,8.917227663000062],[125.50977770200006,8.93970230900004]]]}},{"type":"Feature","properties":{"ID_0":177,"ISO":"PHL","NAME_0":"Philippines","ID_1":16002,"NAME_1":"Agusan del Norte","ID_2":1600202,"NAME_2":"Butuan City (Capital)","ID_3":1630400026,"NAME_3":"Bugabus","NL_NAME_3":null,"VARNAME_3":null,"TYPE_3":"Barangay","ENGTYPE_3":"Village","PROVINCE":"Agusan del Norte","REGION":"Region XIII (Caraga)","id":"barangay-1630400026","name":"Bugabus","barangayCode":"1630400026","population":null,"formattedPop":null,"densityCategory":"No data","vulnerabilityRating":"No data","healthRiskLevel":"No data","areaKm2":33.509727,"centerLat":8.813346,"centerLng":125.568155,"geometrySource":"barangays.geojson simplified fallback","geometryMatchMethod":"simplified_fallback","boundaryPointCount":13},"geometry":{"type":"MultiPolygon","coordinates":[[[[125.57315567900002,8.825040339000054],[125.58697139000003,8.803600009000036],[125.55209028500008,8.807379980000064],[125.55474402100003,8.824350197000058],[125.57315567900002,8.825040339000054]]],[[[125.52350988900002,8.832158262000064],[125.525490536,8.813871494000068],[125.55298449300005,8.81465916600007],[125.55103931600001,8.79923525700002],[125.49048686600008,8.796024861000035],[125.4668070560001,8.815767521000055],[125.46689333600011,8.830952828000022],[125.52350988900002,8.832158262000064]]]]}},{"type":"Feature","properties":{"ID_0":177,"ISO":"PHL","NAME_0":"Philippines","ID_1":16002,"NAME_1":"Agusan del Norte","ID_2":1600202,"NAME_2":"Butuan City (Capital)","ID_3":1630400027,"NAME_3":"Buhangin Pob.","NL_NAME_3":null,"VARNAME_3":null,"TYPE_3":"Barangay","ENGTYPE_3":"Village","PROVINCE":"Agusan del Norte","REGION":"Region XIII (Caraga)","id":"barangay-1630400027","name":"Buhangin Pob.","barangayCode":"1630400027","population":null,"formattedPop":null,"densityCategory":"No data","vulnerabilityRating":"No data","healthRiskLevel":"No data","areaKm2":1.498032,"centerLat":8.943023,"centerLng":125.550152,"geometrySource":"barangays.geojson simplified fallback","geometryMatchMethod":"simplified_fallback","boundaryPointCount":5},"geometry":{"type":"Polygon","coordinates":[[[125.55350598300004,8.94833838300002],[125.55577197800005,8.938582791000044],[125.54953215900002,8.934822567000026],[125.54363402900003,8.941767318000075],[125.55350598300004,8.94833838300002]]]}},{"type":"Feature","properties":{"ID_0":177,"ISO":"PHL","NAME_0":"Philippines","ID_1":16002,"NAME_1":"Agusan del Norte","ID_2":1600202,"NAME_2":"Butuan City (Capital)","ID_3":1630400029,"NAME_3":"Cabcabon","NL_NAME_3":null,"VARNAME_3":null,"TYPE_3":"Barangay","ENGTYPE_3":"Village","PROVINCE":"Agusan del Norte","REGION":"Region XIII (Caraga)","id":"barangay-1630400029","name":"Cabcabon","barangayCode":"1630400029","population":null,"formattedPop":null,"densityCategory":"No data","vulnerabilityRating":"No data","healthRiskLevel":"No data","areaKm2":6.94075,"centerLat":8.992007,"centerLng":125.5825,"geometrySource":"barangays.geojson simplified fallback","geometryMatchMethod":"simplified_fallback","boundaryPointCount":5},"geometry":{"type":"Polygon","coordinates":[[[125.57264101700002,9.004056111000068],[125.5938165020001,9.003907702000049],[125.59473169400007,8.980825958000025],[125.5680584690001,8.979963783000073],[125.57264101700002,9.004056111000068]]]}},{"type":"Feature","properties":{"ID_0":177,"ISO":"PHL","NAME_0":"Philippines","ID_1":16002,"NAME_1":"Agusan del Norte","ID_2":1600202,"NAME_2":"Butuan City (Capital)","ID_3":1630400031,"NAME_3":"Camayahan","NL_NAME_3":null,"VARNAME_3":null,"TYPE_3":"Barangay","ENGTYPE_3":"Village","PROVINCE":"Agusan del Norte","REGION":"Region XIII (Caraga)","id":"barangay-1630400031","name":"Camayahan","barangayCode":"1630400031","population":null,"formattedPop":null,"densityCategory":"No data","vulnerabilityRating":"No data","healthRiskLevel":"No data","areaKm2":20.971384,"centerLat":8.88892,"centerLng":125.619486,"geometrySource":"barangays.geojson simplified fallback","geometryMatchMethod":"simplified_fallback","boundaryPointCount":9},"geometry":{"type":"Polygon","coordinates":[[[125.59341199100004,8.924300427000048],[125.60781626700009,8.915423130000022],[125.61875353300002,8.920391279000057],[125.6359873450001,8.897580467000068],[125.63876141100002,8.847520701000064],[125.614544324,8.861337921000029],[125.60835402500004,8.894257289000052],[125.59175214400011,8.908585965000043],[125.59341199100004,8.924300427000048]]]}},{"type":"Feature","properties":{"ID_0":177,"ISO":"PHL","NAME_0":"Philippines","ID_1":16002,"NAME_1":"Agusan del Norte","ID_2":1600202,"NAME_2":"Butuan City (Capital)","ID_3":1630400033,"NAME_3":"Baan Riverside Pob.","NL_NAME_3":null,"VARNAME_3":null,"TYPE_3":"Barangay","ENGTYPE_3":"Village","PROVINCE":"Agusan del Norte","REGION":"Region XIII (Caraga)","id":"barangay-1630400033","name":"Baan Riverside Pob.","barangayCode":"1630400033","population":null,"formattedPop":null,"densityCategory":"No data","vulnerabilityRating":"No data","healthRiskLevel":"No data","areaKm2":0.579136,"centerLat":8.952926,"centerLng":125.548292,"geometrySource":"barangays.geojson simplified fallback","geometryMatchMethod":"simplified_fallback","boundaryPointCount":4},"geometry":{"type":"Polygon","coordinates":[[[125.54351707500007,8.955213116000039],[125.55408590400009,8.95209006600004],[125.54651666500001,8.948054845000058],[125.54351707500007,8.955213116000039]]]}},{"type":"Feature","properties":{"ID_0":177,"ISO":"PHL","NAME_0":"Philippines","ID_1":16002,"NAME_1":"Agusan del Norte","ID_2":1600202,"NAME_2":"Butuan City (Capital)","ID_3":1630400036,"NAME_3":"Dankias","NL_NAME_3":null,"VARNAME_3":null,"TYPE_3":"Barangay","ENGTYPE_3":"Village","PROVINCE":"Agusan del Norte","REGION":"Region XIII (Caraga)","id":"barangay-1630400036","name":"Dankias","barangayCode":"1630400036","population":null,"formattedPop":null,"densityCategory":"No data","vulnerabilityRating":"No data","healthRiskLevel":"No data","areaKm2":6.098221,"centerLat":8.756937,"centerLng":125.574802,"geometrySource":"barangays.geojson simplified fallback","geometryMatchMethod":"simplified_fallback","boundaryPointCount":7},"geometry":{"type":"Polygon","coordinates":[[[125.58393166400003,8.766644037000049],[125.584254385,8.757012114000077],[125.59680379600002,8.757289154000034],[125.59182229600003,8.74873145600003],[125.56017653300012,8.748690095000029],[125.560333506,8.766357085000038],[125.58393166400003,8.766644037000049]]]}},{"type":"Feature","properties":{"ID_0":177,"ISO":"PHL","NAME_0":"Philippines","ID_1":16002,"NAME_1":"Agusan del Norte","ID_2":1600202,"NAME_2":"Butuan City (Capital)","ID_3":1630400037,"NAME_3":"Imadejas Pob.","NL_NAME_3":null,"VARNAME_3":null,"TYPE_3":"Barangay","ENGTYPE_3":"Village","PROVINCE":"Agusan del Norte","REGION":"Region XIII (Caraga)","id":"barangay-1630400037","name":"Imadejas Pob.","barangayCode":"1630400037","population":null,"formattedPop":null,"densityCategory":"No data","vulnerabilityRating":"No data","healthRiskLevel":"No data","areaKm2":0.628485,"centerLat":8.943344,"centerLng":125.529933,"geometrySource":"barangays.geojson simplified fallback","geometryMatchMethod":"simplified_fallback","boundaryPointCount":4},"geometry":{"type":"Polygon","coordinates":[[[125.52741250600002,8.949424202000046],[125.533514093,8.941341478000027],[125.52854228100011,8.937092952000057],[125.52741250600002,8.949424202000046]]]}},{"type":"Feature","properties":{"ID_0":177,"ISO":"PHL","NAME_0":"Philippines","ID_1":16002,"NAME_1":"Agusan del Norte","ID_2":1600202,"NAME_2":"Butuan City (Capital)","ID_3":1630400038,"NAME_3":"Diego Silang Pob.","NL_NAME_3":null,"VARNAME_3":null,"TYPE_3":"Barangay","ENGTYPE_3":"Village","PROVINCE":"Agusan del Norte","REGION":"Region XIII (Caraga)","id":"barangay-1630400038","name":"Diego Silang Pob.","barangayCode":"1630400038","population":null,"formattedPop":null,"densityCategory":"No data","vulnerabilityRating":"No data","healthRiskLevel":"No data","areaKm2":0.141473,"centerLat":8.945409,"centerLng":125.541934,"geometrySource":"barangays.geojson simplified fallback","geometryMatchMethod":"simplified_fallback","boundaryPointCount":4},"geometry":{"type":"Polygon","coordinates":[[[125.540373584,8.943474984000034],[125.54351531200007,8.947271861000047],[125.54327509000007,8.943322831000046],[125.540373584,8.943474984000034]]]}},{"type":"Feature","properties":{"ID_0":177,"ISO":"PHL","NAME_0":"Philippines","ID_1":16002,"NAME_1":"Agusan del Norte","ID_2":1600202,"NAME_2":"Butuan City (Capital)","ID_3":1630400039,"NAME_3":"Doongan","NL_NAME_3":null,"VARNAME_3":null,"TYPE_3":"Barangay","ENGTYPE_3":"Village","PROVINCE":"Agusan del Norte","REGION":"Region XIII (Caraga)","id":"barangay-1630400039","name":"Doongan","barangayCode":"1630400039","population":null,"formattedPop":null,"densityCategory":"No data","vulnerabilityRating":"No data","healthRiskLevel":"No data","areaKm2":3.718823,"centerLat":8.959993,"centerLng":125.522409,"geometrySource":"barangays.geojson simplified fallback","geometryMatchMethod":"simplified_fallback","boundaryPointCount":7},"geometry":{"type":"Polygon","coordinates":[[[125.52353530900007,8.97029728900003],[125.53401554700008,8.960100686000033],[125.52723303000005,8.958448320000059],[125.53029727900002,8.950155513000027],[125.518654093,8.949613040000031],[125.51140880800006,8.955491233000032],[125.52353530900007,8.97029728900003]]]}},{"type":"Feature","properties":{"ID_0":177,"ISO":"PHL","NAME_0":"Philippines","ID_1":16002,"NAME_1":"Agusan del Norte","ID_2":1600202,"NAME_2":"Butuan City (Capital)","ID_3":1630400040,"NAME_3":"Dumalagan","NL_NAME_3":null,"VARNAME_3":null,"TYPE_3":"Barangay","ENGTYPE_3":"Village","PROVINCE":"Agusan del Norte","REGION":"Region XIII (Caraga)","id":"barangay-1630400040","name":"Dumalagan","barangayCode":"1630400040","population":null,"formattedPop":null,"densityCategory":"No data","vulnerabilityRating":"No data","healthRiskLevel":"No data","areaKm2":3.187401,"centerLat":8.933695,"centerLng":125.466005,"geometrySource":"barangays.geojson simplified fallback","geometryMatchMethod":"simplified_fallback","boundaryPointCount":4},"geometry":{"type":"Polygon","coordinates":[[[125.46131473900004,8.952484297000069],[125.47219351400008,8.919845045000045],[125.46321610200005,8.915159102000075],[125.46131473900004,8.952484297000069]]]}},{"type":"Feature","properties":{"ID_0":177,"ISO":"PHL","NAME_0":"Philippines","ID_1":16002,"NAME_1":"Agusan del Norte","ID_2":1600202,"NAME_2":"Butuan City (Capital)","ID_3":1630400043,"NAME_3":"Golden Ribbon Pob.","NL_NAME_3":null,"VARNAME_3":null,"TYPE_3":"Barangay","ENGTYPE_3":"Village","PROVINCE":"Agusan del Norte","REGION":"Region XIII (Caraga)","id":"barangay-1630400043","name":"Golden Ribbon Pob.","barangayCode":"1630400043","population":null,"formattedPop":null,"densityCategory":"No data","vulnerabilityRating":"No data","healthRiskLevel":"No data","areaKm2":0.421409,"centerLat":8.939365,"centerLng":125.542045,"geometrySource":"barangays.geojson simplified fallback","geometryMatchMethod":"simplified_fallback","boundaryPointCount":4},"geometry":{"type":"Polygon","coordinates":[[[125.540373584,8.943474984000034],[125.545421368,8.937898914000073],[125.5396803540001,8.934220961000051],[125.540373584,8.943474984000034]]]}},{"type":"Feature","properties":{"ID_0":177,"ISO":"PHL","NAME_0":"Philippines","ID_1":16002,"NAME_1":"Agusan del Norte","ID_2":1600202,"NAME_2":"Butuan City (Capital)","ID_3":1630400044,"NAME_3":"Dagohoy Pob.","NL_NAME_3":null,"VARNAME_3":null,"TYPE_3":"Barangay","ENGTYPE_3":"Village","PROVINCE":"Agusan del Norte","REGION":"Region XIII (Caraga)","id":"barangay-1630400044","name":"Dagohoy Pob.","barangayCode":"1630400044","population":null,"formattedPop":null,"densityCategory":"No data","vulnerabilityRating":"No data","healthRiskLevel":"No data","areaKm2":0.265406,"centerLat":8.943976,"centerLng":125.536437,"geometrySource":"barangays.geojson simplified fallback","geometryMatchMethod":"simplified_fallback","boundaryPointCount":4},"geometry":{"type":"Polygon","coordinates":[[[125.53250390200003,8.944080371000041],[125.540373584,8.943474984000034],[125.533514093,8.941341478000027],[125.53250390200003,8.944080371000041]]]}},{"type":"Feature","properties":{"ID_0":177,"ISO":"PHL","NAME_0":"Philippines","ID_1":16002,"NAME_1":"Agusan del Norte","ID_2":1600202,"NAME_2":"Butuan City (Capital)","ID_3":1630400045,"NAME_3":"Jose Rizal Pob.","NL_NAME_3":null,"VARNAME_3":null,"TYPE_3":"Barangay","ENGTYPE_3":"Village","PROVINCE":"Agusan del Norte","REGION":"Region XIII (Caraga)","id":"barangay-1630400045","name":"Jose Rizal Pob.","barangayCode":"1630400045","population":null,"formattedPop":null,"densityCategory":"No data","vulnerabilityRating":"No data","healthRiskLevel":"No data","areaKm2":0.549865,"centerLat":8.939264,"centerLng":125.536736,"geometrySource":"barangays.geojson simplified fallback","geometryMatchMethod":"simplified_fallback","boundaryPointCount":4},"geometry":{"type":"Polygon","coordinates":[[[125.53154258300003,8.940704224000058],[125.540373584,8.943474984000034],[125.53967662500008,8.935239597000077],[125.53154258300003,8.940704224000058]]]}},{"type":"Feature","properties":{"ID_0":177,"ISO":"PHL","NAME_0":"Philippines","ID_1":16002,"NAME_1":"Agusan del Norte","ID_2":1600202,"NAME_2":"Butuan City (Capital)","ID_3":1630400047,"NAME_3":"Holy Redeemer Pob.","NL_NAME_3":null,"VARNAME_3":null,"TYPE_3":"Barangay","ENGTYPE_3":"Village","PROVINCE":"Agusan del Norte","REGION":"Region XIII (Caraga)","id":"barangay-1630400047","name":"Holy Redeemer Pob.","barangayCode":"1630400047","population":null,"formattedPop":null,"densityCategory":"No data","vulnerabilityRating":"No data","healthRiskLevel":"No data","areaKm2":0.469185,"centerLat":8.957549,"centerLng":125.531822,"geometrySource":"barangays.geojson simplified fallback","geometryMatchMethod":"simplified_fallback","boundaryPointCount":4},"geometry":{"type":"Polygon","coordinates":[[[125.52810332800004,8.959615873000075],[125.53903284800003,8.957621808000056],[125.52857075700001,8.954743448000045],[125.52810332800004,8.959615873000075]]]}},{"type":"Feature","properties":{"ID_0":177,"ISO":"PHL","NAME_0":"Philippines","ID_1":16002,"NAME_1":"Agusan del Norte","ID_2":1600202,"NAME_2":"Butuan City (Capital)","ID_3":1630400048,"NAME_3":"Humabon Pob.","NL_NAME_3":null,"VARNAME_3":null,"TYPE_3":"Barangay","ENGTYPE_3":"Village","PROVINCE":"Agusan del Norte","REGION":"Region XIII (Caraga)","id":"barangay-1630400048","name":"Humabon Pob.","barangayCode":"1630400048","population":null,"formattedPop":null,"densityCategory":"No data","vulnerabilityRating":"No data","healthRiskLevel":"No data","areaKm2":0.046792,"centerLat":8.949758,"centerLng":125.542955,"geometrySource":"barangays.geojson simplified fallback","geometryMatchMethod":"simplified_fallback","boundaryPointCount":4},"geometry":{"type":"Polygon","coordinates":[[[125.54087465300006,8.950211643000046],[125.54570178800009,8.94967757300003],[125.54075667900008,8.948860356000068],[125.54087465300006,8.950211643000046]]]}},{"type":"Feature","properties":{"ID_0":177,"ISO":"PHL","NAME_0":"Philippines","ID_1":16002,"NAME_1":"Agusan del Norte","ID_2":1600202,"NAME_2":"Butuan City (Capital)","ID_3":1630400049,"NAME_3":"Kinamlutan","NL_NAME_3":null,"VARNAME_3":null,"TYPE_3":"Barangay","ENGTYPE_3":"Village","PROVINCE":"Agusan del Norte","REGION":"Region XIII (Caraga)","id":"barangay-1630400049","name":"Kinamlutan","barangayCode":"1630400049","population":null,"formattedPop":null,"densityCategory":"No data","vulnerabilityRating":"No data","healthRiskLevel":"No data","areaKm2":7.967293,"centerLat":8.908428,"centerLng":125.527128,"geometrySource":"barangays.geojson simplified fallback","geometryMatchMethod":"simplified_fallback","boundaryPointCount":5},"geometry":{"type":"Polygon","coordinates":[[[125.5178765930001,8.92305845200002],[125.53725249700005,8.920521004000022],[125.54031074200009,8.898378560000026],[125.51405395000006,8.89500061700005],[125.5178765930001,8.92305845200002]]]}},{"type":"Feature","properties":{"ID_0":177,"ISO":"PHL","NAME_0":"Philippines","ID_1":16002,"NAME_1":"Agusan del Norte","ID_2":1600202,"NAME_2":"Butuan City (Capital)","ID_3":1630400051,"NAME_3":"Lapu-lapu Pob.","NL_NAME_3":null,"VARNAME_3":null,"TYPE_3":"Barangay","ENGTYPE_3":"Village","PROVINCE":"Agusan del Norte","REGION":"Region XIII (Caraga)","id":"barangay-1630400051","name":"Lapu-lapu Pob.","barangayCode":"1630400051","population":null,"formattedPop":null,"densityCategory":"No data","vulnerabilityRating":"No data","healthRiskLevel":"No data","areaKm2":0.115173,"centerLat":8.946167,"centerLng":125.535444,"geometrySource":"barangays.geojson simplified fallback","geometryMatchMethod":"simplified_fallback","boundaryPointCount":4},"geometry":{"type":"Polygon","coordinates":[[[125.53196221500002,8.94560021500007],[125.53860075700004,8.945813447000035],[125.53250390200003,8.944080371000041],[125.53196221500002,8.94560021500007]]]}},{"type":"Feature","properties":{"ID_0":177,"ISO":"PHL","NAME_0":"Philippines","ID_1":16002,"NAME_1":"Agusan del Norte","ID_2":1600202,"NAME_2":"Butuan City (Capital)","ID_3":1630400052,"NAME_3":"Lemon","NL_NAME_3":null,"VARNAME_3":null,"TYPE_3":"Barangay","ENGTYPE_3":"Village","PROVINCE":"Agusan del Norte","REGION":"Region XIII (Caraga)","id":"barangay-1630400052","name":"Lemon","barangayCode":"1630400052","population":null,"formattedPop":null,"densityCategory":"No data","vulnerabilityRating":"No data","healthRiskLevel":"No data","areaKm2":5.354424,"centerLat":8.940549,"centerLng":125.592986,"geometrySource":"barangays.geojson simplified fallback","geometryMatchMethod":"simplified_fallback","boundaryPointCount":5},"geometry":{"type":"Polygon","coordinates":[[[125.60392344700006,8.953456139000025],[125.59341199100004,8.924300427000048],[125.57736948100012,8.93816842900003],[125.58917916000007,8.950761844000056],[125.60392344700006,8.953456139000025]]]}},{"type":"Feature","properties":{"ID_0":177,"ISO":"PHL","NAME_0":"Philippines","ID_1":16002,"NAME_1":"Agusan del Norte","ID_2":1600202,"NAME_2":"Butuan City (Capital)","ID_3":1630400053,"NAME_3":"Leon Kilat Pob.","NL_NAME_3":null,"VARNAME_3":null,"TYPE_3":"Barangay","ENGTYPE_3":"Village","PROVINCE":"Agusan del Norte","REGION":"Region XIII (Caraga)","id":"barangay-1630400053","name":"Leon Kilat Pob.","barangayCode":"1630400053","population":null,"formattedPop":null,"densityCategory":"No data","vulnerabilityRating":"No data","healthRiskLevel":"No data","areaKm2":0.076308,"centerLat":8.951058,"centerLng":125.54299,"geometrySource":"barangays.geojson simplified fallback","geometryMatchMethod":"simplified_fallback","boundaryPointCount":4},"geometry":{"type":"Polygon","coordinates":[[[125.54098655100006,8.951609964000056],[125.5453011510001,8.950414361000071],[125.54087465300006,8.950211643000046],[125.54098655100006,8.951609964000056]]]}},{"type":"Feature","properties":{"ID_0":177,"ISO":"PHL","NAME_0":"Philippines","ID_1":16002,"NAME_1":"Agusan del Norte","ID_2":1600202,"NAME_2":"Butuan City (Capital)","ID_3":1630400054,"NAME_3":"Libertad","NL_NAME_3":null,"VARNAME_3":null,"TYPE_3":"Barangay","ENGTYPE_3":"Village","PROVINCE":"Agusan del Norte","REGION":"Region XIII (Caraga)","id":"barangay-1630400054","name":"Libertad","barangayCode":"1630400054","population":null,"formattedPop":null,"densityCategory":"No data","vulnerabilityRating":"No data","healthRiskLevel":"No data","areaKm2":7.584361,"centerLat":8.941296,"centerLng":125.500064,"geometrySource":"barangays.geojson simplified fallback","geometryMatchMethod":"simplified_fallback","boundaryPointCount":6},"geometry":{"type":"Polygon","coordinates":[[[125.49644370300007,8.958066347000056],[125.51507255900003,8.953378361000034],[125.51986075700006,8.939363448000051],[125.50670697200007,8.940958567000052],[125.48112325800003,8.917855516000031],[125.49644370300007,8.958066347000056]]]}},{"type":"Feature","properties":{"ID_0":177,"ISO":"PHL","NAME_0":"Philippines","ID_1":16002,"NAME_1":"Agusan del Norte","ID_2":1600202,"NAME_2":"Butuan City (Capital)","ID_3":1630400055,"NAME_3":"Limaha Pob.","NL_NAME_3":null,"VARNAME_3":null,"TYPE_3":"Barangay","ENGTYPE_3":"Village","PROVINCE":"Agusan del Norte","REGION":"Region XIII (Caraga)","id":"barangay-1630400055","name":"Limaha Pob.","barangayCode":"1630400055","population":null,"formattedPop":null,"densityCategory":"No data","vulnerabilityRating":"No data","healthRiskLevel":"No data","areaKm2":0.550173,"centerLat":8.952484,"centerLng":125.53391,"geometrySource":"barangays.geojson simplified fallback","geometryMatchMethod":"simplified_fallback","boundaryPointCount":4},"geometry":{"type":"Polygon","coordinates":[[[125.52978075700003,8.954213448000075],[125.54089517000011,8.950446472000067],[125.53082075700001,8.948653448000073],[125.52978075700003,8.954213448000075]]]}},{"type":"Feature","properties":{"ID_0":177,"ISO":"PHL","NAME_0":"Philippines","ID_1":16002,"NAME_1":"Agusan del Norte","ID_2":1600202,"NAME_2":"Butuan City (Capital)","ID_3":1630400056,"NAME_3":"Los Angeles","NL_NAME_3":null,"VARNAME_3":null,"TYPE_3":"Barangay","ENGTYPE_3":"Village","PROVINCE":"Agusan del Norte","REGION":"Region XIII (Caraga)","id":"barangay-1630400056","name":"Los Angeles","barangayCode":"1630400056","population":null,"formattedPop":null,"densityCategory":"No data","vulnerabilityRating":"No data","healthRiskLevel":"No data","areaKm2":17.625058,"centerLat":9.011663,"centerLng":125.620688,"geometrySource":"barangays.geojson simplified fallback","geometryMatchMethod":"simplified_fallback","boundaryPointCount":5},"geometry":{"type":"Polygon","coordinates":[[[125.65072799300003,9.026138888000048],[125.63633471600008,8.99279535900007],[125.59403736200011,9.002643556000066],[125.58939242600002,9.02306154300004],[125.65072799300003,9.026138888000048]]]}},{"type":"Feature","properties":{"ID_0":177,"ISO":"PHL","NAME_0":"Philippines","ID_1":16002,"NAME_1":"Agusan del Norte","ID_2":1600202,"NAME_2":"Butuan City (Capital)","ID_3":1630400057,"NAME_3":"Lumbocan","NL_NAME_3":null,"VARNAME_3":null,"TYPE_3":"Barangay","ENGTYPE_3":"Village","PROVINCE":"Agusan del Norte","REGION":"Region XIII (Caraga)","id":"barangay-1630400057","name":"Lumbocan","barangayCode":"1630400057","population":null,"formattedPop":null,"densityCategory":"No data","vulnerabilityRating":"No data","healthRiskLevel":"No data","areaKm2":4.729814,"centerLat":9.000406,"centerLng":125.510098,"geometrySource":"barangays.geojson simplified fallback","geometryMatchMethod":"simplified_fallback","boundaryPointCount":5},"geometry":{"type":"Polygon","coordinates":[[[125.50323003000005,9.012232041000061],[125.52423890400007,9.00679677200003],[125.51385539900002,8.986779221000063],[125.50460142700001,8.986425480000037],[125.50323003000005,9.012232041000061]]]}},{"type":"Feature","properties":{"ID_0":177,"ISO":"PHL","NAME_0":"Philippines","ID_1":16002,"NAME_1":"Agusan del Norte","ID_2":1600202,"NAME_2":"Butuan City (Capital)","ID_3":1630400060,"NAME_3":"Maguinda","NL_NAME_3":null,"VARNAME_3":null,"TYPE_3":"Barangay","ENGTYPE_3":"Village","PROVINCE":"Agusan del Norte","REGION":"Region XIII (Caraga)","id":"barangay-1630400060","name":"Maguinda","barangayCode":"1630400060","population":null,"formattedPop":null,"densityCategory":"No data","vulnerabilityRating":"No data","healthRiskLevel":"No data","areaKm2":16.263444,"centerLat":8.813124,"centerLng":125.600862,"geometrySource":"barangays.geojson simplified fallback","geometryMatchMethod":"simplified_fallback","boundaryPointCount":5},"geometry":{"type":"Polygon","coordinates":[[[125.61565018800002,8.829905859000064],[125.62192589100005,8.800406552000027],[125.59259777700004,8.79130209300007],[125.58059801000002,8.828824242000053],[125.61565018800002,8.829905859000064]]]}},{"type":"Feature","properties":{"ID_0":177,"ISO":"PHL","NAME_0":"Philippines","ID_1":16002,"NAME_1":"Agusan del Norte","ID_2":1600202,"NAME_2":"Butuan City (Capital)","ID_3":1630400061,"NAME_3":"Mahay","NL_NAME_3":null,"VARNAME_3":null,"TYPE_3":"Barangay","ENGTYPE_3":"Village","PROVINCE":"Agusan del Norte","REGION":"Region XIII (Caraga)","id":"barangay-1630400061","name":"Mahay","barangayCode":"1630400061","population":null,"formattedPop":null,"densityCategory":"No data","vulnerabilityRating":"No data","healthRiskLevel":"No data","areaKm2":4.926474,"centerLat":8.930882,"centerLng":125.565761,"geometrySource":"barangays.geojson simplified fallback","geometryMatchMethod":"simplified_fallback","boundaryPointCount":5},"geometry":{"type":"Polygon","coordinates":[[[125.57234638900002,8.939808138000046],[125.58644090900009,8.932010512000033],[125.55382113000007,8.920817888000045],[125.54953215900002,8.934822567000026],[125.57234638900002,8.939808138000046]]]}},{"type":"Feature","properties":{"ID_0":177,"ISO":"PHL","NAME_0":"Philippines","ID_1":16002,"NAME_1":"Agusan del Norte","ID_2":1600202,"NAME_2":"Butuan City (Capital)","ID_3":1630400062,"NAME_3":"Mahogany Pob.","NL_NAME_3":null,"VARNAME_3":null,"TYPE_3":"Barangay","ENGTYPE_3":"Village","PROVINCE":"Agusan del Norte","REGION":"Region XIII (Caraga)","id":"barangay-1630400062","name":"Mahogany Pob.","barangayCode":"1630400062","population":null,"formattedPop":null,"densityCategory":"No data","vulnerabilityRating":"No data","healthRiskLevel":"No data","areaKm2":1.240654,"centerLat":8.960904,"centerLng":125.548321,"geometrySource":"barangays.geojson simplified fallback","geometryMatchMethod":"simplified_fallback","boundaryPointCount":5},"geometry":{"type":"Polygon","coordinates":[[[125.55226272700008,8.965387891000034],[125.55250764900006,8.95550230300006],[125.54351707500007,8.955213116000039],[125.54327296400004,8.964285645000075],[125.55226272700008,8.965387891000034]]]}},{"type":"Feature","properties":{"ID_0":177,"ISO":"PHL","NAME_0":"Philippines","ID_1":16002,"NAME_1":"Agusan del Norte","ID_2":1600202,"NAME_2":"Butuan City (Capital)","ID_3":1630400063,"NAME_3":"Maibu","NL_NAME_3":null,"VARNAME_3":null,"TYPE_3":"Barangay","ENGTYPE_3":"Village","PROVINCE":"Agusan del Norte","REGION":"Region XIII (Caraga)","id":"barangay-1630400063","name":"Maibu","barangayCode":"1630400063","population":null,"formattedPop":null,"densityCategory":"No data","vulnerabilityRating":"No data","healthRiskLevel":"No data","areaKm2":8.997859,"centerLat":8.844985,"centerLng":125.612095,"geometrySource":"barangays.geojson simplified fallback","geometryMatchMethod":"simplified_fallback","boundaryPointCount":6},"geometry":{"type":"Polygon","coordinates":[[[125.6246551050001,8.857027831000039],[125.63025214800007,8.847265925000045],[125.61565018800002,8.829905859000064],[125.59461107400011,8.835427546000062],[125.60788720900007,8.85767486800006],[125.6246551050001,8.857027831000039]]]}},{"type":"Feature","properties":{"ID_0":177,"ISO":"PHL","NAME_0":"Philippines","ID_1":16002,"NAME_1":"Agusan del Norte","ID_2":1600202,"NAME_2":"Butuan City (Capital)","ID_3":1630400064,"NAME_3":"Mandamo","NL_NAME_3":null,"VARNAME_3":null,"TYPE_3":"Barangay","ENGTYPE_3":"Village","PROVINCE":"Agusan del Norte","REGION":"Region XIII (Caraga)","id":"barangay-1630400064","name":"Mandamo","barangayCode":"1630400064","population":null,"formattedPop":null,"densityCategory":"No data","vulnerabilityRating":"No data","healthRiskLevel":"No data","areaKm2":13.185123,"centerLat":8.762947,"centerLng":125.609212,"geometrySource":"barangays.geojson simplified fallback","geometryMatchMethod":"simplified_fallback","boundaryPointCount":8},"geometry":{"type":"Polygon","coordinates":[[[125.60435839600007,8.779063109000049],[125.63034312000002,8.769074982000063],[125.62897780700007,8.754001921000054],[125.59182229600003,8.74873145600003],[125.59680379600002,8.757289154000034],[125.5850928960001,8.756419021000056],[125.58425747500007,8.766016548000039],[125.60435839600007,8.779063109000049]]]}},{"type":"Feature","properties":{"ID_0":177,"ISO":"PHL","NAME_0":"Philippines","ID_1":16002,"NAME_1":"Agusan del Norte","ID_2":1600202,"NAME_2":"Butuan City (Capital)","ID_3":1630400066,"NAME_3":"Maon Pob.","NL_NAME_3":null,"VARNAME_3":null,"TYPE_3":"Barangay","ENGTYPE_3":"Village","PROVINCE":"Agusan del Norte","REGION":"Region XIII (Caraga)","id":"barangay-1630400066","name":"Maon Pob.","barangayCode":"1630400066","population":null,"formattedPop":null,"densityCategory":"No data","vulnerabilityRating":"No data","healthRiskLevel":"No data","areaKm2":0.764565,"centerLat":8.93297,"centerLng":125.544131,"geometrySource":"barangays.geojson simplified fallback","geometryMatchMethod":"simplified_fallback","boundaryPointCount":4},"geometry":{"type":"Polygon","coordinates":[[[125.5396803540001,8.934220961000051],[125.55044896000004,8.933223214000066],[125.53966722400003,8.927771717000041],[125.5396803540001,8.934220961000051]]]}},{"type":"Feature","properties":{"ID_0":177,"ISO":"PHL","NAME_0":"Philippines","ID_1":16002,"NAME_1":"Agusan del Norte","ID_2":1600202,"NAME_2":"Butuan City (Capital)","ID_3":1630400067,"NAME_3":"Masao","NL_NAME_3":null,"VARNAME_3":null,"TYPE_3":"Barangay","ENGTYPE_3":"Village","PROVINCE":"Agusan del Norte","REGION":"Region XIII (Caraga)","id":"barangay-1630400067","name":"Masao","barangayCode":"1630400067","population":null,"formattedPop":null,"densityCategory":"No data","vulnerabilityRating":"No data","healthRiskLevel":"No data","areaKm2":6.704489,"centerLat":8.991664,"centerLng":125.488807,"geometrySource":"barangays.geojson simplified fallback","geometryMatchMethod":"simplified_fallback","boundaryPointCount":5},"geometry":{"type":"Polygon","coordinates":[[[125.49919507800007,9.007395119000023],[125.50460142700001,8.986425480000037],[125.47209469300003,8.981933868000056],[125.47344520700005,8.99468610300005],[125.49919507800007,9.007395119000023]]]}},{"type":"Feature","properties":{"ID_0":177,"ISO":"PHL","NAME_0":"Philippines","ID_1":16002,"NAME_1":"Agusan del Norte","ID_2":1600202,"NAME_2":"Butuan City (Capital)","ID_3":1630400068,"NAME_3":"Maug","NL_NAME_3":null,"VARNAME_3":null,"TYPE_3":"Barangay","ENGTYPE_3":"Village","PROVINCE":"Agusan del Norte","REGION":"Region XIII (Caraga)","id":"barangay-1630400068","name":"Maug","barangayCode":"1630400068","population":null,"formattedPop":null,"densityCategory":"No data","vulnerabilityRating":"No data","healthRiskLevel":"No data","areaKm2":4.047008,"centerLat":8.985212,"centerLng":125.535832,"geometrySource":"barangays.geojson simplified fallback","geometryMatchMethod":"simplified_fallback","boundaryPointCount":5},"geometry":{"type":"Polygon","coordinates":[[[125.5286060410001,8.996417615000041],[125.54366850400004,8.99640516200003],[125.53633948600009,8.972241232000044],[125.52696137800001,8.980354876000035],[125.5286060410001,8.996417615000041]]]}},{"type":"Feature","properties":{"ID_0":177,"ISO":"PHL","NAME_0":"Philippines","ID_1":16002,"NAME_1":"Agusan del Norte","ID_2":1600202,"NAME_2":"Butuan City (Capital)","ID_3":1630400069,"NAME_3":"Port Poyohon Pob.","NL_NAME_3":null,"VARNAME_3":null,"TYPE_3":"Barangay","ENGTYPE_3":"Village","PROVINCE":"Agusan del Norte","REGION":"Region XIII (Caraga)","id":"barangay-1630400069","name":"Port Poyohon Pob.","barangayCode":"1630400069","population":null,"formattedPop":null,"densityCategory":"No data","vulnerabilityRating":"No data","healthRiskLevel":"No data","areaKm2":0.445501,"centerLat":8.960417,"centerLng":125.539724,"geometrySource":"barangays.geojson simplified fallback","geometryMatchMethod":"simplified_fallback","boundaryPointCount":4},"geometry":{"type":"Polygon","coordinates":[[[125.53927966000003,8.962945773000058],[125.54340819400011,8.958446270000024],[125.53451287000007,8.960374373000036],[125.53927966000003,8.962945773000058]]]}},{"type":"Feature","properties":{"ID_0":177,"ISO":"PHL","NAME_0":"Philippines","ID_1":16002,"NAME_1":"Agusan del Norte","ID_2":1600202,"NAME_2":"Butuan City (Capital)","ID_3":1630400070,"NAME_3":"New Society Village Pob.","NL_NAME_3":null,"VARNAME_3":null,"TYPE_3":"Barangay","ENGTYPE_3":"Village","PROVINCE":"Agusan del Norte","REGION":"Region XIII (Caraga)","id":"barangay-1630400070","name":"New Society Village Pob.","barangayCode":"1630400070","population":null,"formattedPop":null,"densityCategory":"No data","vulnerabilityRating":"No data","healthRiskLevel":"No data","areaKm2":0.053134,"centerLat":8.946612,"centerLng":125.539625,"geometrySource":"barangays.geojson simplified fallback","geometryMatchMethod":"simplified_fallback","boundaryPointCount":4},"geometry":{"type":"Polygon","coordinates":[[[125.53868075700007,8.94777344800002],[125.54047276300003,8.945283901000039],[125.53860388500004,8.945465998000032],[125.53868075700007,8.94777344800002]]]}},{"type":"Feature","properties":{"ID_0":177,"ISO":"PHL","NAME_0":"Philippines","ID_1":16002,"NAME_1":"Agusan del Norte","ID_2":1600202,"NAME_2":"Butuan City (Capital)","ID_3":1630400071,"NAME_3":"Ong Yiu Pob.","NL_NAME_3":null,"VARNAME_3":null,"TYPE_3":"Barangay","ENGTYPE_3":"Village","PROVINCE":"Agusan del Norte","REGION":"Region XIII (Caraga)","id":"barangay-1630400071","name":"Ong Yiu Pob.","barangayCode":"1630400071","population":null,"formattedPop":null,"densityCategory":"No data","vulnerabilityRating":"No data","healthRiskLevel":"No data","areaKm2":0.346234,"centerLat":8.955816,"centerLng":125.540015,"geometrySource":"barangays.geojson simplified fallback","geometryMatchMethod":"simplified_fallback","boundaryPointCount":4},"geometry":{"type":"Polygon","coordinates":[[[125.54142905600008,8.958246592000023],[125.54388236500006,8.95396270200007],[125.53514075600003,8.956593448000035],[125.54142905600008,8.958246592000023]]]}},{"type":"Feature","properties":{"ID_0":177,"ISO":"PHL","NAME_0":"Philippines","ID_1":16002,"NAME_1":"Agusan del Norte","ID_2":1600202,"NAME_2":"Butuan City (Capital)","ID_3":1630400072,"NAME_3":"Pianing","NL_NAME_3":null,"VARNAME_3":null,"TYPE_3":"Barangay","ENGTYPE_3":"Village","PROVINCE":"Agusan del Norte","REGION":"Region XIII (Caraga)","id":"barangay-1630400072","name":"Pianing","barangayCode":"1630400072","population":null,"formattedPop":null,"densityCategory":"No data","vulnerabilityRating":"No data","healthRiskLevel":"No data","areaKm2":26.387154,"centerLat":8.971636,"centerLng":125.672277,"geometrySource":"barangays.geojson simplified fallback","geometryMatchMethod":"simplified_fallback","boundaryPointCount":8},"geometry":{"type":"Polygon","coordinates":[[[125.64036587800001,8.992456632000028],[125.7014270310001,8.991433119000021],[125.69400024400011,8.978969574000075],[125.70077373200002,8.951795385000025],[125.67603503900011,8.937645287000066],[125.65354652200006,8.969095558000049],[125.63219667900012,8.984629727000026],[125.64036587800001,8.992456632000028]]]}},{"type":"Feature","properties":{"ID_0":177,"ISO":"PHL","NAME_0":"Philippines","ID_1":16002,"NAME_1":"Agusan del Norte","ID_2":1600202,"NAME_2":"Butuan City (Capital)","ID_3":1630400073,"NAME_3":"Pinamanculan","NL_NAME_3":null,"VARNAME_3":null,"TYPE_3":"Barangay","ENGTYPE_3":"Village","PROVINCE":"Agusan del Norte","REGION":"Region XIII (Caraga)","id":"barangay-1630400073","name":"Pinamanculan","barangayCode":"1630400073","population":null,"formattedPop":null,"densityCategory":"No data","vulnerabilityRating":"No data","healthRiskLevel":"No data","areaKm2":6.44935,"centerLat":8.968109,"centerLng":125.480996,"geometrySource":"barangays.geojson simplified fallback","geometryMatchMethod":"simplified_fallback","boundaryPointCount":5},"geometry":{"type":"Polygon","coordinates":[[[125.489154073,8.981067945000063],[125.49077338300003,8.952689613000075],[125.467162357,8.959854009000026],[125.47209469300003,8.981933868000056],[125.489154073,8.981067945000063]]]}},{"type":"Feature","properties":{"ID_0":177,"ISO":"PHL","NAME_0":"Philippines","ID_1":16002,"NAME_1":"Agusan del Norte","ID_2":1600202,"NAME_2":"Butuan City (Capital)","ID_3":1630400074,"NAME_3":"Rajah Soliman Pob.","NL_NAME_3":null,"VARNAME_3":null,"TYPE_3":"Barangay","ENGTYPE_3":"Village","PROVINCE":"Agusan del Norte","REGION":"Region XIII (Caraga)","id":"barangay-1630400074","name":"Rajah Soliman Pob.","barangayCode":"1630400074","population":null,"formattedPop":null,"densityCategory":"No data","vulnerabilityRating":"No data","healthRiskLevel":"No data","areaKm2":0.053603,"centerLat":8.94524,"centerLng":125.545091,"geometrySource":"barangays.geojson simplified fallback","geometryMatchMethod":"simplified_fallback","boundaryPointCount":4},"geometry":{"type":"Polygon","coordinates":[[[125.5433485320001,8.944698629000072],[125.54689388700001,8.945794302000024],[125.54664527300008,8.94446531400007],[125.5433485320001,8.944698629000072]]]}},{"type":"Feature","properties":{"ID_0":177,"ISO":"PHL","NAME_0":"Philippines","ID_1":16002,"NAME_1":"Agusan del Norte","ID_2":1600202,"NAME_2":"Butuan City (Capital)","ID_3":1630400075,"NAME_3":"San Ignacio Pob.","NL_NAME_3":null,"VARNAME_3":null,"TYPE_3":"Barangay","ENGTYPE_3":"Village","PROVINCE":"Agusan del Norte","REGION":"Region XIII (Caraga)","id":"barangay-1630400075","name":"San Ignacio Pob.","barangayCode":"1630400075","population":null,"formattedPop":null,"densityCategory":"No data","vulnerabilityRating":"No data","healthRiskLevel":"No data","areaKm2":0.178656,"centerLat":8.952769,"centerLng":125.540817,"geometrySource":"barangays.geojson simplified fallback","geometryMatchMethod":"simplified_fallback","boundaryPointCount":4},"geometry":{"type":"Polygon","coordinates":[[[125.53725754100003,8.953645215000051],[125.54447771900004,8.952079724000043],[125.53766072000008,8.951682265000045],[125.53725754100003,8.953645215000051]]]}},{"type":"Feature","properties":{"ID_0":177,"ISO":"PHL","NAME_0":"Philippines","ID_1":16002,"NAME_1":"Agusan del Norte","ID_2":1600202,"NAME_2":"Butuan City (Capital)","ID_3":1630400076,"NAME_3":"San Mateo","NL_NAME_3":null,"VARNAME_3":null,"TYPE_3":"Barangay","ENGTYPE_3":"Village","PROVINCE":"Agusan del Norte","REGION":"Region XIII (Caraga)","id":"barangay-1630400076","name":"San Mateo","barangayCode":"1630400076","population":null,"formattedPop":null,"densityCategory":"No data","vulnerabilityRating":"No data","healthRiskLevel":"No data","areaKm2":43.772073,"centerLat":8.778165,"centerLng":125.537474,"geometrySource":"barangays.geojson simplified fallback","geometryMatchMethod":"simplified_fallback","boundaryPointCount":9},"geometry":{"type":"Polygon","coordinates":[[[125.55770102800011,8.808768497000074],[125.58697139000003,8.803600009000036],[125.59275835400001,8.790102490000038],[125.55891734700003,8.782532704000062],[125.56017653300012,8.748690095000029],[125.50361071000009,8.750813838000056],[125.49048686600008,8.796024861000035],[125.55103931600001,8.79923525700002],[125.55770102800011,8.808768497000074]]]}},{"type":"Feature","properties":{"ID_0":177,"ISO":"PHL","NAME_0":"Philippines","ID_1":16002,"NAME_1":"Agusan del Norte","ID_2":1600202,"NAME_2":"Butuan City (Capital)","ID_3":1630400077,"NAME_3":"San Vicente","NL_NAME_3":null,"VARNAME_3":null,"TYPE_3":"Barangay","ENGTYPE_3":"Village","PROVINCE":"Agusan del Norte","REGION":"Region XIII (Caraga)","id":"barangay-1630400077","name":"San Vicente","barangayCode":"1630400077","population":null,"formattedPop":null,"densityCategory":"No data","vulnerabilityRating":"No data","healthRiskLevel":"No data","areaKm2":4.546037,"centerLat":8.909907,"centerLng":125.548429,"geometrySource":"barangays.geojson simplified fallback","geometryMatchMethod":"simplified_fallback","boundaryPointCount":5},"geometry":{"type":"Polygon","coordinates":[[[125.55302890100006,8.924338227000021],[125.55613138300009,8.898109047000048],[125.54031074200009,8.898378560000026],[125.53887794100001,8.917774819000044],[125.55302890100006,8.924338227000021]]]}},{"type":"Feature","properties":{"ID_0":177,"ISO":"PHL","NAME_0":"Philippines","ID_1":16002,"NAME_1":"Agusan del Norte","ID_2":1600202,"NAME_2":"Butuan City (Capital)","ID_3":1630400078,"NAME_3":"Sikatuna Pob.","NL_NAME_3":null,"VARNAME_3":null,"TYPE_3":"Barangay","ENGTYPE_3":"Village","PROVINCE":"Agusan del Norte","REGION":"Region XIII (Caraga)","id":"barangay-1630400078","name":"Sikatuna Pob.","barangayCode":"1630400078","population":null,"formattedPop":null,"densityCategory":"No data","vulnerabilityRating":"No data","healthRiskLevel":"No data","areaKm2":0.078904,"centerLat":8.948573,"centerLng":125.542935,"geometrySource":"barangays.geojson simplified fallback","geometryMatchMethod":"simplified_fallback","boundaryPointCount":4},"geometry":{"type":"Polygon","coordinates":[[[125.54157358500004,8.94930445600005],[125.54288703600002,8.947340137000026],[125.54064404300004,8.947572172000037],[125.54157358500004,8.94930445600005]]]}},{"type":"Feature","properties":{"ID_0":177,"ISO":"PHL","NAME_0":"Philippines","ID_1":16002,"NAME_1":"Agusan del Norte","ID_2":1600202,"NAME_2":"Butuan City (Capital)","ID_3":1630400079,"NAME_3":"Silongan Pob.","NL_NAME_3":null,"VARNAME_3":null,"TYPE_3":"Barangay","ENGTYPE_3":"Village","PROVINCE":"Agusan del Norte","REGION":"Region XIII (Caraga)","id":"barangay-1630400079","name":"Silongan Pob.","barangayCode":"1630400079","population":null,"formattedPop":null,"densityCategory":"No data","vulnerabilityRating":"No data","healthRiskLevel":"No data","areaKm2":0.06289,"centerLat":8.946772,"centerLng":125.545242,"geometrySource":"barangays.geojson simplified fallback","geometryMatchMethod":"simplified_fallback","boundaryPointCount":4},"geometry":{"type":"Polygon","coordinates":[[[125.54351531200007,8.947271861000047],[125.54689388700001,8.945794302000024],[125.54342220800004,8.94598237200006],[125.54351531200007,8.947271861000047]]]}},{"type":"Feature","properties":{"ID_0":177,"ISO":"PHL","NAME_0":"Philippines","ID_1":16002,"NAME_1":"Agusan del Norte","ID_2":1600202,"NAME_2":"Butuan City (Capital)","ID_3":1630400080,"NAME_3":"Sumilihon","NL_NAME_3":null,"VARNAME_3":null,"TYPE_3":"Barangay","ENGTYPE_3":"Village","PROVINCE":"Agusan del Norte","REGION":"Region XIII (Caraga)","id":"barangay-1630400080","name":"Sumilihon","barangayCode":"1630400080","population":null,"formattedPop":null,"densityCategory":"No data","vulnerabilityRating":"No data","healthRiskLevel":"No data","areaKm2":8.510507,"centerLat":8.988923,"centerLng":125.611482,"geometrySource":"barangays.geojson simplified fallback","geometryMatchMethod":"simplified_fallback","boundaryPointCount":5},"geometry":{"type":"Polygon","coordinates":[[[125.59705373000008,9.001934757000072],[125.63909812300005,8.992504091000058],[125.63934875400003,8.991344923000042],[125.59409298800006,8.973254091000058],[125.59705373000008,9.001934757000072]]]}},{"type":"Feature","properties":{"ID_0":177,"ISO":"PHL","NAME_0":"Philippines","ID_1":16002,"NAME_1":"Agusan del Norte","ID_2":1600202,"NAME_2":"Butuan City (Capital)","ID_3":1630400082,"NAME_3":"Tagabaca","NL_NAME_3":null,"VARNAME_3":null,"TYPE_3":"Barangay","ENGTYPE_3":"Village","PROVINCE":"Agusan del Norte","REGION":"Region XIII (Caraga)","id":"barangay-1630400082","name":"Tagabaca","barangayCode":"1630400082","population":null,"formattedPop":null,"densityCategory":"No data","vulnerabilityRating":"No data","healthRiskLevel":"No data","areaKm2":10.450368,"centerLat":8.904929,"centerLng":125.56967,"geometrySource":"barangays.geojson simplified fallback","geometryMatchMethod":"simplified_fallback","boundaryPointCount":6},"geometry":{"type":"Polygon","coordinates":[[[125.55382113000007,8.920817888000045],[125.5783791450001,8.920258184000033],[125.58685196700003,8.885525951000034],[125.56500946400001,8.888241952000044],[125.55644573500001,8.898780056000021],[125.55382113000007,8.920817888000045]]]}},{"type":"Feature","properties":{"ID_0":177,"ISO":"PHL","NAME_0":"Philippines","ID_1":16002,"NAME_1":"Agusan del Norte","ID_2":1600202,"NAME_2":"Butuan City (Capital)","ID_3":1630400083,"NAME_3":"Taguibo","NL_NAME_3":null,"VARNAME_3":null,"TYPE_3":"Barangay","ENGTYPE_3":"Village","PROVINCE":"Agusan del Norte","REGION":"Region XIII (Caraga)","id":"barangay-1630400083","name":"Taguibo","barangayCode":"1630400083","population":null,"formattedPop":null,"densityCategory":"No data","vulnerabilityRating":"No data","healthRiskLevel":"No data","areaKm2":6.829906,"centerLat":8.974321,"centerLng":125.624993,"geometrySource":"barangays.geojson simplified fallback","geometryMatchMethod":"simplified_fallback","boundaryPointCount":6},"geometry":{"type":"Polygon","coordinates":[[[125.63594010100007,8.981309103000058],[125.64685483000005,8.971461871000031],[125.6351562960001,8.962906860000032],[125.60216624400005,8.97348525800004],[125.6067620550001,8.98286457200004],[125.63594010100007,8.981309103000058]]]}},{"type":"Feature","properties":{"ID_0":177,"ISO":"PHL","NAME_0":"Philippines","ID_1":16002,"NAME_1":"Agusan del Norte","ID_2":1600202,"NAME_2":"Butuan City (Capital)","ID_3":1630400084,"NAME_3":"Taligaman","NL_NAME_3":null,"VARNAME_3":null,"TYPE_3":"Barangay","ENGTYPE_3":"Village","PROVINCE":"Agusan del Norte","REGION":"Region XIII (Caraga)","id":"barangay-1630400084","name":"Taligaman","barangayCode":"1630400084","population":null,"formattedPop":null,"densityCategory":"No data","vulnerabilityRating":"No data","healthRiskLevel":"No data","areaKm2":4.614208,"centerLat":8.937481,"centerLng":125.63738,"geometrySource":"barangays.geojson simplified fallback","geometryMatchMethod":"simplified_fallback","boundaryPointCount":5},"geometry":{"type":"Polygon","coordinates":[[[125.64739341300003,8.945636827000044],[125.65043836100006,8.931049491000067],[125.63198016100012,8.927094269000065],[125.62104274700005,8.940823341000055],[125.64739341300003,8.945636827000044]]]}},{"type":"Feature","properties":{"ID_0":177,"ISO":"PHL","NAME_0":"Philippines","ID_1":16002,"NAME_1":"Agusan del Norte","ID_2":1600202,"NAME_2":"Butuan City (Capital)","ID_3":1630400085,"NAME_3":"Tandang Sora Pob.","NL_NAME_3":null,"VARNAME_3":null,"TYPE_3":"Barangay","ENGTYPE_3":"Village","PROVINCE":"Agusan del Norte","REGION":"Region XIII (Caraga)","id":"barangay-1630400085","name":"Tandang Sora Pob.","barangayCode":"1630400085","population":null,"formattedPop":null,"densityCategory":"No data","vulnerabilityRating":"No data","healthRiskLevel":"No data","areaKm2":0.364338,"centerLat":8.948585,"centerLng":125.535879,"geometrySource":"barangays.geojson simplified fallback","geometryMatchMethod":"simplified_fallback","boundaryPointCount":4},"geometry":{"type":"Polygon","coordinates":[[[125.53082075700001,8.948653448000073],[125.54064404300004,8.947572172000037],[125.53196221500002,8.94560021500007],[125.53082075700001,8.948653448000073]]]}},{"type":"Feature","properties":{"ID_0":177,"ISO":"PHL","NAME_0":"Philippines","ID_1":16002,"NAME_1":"Agusan del Norte","ID_2":1600202,"NAME_2":"Butuan City (Capital)","ID_3":1630400086,"NAME_3":"Tiniwisan","NL_NAME_3":null,"VARNAME_3":null,"TYPE_3":"Barangay","ENGTYPE_3":"Village","PROVINCE":"Agusan del Norte","REGION":"Region XIII (Caraga)","id":"barangay-1630400086","name":"Tiniwisan","barangayCode":"1630400086","population":null,"formattedPop":null,"densityCategory":"No data","vulnerabilityRating":"No data","healthRiskLevel":"No data","areaKm2":5.778413,"centerLat":8.972092,"centerLng":125.580824,"geometrySource":"barangays.geojson simplified fallback","geometryMatchMethod":"simplified_fallback","boundaryPointCount":5},"geometry":{"type":"Polygon","coordinates":[[[125.59473169400007,8.980825958000025],[125.5879194370001,8.960906327000032],[125.5652983330001,8.96547756800004],[125.5680584690001,8.979963783000073],[125.59473169400007,8.980825958000025]]]}},{"type":"Feature","properties":{"ID_0":177,"ISO":"PHL","NAME_0":"Philippines","ID_1":16002,"NAME_1":"Agusan del Norte","ID_2":1600202,"NAME_2":"Butuan City (Capital)","ID_3":1630400087,"NAME_3":"Tungao","NL_NAME_3":null,"VARNAME_3":null,"TYPE_3":"Barangay","ENGTYPE_3":"Village","PROVINCE":"Agusan del Norte","REGION":"Region XIII (Caraga)","id":"barangay-1630400087","name":"Tungao","barangayCode":"1630400087","population":null,"formattedPop":null,"densityCategory":"No data","vulnerabilityRating":"No data","healthRiskLevel":"No data","areaKm2":3.908426,"centerLat":8.774507,"centerLng":125.568388,"geometrySource":"barangays.geojson simplified fallback","geometryMatchMethod":"simplified_fallback","boundaryPointCount":5},"geometry":{"type":"Polygon","coordinates":[[[125.57300328000008,8.785454960000038],[125.58393166400003,8.766644037000049],[125.560333506,8.766357085000038],[125.55886937200012,8.782466073000023],[125.57300328000008,8.785454960000038]]]}},{"type":"Feature","properties":{"ID_0":177,"ISO":"PHL","NAME_0":"Philippines","ID_1":16002,"NAME_1":"Agusan del Norte","ID_2":1600202,"NAME_2":"Butuan City (Capital)","ID_3":1630400089,"NAME_3":"Urduja Pob.","NL_NAME_3":null,"VARNAME_3":null,"TYPE_3":"Barangay","ENGTYPE_3":"Village","PROVINCE":"Agusan del Norte","REGION":"Region XIII (Caraga)","id":"barangay-1630400089","name":"Urduja Pob.","barangayCode":"1630400089","population":null,"formattedPop":null,"densityCategory":"No data","vulnerabilityRating":"No data","healthRiskLevel":"No data","areaKm2":0.056246,"centerLat":8.948128,"centerLng":125.544438,"geometrySource":"barangays.geojson simplified fallback","geometryMatchMethod":"simplified_fallback","boundaryPointCount":4},"geometry":{"type":"Polygon","coordinates":[[[125.54288703600002,8.947340137000026],[125.5461835530001,8.948718631000077],[125.54651666500001,8.948054845000058],[125.54288703600002,8.947340137000026]]]}},{"type":"Feature","properties":{"ID_0":177,"ISO":"PHL","NAME_0":"Philippines","ID_1":16002,"NAME_1":"Agusan del Norte","ID_2":1600202,"NAME_2":"Butuan City (Capital)","ID_3":1630400090,"NAME_3":"Villa Kananga","NL_NAME_3":null,"VARNAME_3":null,"TYPE_3":"Barangay","ENGTYPE_3":"Village","PROVINCE":"Agusan del Norte","REGION":"Region XIII (Caraga)","id":"barangay-1630400090","name":"Villa Kananga","barangayCode":"1630400090","population":null,"formattedPop":null,"densityCategory":"No data","vulnerabilityRating":"No data","healthRiskLevel":"No data","areaKm2":3.717883,"centerLat":8.927891,"centerLng":125.535158,"geometrySource":"barangays.geojson simplified fallback","geometryMatchMethod":"simplified_fallback","boundaryPointCount":6},"geometry":{"type":"Polygon","coordinates":[[[125.53452039600006,8.938622937000048],[125.54858766500001,8.925488675000054],[125.54267696200009,8.917479513000046],[125.52487491300008,8.922243993000052],[125.52458731700006,8.936358986000073],[125.53452039600006,8.938622937000048]]]}},{"type":"Feature","properties":{"ID_0":177,"ISO":"PHL","NAME_0":"Philippines","ID_1":16002,"NAME_1":"Agusan del Norte","ID_2":1600202,"NAME_2":"Butuan City (Capital)","ID_3":1630400091,"NAME_3":"Obrero Pob.","NL_NAME_3":null,"VARNAME_3":null,"TYPE_3":"Barangay","ENGTYPE_3":"Village","PROVINCE":"Agusan del Norte","REGION":"Region XIII (Caraga)","id":"barangay-1630400091","name":"Obrero Pob.","barangayCode":"1630400091","population":null,"formattedPop":null,"densityCategory":"No data","vulnerabilityRating":"No data","healthRiskLevel":"No data","areaKm2":0.533712,"centerLat":8.964129,"centerLng":125.537699,"geometrySource":"barangays.geojson simplified fallback","geometryMatchMethod":"simplified_fallback","boundaryPointCount":5},"geometry":{"type":"Polygon","coordinates":[[[125.54228246700006,8.967193913000074],[125.53401554700008,8.960100686000033],[125.53163916400001,8.964792942000031],[125.53454199600003,8.964538472000072],[125.54228246700006,8.967193913000074]]]}},{"type":"Feature","properties":{"ID_0":177,"ISO":"PHL","NAME_0":"Philippines","ID_1":16002,"NAME_1":"Agusan del Norte","ID_2":1600202,"NAME_2":"Butuan City (Capital)","ID_3":1630400092,"NAME_3":"Bugsukan","NL_NAME_3":null,"VARNAME_3":null,"TYPE_3":"Barangay","ENGTYPE_3":"Village","PROVINCE":"Agusan del Norte","REGION":"Region XIII (Caraga)","id":"barangay-1630400092","name":"Bugsukan","barangayCode":"1630400092","population":null,"formattedPop":null,"densityCategory":"No data","vulnerabilityRating":"No data","healthRiskLevel":"No data","areaKm2":10.561551,"centerLat":8.94998,"centerLng":125.654256,"geometrySource":"barangays.geojson simplified fallback","geometryMatchMethod":"simplified_fallback","boundaryPointCount":6},"geometry":{"type":"Polygon","coordinates":[[[125.65354652200006,8.969095558000049],[125.67495844000007,8.942021424000075],[125.66314386800002,8.937778982000054],[125.66142840500004,8.922819452000056],[125.6351562960001,8.962906860000032],[125.65354652200006,8.969095558000049]]]}},{"type":"Feature","properties":{"ID_0":177,"ISO":"PHL","NAME_0":"Philippines","ID_1":16002,"NAME_1":"Agusan del Norte","ID_2":1600202,"NAME_2":"Butuan City (Capital)","ID_3":1630400093,"NAME_3":"De Oro","NL_NAME_3":null,"VARNAME_3":null,"TYPE_3":"Barangay","ENGTYPE_3":"Village","PROVINCE":"Agusan del Norte","REGION":"Region XIII (Caraga)","id":"barangay-1630400093","name":"De Oro","barangayCode":"1630400093","population":null,"formattedPop":null,"densityCategory":"No data","vulnerabilityRating":"No data","healthRiskLevel":"No data","areaKm2":8.865616,"centerLat":8.917156,"centerLng":125.639539,"geometrySource":"barangays.geojson simplified fallback","geometryMatchMethod":"simplified_fallback","boundaryPointCount":5},"geometry":{"type":"Polygon","coordinates":[[[125.65985421500011,8.924094517000071],[125.6359873450001,8.897580467000068],[125.61875353300002,8.920391279000057],[125.65043836100006,8.931049491000067],[125.65985421500011,8.924094517000071]]]}},{"type":"Feature","properties":{"ID_0":177,"ISO":"PHL","NAME_0":"Philippines","ID_1":16002,"NAME_1":"Agusan del Norte","ID_2":1600202,"NAME_2":"Butuan City (Capital)","ID_3":1630400094,"NAME_3":"Dulag","NL_NAME_3":null,"VARNAME_3":null,"TYPE_3":"Barangay","ENGTYPE_3":"Village","PROVINCE":"Agusan del Norte","REGION":"Region XIII (Caraga)","id":"barangay-1630400094","name":"Dulag","barangayCode":"1630400094","population":null,"formattedPop":null,"densityCategory":"No data","vulnerabilityRating":"No data","healthRiskLevel":"No data","areaKm2":10.604752,"centerLat":8.828319,"centerLng":125.542488,"geometrySource":"barangays.geojson simplified fallback","geometryMatchMethod":"simplified_fallback","boundaryPointCount":7},"geometry":{"type":"Polygon","coordinates":[[[125.5499051380001,8.84591733600007],[125.56086602100004,8.836715645000027],[125.56072318300005,8.82381689600004],[125.55298449300005,8.81465916600007],[125.525490536,8.813871494000068],[125.52350988900002,8.832158262000064],[125.5499051380001,8.84591733600007]]]}},{"type":"Feature","properties":{"ID_0":177,"ISO":"PHL","NAME_0":"Philippines","ID_1":16002,"NAME_1":"Agusan del Norte","ID_2":1600202,"NAME_2":"Butuan City (Capital)","ID_3":1630400095,"NAME_3":"Florida","NL_NAME_3":null,"VARNAME_3":null,"TYPE_3":"Barangay","ENGTYPE_3":"Village","PROVINCE":"Agusan del Norte","REGION":"Region XIII (Caraga)","id":"barangay-1630400095","name":"Florida","barangayCode":"1630400095","population":null,"formattedPop":null,"densityCategory":"No data","vulnerabilityRating":"No data","healthRiskLevel":"No data","areaKm2":26.068863,"centerLat":8.786905,"centerLng":125.624726,"geometrySource":"barangays.geojson simplified fallback","geometryMatchMethod":"simplified_fallback","boundaryPointCount":11},"geometry":{"type":"Polygon","coordinates":[[[125.64828626400003,8.821016821000057],[125.65870644800009,8.773930244000042],[125.63721886200005,8.774920555000051],[125.64219138400006,8.75891819100002],[125.6325822340001,8.758862436000072],[125.61616048300004,8.778759923000052],[125.59704144800003,8.777529616000038],[125.58425747500007,8.766016548000039],[125.5735647030001,8.777747521000038],[125.62831896000012,8.802471326000045],[125.64828626400003,8.821016821000057]]]}},{"type":"Feature","properties":{"ID_0":177,"ISO":"PHL","NAME_0":"Philippines","ID_1":16002,"NAME_1":"Agusan del Norte","ID_2":1600202,"NAME_2":"Butuan City (Capital)","ID_3":1630400096,"NAME_3":"Nong-nong","NL_NAME_3":null,"VARNAME_3":null,"TYPE_3":"Barangay","ENGTYPE_3":"Village","PROVINCE":"Agusan del Norte","REGION":"Region XIII (Caraga)","id":"barangay-1630400096","name":"Nong-nong","barangayCode":"1630400096","population":null,"formattedPop":null,"densityCategory":"No data","vulnerabilityRating":"No data","healthRiskLevel":"No data","areaKm2":37.953866,"centerLat":8.870089,"centerLng":125.484379,"geometrySource":"barangays.geojson simplified fallback","geometryMatchMethod":"simplified_fallback","boundaryPointCount":6},"geometry":{"type":"Polygon","coordinates":[[[125.46321610200005,8.915159102000075],[125.4873366280001,8.917227663000062],[125.50314659500009,8.858632336000028],[125.52164763100006,8.831691918000047],[125.46689333600011,8.830952828000022],[125.46321610200005,8.915159102000075]]]}},{"type":"Feature","properties":{"ID_0":177,"ISO":"PHL","NAME_0":"Philippines","ID_1":16002,"NAME_1":"Agusan del Norte","ID_2":1600202,"NAME_2":"Butuan City (Capital)","ID_3":1630400097,"NAME_3":"Pagatpatan","NL_NAME_3":null,"VARNAME_3":null,"TYPE_3":"Barangay","ENGTYPE_3":"Village","PROVINCE":"Agusan del Norte","REGION":"Region XIII (Caraga)","id":"barangay-1630400097","name":"Pagatpatan","barangayCode":"1630400097","population":null,"formattedPop":null,"densityCategory":"No data","vulnerabilityRating":"No data","healthRiskLevel":"No data","areaKm2":2.765924,"centerLat":8.993478,"centerLng":125.5225,"geometrySource":"barangays.geojson simplified fallback","geometryMatchMethod":"simplified_fallback","boundaryPointCount":5},"geometry":{"type":"Polygon","coordinates":[[[125.52469895000002,9.005979956000033],[125.52923741300003,8.99407431000003],[125.52766737000002,8.983189382000035],[125.51385539900002,8.986779221000063],[125.52469895000002,9.005979956000033]]]}},{"type":"Feature","properties":{"ID_0":177,"ISO":"PHL","NAME_0":"Philippines","ID_1":16002,"NAME_1":"Agusan del Norte","ID_2":1600202,"NAME_2":"Butuan City (Capital)","ID_3":1630400098,"NAME_3":"Pangabugan","NL_NAME_3":null,"VARNAME_3":null,"TYPE_3":"Barangay","ENGTYPE_3":"Village","PROVINCE":"Agusan del Norte","REGION":"Region XIII (Caraga)","id":"barangay-1630400098","name":"Pangabugan","barangayCode":"1630400098","population":null,"formattedPop":null,"densityCategory":"No data","vulnerabilityRating":"No data","healthRiskLevel":"No data","areaKm2":0.427766,"centerLat":8.928956,"centerLng":125.549391,"geometrySource":"barangays.geojson simplified fallback","geometryMatchMethod":"simplified_fallback","boundaryPointCount":4},"geometry":{"type":"Polygon","coordinates":[[[125.54531792400007,8.93037295800002],[125.5527495550001,8.925565777000031],[125.54858766500001,8.925488675000054],[125.54531792400007,8.93037295800002]]]}},{"type":"Feature","properties":{"ID_0":177,"ISO":"PHL","NAME_0":"Philippines","ID_1":16002,"NAME_1":"Agusan del Norte","ID_2":1600202,"NAME_2":"Butuan City (Capital)","ID_3":1630400099,"NAME_3":"Salvacion","NL_NAME_3":null,"VARNAME_3":null,"TYPE_3":"Barangay","ENGTYPE_3":"Village","PROVINCE":"Agusan del Norte","REGION":"Region XIII (Caraga)","id":"barangay-1630400099","name":"Salvacion","barangayCode":"1630400099","population":null,"formattedPop":null,"densityCategory":"No data","vulnerabilityRating":"No data","healthRiskLevel":"No data","areaKm2":7.692595,"centerLat":8.876247,"centerLng":125.596264,"geometrySource":"barangays.geojson simplified fallback","geometryMatchMethod":"simplified_fallback","boundaryPointCount":7},"geometry":{"type":"Polygon","coordinates":[[[125.57228295400012,8.886437530000023],[125.61142553000002,8.883750766000048],[125.614544324,8.861337921000029],[125.60788720900007,8.85767486800006],[125.59703566600001,8.871148867000045],[125.57433096400007,8.874213659000077],[125.57228295400012,8.886437530000023]]]}},{"type":"Feature","properties":{"ID_0":177,"ISO":"PHL","NAME_0":"Philippines","ID_1":16002,"NAME_1":"Agusan del Norte","ID_2":1600202,"NAME_2":"Butuan City (Capital)","ID_3":1630400100,"NAME_3":"Santo Niño","NL_NAME_3":null,"VARNAME_3":"Santo Nino","TYPE_3":"Barangay","ENGTYPE_3":"Village","PROVINCE":"Agusan del Norte","REGION":"Region XIII (Caraga)","id":"barangay-1630400100","name":"Santo Niño","barangayCode":"1630400100","population":null,"formattedPop":null,"densityCategory":"No data","vulnerabilityRating":"No data","healthRiskLevel":"No data","areaKm2":17.758669,"centerLat":9.035953,"centerLng":125.618613,"geometrySource":"barangays.geojson simplified fallback","geometryMatchMethod":"simplified_fallback","boundaryPointCount":6},"geometry":{"type":"Polygon","coordinates":[[[125.59646714100006,9.048994392000054],[125.654840497,9.046421591000069],[125.65072799300003,9.026138888000048],[125.58939242600002,9.02306154300004],[125.5843024180001,9.043460851000077],[125.59646714100006,9.048994392000054]]]}},{"type":"Feature","properties":{"ID_0":177,"ISO":"PHL","NAME_0":"Philippines","ID_1":16002,"NAME_1":"Agusan del Norte","ID_2":1600202,"NAME_2":"Butuan City (Capital)","ID_3":1630400101,"NAME_3":"Sumile","NL_NAME_3":null,"VARNAME_3":null,"TYPE_3":"Barangay","ENGTYPE_3":"Village","PROVINCE":"Agusan del Norte","REGION":"Region XIII (Caraga)","id":"barangay-1630400101","name":"Sumile","barangayCode":"1630400101","population":null,"formattedPop":null,"densityCategory":"No data","vulnerabilityRating":"No data","healthRiskLevel":"No data","areaKm2":12.909821,"centerLat":8.827323,"centerLng":125.632739,"geometrySource":"barangays.geojson simplified fallback","geometryMatchMethod":"simplified_fallback","boundaryPointCount":6},"geometry":{"type":"Polygon","coordinates":[[[125.6488293650001,8.84734656300003],[125.64828626400003,8.821016821000057],[125.62192589100005,8.800406552000027],[125.61565018800002,8.829905859000064],[125.63025214800007,8.847265925000045],[125.6488293650001,8.84734656300003]]]}},{"type":"Feature","properties":{"ID_0":177,"ISO":"PHL","NAME_0":"Philippines","ID_1":16002,"NAME_1":"Agusan del Norte","ID_2":1600202,"NAME_2":"Butuan City (Capital)","ID_3":1630400102,"NAME_3":"Don Francisco","NL_NAME_3":null,"VARNAME_3":null,"TYPE_3":"Barangay","ENGTYPE_3":"Village","PROVINCE":"Agusan del Norte","REGION":"Region XIII (Caraga)","id":"barangay-1630400102","name":"Don Francisco","barangayCode":"1630400102","population":null,"formattedPop":null,"densityCategory":"No data","vulnerabilityRating":"No data","healthRiskLevel":"No data","areaKm2":6.382827,"centerLat":8.864134,"centerLng":125.588625,"geometrySource":"barangays.geojson simplified fallback","geometryMatchMethod":"simplified_fallback","boundaryPointCount":5},"geometry":{"type":"Polygon","coordinates":[[[125.57433096400007,8.874213659000077],[125.60454131600011,8.863010209000038],[125.60159383100006,8.850395322000054],[125.5694006330001,8.862967687000037],[125.57433096400007,8.874213659000077]]]}},{"type":"Feature","properties":{"ID_0":177,"ISO":"PHL","NAME_0":"Philippines","ID_1":16002,"NAME_1":"Agusan del Norte","ID_2":1600202,"NAME_2":"Butuan City (Capital)","ID_3":1630400103,"NAME_3":"Pigdaulan","NL_NAME_3":null,"VARNAME_3":null,"TYPE_3":"Barangay","ENGTYPE_3":"Village","PROVINCE":"Agusan del Norte","REGION":"Region XIII (Caraga)","id":"barangay-1630400103","name":"Pigdaulan","barangayCode":"1630400103","population":null,"formattedPop":null,"densityCategory":"No data","vulnerabilityRating":"No data","healthRiskLevel":"No data","areaKm2":10.015296,"centerLat":8.904948,"centerLng":125.591067,"geometrySource":"barangays.geojson simplified fallback","geometryMatchMethod":"simplified_fallback","boundaryPointCount":9},"geometry":{"type":"Polygon","coordinates":[[[125.59341199100004,8.924300427000048],[125.59175214400011,8.908585965000043],[125.60454505000007,8.900574074000076],[125.61142553000002,8.883750766000048],[125.58685196700003,8.885525951000034],[125.5783791450001,8.920258184000033],[125.5699941690001,8.924397942000041],[125.58644090900009,8.932010512000033],[125.59341199100004,8.924300427000048]]]}}]}
