{"type":"FeatureCollection","features":[{"type":"Feature","properties":{"ID_0":177,"ISO":"PHL","NAME_0":"Philippines","ID_1":5017,"NAME_1":"Camarines Sur","ID_2":501723,"NAME_2":"Nabua","ID_3":501723001,"NAME_3":"Angustia","NL_NAME_3":null,"VARNAME_3":null,"TYPE_3":"Barangay","ENGTYPE_3":"Village","PROVINCE":"Camarines Sur","REGION":"Region V (Bicol Region)","id":"barangay-0501723001","name":"Angustia","barangayCode":"0501723001","population":null,"formattedPop":null,"densityCategory":"No data","vulnerabilityRating":"No data","healthRiskLevel":"No data","areaKm2":3.044398,"centerLat":13.384163,"centerLng":123.320987,"geometrySource":"all_barangay-2.csv detailed WKT","geometryMatchMethod":"unique_official_admin_names","boundaryPointCount":32},"geometry":{"type":"MultiPolygon","coordinates":[[[[123.339119,13.3848],[123.338997,13.38356],[123.337624,13.38209],[123.338219,13.38085],[123.338287,13.38047],[123.32534,13.37193],[123.323341,13.37176],[123.322037,13.37088],[123.321442,13.37137],[123.319656,13.37102],[123.318413,13.3708],[123.317749,13.37031],[123.317108,13.37061],[123.317307,13.37298],[123.31617,13.37196],[123.315353,13.37258],[123.314034,13.37259],[123.313026,13.37137],[123.311447,13.37023],[123.310211,13.37029],[123.308273,13.37069],[123.306763,13.3708],[123.306267,13.37143],[123.304893,13.37217],[123.305832,13.37361],[123.303612,13.374],[123.303047,13.37532],[123.304077,13.37623],[123.31385,13.38],[123.31749,13.38063],[123.32531,13.38185],[123.339119,13.3848]]]]}},{"type":"Feature","properties":{"ID_0":177,"ISO":"PHL","NAME_0":"Philippines","ID_1":5017,"NAME_1":"Camarines Sur","ID_2":501723,"NAME_2":"Nabua","ID_3":501723002,"NAME_3":"Antipolo Old","NL_NAME_3":null,"VARNAME_3":null,"TYPE_3":"Barangay","ENGTYPE_3":"Village","PROVINCE":"Camarines Sur","REGION":"Region V (Bicol Region)","id":"barangay-0501723002","name":"Antipolo Old","barangayCode":"0501723002","population":null,"formattedPop":null,"densityCategory":"No data","vulnerabilityRating":"No data","healthRiskLevel":"No data","areaKm2":1.215516,"centerLat":13.403406,"centerLng":123.397831,"geometrySource":"barangays.geojson simplified fallback","geometryMatchMethod":"simplified_fallback","boundaryPointCount":5},"geometry":{"type":"Polygon","coordinates":[[[123.40112240000008,13.410694497000065],[123.40234489700003,13.398628884000061],[123.40025616300011,13.39638687300004],[123.39064379800004,13.404598652000061],[123.40112240000008,13.410694497000065]]]}},{"type":"Feature","properties":{"ID_0":177,"ISO":"PHL","NAME_0":"Philippines","ID_1":5017,"NAME_1":"Camarines Sur","ID_2":501723,"NAME_2":"Nabua","ID_3":501723003,"NAME_3":"Antipolo Young","NL_NAME_3":null,"VARNAME_3":null,"TYPE_3":"Barangay","ENGTYPE_3":"Village","PROVINCE":"Camarines Sur","REGION":"Region V (Bicol Region)","id":"barangay-0501723003","name":"Antipolo Young","barangayCode":"0501723003","population":null,"formattedPop":null,"densityCategory":"No data","vulnerabilityRating":"No data","healthRiskLevel":"No data","areaKm2":1.440645,"centerLat":13.398793,"centerLng":123.386088,"geometrySource":"all_barangay-2.csv detailed WKT","geometryMatchMethod":"unique_official_admin_names","boundaryPointCount":22},"geometry":{"type":"MultiPolygon","coordinates":[[[[123.393112,13.40664],[123.393661,13.40282],[123.387817,13.3975],[123.383942,13.39511],[123.382874,13.39459],[123.378273,13.39786],[123.374641,13.39945],[123.374649,13.39997],[123.374687,13.40226],[123.375069,13.40358],[123.376793,13.4032],[123.377617,13.40348],[123.379097,13.40334],[123.380119,13.40336],[123.381889,13.40239],[123.383087,13.40154],[123.384293,13.40143],[123.385551,13.40213],[123.38607,13.4029],[123.388687,13.40472],[123.391617,13.4064],[123.393112,13.40664]]]]}},{"type":"Feature","properties":{"ID_0":177,"ISO":"PHL","NAME_0":"Philippines","ID_1":5017,"NAME_1":"Camarines Sur","ID_2":501723,"NAME_2":"Nabua","ID_3":501723004,"NAME_3":"Aro-aldao","NL_NAME_3":null,"VARNAME_3":null,"TYPE_3":"Barangay","ENGTYPE_3":"Village","PROVINCE":"Camarines Sur","REGION":"Region V (Bicol Region)","id":"barangay-0501723004","name":"Aro-aldao","barangayCode":"0501723004","population":null,"formattedPop":null,"densityCategory":"No data","vulnerabilityRating":"No data","healthRiskLevel":"No data","areaKm2":1.539162,"centerLat":13.408122,"centerLng":123.298503,"geometrySource":"all_barangay-2.csv detailed WKT","geometryMatchMethod":"unique_official_admin_names","boundaryPointCount":73},"geometry":{"type":"MultiPolygon","coordinates":[[[[123.289192,13.41443],[123.289757,13.41463],[123.290207,13.4143],[123.290482,13.41394],[123.290901,13.41331],[123.292236,13.4137],[123.293587,13.41429],[123.294983,13.41379],[123.296043,13.41371],[123.296227,13.41329],[123.295036,13.41234],[123.294884,13.41162],[123.294922,13.41126],[123.294998,13.41077],[123.296463,13.40986],[123.297081,13.40964],[123.297081,13.41029],[123.29747,13.41113],[123.298233,13.41119],[123.299088,13.41125],[123.299599,13.41066],[123.300232,13.41071],[123.300873,13.41082],[123.301231,13.41101],[123.301498,13.41151],[123.301903,13.41214],[123.302582,13.41341],[123.302406,13.41422],[123.301376,13.41484],[123.301804,13.41554],[123.303368,13.41632],[123.303238,13.41661],[123.305267,13.41743],[123.306038,13.41846],[123.306183,13.41878],[123.306938,13.41777],[123.307564,13.41727],[123.308968,13.41721],[123.309128,13.41554],[123.30883,13.41467],[123.307564,13.4143],[123.30645,13.41331],[123.30677,13.41311],[123.306633,13.41211],[123.306374,13.41193],[123.306053,13.41116],[123.306602,13.41042],[123.306084,13.4101],[123.305031,13.40915],[123.305267,13.40837],[123.30471,13.40717],[123.305191,13.40618],[123.303482,13.40416],[123.301689,13.40391],[123.299797,13.40287],[123.297501,13.40329],[123.296227,13.40378],[123.294594,13.40296],[123.294083,13.40288],[123.292389,13.40179],[123.289383,13.39961],[123.28595,13.40638],[123.286247,13.40689],[123.286499,13.40734],[123.287102,13.40673],[123.288261,13.40738],[123.288544,13.40833],[123.289291,13.40904],[123.289001,13.41012],[123.28904,13.41145],[123.288834,13.41318],[123.288986,13.4141],[123.289192,13.41443]]]]}},{"type":"Feature","properties":{"ID_0":177,"ISO":"PHL","NAME_0":"Philippines","ID_1":5017,"NAME_1":"Camarines Sur","ID_2":501723,"NAME_2":"Nabua","ID_3":501723005,"NAME_3":"Bustrac","NL_NAME_3":null,"VARNAME_3":null,"TYPE_3":"Barangay","ENGTYPE_3":"Village","PROVINCE":"Camarines Sur","REGION":"Region V (Bicol Region)","id":"barangay-0501723005","name":"Bustrac","barangayCode":"0501723005","population":null,"formattedPop":null,"densityCategory":"No data","vulnerabilityRating":"No data","healthRiskLevel":"No data","areaKm2":2.049102,"centerLat":13.370351,"centerLng":123.354027,"geometrySource":"all_barangay-2.csv detailed WKT","geometryMatchMethod":"unique_official_admin_names","boundaryPointCount":11},"geometry":{"type":"MultiPolygon","coordinates":[[[[123.371338,13.37671],[123.371246,13.37567],[123.371384,13.37452],[123.37114,13.37321],[123.370728,13.37032],[123.367607,13.37027],[123.360779,13.36996],[123.360931,13.3756],[123.365677,13.37548],[123.369247,13.37633],[123.371338,13.37671]]]]}},{"type":"Feature","properties":{"ID_0":177,"ISO":"PHL","NAME_0":"Philippines","ID_1":5017,"NAME_1":"Camarines Sur","ID_2":501723,"NAME_2":"Nabua","ID_3":501723006,"NAME_3":"Inapatan","NL_NAME_3":null,"VARNAME_3":null,"TYPE_3":"Barangay","ENGTYPE_3":"Village","PROVINCE":"Camarines Sur","REGION":"Region V (Bicol Region)","id":"barangay-0501723006","name":"Inapatan","barangayCode":"0501723006","population":null,"formattedPop":null,"densityCategory":"No data","vulnerabilityRating":"No data","healthRiskLevel":"No data","areaKm2":2.822888,"centerLat":13.396193,"centerLng":123.316793,"geometrySource":"all_barangay-2.csv detailed WKT","geometryMatchMethod":"unique_official_admin_names","boundaryPointCount":32},"geometry":{"type":"MultiPolygon","coordinates":[[[[123.318871,13.40294],[123.319092,13.4032],[123.320831,13.40376],[123.322609,13.40428],[123.325233,13.40512],[123.32605,13.4056],[123.327477,13.40491],[123.328934,13.40149],[123.329964,13.3995],[123.331146,13.39733],[123.329979,13.39581],[123.327332,13.39338],[123.326508,13.39206],[123.32724,13.3897],[123.33017,13.39062],[123.331161,13.3901],[123.330833,13.38752],[123.331123,13.38584],[123.332481,13.38665],[123.335182,13.3873],[123.337624,13.38573],[123.339119,13.3848],[123.32531,13.38185],[123.31749,13.38063],[123.31765,13.38103],[123.315323,13.38523],[123.310982,13.38962],[123.304901,13.39658],[123.306801,13.39738],[123.314262,13.40092],[123.316597,13.40225],[123.318871,13.40294]]]]}},{"type":"Feature","properties":{"ID_0":177,"ISO":"PHL","NAME_0":"Philippines","ID_1":5017,"NAME_1":"Camarines Sur","ID_2":501723,"NAME_2":"Nabua","ID_3":501723007,"NAME_3":"Dolorosa","NL_NAME_3":null,"VARNAME_3":null,"TYPE_3":"Barangay","ENGTYPE_3":"Village","PROVINCE":"Camarines Sur","REGION":"Region V (Bicol Region)","id":"barangay-0501723007","name":"Dolorosa","barangayCode":"0501723007","population":null,"formattedPop":null,"densityCategory":"No data","vulnerabilityRating":"No data","healthRiskLevel":"No data","areaKm2":3.148316,"centerLat":13.383877,"centerLng":123.305073,"geometrySource":"all_barangay-2.csv detailed WKT","geometryMatchMethod":"unique_official_admin_names","boundaryPointCount":25},"geometry":{"type":"MultiPolygon","coordinates":[[[[123.304901,13.39658],[123.310982,13.38962],[123.315323,13.38523],[123.31765,13.38103],[123.31749,13.38063],[123.31385,13.38],[123.304077,13.37623],[123.302277,13.37677],[123.301949,13.37723],[123.300667,13.37724],[123.300201,13.37704],[123.299347,13.3766],[123.298828,13.37737],[123.297707,13.378],[123.296867,13.37882],[123.295753,13.37934],[123.295212,13.37821],[123.294121,13.37752],[123.292923,13.3778],[123.291901,13.38291],[123.289642,13.38704],[123.292358,13.38892],[123.293877,13.39073],[123.298851,13.39327],[123.304901,13.39658]]]]}},{"type":"Feature","properties":{"ID_0":177,"ISO":"PHL","NAME_0":"Philippines","ID_1":5017,"NAME_1":"Camarines Sur","ID_2":501723,"NAME_2":"Nabua","ID_3":501723009,"NAME_3":"Duran","NL_NAME_3":null,"VARNAME_3":null,"TYPE_3":"Barangay","ENGTYPE_3":"Village","PROVINCE":"Camarines Sur","REGION":"Region V (Bicol Region)","id":"barangay-0501723009","name":"Duran","barangayCode":"0501723009","population":null,"formattedPop":null,"densityCategory":"No data","vulnerabilityRating":"No data","healthRiskLevel":"No data","areaKm2":2.184027,"centerLat":13.391044,"centerLng":123.275721,"geometrySource":"all_barangay-2.csv detailed WKT","geometryMatchMethod":"unique_official_admin_names","boundaryPointCount":14},"geometry":{"type":"MultiPolygon","coordinates":[[[[123.276299,13.39243],[123.286819,13.39802],[123.286591,13.39784],[123.287407,13.39508],[123.288811,13.39112],[123.289642,13.38704],[123.287987,13.38584],[123.285187,13.38416],[123.282227,13.38256],[123.280373,13.38132],[123.279694,13.37957],[123.279137,13.37886],[123.277496,13.38556],[123.276299,13.39243]]]]}},{"type":"Feature","properties":{"ID_0":177,"ISO":"PHL","NAME_0":"Philippines","ID_1":5017,"NAME_1":"Camarines Sur","ID_2":501723,"NAME_2":"Nabua","ID_3":501723010,"NAME_3":"La Purisima","NL_NAME_3":null,"VARNAME_3":null,"TYPE_3":"Barangay","ENGTYPE_3":"Village","PROVINCE":"Camarines Sur","REGION":"Region V (Bicol Region)","id":"barangay-0501723010","name":"La Purisima","barangayCode":"0501723010","population":null,"formattedPop":null,"densityCategory":"No data","vulnerabilityRating":"No data","healthRiskLevel":"No data","areaKm2":5.159206,"centerLat":13.424081,"centerLng":123.329804,"geometrySource":"all_barangay-2.csv detailed WKT","geometryMatchMethod":"unique_official_admin_names","boundaryPointCount":20},"geometry":{"type":"MultiPolygon","coordinates":[[[[123.348801,13.4335],[123.348648,13.4327],[123.350677,13.43179],[123.350937,13.42918],[123.345131,13.42606],[123.335739,13.42254],[123.324562,13.41912],[123.323227,13.41982],[123.322083,13.41881],[123.320732,13.41865],[123.320534,13.41946],[123.319603,13.41931],[123.317993,13.41838],[123.31723,13.42006],[123.317268,13.42163],[123.316483,13.42649],[123.323067,13.42947],[123.331093,13.4323],[123.336487,13.4332],[123.348801,13.4335]]]]}},{"type":"Feature","properties":{"ID_0":177,"ISO":"PHL","NAME_0":"Philippines","ID_1":5017,"NAME_1":"Camarines Sur","ID_2":501723,"NAME_2":"Nabua","ID_3":501723011,"NAME_3":"Lourdes Old","NL_NAME_3":null,"VARNAME_3":null,"TYPE_3":"Barangay","ENGTYPE_3":"Village","PROVINCE":"Camarines Sur","REGION":"Region V (Bicol Region)","id":"barangay-0501723011","name":"Lourdes Old","barangayCode":"0501723011","population":null,"formattedPop":null,"densityCategory":"No data","vulnerabilityRating":"No data","healthRiskLevel":"No data","areaKm2":2.279672,"centerLat":13.390092,"centerLng":123.394228,"geometrySource":"all_barangay-2.csv detailed WKT","geometryMatchMethod":"unique_official_admin_names","boundaryPointCount":20},"geometry":{"type":"MultiPolygon","coordinates":[[[[123.393661,13.40282],[123.393829,13.40227],[123.395233,13.39571],[123.396057,13.39189],[123.396606,13.38863],[123.397438,13.38596],[123.398262,13.38422],[123.398689,13.38292],[123.399261,13.38108],[123.399834,13.37806],[123.400421,13.37479],[123.396202,13.38001],[123.393753,13.3831],[123.391472,13.38595],[123.388786,13.3887],[123.386574,13.3919],[123.382874,13.39459],[123.383942,13.39511],[123.387817,13.3975],[123.393661,13.40282]]]]}},{"type":"Feature","properties":{"ID_0":177,"ISO":"PHL","NAME_0":"Philippines","ID_1":5017,"NAME_1":"Camarines Sur","ID_2":501723,"NAME_2":"Nabua","ID_3":501723012,"NAME_3":"Lourdes Young","NL_NAME_3":null,"VARNAME_3":null,"TYPE_3":"Barangay","ENGTYPE_3":"Village","PROVINCE":"Camarines Sur","REGION":"Region V (Bicol Region)","id":"barangay-0501723012","name":"Lourdes Young","barangayCode":"0501723012","population":null,"formattedPop":null,"densityCategory":"No data","vulnerabilityRating":"No data","healthRiskLevel":"No data","areaKm2":3.292181,"centerLat":13.384662,"centerLng":123.384577,"geometrySource":"all_barangay-2.csv detailed WKT","geometryMatchMethod":"unique_official_admin_names","boundaryPointCount":29},"geometry":{"type":"MultiPolygon","coordinates":[[[[123.382874,13.39459],[123.386574,13.3919],[123.388786,13.3887],[123.391472,13.38595],[123.393753,13.3831],[123.396202,13.38001],[123.400421,13.37479],[123.403107,13.3683],[123.40435,13.36175],[123.405609,13.35684],[123.406517,13.35274],[123.406914,13.35139],[123.403809,13.35411],[123.395287,13.36286],[123.391853,13.37021],[123.388649,13.37652],[123.386108,13.37922],[123.384247,13.381],[123.381706,13.38369],[123.379387,13.38514],[123.378181,13.38757],[123.376038,13.38994],[123.373283,13.39129],[123.373589,13.39293],[123.374283,13.39715],[123.374634,13.3991],[123.374641,13.39945],[123.378273,13.39786],[123.382874,13.39459]]]]}},{"type":"Feature","properties":{"ID_0":177,"ISO":"PHL","NAME_0":"Philippines","ID_1":5017,"NAME_1":"Camarines Sur","ID_2":501723,"NAME_2":"Nabua","ID_3":501723015,"NAME_3":"La Opinion","NL_NAME_3":null,"VARNAME_3":null,"TYPE_3":"Barangay","ENGTYPE_3":"Village","PROVINCE":"Camarines Sur","REGION":"Region V (Bicol Region)","id":"barangay-0501723015","name":"La Opinion","barangayCode":"0501723015","population":null,"formattedPop":null,"densityCategory":"No data","vulnerabilityRating":"No data","healthRiskLevel":"No data","areaKm2":3.504641,"centerLat":13.38241,"centerLng":123.364794,"geometrySource":"all_barangay-2.csv detailed WKT","geometryMatchMethod":"unique_official_admin_names","boundaryPointCount":15},"geometry":{"type":"MultiPolygon","coordinates":[[[[123.373283,13.39129],[123.372612,13.38815],[123.372002,13.38368],[123.371513,13.38099],[123.371338,13.37671],[123.369247,13.37633],[123.365677,13.37548],[123.360931,13.3756],[123.360924,13.38653],[123.359863,13.39468],[123.3638,13.39529],[123.367577,13.39469],[123.371017,13.39321],[123.372772,13.39144],[123.373283,13.39129]]]]}},{"type":"Feature","properties":{"ID_0":177,"ISO":"PHL","NAME_0":"Philippines","ID_1":5017,"NAME_1":"Camarines Sur","ID_2":501723,"NAME_2":"Nabua","ID_3":501723016,"NAME_3":"Paloyon Proper","NL_NAME_3":null,"VARNAME_3":null,"TYPE_3":"Barangay","ENGTYPE_3":"Village","PROVINCE":"Camarines Sur","REGION":"Region V (Bicol Region)","id":"barangay-0501723016","name":"Paloyon Proper","barangayCode":"0501723016","population":null,"formattedPop":null,"densityCategory":"No data","vulnerabilityRating":"No data","healthRiskLevel":"No data","areaKm2":3.150131,"centerLat":13.375484,"centerLng":123.377523,"geometrySource":"all_barangay-2.csv detailed WKT","geometryMatchMethod":"unique_official_admin_names","boundaryPointCount":18},"geometry":{"type":"MultiPolygon","coordinates":[[[[123.384247,13.381],[123.3834,13.36873],[123.379539,13.36966],[123.374397,13.37027],[123.370728,13.37032],[123.37114,13.37321],[123.371384,13.37452],[123.371246,13.37567],[123.371338,13.37671],[123.371513,13.38099],[123.372002,13.38368],[123.372612,13.38815],[123.373283,13.39129],[123.376038,13.38994],[123.378181,13.38757],[123.379387,13.38514],[123.381706,13.38369],[123.384247,13.381]]]]}},{"type":"Feature","properties":{"ID_0":177,"ISO":"PHL","NAME_0":"Philippines","ID_1":5017,"NAME_1":"Camarines Sur","ID_2":501723,"NAME_2":"Nabua","ID_3":501723018,"NAME_3":"Salvacion Que Gatos","NL_NAME_3":null,"VARNAME_3":null,"TYPE_3":"Barangay","ENGTYPE_3":"Village","PROVINCE":"Camarines Sur","REGION":"Region V (Bicol Region)","id":"barangay-0501723018","name":"Salvacion Que Gatos","barangayCode":"0501723018","population":null,"formattedPop":null,"densityCategory":"No data","vulnerabilityRating":"No data","healthRiskLevel":"No data","areaKm2":2.154195,"centerLat":13.370363,"centerLng":123.328868,"geometrySource":"all_barangay-2.csv detailed WKT","geometryMatchMethod":"unique_official_admin_names","boundaryPointCount":25},"geometry":{"type":"MultiPolygon","coordinates":[[[[123.317749,13.37031],[123.318413,13.3708],[123.319656,13.37102],[123.321442,13.37137],[123.322037,13.37088],[123.323341,13.37176],[123.32534,13.37193],[123.3265,13.37143],[123.327133,13.36993],[123.327904,13.37019],[123.328056,13.3697],[123.329689,13.36947],[123.331017,13.36932],[123.333557,13.36909],[123.335007,13.3674],[123.334587,13.3685],[123.334534,13.37001],[123.3358,13.37095],[123.338417,13.37013],[123.337303,13.36859],[123.336617,13.36665],[123.335968,13.36467],[123.336761,13.36081],[123.321716,13.3544],[123.317749,13.37031]]]]}},{"type":"Feature","properties":{"ID_0":177,"ISO":"PHL","NAME_0":"Philippines","ID_1":5017,"NAME_1":"Camarines Sur","ID_2":501723,"NAME_2":"Nabua","ID_3":501723019,"NAME_3":"San Antonio","NL_NAME_3":null,"VARNAME_3":null,"TYPE_3":"Barangay","ENGTYPE_3":"Village","PROVINCE":"Camarines Sur","REGION":"Region V (Bicol Region)","id":"barangay-0501723019","name":"San Antonio","barangayCode":"0501723019","population":null,"formattedPop":null,"densityCategory":"No data","vulnerabilityRating":"No data","healthRiskLevel":"No data","areaKm2":2.997915,"centerLat":13.419628,"centerLng":123.361528,"geometrySource":"all_barangay-2.csv detailed WKT","geometryMatchMethod":"unique_official_admin_names","boundaryPointCount":13},"geometry":{"type":"MultiPolygon","coordinates":[[[[123.370659,13.41616],[123.372223,13.41252],[123.372726,13.41082],[123.373207,13.41078],[123.373596,13.41004],[123.37394,13.40907],[123.373993,13.40831],[123.372414,13.40801],[123.37059,13.40872],[123.367683,13.41184],[123.366318,13.41446],[123.369499,13.41572],[123.370659,13.41616]]]]}},{"type":"Feature","properties":{"ID_0":177,"ISO":"PHL","NAME_0":"Philippines","ID_1":5017,"NAME_1":"Camarines Sur","ID_2":501723,"NAME_2":"Nabua","ID_3":501723020,"NAME_3":"San Antonio Ogbon","NL_NAME_3":null,"VARNAME_3":null,"TYPE_3":"Barangay","ENGTYPE_3":"Village","PROVINCE":"Camarines Sur","REGION":"Region V (Bicol Region)","id":"barangay-0501723020","name":"San Antonio Ogbon","barangayCode":"0501723020","population":null,"formattedPop":null,"densityCategory":"No data","vulnerabilityRating":"No data","healthRiskLevel":"No data","areaKm2":2.404676,"centerLat":13.393386,"centerLng":123.349238,"geometrySource":"all_barangay-2.csv detailed WKT","geometryMatchMethod":"unique_official_admin_names","boundaryPointCount":29},"geometry":{"type":"MultiPolygon","coordinates":[[[[123.337624,13.39562],[123.342102,13.39716],[123.345329,13.40274],[123.345238,13.40244],[123.345711,13.40114],[123.347473,13.39872],[123.349388,13.39634],[123.354141,13.39477],[123.359863,13.39468],[123.360924,13.38653],[123.360931,13.3756],[123.357933,13.37597],[123.355827,13.37587],[123.354057,13.37627],[123.35202,13.37599],[123.349358,13.37662],[123.347549,13.37614],[123.345772,13.37555],[123.344467,13.37629],[123.342369,13.37731],[123.341652,13.37876],[123.339951,13.37857],[123.339043,13.38037],[123.338287,13.38047],[123.338219,13.38085],[123.337624,13.38209],[123.338997,13.38356],[123.339119,13.3848],[123.337624,13.39562]]]]}},{"type":"Feature","properties":{"ID_0":177,"ISO":"PHL","NAME_0":"Philippines","ID_1":5017,"NAME_1":"Camarines Sur","ID_2":501723,"NAME_2":"Nabua","ID_3":501723021,"NAME_3":"San Esteban","NL_NAME_3":null,"VARNAME_3":null,"TYPE_3":"Barangay","ENGTYPE_3":"Village","PROVINCE":"Camarines Sur","REGION":"Region V (Bicol Region)","id":"barangay-0501723021","name":"San Esteban","barangayCode":"0501723021","population":null,"formattedPop":null,"densityCategory":"No data","vulnerabilityRating":"No data","healthRiskLevel":"No data","areaKm2":1.346751,"centerLat":13.408079,"centerLng":123.361594,"geometrySource":"all_barangay-2.csv detailed WKT","geometryMatchMethod":"unique_official_admin_names","boundaryPointCount":19},"geometry":{"type":"MultiPolygon","coordinates":[[[[123.366318,13.41446],[123.367683,13.41184],[123.37059,13.40872],[123.369476,13.40812],[123.368431,13.40759],[123.367188,13.40701],[123.365273,13.40613],[123.363358,13.40535],[123.361519,13.4046],[123.35881,13.4038],[123.357986,13.40468],[123.356667,13.40628],[123.356697,13.40764],[123.356819,13.40907],[123.356934,13.41026],[123.356743,13.41123],[123.361397,13.41247],[123.363136,13.41295],[123.366318,13.41446]]]]}},{"type":"Feature","properties":{"ID_0":177,"ISO":"PHL","NAME_0":"Philippines","ID_1":5017,"NAME_1":"Camarines Sur","ID_2":501723,"NAME_2":"Nabua","ID_3":501723022,"NAME_3":"San Francisco","NL_NAME_3":null,"VARNAME_3":null,"TYPE_3":"Barangay","ENGTYPE_3":"Village","PROVINCE":"Camarines Sur","REGION":"Region V (Bicol Region)","id":"barangay-0501723022","name":"San Francisco","barangayCode":"0501723022","population":null,"formattedPop":null,"densityCategory":"No data","vulnerabilityRating":"No data","healthRiskLevel":"No data","areaKm2":0.390354,"centerLat":13.409663,"centerLng":123.380708,"geometrySource":"all_barangay-2.csv detailed WKT","geometryMatchMethod":"unique_official_admin_names","boundaryPointCount":10},"geometry":{"type":"MultiPolygon","coordinates":[[[[123.380524,13.41282],[123.380577,13.4116],[123.380676,13.4105],[123.380951,13.40907],[123.376762,13.40883],[123.37394,13.40907],[123.373596,13.41004],[123.375504,13.41051],[123.377167,13.4109],[123.380524,13.41282]]]]}},{"type":"Feature","properties":{"ID_0":177,"ISO":"PHL","NAME_0":"Philippines","ID_1":5017,"NAME_1":"Camarines Sur","ID_2":501723,"NAME_2":"Nabua","ID_3":501723023,"NAME_3":"San Isidro","NL_NAME_3":null,"VARNAME_3":null,"TYPE_3":"Barangay","ENGTYPE_3":"Village","PROVINCE":"Camarines Sur","REGION":"Region V (Bicol Region)","id":"barangay-0501723023","name":"San Isidro","barangayCode":"0501723023","population":null,"formattedPop":null,"densityCategory":"No data","vulnerabilityRating":"No data","healthRiskLevel":"No data","areaKm2":0.159597,"centerLat":13.407186,"centerLng":123.377124,"geometrySource":"all_barangay-2.csv detailed WKT","geometryMatchMethod":"unique_official_admin_names","boundaryPointCount":8},"geometry":{"type":"MultiPolygon","coordinates":[[[[123.37394,13.40907],[123.376762,13.40883],[123.380951,13.40907],[123.380852,13.40795],[123.374153,13.40685],[123.373894,13.40752],[123.373993,13.40831],[123.37394,13.40907]]]]}},{"type":"Feature","properties":{"ID_0":177,"ISO":"PHL","NAME_0":"Philippines","ID_1":5017,"NAME_1":"Camarines Sur","ID_2":501723,"NAME_2":"Nabua","ID_3":501723024,"NAME_3":"San Isidro Inapatan","NL_NAME_3":null,"VARNAME_3":null,"TYPE_3":"Barangay","ENGTYPE_3":"Village","PROVINCE":"Camarines Sur","REGION":"Region V (Bicol Region)","id":"barangay-0501723024","name":"San Isidro Inapatan","barangayCode":"0501723024","population":null,"formattedPop":null,"densityCategory":"No data","vulnerabilityRating":"No data","healthRiskLevel":"No data","areaKm2":2.07697,"centerLat":13.380212,"centerLng":123.330579,"geometrySource":"all_barangay-2.csv detailed WKT","geometryMatchMethod":"unique_official_admin_names","boundaryPointCount":21},"geometry":{"type":"MultiPolygon","coordinates":[[[[123.339951,13.37857],[123.339561,13.37717],[123.339233,13.37486],[123.339638,13.37208],[123.33828,13.37036],[123.338417,13.37013],[123.3358,13.37095],[123.334534,13.37001],[123.334587,13.3685],[123.335007,13.3674],[123.333557,13.36909],[123.331017,13.36932],[123.329689,13.36947],[123.328056,13.3697],[123.327904,13.37019],[123.327133,13.36993],[123.3265,13.37143],[123.32534,13.37193],[123.338287,13.38047],[123.339043,13.38037],[123.339951,13.37857]]]]}},{"type":"Feature","properties":{"ID_0":177,"ISO":"PHL","NAME_0":"Philippines","ID_1":5017,"NAME_1":"Camarines Sur","ID_2":501723,"NAME_2":"Nabua","ID_3":501723026,"NAME_3":"Malawag","NL_NAME_3":null,"VARNAME_3":null,"TYPE_3":"Barangay","ENGTYPE_3":"Village","PROVINCE":"Camarines Sur","REGION":"Region V (Bicol Region)","id":"barangay-0501723026","name":"Malawag","barangayCode":"0501723026","population":null,"formattedPop":null,"densityCategory":"No data","vulnerabilityRating":"No data","healthRiskLevel":"No data","areaKm2":4.940666,"centerLat":13.368194,"centerLng":123.302508,"geometrySource":"all_barangay-2.csv detailed WKT","geometryMatchMethod":"unique_official_admin_names","boundaryPointCount":51},"geometry":{"type":"MultiPolygon","coordinates":[[[[123.292923,13.3778],[123.294121,13.37752],[123.295212,13.37821],[123.295753,13.37934],[123.296867,13.37882],[123.297707,13.378],[123.298828,13.37737],[123.299347,13.3766],[123.300201,13.37704],[123.300667,13.37724],[123.301949,13.37723],[123.302277,13.37677],[123.304077,13.37623],[123.303047,13.37532],[123.303612,13.374],[123.305832,13.37361],[123.304893,13.37217],[123.306267,13.37143],[123.306763,13.3708],[123.308273,13.37069],[123.310211,13.37029],[123.311447,13.37023],[123.313026,13.37137],[123.314034,13.37259],[123.315353,13.37258],[123.31617,13.37196],[123.317307,13.37298],[123.317108,13.37061],[123.317749,13.37031],[123.321716,13.3544],[123.309433,13.34886],[123.301537,13.3451],[123.295181,13.34204],[123.290253,13.33863],[123.286537,13.34926],[123.285713,13.35215],[123.28389,13.36083],[123.283493,13.3633],[123.280342,13.37311],[123.280983,13.37362],[123.281357,13.37449],[123.281387,13.37474],[123.283073,13.37472],[123.284866,13.37472],[123.28566,13.37469],[123.286774,13.37522],[123.286613,13.37659],[123.288811,13.376],[123.290367,13.37638],[123.29213,13.37749],[123.292923,13.3778]]]]}},{"type":"Feature","properties":{"ID_0":177,"ISO":"PHL","NAME_0":"Philippines","ID_1":5017,"NAME_1":"Camarines Sur","ID_2":501723,"NAME_2":"Nabua","ID_3":501723027,"NAME_3":"San Jose","NL_NAME_3":null,"VARNAME_3":null,"TYPE_3":"Barangay","ENGTYPE_3":"Village","PROVINCE":"Camarines Sur","REGION":"Region V (Bicol Region)","id":"barangay-0501723027","name":"San Jose","barangayCode":"0501723027","population":null,"formattedPop":null,"densityCategory":"No data","vulnerabilityRating":"No data","healthRiskLevel":"No data","areaKm2":1.78999,"centerLat":13.408742,"centerLng":123.38879,"geometrySource":"all_barangay-2.csv detailed WKT","geometryMatchMethod":"unique_official_admin_names","boundaryPointCount":22},"geometry":{"type":"MultiPolygon","coordinates":[[[[123.392067,13.41711],[123.392227,13.41205],[123.392372,13.40995],[123.393112,13.40664],[123.391617,13.4064],[123.388687,13.40472],[123.38607,13.4029],[123.385551,13.40213],[123.384293,13.40143],[123.383087,13.40154],[123.381889,13.40239],[123.38147,13.40557],[123.380852,13.40795],[123.380951,13.40907],[123.380676,13.4105],[123.380577,13.4116],[123.380524,13.41282],[123.380363,13.41417],[123.38031,13.41475],[123.386307,13.41581],[123.389236,13.41708],[123.392067,13.41711]]]]}},{"type":"Feature","properties":{"ID_0":177,"ISO":"PHL","NAME_0":"Philippines","ID_1":5017,"NAME_1":"Camarines Sur","ID_2":501723,"NAME_2":"Nabua","ID_3":501723028,"NAME_3":"San Juan","NL_NAME_3":null,"VARNAME_3":null,"TYPE_3":"Barangay","ENGTYPE_3":"Village","PROVINCE":"Camarines Sur","REGION":"Region V (Bicol Region)","id":"barangay-0501723028","name":"San Juan","barangayCode":"0501723028","population":null,"formattedPop":null,"densityCategory":"No data","vulnerabilityRating":"No data","healthRiskLevel":"No data","areaKm2":0.072626,"centerLat":13.409662,"centerLng":123.375141,"geometrySource":"all_barangay-2.csv detailed WKT","geometryMatchMethod":"unique_official_admin_names","boundaryPointCount":8},"geometry":{"type":"MultiPolygon","coordinates":[[[[123.370659,13.41616],[123.374313,13.41603],[123.38031,13.41475],[123.380363,13.41417],[123.376747,13.41217],[123.376541,13.41284],[123.372223,13.41252],[123.370659,13.41616]]]]}},{"type":"Feature","properties":{"ID_0":177,"ISO":"PHL","NAME_0":"Philippines","ID_1":5017,"NAME_1":"Camarines Sur","ID_2":501723,"NAME_2":"Nabua","ID_3":501723029,"NAME_3":"San Luis","NL_NAME_3":null,"VARNAME_3":null,"TYPE_3":"Barangay","ENGTYPE_3":"Village","PROVINCE":"Camarines Sur","REGION":"Region V (Bicol Region)","id":"barangay-0501723029","name":"San Luis","barangayCode":"0501723029","population":null,"formattedPop":null,"densityCategory":"No data","vulnerabilityRating":"No data","healthRiskLevel":"No data","areaKm2":0.035048,"centerLat":13.40863,"centerLng":123.374955,"geometrySource":"all_barangay-2.csv detailed WKT","geometryMatchMethod":"unique_official_admin_names","boundaryPointCount":11},"geometry":{"type":"MultiPolygon","coordinates":[[[[123.380524,13.41282],[123.377167,13.4109],[123.375504,13.41051],[123.373596,13.41004],[123.373207,13.41078],[123.372726,13.41082],[123.372223,13.41252],[123.376541,13.41284],[123.376747,13.41217],[123.380363,13.41417],[123.380524,13.41282]]]]}},{"type":"Feature","properties":{"ID_0":177,"ISO":"PHL","NAME_0":"Philippines","ID_1":5017,"NAME_1":"Camarines Sur","ID_2":501723,"NAME_2":"Nabua","ID_3":501723030,"NAME_3":"San Miguel","NL_NAME_3":null,"VARNAME_3":null,"TYPE_3":"Barangay","ENGTYPE_3":"Village","PROVINCE":"Camarines Sur","REGION":"Region V (Bicol Region)","id":"barangay-0501723030","name":"San Miguel","barangayCode":"0501723030","population":null,"formattedPop":null,"densityCategory":"No data","vulnerabilityRating":"No data","healthRiskLevel":"No data","areaKm2":0.387546,"centerLat":13.40333,"centerLng":123.375699,"geometrySource":"all_barangay-2.csv detailed WKT","geometryMatchMethod":"unique_official_admin_names","boundaryPointCount":14},"geometry":{"type":"MultiPolygon","coordinates":[[[[123.374153,13.40685],[123.380852,13.40795],[123.38147,13.40557],[123.381889,13.40239],[123.380119,13.40336],[123.379097,13.40334],[123.377617,13.40348],[123.376793,13.4032],[123.375069,13.40358],[123.374077,13.40326],[123.372383,13.40285],[123.372131,13.40391],[123.372292,13.40544],[123.374153,13.40685]]]]}},{"type":"Feature","properties":{"ID_0":177,"ISO":"PHL","NAME_0":"Philippines","ID_1":5017,"NAME_1":"Camarines Sur","ID_2":501723,"NAME_2":"Nabua","ID_3":501723031,"NAME_3":"San Nicolas","NL_NAME_3":null,"VARNAME_3":null,"TYPE_3":"Barangay","ENGTYPE_3":"Village","PROVINCE":"Camarines Sur","REGION":"Region V (Bicol Region)","id":"barangay-0501723031","name":"San Nicolas","barangayCode":"0501723031","population":null,"formattedPop":null,"densityCategory":"No data","vulnerabilityRating":"No data","healthRiskLevel":"No data","areaKm2":0.369463,"centerLat":13.402276,"centerLng":123.369977,"geometrySource":"all_barangay-2.csv detailed WKT","geometryMatchMethod":"unique_official_admin_names","boundaryPointCount":23},"geometry":{"type":"MultiPolygon","coordinates":[[[[123.372414,13.40801],[123.373993,13.40831],[123.373894,13.40752],[123.374153,13.40685],[123.372292,13.40544],[123.372131,13.40391],[123.372383,13.40285],[123.371452,13.40268],[123.369453,13.40191],[123.368477,13.4013],[123.367393,13.40018],[123.366447,13.40014],[123.362556,13.40234],[123.361816,13.40257],[123.359894,13.40325],[123.35881,13.4038],[123.361519,13.4046],[123.363358,13.40535],[123.364578,13.40397],[123.365959,13.40277],[123.366867,13.40318],[123.36718,13.40377],[123.372414,13.40801]]]]}},{"type":"Feature","properties":{"ID_0":177,"ISO":"PHL","NAME_0":"Philippines","ID_1":5017,"NAME_1":"Camarines Sur","ID_2":501723,"NAME_2":"Nabua","ID_3":501723033,"NAME_3":"San Roque","NL_NAME_3":null,"VARNAME_3":null,"TYPE_3":"Barangay","ENGTYPE_3":"Village","PROVINCE":"Camarines Sur","REGION":"Region V (Bicol Region)","id":"barangay-0501723033","name":"San Roque","barangayCode":"0501723033","population":null,"formattedPop":null,"densityCategory":"No data","vulnerabilityRating":"No data","healthRiskLevel":"No data","areaKm2":0.191469,"centerLat":13.405258,"centerLng":123.369347,"geometrySource":"all_barangay-2.csv detailed WKT","geometryMatchMethod":"unique_official_admin_names","boundaryPointCount":12},"geometry":{"type":"MultiPolygon","coordinates":[[[[123.372414,13.40801],[123.36718,13.40377],[123.366867,13.40318],[123.365959,13.40277],[123.364578,13.40397],[123.363358,13.40535],[123.365273,13.40613],[123.367188,13.40701],[123.368431,13.40759],[123.369476,13.40812],[123.37059,13.40872],[123.372414,13.40801]]]]}},{"type":"Feature","properties":{"ID_0":177,"ISO":"PHL","NAME_0":"Philippines","ID_1":5017,"NAME_1":"Camarines Sur","ID_2":501723,"NAME_2":"Nabua","ID_3":501723034,"NAME_3":"San Roque Madawon","NL_NAME_3":null,"VARNAME_3":null,"TYPE_3":"Barangay","ENGTYPE_3":"Village","PROVINCE":"Camarines Sur","REGION":"Region V (Bicol Region)","id":"barangay-0501723034","name":"San Roque Madawon","barangayCode":"0501723034","population":null,"formattedPop":null,"densityCategory":"No data","vulnerabilityRating":"No data","healthRiskLevel":"No data","areaKm2":1.044924,"centerLat":13.391584,"centerLng":123.334458,"geometrySource":"all_barangay-2.csv detailed WKT","geometryMatchMethod":"unique_official_admin_names","boundaryPointCount":20},"geometry":{"type":"MultiPolygon","coordinates":[[[[123.328934,13.40149],[123.334969,13.40356],[123.337402,13.40371],[123.334213,13.40112],[123.337624,13.39562],[123.339119,13.3848],[123.337624,13.38573],[123.335182,13.3873],[123.332481,13.38665],[123.331123,13.38584],[123.330833,13.38752],[123.331161,13.3901],[123.33017,13.39062],[123.32724,13.3897],[123.326508,13.39206],[123.327332,13.39338],[123.329979,13.39581],[123.331146,13.39733],[123.329964,13.3995],[123.328934,13.40149]]]]}},{"type":"Feature","properties":{"ID_0":177,"ISO":"PHL","NAME_0":"Philippines","ID_1":5017,"NAME_1":"Camarines Sur","ID_2":501723,"NAME_2":"Nabua","ID_3":501723035,"NAME_3":"San Roque Sagumay","NL_NAME_3":null,"VARNAME_3":null,"TYPE_3":"Barangay","ENGTYPE_3":"Village","PROVINCE":"Camarines Sur","REGION":"Region V (Bicol Region)","id":"barangay-0501723035","name":"San Roque Sagumay","barangayCode":"0501723035","population":null,"formattedPop":null,"densityCategory":"No data","vulnerabilityRating":"No data","healthRiskLevel":"No data","areaKm2":2.800616,"centerLat":13.398848,"centerLng":123.282925,"geometrySource":"all_barangay-2.csv detailed WKT","geometryMatchMethod":"unique_official_admin_names","boundaryPointCount":20},"geometry":{"type":"MultiPolygon","coordinates":[[[[123.274117,13.40365],[123.275322,13.40466],[123.276558,13.40543],[123.277328,13.40673],[123.278267,13.4066],[123.278816,13.40555],[123.279823,13.40505],[123.279892,13.40605],[123.279846,13.40715],[123.280777,13.40793],[123.282257,13.40826],[123.283379,13.40764],[123.283249,13.40635],[123.284683,13.40556],[123.28595,13.40638],[123.289383,13.39961],[123.286819,13.39802],[123.276299,13.39243],[123.275833,13.39675],[123.274117,13.40365]]]]}},{"type":"Feature","properties":{"ID_0":177,"ISO":"PHL","NAME_0":"Philippines","ID_1":5017,"NAME_1":"Camarines Sur","ID_2":501723,"NAME_2":"Nabua","ID_3":501723036,"NAME_3":"San Vicente Gorong-Gorong","NL_NAME_3":null,"VARNAME_3":null,"TYPE_3":"Barangay","ENGTYPE_3":"Village","PROVINCE":"Camarines Sur","REGION":"Region V (Bicol Region)","id":"barangay-0501723036","name":"San Vicente Gorong-Gorong","barangayCode":"0501723036","population":null,"formattedPop":null,"densityCategory":"No data","vulnerabilityRating":"No data","healthRiskLevel":"No data","areaKm2":2.620418,"centerLat":13.379463,"centerLng":123.289259,"geometrySource":"all_barangay-2.csv detailed WKT","geometryMatchMethod":"unique_official_admin_names","boundaryPointCount":23},"geometry":{"type":"MultiPolygon","coordinates":[[[[123.279137,13.37886],[123.279694,13.37957],[123.280373,13.38132],[123.282227,13.38256],[123.285187,13.38416],[123.287987,13.38584],[123.289642,13.38704],[123.291901,13.38291],[123.292923,13.3778],[123.29213,13.37749],[123.290367,13.37638],[123.288811,13.376],[123.286613,13.37659],[123.286774,13.37522],[123.28566,13.37469],[123.284866,13.37472],[123.283073,13.37472],[123.281387,13.37474],[123.281357,13.37449],[123.280983,13.37362],[123.280342,13.37311],[123.279839,13.37543],[123.279137,13.37886]]]]}},{"type":"Feature","properties":{"ID_0":177,"ISO":"PHL","NAME_0":"Philippines","ID_1":5017,"NAME_1":"Camarines Sur","ID_2":501723,"NAME_2":"Nabua","ID_3":501723037,"NAME_3":"San Vicente Ogbon","NL_NAME_3":null,"VARNAME_3":null,"TYPE_3":"Barangay","ENGTYPE_3":"Village","PROVINCE":"Camarines Sur","REGION":"Region V (Bicol Region)","id":"barangay-0501723037","name":"San Vicente Ogbon","barangayCode":"0501723037","population":null,"formattedPop":null,"densityCategory":"No data","vulnerabilityRating":"No data","healthRiskLevel":"No data","areaKm2":3.217517,"centerLat":13.38023,"centerLng":123.348347,"geometrySource":"all_barangay-2.csv detailed WKT","geometryMatchMethod":"unique_official_admin_names","boundaryPointCount":27},"geometry":{"type":"MultiPolygon","coordinates":[[[[123.360931,13.3756],[123.360779,13.36996],[123.356682,13.3686],[123.348007,13.36522],[123.34668,13.36506],[123.34288,13.36328],[123.336761,13.36081],[123.335968,13.36467],[123.336617,13.36665],[123.337303,13.36859],[123.338417,13.37013],[123.33828,13.37036],[123.339638,13.37208],[123.339233,13.37486],[123.339561,13.37717],[123.339951,13.37857],[123.341652,13.37876],[123.342369,13.37731],[123.344467,13.37629],[123.345772,13.37555],[123.347549,13.37614],[123.349358,13.37662],[123.35202,13.37599],[123.354057,13.37627],[123.355827,13.37587],[123.357933,13.37597],[123.360931,13.3756]]]]}},{"type":"Feature","properties":{"ID_0":177,"ISO":"PHL","NAME_0":"Philippines","ID_1":5017,"NAME_1":"Camarines Sur","ID_2":501723,"NAME_2":"Nabua","ID_3":501723038,"NAME_3":"Santa Barbara","NL_NAME_3":null,"VARNAME_3":null,"TYPE_3":"Barangay","ENGTYPE_3":"Village","PROVINCE":"Camarines Sur","REGION":"Region V (Bicol Region)","id":"barangay-0501723038","name":"Santa Barbara","barangayCode":"0501723038","population":null,"formattedPop":null,"densityCategory":"No data","vulnerabilityRating":"No data","healthRiskLevel":"No data","areaKm2":2.887496,"centerLat":13.412695,"centerLng":123.349777,"geometrySource":"all_barangay-2.csv detailed WKT","geometryMatchMethod":"unique_official_admin_names","boundaryPointCount":39},"geometry":{"type":"MultiPolygon","coordinates":[[[[123.363373,13.43411],[123.364929,13.43431],[123.370659,13.41616],[123.369499,13.41572],[123.366318,13.41446],[123.363136,13.41295],[123.361397,13.41247],[123.356743,13.41123],[123.356934,13.41026],[123.356819,13.40907],[123.356697,13.40764],[123.356667,13.40628],[123.354179,13.40814],[123.352982,13.40792],[123.352341,13.40896],[123.350609,13.40982],[123.350258,13.40935],[123.349503,13.40982],[123.34832,13.41024],[123.348351,13.41086],[123.347107,13.41153],[123.346077,13.41175],[123.345154,13.41281],[123.345016,13.41405],[123.344513,13.41495],[123.344383,13.41652],[123.34388,13.41731],[123.344238,13.41975],[123.346527,13.42093],[123.349037,13.42241],[123.349678,13.42451],[123.35009,13.42559],[123.35128,13.42679],[123.350822,13.42831],[123.350937,13.42918],[123.350677,13.43179],[123.348648,13.4327],[123.348801,13.4335],[123.363373,13.43411]]]]}},{"type":"Feature","properties":{"ID_0":177,"ISO":"PHL","NAME_0":"Philippines","ID_1":5017,"NAME_1":"Camarines Sur","ID_2":501723,"NAME_2":"Nabua","ID_3":501723039,"NAME_3":"Santa Cruz","NL_NAME_3":null,"VARNAME_3":null,"TYPE_3":"Barangay","ENGTYPE_3":"Village","PROVINCE":"Camarines Sur","REGION":"Region V (Bicol Region)","id":"barangay-0501723039","name":"Santa Cruz","barangayCode":"0501723039","population":null,"formattedPop":null,"densityCategory":"No data","vulnerabilityRating":"No data","healthRiskLevel":"No data","areaKm2":1.485219,"centerLat":13.403122,"centerLng":123.342092,"geometrySource":"all_barangay-2.csv detailed WKT","geometryMatchMethod":"unique_official_admin_names","boundaryPointCount":18},"geometry":{"type":"MultiPolygon","coordinates":[[[[123.344513,13.41495],[123.345016,13.41405],[123.345154,13.41281],[123.346077,13.41175],[123.347107,13.41153],[123.348351,13.41086],[123.34832,13.41024],[123.349503,13.40982],[123.350258,13.40935],[123.345329,13.40274],[123.342102,13.39716],[123.337624,13.39562],[123.334213,13.40112],[123.337402,13.40371],[123.339973,13.40932],[123.342072,13.41309],[123.343483,13.41513],[123.344513,13.41495]]]]}},{"type":"Feature","properties":{"ID_0":177,"ISO":"PHL","NAME_0":"Philippines","ID_1":5017,"NAME_1":"Camarines Sur","ID_2":501723,"NAME_2":"Nabua","ID_3":501723040,"NAME_3":"Santa Elena Baras","NL_NAME_3":null,"VARNAME_3":null,"TYPE_3":"Barangay","ENGTYPE_3":"Village","PROVINCE":"Camarines Sur","REGION":"Region V (Bicol Region)","id":"barangay-0501723040","name":"Santa Elena Baras","barangayCode":"0501723040","population":null,"formattedPop":null,"densityCategory":"No data","vulnerabilityRating":"No data","healthRiskLevel":"No data","areaKm2":2.080146,"centerLat":13.422899,"centerLng":123.390716,"geometrySource":"all_barangay-2.csv detailed WKT","geometryMatchMethod":"unique_official_admin_names","boundaryPointCount":27},"geometry":{"type":"MultiPolygon","coordinates":[[[[123.389427,13.43624],[123.392807,13.43642],[123.395569,13.43685],[123.396629,13.43492],[123.396858,13.43467],[123.397011,13.43097],[123.396957,13.42923],[123.396843,13.42833],[123.395668,13.42736],[123.395531,13.4267],[123.394997,13.42579],[123.394409,13.4242],[123.393051,13.42256],[123.392509,13.42013],[123.392288,13.41832],[123.392067,13.41711],[123.389236,13.41708],[123.386307,13.41581],[123.38031,13.41475],[123.383308,13.41721],[123.385277,13.41842],[123.386108,13.42278],[123.386574,13.42569],[123.387207,13.42875],[123.388237,13.43224],[123.389168,13.43541],[123.389427,13.43624]]]]}},{"type":"Feature","properties":{"ID_0":177,"ISO":"PHL","NAME_0":"Philippines","ID_1":5017,"NAME_1":"Camarines Sur","ID_2":501723,"NAME_2":"Nabua","ID_3":501723041,"NAME_3":"Santa Lucia Baras","NL_NAME_3":null,"VARNAME_3":null,"TYPE_3":"Barangay","ENGTYPE_3":"Village","PROVINCE":"Camarines Sur","REGION":"Region V (Bicol Region)","id":"barangay-0501723041","name":"Santa Lucia Baras","barangayCode":"0501723041","population":null,"formattedPop":null,"densityCategory":"No data","vulnerabilityRating":"No data","healthRiskLevel":"No data","areaKm2":3.651509,"centerLat":13.42075,"centerLng":123.376623,"geometrySource":"all_barangay-2.csv detailed WKT","geometryMatchMethod":"unique_official_admin_names","boundaryPointCount":16},"geometry":{"type":"MultiPolygon","coordinates":[[[[123.364929,13.43431],[123.366158,13.43431],[123.374222,13.435],[123.384323,13.4354],[123.389427,13.43624],[123.389168,13.43541],[123.388237,13.43224],[123.387207,13.42875],[123.386574,13.42569],[123.386108,13.42278],[123.385277,13.41842],[123.383308,13.41721],[123.38031,13.41475],[123.374313,13.41603],[123.370659,13.41616],[123.364929,13.43431]]]]}},{"type":"Feature","properties":{"ID_0":177,"ISO":"PHL","NAME_0":"Philippines","ID_1":5017,"NAME_1":"Camarines Sur","ID_2":501723,"NAME_2":"Nabua","ID_3":501723042,"NAME_3":"Santiago Old","NL_NAME_3":null,"VARNAME_3":null,"TYPE_3":"Barangay","ENGTYPE_3":"Village","PROVINCE":"Camarines Sur","REGION":"Region V (Bicol Region)","id":"barangay-0501723042","name":"Santiago Old","barangayCode":"0501723042","population":null,"formattedPop":null,"densityCategory":"No data","vulnerabilityRating":"No data","healthRiskLevel":"No data","areaKm2":1.10817,"centerLat":13.399521,"centerLng":123.360374,"geometrySource":"all_barangay-2.csv detailed WKT","geometryMatchMethod":"unique_official_admin_names","boundaryPointCount":19},"geometry":{"type":"MultiPolygon","coordinates":[[[[123.356667,13.40628],[123.357986,13.40468],[123.35881,13.4038],[123.359894,13.40325],[123.361816,13.40257],[123.362556,13.40234],[123.359863,13.39468],[123.354141,13.39477],[123.349388,13.39634],[123.347473,13.39872],[123.345711,13.40114],[123.345238,13.40244],[123.345329,13.40274],[123.350258,13.40935],[123.350609,13.40982],[123.352341,13.40896],[123.352982,13.40792],[123.354179,13.40814],[123.356667,13.40628]]]]}},{"type":"Feature","properties":{"ID_0":177,"ISO":"PHL","NAME_0":"Philippines","ID_1":5017,"NAME_1":"Camarines Sur","ID_2":501723,"NAME_2":"Nabua","ID_3":501723043,"NAME_3":"Santiago Young","NL_NAME_3":null,"VARNAME_3":null,"TYPE_3":"Barangay","ENGTYPE_3":"Village","PROVINCE":"Camarines Sur","REGION":"Region V (Bicol Region)","id":"barangay-0501723043","name":"Santiago Young","barangayCode":"0501723043","population":null,"formattedPop":null,"densityCategory":"No data","vulnerabilityRating":"No data","healthRiskLevel":"No data","areaKm2":0.99382,"centerLat":13.394962,"centerLng":123.369354,"geometrySource":"all_barangay-2.csv detailed WKT","geometryMatchMethod":"unique_official_admin_names","boundaryPointCount":22},"geometry":{"type":"MultiPolygon","coordinates":[[[[123.375069,13.40358],[123.374687,13.40226],[123.374649,13.39997],[123.374641,13.39945],[123.374634,13.3991],[123.374283,13.39715],[123.373589,13.39293],[123.373283,13.39129],[123.372772,13.39144],[123.371017,13.39321],[123.367577,13.39469],[123.3638,13.39529],[123.359863,13.39468],[123.362556,13.40234],[123.366447,13.40014],[123.367393,13.40018],[123.368477,13.4013],[123.369453,13.40191],[123.371452,13.40268],[123.372383,13.40285],[123.374077,13.40326],[123.375069,13.40358]]]]}},{"type":"Feature","properties":{"ID_0":177,"ISO":"PHL","NAME_0":"Philippines","ID_1":5017,"NAME_1":"Camarines Sur","ID_2":501723,"NAME_2":"Nabua","ID_3":501723044,"NAME_3":"Santo Domingo","NL_NAME_3":null,"VARNAME_3":null,"TYPE_3":"Barangay","ENGTYPE_3":"Village","PROVINCE":"Camarines Sur","REGION":"Region V (Bicol Region)","id":"barangay-0501723044","name":"Santo Domingo","barangayCode":"0501723044","population":null,"formattedPop":null,"densityCategory":"No data","vulnerabilityRating":"No data","healthRiskLevel":"No data","areaKm2":3.524205,"centerLat":13.408875,"centerLng":123.332459,"geometrySource":"all_barangay-2.csv detailed WKT","geometryMatchMethod":"unique_official_admin_names","boundaryPointCount":29},"geometry":{"type":"MultiPolygon","coordinates":[[[[123.350937,13.42918],[123.350822,13.42831],[123.35128,13.42679],[123.35009,13.42559],[123.349678,13.42451],[123.349037,13.42241],[123.346527,13.42093],[123.344238,13.41975],[123.34388,13.41731],[123.344383,13.41652],[123.344513,13.41495],[123.343483,13.41513],[123.342072,13.41309],[123.339973,13.40932],[123.337402,13.40371],[123.334969,13.40356],[123.328934,13.40149],[123.327477,13.40491],[123.32605,13.4056],[123.323471,13.40803],[123.320824,13.41043],[123.321602,13.41309],[123.321213,13.41526],[123.323647,13.41653],[123.324471,13.41882],[123.324562,13.41912],[123.335739,13.42254],[123.345131,13.42606],[123.350937,13.42918]]]]}},{"type":"Feature","properties":{"ID_0":177,"ISO":"PHL","NAME_0":"Philippines","ID_1":5017,"NAME_1":"Camarines Sur","ID_2":501723,"NAME_2":"Nabua","ID_3":501723045,"NAME_3":"Tandaay","NL_NAME_3":null,"VARNAME_3":null,"TYPE_3":"Barangay","ENGTYPE_3":"Village","PROVINCE":"Camarines Sur","REGION":"Region V (Bicol Region)","id":"barangay-0501723045","name":"Tandaay","barangayCode":"0501723045","population":null,"formattedPop":null,"densityCategory":"No data","vulnerabilityRating":"No data","healthRiskLevel":"No data","areaKm2":2.329742,"centerLat":13.396368,"centerLng":123.295946,"geometrySource":"all_barangay-2.csv detailed WKT","geometryMatchMethod":"unique_official_admin_names","boundaryPointCount":20},"geometry":{"type":"MultiPolygon","coordinates":[[[[123.289383,13.39961],[123.292389,13.40179],[123.294083,13.40288],[123.294594,13.40296],[123.296227,13.40378],[123.297501,13.40329],[123.299797,13.40287],[123.301689,13.40391],[123.304337,13.39981],[123.306801,13.39738],[123.304901,13.39658],[123.298851,13.39327],[123.293877,13.39073],[123.292358,13.38892],[123.289642,13.38704],[123.288811,13.39112],[123.287407,13.39508],[123.286591,13.39784],[123.286819,13.39802],[123.289383,13.39961]]]]}},{"type":"Feature","properties":{"ID_0":177,"ISO":"PHL","NAME_0":"Philippines","ID_1":5017,"NAME_1":"Camarines Sur","ID_2":501723,"NAME_2":"Nabua","ID_3":501723046,"NAME_3":"Topas Proper","NL_NAME_3":null,"VARNAME_3":null,"TYPE_3":"Barangay","ENGTYPE_3":"Village","PROVINCE":"Camarines Sur","REGION":"Region V (Bicol Region)","id":"barangay-0501723046","name":"Topas Proper","barangayCode":"0501723046","population":null,"formattedPop":null,"densityCategory":"No data","vulnerabilityRating":"No data","healthRiskLevel":"No data","areaKm2":1.830776,"centerLat":13.405627,"centerLng":123.310791,"geometrySource":"all_barangay-2.csv detailed WKT","geometryMatchMethod":"unique_official_admin_names","boundaryPointCount":29},"geometry":{"type":"MultiPolygon","coordinates":[[[[123.310364,13.4192],[123.311813,13.41669],[123.314087,13.41215],[123.315407,13.40854],[123.318871,13.40294],[123.316597,13.40225],[123.314262,13.40092],[123.306801,13.39738],[123.304337,13.39981],[123.301689,13.40391],[123.303482,13.40416],[123.305191,13.40618],[123.30471,13.40717],[123.305267,13.40837],[123.305031,13.40915],[123.306084,13.4101],[123.306602,13.41042],[123.306053,13.41116],[123.306374,13.41193],[123.306633,13.41211],[123.30677,13.41311],[123.30645,13.41331],[123.307564,13.4143],[123.30883,13.41467],[123.309128,13.41554],[123.308968,13.41721],[123.309303,13.4175],[123.309853,13.41849],[123.310364,13.4192]]]]}},{"type":"Feature","properties":{"ID_0":177,"ISO":"PHL","NAME_0":"Philippines","ID_1":5017,"NAME_1":"Camarines Sur","ID_2":501723,"NAME_2":"Nabua","ID_3":501723047,"NAME_3":"Topas Sogod","NL_NAME_3":null,"VARNAME_3":null,"TYPE_3":"Barangay","ENGTYPE_3":"Village","PROVINCE":"Camarines Sur","REGION":"Region V (Bicol Region)","id":"barangay-0501723047","name":"Topas Sogod","barangayCode":"0501723047","population":null,"formattedPop":null,"densityCategory":"No data","vulnerabilityRating":"No data","healthRiskLevel":"No data","areaKm2":1.647524,"centerLat":13.412837,"centerLng":123.317172,"geometrySource":"all_barangay-2.csv detailed WKT","geometryMatchMethod":"unique_official_admin_names","boundaryPointCount":33},"geometry":{"type":"MultiPolygon","coordinates":[[[[123.316483,13.42649],[123.317268,13.42163],[123.31723,13.42006],[123.317993,13.41838],[123.319603,13.41931],[123.320534,13.41946],[123.320732,13.41865],[123.322083,13.41881],[123.323227,13.41982],[123.324562,13.41912],[123.324471,13.41882],[123.323647,13.41653],[123.321213,13.41526],[123.321602,13.41309],[123.320824,13.41043],[123.323471,13.40803],[123.32605,13.4056],[123.325233,13.40512],[123.322609,13.40428],[123.320831,13.40376],[123.319092,13.4032],[123.318871,13.40294],[123.315407,13.40854],[123.314087,13.41215],[123.311813,13.41669],[123.310364,13.4192],[123.310417,13.41961],[123.310478,13.42078],[123.311493,13.42236],[123.312767,13.42472],[123.31411,13.42526],[123.31501,13.42577],[123.316483,13.42649]]]]}},{"type":"Feature","properties":{"ID_0":177,"ISO":"PHL","NAME_0":"Philippines","ID_1":5017,"NAME_1":"Camarines Sur","ID_2":501723,"NAME_2":"Nabua","ID_3":501723048,"NAME_3":"Paloyon Oriental","NL_NAME_3":null,"VARNAME_3":null,"TYPE_3":"Barangay","ENGTYPE_3":"Village","PROVINCE":"Camarines Sur","REGION":"Region V (Bicol Region)","id":"barangay-0501723048","name":"Paloyon Oriental","barangayCode":"0501723048","population":null,"formattedPop":null,"densityCategory":"No data","vulnerabilityRating":"No data","healthRiskLevel":"No data","areaKm2":0.708042,"centerLat":13.368889,"centerLng":123.387567,"geometrySource":"all_barangay-2.csv detailed WKT","geometryMatchMethod":"unique_official_admin_names","boundaryPointCount":10},"geometry":{"type":"MultiPolygon","coordinates":[[[[123.384247,13.381],[123.386108,13.37922],[123.388649,13.37652],[123.391853,13.37021],[123.395287,13.36286],[123.393143,13.36397],[123.390671,13.3649],[123.386597,13.36708],[123.3834,13.36873],[123.384247,13.381]]]]}}]}
