{"type":"FeatureCollection","features":[{"type":"Feature","properties":{"ID_0":177,"ISO":"PHL","NAME_0":"Philippines","ID_1":11082,"NAME_1":"Davao de Oro (Compostela Valley)","ID_2":1108205,"NAME_2":"Maragusan (San Mariano)","ID_3":1108205001,"NAME_3":"Bagong Silang","NL_NAME_3":null,"VARNAME_3":null,"TYPE_3":"Barangay","ENGTYPE_3":"Village","PROVINCE":"Davao de Oro (Compostela Valley)","REGION":"Region XI (Davao Region)","id":"barangay-1108205001","name":"Bagong Silang","barangayCode":"1108205001","population":null,"formattedPop":null,"densityCategory":"No data","vulnerabilityRating":"No data","healthRiskLevel":"No data","areaKm2":22.470097,"centerLat":7.282505,"centerLng":126.079358,"geometrySource":"all_barangay-2.csv detailed WKT","geometryMatchMethod":"psgc_coordinate_bridge","boundaryPointCount":18},"geometry":{"type":"MultiPolygon","coordinates":[[[[126.10051,7.32545],[126.110191,7.3258],[126.122337,7.32615],[126.134521,7.32686],[126.142769,7.3275],[126.143951,7.32659],[126.14418,7.32312],[126.13517,7.32226],[126.120552,7.32057],[126.100838,7.31882],[126.090797,7.31818],[126.080269,7.31428],[126.066269,7.3095],[126.036667,7.29969],[126.036659,7.32134],[126.067688,7.32184],[126.087532,7.3237],[126.10051,7.32545]]]]}},{"type":"Feature","properties":{"ID_0":177,"ISO":"PHL","NAME_0":"Philippines","ID_1":11082,"NAME_1":"Davao de Oro (Compostela Valley)","ID_2":1108205,"NAME_2":"Maragusan (San Mariano)","ID_3":1108205002,"NAME_3":"Mapawa","NL_NAME_3":null,"VARNAME_3":null,"TYPE_3":"Barangay","ENGTYPE_3":"Village","PROVINCE":"Davao de Oro (Compostela Valley)","REGION":"Region XI (Davao Region)","id":"barangay-1108205002","name":"Mapawa","barangayCode":"1108205002","population":null,"formattedPop":null,"densityCategory":"No data","vulnerabilityRating":"No data","healthRiskLevel":"No data","areaKm2":52.723785,"centerLat":7.286093,"centerLng":126.17932,"geometrySource":"all_barangay-2.csv detailed WKT","geometryMatchMethod":"psgc_coordinate_bridge","boundaryPointCount":32},"geometry":{"type":"MultiPolygon","coordinates":[[[[126.220558,7.34031],[126.220963,7.33957],[126.220444,7.3385],[126.220657,7.33353],[126.221153,7.32046],[126.221153,7.31057],[126.224533,7.29224],[126.214783,7.29186],[126.197037,7.28973],[126.176018,7.28691],[126.156517,7.28469],[126.135971,7.28258],[126.135078,7.28325],[126.136742,7.29044],[126.136887,7.29958],[126.142563,7.31807],[126.142761,7.31994],[126.144279,7.3223],[126.14418,7.32312],[126.143951,7.32659],[126.142769,7.3275],[126.14312,7.32823],[126.141029,7.3314],[126.141586,7.33569],[126.141678,7.33586],[126.151466,7.3357],[126.1632,7.33605],[126.164108,7.33648],[126.175247,7.33683],[126.18972,7.33764],[126.204033,7.33885],[126.220558,7.34031]]]]}},{"type":"Feature","properties":{"ID_0":177,"ISO":"PHL","NAME_0":"Philippines","ID_1":11082,"NAME_1":"Davao de Oro (Compostela Valley)","ID_2":1108205,"NAME_2":"Maragusan (San Mariano)","ID_3":1108205003,"NAME_3":"Maragusan","NL_NAME_3":null,"VARNAME_3":null,"TYPE_3":"Barangay","ENGTYPE_3":"Village","PROVINCE":"Davao de Oro (Compostela Valley)","REGION":"Region XI (Davao Region)","id":"barangay-1108205003","name":"Maragusan","barangayCode":"1108205003","population":null,"formattedPop":null,"densityCategory":"No data","vulnerabilityRating":"No data","healthRiskLevel":"No data","areaKm2":22.189719,"centerLat":7.331103,"centerLng":126.118366,"geometrySource":"all_barangay-2.csv detailed WKT","geometryMatchMethod":"psgc_coordinate_bridge","boundaryPointCount":21},"geometry":{"type":"MultiPolygon","coordinates":[[[[126.092812,7.35059],[126.093307,7.35098],[126.095131,7.35264],[126.099632,7.3564],[126.139999,7.34233],[126.140823,7.34044],[126.140823,7.3392],[126.1632,7.33605],[126.151466,7.3357],[126.141678,7.33586],[126.141586,7.33569],[126.132004,7.33505],[126.117737,7.33465],[126.102837,7.33474],[126.092056,7.33423],[126.082787,7.3354],[126.083488,7.33607],[126.083122,7.3425],[126.084808,7.34227],[126.094017,7.34285],[126.092812,7.35059]]]]}},{"type":"Feature","properties":{"ID_0":177,"ISO":"PHL","NAME_0":"Philippines","ID_1":11082,"NAME_1":"Davao de Oro (Compostela Valley)","ID_2":1108205,"NAME_2":"Maragusan (San Mariano)","ID_3":1108205004,"NAME_3":"New Albay","NL_NAME_3":null,"VARNAME_3":null,"TYPE_3":"Barangay","ENGTYPE_3":"Village","PROVINCE":"Davao de Oro (Compostela Valley)","REGION":"Region XI (Davao Region)","id":"barangay-1108205004","name":"New Albay","barangayCode":"1108205004","population":null,"formattedPop":null,"densityCategory":"No data","vulnerabilityRating":"No data","healthRiskLevel":"No data","areaKm2":34.99341,"centerLat":7.341938,"centerLng":126.186399,"geometrySource":"all_barangay-2.csv detailed WKT","geometryMatchMethod":"psgc_coordinate_bridge","boundaryPointCount":20},"geometry":{"type":"MultiPolygon","coordinates":[[[[126.220673,7.36628],[126.220581,7.34417],[126.190804,7.34258],[126.176727,7.34259],[126.162781,7.34221],[126.150848,7.34108],[126.144798,7.34067],[126.140823,7.34044],[126.139999,7.34233],[126.142174,7.34627],[126.144028,7.35135],[126.14402,7.35358],[126.143433,7.3569],[126.143417,7.35805],[126.150978,7.35916],[126.163971,7.36061],[126.177353,7.36207],[126.190613,7.36405],[126.201134,7.36536],[126.220673,7.36628]]]]}},{"type":"Feature","properties":{"ID_0":177,"ISO":"PHL","NAME_0":"Philippines","ID_1":11082,"NAME_1":"Davao de Oro (Compostela Valley)","ID_2":1108205,"NAME_2":"Maragusan (San Mariano)","ID_3":1108205005,"NAME_3":"Tupas","NL_NAME_3":null,"VARNAME_3":null,"TYPE_3":"Barangay","ENGTYPE_3":"Village","PROVINCE":"Davao de Oro (Compostela Valley)","REGION":"Region XI (Davao Region)","id":"barangay-1108205005","name":"Tupas","barangayCode":"1108205005","population":null,"formattedPop":null,"densityCategory":"No data","vulnerabilityRating":"No data","healthRiskLevel":"No data","areaKm2":39.600279,"centerLat":7.395917,"centerLng":126.175928,"geometrySource":"barangays.geojson simplified fallback","geometryMatchMethod":"simplified_fallback","boundaryPointCount":6},"geometry":{"type":"Polygon","coordinates":[[[126.16527557600011,7.427075928000022],[126.22082002900004,7.399019778000024],[126.22182696000004,7.377852339000071],[126.13977489500007,7.374901768000029],[126.1345228560001,7.397324797000067],[126.16527557600011,7.427075928000022]]]}},{"type":"Feature","properties":{"ID_0":177,"ISO":"PHL","NAME_0":"Philippines","ID_1":11082,"NAME_1":"Davao de Oro (Compostela Valley)","ID_2":1108205,"NAME_2":"Maragusan (San Mariano)","ID_3":1108205006,"NAME_3":"Bahi","NL_NAME_3":null,"VARNAME_3":null,"TYPE_3":"Barangay","ENGTYPE_3":"Village","PROVINCE":"Davao de Oro (Compostela Valley)","REGION":"Region XI (Davao Region)","id":"barangay-1108205006","name":"Bahi","barangayCode":"1108205006","population":null,"formattedPop":null,"densityCategory":"No data","vulnerabilityRating":"No data","healthRiskLevel":"No data","areaKm2":51.077569,"centerLat":7.308284,"centerLng":126.259065,"geometrySource":"all_barangay-2.csv detailed WKT","geometryMatchMethod":"psgc_coordinate_bridge","boundaryPointCount":20},"geometry":{"type":"MultiPolygon","coordinates":[[[[126.293671,7.34404],[126.293427,7.33698],[126.29425,7.32349],[126.294403,7.30113],[126.277039,7.29906],[126.250557,7.2958],[126.224533,7.29224],[126.221153,7.31057],[126.221153,7.32046],[126.220657,7.33353],[126.220444,7.3385],[126.220963,7.33957],[126.220558,7.34031],[126.220863,7.34036],[126.22438,7.34112],[126.23024,7.34215],[126.236717,7.34255],[126.25145,7.34346],[126.265648,7.34468],[126.293671,7.34404]]]]}},{"type":"Feature","properties":{"ID_0":177,"ISO":"PHL","NAME_0":"Philippines","ID_1":11082,"NAME_1":"Davao de Oro (Compostela Valley)","ID_2":1108205,"NAME_2":"Maragusan (San Mariano)","ID_3":1108205007,"NAME_3":"Cambagang","NL_NAME_3":null,"VARNAME_3":null,"TYPE_3":"Barangay","ENGTYPE_3":"Village","PROVINCE":"Davao de Oro (Compostela Valley)","REGION":"Region XI (Davao Region)","id":"barangay-1108205007","name":"Cambagang","barangayCode":"1108205007","population":null,"formattedPop":null,"densityCategory":"No data","vulnerabilityRating":"No data","healthRiskLevel":"No data","areaKm2":6.123969,"centerLat":7.373034,"centerLng":126.127486,"geometrySource":"all_barangay-2.csv detailed WKT","geometryMatchMethod":"psgc_coordinate_bridge","boundaryPointCount":18},"geometry":{"type":"MultiPolygon","coordinates":[[[[126.071289,7.3784],[126.135139,7.382],[126.137154,7.37951],[126.138206,7.37384],[126.138649,7.37266],[126.142609,7.37175],[126.14254,7.37118],[126.142632,7.3712],[126.142693,7.36986],[126.144157,7.36533],[126.1446,7.36484],[126.107643,7.36855],[126.103798,7.36954],[126.095543,7.37035],[126.088463,7.37083],[126.079857,7.37213],[126.067787,7.37327],[126.071289,7.3784]]]]}},{"type":"Feature","properties":{"ID_0":177,"ISO":"PHL","NAME_0":"Philippines","ID_1":11082,"NAME_1":"Davao de Oro (Compostela Valley)","ID_2":1108205,"NAME_2":"Maragusan (San Mariano)","ID_3":1108205008,"NAME_3":"Coronobe","NL_NAME_3":null,"VARNAME_3":null,"TYPE_3":"Barangay","ENGTYPE_3":"Village","PROVINCE":"Davao de Oro (Compostela Valley)","REGION":"Region XI (Davao Region)","id":"barangay-1108205008","name":"Coronobe","barangayCode":"1108205008","population":null,"formattedPop":null,"densityCategory":"No data","vulnerabilityRating":"No data","healthRiskLevel":"No data","areaKm2":12.383602,"centerLat":7.317194,"centerLng":126.181005,"geometrySource":"all_barangay-2.csv detailed WKT","geometryMatchMethod":"psgc_coordinate_bridge","boundaryPointCount":15},"geometry":{"type":"MultiPolygon","coordinates":[[[[126.220581,7.34417],[126.220558,7.34031],[126.204033,7.33885],[126.18972,7.33764],[126.175247,7.33683],[126.164108,7.33648],[126.1632,7.33605],[126.140823,7.3392],[126.140823,7.34044],[126.144798,7.34067],[126.150848,7.34108],[126.162781,7.34221],[126.176727,7.34259],[126.190804,7.34258],[126.220581,7.34417]]]]}},{"type":"Feature","properties":{"ID_0":177,"ISO":"PHL","NAME_0":"Philippines","ID_1":11082,"NAME_1":"Davao de Oro (Compostela Valley)","ID_2":1108205,"NAME_2":"Maragusan (San Mariano)","ID_3":1108205009,"NAME_3":"Katipunan","NL_NAME_3":null,"VARNAME_3":null,"TYPE_3":"Barangay","ENGTYPE_3":"Village","PROVINCE":"Davao de Oro (Compostela Valley)","REGION":"Region XI (Davao Region)","id":"barangay-1108205009","name":"Katipunan","barangayCode":"1108205009","population":null,"formattedPop":null,"densityCategory":"No data","vulnerabilityRating":"No data","healthRiskLevel":"No data","areaKm2":12.32152,"centerLat":7.413991,"centerLng":126.135103,"geometrySource":"all_barangay-2.csv detailed WKT","geometryMatchMethod":"psgc_coordinate_bridge","boundaryPointCount":28},"geometry":{"type":"MultiPolygon","coordinates":[[[[126.125771,7.41635],[126.134933,7.41553],[126.154228,7.41097],[126.177513,7.40519],[126.200249,7.3996],[126.21875,7.39723],[126.219063,7.39263],[126.205704,7.39183],[126.189232,7.39151],[126.171608,7.39142],[126.156914,7.39065],[126.146042,7.39036],[126.136597,7.38994],[126.134506,7.39056],[126.12973,7.38986],[126.122543,7.38868],[126.11441,7.38777],[126.113869,7.38799],[126.11644,7.39398],[126.117943,7.39791],[126.118187,7.4022],[126.118431,7.40552],[126.119324,7.40543],[126.123749,7.40569],[126.127892,7.40641],[126.126823,7.40907],[126.125633,7.41308],[126.125771,7.41635]]]]}},{"type":"Feature","properties":{"ID_0":177,"ISO":"PHL","NAME_0":"Philippines","ID_1":11082,"NAME_1":"Davao de Oro (Compostela Valley)","ID_2":1108205,"NAME_2":"Maragusan (San Mariano)","ID_3":1108205010,"NAME_3":"Lahi","NL_NAME_3":null,"VARNAME_3":null,"TYPE_3":"Barangay","ENGTYPE_3":"Village","PROVINCE":"Davao de Oro (Compostela Valley)","REGION":"Region XI (Davao Region)","id":"barangay-1108205010","name":"Lahi","barangayCode":"1108205010","population":null,"formattedPop":null,"densityCategory":"No data","vulnerabilityRating":"No data","healthRiskLevel":"No data","areaKm2":9.241746,"centerLat":7.364638,"centerLng":126.183939,"geometrySource":"all_barangay-2.csv detailed WKT","geometryMatchMethod":"psgc_coordinate_bridge","boundaryPointCount":18},"geometry":{"type":"MultiPolygon","coordinates":[[[[126.220673,7.36628],[126.201134,7.36536],[126.190613,7.36405],[126.177353,7.36207],[126.163971,7.36061],[126.150978,7.35916],[126.143417,7.35805],[126.145027,7.35996],[126.145523,7.36265],[126.1446,7.36484],[126.145462,7.36443],[126.153839,7.36674],[126.162903,7.36768],[126.175713,7.36879],[126.192963,7.37123],[126.220573,7.37384],[126.220871,7.36889],[126.220673,7.36628]]]]}},{"type":"Feature","properties":{"ID_0":177,"ISO":"PHL","NAME_0":"Philippines","ID_1":11082,"NAME_1":"Davao de Oro (Compostela Valley)","ID_2":1108205,"NAME_2":"Maragusan (San Mariano)","ID_3":1108205011,"NAME_3":"Langgawisan","NL_NAME_3":null,"VARNAME_3":null,"TYPE_3":"Barangay","ENGTYPE_3":"Village","PROVINCE":"Davao de Oro (Compostela Valley)","REGION":"Region XI (Davao Region)","id":"barangay-1108205011","name":"Langgawisan","barangayCode":"1108205011","population":null,"formattedPop":null,"densityCategory":"No data","vulnerabilityRating":"No data","healthRiskLevel":"No data","areaKm2":47.032669,"centerLat":7.364388,"centerLng":126.256144,"geometrySource":"all_barangay-2.csv detailed WKT","geometryMatchMethod":"psgc_coordinate_bridge","boundaryPointCount":23},"geometry":{"type":"MultiPolygon","coordinates":[[[[126.21875,7.39723],[126.251617,7.38989],[126.262299,7.38746],[126.289299,7.38181],[126.289719,7.37535],[126.292084,7.3496],[126.293671,7.34404],[126.265648,7.34468],[126.25145,7.34346],[126.236717,7.34255],[126.23024,7.34215],[126.22438,7.34112],[126.220863,7.34036],[126.220558,7.34031],[126.220581,7.34417],[126.220673,7.36628],[126.220871,7.36889],[126.220573,7.37384],[126.219788,7.37606],[126.220016,7.3784],[126.219948,7.38237],[126.219063,7.39263],[126.21875,7.39723]]]]}},{"type":"Feature","properties":{"ID_0":177,"ISO":"PHL","NAME_0":"Philippines","ID_1":11082,"NAME_1":"Davao de Oro (Compostela Valley)","ID_2":1108205,"NAME_2":"Maragusan (San Mariano)","ID_3":1108205012,"NAME_3":"Mabugnao","NL_NAME_3":null,"VARNAME_3":null,"TYPE_3":"Barangay","ENGTYPE_3":"Village","PROVINCE":"Davao de Oro (Compostela Valley)","REGION":"Region XI (Davao Region)","id":"barangay-1108205012","name":"Mabugnao","barangayCode":"1108205012","population":null,"formattedPop":null,"densityCategory":"No data","vulnerabilityRating":"No data","healthRiskLevel":"No data","areaKm2":8.965679,"centerLat":7.315033,"centerLng":126.06334,"geometrySource":"all_barangay-2.csv detailed WKT","geometryMatchMethod":"psgc_coordinate_bridge","boundaryPointCount":9},"geometry":{"type":"MultiPolygon","coordinates":[[[[126.083122,7.3425],[126.083488,7.33607],[126.082787,7.3354],[126.062767,7.33468],[126.041847,7.34011],[126.060493,7.34198],[126.072456,7.34169],[126.082108,7.34237],[126.083122,7.3425]]]]}},{"type":"Feature","properties":{"ID_0":177,"ISO":"PHL","NAME_0":"Philippines","ID_1":11082,"NAME_1":"Davao de Oro (Compostela Valley)","ID_2":1108205,"NAME_2":"Maragusan (San Mariano)","ID_3":1108205013,"NAME_3":"Magcagong","NL_NAME_3":null,"VARNAME_3":null,"TYPE_3":"Barangay","ENGTYPE_3":"Village","PROVINCE":"Davao de Oro (Compostela Valley)","REGION":"Region XI (Davao Region)","id":"barangay-1108205013","name":"Magcagong","barangayCode":"1108205013","population":null,"formattedPop":null,"densityCategory":"No data","vulnerabilityRating":"No data","healthRiskLevel":"No data","areaKm2":20.253262,"centerLat":7.333298,"centerLng":126.072221,"geometrySource":"all_barangay-2.csv detailed WKT","geometryMatchMethod":"psgc_coordinate_bridge","boundaryPointCount":11},"geometry":{"type":"MultiPolygon","coordinates":[[[[126.051933,7.35304],[126.081253,7.35031],[126.092812,7.35059],[126.094017,7.34285],[126.084808,7.34227],[126.083122,7.3425],[126.082108,7.34237],[126.072456,7.34169],[126.060493,7.34198],[126.041847,7.34011],[126.051933,7.35304]]]]}},{"type":"Feature","properties":{"ID_0":177,"ISO":"PHL","NAME_0":"Philippines","ID_1":11082,"NAME_1":"Davao de Oro (Compostela Valley)","ID_2":1108205,"NAME_2":"Maragusan (San Mariano)","ID_3":1108205014,"NAME_3":"Mahayahay","NL_NAME_3":null,"VARNAME_3":null,"TYPE_3":"Barangay","ENGTYPE_3":"Village","PROVINCE":"Davao de Oro (Compostela Valley)","REGION":"Region XI (Davao Region)","id":"barangay-1108205014","name":"Mahayahay","barangayCode":"1108205014","population":null,"formattedPop":null,"densityCategory":"No data","vulnerabilityRating":"No data","healthRiskLevel":"No data","areaKm2":4.25899,"centerLat":7.356007,"centerLng":126.075084,"geometrySource":"all_barangay-2.csv detailed WKT","geometryMatchMethod":"psgc_coordinate_bridge","boundaryPointCount":10},"geometry":{"type":"MultiPolygon","coordinates":[[[[126.099632,7.3564],[126.095131,7.35264],[126.093307,7.35098],[126.092812,7.35059],[126.081253,7.35031],[126.051933,7.35304],[126.059303,7.36222],[126.082062,7.36026],[126.092934,7.35778],[126.099632,7.3564]]]]}},{"type":"Feature","properties":{"ID_0":177,"ISO":"PHL","NAME_0":"Philippines","ID_1":11082,"NAME_1":"Davao de Oro (Compostela Valley)","ID_2":1108205,"NAME_2":"Maragusan (San Mariano)","ID_3":1108205015,"NAME_3":"Mauswagon","NL_NAME_3":null,"VARNAME_3":null,"TYPE_3":"Barangay","ENGTYPE_3":"Village","PROVINCE":"Davao de Oro (Compostela Valley)","REGION":"Region XI (Davao Region)","id":"barangay-1108205015","name":"Mauswagon","barangayCode":"1108205015","population":null,"formattedPop":null,"densityCategory":"No data","vulnerabilityRating":"No data","healthRiskLevel":"No data","areaKm2":6.030622,"centerLat":7.295579,"centerLng":126.124517,"geometrySource":"all_barangay-2.csv detailed WKT","geometryMatchMethod":"psgc_coordinate_bridge","boundaryPointCount":15},"geometry":{"type":"MultiPolygon","coordinates":[[[[126.141586,7.33569],[126.141029,7.3314],[126.14312,7.32823],[126.142769,7.3275],[126.134521,7.32686],[126.122337,7.32615],[126.110191,7.3258],[126.10051,7.32545],[126.098953,7.32662],[126.09449,7.3317],[126.092056,7.33423],[126.102837,7.33474],[126.117737,7.33465],[126.132004,7.33505],[126.141586,7.33569]]]]}},{"type":"Feature","properties":{"ID_0":177,"ISO":"PHL","NAME_0":"Philippines","ID_1":11082,"NAME_1":"Davao de Oro (Compostela Valley)","ID_2":1108205,"NAME_2":"Maragusan (San Mariano)","ID_3":1108205016,"NAME_3":"New Katipunan","NL_NAME_3":null,"VARNAME_3":null,"TYPE_3":"Barangay","ENGTYPE_3":"Village","PROVINCE":"Davao de Oro (Compostela Valley)","REGION":"Region XI (Davao Region)","id":"barangay-1108205016","name":"New Katipunan","barangayCode":"1108205016","population":null,"formattedPop":null,"densityCategory":"No data","vulnerabilityRating":"No data","healthRiskLevel":"No data","areaKm2":14.030771,"centerLat":7.302182,"centerLng":126.075718,"geometrySource":"all_barangay-2.csv detailed WKT","geometryMatchMethod":"psgc_coordinate_bridge","boundaryPointCount":11},"geometry":{"type":"MultiPolygon","coordinates":[[[[126.082787,7.3354],[126.092056,7.33423],[126.09449,7.3317],[126.098953,7.32662],[126.10051,7.32545],[126.087532,7.3237],[126.067688,7.32184],[126.036659,7.32134],[126.041847,7.34011],[126.062767,7.33468],[126.082787,7.3354]]]]}},{"type":"Feature","properties":{"ID_0":177,"ISO":"PHL","NAME_0":"Philippines","ID_1":11082,"NAME_1":"Davao de Oro (Compostela Valley)","ID_2":1108205,"NAME_2":"Maragusan (San Mariano)","ID_3":1108205017,"NAME_3":"New Manay","NL_NAME_3":null,"VARNAME_3":null,"TYPE_3":"Barangay","ENGTYPE_3":"Village","PROVINCE":"Davao de Oro (Compostela Valley)","REGION":"Region XI (Davao Region)","id":"barangay-1108205017","name":"New Manay","barangayCode":"1108205017","population":null,"formattedPop":null,"densityCategory":"No data","vulnerabilityRating":"No data","healthRiskLevel":"No data","areaKm2":3.512499,"centerLat":7.386263,"centerLng":126.122208,"geometrySource":"barangays.geojson simplified fallback","geometryMatchMethod":"simplified_fallback","boundaryPointCount":5},"geometry":{"type":"Polygon","coordinates":[[[126.135829209,7.386209988000076],[126.12515833900011,7.377806118000024],[126.10816756300005,7.389225968000062],[126.11853328300003,7.395690342000023],[126.135829209,7.386209988000076]]]}},{"type":"Feature","properties":{"ID_0":177,"ISO":"PHL","NAME_0":"Philippines","ID_1":11082,"NAME_1":"Davao de Oro (Compostela Valley)","ID_2":1108205,"NAME_2":"Maragusan (San Mariano)","ID_3":1108205018,"NAME_3":"New Panay","NL_NAME_3":null,"VARNAME_3":null,"TYPE_3":"Barangay","ENGTYPE_3":"Village","PROVINCE":"Davao de Oro (Compostela Valley)","REGION":"Region XI (Davao Region)","id":"barangay-1108205018","name":"New Panay","barangayCode":"1108205018","population":null,"formattedPop":null,"densityCategory":"No data","vulnerabilityRating":"No data","healthRiskLevel":"No data","areaKm2":3.462927,"centerLat":7.270961,"centerLng":126.114769,"geometrySource":"all_barangay-2.csv detailed WKT","geometryMatchMethod":"psgc_coordinate_bridge","boundaryPointCount":18},"geometry":{"type":"MultiPolygon","coordinates":[[[[126.142563,7.31807],[126.129097,7.3119],[126.104156,7.30395],[126.087578,7.29788],[126.070648,7.2914],[126.035507,7.28162],[126.035797,7.29022],[126.036667,7.29969],[126.066269,7.3095],[126.080269,7.31428],[126.090797,7.31818],[126.100838,7.31882],[126.120552,7.32057],[126.13517,7.32226],[126.14418,7.32312],[126.144279,7.3223],[126.142761,7.31994],[126.142563,7.31807]]]]}},{"type":"Feature","properties":{"ID_0":177,"ISO":"PHL","NAME_0":"Philippines","ID_1":11082,"NAME_1":"Davao de Oro (Compostela Valley)","ID_2":1108205,"NAME_2":"Maragusan (San Mariano)","ID_3":1108205019,"NAME_3":"Paloc","NL_NAME_3":null,"VARNAME_3":null,"TYPE_3":"Barangay","ENGTYPE_3":"Village","PROVINCE":"Davao de Oro (Compostela Valley)","REGION":"Region XI (Davao Region)","id":"barangay-1108205019","name":"Paloc","barangayCode":"1108205019","population":null,"formattedPop":null,"densityCategory":"No data","vulnerabilityRating":"No data","healthRiskLevel":"No data","areaKm2":11.640238,"centerLat":7.395423,"centerLng":126.093259,"geometrySource":"all_barangay-2.csv detailed WKT","geometryMatchMethod":"psgc_coordinate_bridge","boundaryPointCount":15},"geometry":{"type":"MultiPolygon","coordinates":[[[[126.089813,7.40292],[126.099693,7.40368],[126.10762,7.40448],[126.115051,7.40485],[126.118431,7.40552],[126.118187,7.4022],[126.117943,7.39791],[126.11644,7.39398],[126.113869,7.38799],[126.11441,7.38777],[126.110077,7.38756],[126.098557,7.38731],[126.080887,7.38538],[126.076981,7.38597],[126.089813,7.40292]]]]}},{"type":"Feature","properties":{"ID_0":177,"ISO":"PHL","NAME_0":"Philippines","ID_1":11082,"NAME_1":"Davao de Oro (Compostela Valley)","ID_2":1108205,"NAME_2":"Maragusan (San Mariano)","ID_3":1108205020,"NAME_3":"Pamintaran","NL_NAME_3":null,"VARNAME_3":null,"TYPE_3":"Barangay","ENGTYPE_3":"Village","PROVINCE":"Davao de Oro (Compostela Valley)","REGION":"Region XI (Davao Region)","id":"barangay-1108205020","name":"Pamintaran","barangayCode":"1108205020","population":null,"formattedPop":null,"densityCategory":"No data","vulnerabilityRating":"No data","healthRiskLevel":"No data","areaKm2":9.848032,"centerLat":7.357258,"centerLng":126.124966,"geometrySource":"all_barangay-2.csv detailed WKT","geometryMatchMethod":"psgc_coordinate_bridge","boundaryPointCount":15},"geometry":{"type":"MultiPolygon","coordinates":[[[[126.1446,7.36484],[126.145523,7.36265],[126.145027,7.35996],[126.143417,7.35805],[126.143433,7.3569],[126.14402,7.35358],[126.144028,7.35135],[126.142174,7.34627],[126.139999,7.34233],[126.099632,7.3564],[126.09964,7.35683],[126.102333,7.36016],[126.105003,7.36397],[126.107643,7.36855],[126.1446,7.36484]]]]}},{"type":"Feature","properties":{"ID_0":177,"ISO":"PHL","NAME_0":"Philippines","ID_1":11082,"NAME_1":"Davao de Oro (Compostela Valley)","ID_2":1108205,"NAME_2":"Maragusan (San Mariano)","ID_3":1108205021,"NAME_3":"Parasanon","NL_NAME_3":null,"VARNAME_3":null,"TYPE_3":"Barangay","ENGTYPE_3":"Village","PROVINCE":"Davao de Oro (Compostela Valley)","REGION":"Region XI (Davao Region)","id":"barangay-1108205021","name":"Parasanon","barangayCode":"1108205021","population":null,"formattedPop":null,"densityCategory":"No data","vulnerabilityRating":"No data","healthRiskLevel":"No data","areaKm2":11.323882,"centerLat":7.370509,"centerLng":126.087879,"geometrySource":"all_barangay-2.csv detailed WKT","geometryMatchMethod":"psgc_coordinate_bridge","boundaryPointCount":14},"geometry":{"type":"MultiPolygon","coordinates":[[[[126.107643,7.36855],[126.105003,7.36397],[126.102333,7.36016],[126.09964,7.35683],[126.099632,7.3564],[126.092934,7.35778],[126.082062,7.36026],[126.059303,7.36222],[126.067787,7.37327],[126.079857,7.37213],[126.088463,7.37083],[126.095543,7.37035],[126.103798,7.36954],[126.107643,7.36855]]]]}},{"type":"Feature","properties":{"ID_0":177,"ISO":"PHL","NAME_0":"Philippines","ID_1":11082,"NAME_1":"Davao de Oro (Compostela Valley)","ID_2":1108205,"NAME_2":"Maragusan (San Mariano)","ID_3":1108205022,"NAME_3":"Talian","NL_NAME_3":null,"VARNAME_3":null,"TYPE_3":"Barangay","ENGTYPE_3":"Village","PROVINCE":"Davao de Oro (Compostela Valley)","REGION":"Region XI (Davao Region)","id":"barangay-1108205022","name":"Talian","barangayCode":"1108205022","population":null,"formattedPop":null,"densityCategory":"No data","vulnerabilityRating":"No data","healthRiskLevel":"No data","areaKm2":6.220264,"centerLat":7.371241,"centerLng":126.171843,"geometrySource":"all_barangay-2.csv detailed WKT","geometryMatchMethod":"psgc_coordinate_bridge","boundaryPointCount":16},"geometry":{"type":"MultiPolygon","coordinates":[[[[126.220573,7.37384],[126.192963,7.37123],[126.175713,7.36879],[126.162903,7.36768],[126.153839,7.36674],[126.145462,7.36443],[126.1446,7.36484],[126.144157,7.36533],[126.142693,7.36986],[126.142632,7.3712],[126.147758,7.37252],[126.161034,7.37371],[126.175888,7.37388],[126.194168,7.37473],[126.219788,7.37606],[126.220573,7.37384]]]]}},{"type":"Feature","properties":{"ID_0":177,"ISO":"PHL","NAME_0":"Philippines","ID_1":11082,"NAME_1":"Davao de Oro (Compostela Valley)","ID_2":1108205,"NAME_2":"Maragusan (San Mariano)","ID_3":1108205023,"NAME_3":"Tandik","NL_NAME_3":null,"VARNAME_3":null,"TYPE_3":"Barangay","ENGTYPE_3":"Village","PROVINCE":"Davao de Oro (Compostela Valley)","REGION":"Region XI (Davao Region)","id":"barangay-1108205023","name":"Tandik","barangayCode":"1108205023","population":null,"formattedPop":null,"densityCategory":"No data","vulnerabilityRating":"No data","healthRiskLevel":"No data","areaKm2":11.218295,"centerLat":7.416454,"centerLng":126.096702,"geometrySource":"all_barangay-2.csv detailed WKT","geometryMatchMethod":"psgc_coordinate_bridge","boundaryPointCount":15},"geometry":{"type":"MultiPolygon","coordinates":[[[[126.125771,7.41635],[126.125633,7.41308],[126.126823,7.40907],[126.127892,7.40641],[126.123749,7.40569],[126.119324,7.40543],[126.118431,7.40552],[126.115051,7.40485],[126.10762,7.40448],[126.099693,7.40368],[126.089813,7.40292],[126.10183,7.42348],[126.104553,7.4217],[126.11692,7.41676],[126.125771,7.41635]]]]}},{"type":"Feature","properties":{"ID_0":177,"ISO":"PHL","NAME_0":"Philippines","ID_1":11082,"NAME_1":"Davao de Oro (Compostela Valley)","ID_2":1108205,"NAME_2":"Maragusan (San Mariano)","ID_3":1108205024,"NAME_3":"Tigbao","NL_NAME_3":null,"VARNAME_3":null,"TYPE_3":"Barangay","ENGTYPE_3":"Village","PROVINCE":"Davao de Oro (Compostela Valley)","REGION":"Region XI (Davao Region)","id":"barangay-1108205024","name":"Tigbao","barangayCode":"1108205024","population":null,"formattedPop":null,"densityCategory":"No data","vulnerabilityRating":"No data","healthRiskLevel":"No data","areaKm2":5.011679,"centerLat":7.269485,"centerLng":126.128991,"geometrySource":"all_barangay-2.csv detailed WKT","geometryMatchMethod":"psgc_coordinate_bridge","boundaryPointCount":17},"geometry":{"type":"MultiPolygon","coordinates":[[[[126.135971,7.28258],[126.121307,7.28116],[126.106331,7.27955],[126.084717,7.27705],[126.068771,7.27512],[126.036537,7.27109],[126.03643,7.27711],[126.035507,7.28162],[126.070648,7.2914],[126.087578,7.29788],[126.104156,7.30395],[126.129097,7.3119],[126.142563,7.31807],[126.136887,7.29958],[126.136742,7.29044],[126.135078,7.28325],[126.135971,7.28258]]]]}}]}
