{"type":"FeatureCollection","features":[{"type":"Feature","properties":{"ID_0":177,"ISO":"PHL","NAME_0":"Philippines","ID_1":5062,"NAME_1":"Sorsogon","ID_2":506208,"NAME_2":"Gubat","ID_3":506208001,"NAME_3":"Ariman","NL_NAME_3":null,"VARNAME_3":null,"TYPE_3":"Barangay","ENGTYPE_3":"Village","PROVINCE":"Sorsogon","REGION":"Region V (Bicol Region)","id":"barangay-0506208001","name":"Ariman","barangayCode":"0506208001","population":null,"formattedPop":null,"densityCategory":"No data","vulnerabilityRating":"No data","healthRiskLevel":"No data","areaKm2":1.459337,"centerLat":12.907925,"centerLng":124.111966,"geometrySource":"all_barangay-2.csv detailed WKT","geometryMatchMethod":"unique_official_admin_names","boundaryPointCount":37},"geometry":{"type":"MultiPolygon","coordinates":[[[[124.119423,12.91144],[124.119293,12.91137],[124.118057,12.91124],[124.117081,12.9109],[124.116943,12.91028],[124.116943,12.90972],[124.116943,12.90917],[124.117233,12.90889],[124.117233,12.90806],[124.116943,12.90778],[124.116943,12.9075],[124.1175,12.90694],[124.1175,12.90667],[124.117767,12.90639],[124.11792,12.90566],[124.117241,12.90549],[124.114319,12.90528],[124.112106,12.90417],[124.11084,12.905],[124.108452,12.90731],[124.105949,12.91017],[124.105843,12.91028],[124.106987,12.91081],[124.107674,12.91182],[124.109001,12.9125],[124.110764,12.91305],[124.112877,12.91436],[124.114609,12.91504],[124.11689,12.91509],[124.117287,12.91499],[124.117622,12.91491],[124.118423,12.91368],[124.1194,12.91359],[124.119522,12.91358],[124.120361,12.91351],[124.119873,12.91244],[124.119423,12.91144]]]]}},{"type":"Feature","properties":{"ID_0":177,"ISO":"PHL","NAME_0":"Philippines","ID_1":5062,"NAME_1":"Sorsogon","ID_2":506208,"NAME_2":"Gubat","ID_3":506208002,"NAME_3":"Bagacay","NL_NAME_3":null,"VARNAME_3":null,"TYPE_3":"Barangay","ENGTYPE_3":"Village","PROVINCE":"Sorsogon","REGION":"Region V (Bicol Region)","id":"barangay-0506208002","name":"Bagacay","barangayCode":"0506208002","population":null,"formattedPop":null,"densityCategory":"No data","vulnerabilityRating":"No data","healthRiskLevel":"No data","areaKm2":2.711925,"centerLat":12.986437,"centerLng":124.140966,"geometrySource":"all_barangay-2.csv detailed WKT","geometryMatchMethod":"unique_official_admin_names","boundaryPointCount":60},"geometry":{"type":"MultiPolygon","coordinates":[[[[124.151367,12.99639],[124.151207,12.99593],[124.15097,12.99525],[124.150642,12.99479],[124.150421,12.99426],[124.150269,12.99371],[124.150291,12.99318],[124.150253,12.99296],[124.150063,12.9925],[124.150063,12.99208],[124.149971,12.99165],[124.149986,12.9911],[124.149742,12.99075],[124.149483,12.99044],[124.149246,12.99008],[124.149063,12.98961],[124.148949,12.98907],[124.148911,12.98851],[124.148872,12.988],[124.148773,12.98758],[124.148552,12.98728],[124.148216,12.98708],[124.147781,12.98701],[124.14727,12.98702],[124.146843,12.98679],[124.146561,12.98643],[124.146538,12.986],[124.146599,12.98555],[124.146561,12.9851],[124.146347,12.98467],[124.146042,12.98429],[124.145599,12.98414],[124.145103,12.98398],[124.144577,12.98374],[124.144073,12.98343],[124.143593,12.98299],[124.143188,12.98251],[124.142738,12.98205],[124.142433,12.98125],[124.142174,12.98073],[124.142059,12.9802],[124.142036,12.97973],[124.142227,12.97934],[124.142174,12.97885],[124.142021,12.97837],[124.141937,12.97787],[124.14183,12.97738],[124.13414,12.98001],[124.134666,12.98286],[124.137108,12.98982],[124.139008,12.99376],[124.140892,12.99982],[124.142487,13.00551],[124.143158,13.00398],[124.14473,13.00168],[124.146149,12.99962],[124.147247,12.9985],[124.148582,12.9977],[124.149841,12.99709],[124.151367,12.99639]]]]}},{"type":"Feature","properties":{"ID_0":177,"ISO":"PHL","NAME_0":"Philippines","ID_1":5062,"NAME_1":"Sorsogon","ID_2":506208,"NAME_2":"Gubat","ID_3":506208003,"NAME_3":"Balud Del Norte","NL_NAME_3":null,"VARNAME_3":null,"TYPE_3":"Barangay","ENGTYPE_3":"Village","PROVINCE":"Sorsogon","REGION":"Region V (Bicol Region)","id":"barangay-0506208003","name":"Balud Del Norte","barangayCode":"0506208003","population":null,"formattedPop":null,"densityCategory":"No data","vulnerabilityRating":"No data","healthRiskLevel":"No data","areaKm2":0.06822,"centerLat":12.924512,"centerLng":124.124306,"geometrySource":"all_barangay-2.csv detailed WKT","geometryMatchMethod":"unique_official_admin_names","boundaryPointCount":16},"geometry":{"type":"MultiPolygon","coordinates":[[[[124.122757,12.92893],[124.123734,12.92894],[124.125587,12.92961],[124.126213,12.92981],[124.126823,12.92958],[124.127419,12.92881],[124.126663,12.92806],[124.126663,12.92778],[124.126389,12.9275],[124.126663,12.92722],[124.125832,12.92639],[124.125832,12.9258],[124.125481,12.92583],[124.124031,12.92592],[124.122322,12.92596],[124.122757,12.92893]]]]}},{"type":"Feature","properties":{"ID_0":177,"ISO":"PHL","NAME_0":"Philippines","ID_1":5062,"NAME_1":"Sorsogon","ID_2":506208,"NAME_2":"Gubat","ID_3":506208004,"NAME_3":"Balud Del Sur","NL_NAME_3":null,"VARNAME_3":null,"TYPE_3":"Barangay","ENGTYPE_3":"Village","PROVINCE":"Sorsogon","REGION":"Region V (Bicol Region)","id":"barangay-0506208004","name":"Balud Del Sur","barangayCode":"0506208004","population":null,"formattedPop":null,"densityCategory":"No data","vulnerabilityRating":"No data","healthRiskLevel":"No data","areaKm2":0.064757,"centerLat":12.921811,"centerLng":124.124983,"geometrySource":"all_barangay-2.csv detailed WKT","geometryMatchMethod":"unique_official_admin_names","boundaryPointCount":8},"geometry":{"type":"MultiPolygon","coordinates":[[[[124.122513,12.92359],[124.125832,12.92361],[124.125969,12.92347],[124.126038,12.92306],[124.125832,12.9225],[124.125832,12.92212],[124.122337,12.92156],[124.122513,12.92359]]]]}},{"type":"Feature","properties":{"ID_0":177,"ISO":"PHL","NAME_0":"Philippines","ID_1":5062,"NAME_1":"Sorsogon","ID_2":506208,"NAME_2":"Gubat","ID_3":506208006,"NAME_3":"Benguet","NL_NAME_3":null,"VARNAME_3":null,"TYPE_3":"Barangay","ENGTYPE_3":"Village","PROVINCE":"Sorsogon","REGION":"Region V (Bicol Region)","id":"barangay-0506208006","name":"Benguet","barangayCode":"0506208006","population":null,"formattedPop":null,"densityCategory":"No data","vulnerabilityRating":"No data","healthRiskLevel":"No data","areaKm2":2.112529,"centerLat":12.878632,"centerLng":124.115284,"geometrySource":"all_barangay-2.csv detailed WKT","geometryMatchMethod":"unique_official_admin_names","boundaryPointCount":22},"geometry":{"type":"MultiPolygon","coordinates":[[[[124.123596,12.88645],[124.124397,12.88516],[124.124443,12.88361],[124.122429,12.88052],[124.119957,12.88003],[124.119049,12.87982],[124.117523,12.87925],[124.116501,12.87887],[124.114838,12.87857],[124.113358,12.87789],[124.11158,12.8769],[124.109993,12.87613],[124.109482,12.87827],[124.110153,12.88045],[124.110771,12.88177],[124.110573,12.88192],[124.112984,12.8853],[124.113274,12.88668],[124.114342,12.88651],[124.116577,12.88657],[124.119453,12.8867],[124.123596,12.88645]]]]}},{"type":"Feature","properties":{"ID_0":177,"ISO":"PHL","NAME_0":"Philippines","ID_1":5062,"NAME_1":"Sorsogon","ID_2":506208,"NAME_2":"Gubat","ID_3":506208007,"NAME_3":"Bentuco","NL_NAME_3":null,"VARNAME_3":null,"TYPE_3":"Barangay","ENGTYPE_3":"Village","PROVINCE":"Sorsogon","REGION":"Region V (Bicol Region)","id":"barangay-0506208007","name":"Bentuco","barangayCode":"0506208007","population":null,"formattedPop":null,"densityCategory":"No data","vulnerabilityRating":"No data","healthRiskLevel":"No data","areaKm2":4.364747,"centerLat":12.855873,"centerLng":124.076564,"geometrySource":"all_barangay-2.csv detailed WKT","geometryMatchMethod":"unique_official_admin_names","boundaryPointCount":28},"geometry":{"type":"MultiPolygon","coordinates":[[[[124.075638,12.87179],[124.075974,12.87124],[124.077538,12.87069],[124.080429,12.86948],[124.085709,12.86683],[124.090263,12.8647],[124.088043,12.86012],[124.086578,12.85471],[124.085548,12.85057],[124.085136,12.8492],[124.084282,12.84588],[124.083832,12.84326],[124.083389,12.83901],[124.081642,12.83979],[124.078903,12.84153],[124.075813,12.84293],[124.071861,12.84668],[124.067131,12.84971],[124.067322,12.85241],[124.067657,12.85483],[124.068024,12.85791],[124.068916,12.86063],[124.068993,12.86259],[124.069077,12.86565],[124.069801,12.86844],[124.070198,12.87171],[124.070442,12.87372],[124.075638,12.87179]]]]}},{"type":"Feature","properties":{"ID_0":177,"ISO":"PHL","NAME_0":"Philippines","ID_1":5062,"NAME_1":"Sorsogon","ID_2":506208,"NAME_2":"Gubat","ID_3":506208008,"NAME_3":"Beriran","NL_NAME_3":null,"VARNAME_3":null,"TYPE_3":"Barangay","ENGTYPE_3":"Village","PROVINCE":"Sorsogon","REGION":"Region V (Bicol Region)","id":"barangay-0506208008","name":"Beriran","barangayCode":"0506208008","population":null,"formattedPop":null,"densityCategory":"No data","vulnerabilityRating":"No data","healthRiskLevel":"No data","areaKm2":1.590915,"centerLat":12.927438,"centerLng":124.111828,"geometrySource":"all_barangay-2.csv detailed WKT","geometryMatchMethod":"unique_official_admin_names","boundaryPointCount":20},"geometry":{"type":"MultiPolygon","coordinates":[[[[124.121498,12.9291],[124.121567,12.92869],[124.121483,12.92829],[124.119209,12.92606],[124.11824,12.92522],[124.116707,12.92307],[124.114891,12.92303],[124.110237,12.92377],[124.103996,12.92506],[124.105659,12.92812],[124.106232,12.92842],[124.106972,12.92958],[124.108437,12.93081],[124.110809,12.93371],[124.111763,12.93448],[124.114143,12.93481],[124.116447,12.93361],[124.11837,12.93249],[124.119438,12.9313],[124.121498,12.9291]]]]}},{"type":"Feature","properties":{"ID_0":177,"ISO":"PHL","NAME_0":"Philippines","ID_1":5062,"NAME_1":"Sorsogon","ID_2":506208,"NAME_2":"Gubat","ID_3":506208009,"NAME_3":"Buenavista","NL_NAME_3":null,"VARNAME_3":null,"TYPE_3":"Barangay","ENGTYPE_3":"Village","PROVINCE":"Sorsogon","REGION":"Region V (Bicol Region)","id":"barangay-0506208009","name":"Buenavista","barangayCode":"0506208009","population":null,"formattedPop":null,"densityCategory":"No data","vulnerabilityRating":"No data","healthRiskLevel":"No data","areaKm2":1.161518,"centerLat":12.89822,"centerLng":124.116669,"geometrySource":"all_barangay-2.csv detailed WKT","geometryMatchMethod":"unique_official_admin_names","boundaryPointCount":15},"geometry":{"type":"MultiPolygon","coordinates":[[[[124.112106,12.90417],[124.114319,12.90528],[124.117241,12.90549],[124.11792,12.90566],[124.118141,12.90451],[124.11898,12.90231],[124.119957,12.89941],[124.122063,12.89707],[124.122292,12.89617],[124.119087,12.89613],[124.117203,12.89597],[124.116623,12.89589],[124.114754,12.89615],[124.114532,12.89577],[124.112106,12.90417]]]]}},{"type":"Feature","properties":{"ID_0":177,"ISO":"PHL","NAME_0":"Philippines","ID_1":5062,"NAME_1":"Sorsogon","ID_2":506208,"NAME_2":"Gubat","ID_3":506208010,"NAME_3":"Bulacao","NL_NAME_3":null,"VARNAME_3":null,"TYPE_3":"Barangay","ENGTYPE_3":"Village","PROVINCE":"Sorsogon","REGION":"Region V (Bicol Region)","id":"barangay-0506208010","name":"Bulacao","barangayCode":"0506208010","population":null,"formattedPop":null,"densityCategory":"No data","vulnerabilityRating":"No data","healthRiskLevel":"No data","areaKm2":1.889556,"centerLat":12.884389,"centerLng":124.092479,"geometrySource":"all_barangay-2.csv detailed WKT","geometryMatchMethod":"unique_official_admin_names","boundaryPointCount":24},"geometry":{"type":"MultiPolygon","coordinates":[[[[124.099098,12.89023],[124.098083,12.88689],[124.097847,12.88581],[124.09803,12.88458],[124.097656,12.88366],[124.09655,12.88239],[124.095711,12.88148],[124.094757,12.88033],[124.090683,12.88036],[124.086594,12.88022],[124.08429,12.88111],[124.083702,12.88124],[124.083847,12.88161],[124.084343,12.88408],[124.084846,12.88581],[124.085114,12.88743],[124.08551,12.88952],[124.085823,12.88915],[124.087868,12.88999],[124.091187,12.89101],[124.092758,12.89164],[124.095718,12.89123],[124.097771,12.89083],[124.099098,12.89023]]]]}},{"type":"Feature","properties":{"ID_0":177,"ISO":"PHL","NAME_0":"Philippines","ID_1":5062,"NAME_1":"Sorsogon","ID_2":506208,"NAME_2":"Gubat","ID_3":506208011,"NAME_3":"Cabigaan","NL_NAME_3":null,"VARNAME_3":null,"TYPE_3":"Barangay","ENGTYPE_3":"Village","PROVINCE":"Sorsogon","REGION":"Region V (Bicol Region)","id":"barangay-0506208011","name":"Cabigaan","barangayCode":"0506208011","population":null,"formattedPop":null,"densityCategory":"No data","vulnerabilityRating":"No data","healthRiskLevel":"No data","areaKm2":1.356716,"centerLat":12.894074,"centerLng":124.090745,"geometrySource":"all_barangay-2.csv detailed WKT","geometryMatchMethod":"unique_official_admin_names","boundaryPointCount":23},"geometry":{"type":"MultiPolygon","coordinates":[[[[124.100441,12.89616],[124.099907,12.89159],[124.099098,12.89023],[124.097771,12.89083],[124.095718,12.89123],[124.092758,12.89164],[124.091187,12.89101],[124.087868,12.88999],[124.085823,12.88915],[124.08551,12.88952],[124.085739,12.89131],[124.085518,12.8942],[124.085449,12.89676],[124.08519,12.89926],[124.084846,12.90161],[124.084396,12.90457],[124.084106,12.90533],[124.088913,12.90297],[124.092087,12.90085],[124.094856,12.89935],[124.097733,12.898],[124.10025,12.89611],[124.100441,12.89616]]]]}},{"type":"Feature","properties":{"ID_0":177,"ISO":"PHL","NAME_0":"Philippines","ID_1":5062,"NAME_1":"Sorsogon","ID_2":506208,"NAME_2":"Gubat","ID_3":506208012,"NAME_3":"Cabiguhan","NL_NAME_3":null,"VARNAME_3":null,"TYPE_3":"Barangay","ENGTYPE_3":"Village","PROVINCE":"Sorsogon","REGION":"Region V (Bicol Region)","id":"barangay-0506208012","name":"Cabiguhan","barangayCode":"0506208012","population":null,"formattedPop":null,"densityCategory":"No data","vulnerabilityRating":"No data","healthRiskLevel":"No data","areaKm2":4.024734,"centerLat":12.950458,"centerLng":124.075318,"geometrySource":"all_barangay-2.csv detailed WKT","geometryMatchMethod":"unique_official_admin_names","boundaryPointCount":16},"geometry":{"type":"MultiPolygon","coordinates":[[[[124.09214,12.94924],[124.092278,12.94916],[124.091507,12.94665],[124.089607,12.94368],[124.087601,12.94093],[124.086601,12.93889],[124.086166,12.93827],[124.08551,12.93783],[124.084862,12.93673],[124.083473,12.93632],[124.078491,12.93651],[124.080963,12.94513],[124.083191,12.95072],[124.087791,12.94921],[124.091209,12.94892],[124.09214,12.94924]]]]}},{"type":"Feature","properties":{"ID_0":177,"ISO":"PHL","NAME_0":"Philippines","ID_1":5062,"NAME_1":"Sorsogon","ID_2":506208,"NAME_2":"Gubat","ID_3":506208013,"NAME_3":"Carriedo","NL_NAME_3":null,"VARNAME_3":null,"TYPE_3":"Barangay","ENGTYPE_3":"Village","PROVINCE":"Sorsogon","REGION":"Region V (Bicol Region)","id":"barangay-0506208013","name":"Carriedo","barangayCode":"0506208013","population":null,"formattedPop":null,"densityCategory":"No data","vulnerabilityRating":"No data","healthRiskLevel":"No data","areaKm2":3.563593,"centerLat":12.936828,"centerLng":124.101966,"geometrySource":"all_barangay-2.csv detailed WKT","geometryMatchMethod":"unique_official_admin_names","boundaryPointCount":20},"geometry":{"type":"MultiPolygon","coordinates":[[[[124.104141,12.95106],[124.108917,12.95178],[124.108757,12.95066],[124.109367,12.94785],[124.110123,12.94433],[124.110779,12.94259],[124.111229,12.94017],[124.111572,12.93832],[124.112129,12.93598],[124.111763,12.93448],[124.110809,12.93371],[124.108437,12.93081],[124.106972,12.92958],[124.106232,12.92842],[124.105087,12.92961],[124.101624,12.93352],[124.098427,12.93685],[124.099411,12.93932],[124.100952,12.94319],[124.104141,12.95106]]]]}},{"type":"Feature","properties":{"ID_0":177,"ISO":"PHL","NAME_0":"Philippines","ID_1":5062,"NAME_1":"Sorsogon","ID_2":506208,"NAME_2":"Gubat","ID_3":506208014,"NAME_3":"Casili","NL_NAME_3":null,"VARNAME_3":null,"TYPE_3":"Barangay","ENGTYPE_3":"Village","PROVINCE":"Sorsogon","REGION":"Region V (Bicol Region)","id":"barangay-0506208014","name":"Casili","barangayCode":"0506208014","population":null,"formattedPop":null,"densityCategory":"No data","vulnerabilityRating":"No data","healthRiskLevel":"No data","areaKm2":3.016195,"centerLat":12.927913,"centerLng":124.083238,"geometrySource":"all_barangay-2.csv detailed WKT","geometryMatchMethod":"unique_official_admin_names","boundaryPointCount":22},"geometry":{"type":"MultiPolygon","coordinates":[[[[124.086601,12.93889],[124.091263,12.93798],[124.095047,12.93686],[124.096703,12.9363],[124.098427,12.93685],[124.101624,12.93352],[124.105087,12.92961],[124.106232,12.92842],[124.105659,12.92812],[124.103996,12.92506],[124.101959,12.92537],[124.097702,12.92631],[124.091003,12.92722],[124.083618,12.9291],[124.076912,12.93061],[124.077698,12.93351],[124.078491,12.93651],[124.083473,12.93632],[124.084862,12.93673],[124.08551,12.93783],[124.086166,12.93827],[124.086601,12.93889]]]]}},{"type":"Feature","properties":{"ID_0":177,"ISO":"PHL","NAME_0":"Philippines","ID_1":5062,"NAME_1":"Sorsogon","ID_2":506208,"NAME_2":"Gubat","ID_3":506208015,"NAME_3":"Cogon","NL_NAME_3":null,"VARNAME_3":null,"TYPE_3":"Barangay","ENGTYPE_3":"Village","PROVINCE":"Sorsogon","REGION":"Region V (Bicol Region)","id":"barangay-0506208015","name":"Cogon","barangayCode":"0506208015","population":null,"formattedPop":null,"densityCategory":"No data","vulnerabilityRating":"No data","healthRiskLevel":"No data","areaKm2":1.854865,"centerLat":12.935089,"centerLng":124.125983,"geometrySource":"all_barangay-2.csv detailed WKT","geometryMatchMethod":"unique_official_admin_names","boundaryPointCount":50},"geometry":{"type":"MultiPolygon","coordinates":[[[[124.127083,12.9444],[124.128731,12.94363],[124.129387,12.94303],[124.128952,12.94184],[124.130234,12.94102],[124.130692,12.93998],[124.130966,12.93867],[124.131287,12.93774],[124.133476,12.93629],[124.133499,12.93584],[124.133408,12.93562],[124.133537,12.93486],[124.133553,12.93482],[124.13356,12.93475],[124.133614,12.93444],[124.133682,12.9343],[124.133888,12.93389],[124.133888,12.93368],[124.133888,12.93333],[124.133888,12.9325],[124.133888,12.93222],[124.133888,12.93195],[124.133888,12.93111],[124.133759,12.93098],[124.133614,12.93083],[124.133614,12.93056],[124.133057,12.93],[124.131393,12.93],[124.131111,12.92972],[124.129723,12.92972],[124.129448,12.92944],[124.128899,12.92944],[124.128609,12.92944],[124.127777,12.92861],[124.127502,12.92889],[124.127419,12.92881],[124.126823,12.92958],[124.126213,12.92981],[124.125587,12.92961],[124.123734,12.92894],[124.122757,12.92893],[124.121498,12.9291],[124.121742,12.93063],[124.122131,12.93297],[124.123169,12.93593],[124.124283,12.93804],[124.12561,12.94116],[124.125969,12.94193],[124.127243,12.94384],[124.127083,12.9444]]]]}},{"type":"Feature","properties":{"ID_0":177,"ISO":"PHL","NAME_0":"Philippines","ID_1":5062,"NAME_1":"Sorsogon","ID_2":506208,"NAME_2":"Gubat","ID_3":506208016,"NAME_3":"Cota Na Daco","NL_NAME_3":null,"VARNAME_3":null,"TYPE_3":"Barangay","ENGTYPE_3":"Village","PROVINCE":"Sorsogon","REGION":"Region V (Bicol Region)","id":"barangay-0506208016","name":"Cota Na Daco","barangayCode":"0506208016","population":null,"formattedPop":null,"densityCategory":"No data","vulnerabilityRating":"No data","healthRiskLevel":"No data","areaKm2":0.288868,"centerLat":12.926816,"centerLng":124.122158,"geometrySource":"all_barangay-2.csv detailed WKT","geometryMatchMethod":"unique_official_admin_names","boundaryPointCount":11},"geometry":{"type":"MultiPolygon","coordinates":[[[[124.121498,12.9291],[124.122757,12.92893],[124.122322,12.92596],[124.122414,12.92554],[124.121109,12.92548],[124.121117,12.92501],[124.11824,12.92522],[124.119209,12.92606],[124.121483,12.92829],[124.121567,12.92869],[124.121498,12.9291]]]]}},{"type":"Feature","properties":{"ID_0":177,"ISO":"PHL","NAME_0":"Philippines","ID_1":5062,"NAME_1":"Sorsogon","ID_2":506208,"NAME_2":"Gubat","ID_3":506208017,"NAME_3":"Dita","NL_NAME_3":null,"VARNAME_3":null,"TYPE_3":"Barangay","ENGTYPE_3":"Village","PROVINCE":"Sorsogon","REGION":"Region V (Bicol Region)","id":"barangay-0506208017","name":"Dita","barangayCode":"0506208017","population":null,"formattedPop":null,"densityCategory":"No data","vulnerabilityRating":"No data","healthRiskLevel":"No data","areaKm2":2.994137,"centerLat":12.958223,"centerLng":124.08698,"geometrySource":"all_barangay-2.csv detailed WKT","geometryMatchMethod":"unique_official_admin_names","boundaryPointCount":27},"geometry":{"type":"MultiPolygon","coordinates":[[[[124.096626,12.97659],[124.09935,12.97528],[124.100113,12.97405],[124.100281,12.97264],[124.09964,12.97084],[124.100349,12.96997],[124.100227,12.96891],[124.101013,12.96829],[124.100868,12.96794],[124.098961,12.96581],[124.09684,12.96281],[124.094757,12.95987],[124.093964,12.95674],[124.093193,12.9543],[124.092331,12.95141],[124.09214,12.94924],[124.091209,12.94892],[124.087791,12.94921],[124.083191,12.95072],[124.083893,12.95244],[124.08532,12.95755],[124.087227,12.96268],[124.088951,12.96599],[124.090439,12.96896],[124.093262,12.97289],[124.095016,12.97479],[124.096626,12.97659]]]]}},{"type":"Feature","properties":{"ID_0":177,"ISO":"PHL","NAME_0":"Philippines","ID_1":5062,"NAME_1":"Sorsogon","ID_2":506208,"NAME_2":"Gubat","ID_3":506208018,"NAME_3":"Jupi","NL_NAME_3":null,"VARNAME_3":null,"TYPE_3":"Barangay","ENGTYPE_3":"Village","PROVINCE":"Sorsogon","REGION":"Region V (Bicol Region)","id":"barangay-0506208018","name":"Jupi","barangayCode":"0506208018","population":null,"formattedPop":null,"densityCategory":"No data","vulnerabilityRating":"No data","healthRiskLevel":"No data","areaKm2":1.646101,"centerLat":12.956287,"centerLng":124.09917,"geometrySource":"all_barangay-2.csv detailed WKT","geometryMatchMethod":"unique_official_admin_names","boundaryPointCount":28},"geometry":{"type":"MultiPolygon","coordinates":[[[[124.10836,12.95759],[124.109016,12.95591],[124.109306,12.95409],[124.109444,12.95362],[124.109497,12.9528],[124.108917,12.95178],[124.104141,12.95106],[124.099937,12.95049],[124.095581,12.94992],[124.093536,12.94948],[124.092278,12.94916],[124.09214,12.94924],[124.092331,12.95141],[124.093193,12.9543],[124.093964,12.95674],[124.094757,12.95987],[124.09684,12.96281],[124.098961,12.96581],[124.100868,12.96794],[124.101013,12.96829],[124.102547,12.96692],[124.103188,12.96567],[124.103409,12.96375],[124.104141,12.96181],[124.105583,12.96068],[124.106911,12.95953],[124.107674,12.95874],[124.10836,12.95759]]]]}},{"type":"Feature","properties":{"ID_0":177,"ISO":"PHL","NAME_0":"Philippines","ID_1":5062,"NAME_1":"Sorsogon","ID_2":506208,"NAME_2":"Gubat","ID_3":506208019,"NAME_3":"Lapinig","NL_NAME_3":null,"VARNAME_3":null,"TYPE_3":"Barangay","ENGTYPE_3":"Village","PROVINCE":"Sorsogon","REGION":"Region V (Bicol Region)","id":"barangay-0506208019","name":"Lapinig","barangayCode":"0506208019","population":null,"formattedPop":null,"densityCategory":"No data","vulnerabilityRating":"No data","healthRiskLevel":"No data","areaKm2":2.40119,"centerLat":12.972597,"centerLng":124.097931,"geometrySource":"all_barangay-2.csv detailed WKT","geometryMatchMethod":"unique_official_admin_names","boundaryPointCount":21},"geometry":{"type":"MultiPolygon","coordinates":[[[[124.108978,12.98041],[124.108253,12.97697],[124.107491,12.9756],[124.107201,12.97395],[124.105507,12.97273],[124.10537,12.97144],[124.104118,12.97078],[124.102737,12.97045],[124.101379,12.96879],[124.101013,12.96829],[124.100227,12.96891],[124.100349,12.96997],[124.09964,12.97084],[124.100281,12.97264],[124.100113,12.97405],[124.09935,12.97528],[124.096626,12.97659],[124.100372,12.98073],[124.103432,12.9839],[124.105278,12.98232],[124.108978,12.98041]]]]}},{"type":"Feature","properties":{"ID_0":177,"ISO":"PHL","NAME_0":"Philippines","ID_1":5062,"NAME_1":"Sorsogon","ID_2":506208,"NAME_2":"Gubat","ID_3":506208020,"NAME_3":"Luna-Candol","NL_NAME_3":null,"VARNAME_3":null,"TYPE_3":"Barangay","ENGTYPE_3":"Village","PROVINCE":"Sorsogon","REGION":"Region V (Bicol Region)","id":"barangay-0506208020","name":"Luna-Candol","barangayCode":"0506208020","population":null,"formattedPop":null,"densityCategory":"No data","vulnerabilityRating":"No data","healthRiskLevel":"No data","areaKm2":0.315219,"centerLat":12.920345,"centerLng":124.120121,"geometrySource":"all_barangay-2.csv detailed WKT","geometryMatchMethod":"unique_official_admin_names","boundaryPointCount":8},"geometry":{"type":"MultiPolygon","coordinates":[[[[124.116707,12.92307],[124.120567,12.92348],[124.122513,12.92359],[124.122337,12.92156],[124.120018,12.9212],[124.117737,12.92106],[124.116898,12.92141],[124.116707,12.92307]]]]}},{"type":"Feature","properties":{"ID_0":177,"ISO":"PHL","NAME_0":"Philippines","ID_1":5062,"NAME_1":"Sorsogon","ID_2":506208,"NAME_2":"Gubat","ID_3":506208021,"NAME_3":"Manapao","NL_NAME_3":null,"VARNAME_3":null,"TYPE_3":"Barangay","ENGTYPE_3":"Village","PROVINCE":"Sorsogon","REGION":"Region V (Bicol Region)","id":"barangay-0506208021","name":"Manapao","barangayCode":"0506208021","population":null,"formattedPop":null,"densityCategory":"No data","vulnerabilityRating":"No data","healthRiskLevel":"No data","areaKm2":3.864952,"centerLat":12.915641,"centerLng":124.084888,"geometrySource":"all_barangay-2.csv detailed WKT","geometryMatchMethod":"unique_official_admin_names","boundaryPointCount":18},"geometry":{"type":"MultiPolygon","coordinates":[[[[124.103996,12.92506],[124.103683,12.9247],[124.101967,12.92142],[124.099487,12.9179],[124.097382,12.91465],[124.095703,12.91556],[124.093987,12.91668],[124.091927,12.91642],[124.088943,12.91694],[124.08287,12.91788],[124.074364,12.91867],[124.075287,12.92377],[124.076912,12.93061],[124.083618,12.9291],[124.091003,12.92722],[124.097702,12.92631],[124.101959,12.92537],[124.103996,12.92506]]]]}},{"type":"Feature","properties":{"ID_0":177,"ISO":"PHL","NAME_0":"Philippines","ID_1":5062,"NAME_1":"Sorsogon","ID_2":506208,"NAME_2":"Gubat","ID_3":506208022,"NAME_3":"Manook","NL_NAME_3":null,"VARNAME_3":null,"TYPE_3":"Barangay","ENGTYPE_3":"Village","PROVINCE":"Sorsogon","REGION":"Region V (Bicol Region)","id":"barangay-0506208022","name":"Manook","barangayCode":"0506208022","population":null,"formattedPop":null,"densityCategory":"No data","vulnerabilityRating":"No data","healthRiskLevel":"No data","areaKm2":0.194857,"centerLat":12.923424,"centerLng":124.12077,"geometrySource":"all_barangay-2.csv detailed WKT","geometryMatchMethod":"unique_official_admin_names","boundaryPointCount":15},"geometry":{"type":"MultiPolygon","coordinates":[[[[124.125832,12.9258],[124.125832,12.92472],[124.1259,12.92438],[124.125832,12.92361],[124.122513,12.92359],[124.120567,12.92348],[124.116707,12.92307],[124.11824,12.92522],[124.121117,12.92501],[124.121109,12.92548],[124.122414,12.92554],[124.122322,12.92596],[124.124031,12.92592],[124.125481,12.92583],[124.125832,12.9258]]]]}},{"type":"Feature","properties":{"ID_0":177,"ISO":"PHL","NAME_0":"Philippines","ID_1":5062,"NAME_1":"Sorsogon","ID_2":506208,"NAME_2":"Gubat","ID_3":506208023,"NAME_3":"Naagtan","NL_NAME_3":null,"VARNAME_3":null,"TYPE_3":"Barangay","ENGTYPE_3":"Village","PROVINCE":"Sorsogon","REGION":"Region V (Bicol Region)","id":"barangay-0506208023","name":"Naagtan","barangayCode":"0506208023","population":null,"formattedPop":null,"densityCategory":"No data","vulnerabilityRating":"No data","healthRiskLevel":"No data","areaKm2":2.841767,"centerLat":12.870548,"centerLng":124.083782,"geometrySource":"all_barangay-2.csv detailed WKT","geometryMatchMethod":"unique_official_admin_names","boundaryPointCount":22},"geometry":{"type":"MultiPolygon","coordinates":[[[[124.094757,12.88033],[124.096809,12.88022],[124.096771,12.87984],[124.095657,12.87792],[124.093971,12.87548],[124.092178,12.87267],[124.091103,12.87044],[124.089752,12.86752],[124.090263,12.8647],[124.085709,12.86683],[124.080429,12.86948],[124.077538,12.87069],[124.075974,12.87124],[124.075638,12.87179],[124.077827,12.87413],[124.080147,12.87668],[124.082481,12.87991],[124.083702,12.88124],[124.08429,12.88111],[124.086594,12.88022],[124.090683,12.88036],[124.094757,12.88033]]]]}},{"type":"Feature","properties":{"ID_0":177,"ISO":"PHL","NAME_0":"Philippines","ID_1":5062,"NAME_1":"Sorsogon","ID_2":506208,"NAME_2":"Gubat","ID_3":506208024,"NAME_3":"Nato","NL_NAME_3":null,"VARNAME_3":null,"TYPE_3":"Barangay","ENGTYPE_3":"Village","PROVINCE":"Sorsogon","REGION":"Region V (Bicol Region)","id":"barangay-0506208024","name":"Nato","barangayCode":"0506208024","population":null,"formattedPop":null,"densityCategory":"No data","vulnerabilityRating":"No data","healthRiskLevel":"No data","areaKm2":1.319717,"centerLat":12.973231,"centerLng":124.110731,"geometrySource":"all_barangay-2.csv detailed WKT","geometryMatchMethod":"unique_official_admin_names","boundaryPointCount":24},"geometry":{"type":"MultiPolygon","coordinates":[[[[124.121887,12.97951],[124.12075,12.97781],[124.11927,12.97496],[124.118553,12.97368],[124.117783,12.97244],[124.117592,12.97236],[124.115143,12.97143],[124.113487,12.9702],[124.111328,12.96902],[124.109322,12.96898],[124.106499,12.96906],[124.102669,12.9688],[124.101379,12.96879],[124.102737,12.97045],[124.104118,12.97078],[124.10537,12.97144],[124.105507,12.97273],[124.107201,12.97395],[124.107491,12.9756],[124.108253,12.97697],[124.108978,12.98041],[124.111557,12.97976],[124.117577,12.97955],[124.121887,12.97951]]]]}},{"type":"Feature","properties":{"ID_0":177,"ISO":"PHL","NAME_0":"Philippines","ID_1":5062,"NAME_1":"Sorsogon","ID_2":506208,"NAME_2":"Gubat","ID_3":506208025,"NAME_3":"Nazareno","NL_NAME_3":null,"VARNAME_3":null,"TYPE_3":"Barangay","ENGTYPE_3":"Village","PROVINCE":"Sorsogon","REGION":"Region V (Bicol Region)","id":"barangay-0506208025","name":"Nazareno","barangayCode":"0506208025","population":null,"formattedPop":null,"densityCategory":"No data","vulnerabilityRating":"No data","healthRiskLevel":"No data","areaKm2":1.496206,"centerLat":12.877814,"centerLng":124.126659,"geometrySource":"all_barangay-2.csv detailed WKT","geometryMatchMethod":"unique_official_admin_names","boundaryPointCount":24},"geometry":{"type":"MultiPolygon","coordinates":[[[[124.12426,12.88757],[124.125938,12.887],[124.129082,12.88583],[124.133339,12.88441],[124.135857,12.88429],[124.138321,12.88269],[124.141258,12.87884],[124.141327,12.8784],[124.141449,12.87773],[124.141457,12.87762],[124.141418,12.87683],[124.141258,12.87623],[124.141342,12.87573],[124.141357,12.87532],[124.140999,12.8762],[124.138718,12.87722],[124.136482,12.87798],[124.13163,12.87939],[124.126167,12.88052],[124.122429,12.88052],[124.124443,12.88361],[124.124397,12.88516],[124.123596,12.88645],[124.12426,12.88757]]]]}},{"type":"Feature","properties":{"ID_0":177,"ISO":"PHL","NAME_0":"Philippines","ID_1":5062,"NAME_1":"Sorsogon","ID_2":506208,"NAME_2":"Gubat","ID_3":506208026,"NAME_3":"Ogao","NL_NAME_3":null,"VARNAME_3":null,"TYPE_3":"Barangay","ENGTYPE_3":"Village","PROVINCE":"Sorsogon","REGION":"Region V (Bicol Region)","id":"barangay-0506208026","name":"Ogao","barangayCode":"0506208026","population":null,"formattedPop":null,"densityCategory":"No data","vulnerabilityRating":"No data","healthRiskLevel":"No data","areaKm2":4.085929,"centerLat":12.965818,"centerLng":124.132179,"geometrySource":"all_barangay-2.csv detailed WKT","geometryMatchMethod":"unique_official_admin_names","boundaryPointCount":94},"geometry":{"type":"MultiPolygon","coordinates":[[[[124.117783,12.97244],[124.120308,12.97189],[124.12294,12.97143],[124.125732,12.97082],[124.127541,12.97033],[124.129936,12.96949],[124.132042,12.96806],[124.132523,12.96745],[124.133713,12.96773],[124.134781,12.96845],[124.135841,12.96839],[124.136597,12.96846],[124.136787,12.9687],[124.13765,12.96843],[124.137901,12.96828],[124.138832,12.96817],[124.139511,12.96911],[124.140266,12.96998],[124.141174,12.969224],[124.141235,12.969199],[124.141769,12.96898],[124.142342,12.96911],[124.142853,12.96899],[124.143211,12.96907],[124.143509,12.96925],[124.143608,12.96917],[124.144524,12.96979],[124.144722,12.97],[124.145279,12.97056],[124.145279,12.97083],[124.145844,12.97139],[124.146042,12.9716],[124.146744,12.97229],[124.148613,12.9725],[124.14917,12.97194],[124.150002,12.97194],[124.150284,12.97167],[124.150558,12.97167],[124.150833,12.97139],[124.151108,12.97167],[124.151657,12.97167],[124.151993,12.97151],[124.152267,12.97123],[124.15255,12.97093],[124.152802,12.97062],[124.153053,12.97028],[124.15361,12.96972],[124.15361,12.96889],[124.152847,12.96813],[124.152779,12.96806],[124.152779,12.96801],[124.152779,12.96778],[124.15258,12.96778],[124.151947,12.96778],[124.151657,12.9675],[124.151108,12.9675],[124.150833,12.96722],[124.150284,12.96722],[124.149719,12.96667],[124.149582,12.96639],[124.149384,12.96604],[124.14917,12.96583],[124.148888,12.96556],[124.148888,12.96528],[124.148064,12.96444],[124.148064,12.96417],[124.147781,12.96389],[124.147781,12.96361],[124.146942,12.96278],[124.146942,12.96194],[124.146667,12.96167],[124.146667,12.96139],[124.146111,12.96083],[124.146111,12.96028],[124.145844,12.96],[124.145844,12.95972],[124.146111,12.95944],[124.146111,12.95917],[124.146393,12.95889],[124.146393,12.95883],[124.138573,12.95962],[124.135246,12.95998],[124.13311,12.96104],[124.132607,12.96051],[124.129593,12.96133],[124.108612,12.96342],[124.108612,12.96385],[124.109482,12.96617],[124.11084,12.96616],[124.111328,12.96902],[124.113487,12.9702],[124.115143,12.97143],[124.117592,12.97236],[124.117783,12.97244]]]]}},{"type":"Feature","properties":{"ID_0":177,"ISO":"PHL","NAME_0":"Philippines","ID_1":5062,"NAME_1":"Sorsogon","ID_2":506208,"NAME_2":"Gubat","ID_3":506208027,"NAME_3":"Paco","NL_NAME_3":null,"VARNAME_3":null,"TYPE_3":"Barangay","ENGTYPE_3":"Village","PROVINCE":"Sorsogon","REGION":"Region V (Bicol Region)","id":"barangay-0506208027","name":"Paco","barangayCode":"0506208027","population":null,"formattedPop":null,"densityCategory":"No data","vulnerabilityRating":"No data","healthRiskLevel":"No data","areaKm2":6.512495,"centerLat":12.986168,"centerLng":124.129528,"geometrySource":"all_barangay-2.csv detailed WKT","geometryMatchMethod":"unique_official_admin_names","boundaryPointCount":67},"geometry":{"type":"MultiPolygon","coordinates":[[[[124.131233,13.00998],[124.132492,13.01026],[124.13343,13.0101],[124.135643,13.01104],[124.136742,13.0127],[124.137337,13.01343],[124.137993,13.01351],[124.138344,13.01276],[124.138802,13.01099],[124.138809,13.00912],[124.140007,13.00845],[124.14119,13.00745],[124.142273,13.00647],[124.142487,13.00551],[124.140892,12.99982],[124.139008,12.99376],[124.137108,12.98982],[124.134666,12.98286],[124.13414,12.98001],[124.14183,12.97738],[124.141678,12.97699],[124.141541,12.9766],[124.141434,12.97618],[124.141411,12.97574],[124.141457,12.9753],[124.141617,12.97485],[124.141586,12.97439],[124.141403,12.9739],[124.141243,12.97338],[124.141243,12.97282],[124.141197,12.97264],[124.141113,12.9722],[124.14106,12.97156],[124.141243,12.97094],[124.141342,12.97045],[124.141273,12.97007],[124.141174,12.969224],[124.140266,12.96998],[124.139511,12.96911],[124.138832,12.96817],[124.137901,12.96828],[124.13765,12.96843],[124.136787,12.9687],[124.136597,12.96846],[124.135841,12.96839],[124.134781,12.96845],[124.133713,12.96773],[124.132523,12.96745],[124.132042,12.96806],[124.129936,12.96949],[124.127541,12.97033],[124.125732,12.97082],[124.12294,12.97143],[124.120308,12.97189],[124.117783,12.97244],[124.118553,12.97368],[124.11927,12.97496],[124.12075,12.97781],[124.121887,12.97951],[124.122726,12.98023],[124.123543,12.98226],[124.124817,12.98538],[124.125427,12.98935],[124.126457,12.99312],[124.127876,12.99793],[124.129013,13.00174],[124.131233,13.00998]]]]}},{"type":"Feature","properties":{"ID_0":177,"ISO":"PHL","NAME_0":"Philippines","ID_1":5062,"NAME_1":"Sorsogon","ID_2":506208,"NAME_2":"Gubat","ID_3":506208028,"NAME_3":"Panganiban","NL_NAME_3":null,"VARNAME_3":null,"TYPE_3":"Barangay","ENGTYPE_3":"Village","PROVINCE":"Sorsogon","REGION":"Region V (Bicol Region)","id":"barangay-0506208028","name":"Panganiban","barangayCode":"0506208028","population":null,"formattedPop":null,"densityCategory":"No data","vulnerabilityRating":"No data","healthRiskLevel":"No data","areaKm2":0.49405,"centerLat":12.915107,"centerLng":124.124974,"geometrySource":"all_barangay-2.csv detailed WKT","geometryMatchMethod":"unique_official_admin_names","boundaryPointCount":45},"geometry":{"type":"MultiPolygon","coordinates":[[[[124.118431,12.91731],[124.119118,12.91727],[124.119179,12.91726],[124.119759,12.91722],[124.119789,12.91752],[124.119827,12.91793],[124.122437,12.91809],[124.12677,12.91738],[124.127258,12.91716],[124.131592,12.91674],[124.131668,12.91667],[124.131393,12.91639],[124.131393,12.91619],[124.131393,12.91611],[124.13028,12.915],[124.129997,12.915],[124.128052,12.91306],[124.127777,12.91306],[124.127502,12.91278],[124.126106,12.91278],[124.125832,12.9125],[124.125557,12.91278],[124.124443,12.91278],[124.124168,12.91306],[124.123894,12.91306],[124.123611,12.91278],[124.12278,12.91278],[124.122223,12.91222],[124.121674,12.91222],[124.121246,12.91229],[124.120972,12.91236],[124.119423,12.91144],[124.119873,12.91244],[124.120361,12.91351],[124.119522,12.91358],[124.1194,12.91359],[124.118423,12.91368],[124.117622,12.91491],[124.117287,12.91499],[124.11689,12.91509],[124.117188,12.91678],[124.117203,12.91683],[124.117302,12.91742],[124.117752,12.91738],[124.118431,12.91731]]]]}},{"type":"Feature","properties":{"ID_0":177,"ISO":"PHL","NAME_0":"Philippines","ID_1":5062,"NAME_1":"Sorsogon","ID_2":506208,"NAME_2":"Gubat","ID_3":506208029,"NAME_3":"Paradijon","NL_NAME_3":null,"VARNAME_3":null,"TYPE_3":"Barangay","ENGTYPE_3":"Village","PROVINCE":"Sorsogon","REGION":"Region V (Bicol Region)","id":"barangay-0506208029","name":"Paradijon","barangayCode":"0506208029","population":null,"formattedPop":null,"densityCategory":"No data","vulnerabilityRating":"No data","healthRiskLevel":"No data","areaKm2":0.172638,"centerLat":12.917679,"centerLng":124.120944,"geometrySource":"all_barangay-2.csv detailed WKT","geometryMatchMethod":"unique_official_admin_names","boundaryPointCount":9},"geometry":{"type":"MultiPolygon","coordinates":[[[[124.117737,12.92106],[124.118431,12.91731],[124.117752,12.91738],[124.117302,12.91742],[124.11718,12.91803],[124.11702,12.91981],[124.116951,12.92063],[124.116898,12.92141],[124.117737,12.92106]]]]}},{"type":"Feature","properties":{"ID_0":177,"ISO":"PHL","NAME_0":"Philippines","ID_1":5062,"NAME_1":"Sorsogon","ID_2":506208,"NAME_2":"Gubat","ID_3":506208030,"NAME_3":"Patag","NL_NAME_3":null,"VARNAME_3":null,"TYPE_3":"Barangay","ENGTYPE_3":"Village","PROVINCE":"Sorsogon","REGION":"Region V (Bicol Region)","id":"barangay-0506208030","name":"Patag","barangayCode":"0506208030","population":null,"formattedPop":null,"densityCategory":"No data","vulnerabilityRating":"No data","healthRiskLevel":"No data","areaKm2":3.883683,"centerLat":12.99234,"centerLng":124.117955,"geometrySource":"all_barangay-2.csv detailed WKT","geometryMatchMethod":"unique_official_admin_names","boundaryPointCount":29},"geometry":{"type":"MultiPolygon","coordinates":[[[[124.119743,13.0054],[124.121567,13.00572],[124.123016,13.00599],[124.124542,13.00701],[124.127258,13.00866],[124.128723,13.00946],[124.130096,13.00985],[124.131233,13.00998],[124.129013,13.00174],[124.127876,12.99793],[124.126457,12.99312],[124.125427,12.98935],[124.124817,12.98538],[124.123543,12.98226],[124.122726,12.98023],[124.121887,12.97951],[124.117577,12.97955],[124.111557,12.97976],[124.108978,12.98041],[124.105278,12.98232],[124.103432,12.9839],[124.106529,12.98632],[124.109543,12.98911],[124.11264,12.9921],[124.116753,12.99646],[124.11763,12.99805],[124.117973,13.00029],[124.118088,13.00244],[124.119743,13.0054]]]]}},{"type":"Feature","properties":{"ID_0":177,"ISO":"PHL","NAME_0":"Philippines","ID_1":5062,"NAME_1":"Sorsogon","ID_2":506208,"NAME_2":"Gubat","ID_3":506208031,"NAME_3":"Payawin","NL_NAME_3":null,"VARNAME_3":null,"TYPE_3":"Barangay","ENGTYPE_3":"Village","PROVINCE":"Sorsogon","REGION":"Region V (Bicol Region)","id":"barangay-0506208031","name":"Payawin","barangayCode":"0506208031","population":null,"formattedPop":null,"densityCategory":"No data","vulnerabilityRating":"No data","healthRiskLevel":"No data","areaKm2":3.189721,"centerLat":12.940174,"centerLng":124.087283,"geometrySource":"all_barangay-2.csv detailed WKT","geometryMatchMethod":"unique_official_admin_names","boundaryPointCount":16},"geometry":{"type":"MultiPolygon","coordinates":[[[[124.092278,12.94916],[124.093536,12.94948],[124.095581,12.94992],[124.099937,12.95049],[124.104141,12.95106],[124.100952,12.94319],[124.099411,12.93932],[124.098427,12.93685],[124.096703,12.9363],[124.095047,12.93686],[124.091263,12.93798],[124.086601,12.93889],[124.087601,12.94093],[124.089607,12.94368],[124.091507,12.94665],[124.092278,12.94916]]]]}},{"type":"Feature","properties":{"ID_0":177,"ISO":"PHL","NAME_0":"Philippines","ID_1":5062,"NAME_1":"Sorsogon","ID_2":506208,"NAME_2":"Gubat","ID_3":506208033,"NAME_3":"Pinontingan","NL_NAME_3":null,"VARNAME_3":null,"TYPE_3":"Barangay","ENGTYPE_3":"Village","PROVINCE":"Sorsogon","REGION":"Region V (Bicol Region)","id":"barangay-0506208033","name":"Pinontingan","barangayCode":"0506208033","population":null,"formattedPop":null,"densityCategory":"No data","vulnerabilityRating":"No data","healthRiskLevel":"No data","areaKm2":0.16286,"centerLat":12.918275,"centerLng":124.125188,"geometrySource":"all_barangay-2.csv detailed WKT","geometryMatchMethod":"unique_official_admin_names","boundaryPointCount":28},"geometry":{"type":"MultiPolygon","coordinates":[[[[124.125832,12.92212],[124.125832,12.92167],[124.126389,12.92111],[124.126389,12.92083],[124.126663,12.92056],[124.126663,12.92],[124.127777,12.91889],[124.128609,12.91889],[124.129173,12.91833],[124.129448,12.91833],[124.129723,12.91806],[124.129997,12.91806],[124.130547,12.9175],[124.130836,12.9175],[124.131592,12.91674],[124.127258,12.91716],[124.12677,12.91738],[124.122437,12.91809],[124.119827,12.91793],[124.119789,12.91752],[124.119759,12.91722],[124.119179,12.91726],[124.119118,12.91727],[124.118431,12.91731],[124.117737,12.92106],[124.120018,12.9212],[124.122337,12.92156],[124.125832,12.92212]]]]}},{"type":"Feature","properties":{"ID_0":177,"ISO":"PHL","NAME_0":"Philippines","ID_1":5062,"NAME_1":"Sorsogon","ID_2":506208,"NAME_2":"Gubat","ID_3":506208034,"NAME_3":"Rizal","NL_NAME_3":null,"VARNAME_3":null,"TYPE_3":"Barangay","ENGTYPE_3":"Village","PROVINCE":"Sorsogon","REGION":"Region V (Bicol Region)","id":"barangay-0506208034","name":"Rizal","barangayCode":"0506208034","population":null,"formattedPop":null,"densityCategory":"No data","vulnerabilityRating":"No data","healthRiskLevel":"No data","areaKm2":3.749844,"centerLat":12.887293,"centerLng":124.136337,"geometrySource":"all_barangay-2.csv detailed WKT","geometryMatchMethod":"unique_official_admin_names","boundaryPointCount":112},"geometry":{"type":"MultiPolygon","coordinates":[[[[124.12426,12.88757],[124.124321,12.88768],[124.124741,12.88865],[124.124657,12.89087],[124.124382,12.89328],[124.124397,12.89361],[124.124443,12.89361],[124.125,12.89306],[124.125557,12.89306],[124.126106,12.8925],[124.126389,12.8925],[124.126663,12.89278],[124.128052,12.89278],[124.128326,12.8925],[124.128609,12.8925],[124.128891,12.89222],[124.129173,12.89222],[124.129448,12.89195],[124.129723,12.89195],[124.129997,12.89167],[124.131393,12.89132],[124.131943,12.89139],[124.132431,12.89126],[124.133133,12.89146],[124.135277,12.89222],[124.135559,12.8925],[124.135834,12.8925],[124.136108,12.89278],[124.136391,12.89278],[124.136948,12.89306],[124.137497,12.89333],[124.138123,12.89357],[124.138611,12.89362],[124.138962,12.89368],[124.139717,12.89389],[124.140266,12.89444],[124.140266,12.895],[124.140556,12.89528],[124.140556,12.89556],[124.140831,12.89583],[124.140831,12.89639],[124.141113,12.89667],[124.141113,12.89722],[124.141739,12.89785],[124.14238,12.89849],[124.142647,12.89877],[124.142776,12.89889],[124.143059,12.89889],[124.143883,12.89905],[124.144478,12.89888],[124.145012,12.89864],[124.145576,12.8984],[124.145844,12.89826],[124.147217,12.89653],[124.147423,12.89591],[124.14756,12.89548],[124.14769,12.89509],[124.147728,12.89465],[124.147812,12.89425],[124.147926,12.89386],[124.148132,12.89344],[124.148293,12.89297],[124.148354,12.89242],[124.148338,12.89187],[124.148247,12.89135],[124.148087,12.89087],[124.147926,12.8903],[124.147827,12.88962],[124.14785,12.88897],[124.147957,12.88836],[124.148018,12.88776],[124.148407,12.88744],[124.148468,12.88722],[124.148613,12.88639],[124.148537,12.88618],[124.148468,12.88597],[124.148613,12.88556],[124.148613,12.88528],[124.148331,12.885],[124.147987,12.88486],[124.147781,12.88472],[124.147499,12.88444],[124.14743,12.88444],[124.147217,12.88424],[124.146873,12.8843],[124.146667,12.88437],[124.145767,12.88444],[124.145561,12.88472],[124.145073,12.8852],[124.144722,12.88541],[124.144501,12.88555],[124.144157,12.88576],[124.143448,12.88544],[124.143204,12.88503],[124.142723,12.8848],[124.142319,12.88443],[124.142059,12.88395],[124.141823,12.88341],[124.141602,12.88281],[124.141457,12.88224],[124.141411,12.88165],[124.141388,12.88105],[124.141327,12.88042],[124.14122,12.87979],[124.141212,12.87912],[124.141258,12.87884],[124.138321,12.88269],[124.135857,12.88429],[124.133339,12.88441],[124.129082,12.88583],[124.125938,12.887],[124.12426,12.88757]]]]}},{"type":"Feature","properties":{"ID_0":177,"ISO":"PHL","NAME_0":"Philippines","ID_1":5062,"NAME_1":"Sorsogon","ID_2":506208,"NAME_2":"Gubat","ID_3":506208035,"NAME_3":"San Ignacio","NL_NAME_3":null,"VARNAME_3":null,"TYPE_3":"Barangay","ENGTYPE_3":"Village","PROVINCE":"Sorsogon","REGION":"Region V (Bicol Region)","id":"barangay-0506208035","name":"San Ignacio","barangayCode":"0506208035","population":null,"formattedPop":null,"densityCategory":"No data","vulnerabilityRating":"No data","healthRiskLevel":"No data","areaKm2":2.340367,"centerLat":12.940427,"centerLng":124.115144,"geometrySource":"all_barangay-2.csv detailed WKT","geometryMatchMethod":"unique_official_admin_names","boundaryPointCount":47},"geometry":{"type":"MultiPolygon","coordinates":[[[[124.108917,12.95178],[124.109497,12.9528],[124.109657,12.95283],[124.109917,12.95283],[124.110603,12.95238],[124.110977,12.95169],[124.110992,12.9516],[124.110847,12.95058],[124.110657,12.95008],[124.110924,12.94932],[124.111267,12.94835],[124.112061,12.9471],[124.113853,12.94732],[124.115143,12.94724],[124.116348,12.94635],[124.117119,12.94568],[124.118668,12.94498],[124.119377,12.94558],[124.12059,12.94634],[124.121262,12.94507],[124.122177,12.94531],[124.124237,12.94662],[124.124352,12.94637],[124.125214,12.94598],[124.126587,12.94587],[124.127083,12.9444],[124.127243,12.94384],[124.125969,12.94193],[124.12561,12.94116],[124.124283,12.93804],[124.123169,12.93593],[124.122131,12.93297],[124.121742,12.93063],[124.121498,12.9291],[124.119438,12.9313],[124.11837,12.93249],[124.116447,12.93361],[124.114143,12.93481],[124.111763,12.93448],[124.112129,12.93598],[124.111572,12.93832],[124.111229,12.94017],[124.110779,12.94259],[124.110123,12.94433],[124.109367,12.94785],[124.108757,12.95066],[124.108917,12.95178]]]]}},{"type":"Feature","properties":{"ID_0":177,"ISO":"PHL","NAME_0":"Philippines","ID_1":5062,"NAME_1":"Sorsogon","ID_2":506208,"NAME_2":"Gubat","ID_3":506208036,"NAME_3":"Sangat","NL_NAME_3":null,"VARNAME_3":null,"TYPE_3":"Barangay","ENGTYPE_3":"Village","PROVINCE":"Sorsogon","REGION":"Region V (Bicol Region)","id":"barangay-0506208036","name":"Sangat","barangayCode":"0506208036","population":null,"formattedPop":null,"densityCategory":"No data","vulnerabilityRating":"No data","healthRiskLevel":"No data","areaKm2":5.128189,"centerLat":12.889525,"centerLng":124.077647,"geometrySource":"all_barangay-2.csv detailed WKT","geometryMatchMethod":"unique_official_admin_names","boundaryPointCount":44},"geometry":{"type":"MultiPolygon","coordinates":[[[[124.074364,12.91867],[124.08287,12.91788],[124.088943,12.91694],[124.091927,12.91642],[124.092659,12.916],[124.091942,12.91501],[124.091728,12.91459],[124.090858,12.91362],[124.090599,12.91287],[124.089867,12.91225],[124.089493,12.91154],[124.088371,12.91084],[124.086792,12.90925],[124.085007,12.90706],[124.084106,12.90533],[124.084396,12.90457],[124.084846,12.90161],[124.08519,12.89926],[124.085449,12.89676],[124.085518,12.8942],[124.085739,12.89131],[124.08551,12.88952],[124.085114,12.88743],[124.084846,12.88581],[124.084343,12.88408],[124.083847,12.88161],[124.083702,12.88124],[124.082481,12.87991],[124.080147,12.87668],[124.077827,12.87413],[124.075638,12.87179],[124.070442,12.87372],[124.07045,12.87705],[124.070389,12.87961],[124.070381,12.88374],[124.070969,12.89108],[124.071548,12.89536],[124.071716,12.89746],[124.072403,12.9007],[124.07251,12.90714],[124.072487,12.90933],[124.073273,12.91144],[124.073387,12.91457],[124.074364,12.91867]]]]}},{"type":"Feature","properties":{"ID_0":177,"ISO":"PHL","NAME_0":"Philippines","ID_1":5062,"NAME_1":"Sorsogon","ID_2":506208,"NAME_2":"Gubat","ID_3":506208037,"NAME_3":"Santa Ana","NL_NAME_3":null,"VARNAME_3":null,"TYPE_3":"Barangay","ENGTYPE_3":"Village","PROVINCE":"Sorsogon","REGION":"Region V (Bicol Region)","id":"barangay-0506208037","name":"Santa Ana","barangayCode":"0506208037","population":null,"formattedPop":null,"densityCategory":"No data","vulnerabilityRating":"No data","healthRiskLevel":"No data","areaKm2":3.63475,"centerLat":12.91499,"centerLng":124.103761,"geometrySource":"all_barangay-2.csv detailed WKT","geometryMatchMethod":"unique_official_admin_names","boundaryPointCount":27},"geometry":{"type":"MultiPolygon","coordinates":[[[[124.103996,12.92506],[124.110237,12.92377],[124.114891,12.92303],[124.116707,12.92307],[124.116898,12.92141],[124.116951,12.92063],[124.11702,12.91981],[124.11718,12.91803],[124.117302,12.91742],[124.117203,12.91683],[124.117188,12.91678],[124.11689,12.91509],[124.114609,12.91504],[124.112877,12.91436],[124.110764,12.91305],[124.109001,12.9125],[124.107674,12.91182],[124.106987,12.91081],[124.105843,12.91028],[124.104591,12.91033],[124.100288,12.91236],[124.097252,12.91421],[124.097382,12.91465],[124.099487,12.9179],[124.101967,12.92142],[124.103683,12.9247],[124.103996,12.92506]]]]}},{"type":"Feature","properties":{"ID_0":177,"ISO":"PHL","NAME_0":"Philippines","ID_1":5062,"NAME_1":"Sorsogon","ID_2":506208,"NAME_2":"Gubat","ID_3":506208038,"NAME_3":"Tabi","NL_NAME_3":null,"VARNAME_3":null,"TYPE_3":"Barangay","ENGTYPE_3":"Village","PROVINCE":"Sorsogon","REGION":"Region V (Bicol Region)","id":"barangay-0506208038","name":"Tabi","barangayCode":"0506208038","population":null,"formattedPop":null,"densityCategory":"No data","vulnerabilityRating":"No data","healthRiskLevel":"No data","areaKm2":2.781057,"centerLat":12.891302,"centerLng":124.105167,"geometrySource":"all_barangay-2.csv detailed WKT","geometryMatchMethod":"unique_official_admin_names","boundaryPointCount":35},"geometry":{"type":"MultiPolygon","coordinates":[[[[124.112106,12.90417],[124.114532,12.89577],[124.112984,12.8853],[124.110573,12.88192],[124.105087,12.88109],[124.099121,12.88055],[124.096809,12.88022],[124.094757,12.88033],[124.095711,12.88148],[124.09655,12.88239],[124.097656,12.88366],[124.09803,12.88458],[124.097847,12.88581],[124.098083,12.88689],[124.099098,12.89023],[124.099907,12.89159],[124.100441,12.89616],[124.101013,12.897],[124.101089,12.89744],[124.102043,12.89864],[124.102951,12.89939],[124.103157,12.90122],[124.103912,12.9025],[124.104897,12.90311],[124.104584,12.90396],[124.104698,12.90463],[124.105423,12.90529],[124.105827,12.90618],[124.105583,12.90707],[124.105453,12.90852],[124.105507,12.90933],[124.105949,12.91017],[124.108452,12.90731],[124.11084,12.905],[124.112106,12.90417]]]]}},{"type":"Feature","properties":{"ID_0":177,"ISO":"PHL","NAME_0":"Philippines","ID_1":5062,"NAME_1":"Sorsogon","ID_2":506208,"NAME_2":"Gubat","ID_3":506208039,"NAME_3":"Tagaytay","NL_NAME_3":null,"VARNAME_3":null,"TYPE_3":"Barangay","ENGTYPE_3":"Village","PROVINCE":"Sorsogon","REGION":"Region V (Bicol Region)","id":"barangay-0506208039","name":"Tagaytay","barangayCode":"0506208039","population":null,"formattedPop":null,"densityCategory":"No data","vulnerabilityRating":"No data","healthRiskLevel":"No data","areaKm2":2.932105,"centerLat":12.960201,"centerLng":124.109124,"geometrySource":"all_barangay-2.csv detailed WKT","geometryMatchMethod":"unique_official_admin_names","boundaryPointCount":23},"geometry":{"type":"MultiPolygon","coordinates":[[[[124.111328,12.96902],[124.11084,12.96616],[124.109482,12.96617],[124.108612,12.96385],[124.108612,12.96342],[124.10849,12.96163],[124.108978,12.96088],[124.109711,12.95982],[124.109589,12.95823],[124.10836,12.95759],[124.107674,12.95874],[124.106911,12.95953],[124.105583,12.96068],[124.104141,12.96181],[124.103409,12.96375],[124.103188,12.96567],[124.102547,12.96692],[124.101013,12.96829],[124.101379,12.96879],[124.102669,12.9688],[124.106499,12.96906],[124.109322,12.96898],[124.111328,12.96902]]]]}},{"type":"Feature","properties":{"ID_0":177,"ISO":"PHL","NAME_0":"Philippines","ID_1":5062,"NAME_1":"Sorsogon","ID_2":506208,"NAME_2":"Gubat","ID_3":506208040,"NAME_3":"Tigkiw","NL_NAME_3":null,"VARNAME_3":null,"TYPE_3":"Barangay","ENGTYPE_3":"Village","PROVINCE":"Sorsogon","REGION":"Region V (Bicol Region)","id":"barangay-0506208040","name":"Tigkiw","barangayCode":"0506208040","population":null,"formattedPop":null,"densityCategory":"No data","vulnerabilityRating":"No data","healthRiskLevel":"No data","areaKm2":3.027052,"centerLat":12.836787,"centerLng":124.075081,"geometrySource":"all_barangay-2.csv detailed WKT","geometryMatchMethod":"unique_official_admin_names","boundaryPointCount":29},"geometry":{"type":"MultiPolygon","coordinates":[[[[124.067131,12.84971],[124.071861,12.84668],[124.075813,12.84293],[124.078903,12.84153],[124.081642,12.83979],[124.083389,12.83901],[124.083221,12.83793],[124.08313,12.83629],[124.083092,12.83513],[124.082787,12.83438],[124.082657,12.83304],[124.082336,12.83196],[124.080978,12.83034],[124.079247,12.82969],[124.078453,12.82806],[124.077309,12.827],[124.076302,12.82573],[124.076317,12.82412],[124.074944,12.8246],[124.073997,12.82673],[124.072807,12.82834],[124.071747,12.83011],[124.070427,12.83215],[124.068527,12.83661],[124.068222,12.83848],[124.067596,12.8407],[124.067558,12.84255],[124.067253,12.84716],[124.067131,12.84971]]]]}},{"type":"Feature","properties":{"ID_0":177,"ISO":"PHL","NAME_0":"Philippines","ID_1":5062,"NAME_1":"Sorsogon","ID_2":506208,"NAME_2":"Gubat","ID_3":506208041,"NAME_3":"Tiris","NL_NAME_3":null,"VARNAME_3":null,"TYPE_3":"Barangay","ENGTYPE_3":"Village","PROVINCE":"Sorsogon","REGION":"Region V (Bicol Region)","id":"barangay-0506208041","name":"Tiris","barangayCode":"0506208041","population":null,"formattedPop":null,"densityCategory":"No data","vulnerabilityRating":"No data","healthRiskLevel":"No data","areaKm2":7.529376,"centerLat":12.949286,"centerLng":124.131904,"geometrySource":"all_barangay-2.csv detailed WKT","geometryMatchMethod":"unique_official_admin_names","boundaryPointCount":117},"geometry":{"type":"MultiPolygon","coordinates":[[[[124.146393,12.95883],[124.146393,12.95833],[124.146667,12.95806],[124.146667,12.95778],[124.146942,12.9575],[124.146942,12.95722],[124.14743,12.95646],[124.147217,12.95583],[124.147217,12.95472],[124.147133,12.95405],[124.146942,12.95361],[124.146942,12.95306],[124.146667,12.95278],[124.146667,12.9525],[124.145844,12.95167],[124.145844,12.94944],[124.145554,12.94917],[124.145554,12.94861],[124.145279,12.94833],[124.145279,12.94639],[124.144997,12.94611],[124.144997,12.94556],[124.145279,12.94528],[124.145279,12.94417],[124.144722,12.94361],[124.144691,12.94317],[124.144577,12.94279],[124.144447,12.94243],[124.144348,12.94205],[124.144203,12.94166],[124.144089,12.94123],[124.143921,12.94084],[124.143761,12.94044],[124.143593,12.94004],[124.143417,12.93964],[124.143349,12.93918],[124.14328,12.93872],[124.143082,12.93835],[124.142776,12.93806],[124.142776,12.93778],[124.141937,12.93694],[124.141937,12.93684],[124.141937,12.93611],[124.142776,12.93528],[124.142776,12.935],[124.142502,12.93472],[124.142502,12.93389],[124.141937,12.93333],[124.141937,12.93306],[124.140266,12.93201],[124.139442,12.93167],[124.139168,12.93139],[124.138344,12.93139],[124.137779,12.93195],[124.137497,12.93195],[124.137154,12.93202],[124.136673,12.93188],[124.136101,12.93172],[124.135567,12.93141],[124.135277,12.9325],[124.135071,12.9332],[124.135002,12.93361],[124.135002,12.93389],[124.13472,12.93417],[124.13472,12.93472],[124.134453,12.935],[124.134377,12.93514],[124.133614,12.93611],[124.133499,12.93584],[124.133476,12.93629],[124.131287,12.93774],[124.130966,12.93867],[124.130692,12.93998],[124.130234,12.94102],[124.128952,12.94184],[124.129387,12.94303],[124.128731,12.94363],[124.127083,12.9444],[124.126587,12.94587],[124.125214,12.94598],[124.124352,12.94637],[124.124237,12.94662],[124.122177,12.94531],[124.121262,12.94507],[124.12059,12.94634],[124.119377,12.94558],[124.118668,12.94498],[124.117119,12.94568],[124.116348,12.94635],[124.115143,12.94724],[124.113853,12.94732],[124.112061,12.9471],[124.111267,12.94835],[124.110924,12.94932],[124.110657,12.95008],[124.110847,12.95058],[124.110992,12.9516],[124.110977,12.95169],[124.110603,12.95238],[124.109917,12.95283],[124.109657,12.95283],[124.109497,12.9528],[124.109444,12.95362],[124.109306,12.95409],[124.109016,12.95591],[124.10836,12.95759],[124.109589,12.95823],[124.109711,12.95982],[124.108978,12.96088],[124.10849,12.96163],[124.108612,12.96342],[124.129593,12.96133],[124.132607,12.96051],[124.13311,12.96104],[124.135246,12.95998],[124.138573,12.95962],[124.146393,12.95883]]]]}},{"type":"Feature","properties":{"ID_0":177,"ISO":"PHL","NAME_0":"Philippines","ID_1":5062,"NAME_1":"Sorsogon","ID_2":506208,"NAME_2":"Gubat","ID_3":506208042,"NAME_3":"Togawe","NL_NAME_3":null,"VARNAME_3":null,"TYPE_3":"Barangay","ENGTYPE_3":"Village","PROVINCE":"Sorsogon","REGION":"Region V (Bicol Region)","id":"barangay-0506208042","name":"Togawe","barangayCode":"0506208042","population":null,"formattedPop":null,"densityCategory":"No data","vulnerabilityRating":"No data","healthRiskLevel":"No data","areaKm2":3.402414,"centerLat":12.866415,"centerLng":124.095032,"geometrySource":"all_barangay-2.csv detailed WKT","geometryMatchMethod":"unique_official_admin_names","boundaryPointCount":24},"geometry":{"type":"MultiPolygon","coordinates":[[[[124.110573,12.88192],[124.110771,12.88177],[124.110153,12.88045],[124.109482,12.87827],[124.109993,12.87613],[124.107147,12.87479],[124.103989,12.87292],[124.101883,12.87163],[124.099541,12.87078],[124.09742,12.86917],[124.096107,12.86855],[124.094818,12.8681],[124.092033,12.86663],[124.090263,12.8647],[124.089752,12.86752],[124.091103,12.87044],[124.092178,12.87267],[124.093971,12.87548],[124.095657,12.87792],[124.096771,12.87984],[124.096809,12.88022],[124.099121,12.88055],[124.105087,12.88109],[124.110573,12.88192]]]]}},{"type":"Feature","properties":{"ID_0":177,"ISO":"PHL","NAME_0":"Philippines","ID_1":5062,"NAME_1":"Sorsogon","ID_2":506208,"NAME_2":"Gubat","ID_3":506208043,"NAME_3":"Union","NL_NAME_3":null,"VARNAME_3":null,"TYPE_3":"Barangay","ENGTYPE_3":"Village","PROVINCE":"Sorsogon","REGION":"Region V (Bicol Region)","id":"barangay-0506208043","name":"Union","barangayCode":"0506208043","population":null,"formattedPop":null,"densityCategory":"No data","vulnerabilityRating":"No data","healthRiskLevel":"No data","areaKm2":2.350857,"centerLat":12.90265,"centerLng":124.094131,"geometrySource":"all_barangay-2.csv detailed WKT","geometryMatchMethod":"unique_official_admin_names","boundaryPointCount":41},"geometry":{"type":"MultiPolygon","coordinates":[[[[124.097382,12.91465],[124.097252,12.91421],[124.100288,12.91236],[124.104591,12.91033],[124.105843,12.91028],[124.105949,12.91017],[124.105507,12.90933],[124.105453,12.90852],[124.105583,12.90707],[124.105827,12.90618],[124.105423,12.90529],[124.104698,12.90463],[124.104584,12.90396],[124.104897,12.90311],[124.103912,12.9025],[124.103157,12.90122],[124.102951,12.89939],[124.102043,12.89864],[124.101089,12.89744],[124.101013,12.897],[124.100441,12.89616],[124.10025,12.89611],[124.097733,12.898],[124.094856,12.89935],[124.092087,12.90085],[124.088913,12.90297],[124.084106,12.90533],[124.085007,12.90706],[124.086792,12.90925],[124.088371,12.91084],[124.089493,12.91154],[124.089867,12.91225],[124.090599,12.91287],[124.090858,12.91362],[124.091728,12.91459],[124.091942,12.91501],[124.092659,12.916],[124.091927,12.91642],[124.093987,12.91668],[124.095703,12.91556],[124.097382,12.91465]]]]}},{"type":"Feature","properties":{"ID_0":177,"ISO":"PHL","NAME_0":"Philippines","ID_1":5062,"NAME_1":"Sorsogon","ID_2":506208,"NAME_2":"Gubat","ID_3":506208044,"NAME_3":"Villareal","NL_NAME_3":null,"VARNAME_3":null,"TYPE_3":"Barangay","ENGTYPE_3":"Village","PROVINCE":"Sorsogon","REGION":"Region V (Bicol Region)","id":"barangay-0506208044","name":"Villareal","barangayCode":"0506208044","population":null,"formattedPop":null,"densityCategory":"No data","vulnerabilityRating":"No data","healthRiskLevel":"No data","areaKm2":1.527968,"centerLat":12.887056,"centerLng":124.113731,"geometrySource":"all_barangay-2.csv detailed WKT","geometryMatchMethod":"unique_official_admin_names","boundaryPointCount":22},"geometry":{"type":"MultiPolygon","coordinates":[[[[124.122292,12.89617],[124.12262,12.89487],[124.123337,12.89444],[124.124168,12.89361],[124.124397,12.89361],[124.124382,12.89328],[124.124657,12.89087],[124.124741,12.88865],[124.124321,12.88768],[124.12426,12.88757],[124.123596,12.88645],[124.119453,12.8867],[124.116577,12.88657],[124.114342,12.88651],[124.113274,12.88668],[124.112984,12.8853],[124.114532,12.89577],[124.114754,12.89615],[124.116623,12.89589],[124.117203,12.89597],[124.119087,12.89613],[124.122292,12.89617]]]]}}]}
