{"type":"FeatureCollection","features":[{"type":"Feature","properties":{"ID_0":177,"ISO":"PHL","NAME_0":"Philippines","ID_1":4058,"NAME_1":"Rizal","ID_2":405813,"NAME_2":"Taytay","ID_3":405813001,"NAME_3":"Dolores","NL_NAME_3":null,"VARNAME_3":null,"TYPE_3":"Barangay","ENGTYPE_3":"Village","PROVINCE":"Rizal","REGION":"Region IV-A (Calabarzon)","id":"barangay-0405813001","name":"Dolores","barangayCode":"0405813001","population":null,"formattedPop":null,"densityCategory":"No data","vulnerabilityRating":"No data","healthRiskLevel":"No data","areaKm2":7.338716,"centerLat":14.572274,"centerLng":121.150376,"geometrySource":"all_barangay-2.csv detailed WKT","geometryMatchMethod":"unique_official_admin_names","boundaryPointCount":31},"geometry":{"type":"MultiPolygon","coordinates":[[[[121.143311,14.59393],[121.147697,14.59018],[121.150124,14.5868],[121.153191,14.58401],[121.157143,14.58086],[121.159279,14.57937],[121.163071,14.57693],[121.164909,14.57521],[121.169693,14.57273],[121.171921,14.57124],[121.167862,14.56799],[121.163513,14.56476],[121.161087,14.56279],[121.157158,14.56342],[121.152649,14.56213],[121.149017,14.56187],[121.14727,14.56109],[121.146294,14.55963],[121.144791,14.55786],[121.141403,14.55612],[121.139572,14.55562],[121.138931,14.55498],[121.137413,14.55368],[121.135353,14.55299],[121.127228,14.57],[121.125801,14.56999],[121.128868,14.57494],[121.134903,14.58239],[121.138,14.58616],[121.139,14.58689],[121.143311,14.59393]]]]}},{"type":"Feature","properties":{"ID_0":177,"ISO":"PHL","NAME_0":"Philippines","ID_1":4058,"NAME_1":"Rizal","ID_2":405813,"NAME_2":"Taytay","ID_3":405813002,"NAME_3":"Muzon","NL_NAME_3":null,"VARNAME_3":null,"TYPE_3":"Barangay","ENGTYPE_3":"Village","PROVINCE":"Rizal","REGION":"Region IV-A (Calabarzon)","id":"barangay-0405813002","name":"Muzon","barangayCode":"0405813002","population":null,"formattedPop":null,"densityCategory":"No data","vulnerabilityRating":"No data","healthRiskLevel":"No data","areaKm2":3.054804,"centerLat":14.547226,"centerLng":121.149385,"geometrySource":"all_barangay-2.csv detailed WKT","geometryMatchMethod":"unique_official_admin_names","boundaryPointCount":61},"geometry":{"type":"MultiPolygon","coordinates":[[[[121.161087,14.56279],[121.140793,14.54269],[121.131416,14.53399],[121.130966,14.53413],[121.129967,14.53417],[121.129021,14.53383],[121.12812,14.53371],[121.127167,14.53364],[121.126213,14.53414],[121.125793,14.53439],[121.125183,14.534],[121.124649,14.53329],[121.123253,14.53279],[121.122658,14.53247],[121.122177,14.53187],[121.120537,14.53223],[121.119667,14.53241],[121.118401,14.53218],[121.118027,14.53224],[121.117317,14.53188],[121.116341,14.53233],[121.115791,14.53326],[121.115356,14.53401],[121.114769,14.53399],[121.115196,14.53446],[121.116074,14.53469],[121.116951,14.53488],[121.11776,14.53472],[121.11866,14.53427],[121.121094,14.53482],[121.122543,14.53481],[121.124313,14.53511],[121.12571,14.53632],[121.125519,14.53679],[121.12455,14.5365],[121.122841,14.53656],[121.123016,14.53722],[121.125214,14.5385],[121.126846,14.53823],[121.126953,14.5375],[121.127022,14.537],[121.127281,14.53669],[121.127869,14.53701],[121.127747,14.53862],[121.128304,14.53948],[121.130051,14.53983],[121.129692,14.54165],[121.12928,14.54278],[121.132027,14.54931],[121.135353,14.55299],[121.137413,14.55368],[121.138931,14.55498],[121.139572,14.55562],[121.141403,14.55612],[121.144791,14.55786],[121.146294,14.55963],[121.14727,14.56109],[121.149017,14.56187],[121.152649,14.56213],[121.157158,14.56342],[121.161087,14.56279]]]]}},{"type":"Feature","properties":{"ID_0":177,"ISO":"PHL","NAME_0":"Philippines","ID_1":4058,"NAME_1":"Rizal","ID_2":405813,"NAME_2":"Taytay","ID_3":405813003,"NAME_3":"San Isidro","NL_NAME_3":null,"VARNAME_3":null,"TYPE_3":"Barangay","ENGTYPE_3":"Village","PROVINCE":"Rizal","REGION":"Region IV-A (Calabarzon)","id":"barangay-0405813003","name":"San Isidro","barangayCode":"0405813003","population":null,"formattedPop":null,"densityCategory":"No data","vulnerabilityRating":"No data","healthRiskLevel":"No data","areaKm2":2.435269,"centerLat":14.578527,"centerLng":121.135975,"geometrySource":"all_barangay-2.csv detailed WKT","geometryMatchMethod":"unique_official_admin_names","boundaryPointCount":12},"geometry":{"type":"MultiPolygon","coordinates":[[[[121.143311,14.59393],[121.139,14.58689],[121.138,14.58616],[121.134903,14.58239],[121.128868,14.57494],[121.126389,14.57504],[121.124947,14.57537],[121.121353,14.57731],[121.123383,14.58022],[121.128021,14.58495],[121.140541,14.59645],[121.143311,14.59393]]]]}},{"type":"Feature","properties":{"ID_0":177,"ISO":"PHL","NAME_0":"Philippines","ID_1":4058,"NAME_1":"Rizal","ID_2":405813,"NAME_2":"Taytay","ID_3":405813004,"NAME_3":"San Juan","NL_NAME_3":null,"VARNAME_3":null,"TYPE_3":"Barangay","ENGTYPE_3":"Village","PROVINCE":"Rizal","REGION":"Region IV-A (Calabarzon)","id":"barangay-0405813004","name":"San Juan","barangayCode":"0405813004","population":null,"formattedPop":null,"densityCategory":"No data","vulnerabilityRating":"No data","healthRiskLevel":"No data","areaKm2":9.20964,"centerLat":14.548813,"centerLng":121.131034,"geometrySource":"all_barangay-2.csv detailed WKT","geometryMatchMethod":"unique_official_admin_names","boundaryPointCount":49},"geometry":{"type":"MultiPolygon","coordinates":[[[[121.135353,14.55299],[121.132027,14.54931],[121.12928,14.54278],[121.129692,14.54165],[121.130051,14.53983],[121.128304,14.53948],[121.127747,14.53862],[121.127869,14.53701],[121.127281,14.53669],[121.127022,14.537],[121.126953,14.5375],[121.126846,14.53823],[121.125214,14.5385],[121.123016,14.53722],[121.122841,14.53656],[121.12455,14.5365],[121.125519,14.53679],[121.12571,14.53632],[121.124313,14.53511],[121.122543,14.53481],[121.121094,14.53482],[121.11866,14.53427],[121.11776,14.53472],[121.116951,14.53488],[121.116074,14.53469],[121.115196,14.53446],[121.114769,14.53399],[121.114418,14.53323],[121.114059,14.5328],[121.111832,14.5337],[121.109871,14.53638],[121.107857,14.53985],[121.107933,14.54121],[121.10968,14.5444],[121.110161,14.54753],[121.111061,14.54819],[121.113319,14.55101],[121.11422,14.55271],[121.115173,14.5565],[121.117203,14.55841],[121.119263,14.5593],[121.121193,14.56066],[121.122208,14.56207],[121.122032,14.56372],[121.123413,14.56646],[121.124336,14.56867],[121.125801,14.56999],[121.127228,14.57],[121.135353,14.55299]]]]}},{"type":"Feature","properties":{"ID_0":177,"ISO":"PHL","NAME_0":"Philippines","ID_1":4058,"NAME_1":"Rizal","ID_2":405813,"NAME_2":"Taytay","ID_3":405813005,"NAME_3":"Santa Ana","NL_NAME_3":null,"VARNAME_3":null,"TYPE_3":"Barangay","ENGTYPE_3":"Village","PROVINCE":"Rizal","REGION":"Region IV-A (Calabarzon)","id":"barangay-0405813005","name":"Santa Ana","barangayCode":"0405813005","population":null,"formattedPop":null,"densityCategory":"No data","vulnerabilityRating":"No data","healthRiskLevel":"No data","areaKm2":6.468243,"centerLat":14.538505,"centerLng":121.113477,"geometrySource":"all_barangay-2.csv detailed WKT","geometryMatchMethod":"unique_official_admin_names","boundaryPointCount":120},"geometry":{"type":"MultiPolygon","coordinates":[[[[121.121353,14.57731],[121.124947,14.57537],[121.126389,14.57504],[121.128868,14.57494],[121.125801,14.56999],[121.124336,14.56867],[121.123413,14.56646],[121.122032,14.56372],[121.122208,14.56207],[121.121193,14.56066],[121.119263,14.5593],[121.117203,14.55841],[121.115173,14.5565],[121.11422,14.55271],[121.113319,14.55101],[121.111061,14.54819],[121.110161,14.54753],[121.10968,14.5444],[121.107933,14.54121],[121.107857,14.53985],[121.109871,14.53638],[121.111832,14.5337],[121.114059,14.5328],[121.113457,14.53205],[121.112297,14.53225],[121.111053,14.53286],[121.110092,14.53333],[121.108521,14.53365],[121.107643,14.53312],[121.108253,14.53196],[121.109032,14.53106],[121.109741,14.52974],[121.109772,14.5284],[121.109039,14.52769],[121.108398,14.52728],[121.106827,14.52916],[121.106087,14.53012],[121.105339,14.53049],[121.105354,14.530576],[121.105423,14.531011],[121.105461,14.531361],[121.105469,14.531481],[121.105476,14.53174],[121.105476,14.532101],[121.105385,14.532379],[121.105331,14.53254],[121.105186,14.532778],[121.105148,14.532842],[121.105072,14.532955],[121.10495,14.533131],[121.104881,14.53322],[121.104523,14.533581],[121.104401,14.53369],[121.104347,14.533741],[121.104233,14.533841],[121.104042,14.534],[121.102646,14.535232],[121.102348,14.535491],[121.101936,14.53577],[121.101936,14.53597],[121.100487,14.53786],[121.097878,14.540051],[121.096329,14.54098],[121.096237,14.541031],[121.095612,14.541589],[121.095787,14.54174],[121.09581,14.541807],[121.095833,14.54189],[121.095863,14.542061],[121.095909,14.54228],[121.095947,14.54245],[121.095963,14.542509],[121.095993,14.54259],[121.096153,14.542722],[121.09623,14.542801],[121.096313,14.54305],[121.096336,14.543135],[121.096352,14.543171],[121.096375,14.543234],[121.096397,14.54331],[121.096535,14.543461],[121.096733,14.543601],[121.096809,14.54364],[121.096947,14.543711],[121.097656,14.544281],[121.09803,14.544621],[121.098572,14.54519],[121.098793,14.545562],[121.098961,14.545851],[121.099037,14.546056],[121.099098,14.546141],[121.099113,14.546188],[121.099281,14.546631],[121.099335,14.546742],[121.099457,14.546791],[121.09951,14.54669],[121.099579,14.546571],[121.099678,14.546471],[121.09977,14.546391],[121.099876,14.54702],[121.099968,14.54724],[121.099976,14.547348],[121.099983,14.547581],[121.100243,14.54895],[121.100471,14.550068],[121.100578,14.5506],[121.100616,14.55082],[121.100708,14.55101],[121.101791,14.55354],[121.102737,14.55699],[121.104408,14.56051],[121.105103,14.56231],[121.106056,14.56438],[121.106247,14.56483],[121.106781,14.56491],[121.107964,14.56547],[121.109283,14.56601],[121.115196,14.5703],[121.118057,14.57391],[121.121353,14.57731]]]]}}]}
