{"type":"FeatureCollection","features":[{"type":"Feature","properties":{"ID_0":177,"ISO":"PHL","NAME_0":"Philippines","ID_1":8026,"NAME_1":"Eastern Samar","ID_2":802606,"NAME_2":"Dolores","ID_3":802606001,"NAME_3":"Aroganga","NL_NAME_3":null,"VARNAME_3":null,"TYPE_3":"Barangay","ENGTYPE_3":"Village","PROVINCE":"Eastern Samar","REGION":"Region VIII (Eastern Visayas)","id":"barangay-0802606001","name":"Aroganga","barangayCode":"0802606001","population":null,"formattedPop":null,"densityCategory":"No data","vulnerabilityRating":"No data","healthRiskLevel":"No data","areaKm2":12.803135,"centerLat":12.036824,"centerLng":125.391935,"geometrySource":"all_barangay-2.csv detailed WKT","geometryMatchMethod":"unique_official_admin_names","boundaryPointCount":17},"geometry":{"type":"MultiPolygon","coordinates":[[[[125.387466,12.06184],[125.381523,12.04501],[125.380203,12.04286],[125.378738,12.04039],[125.377274,12.03964],[125.375542,12.03943],[125.373039,12.0414],[125.371674,12.04395],[125.367958,12.0451],[125.365646,12.04403],[125.36216,12.04146],[125.360657,12.04006],[125.358452,12.03949],[125.355728,12.04114],[125.353668,12.04323],[125.352707,12.04416],[125.387466,12.06184]]]]}},{"type":"Feature","properties":{"ID_0":177,"ISO":"PHL","NAME_0":"Philippines","ID_1":8026,"NAME_1":"Eastern Samar","ID_2":802606,"NAME_2":"Dolores","ID_3":802606002,"NAME_3":"Magongbong","NL_NAME_3":null,"VARNAME_3":null,"TYPE_3":"Barangay","ENGTYPE_3":"Village","PROVINCE":"Eastern Samar","REGION":"Region VIII (Eastern Visayas)","id":"barangay-0802606002","name":"Magongbong","barangayCode":"0802606002","population":null,"formattedPop":null,"densityCategory":"No data","vulnerabilityRating":"No data","healthRiskLevel":"No data","areaKm2":34.354897,"centerLat":12.018811,"centerLng":125.277934,"geometrySource":"all_barangay-2.csv detailed WKT","geometryMatchMethod":"unique_official_admin_names","boundaryPointCount":36},"geometry":{"type":"MultiPolygon","coordinates":[[[[125.333267,12.05993],[125.344162,12.06722],[125.353233,12.05799],[125.343491,12.04296],[125.342789,12.04242],[125.341217,12.04038],[125.340042,12.03855],[125.338837,12.03702],[125.336327,12.03681],[125.334824,12.03817],[125.333054,12.04014],[125.329376,12.04194],[125.32695,12.04334],[125.323563,12.04392],[125.322021,12.0435],[125.319077,12.0416],[125.317543,12.042],[125.31636,12.04393],[125.315918,12.04573],[125.317787,12.04666],[125.319443,12.04823],[125.320099,12.04923],[125.320168,12.05002],[125.321823,12.05156],[125.322517,12.05192],[125.324203,12.05432],[125.325081,12.05607],[125.32515,12.05664],[125.32621,12.05861],[125.327133,12.0589],[125.328819,12.05839],[125.330292,12.05778],[125.330811,12.05785],[125.331757,12.05886],[125.332497,12.05954],[125.333267,12.05993]]]]}},{"type":"Feature","properties":{"ID_0":177,"ISO":"PHL","NAME_0":"Philippines","ID_1":8026,"NAME_1":"Eastern Samar","ID_2":802606,"NAME_2":"Dolores","ID_3":802606003,"NAME_3":"Buenavista","NL_NAME_3":null,"VARNAME_3":null,"TYPE_3":"Barangay","ENGTYPE_3":"Village","PROVINCE":"Eastern Samar","REGION":"Region VIII (Eastern Visayas)","id":"barangay-0802606003","name":"Buenavista","barangayCode":"0802606003","population":null,"formattedPop":null,"densityCategory":"No data","vulnerabilityRating":"No data","healthRiskLevel":"No data","areaKm2":9.974974,"centerLat":12.03173,"centerLng":125.325333,"geometrySource":"all_barangay-2.csv detailed WKT","geometryMatchMethod":"unique_official_admin_names","boundaryPointCount":7},"geometry":{"type":"MultiPolygon","coordinates":[[[[125.341019,12.07744],[125.335732,12.07387],[125.344162,12.06722],[125.333267,12.05993],[125.32093,12.06995],[125.328949,12.08373],[125.341019,12.07744]]]]}},{"type":"Feature","properties":{"ID_0":177,"ISO":"PHL","NAME_0":"Philippines","ID_1":8026,"NAME_1":"Eastern Samar","ID_2":802606,"NAME_2":"Dolores","ID_3":802606004,"NAME_3":"Cabago-an","NL_NAME_3":null,"VARNAME_3":null,"TYPE_3":"Barangay","ENGTYPE_3":"Village","PROVINCE":"Eastern Samar","REGION":"Region VIII (Eastern Visayas)","id":"barangay-0802606004","name":"Cabago-an","barangayCode":"0802606004","population":null,"formattedPop":null,"densityCategory":"No data","vulnerabilityRating":"No data","healthRiskLevel":"No data","areaKm2":15.126923,"centerLat":12.05954,"centerLng":125.314065,"geometrySource":"all_barangay-2.csv detailed WKT","geometryMatchMethod":"unique_official_admin_names","boundaryPointCount":6},"geometry":{"type":"MultiPolygon","coordinates":[[[[125.328949,12.08373],[125.32093,12.06995],[125.313454,12.07537],[125.306419,12.08137],[125.319962,12.09027],[125.328949,12.08373]]]]}},{"type":"Feature","properties":{"ID_0":177,"ISO":"PHL","NAME_0":"Philippines","ID_1":8026,"NAME_1":"Eastern Samar","ID_2":802606,"NAME_2":"Dolores","ID_3":802606005,"NAME_3":"Caglao-an","NL_NAME_3":null,"VARNAME_3":null,"TYPE_3":"Barangay","ENGTYPE_3":"Village","PROVINCE":"Eastern Samar","REGION":"Region VIII (Eastern Visayas)","id":"barangay-0802606005","name":"Caglao-an","barangayCode":"0802606005","population":null,"formattedPop":null,"densityCategory":"No data","vulnerabilityRating":"No data","healthRiskLevel":"No data","areaKm2":14.601261,"centerLat":12.082809,"centerLng":125.374602,"geometrySource":"all_barangay-2.csv detailed WKT","geometryMatchMethod":"unique_official_admin_names","boundaryPointCount":22},"geometry":{"type":"MultiPolygon","coordinates":[[[[125.38324,12.10087],[125.392021,12.09824],[125.399643,12.09742],[125.406662,12.09569],[125.410332,12.09519],[125.407501,12.07553],[125.387466,12.06184],[125.362457,12.06927],[125.354317,12.0772],[125.361923,12.08085],[125.36438,12.08192],[125.368858,12.0841],[125.369148,12.08535],[125.369987,12.08639],[125.370277,12.08829],[125.371712,12.08965],[125.373444,12.09083],[125.374474,12.09165],[125.377838,12.0934],[125.378677,12.0944],[125.380783,12.09637],[125.38324,12.10087]]]]}},{"type":"Feature","properties":{"ID_0":177,"ISO":"PHL","NAME_0":"Philippines","ID_1":8026,"NAME_1":"Eastern Samar","ID_2":802606,"NAME_2":"Dolores","ID_3":802606006,"NAME_3":"Cagtabon","NL_NAME_3":null,"VARNAME_3":null,"TYPE_3":"Barangay","ENGTYPE_3":"Village","PROVINCE":"Eastern Samar","REGION":"Region VIII (Eastern Visayas)","id":"barangay-0802606006","name":"Cagtabon","barangayCode":"0802606006","population":null,"formattedPop":null,"densityCategory":"No data","vulnerabilityRating":"No data","healthRiskLevel":"No data","areaKm2":9.648492,"centerLat":12.037726,"centerLng":125.365545,"geometrySource":"all_barangay-2.csv detailed WKT","geometryMatchMethod":"unique_official_admin_names","boundaryPointCount":12},"geometry":{"type":"MultiPolygon","coordinates":[[[[125.362457,12.06927],[125.387466,12.06184],[125.352707,12.04416],[125.351387,12.04366],[125.350647,12.04251],[125.349487,12.04055],[125.347649,12.04012],[125.346321,12.04116],[125.344589,12.04274],[125.343491,12.04296],[125.353233,12.05799],[125.362457,12.06927]]]]}},{"type":"Feature","properties":{"ID_0":177,"ISO":"PHL","NAME_0":"Philippines","ID_1":8026,"NAME_1":"Eastern Samar","ID_2":802606,"NAME_2":"Dolores","ID_3":802606007,"NAME_3":"Dampigan","NL_NAME_3":null,"VARNAME_3":null,"TYPE_3":"Barangay","ENGTYPE_3":"Village","PROVINCE":"Eastern Samar","REGION":"Region VIII (Eastern Visayas)","id":"barangay-0802606007","name":"Dampigan","barangayCode":"0802606007","population":null,"formattedPop":null,"densityCategory":"No data","vulnerabilityRating":"No data","healthRiskLevel":"No data","areaKm2":8.227607,"centerLat":12.035522,"centerLng":125.434121,"geometrySource":"all_barangay-2.csv detailed WKT","geometryMatchMethod":"unique_official_admin_names","boundaryPointCount":15},"geometry":{"type":"MultiPolygon","coordinates":[[[[125.433907,12.05381],[125.435699,12.05313],[125.437653,12.0527],[125.439453,12.0514],[125.440437,12.04979],[125.441406,12.04724],[125.42955,12.03116],[125.408546,12.03718],[125.420677,12.05444],[125.421082,12.05404],[125.424469,12.05267],[125.426933,12.05149],[125.4291,12.05127],[125.430794,12.05209],[125.433907,12.05381]]]]}},{"type":"Feature","properties":{"ID_0":177,"ISO":"PHL","NAME_0":"Philippines","ID_1":8026,"NAME_1":"Eastern Samar","ID_2":802606,"NAME_2":"Dolores","ID_3":802606008,"NAME_3":"Dapdap","NL_NAME_3":null,"VARNAME_3":null,"TYPE_3":"Barangay","ENGTYPE_3":"Village","PROVINCE":"Eastern Samar","REGION":"Region VIII (Eastern Visayas)","id":"barangay-0802606008","name":"Dapdap","barangayCode":"0802606008","population":null,"formattedPop":null,"densityCategory":"No data","vulnerabilityRating":"No data","healthRiskLevel":"No data","areaKm2":4.919119,"centerLat":12.057874,"centerLng":125.482321,"geometrySource":"all_barangay-2.csv detailed WKT","geometryMatchMethod":"unique_official_admin_names","boundaryPointCount":203},"geometry":{"type":"MultiPolygon","coordinates":[[[[125.507217,12.07361],[125.5075,12.07333],[125.507767,12.07333],[125.508057,12.07306],[125.508057,12.07278],[125.507217,12.07194],[125.506943,12.07194],[125.506668,12.07167],[125.506393,12.07167],[125.506111,12.07139],[125.505836,12.07167],[125.505547,12.07167],[125.50528,12.07194],[125.504997,12.07194],[125.504448,12.0725],[125.504448,12.07278],[125.504173,12.07306],[125.504723,12.07361],[125.504448,12.07389],[125.506943,12.07389],[125.507217,12.07361]]],[[[125.501389,12.07583],[125.501663,12.07556],[125.501953,12.07556],[125.502777,12.07472],[125.502777,12.07444],[125.503052,12.07417],[125.503052,12.07361],[125.502777,12.07333],[125.502777,12.0725],[125.503052,12.07222],[125.503052,12.07167],[125.501953,12.07056],[125.501663,12.07056],[125.501106,12.07111],[125.501106,12.07167],[125.500137,12.07263],[125.5,12.07278],[125.499443,12.07278],[125.499107,12.07244],[125.498894,12.07222],[125.49778,12.07222],[125.49704,12.07296],[125.496391,12.07361],[125.496391,12.07417],[125.496109,12.07444],[125.496109,12.07472],[125.496391,12.07501],[125.496674,12.07528],[125.497223,12.07528],[125.497498,12.07556],[125.498047,12.07556],[125.498337,12.07528],[125.498894,12.07528],[125.499168,12.07556],[125.500557,12.07556],[125.500832,12.07583],[125.501389,12.07583]]],[[[125.489662,12.0759],[125.489723,12.07583],[125.489723,12.0759],[125.489723,12.07611],[125.489922,12.07591],[125.489967,12.07582],[125.489998,12.07579],[125.489998,12.07556],[125.490196,12.07556],[125.49028,12.07556],[125.490547,12.07528],[125.491112,12.07583],[125.491943,12.07583],[125.492767,12.075],[125.492767,12.07472],[125.493057,12.07444],[125.493057,12.07389],[125.493607,12.07333],[125.493607,12.07306],[125.494164,12.0725],[125.494453,12.0725],[125.49472,12.07222],[125.496109,12.07167],[125.496391,12.07167],[125.496948,12.07056],[125.497223,12.07028],[125.497223,12.07],[125.497498,12.06972],[125.497498,12.06944],[125.496674,12.06861],[125.496391,12.06861],[125.495277,12.0675],[125.495277,12.06694],[125.494453,12.06611],[125.494453,12.06583],[125.495003,12.06528],[125.495003,12.065],[125.495277,12.06472],[125.495277,12.06444],[125.495827,12.06389],[125.495827,12.06361],[125.496109,12.06333],[125.496109,12.06306],[125.496948,12.06222],[125.496948,12.06194],[125.498047,12.06083],[125.498337,12.06083],[125.498611,12.06056],[125.498894,12.06056],[125.499168,12.06028],[125.499413,12.06028],[125.49913,12.05979],[125.497879,12.05936],[125.496193,12.06015],[125.493637,12.06256],[125.491989,12.0641],[125.490997,12.06514],[125.485222,12.0665],[125.47963,12.06885],[125.476982,12.06907],[125.466171,12.06924],[125.446281,12.069],[125.419617,12.07046],[125.424553,12.07619],[125.482292,12.07602],[125.483513,12.0763],[125.484108,12.07728],[125.484169,12.07722],[125.484444,12.07722],[125.484734,12.07694],[125.484734,12.07611],[125.485001,12.07583],[125.485283,12.07611],[125.485283,12.07778],[125.485558,12.07806],[125.485558,12.07972],[125.485817,12.07998],[125.486389,12.08056],[125.487221,12.08056],[125.488052,12.07972],[125.488052,12.07945],[125.488609,12.07889],[125.488609,12.07861],[125.489723,12.0775],[125.489723,12.07722],[125.489441,12.07694],[125.489441,12.07611],[125.489662,12.0759]]],[[[125.496391,12.08444],[125.497223,12.08361],[125.497223,12.08306],[125.497498,12.08278],[125.497498,12.0825],[125.49778,12.08222],[125.49778,12.08194],[125.498047,12.08167],[125.498047,12.08139],[125.498611,12.08083],[125.498611,12.08028],[125.498047,12.07972],[125.49778,12.07972],[125.497498,12.07972],[125.497223,12.08],[125.496948,12.08],[125.495277,12.08167],[125.495277,12.08222],[125.495827,12.08278],[125.495827,12.08333],[125.495277,12.08389],[125.495003,12.08389],[125.49472,12.08361],[125.493607,12.08361],[125.493057,12.08306],[125.492767,12.08306],[125.492233,12.08361],[125.491943,12.08361],[125.491669,12.08389],[125.491669,12.08458],[125.491669,12.08472],[125.491867,12.08493],[125.491943,12.085],[125.491943,12.08507],[125.491943,12.08733],[125.491943,12.08972],[125.492233,12.09],[125.492233,12.09111],[125.493332,12.09222],[125.494164,12.09222],[125.49472,12.09167],[125.49472,12.09139],[125.494164,12.09083],[125.494164,12.09056],[125.494453,12.09028],[125.494453,12.09],[125.49472,12.08972],[125.49472,12.08917],[125.495003,12.08889],[125.495003,12.08833],[125.495277,12.08806],[125.495277,12.08778],[125.496391,12.08667],[125.496391,12.08639],[125.496948,12.08583],[125.496948,12.085],[125.496391,12.08444]]]]}},{"type":"Feature","properties":{"ID_0":177,"ISO":"PHL","NAME_0":"Philippines","ID_1":8026,"NAME_1":"Eastern Samar","ID_2":802606,"NAME_2":"Dolores","ID_3":802606009,"NAME_3":"Del Pilar","NL_NAME_3":null,"VARNAME_3":null,"TYPE_3":"Barangay","ENGTYPE_3":"Village","PROVINCE":"Eastern Samar","REGION":"Region VIII (Eastern Visayas)","id":"barangay-0802606009","name":"Del Pilar","barangayCode":"0802606009","population":null,"formattedPop":null,"densityCategory":"No data","vulnerabilityRating":"No data","healthRiskLevel":"No data","areaKm2":3.007141,"centerLat":12.13214,"centerLng":125.261174,"geometrySource":"all_barangay-2.csv detailed WKT","geometryMatchMethod":"unique_official_admin_names","boundaryPointCount":32},"geometry":{"type":"MultiPolygon","coordinates":[[[[125.258774,12.16769],[125.299339,12.15425],[125.292068,12.13448],[125.284866,12.11478],[125.283257,12.11439],[125.280403,12.1136],[125.278152,12.11382],[125.274147,12.11576],[125.270348,12.11882],[125.268837,12.12007],[125.266747,12.11872],[125.265457,12.11757],[125.263298,12.11621],[125.260178,12.11547],[125.259659,12.11686],[125.258842,12.11948],[125.257736,12.12013],[125.256599,12.11981],[125.254471,12.11888],[125.252853,12.11949],[125.251167,12.11899],[125.249588,12.11903],[125.248077,12.11911],[125.246063,12.11936],[125.244919,12.11976],[125.239616,12.12076],[125.244423,12.12793],[125.246849,12.13129],[125.251663,12.13695],[125.253288,12.14366],[125.254517,12.15149],[125.258774,12.16769]]]]}},{"type":"Feature","properties":{"ID_0":177,"ISO":"PHL","NAME_0":"Philippines","ID_1":8026,"NAME_1":"Eastern Samar","ID_2":802606,"NAME_2":"Dolores","ID_3":802606010,"NAME_3":"Denigpian","NL_NAME_3":null,"VARNAME_3":null,"TYPE_3":"Barangay","ENGTYPE_3":"Village","PROVINCE":"Eastern Samar","REGION":"Region VIII (Eastern Visayas)","id":"barangay-0802606010","name":"Denigpian","barangayCode":"0802606010","population":null,"formattedPop":null,"densityCategory":"No data","vulnerabilityRating":"No data","healthRiskLevel":"No data","areaKm2":26.317205,"centerLat":12.1181,"centerLng":125.329349,"geometrySource":"all_barangay-2.csv detailed WKT","geometryMatchMethod":"unique_official_admin_names","boundaryPointCount":56},"geometry":{"type":"MultiPolygon","coordinates":[[[[125.337387,12.13712],[125.342903,12.13307],[125.342537,12.12862],[125.342216,12.12597],[125.341049,12.12343],[125.338814,12.12225],[125.336281,12.12014],[125.333023,12.11731],[125.309433,12.09796],[125.300926,12.09077],[125.288422,12.09373],[125.289589,12.09606],[125.290543,12.09774],[125.291023,12.10061],[125.293129,12.10552],[125.293503,12.10752],[125.294449,12.10978],[125.295433,12.11186],[125.29763,12.11329],[125.29995,12.11472],[125.300323,12.11529],[125.300713,12.11737],[125.300926,12.11923],[125.301514,12.11966],[125.303307,12.11994],[125.303833,12.12077],[125.303421,12.12238],[125.30407,12.12532],[125.304733,12.127],[125.305267,12.12912],[125.305794,12.13094],[125.306664,12.13356],[125.308723,12.13531],[125.310188,12.13567],[125.311813,12.13581],[125.313347,12.1358],[125.315147,12.1367],[125.316391,12.13709],[125.317902,12.13712],[125.319481,12.13669],[125.320686,12.13554],[125.32206,12.13518],[125.322792,12.1345],[125.323914,12.13227],[125.325157,12.13163],[125.325851,12.13163],[125.328323,12.13112],[125.329201,12.13097],[125.330299,12.13076],[125.331589,12.13179],[125.331802,12.1333],[125.331612,12.13459],[125.332382,12.13609],[125.333344,12.13792],[125.334137,12.13989],[125.337387,12.13712]]]]}},{"type":"Feature","properties":{"ID_0":177,"ISO":"PHL","NAME_0":"Philippines","ID_1":8026,"NAME_1":"Eastern Samar","ID_2":802606,"NAME_2":"Dolores","ID_3":802606011,"NAME_3":"Gap-ang","NL_NAME_3":null,"VARNAME_3":null,"TYPE_3":"Barangay","ENGTYPE_3":"Village","PROVINCE":"Eastern Samar","REGION":"Region VIII (Eastern Visayas)","id":"barangay-0802606011","name":"Gap-ang","barangayCode":"0802606011","population":null,"formattedPop":null,"densityCategory":"No data","vulnerabilityRating":"No data","healthRiskLevel":"No data","areaKm2":14.978646,"centerLat":12.035238,"centerLng":125.254215,"geometrySource":"all_barangay-2.csv detailed WKT","geometryMatchMethod":"unique_official_admin_names","boundaryPointCount":33},"geometry":{"type":"MultiPolygon","coordinates":[[[[125.32093,12.06995],[125.333267,12.05993],[125.332497,12.05954],[125.331757,12.05886],[125.330811,12.05785],[125.330292,12.05778],[125.328819,12.05839],[125.327133,12.0589],[125.32621,12.05861],[125.32515,12.05664],[125.325081,12.05607],[125.324203,12.05432],[125.322517,12.05192],[125.321823,12.05156],[125.320168,12.05002],[125.320099,12.04923],[125.319443,12.04823],[125.317787,12.04666],[125.315918,12.04573],[125.315727,12.04766],[125.315536,12.05014],[125.314758,12.05304],[125.313873,12.05663],[125.314117,12.05871],[125.313667,12.06071],[125.312637,12.0609],[125.310951,12.06136],[125.311317,12.06308],[125.311317,12.06452],[125.309769,12.06488],[125.307709,12.06467],[125.313454,12.07537],[125.32093,12.06995]]]]}},{"type":"Feature","properties":{"ID_0":177,"ISO":"PHL","NAME_0":"Philippines","ID_1":8026,"NAME_1":"Eastern Samar","ID_2":802606,"NAME_2":"Dolores","ID_3":802606012,"NAME_3":"Japitan","NL_NAME_3":null,"VARNAME_3":null,"TYPE_3":"Barangay","ENGTYPE_3":"Village","PROVINCE":"Eastern Samar","REGION":"Region VIII (Eastern Visayas)","id":"barangay-0802606012","name":"Japitan","barangayCode":"0802606012","population":null,"formattedPop":null,"densityCategory":"No data","vulnerabilityRating":"No data","healthRiskLevel":"No data","areaKm2":2.182622,"centerLat":12.056816,"centerLng":125.503997,"geometrySource":"all_barangay-2.csv detailed WKT","geometryMatchMethod":"unique_official_admin_names","boundaryPointCount":92},"geometry":{"type":"MultiPolygon","coordinates":[[[[125.485222,12.0665],[125.490997,12.06514],[125.491989,12.0641],[125.493637,12.06256],[125.496193,12.06015],[125.497879,12.05936],[125.49913,12.05979],[125.499413,12.06028],[125.499733,12.06],[125.500832,12.06],[125.500832,12.06028],[125.501389,12.06028],[125.501663,12.06056],[125.501663,12.06083],[125.501953,12.06111],[125.501953,12.06139],[125.50222,12.06167],[125.50222,12.06194],[125.503052,12.06278],[125.503052,12.06306],[125.503891,12.06389],[125.504173,12.06389],[125.504448,12.06417],[125.504723,12.06417],[125.504997,12.06444],[125.505547,12.06444],[125.505676,12.06457],[125.505836,12.06472],[125.5075,12.06472],[125.507767,12.06444],[125.509163,12.06444],[125.509453,12.06417],[125.50972,12.06417],[125.510277,12.06361],[125.510277,12.06333],[125.510559,12.06306],[125.510559,12.06296],[125.510559,12.06278],[125.511391,12.06278],[125.51226,12.06365],[125.512497,12.06389],[125.512779,12.06361],[125.513344,12.06361],[125.514168,12.06278],[125.514442,12.06278],[125.514999,12.06222],[125.514999,12.06194],[125.515556,12.06139],[125.515556,12.06111],[125.516113,12.06056],[125.516113,12.06028],[125.515831,12.06],[125.515831,12.05944],[125.515266,12.05889],[125.515266,12.05861],[125.514999,12.05833],[125.514999,12.05806],[125.513344,12.05639],[125.513046,12.05639],[125.512497,12.05583],[125.512222,12.05583],[125.511948,12.05556],[125.511673,12.05556],[125.511391,12.05528],[125.510834,12.05528],[125.510559,12.05556],[125.510208,12.05576],[125.510071,12.05604],[125.50972,12.05639],[125.509453,12.05611],[125.509163,12.05611],[125.508614,12.05556],[125.508614,12.05528],[125.509163,12.05472],[125.508888,12.05444],[125.508247,12.05417],[125.508057,12.05361],[125.507217,12.05361],[125.506943,12.05333],[125.506668,12.05333],[125.506393,12.05306],[125.503052,12.05306],[125.498077,12.04808],[125.495697,12.04983],[125.488724,12.05437],[125.485847,12.05535],[125.483238,12.05523],[125.482101,12.05518],[125.48008,12.05443],[125.47802,12.05454],[125.476837,12.05458],[125.485222,12.0665]]]]}},{"type":"Feature","properties":{"ID_0":177,"ISO":"PHL","NAME_0":"Philippines","ID_1":8026,"NAME_1":"Eastern Samar","ID_2":802606,"NAME_2":"Dolores","ID_3":802606013,"NAME_3":"Jicontol","NL_NAME_3":null,"VARNAME_3":null,"TYPE_3":"Barangay","ENGTYPE_3":"Village","PROVINCE":"Eastern Samar","REGION":"Region VIII (Eastern Visayas)","id":"barangay-0802606013","name":"Jicontol","barangayCode":"0802606013","population":null,"formattedPop":null,"densityCategory":"No data","vulnerabilityRating":"No data","healthRiskLevel":"No data","areaKm2":12.317337,"centerLat":12.049908,"centerLng":125.249464,"geometrySource":"all_barangay-2.csv detailed WKT","geometryMatchMethod":"unique_official_admin_names","boundaryPointCount":6},"geometry":{"type":"MultiPolygon","coordinates":[[[[125.313454,12.07537],[125.307709,12.06467],[125.291939,12.05305],[125.285568,12.07159],[125.306419,12.08137],[125.313454,12.07537]]]]}},{"type":"Feature","properties":{"ID_0":177,"ISO":"PHL","NAME_0":"Philippines","ID_1":8026,"NAME_1":"Eastern Samar","ID_2":802606,"NAME_2":"Dolores","ID_3":802606014,"NAME_3":"Hilabaan","NL_NAME_3":null,"VARNAME_3":null,"TYPE_3":"Barangay","ENGTYPE_3":"Village","PROVINCE":"Eastern Samar","REGION":"Region VIII (Eastern Visayas)","id":"barangay-0802606014","name":"Hilabaan","barangayCode":"0802606014","population":null,"formattedPop":null,"densityCategory":"No data","vulnerabilityRating":"No data","healthRiskLevel":"No data","areaKm2":2.110997,"centerLat":12.054277,"centerLng":125.564789,"geometrySource":"all_barangay-2.csv detailed WKT","geometryMatchMethod":"unique_official_admin_names","boundaryPointCount":327},"geometry":{"type":"MultiPolygon","coordinates":[[[[125.555557,12.005],[125.555267,12.005],[125.554733,12.00556],[125.555,12.00583],[125.555,12.00639],[125.555,12.00667],[125.555832,12.0075],[125.555832,12.00806],[125.556107,12.00833],[125.556107,12.00867],[125.556107,12.00889],[125.555832,12.00917],[125.555832,12.00972],[125.555557,12.01],[125.555557,12.01083],[125.555267,12.01111],[125.555267,12.01139],[125.555,12.01167],[125.555,12.01194],[125.554733,12.01222],[125.555,12.0125],[125.555,12.01278],[125.555267,12.01306],[125.555267,12.01361],[125.555557,12.01389],[125.555557,12.01409],[125.555557,12.01417],[125.555832,12.01444],[125.555832,12.01472],[125.556664,12.01556],[125.556953,12.01556],[125.558609,12.01389],[125.558609,12.01333],[125.558891,12.01306],[125.558891,12.01278],[125.559723,12.01194],[125.559723,12.01139],[125.559998,12.01111],[125.559998,12.00944],[125.559723,12.00917],[125.559723,12.00889],[125.558891,12.00806],[125.558609,12.00806],[125.558327,12.00778],[125.558052,12.00778],[125.557503,12.00722],[125.55722,12.00722],[125.556953,12.00694],[125.556953,12.00667],[125.556389,12.00611],[125.556389,12.00583],[125.555557,12.005]]],[[[125.558327,12.02194],[125.558609,12.02167],[125.558891,12.02167],[125.559174,12.02139],[125.559174,12.02083],[125.56028,12.01972],[125.56028,12.01944],[125.560547,12.01917],[125.560547,12.01861],[125.560837,12.01833],[125.560837,12.01722],[125.560837,12.01695],[125.558891,12.015],[125.558052,12.01583],[125.557503,12.01583],[125.556953,12.01639],[125.556953,12.01667],[125.556923,12.01669],[125.556664,12.01695],[125.556664,12.01722],[125.556389,12.0175],[125.556389,12.01806],[125.556107,12.01833],[125.556107,12.01861],[125.555832,12.01889],[125.555832,12.01972],[125.556107,12.02],[125.556107,12.02028],[125.556259,12.02042],[125.556389,12.02056],[125.556389,12.02111],[125.556953,12.02167],[125.55722,12.02167],[125.557503,12.02194],[125.558327,12.02194]]],[[[125.559174,12.02778],[125.559448,12.0275],[125.559723,12.0275],[125.560837,12.02639],[125.560547,12.02611],[125.560547,12.025],[125.560837,12.02472],[125.560837,12.02361],[125.56028,12.02306],[125.56028,12.02278],[125.559998,12.0225],[125.559448,12.0225],[125.559174,12.02278],[125.558609,12.02278],[125.558327,12.02306],[125.556953,12.02306],[125.55674,12.02326],[125.556389,12.02361],[125.556389,12.02389],[125.556107,12.02417],[125.556107,12.02472],[125.555832,12.025],[125.555832,12.02556],[125.556389,12.02611],[125.556389,12.02639],[125.557129,12.02713],[125.557777,12.02778],[125.559174,12.02778]]],[[[125.562233,12.06861],[125.5625,12.06833],[125.562767,12.06833],[125.563057,12.06806],[125.563332,12.06806],[125.564453,12.06694],[125.564453,12.06667],[125.56472,12.06639],[125.56472,12.06583],[125.565002,12.06556],[125.565002,12.06472],[125.565552,12.06417],[125.565552,12.06389],[125.565826,12.06361],[125.565826,12.06333],[125.566109,12.06306],[125.566109,12.0625],[125.566391,12.06222],[125.566391,12.06194],[125.566673,12.06167],[125.566673,12.06139],[125.567223,12.06083],[125.567223,12.06056],[125.56778,12.06],[125.56778,12.05972],[125.568047,12.05944],[125.568047,12.05889],[125.568336,12.05861],[125.568336,12.05722],[125.568611,12.05695],[125.568611,12.05667],[125.568893,12.05639],[125.568611,12.05611],[125.568611,12.055],[125.568893,12.05472],[125.568611,12.05444],[125.568611,12.05417],[125.568893,12.05389],[125.568893,12.05361],[125.569168,12.05333],[125.568893,12.05306],[125.568893,12.05167],[125.569168,12.05139],[125.569168,12.05111],[125.569443,12.05083],[125.569168,12.05056],[125.569168,12.05028],[125.568611,12.04972],[125.568047,12.04972],[125.567497,12.04917],[125.567497,12.04861],[125.567223,12.04833],[125.567223,12.04639],[125.566948,12.04611],[125.566948,12.04583],[125.566673,12.04556],[125.566673,12.04472],[125.565277,12.04333],[125.565002,12.04333],[125.56472,12.04306],[125.564163,12.04306],[125.563332,12.04222],[125.563332,12.04194],[125.563057,12.04167],[125.563332,12.04139],[125.5625,12.04056],[125.5625,12.04028],[125.562233,12.04],[125.562233,12.0375],[125.561943,12.03722],[125.561943,12.03694],[125.561668,12.03667],[125.561668,12.03639],[125.56028,12.035],[125.559998,12.035],[125.559723,12.03472],[125.558891,12.03472],[125.558609,12.035],[125.558327,12.035],[125.557777,12.03556],[125.557777,12.03583],[125.557503,12.03611],[125.557503,12.03667],[125.55722,12.03694],[125.55722,12.03944],[125.557503,12.03972],[125.557503,12.04],[125.559998,12.0425],[125.559998,12.04278],[125.560837,12.04361],[125.560837,12.04389],[125.561943,12.045],[125.561943,12.04528],[125.562233,12.04556],[125.562233,12.04583],[125.563057,12.04667],[125.563057,12.04694],[125.563332,12.04722],[125.563332,12.04833],[125.563057,12.04861],[125.563057,12.05111],[125.562767,12.05139],[125.562767,12.05167],[125.5625,12.05194],[125.5625,12.0525],[125.562233,12.05278],[125.562233,12.05361],[125.561943,12.05389],[125.561943,12.05417],[125.562233,12.05444],[125.562233,12.05472],[125.561943,12.055],[125.5625,12.05556],[125.562233,12.05583],[125.561943,12.05611],[125.562233,12.05639],[125.562233,12.05667],[125.561943,12.05695],[125.562233,12.05722],[125.562233,12.05778],[125.5625,12.05806],[125.5625,12.05889],[125.562233,12.05917],[125.562233,12.05972],[125.561943,12.06],[125.561943,12.06083],[125.561668,12.06111],[125.561668,12.06139],[125.561394,12.06167],[125.561394,12.06222],[125.561111,12.0625],[125.561111,12.06278],[125.560837,12.06306],[125.560837,12.065],[125.560547,12.06528],[125.560547,12.06583],[125.56028,12.06611],[125.56028,12.0675],[125.560837,12.06806],[125.561111,12.06806],[125.561394,12.06833],[125.561943,12.06833],[125.562172,12.06856],[125.562233,12.06861]]],[[[125.568047,12.0725],[125.568611,12.07194],[125.568893,12.07194],[125.569443,12.07139],[125.569443,12.07083],[125.569717,12.07056],[125.569717,12.07028],[125.570557,12.06944],[125.57,12.06889],[125.57,12.06861],[125.570267,12.06833],[125.570267,12.06806],[125.570557,12.06778],[125.570557,12.0675],[125.570831,12.06722],[125.570831,12.06694],[125.571114,12.06667],[125.571114,12.06639],[125.57222,12.06528],[125.572777,12.06528],[125.573059,12.065],[125.573059,12.06472],[125.572777,12.06444],[125.572777,12.06417],[125.573059,12.06389],[125.573059,12.06361],[125.573608,12.06306],[125.573608,12.06278],[125.573059,12.06222],[125.573059,12.06111],[125.573334,12.06083],[125.573334,12.06028],[125.572777,12.05972],[125.572777,12.05944],[125.571953,12.05861],[125.571663,12.05889],[125.571663,12.05944],[125.570061,12.06104],[125.568893,12.06222],[125.568893,12.0625],[125.568336,12.06306],[125.568336,12.06361],[125.568047,12.06389],[125.568047,12.06444],[125.56778,12.06472],[125.56778,12.065],[125.567223,12.06556],[125.567223,12.06583],[125.566948,12.06611],[125.566948,12.06639],[125.566673,12.06667],[125.566673,12.0675],[125.566948,12.06778],[125.566673,12.06806],[125.566673,12.06889],[125.566948,12.06917],[125.566948,12.06944],[125.567223,12.06972],[125.567223,12.06979],[125.567223,12.07028],[125.567497,12.07056],[125.567223,12.07083],[125.566673,12.07139],[125.566673,12.07167],[125.567223,12.07222],[125.567497,12.07222],[125.56778,12.0725],[125.568047,12.0725]]]]}},{"type":"Feature","properties":{"ID_0":177,"ISO":"PHL","NAME_0":"Philippines","ID_1":8026,"NAME_1":"Eastern Samar","ID_2":802606,"NAME_2":"Dolores","ID_3":802606015,"NAME_3":"Hinolaso","NL_NAME_3":null,"VARNAME_3":null,"TYPE_3":"Barangay","ENGTYPE_3":"Village","PROVINCE":"Eastern Samar","REGION":"Region VIII (Eastern Visayas)","id":"barangay-0802606015","name":"Hinolaso","barangayCode":"0802606015","population":null,"formattedPop":null,"densityCategory":"No data","vulnerabilityRating":"No data","healthRiskLevel":"No data","areaKm2":8.17869,"centerLat":12.078427,"centerLng":125.300062,"geometrySource":"all_barangay-2.csv detailed WKT","geometryMatchMethod":"unique_official_admin_names","boundaryPointCount":8},"geometry":{"type":"MultiPolygon","coordinates":[[[[125.288422,12.09373],[125.300926,12.09077],[125.309433,12.09796],[125.319962,12.09027],[125.306419,12.08137],[125.285568,12.07159],[125.232689,12.03802],[125.288422,12.09373]]]]}},{"type":"Feature","properties":{"ID_0":177,"ISO":"PHL","NAME_0":"Philippines","ID_1":8026,"NAME_1":"Eastern Samar","ID_2":802606,"NAME_2":"Dolores","ID_3":802606016,"NAME_3":"Libertad","NL_NAME_3":null,"VARNAME_3":null,"TYPE_3":"Barangay","ENGTYPE_3":"Village","PROVINCE":"Eastern Samar","REGION":"Region VIII (Eastern Visayas)","id":"barangay-0802606016","name":"Libertad","barangayCode":"0802606016","population":null,"formattedPop":null,"densityCategory":"No data","vulnerabilityRating":"No data","healthRiskLevel":"No data","areaKm2":5.500596,"centerLat":12.059648,"centerLng":125.396355,"geometrySource":"all_barangay-2.csv detailed WKT","geometryMatchMethod":"unique_official_admin_names","boundaryPointCount":15},"geometry":{"type":"MultiPolygon","coordinates":[[[[125.405037,12.05859],[125.404648,12.05558],[125.404289,12.05299],[125.405212,12.05027],[125.406143,12.04837],[125.407982,12.04453],[125.408386,12.04277],[125.407356,12.04149],[125.405418,12.04271],[125.404198,12.04396],[125.403214,12.04497],[125.399727,12.03938],[125.381523,12.04501],[125.387466,12.06184],[125.405037,12.05859]]]]}},{"type":"Feature","properties":{"ID_0":177,"ISO":"PHL","NAME_0":"Philippines","ID_1":8026,"NAME_1":"Eastern Samar","ID_2":802606,"NAME_2":"Dolores","ID_3":802606018,"NAME_3":"Magsaysay","NL_NAME_3":null,"VARNAME_3":null,"TYPE_3":"Barangay","ENGTYPE_3":"Village","PROVINCE":"Eastern Samar","REGION":"Region VIII (Eastern Visayas)","id":"barangay-0802606018","name":"Magsaysay","barangayCode":"0802606018","population":null,"formattedPop":null,"densityCategory":"No data","vulnerabilityRating":"No data","healthRiskLevel":"No data","areaKm2":7.795561,"centerLat":12.038157,"centerLng":125.345173,"geometrySource":"all_barangay-2.csv detailed WKT","geometryMatchMethod":"unique_official_admin_names","boundaryPointCount":8},"geometry":{"type":"MultiPolygon","coordinates":[[[[125.341019,12.07744],[125.348572,12.08485],[125.354317,12.0772],[125.362457,12.06927],[125.353233,12.05799],[125.344162,12.06722],[125.335732,12.07387],[125.341019,12.07744]]]]}},{"type":"Feature","properties":{"ID_0":177,"ISO":"PHL","NAME_0":"Philippines","ID_1":8026,"NAME_1":"Eastern Samar","ID_2":802606,"NAME_2":"Dolores","ID_3":802606019,"NAME_3":"Malobago","NL_NAME_3":null,"VARNAME_3":null,"TYPE_3":"Barangay","ENGTYPE_3":"Village","PROVINCE":"Eastern Samar","REGION":"Region VIII (Eastern Visayas)","id":"barangay-0802606019","name":"Malobago","barangayCode":"0802606019","population":null,"formattedPop":null,"densityCategory":"No data","vulnerabilityRating":"No data","healthRiskLevel":"No data","areaKm2":8.138909,"centerLat":12.069685,"centerLng":125.471264,"geometrySource":"all_barangay-2.csv detailed WKT","geometryMatchMethod":"unique_official_admin_names","boundaryPointCount":57},"geometry":{"type":"MultiPolygon","coordinates":[[[[125.410332,12.09519],[125.413551,12.09335],[125.417992,12.09029],[125.422638,12.08787],[125.429367,12.08589],[125.43692,12.08364],[125.445358,12.08179],[125.448921,12.08085],[125.454102,12.08095],[125.459831,12.08045],[125.466614,12.08075],[125.470596,12.08236],[125.474648,12.08447],[125.479233,12.08749],[125.479317,12.08874],[125.479263,12.0901],[125.47921,12.09032],[125.479446,12.09056],[125.480003,12.09056],[125.480827,12.08972],[125.48111,12.08944],[125.48111,12.08917],[125.481392,12.08889],[125.481392,12.08556],[125.481667,12.08528],[125.481667,12.08472],[125.481941,12.08444],[125.481941,12.08417],[125.482224,12.08389],[125.482224,12.08333],[125.481667,12.08278],[125.481667,12.0825],[125.481392,12.08222],[125.481392,12.08194],[125.48111,12.08167],[125.48111,12.08139],[125.480827,12.08111],[125.480827,12.08083],[125.480553,12.08056],[125.480553,12.08028],[125.480278,12.08],[125.480278,12.07972],[125.480003,12.07945],[125.480537,12.07891],[125.480827,12.07861],[125.480827,12.07833],[125.48114,12.07833],[125.481392,12.07833],[125.481941,12.07889],[125.481941,12.07917],[125.482224,12.07917],[125.484108,12.07728],[125.483513,12.0763],[125.482292,12.07602],[125.424553,12.07619],[125.407501,12.07553],[125.410332,12.09519]]]]}},{"type":"Feature","properties":{"ID_0":177,"ISO":"PHL","NAME_0":"Philippines","ID_1":8026,"NAME_1":"Eastern Samar","ID_2":802606,"NAME_2":"Dolores","ID_3":802606020,"NAME_3":"Osmeña","NL_NAME_3":null,"VARNAME_3":"Osmena","TYPE_3":"Barangay","ENGTYPE_3":"Village","PROVINCE":"Eastern Samar","REGION":"Region VIII (Eastern Visayas)","id":"barangay-0802606020","name":"Osmeña","barangayCode":"0802606020","population":null,"formattedPop":null,"densityCategory":"No data","vulnerabilityRating":"No data","healthRiskLevel":"No data","areaKm2":25.674572,"centerLat":12.077507,"centerLng":125.247581,"geometrySource":"all_barangay-2.csv detailed WKT","geometryMatchMethod":"unique_official_admin_names","boundaryPointCount":11},"geometry":{"type":"MultiPolygon","coordinates":[[[[125.291939,12.05305],[125.28347,12.04679],[125.263206,12.03264],[125.241058,12.01695],[125.207626,11.9945],[125.206573,12.00378],[125.206573,12.01773],[125.207176,12.02291],[125.232689,12.03802],[125.285568,12.07159],[125.291939,12.05305]]]]}},{"type":"Feature","properties":{"ID_0":177,"ISO":"PHL","NAME_0":"Philippines","ID_1":8026,"NAME_1":"Eastern Samar","ID_2":802606,"NAME_2":"Dolores","ID_3":802606022,"NAME_3":"Barangay 1","NL_NAME_3":null,"VARNAME_3":null,"TYPE_3":"Barangay","ENGTYPE_3":"Village","PROVINCE":"Eastern Samar","REGION":"Region VIII (Eastern Visayas)","id":"barangay-0802606022","name":"Barangay 1","barangayCode":"0802606022","population":null,"formattedPop":null,"densityCategory":"No data","vulnerabilityRating":"No data","healthRiskLevel":"No data","areaKm2":0.068764,"centerLat":12.034861,"centerLng":125.480718,"geometrySource":"all_barangay-2.csv detailed WKT","geometryMatchMethod":"unique_official_admin_names","boundaryPointCount":9},"geometry":{"type":"MultiPolygon","coordinates":[[[[125.455719,12.03605],[125.462242,12.02519],[125.458351,12.02344],[125.456871,12.02363],[125.451988,12.02424],[125.447861,12.03084],[125.451523,12.03319],[125.453537,12.03484],[125.455719,12.03605]]]]}},{"type":"Feature","properties":{"ID_0":177,"ISO":"PHL","NAME_0":"Philippines","ID_1":8026,"NAME_1":"Eastern Samar","ID_2":802606,"NAME_2":"Dolores","ID_3":802606023,"NAME_3":"Barangay 10","NL_NAME_3":null,"VARNAME_3":null,"TYPE_3":"Barangay","ENGTYPE_3":"Village","PROVINCE":"Eastern Samar","REGION":"Region VIII (Eastern Visayas)","id":"barangay-0802606023","name":"Barangay 10","barangayCode":"0802606023","population":null,"formattedPop":null,"densityCategory":"No data","vulnerabilityRating":"No data","healthRiskLevel":"No data","areaKm2":0.053739,"centerLat":12.036797,"centerLng":125.484241,"geometrySource":"all_barangay-2.csv detailed WKT","geometryMatchMethod":"unique_official_admin_names","boundaryPointCount":10},"geometry":{"type":"MultiPolygon","coordinates":[[[[125.465858,12.04144],[125.472397,12.04401],[125.475456,12.0369],[125.476189,12.03528],[125.476318,12.035],[125.477524,12.0323],[125.473877,12.03106],[125.470757,12.02999],[125.468147,12.03677],[125.465858,12.04144]]]]}},{"type":"Feature","properties":{"ID_0":177,"ISO":"PHL","NAME_0":"Philippines","ID_1":8026,"NAME_1":"Eastern Samar","ID_2":802606,"NAME_2":"Dolores","ID_3":802606024,"NAME_3":"Barangay 11","NL_NAME_3":null,"VARNAME_3":null,"TYPE_3":"Barangay","ENGTYPE_3":"Village","PROVINCE":"Eastern Samar","REGION":"Region VIII (Eastern Visayas)","id":"barangay-0802606024","name":"Barangay 11","barangayCode":"0802606024","population":null,"formattedPop":null,"densityCategory":"No data","vulnerabilityRating":"No data","healthRiskLevel":"No data","areaKm2":0.08752,"centerLat":12.041795,"centerLng":125.480104,"geometrySource":"all_barangay-2.csv detailed WKT","geometryMatchMethod":"unique_official_admin_names","boundaryPointCount":9},"geometry":{"type":"MultiPolygon","coordinates":[[[[125.460274,12.05598],[125.463097,12.05185],[125.468063,12.0447],[125.471367,12.04595],[125.472397,12.04401],[125.465858,12.04144],[125.460007,12.05006],[125.456917,12.05466],[125.460274,12.05598]]]]}},{"type":"Feature","properties":{"ID_0":177,"ISO":"PHL","NAME_0":"Philippines","ID_1":8026,"NAME_1":"Eastern Samar","ID_2":802606,"NAME_2":"Dolores","ID_3":802606025,"NAME_3":"Barangay 12","NL_NAME_3":null,"VARNAME_3":null,"TYPE_3":"Barangay","ENGTYPE_3":"Village","PROVINCE":"Eastern Samar","REGION":"Region VIII (Eastern Visayas)","id":"barangay-0802606025","name":"Barangay 12","barangayCode":"0802606025","population":null,"formattedPop":null,"densityCategory":"No data","vulnerabilityRating":"No data","healthRiskLevel":"No data","areaKm2":0.30881,"centerLat":12.036037,"centerLng":125.48915,"geometrySource":"all_barangay-2.csv detailed WKT","geometryMatchMethod":"unique_official_admin_names","boundaryPointCount":25},"geometry":{"type":"MultiPolygon","coordinates":[[[[125.491943,12.03745],[125.491943,12.03694],[125.491669,12.03667],[125.491669,12.03639],[125.491943,12.03611],[125.491943,12.03472],[125.492233,12.03444],[125.492233,12.03361],[125.491386,12.03278],[125.491112,12.03278],[125.490837,12.0325],[125.490547,12.03278],[125.490463,12.03278],[125.49025,12.03348],[125.489723,12.03395],[125.489342,12.03396],[125.486847,12.03339],[125.482841,12.03347],[125.479202,12.03283],[125.477524,12.0323],[125.476318,12.035],[125.476189,12.03528],[125.475456,12.0369],[125.489479,12.03744],[125.491943,12.03745]]]]}},{"type":"Feature","properties":{"ID_0":177,"ISO":"PHL","NAME_0":"Philippines","ID_1":8026,"NAME_1":"Eastern Samar","ID_2":802606,"NAME_2":"Dolores","ID_3":802606026,"NAME_3":"Barangay 13","NL_NAME_3":null,"VARNAME_3":null,"TYPE_3":"Barangay","ENGTYPE_3":"Village","PROVINCE":"Eastern Samar","REGION":"Region VIII (Eastern Visayas)","id":"barangay-0802606026","name":"Barangay 13","barangayCode":"0802606026","population":null,"formattedPop":null,"densityCategory":"No data","vulnerabilityRating":"No data","healthRiskLevel":"No data","areaKm2":0.158932,"centerLat":12.038859,"centerLng":125.487953,"geometrySource":"all_barangay-2.csv detailed WKT","geometryMatchMethod":"unique_official_admin_names","boundaryPointCount":10},"geometry":{"type":"MultiPolygon","coordinates":[[[[125.472397,12.04401],[125.47538,12.04493],[125.476379,12.04253],[125.488922,12.04095],[125.490646,12.04061],[125.491943,12.04038],[125.491943,12.03745],[125.489479,12.03744],[125.475456,12.0369],[125.472397,12.04401]]]]}},{"type":"Feature","properties":{"ID_0":177,"ISO":"PHL","NAME_0":"Philippines","ID_1":8026,"NAME_1":"Eastern Samar","ID_2":802606,"NAME_2":"Dolores","ID_3":802606027,"NAME_3":"Barangay 14","NL_NAME_3":null,"VARNAME_3":null,"TYPE_3":"Barangay","ENGTYPE_3":"Village","PROVINCE":"Eastern Samar","REGION":"Region VIII (Eastern Visayas)","id":"barangay-0802606027","name":"Barangay 14","barangayCode":"0802606027","population":null,"formattedPop":null,"densityCategory":"No data","vulnerabilityRating":"No data","healthRiskLevel":"No data","areaKm2":0.443646,"centerLat":12.044216,"centerLng":125.481349,"geometrySource":"all_barangay-2.csv detailed WKT","geometryMatchMethod":"unique_official_admin_names","boundaryPointCount":19},"geometry":{"type":"MultiPolygon","coordinates":[[[[125.476837,12.05458],[125.47802,12.05454],[125.48008,12.05443],[125.482101,12.05518],[125.483238,12.05523],[125.485847,12.05535],[125.488724,12.05437],[125.488113,12.05407],[125.471367,12.04595],[125.468063,12.0447],[125.463097,12.05185],[125.460274,12.05598],[125.463791,12.05619],[125.467949,12.05625],[125.469887,12.05574],[125.471069,12.0556],[125.472717,12.0552],[125.474899,12.05473],[125.476837,12.05458]]]]}},{"type":"Feature","properties":{"ID_0":177,"ISO":"PHL","NAME_0":"Philippines","ID_1":8026,"NAME_1":"Eastern Samar","ID_2":802606,"NAME_2":"Dolores","ID_3":802606028,"NAME_3":"Barangay 15","NL_NAME_3":null,"VARNAME_3":null,"TYPE_3":"Barangay","ENGTYPE_3":"Village","PROVINCE":"Eastern Samar","REGION":"Region VIII (Eastern Visayas)","id":"barangay-0802606028","name":"Barangay 15","barangayCode":"0802606028","population":null,"formattedPop":null,"densityCategory":"No data","vulnerabilityRating":"No data","healthRiskLevel":"No data","areaKm2":1.488288,"centerLat":12.046177,"centerLng":125.488943,"geometrySource":"all_barangay-2.csv detailed WKT","geometryMatchMethod":"unique_official_admin_names","boundaryPointCount":24},"geometry":{"type":"MultiPolygon","coordinates":[[[[125.498077,12.04808],[125.49778,12.04778],[125.497498,12.04778],[125.496948,12.04722],[125.496109,12.04639],[125.496109,12.04611],[125.493332,12.04333],[125.493332,12.04306],[125.492767,12.0425],[125.492767,12.04222],[125.492233,12.04167],[125.492233,12.04083],[125.491943,12.04056],[125.491943,12.04038],[125.490646,12.04061],[125.488922,12.04095],[125.476379,12.04253],[125.47538,12.04493],[125.472397,12.04401],[125.471367,12.04595],[125.488113,12.05407],[125.488724,12.05437],[125.495697,12.04983],[125.498077,12.04808]]]]}},{"type":"Feature","properties":{"ID_0":177,"ISO":"PHL","NAME_0":"Philippines","ID_1":8026,"NAME_1":"Eastern Samar","ID_2":802606,"NAME_2":"Dolores","ID_3":802606029,"NAME_3":"Barangay 2","NL_NAME_3":null,"VARNAME_3":null,"TYPE_3":"Barangay","ENGTYPE_3":"Village","PROVINCE":"Eastern Samar","REGION":"Region VIII (Eastern Visayas)","id":"barangay-0802606029","name":"Barangay 2","barangayCode":"0802606029","population":null,"formattedPop":null,"densityCategory":"No data","vulnerabilityRating":"No data","healthRiskLevel":"No data","areaKm2":1.059855,"centerLat":12.037743,"centerLng":125.475426,"geometrySource":"all_barangay-2.csv detailed WKT","geometryMatchMethod":"unique_official_admin_names","boundaryPointCount":14},"geometry":{"type":"MultiPolygon","coordinates":[[[[125.447403,12.05081],[125.450272,12.04596],[125.450859,12.04481],[125.455719,12.03605],[125.453537,12.03484],[125.451523,12.03319],[125.447861,12.03084],[125.447189,12.03486],[125.447594,12.03798],[125.446411,12.04074],[125.445602,12.0431],[125.443611,12.0448],[125.441406,12.04724],[125.447403,12.05081]]]]}},{"type":"Feature","properties":{"ID_0":177,"ISO":"PHL","NAME_0":"Philippines","ID_1":8026,"NAME_1":"Eastern Samar","ID_2":802606,"NAME_2":"Dolores","ID_3":802606030,"NAME_3":"Barangay 3","NL_NAME_3":null,"VARNAME_3":null,"TYPE_3":"Barangay","ENGTYPE_3":"Village","PROVINCE":"Eastern Samar","REGION":"Region VIII (Eastern Visayas)","id":"barangay-0802606030","name":"Barangay 3","barangayCode":"0802606030","population":null,"formattedPop":null,"densityCategory":"No data","vulnerabilityRating":"No data","healthRiskLevel":"No data","areaKm2":0.017224,"centerLat":12.035874,"centerLng":125.482325,"geometrySource":"all_barangay-2.csv detailed WKT","geometryMatchMethod":"unique_official_admin_names","boundaryPointCount":5},"geometry":{"type":"MultiPolygon","coordinates":[[[[125.458687,12.03791],[125.465279,12.02706],[125.462242,12.02519],[125.455719,12.03605],[125.458687,12.03791]]]]}},{"type":"Feature","properties":{"ID_0":177,"ISO":"PHL","NAME_0":"Philippines","ID_1":8026,"NAME_1":"Eastern Samar","ID_2":802606,"NAME_2":"Dolores","ID_3":802606031,"NAME_3":"Barangay 4","NL_NAME_3":null,"VARNAME_3":null,"TYPE_3":"Barangay","ENGTYPE_3":"Village","PROVINCE":"Eastern Samar","REGION":"Region VIII (Eastern Visayas)","id":"barangay-0802606031","name":"Barangay 4","barangayCode":"0802606031","population":null,"formattedPop":null,"densityCategory":"No data","vulnerabilityRating":"No data","healthRiskLevel":"No data","areaKm2":0.081728,"centerLat":12.041336,"centerLng":125.478089,"geometrySource":"all_barangay-2.csv detailed WKT","geometryMatchMethod":"unique_official_admin_names","boundaryPointCount":10},"geometry":{"type":"MultiPolygon","coordinates":[[[[125.447403,12.05081],[125.449203,12.0517],[125.450974,12.05242],[125.45343,12.04757],[125.454086,12.04663],[125.458687,12.03791],[125.455719,12.03605],[125.450859,12.04481],[125.450272,12.04596],[125.447403,12.05081]]]]}},{"type":"Feature","properties":{"ID_0":177,"ISO":"PHL","NAME_0":"Philippines","ID_1":8026,"NAME_1":"Eastern Samar","ID_2":802606,"NAME_2":"Dolores","ID_3":802606032,"NAME_3":"Barangay 5","NL_NAME_3":null,"VARNAME_3":null,"TYPE_3":"Barangay","ENGTYPE_3":"Village","PROVINCE":"Eastern Samar","REGION":"Region VIII (Eastern Visayas)","id":"barangay-0802606032","name":"Barangay 5","barangayCode":"0802606032","population":null,"formattedPop":null,"densityCategory":"No data","vulnerabilityRating":"No data","healthRiskLevel":"No data","areaKm2":0.014835,"centerLat":12.036097,"centerLng":125.482736,"geometrySource":"all_barangay-2.csv detailed WKT","geometryMatchMethod":"unique_official_admin_names","boundaryPointCount":8},"geometry":{"type":"MultiPolygon","coordinates":[[[[125.462303,12.03991],[125.464508,12.03535],[125.467712,12.02819],[125.466743,12.02774],[125.466583,12.02766],[125.465279,12.02706],[125.458687,12.03791],[125.462303,12.03991]]]]}},{"type":"Feature","properties":{"ID_0":177,"ISO":"PHL","NAME_0":"Philippines","ID_1":8026,"NAME_1":"Eastern Samar","ID_2":802606,"NAME_2":"Dolores","ID_3":802606033,"NAME_3":"Barangay 6","NL_NAME_3":null,"VARNAME_3":null,"TYPE_3":"Barangay","ENGTYPE_3":"Village","PROVINCE":"Eastern Samar","REGION":"Region VIII (Eastern Visayas)","id":"barangay-0802606033","name":"Barangay 6","barangayCode":"0802606033","population":null,"formattedPop":null,"densityCategory":"No data","vulnerabilityRating":"No data","healthRiskLevel":"No data","areaKm2":0.06721,"centerLat":12.041722,"centerLng":125.478553,"geometrySource":"all_barangay-2.csv detailed WKT","geometryMatchMethod":"unique_official_admin_names","boundaryPointCount":9},"geometry":{"type":"MultiPolygon","coordinates":[[[[125.450974,12.05242],[125.452362,12.05306],[125.453644,12.05352],[125.457031,12.04821],[125.462303,12.03991],[125.458687,12.03791],[125.454086,12.04663],[125.45343,12.04757],[125.450974,12.05242]]]]}},{"type":"Feature","properties":{"ID_0":177,"ISO":"PHL","NAME_0":"Philippines","ID_1":8026,"NAME_1":"Eastern Samar","ID_2":802606,"NAME_2":"Dolores","ID_3":802606034,"NAME_3":"Barangay 7","NL_NAME_3":null,"VARNAME_3":null,"TYPE_3":"Barangay","ENGTYPE_3":"Village","PROVINCE":"Eastern Samar","REGION":"Region VIII (Eastern Visayas)","id":"barangay-0802606034","name":"Barangay 7","barangayCode":"0802606034","population":null,"formattedPop":null,"densityCategory":"No data","vulnerabilityRating":"No data","healthRiskLevel":"No data","areaKm2":0.11842,"centerLat":12.031912,"centerLng":125.485465,"geometrySource":"all_barangay-2.csv detailed WKT","geometryMatchMethod":"unique_official_admin_names","boundaryPointCount":5},"geometry":{"type":"MultiPolygon","coordinates":[[[[125.468147,12.03677],[125.470757,12.02999],[125.467712,12.02819],[125.464508,12.03535],[125.468147,12.03677]]]]}},{"type":"Feature","properties":{"ID_0":177,"ISO":"PHL","NAME_0":"Philippines","ID_1":8026,"NAME_1":"Eastern Samar","ID_2":802606,"NAME_2":"Dolores","ID_3":802606035,"NAME_3":"Barangay 8","NL_NAME_3":null,"VARNAME_3":null,"TYPE_3":"Barangay","ENGTYPE_3":"Village","PROVINCE":"Eastern Samar","REGION":"Region VIII (Eastern Visayas)","id":"barangay-0802606035","name":"Barangay 8","barangayCode":"0802606035","population":null,"formattedPop":null,"densityCategory":"No data","vulnerabilityRating":"No data","healthRiskLevel":"No data","areaKm2":0.009645,"centerLat":12.03718,"centerLng":125.482684,"geometrySource":"all_barangay-2.csv detailed WKT","geometryMatchMethod":"unique_official_admin_names","boundaryPointCount":5},"geometry":{"type":"MultiPolygon","coordinates":[[[[125.462303,12.03991],[125.465858,12.04144],[125.468147,12.03677],[125.464508,12.03535],[125.462303,12.03991]]]]}},{"type":"Feature","properties":{"ID_0":177,"ISO":"PHL","NAME_0":"Philippines","ID_1":8026,"NAME_1":"Eastern Samar","ID_2":802606,"NAME_2":"Dolores","ID_3":802606036,"NAME_3":"Barangay 9","NL_NAME_3":null,"VARNAME_3":null,"TYPE_3":"Barangay","ENGTYPE_3":"Village","PROVINCE":"Eastern Samar","REGION":"Region VIII (Eastern Visayas)","id":"barangay-0802606036","name":"Barangay 9","barangayCode":"0802606036","population":null,"formattedPop":null,"densityCategory":"No data","vulnerabilityRating":"No data","healthRiskLevel":"No data","areaKm2":0.081823,"centerLat":12.041561,"centerLng":125.479408,"geometrySource":"all_barangay-2.csv detailed WKT","geometryMatchMethod":"unique_official_admin_names","boundaryPointCount":7},"geometry":{"type":"MultiPolygon","coordinates":[[[[125.456917,12.05466],[125.460007,12.05006],[125.465858,12.04144],[125.462303,12.03991],[125.457031,12.04821],[125.453644,12.05352],[125.456917,12.05466]]]]}},{"type":"Feature","properties":{"ID_0":177,"ISO":"PHL","NAME_0":"Philippines","ID_1":8026,"NAME_1":"Eastern Samar","ID_2":802606,"NAME_2":"Dolores","ID_3":802606037,"NAME_3":"Rizal","NL_NAME_3":null,"VARNAME_3":null,"TYPE_3":"Barangay","ENGTYPE_3":"Village","PROVINCE":"Eastern Samar","REGION":"Region VIII (Eastern Visayas)","id":"barangay-0802606037","name":"Rizal","barangayCode":"0802606037","population":null,"formattedPop":null,"densityCategory":"No data","vulnerabilityRating":"No data","healthRiskLevel":"No data","areaKm2":5.832331,"centerLat":12.092342,"centerLng":125.292416,"geometrySource":"all_barangay-2.csv detailed WKT","geometryMatchMethod":"unique_official_admin_names","boundaryPointCount":11},"geometry":{"type":"MultiPolygon","coordinates":[[[[125.291023,12.10061],[125.290543,12.09774],[125.289589,12.09606],[125.288422,12.09373],[125.232689,12.03802],[125.207176,12.02291],[125.207916,12.03162],[125.209679,12.04631],[125.213341,12.06089],[125.217194,12.07538],[125.291023,12.10061]]]]}},{"type":"Feature","properties":{"ID_0":177,"ISO":"PHL","NAME_0":"Philippines","ID_1":8026,"NAME_1":"Eastern Samar","ID_2":802606,"NAME_2":"Dolores","ID_3":802606038,"NAME_3":"San Isidro","NL_NAME_3":null,"VARNAME_3":null,"TYPE_3":"Barangay","ENGTYPE_3":"Village","PROVINCE":"Eastern Samar","REGION":"Region VIII (Eastern Visayas)","id":"barangay-0802606038","name":"San Isidro","barangayCode":"0802606038","population":null,"formattedPop":null,"densityCategory":"No data","vulnerabilityRating":"No data","healthRiskLevel":"No data","areaKm2":5.866917,"centerLat":12.068224,"centerLng":125.408267,"geometrySource":"all_barangay-2.csv detailed WKT","geometryMatchMethod":"unique_official_admin_names","boundaryPointCount":19},"geometry":{"type":"MultiPolygon","coordinates":[[[[125.424553,12.07619],[125.419617,12.07046],[125.415398,12.06598],[125.414146,12.06126],[125.413116,12.06058],[125.412216,12.05879],[125.41317,12.05839],[125.414124,12.05753],[125.412437,12.05571],[125.411453,12.05596],[125.409897,12.0584],[125.409561,12.06015],[125.409409,12.06205],[125.408493,12.06277],[125.40699,12.06181],[125.405037,12.05859],[125.387466,12.06184],[125.407501,12.07553],[125.424553,12.07619]]]]}},{"type":"Feature","properties":{"ID_0":177,"ISO":"PHL","NAME_0":"Philippines","ID_1":8026,"NAME_1":"Eastern Samar","ID_2":802606,"NAME_2":"Dolores","ID_3":802606039,"NAME_3":"San Pascual","NL_NAME_3":null,"VARNAME_3":null,"TYPE_3":"Barangay","ENGTYPE_3":"Village","PROVINCE":"Eastern Samar","REGION":"Region VIII (Eastern Visayas)","id":"barangay-0802606039","name":"San Pascual","barangayCode":"0802606039","population":null,"formattedPop":null,"densityCategory":"No data","vulnerabilityRating":"No data","healthRiskLevel":"No data","areaKm2":16.287301,"centerLat":12.120973,"centerLng":125.293363,"geometrySource":"all_barangay-2.csv detailed WKT","geometryMatchMethod":"unique_official_admin_names","boundaryPointCount":30},"geometry":{"type":"MultiPolygon","coordinates":[[[[125.322708,12.14589],[125.334137,12.13989],[125.333344,12.13792],[125.332382,12.13609],[125.331612,12.13459],[125.331802,12.1333],[125.331589,12.13179],[125.330299,12.13076],[125.329201,12.13097],[125.328323,12.13112],[125.325851,12.13163],[125.325157,12.13163],[125.323914,12.13227],[125.322792,12.1345],[125.32206,12.13518],[125.320686,12.13554],[125.319481,12.13669],[125.317902,12.13712],[125.316391,12.13709],[125.315147,12.1367],[125.313347,12.1358],[125.311813,12.13581],[125.310188,12.13567],[125.308723,12.13531],[125.306664,12.13356],[125.305794,12.13094],[125.305267,12.12912],[125.292068,12.13448],[125.299339,12.15425],[125.322708,12.14589]]]]}},{"type":"Feature","properties":{"ID_0":177,"ISO":"PHL","NAME_0":"Philippines","ID_1":8026,"NAME_1":"Eastern Samar","ID_2":802606,"NAME_2":"Dolores","ID_3":802606040,"NAME_3":"San Roque","NL_NAME_3":null,"VARNAME_3":null,"TYPE_3":"Barangay","ENGTYPE_3":"Village","PROVINCE":"Eastern Samar","REGION":"Region VIII (Eastern Visayas)","id":"barangay-0802606040","name":"San Roque","barangayCode":"0802606040","population":null,"formattedPop":null,"densityCategory":"No data","vulnerabilityRating":"No data","healthRiskLevel":"No data","areaKm2":7.592761,"centerLat":12.085882,"centerLng":125.340353,"geometrySource":"all_barangay-2.csv detailed WKT","geometryMatchMethod":"unique_official_admin_names","boundaryPointCount":21},"geometry":{"type":"MultiPolygon","coordinates":[[[[125.349426,12.12705],[125.358673,12.11795],[125.353477,12.10678],[125.351608,12.10359],[125.34761,12.09976],[125.342987,12.09855],[125.340714,12.0969],[125.336418,12.09336],[125.334373,12.09025],[125.333679,12.08785],[125.328949,12.08373],[125.319962,12.09027],[125.309433,12.09796],[125.333023,12.11731],[125.336281,12.12014],[125.338814,12.12225],[125.341049,12.12343],[125.342216,12.12597],[125.342537,12.12862],[125.342903,12.13307],[125.349426,12.12705]]]]}},{"type":"Feature","properties":{"ID_0":177,"ISO":"PHL","NAME_0":"Philippines","ID_1":8026,"NAME_1":"Eastern Samar","ID_2":802606,"NAME_2":"Dolores","ID_3":802606041,"NAME_3":"San Vicente","NL_NAME_3":null,"VARNAME_3":null,"TYPE_3":"Barangay","ENGTYPE_3":"Village","PROVINCE":"Eastern Samar","REGION":"Region VIII (Eastern Visayas)","id":"barangay-0802606041","name":"San Vicente","barangayCode":"0802606041","population":null,"formattedPop":null,"densityCategory":"No data","vulnerabilityRating":"No data","healthRiskLevel":"No data","areaKm2":6.299556,"centerLat":12.1079,"centerLng":125.272856,"geometrySource":"all_barangay-2.csv detailed WKT","geometryMatchMethod":"unique_official_admin_names","boundaryPointCount":26},"geometry":{"type":"MultiPolygon","coordinates":[[[[125.305267,12.12912],[125.304733,12.127],[125.30407,12.12532],[125.303421,12.12238],[125.303833,12.12077],[125.303307,12.11994],[125.301514,12.11966],[125.300926,12.11923],[125.300713,12.11737],[125.300323,12.11529],[125.29995,12.11472],[125.29763,12.11329],[125.295433,12.11186],[125.294449,12.10978],[125.293503,12.10752],[125.293129,12.10552],[125.291023,12.10061],[125.290787,12.1024],[125.290077,12.10434],[125.288902,12.10689],[125.287132,12.10893],[125.286392,12.11169],[125.286278,12.11349],[125.284866,12.11478],[125.292068,12.13448],[125.305267,12.12912]]]]}},{"type":"Feature","properties":{"ID_0":177,"ISO":"PHL","NAME_0":"Philippines","ID_1":8026,"NAME_1":"Eastern Samar","ID_2":802606,"NAME_2":"Dolores","ID_3":802606042,"NAME_3":"Santa Cruz","NL_NAME_3":null,"VARNAME_3":null,"TYPE_3":"Barangay","ENGTYPE_3":"Village","PROVINCE":"Eastern Samar","REGION":"Region VIII (Eastern Visayas)","id":"barangay-0802606042","name":"Santa Cruz","barangayCode":"0802606042","population":null,"formattedPop":null,"densityCategory":"No data","vulnerabilityRating":"No data","healthRiskLevel":"No data","areaKm2":7.024918,"centerLat":12.067651,"centerLng":125.34987,"geometrySource":"all_barangay-2.csv detailed WKT","geometryMatchMethod":"unique_official_admin_names","boundaryPointCount":29},"geometry":{"type":"MultiPolygon","coordinates":[[[[125.372993,12.10658],[125.38324,12.10087],[125.380783,12.09637],[125.378677,12.0944],[125.377838,12.0934],[125.374474,12.09165],[125.373444,12.09083],[125.371712,12.08965],[125.370277,12.08829],[125.369987,12.08639],[125.369148,12.08535],[125.368858,12.0841],[125.36438,12.08192],[125.361923,12.08085],[125.354317,12.0772],[125.348572,12.08485],[125.341019,12.07744],[125.328949,12.08373],[125.333679,12.08785],[125.334373,12.09025],[125.336418,12.09336],[125.340714,12.0969],[125.342987,12.09855],[125.34761,12.09976],[125.351608,12.10359],[125.353477,12.10678],[125.358673,12.11795],[125.363586,12.11373],[125.372993,12.10658]]]]}},{"type":"Feature","properties":{"ID_0":177,"ISO":"PHL","NAME_0":"Philippines","ID_1":8026,"NAME_1":"Eastern Samar","ID_2":802606,"NAME_2":"Dolores","ID_3":802606043,"NAME_3":"Santo Niño","NL_NAME_3":null,"VARNAME_3":"Santo Nino","TYPE_3":"Barangay","ENGTYPE_3":"Village","PROVINCE":"Eastern Samar","REGION":"Region VIII (Eastern Visayas)","id":"barangay-0802606043","name":"Santo Niño","barangayCode":"0802606043","population":null,"formattedPop":null,"densityCategory":"No data","vulnerabilityRating":"No data","healthRiskLevel":"No data","areaKm2":8.824433,"centerLat":12.056611,"centerLng":125.434204,"geometrySource":"all_barangay-2.csv detailed WKT","geometryMatchMethod":"unique_official_admin_names","boundaryPointCount":9},"geometry":{"type":"MultiPolygon","coordinates":[[[[125.446281,12.069],[125.420677,12.05444],[125.418579,12.05602],[125.41758,12.05892],[125.416618,12.06086],[125.414146,12.06126],[125.415398,12.06598],[125.419617,12.07046],[125.446281,12.069]]]]}},{"type":"Feature","properties":{"ID_0":177,"ISO":"PHL","NAME_0":"Philippines","ID_1":8026,"NAME_1":"Eastern Samar","ID_2":802606,"NAME_2":"Dolores","ID_3":802606044,"NAME_3":"Tanauan","NL_NAME_3":null,"VARNAME_3":null,"TYPE_3":"Barangay","ENGTYPE_3":"Village","PROVINCE":"Eastern Samar","REGION":"Region VIII (Eastern Visayas)","id":"barangay-0802606044","name":"Tanauan","barangayCode":"0802606044","population":null,"formattedPop":null,"densityCategory":"No data","vulnerabilityRating":"No data","healthRiskLevel":"No data","areaKm2":1.536376,"centerLat":12.050047,"centerLng":125.415128,"geometrySource":"all_barangay-2.csv detailed WKT","geometryMatchMethod":"unique_official_admin_names","boundaryPointCount":31},"geometry":{"type":"MultiPolygon","coordinates":[[[[125.414146,12.06126],[125.416618,12.06086],[125.41758,12.05892],[125.418579,12.05602],[125.420677,12.05444],[125.408546,12.03718],[125.404533,12.03791],[125.399727,12.03938],[125.403214,12.04497],[125.404198,12.04396],[125.405418,12.04271],[125.407356,12.04149],[125.408386,12.04277],[125.407982,12.04453],[125.406143,12.04837],[125.405212,12.05027],[125.404289,12.05299],[125.404648,12.05558],[125.405037,12.05859],[125.40699,12.06181],[125.408493,12.06277],[125.409409,12.06205],[125.409561,12.06015],[125.409897,12.0584],[125.411453,12.05596],[125.412437,12.05571],[125.414124,12.05753],[125.41317,12.05839],[125.412216,12.05879],[125.413116,12.06058],[125.414146,12.06126]]]]}},{"type":"Feature","properties":{"ID_0":177,"ISO":"PHL","NAME_0":"Philippines","ID_1":8026,"NAME_1":"Eastern Samar","ID_2":802606,"NAME_2":"Dolores","ID_3":802606046,"NAME_3":"Villahermosa","NL_NAME_3":null,"VARNAME_3":null,"TYPE_3":"Barangay","ENGTYPE_3":"Village","PROVINCE":"Eastern Samar","REGION":"Region VIII (Eastern Visayas)","id":"barangay-0802606046","name":"Villahermosa","barangayCode":"0802606046","population":null,"formattedPop":null,"densityCategory":"No data","vulnerabilityRating":"No data","healthRiskLevel":"No data","areaKm2":10.235561,"centerLat":12.1116,"centerLng":125.248089,"geometrySource":"all_barangay-2.csv detailed WKT","geometryMatchMethod":"unique_official_admin_names","boundaryPointCount":35},"geometry":{"type":"MultiPolygon","coordinates":[[[[125.284866,12.11478],[125.286278,12.11349],[125.286392,12.11169],[125.287132,12.10893],[125.288902,12.10689],[125.290077,12.10434],[125.290787,12.1024],[125.291023,12.10061],[125.217194,12.07538],[125.219856,12.08342],[125.226959,12.09793],[125.233704,12.10949],[125.239616,12.12076],[125.244919,12.11976],[125.246063,12.11936],[125.248077,12.11911],[125.249588,12.11903],[125.251167,12.11899],[125.252853,12.11949],[125.254471,12.11888],[125.256599,12.11981],[125.257736,12.12013],[125.258842,12.11948],[125.259659,12.11686],[125.260178,12.11547],[125.263298,12.11621],[125.265457,12.11757],[125.266747,12.11872],[125.268837,12.12007],[125.270348,12.11882],[125.274147,12.11576],[125.278152,12.11382],[125.280403,12.1136],[125.283257,12.11439],[125.284866,12.11478]]]]}},{"type":"Feature","properties":{"ID_0":177,"ISO":"PHL","NAME_0":"Philippines","ID_1":8026,"NAME_1":"Eastern Samar","ID_2":802606,"NAME_2":"Dolores","ID_3":802606047,"NAME_3":"Bonghon","NL_NAME_3":null,"VARNAME_3":null,"TYPE_3":"Barangay","ENGTYPE_3":"Village","PROVINCE":"Eastern Samar","REGION":"Region VIII (Eastern Visayas)","id":"barangay-0802606047","name":"Bonghon","barangayCode":"0802606047","population":null,"formattedPop":null,"densityCategory":"No data","vulnerabilityRating":"No data","healthRiskLevel":"No data","areaKm2":5.925886,"centerLat":12.046976,"centerLng":125.458515,"geometrySource":"all_barangay-2.csv detailed WKT","geometryMatchMethod":"unique_official_admin_names","boundaryPointCount":10},"geometry":{"type":"MultiPolygon","coordinates":[[[[125.446281,12.069],[125.466171,12.06924],[125.433907,12.05381],[125.430794,12.05209],[125.4291,12.05127],[125.426933,12.05149],[125.424469,12.05267],[125.421082,12.05404],[125.420677,12.05444],[125.446281,12.069]]]]}},{"type":"Feature","properties":{"ID_0":177,"ISO":"PHL","NAME_0":"Philippines","ID_1":8026,"NAME_1":"Eastern Samar","ID_2":802606,"NAME_2":"Dolores","ID_3":802606048,"NAME_3":"Malaintos","NL_NAME_3":null,"VARNAME_3":null,"TYPE_3":"Barangay","ENGTYPE_3":"Village","PROVINCE":"Eastern Samar","REGION":"Region VIII (Eastern Visayas)","id":"barangay-0802606048","name":"Malaintos","barangayCode":"0802606048","population":null,"formattedPop":null,"densityCategory":"No data","vulnerabilityRating":"No data","healthRiskLevel":"No data","areaKm2":3.767583,"centerLat":12.030237,"centerLng":125.463295,"geometrySource":"all_barangay-2.csv detailed WKT","geometryMatchMethod":"unique_official_admin_names","boundaryPointCount":25},"geometry":{"type":"MultiPolygon","coordinates":[[[[125.466171,12.06924],[125.476982,12.06907],[125.47963,12.06885],[125.485222,12.0665],[125.476837,12.05458],[125.474899,12.05473],[125.472717,12.0552],[125.471069,12.0556],[125.469887,12.05574],[125.467949,12.05625],[125.463791,12.05619],[125.460274,12.05598],[125.456917,12.05466],[125.453644,12.05352],[125.452362,12.05306],[125.450974,12.05242],[125.449203,12.0517],[125.447403,12.05081],[125.441406,12.04724],[125.440437,12.04979],[125.439453,12.0514],[125.437653,12.0527],[125.435699,12.05313],[125.433907,12.05381],[125.466171,12.06924]]]]}},{"type":"Feature","properties":{"ID_0":177,"ISO":"PHL","NAME_0":"Philippines","ID_1":8026,"NAME_1":"Eastern Samar","ID_2":802606,"NAME_2":"Dolores","ID_3":802606049,"NAME_3":"Tikling","NL_NAME_3":null,"VARNAME_3":null,"TYPE_3":"Barangay","ENGTYPE_3":"Village","PROVINCE":"Eastern Samar","REGION":"Region VIII (Eastern Visayas)","id":"barangay-0802606049","name":"Tikling","barangayCode":"0802606049","population":null,"formattedPop":null,"densityCategory":"No data","vulnerabilityRating":"No data","healthRiskLevel":"No data","areaKm2":0.718787,"centerLat":12.017481,"centerLng":125.557972,"geometrySource":"all_barangay-2.csv detailed WKT","geometryMatchMethod":"unique_official_admin_names","boundaryPointCount":11},"geometry":{"type":"MultiPolygon","coordinates":[[[[125.42955,12.03116],[125.441406,12.04724],[125.443611,12.0448],[125.445602,12.0431],[125.446411,12.04074],[125.447594,12.03798],[125.447189,12.03486],[125.447861,12.03084],[125.451988,12.02424],[125.43557,12.02954],[125.42955,12.03116]]]]}}]}
