{"type":"FeatureCollection","features":[{"type":"Feature","properties":{"ID_0":177,"ISO":"PHL","NAME_0":"Philippines","ID_1":4010,"NAME_1":"Batangas","ID_2":401002,"NAME_2":"Alitagtag","ID_3":401002001,"NAME_3":"Balagbag","NL_NAME_3":null,"VARNAME_3":null,"TYPE_3":"Barangay","ENGTYPE_3":"Village","PROVINCE":"Batangas","REGION":"Region IV-A (Calabarzon)","id":"barangay-0401002001","name":"Balagbag","barangayCode":"0401002001","population":null,"formattedPop":null,"densityCategory":"No data","vulnerabilityRating":"No data","healthRiskLevel":"No data","areaKm2":0.658532,"centerLat":13.867269,"centerLng":121.013592,"geometrySource":"all_barangay-2.csv detailed WKT","geometryMatchMethod":"unique_official_admin_names","boundaryPointCount":12},"geometry":{"type":"MultiPolygon","coordinates":[[[[121.016937,13.87513],[121.01545,13.86695],[121.014374,13.86135],[121.00972,13.8614],[121.010139,13.8635],[121.010696,13.86612],[121.011047,13.86711],[121.012108,13.87322],[121.012947,13.8736],[121.014503,13.87393],[121.01545,13.87449],[121.016937,13.87513]]]]}},{"type":"Feature","properties":{"ID_0":177,"ISO":"PHL","NAME_0":"Philippines","ID_1":4010,"NAME_1":"Batangas","ID_2":401002,"NAME_2":"Alitagtag","ID_3":401002002,"NAME_3":"Concepcion","NL_NAME_3":null,"VARNAME_3":null,"TYPE_3":"Barangay","ENGTYPE_3":"Village","PROVINCE":"Batangas","REGION":"Region IV-A (Calabarzon)","id":"barangay-0401002002","name":"Concepcion","barangayCode":"0401002002","population":null,"formattedPop":null,"densityCategory":"No data","vulnerabilityRating":"No data","healthRiskLevel":"No data","areaKm2":0.704446,"centerLat":13.866596,"centerLng":121.017649,"geometrySource":"all_barangay-2.csv detailed WKT","geometryMatchMethod":"unique_official_admin_names","boundaryPointCount":11},"geometry":{"type":"MultiPolygon","coordinates":[[[[121.02063,13.87606],[121.02095,13.87496],[121.019814,13.86671],[121.019417,13.85911],[121.016434,13.86047],[121.014374,13.86135],[121.01545,13.86695],[121.016937,13.87513],[121.018051,13.87568],[121.018913,13.87613],[121.02063,13.87606]]]]}},{"type":"Feature","properties":{"ID_0":177,"ISO":"PHL","NAME_0":"Philippines","ID_1":4010,"NAME_1":"Batangas","ID_2":401002,"NAME_2":"Alitagtag","ID_3":401002003,"NAME_3":"Concordia","NL_NAME_3":null,"VARNAME_3":null,"TYPE_3":"Barangay","ENGTYPE_3":"Village","PROVINCE":"Batangas","REGION":"Region IV-A (Calabarzon)","id":"barangay-0401002003","name":"Concordia","barangayCode":"0401002003","population":null,"formattedPop":null,"densityCategory":"No data","vulnerabilityRating":"No data","healthRiskLevel":"No data","areaKm2":1.347104,"centerLat":13.850948,"centerLng":121.024089,"geometrySource":"all_barangay-2.csv detailed WKT","geometryMatchMethod":"unique_official_admin_names","boundaryPointCount":23},"geometry":{"type":"MultiPolygon","coordinates":[[[[121.019417,13.85911],[121.026588,13.85397],[121.03318,13.85544],[121.043068,13.85558],[121.041908,13.85411],[121.040878,13.85306],[121.03978,13.85234],[121.03817,13.85159],[121.036209,13.85083],[121.034348,13.85027],[121.032211,13.84957],[121.030449,13.84904],[121.028679,13.84857],[121.025887,13.84817],[121.024101,13.84774],[121.02108,13.84751],[121.020241,13.84745],[121.018867,13.84736],[121.016693,13.8507],[121.016411,13.85402],[121.01619,13.85787],[121.016434,13.86047],[121.019417,13.85911]]]]}},{"type":"Feature","properties":{"ID_0":177,"ISO":"PHL","NAME_0":"Philippines","ID_1":4010,"NAME_1":"Batangas","ID_2":401002,"NAME_2":"Alitagtag","ID_3":401002004,"NAME_3":"Dalipit East","NL_NAME_3":null,"VARNAME_3":null,"TYPE_3":"Barangay","ENGTYPE_3":"Village","PROVINCE":"Batangas","REGION":"Region IV-A (Calabarzon)","id":"barangay-0401002004","name":"Dalipit East","barangayCode":"0401002004","population":null,"formattedPop":null,"densityCategory":"No data","vulnerabilityRating":"No data","healthRiskLevel":"No data","areaKm2":0.657289,"centerLat":13.868245,"centerLng":121.034096,"geometrySource":"all_barangay-2.csv detailed WKT","geometryMatchMethod":"unique_official_admin_names","boundaryPointCount":21},"geometry":{"type":"MultiPolygon","coordinates":[[[[121.042068,13.87892],[121.042641,13.87736],[121.043068,13.87642],[121.043503,13.87517],[121.044151,13.87383],[121.044792,13.87206],[121.045387,13.87123],[121.04628,13.86968],[121.046867,13.86828],[121.047363,13.86702],[121.047691,13.86604],[121.047737,13.86518],[121.047073,13.86475],[121.035263,13.86444],[121.03318,13.86444],[121.03273,13.86841],[121.032623,13.86922],[121.032448,13.87041],[121.032227,13.87184],[121.031898,13.87299],[121.042068,13.87892]]]]}},{"type":"Feature","properties":{"ID_0":177,"ISO":"PHL","NAME_0":"Philippines","ID_1":4010,"NAME_1":"Batangas","ID_2":401002,"NAME_2":"Alitagtag","ID_3":401002005,"NAME_3":"Dalipit West","NL_NAME_3":null,"VARNAME_3":null,"TYPE_3":"Barangay","ENGTYPE_3":"Village","PROVINCE":"Batangas","REGION":"Region IV-A (Calabarzon)","id":"barangay-0401002005","name":"Dalipit West","barangayCode":"0401002005","population":null,"formattedPop":null,"densityCategory":"No data","vulnerabilityRating":"No data","healthRiskLevel":"No data","areaKm2":0.54016,"centerLat":13.866781,"centerLng":121.02753,"geometrySource":"all_barangay-2.csv detailed WKT","geometryMatchMethod":"unique_official_admin_names","boundaryPointCount":16},"geometry":{"type":"MultiPolygon","coordinates":[[[[121.023376,13.86828],[121.031189,13.87261],[121.031898,13.87299],[121.032227,13.87184],[121.032448,13.87041],[121.032623,13.86922],[121.03273,13.86841],[121.03318,13.86444],[121.023552,13.86405],[121.022873,13.86396],[121.021393,13.86246],[121.022377,13.8649],[121.022926,13.86593],[121.023277,13.86668],[121.023331,13.86739],[121.023376,13.86828]]]]}},{"type":"Feature","properties":{"ID_0":177,"ISO":"PHL","NAME_0":"Philippines","ID_1":4010,"NAME_1":"Batangas","ID_2":401002,"NAME_2":"Alitagtag","ID_3":401002006,"NAME_3":"Dominador East","NL_NAME_3":null,"VARNAME_3":null,"TYPE_3":"Barangay","ENGTYPE_3":"Village","PROVINCE":"Batangas","REGION":"Region IV-A (Calabarzon)","id":"barangay-0401002006","name":"Dominador East","barangayCode":"0401002006","population":null,"formattedPop":null,"densityCategory":"No data","vulnerabilityRating":"No data","healthRiskLevel":"No data","areaKm2":1.176177,"centerLat":13.877219,"centerLng":121.03297,"geometrySource":"all_barangay-2.csv detailed WKT","geometryMatchMethod":"unique_official_admin_names","boundaryPointCount":26},"geometry":{"type":"MultiPolygon","coordinates":[[[[121.038757,13.88605],[121.039413,13.88547],[121.039742,13.88464],[121.040001,13.88342],[121.040176,13.8825],[121.04026,13.88185],[121.040672,13.88099],[121.041191,13.8803],[121.041687,13.87978],[121.042068,13.87892],[121.031898,13.87299],[121.031548,13.87396],[121.03112,13.87523],[121.030571,13.87654],[121.030128,13.8781],[121.02964,13.87933],[121.029167,13.88022],[121.028091,13.88164],[121.028938,13.88209],[121.030357,13.88272],[121.031754,13.88344],[121.033119,13.88429],[121.034653,13.88509],[121.035988,13.88568],[121.036972,13.88579],[121.038757,13.88605]]]]}},{"type":"Feature","properties":{"ID_0":177,"ISO":"PHL","NAME_0":"Philippines","ID_1":4010,"NAME_1":"Batangas","ID_2":401002,"NAME_2":"Alitagtag","ID_3":401002007,"NAME_3":"Dominador West","NL_NAME_3":null,"VARNAME_3":null,"TYPE_3":"Barangay","ENGTYPE_3":"Village","PROVINCE":"Batangas","REGION":"Region IV-A (Calabarzon)","id":"barangay-0401002007","name":"Dominador West","barangayCode":"0401002007","population":null,"formattedPop":null,"densityCategory":"No data","vulnerabilityRating":"No data","healthRiskLevel":"No data","areaKm2":0.600007,"centerLat":13.873587,"centerLng":121.024981,"geometrySource":"all_barangay-2.csv detailed WKT","geometryMatchMethod":"unique_official_admin_names","boundaryPointCount":26},"geometry":{"type":"MultiPolygon","coordinates":[[[[121.028091,13.88164],[121.029167,13.88022],[121.02964,13.87933],[121.030128,13.8781],[121.030571,13.87654],[121.03112,13.87523],[121.031548,13.87396],[121.031898,13.87299],[121.031189,13.87261],[121.023376,13.86828],[121.023041,13.86949],[121.022614,13.87119],[121.022308,13.87278],[121.021812,13.8738],[121.02095,13.87496],[121.02063,13.87606],[121.021187,13.87644],[121.021683,13.87667],[121.022408,13.87694],[121.023033,13.87727],[121.023804,13.87813],[121.024612,13.87854],[121.025307,13.87927],[121.025917,13.88003],[121.027229,13.88115],[121.028091,13.88164]]]]}},{"type":"Feature","properties":{"ID_0":177,"ISO":"PHL","NAME_0":"Philippines","ID_1":4010,"NAME_1":"Batangas","ID_2":401002,"NAME_2":"Alitagtag","ID_3":401002008,"NAME_3":"Munlawin Sur","NL_NAME_3":null,"VARNAME_3":null,"TYPE_3":"Barangay","ENGTYPE_3":"Village","PROVINCE":"Batangas","REGION":"Region IV-A (Calabarzon)","id":"barangay-0401002008","name":"Munlawin Sur","barangayCode":"0401002008","population":null,"formattedPop":null,"densityCategory":"No data","vulnerabilityRating":"No data","healthRiskLevel":"No data","areaKm2":0.872336,"centerLat":13.85459,"centerLng":121.029794,"geometrySource":"all_barangay-2.csv detailed WKT","geometryMatchMethod":"unique_official_admin_names","boundaryPointCount":14},"geometry":{"type":"MultiPolygon","coordinates":[[[[121.044037,13.86022],[121.044228,13.85932],[121.044083,13.85806],[121.043427,13.85754],[121.043213,13.85682],[121.043068,13.85558],[121.03318,13.85544],[121.026588,13.85397],[121.019417,13.85911],[121.020973,13.85941],[121.022629,13.86009],[121.023293,13.86037],[121.033836,13.85971],[121.044037,13.86022]]]]}},{"type":"Feature","properties":{"ID_0":177,"ISO":"PHL","NAME_0":"Philippines","ID_1":4010,"NAME_1":"Batangas","ID_2":401002,"NAME_2":"Alitagtag","ID_3":401002009,"NAME_3":"Munlawin Norte","NL_NAME_3":null,"VARNAME_3":null,"TYPE_3":"Barangay","ENGTYPE_3":"Village","PROVINCE":"Batangas","REGION":"Region IV-A (Calabarzon)","id":"barangay-0401002009","name":"Munlawin Norte","barangayCode":"0401002009","population":null,"formattedPop":null,"densityCategory":"No data","vulnerabilityRating":"No data","healthRiskLevel":"No data","areaKm2":1.897722,"centerLat":13.860045,"centerLng":121.030994,"geometrySource":"all_barangay-2.csv detailed WKT","geometryMatchMethod":"unique_official_admin_names","boundaryPointCount":20},"geometry":{"type":"MultiPolygon","coordinates":[[[[121.047073,13.86475],[121.046059,13.8643],[121.045143,13.8638],[121.044937,13.86313],[121.04496,13.86225],[121.044228,13.86158],[121.044006,13.861],[121.044037,13.86022],[121.033836,13.85971],[121.023293,13.86037],[121.022629,13.86009],[121.020973,13.85941],[121.019417,13.85911],[121.020752,13.861],[121.021393,13.86246],[121.022873,13.86396],[121.023552,13.86405],[121.03318,13.86444],[121.035263,13.86444],[121.047073,13.86475]]]]}},{"type":"Feature","properties":{"ID_0":177,"ISO":"PHL","NAME_0":"Philippines","ID_1":4010,"NAME_1":"Batangas","ID_2":401002,"NAME_2":"Alitagtag","ID_3":401002011,"NAME_3":"Muzon Primero","NL_NAME_3":null,"VARNAME_3":null,"TYPE_3":"Barangay","ENGTYPE_3":"Village","PROVINCE":"Batangas","REGION":"Region IV-A (Calabarzon)","id":"barangay-0401002011","name":"Muzon Primero","barangayCode":"0401002011","population":null,"formattedPop":null,"densityCategory":"No data","vulnerabilityRating":"No data","healthRiskLevel":"No data","areaKm2":1.866129,"centerLat":13.853285,"centerLng":120.992916,"geometrySource":"all_barangay-2.csv detailed WKT","geometryMatchMethod":"unique_official_admin_names","boundaryPointCount":18},"geometry":{"type":"MultiPolygon","coordinates":[[[[120.9842,13.86252],[120.990349,13.86232],[120.991043,13.86217],[120.99984,13.86148],[121.000122,13.86036],[121.000526,13.85933],[121.000977,13.85868],[121.001694,13.85804],[121.002327,13.85681],[121.000748,13.85575],[121.000298,13.85494],[121.000023,13.85403],[120.99968,13.85288],[120.996964,13.84923],[120.991859,13.84232],[120.987907,13.85563],[120.986862,13.85935],[120.9842,13.86252]]]]}},{"type":"Feature","properties":{"ID_0":177,"ISO":"PHL","NAME_0":"Philippines","ID_1":4010,"NAME_1":"Batangas","ID_2":401002,"NAME_2":"Alitagtag","ID_3":401002012,"NAME_3":"Muzon Segundo","NL_NAME_3":null,"VARNAME_3":null,"TYPE_3":"Barangay","ENGTYPE_3":"Village","PROVINCE":"Batangas","REGION":"Region IV-A (Calabarzon)","id":"barangay-0401002012","name":"Muzon Segundo","barangayCode":"0401002012","population":null,"formattedPop":null,"densityCategory":"No data","vulnerabilityRating":"No data","healthRiskLevel":"No data","areaKm2":3.475994,"centerLat":13.847556,"centerLng":121.001244,"geometrySource":"all_barangay-2.csv detailed WKT","geometryMatchMethod":"unique_official_admin_names","boundaryPointCount":23},"geometry":{"type":"MultiPolygon","coordinates":[[[[121.002327,13.85681],[121.016411,13.85402],[121.016693,13.8507],[121.018867,13.84736],[121.014267,13.84703],[121.011169,13.84688],[121.009132,13.84681],[121.006271,13.84657],[121.004623,13.84637],[121.00354,13.84618],[121.000977,13.8458],[120.999397,13.84547],[120.997864,13.84514],[120.996262,13.8447],[120.994347,13.8441],[120.993477,13.84374],[120.991859,13.84232],[120.996964,13.84923],[120.99968,13.85288],[121.000023,13.85403],[121.000298,13.85494],[121.000748,13.85575],[121.002327,13.85681]]]]}},{"type":"Feature","properties":{"ID_0":177,"ISO":"PHL","NAME_0":"Philippines","ID_1":4010,"NAME_1":"Batangas","ID_2":401002,"NAME_2":"Alitagtag","ID_3":401002013,"NAME_3":"Pinagkurusan","NL_NAME_3":null,"VARNAME_3":null,"TYPE_3":"Barangay","ENGTYPE_3":"Village","PROVINCE":"Batangas","REGION":"Region IV-A (Calabarzon)","id":"barangay-0401002013","name":"Pinagkurusan","barangayCode":"0401002013","population":null,"formattedPop":null,"densityCategory":"No data","vulnerabilityRating":"No data","healthRiskLevel":"No data","areaKm2":0.625284,"centerLat":13.868321,"centerLng":121.021112,"geometrySource":"all_barangay-2.csv detailed WKT","geometryMatchMethod":"unique_official_admin_names","boundaryPointCount":15},"geometry":{"type":"MultiPolygon","coordinates":[[[[121.023376,13.86828],[121.023331,13.86739],[121.023277,13.86668],[121.022926,13.86593],[121.022377,13.8649],[121.021393,13.86246],[121.020752,13.861],[121.019417,13.85911],[121.019814,13.86671],[121.02095,13.87496],[121.021812,13.8738],[121.022308,13.87278],[121.022614,13.87119],[121.023041,13.86949],[121.023376,13.86828]]]]}},{"type":"Feature","properties":{"ID_0":177,"ISO":"PHL","NAME_0":"Philippines","ID_1":4010,"NAME_1":"Batangas","ID_2":401002,"NAME_2":"Alitagtag","ID_3":401002014,"NAME_3":"Ping-As","NL_NAME_3":null,"VARNAME_3":null,"TYPE_3":"Barangay","ENGTYPE_3":"Village","PROVINCE":"Batangas","REGION":"Region IV-A (Calabarzon)","id":"barangay-0401002014","name":"Ping-As","barangayCode":"0401002014","population":null,"formattedPop":null,"densityCategory":"No data","vulnerabilityRating":"No data","healthRiskLevel":"No data","areaKm2":3.114035,"centerLat":13.887164,"centerLng":121.0258,"geometrySource":"all_barangay-2.csv detailed WKT","geometryMatchMethod":"unique_official_admin_names","boundaryPointCount":60},"geometry":{"type":"MultiPolygon","coordinates":[[[[121.03299,13.89974],[121.033569,13.89823],[121.033943,13.89684],[121.034492,13.89616],[121.035217,13.89541],[121.035553,13.89476],[121.035461,13.89352],[121.03511,13.8926],[121.035217,13.89178],[121.035507,13.8907],[121.038757,13.88605],[121.036972,13.88579],[121.035988,13.88568],[121.034653,13.88509],[121.033119,13.88429],[121.031754,13.88344],[121.030357,13.88272],[121.028938,13.88209],[121.028091,13.88164],[121.027229,13.88115],[121.025917,13.88003],[121.025307,13.87927],[121.024612,13.87854],[121.023804,13.87813],[121.023033,13.87727],[121.022408,13.87694],[121.021683,13.87667],[121.021187,13.87644],[121.02063,13.87606],[121.01593,13.88707],[121.017281,13.88723],[121.018379,13.8879],[121.019089,13.88853],[121.019783,13.88936],[121.020264,13.89033],[121.020172,13.8914],[121.020081,13.89246],[121.019928,13.89316],[121.019524,13.89387],[121.019211,13.89429],[121.019081,13.89508],[121.019363,13.89565],[121.019653,13.89594],[121.020447,13.89588],[121.021713,13.89566],[121.022583,13.8952],[121.023361,13.89477],[121.024246,13.89464],[121.025146,13.895],[121.025551,13.8953],[121.026321,13.89487],[121.027046,13.89461],[121.02774,13.89467],[121.028763,13.89485],[121.029716,13.89506],[121.030487,13.89544],[121.031273,13.89597],[121.031868,13.89723],[121.032257,13.89816],[121.03299,13.89974]]]]}},{"type":"Feature","properties":{"ID_0":177,"ISO":"PHL","NAME_0":"Philippines","ID_1":4010,"NAME_1":"Batangas","ID_2":401002,"NAME_2":"Alitagtag","ID_3":401002015,"NAME_3":"Poblacion East","NL_NAME_3":null,"VARNAME_3":null,"TYPE_3":"Barangay","ENGTYPE_3":"Village","PROVINCE":"Batangas","REGION":"Region IV-A (Calabarzon)","id":"barangay-0401002015","name":"Poblacion East","barangayCode":"0401002015","population":null,"formattedPop":null,"densityCategory":"No data","vulnerabilityRating":"No data","healthRiskLevel":"No data","areaKm2":1.68116,"centerLat":13.871901,"centerLng":121.006193,"geometrySource":"all_barangay-2.csv detailed WKT","geometryMatchMethod":"unique_official_admin_names","boundaryPointCount":17},"geometry":{"type":"MultiPolygon","coordinates":[[[[121.003647,13.8869],[121.004578,13.88748],[121.00544,13.88833],[121.006187,13.88931],[121.013039,13.87819],[121.012627,13.87645],[121.012108,13.87322],[121.011047,13.86711],[121.010696,13.86612],[121.010139,13.8635],[121.00972,13.8614],[121.006271,13.86129],[121.006073,13.86315],[121.005943,13.86424],[121.005791,13.8653],[121.005692,13.8666],[121.003647,13.8869]]]]}},{"type":"Feature","properties":{"ID_0":177,"ISO":"PHL","NAME_0":"Philippines","ID_1":4010,"NAME_1":"Batangas","ID_2":401002,"NAME_2":"Alitagtag","ID_3":401002016,"NAME_3":"Poblacion West","NL_NAME_3":null,"VARNAME_3":null,"TYPE_3":"Barangay","ENGTYPE_3":"Village","PROVINCE":"Batangas","REGION":"Region IV-A (Calabarzon)","id":"barangay-0401002016","name":"Poblacion West","barangayCode":"0401002016","population":null,"formattedPop":null,"densityCategory":"No data","vulnerabilityRating":"No data","healthRiskLevel":"No data","areaKm2":1.316155,"centerLat":13.870509,"centerLng":121.000526,"geometrySource":"all_barangay-2.csv detailed WKT","geometryMatchMethod":"unique_official_admin_names","boundaryPointCount":22},"geometry":{"type":"MultiPolygon","coordinates":[[[[121.003647,13.8869],[121.005692,13.8666],[121.005791,13.8653],[121.005943,13.86424],[121.006073,13.86315],[121.006271,13.86129],[120.99984,13.86148],[120.999924,13.86224],[121.000153,13.86307],[120.999977,13.86359],[120.999763,13.86409],[120.999992,13.86476],[120.999237,13.86915],[120.997398,13.88147],[120.998497,13.88189],[120.999702,13.88233],[121.000549,13.88278],[121.001282,13.88382],[121.00206,13.88503],[121.002724,13.88599],[121.002983,13.88648],[121.003647,13.8869]]]]}},{"type":"Feature","properties":{"ID_0":177,"ISO":"PHL","NAME_0":"Philippines","ID_1":4010,"NAME_1":"Batangas","ID_2":401002,"NAME_2":"Alitagtag","ID_3":401002018,"NAME_3":"San Jose","NL_NAME_3":null,"VARNAME_3":null,"TYPE_3":"Barangay","ENGTYPE_3":"Village","PROVINCE":"Batangas","REGION":"Region IV-A (Calabarzon)","id":"barangay-0401002018","name":"San Jose","barangayCode":"0401002018","population":null,"formattedPop":null,"densityCategory":"No data","vulnerabilityRating":"No data","healthRiskLevel":"No data","areaKm2":0.401133,"centerLat":13.863146,"centerLng":120.997751,"geometrySource":"all_barangay-2.csv detailed WKT","geometryMatchMethod":"unique_official_admin_names","boundaryPointCount":14},"geometry":{"type":"MultiPolygon","coordinates":[[[[120.990349,13.86232],[120.991089,13.86597],[120.992332,13.86642],[120.992981,13.8675],[120.993027,13.86905],[120.999237,13.86915],[120.999992,13.86476],[120.999763,13.86409],[120.999977,13.86359],[121.000153,13.86307],[120.999924,13.86224],[120.99984,13.86148],[120.991043,13.86217],[120.990349,13.86232]]]]}},{"type":"Feature","properties":{"ID_0":177,"ISO":"PHL","NAME_0":"Philippines","ID_1":4010,"NAME_1":"Batangas","ID_2":401002,"NAME_2":"Alitagtag","ID_3":401002019,"NAME_3":"Santa Cruz","NL_NAME_3":null,"VARNAME_3":null,"TYPE_3":"Barangay","ENGTYPE_3":"Village","PROVINCE":"Batangas","REGION":"Region IV-A (Calabarzon)","id":"barangay-0401002019","name":"Santa Cruz","barangayCode":"0401002019","population":null,"formattedPop":null,"densityCategory":"No data","vulnerabilityRating":"No data","healthRiskLevel":"No data","areaKm2":1.165055,"centerLat":13.870048,"centerLng":120.993928,"geometrySource":"all_barangay-2.csv detailed WKT","geometryMatchMethod":"unique_official_admin_names","boundaryPointCount":21},"geometry":{"type":"MultiPolygon","coordinates":[[[[120.997398,13.88147],[120.999237,13.86915],[120.993027,13.86905],[120.992981,13.8675],[120.992332,13.86642],[120.991089,13.86597],[120.990349,13.86232],[120.9842,13.86252],[120.986237,13.86741],[120.98851,13.87518],[120.989594,13.87954],[120.990173,13.87928],[120.990822,13.8792],[120.99144,13.87851],[120.992447,13.87826],[120.99408,13.87861],[120.994942,13.87944],[120.995613,13.88057],[120.996193,13.88111],[120.996803,13.88147],[120.997398,13.88147]]]]}},{"type":"Feature","properties":{"ID_0":177,"ISO":"PHL","NAME_0":"Philippines","ID_1":4010,"NAME_1":"Batangas","ID_2":401002,"NAME_2":"Alitagtag","ID_3":401002020,"NAME_3":"Tadlac","NL_NAME_3":null,"VARNAME_3":null,"TYPE_3":"Barangay","ENGTYPE_3":"Village","PROVINCE":"Batangas","REGION":"Region IV-A (Calabarzon)","id":"barangay-0401002020","name":"Tadlac","barangayCode":"0401002020","population":null,"formattedPop":null,"densityCategory":"No data","vulnerabilityRating":"No data","healthRiskLevel":"No data","areaKm2":2.320106,"centerLat":13.881465,"centerLng":121.010904,"geometrySource":"all_barangay-2.csv detailed WKT","geometryMatchMethod":"unique_official_admin_names","boundaryPointCount":23},"geometry":{"type":"MultiPolygon","coordinates":[[[[121.01593,13.88707],[121.02063,13.87606],[121.018913,13.87613],[121.018051,13.87568],[121.016937,13.87513],[121.01545,13.87449],[121.014503,13.87393],[121.012947,13.8736],[121.012108,13.87322],[121.012627,13.87645],[121.013039,13.87819],[121.006187,13.88931],[121.006577,13.88981],[121.007652,13.88981],[121.008171,13.8893],[121.008636,13.88869],[121.009521,13.88814],[121.010643,13.88757],[121.011726,13.88731],[121.012718,13.88718],[121.013733,13.88716],[121.0149,13.88704],[121.01593,13.88707]]]]}},{"type":"Feature","properties":{"ID_0":177,"ISO":"PHL","NAME_0":"Philippines","ID_1":4010,"NAME_1":"Batangas","ID_2":401002,"NAME_2":"Alitagtag","ID_3":401002021,"NAME_3":"San Juan","NL_NAME_3":null,"VARNAME_3":null,"TYPE_3":"Barangay","ENGTYPE_3":"Village","PROVINCE":"Batangas","REGION":"Region IV-A (Calabarzon)","id":"barangay-0401002021","name":"San Juan","barangayCode":"0401002021","population":null,"formattedPop":null,"densityCategory":"No data","vulnerabilityRating":"No data","healthRiskLevel":"No data","areaKm2":1.053357,"centerLat":13.857925,"centerLng":121.009355,"geometrySource":"all_barangay-2.csv detailed WKT","geometryMatchMethod":"unique_official_admin_names","boundaryPointCount":13},"geometry":{"type":"MultiPolygon","coordinates":[[[[121.014374,13.86135],[121.016434,13.86047],[121.01619,13.85787],[121.016411,13.85402],[121.002327,13.85681],[121.001694,13.85804],[121.000977,13.85868],[121.000526,13.85933],[121.000122,13.86036],[120.99984,13.86148],[121.006271,13.86129],[121.00972,13.8614],[121.014374,13.86135]]]]}}]}
