{"type":"FeatureCollection","features":[{"type":"Feature","properties":{"ID_0":177,"ISO":"PHL","NAME_0":"Philippines","ID_1":9072,"NAME_1":"Zamboanga del Norte","ID_2":907207,"NAME_2":"Manukan","ID_3":907207002,"NAME_3":"Dipane","NL_NAME_3":null,"VARNAME_3":null,"TYPE_3":"Barangay","ENGTYPE_3":"Village","PROVINCE":"Zamboanga del Norte","REGION":"Region IX (Zamboanga Peninsula)","id":"barangay-0907207002","name":"Dipane","barangayCode":"0907207002","population":null,"formattedPop":null,"densityCategory":"No data","vulnerabilityRating":"No data","healthRiskLevel":"No data","areaKm2":5.657261,"centerLat":8.495954,"centerLng":123.154058,"geometrySource":"all_barangay-2.csv detailed WKT","geometryMatchMethod":"unique_official_admin_names","boundaryPointCount":25},"geometry":{"type":"MultiPolygon","coordinates":[[[[123.14827,8.5157],[123.15023,8.51677],[123.150459,8.51689],[123.153442,8.51852],[123.155838,8.5179],[123.157349,8.51751],[123.158546,8.51123],[123.15889,8.50745],[123.159027,8.49851],[123.156288,8.49289],[123.152519,8.49005],[123.148949,8.48707],[123.148338,8.48481],[123.148933,8.47921],[123.147163,8.47666],[123.141968,8.47516],[123.139847,8.47807],[123.139847,8.48006],[123.142342,8.48955],[123.143822,8.49471],[123.143532,8.50073],[123.139458,8.50608],[123.14431,8.50955],[123.147247,8.51322],[123.14827,8.5157]]]]}},{"type":"Feature","properties":{"ID_0":177,"ISO":"PHL","NAME_0":"Philippines","ID_1":9072,"NAME_1":"Zamboanga del Norte","ID_2":907207,"NAME_2":"Manukan","ID_3":907207003,"NAME_3":"Disakan","NL_NAME_3":null,"VARNAME_3":null,"TYPE_3":"Barangay","ENGTYPE_3":"Village","PROVINCE":"Zamboanga del Norte","REGION":"Region IX (Zamboanga Peninsula)","id":"barangay-0907207003","name":"Disakan","barangayCode":"0907207003","population":null,"formattedPop":null,"densityCategory":"No data","vulnerabilityRating":"No data","healthRiskLevel":"No data","areaKm2":4.151739,"centerLat":8.491984,"centerLng":123.057069,"geometrySource":"all_barangay-2.csv detailed WKT","geometryMatchMethod":"unique_official_admin_names","boundaryPointCount":55},"geometry":{"type":"MultiPolygon","coordinates":[[[[123.044159,8.49381],[123.043907,8.49499],[123.044647,8.49587],[123.045998,8.49664],[123.047447,8.49768],[123.048851,8.4999],[123.050171,8.5017],[123.051193,8.50336],[123.052147,8.50488],[123.053581,8.507],[123.053917,8.50853],[123.054573,8.51015],[123.054688,8.51054],[123.054749,8.511],[123.054863,8.51144],[123.055107,8.51175],[123.055412,8.51194],[123.055702,8.51209],[123.056,8.5122],[123.056343,8.51229],[123.056717,8.51245],[123.057182,8.51257],[123.057663,8.51279],[123.058098,8.51304],[123.05851,8.51326],[123.058884,8.51349],[123.059227,8.51373],[123.059624,8.51393],[123.060013,8.51415],[123.060417,8.51435],[123.06089,8.51446],[123.061363,8.5146],[123.061821,8.51476],[123.062157,8.51491],[123.062248,8.51496],[123.06266,8.5151],[123.066429,8.50653],[123.067619,8.49875],[123.068573,8.48733],[123.070297,8.48293],[123.062019,8.48294],[123.05722,8.48437],[123.051559,8.48365],[123.050003,8.48301],[123.049294,8.4853],[123.047523,8.48416],[123.046143,8.48622],[123.046089,8.48629],[123.045868,8.48947],[123.045631,8.49226],[123.044617,8.49361],[123.044594,8.49357],[123.044518,8.4937],[123.044296,8.49377],[123.044159,8.49381]]]]}},{"type":"Feature","properties":{"ID_0":177,"ISO":"PHL","NAME_0":"Philippines","ID_1":9072,"NAME_1":"Zamboanga del Norte","ID_2":907207,"NAME_2":"Manukan","ID_3":907207004,"NAME_3":"Gupot","NL_NAME_3":null,"VARNAME_3":null,"TYPE_3":"Barangay","ENGTYPE_3":"Village","PROVINCE":"Zamboanga del Norte","REGION":"Region IX (Zamboanga Peninsula)","id":"barangay-0907207004","name":"Gupot","barangayCode":"0907207004","population":null,"formattedPop":null,"densityCategory":"No data","vulnerabilityRating":"No data","healthRiskLevel":"No data","areaKm2":4.447851,"centerLat":8.492773,"centerLng":123.139087,"geometrySource":"all_barangay-2.csv detailed WKT","geometryMatchMethod":"unique_official_admin_names","boundaryPointCount":16},"geometry":{"type":"MultiPolygon","coordinates":[[[[123.139458,8.50608],[123.143532,8.50073],[123.143822,8.49471],[123.142342,8.48955],[123.139847,8.48006],[123.136551,8.47849],[123.130928,8.47876],[123.126106,8.48333],[123.120216,8.48542],[123.120941,8.49073],[123.125671,8.49507],[123.128326,8.49713],[123.130417,8.49926],[123.131912,8.50078],[123.1343,8.50148],[123.139458,8.50608]]]]}},{"type":"Feature","properties":{"ID_0":177,"ISO":"PHL","NAME_0":"Philippines","ID_1":9072,"NAME_1":"Zamboanga del Norte","ID_2":907207,"NAME_2":"Manukan","ID_3":907207005,"NAME_3":"Libuton","NL_NAME_3":null,"VARNAME_3":null,"TYPE_3":"Barangay","ENGTYPE_3":"Village","PROVINCE":"Zamboanga del Norte","REGION":"Region IX (Zamboanga Peninsula)","id":"barangay-0907207005","name":"Libuton","barangayCode":"0907207005","population":null,"formattedPop":null,"densityCategory":"No data","vulnerabilityRating":"No data","healthRiskLevel":"No data","areaKm2":7.403662,"centerLat":8.480395,"centerLng":123.093991,"geometrySource":"all_barangay-2.csv detailed WKT","geometryMatchMethod":"unique_official_admin_names","boundaryPointCount":19},"geometry":{"type":"MultiPolygon","coordinates":[[[[123.098457,8.49746],[123.101212,8.4977],[123.104057,8.49417],[123.105614,8.49155],[123.106651,8.48706],[123.105797,8.48396],[123.103027,8.48035],[123.097366,8.47936],[123.089638,8.47841],[123.07991,8.47432],[123.07579,8.47945],[123.072632,8.48344],[123.073097,8.48867],[123.081413,8.48666],[123.085823,8.48818],[123.090111,8.49129],[123.092499,8.49366],[123.094673,8.49517],[123.098457,8.49746]]]]}},{"type":"Feature","properties":{"ID_0":177,"ISO":"PHL","NAME_0":"Philippines","ID_1":9072,"NAME_1":"Zamboanga del Norte","ID_2":907207,"NAME_2":"Manukan","ID_3":907207006,"NAME_3":"Linay","NL_NAME_3":null,"VARNAME_3":null,"TYPE_3":"Barangay","ENGTYPE_3":"Village","PROVINCE":"Zamboanga del Norte","REGION":"Region IX (Zamboanga Peninsula)","id":"barangay-0907207006","name":"Linay","barangayCode":"0907207006","population":null,"formattedPop":null,"densityCategory":"No data","vulnerabilityRating":"No data","healthRiskLevel":"No data","areaKm2":5.479662,"centerLat":8.507695,"centerLng":123.12459,"geometrySource":"all_barangay-2.csv detailed WKT","geometryMatchMethod":"unique_official_admin_names","boundaryPointCount":33},"geometry":{"type":"MultiPolygon","coordinates":[[[[123.116364,8.52167],[123.117798,8.52173],[123.118507,8.52167],[123.120163,8.52152],[123.123207,8.52173],[123.124657,8.52202],[123.126938,8.52252],[123.129723,8.52294],[123.130882,8.52326],[123.131462,8.52342],[123.132713,8.52384],[123.134377,8.52398],[123.135567,8.52403],[123.135353,8.52342],[123.134453,8.52103],[123.133232,8.51787],[123.131523,8.51457],[123.129242,8.51144],[123.130081,8.50765],[123.130409,8.50498],[123.131912,8.50078],[123.130417,8.49926],[123.128326,8.49713],[123.125671,8.49507],[123.120941,8.49073],[123.119202,8.49299],[123.113892,8.49722],[123.110641,8.49789],[123.112183,8.50347],[123.113876,8.50688],[123.117073,8.51229],[123.116371,8.52146],[123.116364,8.52167]]]]}},{"type":"Feature","properties":{"ID_0":177,"ISO":"PHL","NAME_0":"Philippines","ID_1":9072,"NAME_1":"Zamboanga del Norte","ID_2":907207,"NAME_2":"Manukan","ID_3":907207007,"NAME_3":"Lupasang","NL_NAME_3":null,"VARNAME_3":null,"TYPE_3":"Barangay","ENGTYPE_3":"Village","PROVINCE":"Zamboanga del Norte","REGION":"Region IX (Zamboanga Peninsula)","id":"barangay-0907207007","name":"Lupasang","barangayCode":"0907207007","population":null,"formattedPop":null,"densityCategory":"No data","vulnerabilityRating":"No data","healthRiskLevel":"No data","areaKm2":4.220558,"centerLat":8.472577,"centerLng":123.147515,"geometrySource":"all_barangay-2.csv detailed WKT","geometryMatchMethod":"unique_official_admin_names","boundaryPointCount":22},"geometry":{"type":"MultiPolygon","coordinates":[[[[123.167473,8.48591],[123.166412,8.48271],[123.165741,8.4783],[123.163429,8.47558],[123.161072,8.47366],[123.157738,8.47249],[123.156593,8.47022],[123.153198,8.46823],[123.147034,8.46324],[123.142899,8.46734],[123.140266,8.46908],[123.141052,8.4732],[123.141968,8.47516],[123.147163,8.47666],[123.148933,8.47921],[123.148338,8.48481],[123.148949,8.48707],[123.152519,8.49005],[123.156647,8.49018],[123.162079,8.48924],[123.165237,8.48679],[123.167473,8.48591]]]]}},{"type":"Feature","properties":{"ID_0":177,"ISO":"PHL","NAME_0":"Philippines","ID_1":9072,"NAME_1":"Zamboanga del Norte","ID_2":907207,"NAME_2":"Manukan","ID_3":907207010,"NAME_3":"Mate","NL_NAME_3":null,"VARNAME_3":null,"TYPE_3":"Barangay","ENGTYPE_3":"Village","PROVINCE":"Zamboanga del Norte","REGION":"Region IX (Zamboanga Peninsula)","id":"barangay-0907207010","name":"Mate","barangayCode":"0907207010","population":null,"formattedPop":null,"densityCategory":"No data","vulnerabilityRating":"No data","healthRiskLevel":"No data","areaKm2":8.20628,"centerLat":8.477242,"centerLng":123.111333,"geometrySource":"all_barangay-2.csv detailed WKT","geometryMatchMethod":"unique_official_admin_names","boundaryPointCount":23},"geometry":{"type":"MultiPolygon","coordinates":[[[[123.101212,8.4977],[123.104858,8.49708],[123.107903,8.49692],[123.110641,8.49789],[123.113892,8.49722],[123.119202,8.49299],[123.120941,8.49073],[123.120216,8.48542],[123.118828,8.47942],[123.119476,8.47095],[123.115723,8.46589],[123.114166,8.46302],[123.108391,8.46741],[123.103111,8.46999],[123.100166,8.47242],[123.100647,8.47547],[123.101151,8.47775],[123.103027,8.48035],[123.105797,8.48396],[123.106651,8.48706],[123.105614,8.49155],[123.104057,8.49417],[123.101212,8.4977]]]]}},{"type":"Feature","properties":{"ID_0":177,"ISO":"PHL","NAME_0":"Philippines","ID_1":9072,"NAME_1":"Zamboanga del Norte","ID_2":907207,"NAME_2":"Manukan","ID_3":907207011,"NAME_3":"Poblacion","NL_NAME_3":null,"VARNAME_3":null,"TYPE_3":"Barangay","ENGTYPE_3":"Village","PROVINCE":"Zamboanga del Norte","REGION":"Region IX (Zamboanga Peninsula)","id":"barangay-0907207011","name":"Poblacion","barangayCode":"0907207011","population":null,"formattedPop":null,"densityCategory":"No data","vulnerabilityRating":"No data","healthRiskLevel":"No data","areaKm2":3.560167,"centerLat":8.510062,"centerLng":123.090153,"geometrySource":"all_barangay-2.csv detailed WKT","geometryMatchMethod":"unique_official_admin_names","boundaryPointCount":22},"geometry":{"type":"MultiPolygon","coordinates":[[[[123.072792,8.51594],[123.074959,8.51674],[123.076981,8.5175],[123.080872,8.51757],[123.083366,8.51757],[123.084908,8.51771],[123.087128,8.51785],[123.091087,8.51834],[123.09304,8.51868],[123.094994,8.51905],[123.09671,8.50531],[123.098457,8.49746],[123.094673,8.49517],[123.092499,8.49366],[123.089897,8.49914],[123.089867,8.50278],[123.085541,8.50761],[123.082558,8.50719],[123.07785,8.50712],[123.076317,8.51034],[123.073982,8.51288],[123.072792,8.51594]]]]}},{"type":"Feature","properties":{"ID_0":177,"ISO":"PHL","NAME_0":"Philippines","ID_1":9072,"NAME_1":"Zamboanga del Norte","ID_2":907207,"NAME_2":"Manukan","ID_3":907207013,"NAME_3":"Saluyong","NL_NAME_3":null,"VARNAME_3":null,"TYPE_3":"Barangay","ENGTYPE_3":"Village","PROVINCE":"Zamboanga del Norte","REGION":"Region IX (Zamboanga Peninsula)","id":"barangay-0907207013","name":"Saluyong","barangayCode":"0907207013","population":null,"formattedPop":null,"densityCategory":"No data","vulnerabilityRating":"No data","healthRiskLevel":"No data","areaKm2":4.482747,"centerLat":8.497092,"centerLng":123.168388,"geometrySource":"all_barangay-2.csv detailed WKT","geometryMatchMethod":"unique_official_admin_names","boundaryPointCount":21},"geometry":{"type":"MultiPolygon","coordinates":[[[[123.174339,8.50942],[123.177567,8.50639],[123.17646,8.50422],[123.174911,8.50255],[123.176842,8.49984],[123.178436,8.49548],[123.176102,8.49189],[123.174026,8.49004],[123.171112,8.48993],[123.169594,8.4878],[123.167473,8.48591],[123.165237,8.48679],[123.162079,8.48924],[123.156647,8.49018],[123.152519,8.49005],[123.156288,8.49289],[123.159027,8.49851],[123.15889,8.50745],[123.161774,8.50756],[123.167587,8.50901],[123.174339,8.50942]]]]}},{"type":"Feature","properties":{"ID_0":177,"ISO":"PHL","NAME_0":"Philippines","ID_1":9072,"NAME_1":"Zamboanga del Norte","ID_2":907207,"NAME_2":"Manukan","ID_3":907207014,"NAME_3":"Serongan","NL_NAME_3":null,"VARNAME_3":null,"TYPE_3":"Barangay","ENGTYPE_3":"Village","PROVINCE":"Zamboanga del Norte","REGION":"Region IX (Zamboanga Peninsula)","id":"barangay-0907207014","name":"Serongan","barangayCode":"0907207014","population":null,"formattedPop":null,"densityCategory":"No data","vulnerabilityRating":"No data","healthRiskLevel":"No data","areaKm2":6.195171,"centerLat":8.444886,"centerLng":123.105805,"geometrySource":"all_barangay-2.csv detailed WKT","geometryMatchMethod":"unique_official_admin_names","boundaryPointCount":13},"geometry":{"type":"MultiPolygon","coordinates":[[[[123.114166,8.46302],[123.118599,8.45944],[123.128662,8.4562],[123.114281,8.45124],[123.105217,8.44911],[123.09726,8.44631],[123.096687,8.44998],[123.093048,8.45652],[123.09948,8.46833],[123.100166,8.47242],[123.103111,8.46999],[123.108391,8.46741],[123.114166,8.46302]]]]}},{"type":"Feature","properties":{"ID_0":177,"ISO":"PHL","NAME_0":"Philippines","ID_1":9072,"NAME_1":"Zamboanga del Norte","ID_2":907207,"NAME_2":"Manukan","ID_3":907207018,"NAME_3":"Villaramos","NL_NAME_3":null,"VARNAME_3":null,"TYPE_3":"Barangay","ENGTYPE_3":"Village","PROVINCE":"Zamboanga del Norte","REGION":"Region IX (Zamboanga Peninsula)","id":"barangay-0907207018","name":"Villaramos","barangayCode":"0907207018","population":null,"formattedPop":null,"densityCategory":"No data","vulnerabilityRating":"No data","healthRiskLevel":"No data","areaKm2":2.971174,"centerLat":8.521638,"centerLng":123.159779,"geometrySource":"all_barangay-2.csv detailed WKT","geometryMatchMethod":"unique_official_admin_names","boundaryPointCount":23},"geometry":{"type":"MultiPolygon","coordinates":[[[[123.135567,8.52403],[123.136047,8.52405],[123.137161,8.52419],[123.140221,8.52419],[123.141541,8.52412],[123.143066,8.52432],[123.144577,8.52464],[123.144722,8.52432],[123.145973,8.52023],[123.14827,8.5157],[123.147247,8.51322],[123.14431,8.50955],[123.139458,8.50608],[123.1343,8.50148],[123.131912,8.50078],[123.130409,8.50498],[123.130081,8.50765],[123.129242,8.51144],[123.131523,8.51457],[123.133232,8.51787],[123.134453,8.52103],[123.135353,8.52342],[123.135567,8.52403]]]]}},{"type":"Feature","properties":{"ID_0":177,"ISO":"PHL","NAME_0":"Philippines","ID_1":9072,"NAME_1":"Zamboanga del Norte","ID_2":907207,"NAME_2":"Manukan","ID_3":907207019,"NAME_3":"Don Jose Aguirre","NL_NAME_3":null,"VARNAME_3":null,"TYPE_3":"Barangay","ENGTYPE_3":"Village","PROVINCE":"Zamboanga del Norte","REGION":"Region IX (Zamboanga Peninsula)","id":"barangay-0907207019","name":"Don Jose Aguirre","barangayCode":"0907207019","population":null,"formattedPop":null,"densityCategory":"No data","vulnerabilityRating":"No data","healthRiskLevel":"No data","areaKm2":4.896474,"centerLat":8.512625,"centerLng":123.14155,"geometrySource":"all_barangay-2.csv detailed WKT","geometryMatchMethod":"unique_official_admin_names","boundaryPointCount":34},"geometry":{"type":"MultiPolygon","coordinates":[[[[123.144577,8.52464],[123.145088,8.52474],[123.146271,8.52495],[123.147591,8.52516],[123.148911,8.52543],[123.150017,8.52578],[123.151482,8.52613],[123.152077,8.52612],[123.15284,8.52647],[123.154716,8.52654],[123.156807,8.52703],[123.158348,8.52722],[123.158867,8.52724],[123.159248,8.52732],[123.16127,8.52765],[123.163559,8.52786],[123.164177,8.52809],[123.165298,8.5285],[123.165237,8.52822],[123.165947,8.51883],[123.167763,8.51414],[123.167587,8.50901],[123.161774,8.50756],[123.15889,8.50745],[123.158546,8.51123],[123.157349,8.51751],[123.155838,8.5179],[123.153442,8.51852],[123.150459,8.51689],[123.15023,8.51677],[123.14827,8.5157],[123.145973,8.52023],[123.144722,8.52432],[123.144577,8.52464]]]]}},{"type":"Feature","properties":{"ID_0":177,"ISO":"PHL","NAME_0":"Philippines","ID_1":9072,"NAME_1":"Zamboanga del Norte","ID_2":907207,"NAME_2":"Manukan","ID_3":907207020,"NAME_3":"Lingatongan","NL_NAME_3":null,"VARNAME_3":null,"TYPE_3":"Barangay","ENGTYPE_3":"Village","PROVINCE":"Zamboanga del Norte","REGION":"Region IX (Zamboanga Peninsula)","id":"barangay-0907207020","name":"Lingatongan","barangayCode":"0907207020","population":null,"formattedPop":null,"densityCategory":"No data","vulnerabilityRating":"No data","healthRiskLevel":"No data","areaKm2":3.741537,"centerLat":8.474116,"centerLng":123.129554,"geometrySource":"all_barangay-2.csv detailed WKT","geometryMatchMethod":"unique_official_admin_names","boundaryPointCount":15},"geometry":{"type":"MultiPolygon","coordinates":[[[[123.120216,8.48542],[123.126106,8.48333],[123.130928,8.47876],[123.136551,8.47849],[123.139847,8.48006],[123.139847,8.47807],[123.141968,8.47516],[123.141052,8.4732],[123.140266,8.46908],[123.135521,8.46817],[123.12854,8.46832],[123.121567,8.46816],[123.119476,8.47095],[123.118828,8.47942],[123.120216,8.48542]]]]}},{"type":"Feature","properties":{"ID_0":177,"ISO":"PHL","NAME_0":"Philippines","ID_1":9072,"NAME_1":"Zamboanga del Norte","ID_2":907207,"NAME_2":"Manukan","ID_3":907207021,"NAME_3":"Meses","NL_NAME_3":null,"VARNAME_3":null,"TYPE_3":"Barangay","ENGTYPE_3":"Village","PROVINCE":"Zamboanga del Norte","REGION":"Region IX (Zamboanga Peninsula)","id":"barangay-0907207021","name":"Meses","barangayCode":"0907207021","population":null,"formattedPop":null,"densityCategory":"No data","vulnerabilityRating":"No data","healthRiskLevel":"No data","areaKm2":5.402991,"centerLat":8.454388,"centerLng":123.122674,"geometrySource":"all_barangay-2.csv detailed WKT","geometryMatchMethod":"unique_official_admin_names","boundaryPointCount":13},"geometry":{"type":"MultiPolygon","coordinates":[[[[123.140266,8.46908],[123.142899,8.46734],[123.147034,8.46324],[123.138802,8.45925],[123.128662,8.4562],[123.118599,8.45944],[123.114166,8.46302],[123.115723,8.46589],[123.119476,8.47095],[123.121567,8.46816],[123.12854,8.46832],[123.135521,8.46817],[123.140266,8.46908]]]]}},{"type":"Feature","properties":{"ID_0":177,"ISO":"PHL","NAME_0":"Philippines","ID_1":9072,"NAME_1":"Zamboanga del Norte","ID_2":907207,"NAME_2":"Manukan","ID_3":907207022,"NAME_3":"Palaranan","NL_NAME_3":null,"VARNAME_3":null,"TYPE_3":"Barangay","ENGTYPE_3":"Village","PROVINCE":"Zamboanga del Norte","REGION":"Region IX (Zamboanga Peninsula)","id":"barangay-0907207022","name":"Palaranan","barangayCode":"0907207022","population":null,"formattedPop":null,"densityCategory":"No data","vulnerabilityRating":"No data","healthRiskLevel":"No data","areaKm2":4.334382,"centerLat":8.495294,"centerLng":123.083368,"geometrySource":"all_barangay-2.csv detailed WKT","geometryMatchMethod":"unique_official_admin_names","boundaryPointCount":17},"geometry":{"type":"MultiPolygon","coordinates":[[[[123.092499,8.49366],[123.090111,8.49129],[123.085823,8.48818],[123.081413,8.48666],[123.073097,8.48867],[123.074181,8.49022],[123.076538,8.49418],[123.078659,8.4975],[123.079224,8.49991],[123.078041,8.50267],[123.077202,8.50516],[123.07785,8.50712],[123.082558,8.50719],[123.085541,8.50761],[123.089867,8.50278],[123.089897,8.49914],[123.092499,8.49366]]]]}},{"type":"Feature","properties":{"ID_0":177,"ISO":"PHL","NAME_0":"Philippines","ID_1":9072,"NAME_1":"Zamboanga del Norte","ID_2":907207,"NAME_2":"Manukan","ID_3":907207023,"NAME_3":"Pangandao","NL_NAME_3":null,"VARNAME_3":null,"TYPE_3":"Barangay","ENGTYPE_3":"Village","PROVINCE":"Zamboanga del Norte","REGION":"Region IX (Zamboanga Peninsula)","id":"barangay-0907207023","name":"Pangandao","barangayCode":"0907207023","population":null,"formattedPop":null,"densityCategory":"No data","vulnerabilityRating":"No data","healthRiskLevel":"No data","areaKm2":33.822935,"centerLat":8.395369,"centerLng":123.10766,"geometrySource":"all_barangay-2.csv detailed WKT","geometryMatchMethod":"unique_official_admin_names","boundaryPointCount":52},"geometry":{"type":"MultiPolygon","coordinates":[[[[123.16423,8.46635],[123.164032,8.44278],[123.170723,8.43631],[123.176559,8.43125],[123.175041,8.42628],[123.174751,8.33072],[123.168938,8.32994],[123.169678,8.31508],[123.152718,8.31508],[123.149193,8.31792],[123.146263,8.32192],[123.143593,8.32498],[123.141281,8.32674],[123.139519,8.32855],[123.136497,8.33266],[123.134087,8.33434],[123.134979,8.33547],[123.132423,8.337],[123.131844,8.3401],[123.129707,8.34182],[123.127419,8.34248],[123.128021,8.34394],[123.126244,8.34511],[123.126488,8.34769],[123.126228,8.3504],[123.125618,8.35447],[123.129509,8.35571],[123.131416,8.35897],[123.130592,8.36227],[123.126648,8.36329],[123.122513,8.36304],[123.120468,8.3635],[123.121437,8.36485],[123.122429,8.37992],[123.119057,8.40356],[123.113647,8.41332],[123.103218,8.42402],[123.097488,8.42725],[123.092789,8.43775],[123.094612,8.44089],[123.09726,8.44631],[123.105217,8.44911],[123.114281,8.45124],[123.128662,8.4562],[123.138802,8.45925],[123.147034,8.46324],[123.153198,8.46823],[123.156593,8.47022],[123.157738,8.47249],[123.161072,8.47366],[123.163429,8.47558],[123.16423,8.46635]]]]}},{"type":"Feature","properties":{"ID_0":177,"ISO":"PHL","NAME_0":"Philippines","ID_1":9072,"NAME_1":"Zamboanga del Norte","ID_2":907207,"NAME_2":"Manukan","ID_3":907207024,"NAME_3":"Patagan","NL_NAME_3":null,"VARNAME_3":null,"TYPE_3":"Barangay","ENGTYPE_3":"Village","PROVINCE":"Zamboanga del Norte","REGION":"Region IX (Zamboanga Peninsula)","id":"barangay-0907207024","name":"Patagan","barangayCode":"0907207024","population":null,"formattedPop":null,"densityCategory":"No data","vulnerabilityRating":"No data","healthRiskLevel":"No data","areaKm2":8.299883,"centerLat":8.429874,"centerLng":123.085343,"geometrySource":"all_barangay-2.csv detailed WKT","geometryMatchMethod":"unique_official_admin_names","boundaryPointCount":57},"geometry":{"type":"MultiPolygon","coordinates":[[[[123.092789,8.43775],[123.097488,8.42725],[123.103218,8.42402],[123.113647,8.41332],[123.119057,8.40356],[123.122429,8.37992],[123.121437,8.36485],[123.088051,8.365],[123.087357,8.36756],[123.085114,8.36899],[123.086304,8.37128],[123.083527,8.37222],[123.081886,8.37276],[123.08197,8.37451],[123.082207,8.37766],[123.080612,8.3809],[123.081573,8.38428],[123.083763,8.38532],[123.083054,8.38831],[123.083969,8.39106],[123.082489,8.39384],[123.083504,8.39701],[123.085663,8.39977],[123.085892,8.40092],[123.083344,8.40229],[123.084198,8.4039],[123.086647,8.4026],[123.089104,8.40375],[123.087402,8.40686],[123.087463,8.40787],[123.089867,8.40798],[123.089508,8.41109],[123.087448,8.41331],[123.088081,8.41607],[123.087257,8.41834],[123.083649,8.41962],[123.081017,8.42146],[123.079887,8.42286],[123.078751,8.42418],[123.078041,8.42289],[123.07785,8.42099],[123.075607,8.4226],[123.07312,8.42413],[123.072487,8.42544],[123.071991,8.42878],[123.069099,8.43086],[123.067177,8.43361],[123.067238,8.43408],[123.066719,8.43541],[123.069504,8.43554],[123.070969,8.43852],[123.070549,8.44172],[123.072327,8.44382],[123.071571,8.44507],[123.078369,8.44359],[123.08326,8.44223],[123.092789,8.43775]]]]}},{"type":"Feature","properties":{"ID_0":177,"ISO":"PHL","NAME_0":"Philippines","ID_1":9072,"NAME_1":"Zamboanga del Norte","ID_2":907207,"NAME_2":"Manukan","ID_3":907207025,"NAME_3":"San Antonio","NL_NAME_3":null,"VARNAME_3":null,"TYPE_3":"Barangay","ENGTYPE_3":"Village","PROVINCE":"Zamboanga del Norte","REGION":"Region IX (Zamboanga Peninsula)","id":"barangay-0907207025","name":"San Antonio","barangayCode":"0907207025","population":null,"formattedPop":null,"densityCategory":"No data","vulnerabilityRating":"No data","healthRiskLevel":"No data","areaKm2":3.078693,"centerLat":8.521028,"centerLng":123.17537,"geometrySource":"all_barangay-2.csv detailed WKT","geometryMatchMethod":"unique_official_admin_names","boundaryPointCount":49},"geometry":{"type":"MultiPolygon","coordinates":[[[[123.165298,8.5285],[123.165443,8.52855],[123.166634,8.52861],[123.167267,8.52862],[123.167877,8.52876],[123.168053,8.52877],[123.169312,8.52879],[123.170357,8.5292],[123.170464,8.52923],[123.172653,8.5299],[123.174179,8.5303],[123.174667,8.53039],[123.175133,8.53052],[123.175629,8.53062],[123.176132,8.5308],[123.176697,8.5309],[123.177177,8.53111],[123.177643,8.53132],[123.178093,8.53141],[123.178497,8.53155],[123.178932,8.53165],[123.17939,8.53171],[123.179802,8.5319],[123.180267,8.53199],[123.181923,8.53268],[123.182693,8.53309],[123.183517,8.53309],[123.184563,8.53274],[123.184883,8.53274],[123.184036,8.53045],[123.183487,8.52955],[123.183159,8.52929],[123.182259,8.52711],[123.181747,8.52512],[123.18351,8.5236],[123.181351,8.52163],[123.179024,8.52044],[123.18174,8.51871],[123.181953,8.51571],[123.179863,8.5147],[123.177147,8.51546],[123.176277,8.51375],[123.176514,8.51182],[123.174339,8.50942],[123.167587,8.50901],[123.167763,8.51414],[123.165947,8.51883],[123.165237,8.52822],[123.165298,8.5285]]]]}},{"type":"Feature","properties":{"ID_0":177,"ISO":"PHL","NAME_0":"Philippines","ID_1":9072,"NAME_1":"Zamboanga del Norte","ID_2":907207,"NAME_2":"Manukan","ID_3":907207026,"NAME_3":"Upper Disakan","NL_NAME_3":null,"VARNAME_3":null,"TYPE_3":"Barangay","ENGTYPE_3":"Village","PROVINCE":"Zamboanga del Norte","REGION":"Region IX (Zamboanga Peninsula)","id":"barangay-0907207026","name":"Upper Disakan","barangayCode":"0907207026","population":null,"formattedPop":null,"densityCategory":"No data","vulnerabilityRating":"No data","healthRiskLevel":"No data","areaKm2":5.653618,"centerLat":8.475684,"centerLng":123.06454,"geometrySource":"all_barangay-2.csv detailed WKT","geometryMatchMethod":"unique_official_admin_names","boundaryPointCount":49},"geometry":{"type":"MultiPolygon","coordinates":[[[[123.070297,8.48293],[123.072632,8.48344],[123.07579,8.47945],[123.07991,8.47432],[123.083527,8.46932],[123.088013,8.46275],[123.093048,8.45652],[123.096687,8.44998],[123.09726,8.44631],[123.094612,8.44089],[123.092789,8.43775],[123.08326,8.44223],[123.078369,8.44359],[123.071571,8.44507],[123.068733,8.44599],[123.067329,8.44812],[123.065262,8.44851],[123.063019,8.4484],[123.063553,8.45012],[123.065887,8.45175],[123.063766,8.45434],[123.063087,8.45614],[123.064484,8.45706],[123.064171,8.45937],[123.062523,8.4609],[123.062263,8.46115],[123.06263,8.4621],[123.062988,8.463],[123.062691,8.46467],[123.062607,8.4651],[123.061447,8.46554],[123.06073,8.46581],[123.059647,8.466],[123.058693,8.46617],[123.056572,8.46995],[123.056213,8.47096],[123.055359,8.47332],[123.054024,8.47568],[123.05397,8.47576],[123.05265,8.4756],[123.052238,8.47572],[123.051338,8.47597],[123.04969,8.47829],[123.049026,8.48014],[123.050003,8.48301],[123.051559,8.48365],[123.05722,8.48437],[123.062019,8.48294],[123.070297,8.48293]]]]}},{"type":"Feature","properties":{"ID_0":177,"ISO":"PHL","NAME_0":"Philippines","ID_1":9072,"NAME_1":"Zamboanga del Norte","ID_2":907207,"NAME_2":"Manukan","ID_3":907207027,"NAME_3":"East Poblacion","NL_NAME_3":null,"VARNAME_3":null,"TYPE_3":"Barangay","ENGTYPE_3":"Village","PROVINCE":"Zamboanga del Norte","REGION":"Region IX (Zamboanga Peninsula)","id":"barangay-0907207027","name":"East Poblacion","barangayCode":"0907207027","population":null,"formattedPop":null,"densityCategory":"No data","vulnerabilityRating":"No data","healthRiskLevel":"No data","areaKm2":5.362226,"centerLat":8.508583,"centerLng":123.108133,"geometrySource":"all_barangay-2.csv detailed WKT","geometryMatchMethod":"unique_official_admin_names","boundaryPointCount":23},"geometry":{"type":"MultiPolygon","coordinates":[[[[123.094994,8.51905],[123.095963,8.51924],[123.098602,8.51979],[123.102493,8.52028],[123.107147,8.52118],[123.109383,8.52145],[123.111816,8.52159],[123.111877,8.52159],[123.113068,8.52152],[123.113472,8.52154],[123.114464,8.52159],[123.116364,8.52167],[123.116371,8.52146],[123.117073,8.51229],[123.113876,8.50688],[123.112183,8.50347],[123.110641,8.49789],[123.107903,8.49692],[123.104858,8.49708],[123.101212,8.4977],[123.098457,8.49746],[123.09671,8.50531],[123.094994,8.51905]]]]}},{"type":"Feature","properties":{"ID_0":177,"ISO":"PHL","NAME_0":"Philippines","ID_1":9072,"NAME_1":"Zamboanga del Norte","ID_2":907207,"NAME_2":"Manukan","ID_3":907207028,"NAME_3":"Punta Blanca","NL_NAME_3":null,"VARNAME_3":null,"TYPE_3":"Barangay","ENGTYPE_3":"Village","PROVINCE":"Zamboanga del Norte","REGION":"Region IX (Zamboanga Peninsula)","id":"barangay-0907207028","name":"Punta Blanca","barangayCode":"0907207028","population":null,"formattedPop":null,"densityCategory":"No data","vulnerabilityRating":"No data","healthRiskLevel":"No data","areaKm2":6.39216,"centerLat":8.501961,"centerLng":123.068343,"geometrySource":"all_barangay-2.csv detailed WKT","geometryMatchMethod":"unique_official_admin_names","boundaryPointCount":40},"geometry":{"type":"MultiPolygon","coordinates":[[[[123.06266,8.5151],[123.062721,8.51512],[123.063217,8.5153],[123.063728,8.51547],[123.064323,8.51555],[123.064919,8.51561],[123.065483,8.51573],[123.06604,8.51586],[123.066597,8.516],[123.067169,8.51603],[123.067596,8.51594],[123.067703,8.51592],[123.068222,8.5158],[123.068733,8.51565],[123.06926,8.51558],[123.069817,8.51556],[123.070198,8.51556],[123.070381,8.51556],[123.070938,8.51557],[123.071083,8.51558],[123.071472,8.51562],[123.071983,8.51577],[123.072487,8.51583],[123.072792,8.51594],[123.073982,8.51288],[123.076317,8.51034],[123.07785,8.50712],[123.077202,8.50516],[123.078041,8.50267],[123.079224,8.49991],[123.078659,8.4975],[123.076538,8.49418],[123.074181,8.49022],[123.073097,8.48867],[123.072632,8.48344],[123.070297,8.48293],[123.068573,8.48733],[123.067619,8.49875],[123.066429,8.50653],[123.06266,8.5151]]]]}},{"type":"Feature","properties":{"ID_0":177,"ISO":"PHL","NAME_0":"Philippines","ID_1":9072,"NAME_1":"Zamboanga del Norte","ID_2":907207,"NAME_2":"Manukan","ID_3":907207029,"NAME_3":"Suisayan","NL_NAME_3":null,"VARNAME_3":null,"TYPE_3":"Barangay","ENGTYPE_3":"Village","PROVINCE":"Zamboanga del Norte","REGION":"Region IX (Zamboanga Peninsula)","id":"barangay-0907207029","name":"Suisayan","barangayCode":"0907207029","population":null,"formattedPop":null,"densityCategory":"No data","vulnerabilityRating":"No data","healthRiskLevel":"No data","areaKm2":9.090983,"centerLat":8.454742,"centerLng":123.08014,"geometrySource":"all_barangay-2.csv detailed WKT","geometryMatchMethod":"unique_official_admin_names","boundaryPointCount":12},"geometry":{"type":"MultiPolygon","coordinates":[[[[123.103027,8.48035],[123.101151,8.47775],[123.100647,8.47547],[123.100166,8.47242],[123.09948,8.46833],[123.093048,8.45652],[123.088013,8.46275],[123.083527,8.46932],[123.07991,8.47432],[123.089638,8.47841],[123.097366,8.47936],[123.103027,8.48035]]]]}}]}
