{"type":"FeatureCollection","features":[{"type":"Feature","properties":{"ID_0":177,"ISO":"PHL","NAME_0":"Philippines","ID_1":4010,"NAME_1":"Batangas","ID_2":401034,"NAME_2":"Tuy","ID_3":401034001,"NAME_3":"Acle","NL_NAME_3":null,"VARNAME_3":null,"TYPE_3":"Barangay","ENGTYPE_3":"Village","PROVINCE":"Batangas","REGION":"Region IV-A (Calabarzon)","id":"barangay-0401034001","name":"Acle","barangayCode":"0401034001","population":null,"formattedPop":null,"densityCategory":"No data","vulnerabilityRating":"No data","healthRiskLevel":"No data","areaKm2":2.633591,"centerLat":14.009148,"centerLng":120.741286,"geometrySource":"all_barangay-2.csv detailed WKT","geometryMatchMethod":"unique_official_admin_names","boundaryPointCount":45},"geometry":{"type":"MultiPolygon","coordinates":[[[[120.749168,14.02677],[120.752876,14.01609],[120.756027,14.00609],[120.755371,14.00585],[120.754608,14.00529],[120.754044,14.00505],[120.753471,14.00518],[120.752808,14.00513],[120.752037,14.00443],[120.751503,14.00416],[120.750328,14.00392],[120.74865,14.00359],[120.748032,14.00323],[120.747658,14.00233],[120.747383,14.00204],[120.746437,14.00174],[120.74511,14.00173],[120.744003,14.00136],[120.743317,14.00096],[120.742264,13.99964],[120.738403,13.99925],[120.737907,13.99952],[120.737282,13.99969],[120.735733,14.00776],[120.734718,14.01207],[120.735909,14.01341],[120.737297,14.01363],[120.738426,14.01423],[120.739433,14.01455],[120.739929,14.01495],[120.740707,14.01651],[120.741333,14.01812],[120.741699,14.01853],[120.742416,14.01846],[120.743103,14.01875],[120.743027,14.01986],[120.742867,14.02081],[120.743233,14.0212],[120.743698,14.02119],[120.746483,14.02346],[120.747093,14.02353],[120.747978,14.02428],[120.748413,14.02496],[120.748672,14.02583],[120.749168,14.02677]]]]}},{"type":"Feature","properties":{"ID_0":177,"ISO":"PHL","NAME_0":"Philippines","ID_1":4010,"NAME_1":"Batangas","ID_2":401034,"NAME_2":"Tuy","ID_3":401034002,"NAME_3":"Bayudbud","NL_NAME_3":null,"VARNAME_3":null,"TYPE_3":"Barangay","ENGTYPE_3":"Village","PROVINCE":"Batangas","REGION":"Region IV-A (Calabarzon)","id":"barangay-0401034002","name":"Bayudbud","barangayCode":"0401034002","population":null,"formattedPop":null,"densityCategory":"No data","vulnerabilityRating":"No data","healthRiskLevel":"No data","areaKm2":4.643893,"centerLat":14.04582,"centerLng":120.726495,"geometrySource":"all_barangay-2.csv detailed WKT","geometryMatchMethod":"unique_official_admin_names","boundaryPointCount":81},"geometry":{"type":"MultiPolygon","coordinates":[[[[120.734009,14.05974],[120.735786,14.05689],[120.739372,14.05091],[120.739304,14.05059],[120.738602,14.05019],[120.738312,14.04985],[120.738327,14.04888],[120.738083,14.04844],[120.737846,14.04773],[120.7379,14.04708],[120.738098,14.0465],[120.738312,14.04561],[120.738251,14.04487],[120.737694,14.04363],[120.737297,14.0435],[120.737,14.04312],[120.73658,14.04239],[120.734772,14.04202],[120.733749,14.04149],[120.73333,14.04104],[120.732643,14.04066],[120.731743,14.04047],[120.731468,14.04018],[120.730957,14.03959],[120.730026,14.03913],[120.729736,14.03856],[120.729591,14.0378],[120.729103,14.0354],[120.728508,14.03458],[120.727768,14.03337],[120.726837,14.03244],[120.725212,14.03137],[120.723511,14.03086],[120.722549,14.03028],[120.722237,14.03004],[120.721741,14.02903],[120.721283,14.02867],[120.720596,14.02908],[120.720657,14.02954],[120.720543,14.03029],[120.720001,14.03111],[120.719101,14.03276],[120.718803,14.03372],[120.718468,14.03477],[120.717941,14.03631],[120.717888,14.03689],[120.71804,14.03752],[120.718246,14.03828],[120.719597,14.04207],[120.720016,14.04465],[120.720497,14.04705],[120.720818,14.05133],[120.721138,14.0535],[120.721458,14.05745],[120.721741,14.05742],[120.722351,14.05808],[120.722519,14.05879],[120.722816,14.0592],[120.723648,14.05948],[120.724586,14.05948],[120.725227,14.05909],[120.725632,14.05871],[120.726013,14.05787],[120.726318,14.05723],[120.726501,14.05699],[120.727524,14.05803],[120.728127,14.05848],[120.728828,14.05853],[120.729156,14.05815],[120.729279,14.05759],[120.729378,14.05692],[120.729538,14.05666],[120.730408,14.0565],[120.731056,14.05634],[120.7314,14.05649],[120.731773,14.05718],[120.732094,14.05743],[120.732887,14.05759],[120.733337,14.05793],[120.733757,14.05873],[120.734009,14.05974]]]]}},{"type":"Feature","properties":{"ID_0":177,"ISO":"PHL","NAME_0":"Philippines","ID_1":4010,"NAME_1":"Batangas","ID_2":401034,"NAME_2":"Tuy","ID_3":401034003,"NAME_3":"Bolboc","NL_NAME_3":null,"VARNAME_3":null,"TYPE_3":"Barangay","ENGTYPE_3":"Village","PROVINCE":"Batangas","REGION":"Region IV-A (Calabarzon)","id":"barangay-0401034003","name":"Bolboc","barangayCode":"0401034003","population":null,"formattedPop":null,"densityCategory":"No data","vulnerabilityRating":"No data","healthRiskLevel":"No data","areaKm2":4.905799,"centerLat":14.017994,"centerLng":120.75596,"geometrySource":"all_barangay-2.csv detailed WKT","geometryMatchMethod":"unique_official_admin_names","boundaryPointCount":85},"geometry":{"type":"MultiPolygon","coordinates":[[[[120.772537,14.03878],[120.774971,14.0386],[120.776878,14.03793],[120.779091,14.03713],[120.781448,14.03582],[120.783096,14.03474],[120.783997,14.03407],[120.785843,14.03237],[120.78685,14.03126],[120.788002,14.02931],[120.789017,14.02748],[120.789658,14.02589],[120.789368,14.02481],[120.789307,14.02363],[120.789139,14.02217],[120.787514,14.01888],[120.786774,14.01769],[120.785721,14.01716],[120.784523,14.01689],[120.783783,14.01705],[120.782356,14.01764],[120.781868,14.01782],[120.775383,14.01506],[120.774498,14.0142],[120.774071,14.01322],[120.773621,14.01214],[120.772774,14.01137],[120.771523,14.01557],[120.77079,14.01726],[120.769989,14.01614],[120.769943,14.01559],[120.769653,14.01488],[120.768494,14.0141],[120.767479,14.01389],[120.766403,14.01359],[120.766167,14.01304],[120.766037,14.01267],[120.765198,14.01184],[120.763237,14.01057],[120.763031,14.01004],[120.763023,14.00928],[120.762573,14.00838],[120.762177,14.00816],[120.760941,14.00824],[120.759888,14.00836],[120.759132,14.0084],[120.758682,14.00811],[120.757797,14.0069],[120.757027,14.0062],[120.756027,14.00609],[120.752876,14.01609],[120.749168,14.02677],[120.749527,14.02704],[120.751137,14.02744],[120.752548,14.02796],[120.753922,14.0282],[120.754791,14.02818],[120.755577,14.02772],[120.756233,14.02761],[120.757019,14.02782],[120.757629,14.02781],[120.75827,14.02793],[120.758957,14.02868],[120.759483,14.02961],[120.760162,14.03015],[120.760887,14.03025],[120.761917,14.02939],[120.762787,14.02916],[120.763519,14.02928],[120.763939,14.02918],[120.765213,14.02926],[120.766296,14.02963],[120.766792,14.03031],[120.767174,14.03143],[120.76757,14.03214],[120.767937,14.03292],[120.768593,14.03434],[120.769531,14.03459],[120.77018,14.035],[120.770813,14.03556],[120.771103,14.03601],[120.771339,14.03712],[120.771553,14.03788],[120.772079,14.03849],[120.772537,14.03878]]]]}},{"type":"Feature","properties":{"ID_0":177,"ISO":"PHL","NAME_0":"Philippines","ID_1":4010,"NAME_1":"Batangas","ID_2":401034,"NAME_2":"Tuy","ID_3":401034004,"NAME_3":"Dalima","NL_NAME_3":null,"VARNAME_3":null,"TYPE_3":"Barangay","ENGTYPE_3":"Village","PROVINCE":"Batangas","REGION":"Region IV-A (Calabarzon)","id":"barangay-0401034004","name":"Dalima","barangayCode":"0401034004","population":null,"formattedPop":null,"densityCategory":"No data","vulnerabilityRating":"No data","healthRiskLevel":"No data","areaKm2":3.244226,"centerLat":14.030969,"centerLng":120.694489,"geometrySource":"all_barangay-2.csv detailed WKT","geometryMatchMethod":"unique_official_admin_names","boundaryPointCount":24},"geometry":{"type":"MultiPolygon","coordinates":[[[[120.690353,14.03763],[120.691093,14.03865],[120.692032,14.04166],[120.693047,14.04409],[120.698257,14.03386],[120.701897,14.02678],[120.701607,14.02538],[120.701134,14.02404],[120.700447,14.02276],[120.700218,14.02216],[120.699043,14.02159],[120.697746,14.02111],[120.69677,14.02088],[120.695427,14.02131],[120.694672,14.02138],[120.693703,14.02089],[120.692421,14.01997],[120.691704,14.01939],[120.690811,14.01899],[120.68837,14.0185],[120.688583,14.02435],[120.689072,14.02833],[120.689453,14.03099],[120.690353,14.03763]]]]}},{"type":"Feature","properties":{"ID_0":177,"ISO":"PHL","NAME_0":"Philippines","ID_1":4010,"NAME_1":"Batangas","ID_2":401034,"NAME_2":"Tuy","ID_3":401034005,"NAME_3":"Dao","NL_NAME_3":null,"VARNAME_3":null,"TYPE_3":"Barangay","ENGTYPE_3":"Village","PROVINCE":"Batangas","REGION":"Region IV-A (Calabarzon)","id":"barangay-0401034005","name":"Dao","barangayCode":"0401034005","population":null,"formattedPop":null,"densityCategory":"No data","vulnerabilityRating":"No data","healthRiskLevel":"No data","areaKm2":4.442603,"centerLat":13.999398,"centerLng":120.754101,"geometrySource":"all_barangay-2.csv detailed WKT","geometryMatchMethod":"unique_official_admin_names","boundaryPointCount":91},"geometry":{"type":"MultiPolygon","coordinates":[[[[120.772774,14.01137],[120.772331,14.01131],[120.771919,14.01091],[120.771477,14.01041],[120.769676,14.00969],[120.768967,14.00938],[120.768501,14.00856],[120.767502,14.00638],[120.766891,14.00443],[120.766502,14.00286],[120.76606,14.00116],[120.765823,14.00015],[120.765472,13.99927],[120.764061,13.99836],[120.761848,13.99728],[120.760452,13.99606],[120.759293,13.99495],[120.758476,13.99439],[120.757584,13.99423],[120.756393,13.9937],[120.755653,13.99291],[120.754204,13.99155],[120.753487,13.9909],[120.753082,13.99042],[120.751251,13.98942],[120.750549,13.98889],[120.749763,13.98826],[120.748817,13.98767],[120.747337,13.98743],[120.745613,13.9872],[120.744873,13.98689],[120.744102,13.9864],[120.743477,13.98574],[120.742889,13.98515],[120.742218,13.98438],[120.741364,13.98327],[120.740959,13.98427],[120.740929,13.98474],[120.740997,13.98594],[120.741013,13.98641],[120.741074,13.9868],[120.74173,13.98776],[120.741913,13.98842],[120.742081,13.98944],[120.742027,13.99065],[120.742409,13.9915],[120.743477,13.99282],[120.744041,13.99452],[120.743988,13.9961],[120.743172,13.99751],[120.742264,13.99964],[120.743317,14.00096],[120.744003,14.00136],[120.74511,14.00173],[120.746437,14.00174],[120.747383,14.00204],[120.747658,14.00233],[120.748032,14.00323],[120.74865,14.00359],[120.750328,14.00392],[120.751503,14.00416],[120.752037,14.00443],[120.752808,14.00513],[120.753471,14.00518],[120.754044,14.00505],[120.754608,14.00529],[120.755371,14.00585],[120.756027,14.00609],[120.757027,14.0062],[120.757797,14.0069],[120.758682,14.00811],[120.759132,14.0084],[120.759888,14.00836],[120.760941,14.00824],[120.762177,14.00816],[120.762573,14.00838],[120.763023,14.00928],[120.763031,14.01004],[120.763237,14.01057],[120.765198,14.01184],[120.766037,14.01267],[120.766167,14.01304],[120.766403,14.01359],[120.767479,14.01389],[120.768494,14.0141],[120.769653,14.01488],[120.769943,14.01559],[120.769989,14.01614],[120.77079,14.01726],[120.771523,14.01557],[120.772774,14.01137]]]]}},{"type":"Feature","properties":{"ID_0":177,"ISO":"PHL","NAME_0":"Philippines","ID_1":4010,"NAME_1":"Batangas","ID_2":401034,"NAME_2":"Tuy","ID_3":401034006,"NAME_3":"Guinhawa","NL_NAME_3":null,"VARNAME_3":null,"TYPE_3":"Barangay","ENGTYPE_3":"Village","PROVINCE":"Batangas","REGION":"Region IV-A (Calabarzon)","id":"barangay-0401034006","name":"Guinhawa","barangayCode":"0401034006","population":null,"formattedPop":null,"densityCategory":"No data","vulnerabilityRating":"No data","healthRiskLevel":"No data","areaKm2":4.178037,"centerLat":13.976749,"centerLng":120.721862,"geometrySource":"all_barangay-2.csv detailed WKT","geometryMatchMethod":"unique_official_admin_names","boundaryPointCount":72},"geometry":{"type":"MultiPolygon","coordinates":[[[[120.741074,13.9868],[120.741013,13.98641],[120.740997,13.98594],[120.740929,13.98474],[120.740959,13.98427],[120.741364,13.98327],[120.739326,13.98273],[120.738518,13.98241],[120.737389,13.98165],[120.736649,13.9812],[120.736183,13.98056],[120.735764,13.9796],[120.735184,13.97894],[120.734901,13.97804],[120.734573,13.97735],[120.733513,13.97717],[120.73304,13.9772],[120.732536,13.97693],[120.73217,13.97632],[120.731712,13.97575],[120.731247,13.97499],[120.73053,13.97441],[120.729759,13.97382],[120.729088,13.97319],[120.727753,13.97255],[120.727043,13.97235],[120.726273,13.97181],[120.72538,13.97112],[120.725014,13.97013],[120.724228,13.96896],[120.723633,13.96733],[120.723122,13.9665],[120.721863,13.96539],[120.721222,13.96481],[120.720871,13.96393],[120.720993,13.96321],[120.721069,13.96198],[120.720238,13.96141],[120.719978,13.96065],[120.719292,13.96037],[120.718521,13.96088],[120.71756,13.96227],[120.715958,13.96558],[120.715912,13.96691],[120.71579,13.96777],[120.715538,13.96817],[120.715187,13.96881],[120.715302,13.96953],[120.715103,13.97067],[120.714333,13.97169],[120.714104,13.97241],[120.714333,13.97317],[120.714943,13.97434],[120.714737,13.97502],[120.713997,13.97615],[120.713966,13.97697],[120.714523,13.97756],[120.715134,13.97896],[120.715042,13.97931],[120.71489,13.98012],[120.713837,13.98164],[120.712837,13.9825],[120.712349,13.98293],[120.712173,13.98335],[120.717216,13.98501],[120.724449,13.98646],[120.724709,13.98564],[120.724991,13.98554],[120.726936,13.98587],[120.727303,13.98447],[120.728867,13.98471],[120.741074,13.9868]]]]}},{"type":"Feature","properties":{"ID_0":177,"ISO":"PHL","NAME_0":"Philippines","ID_1":4010,"NAME_1":"Batangas","ID_2":401034,"NAME_2":"Tuy","ID_3":401034007,"NAME_3":"Lumbangan","NL_NAME_3":null,"VARNAME_3":null,"TYPE_3":"Barangay","ENGTYPE_3":"Village","PROVINCE":"Batangas","REGION":"Region IV-A (Calabarzon)","id":"barangay-0401034007","name":"Lumbangan","barangayCode":"0401034007","population":null,"formattedPop":null,"densityCategory":"No data","vulnerabilityRating":"No data","healthRiskLevel":"No data","areaKm2":2.989876,"centerLat":14.016733,"centerLng":120.716869,"geometrySource":"all_barangay-2.csv detailed WKT","geometryMatchMethod":"unique_official_admin_names","boundaryPointCount":91},"geometry":{"type":"MultiPolygon","coordinates":[[[[120.712563,14.0247],[120.713577,14.02569],[120.714287,14.02593],[120.71508,14.02593],[120.716103,14.02621],[120.716293,14.02694],[120.716637,14.0274],[120.717934,14.02818],[120.718643,14.02804],[120.720337,14.026],[120.722183,14.02452],[120.723793,14.02336],[120.725304,14.02261],[120.727783,14.02157],[120.726547,14.02072],[120.72567,14.02035],[120.725021,14.01995],[120.724449,14.01883],[120.724136,14.018],[120.724121,14.01728],[120.724182,14.01677],[120.723953,14.01636],[120.723892,14.01569],[120.723923,14.01499],[120.723663,14.01384],[120.723846,14.01311],[120.723877,14.01242],[120.723793,14.01182],[120.723877,14.0116],[120.724129,14.01011],[120.722809,14.0095],[120.721413,14.00958],[120.719177,14.00991],[120.718353,14.00977],[120.717484,14.00935],[120.716797,14.00884],[120.71656,14.00822],[120.716423,14.00759],[120.716011,14.00721],[120.715607,14.00673],[120.716187,14.00591],[120.717003,14.00551],[120.718002,14.00558],[120.71843,14.00487],[120.718483,14.00378],[120.718323,14.00281],[120.718407,14.00207],[120.718193,14.00107],[120.718033,14.00027],[120.717873,13.99967],[120.71711,13.99927],[120.716766,13.99995],[120.716621,14.00042],[120.716217,14.00149],[120.715683,14.00162],[120.713593,14.00263],[120.713333,14.00331],[120.713188,14.00419],[120.713287,14.00484],[120.712936,14.00627],[120.712608,14.00651],[120.712051,14.00689],[120.711937,14.00727],[120.712334,14.00842],[120.712227,14.00888],[120.711899,14.00935],[120.711014,14.00961],[120.710564,14.00995],[120.709824,14.01131],[120.71032,14.01223],[120.710678,14.01252],[120.712433,14.01317],[120.712883,14.01344],[120.712883,14.01365],[120.712608,14.01414],[120.71241,14.01452],[120.712372,14.01496],[120.712517,14.01593],[120.712891,14.01748],[120.712997,14.01826],[120.712761,14.01901],[120.712532,14.01936],[120.712334,14.01993],[120.712029,14.02077],[120.711517,14.02138],[120.71106,14.0217],[120.711029,14.02223],[120.711357,14.0225],[120.712128,14.02269],[120.712624,14.02368],[120.712563,14.0247]]]]}},{"type":"Feature","properties":{"ID_0":177,"ISO":"PHL","NAME_0":"Philippines","ID_1":4010,"NAME_1":"Batangas","ID_2":401034,"NAME_2":"Tuy","ID_3":401034008,"NAME_3":"Luntal","NL_NAME_3":null,"VARNAME_3":null,"TYPE_3":"Barangay","ENGTYPE_3":"Village","PROVINCE":"Batangas","REGION":"Region IV-A (Calabarzon)","id":"barangay-0401034008","name":"Luntal","barangayCode":"0401034008","population":null,"formattedPop":null,"densityCategory":"No data","vulnerabilityRating":"No data","healthRiskLevel":"No data","areaKm2":3.619036,"centerLat":14.037362,"centerLng":120.706533,"geometrySource":"all_barangay-2.csv detailed WKT","geometryMatchMethod":"unique_official_admin_names","boundaryPointCount":68},"geometry":{"type":"MultiPolygon","coordinates":[[[[120.693047,14.04409],[120.693787,14.04535],[120.693481,14.0466],[120.69471,14.04591],[120.695534,14.04632],[120.696022,14.04698],[120.696701,14.04743],[120.697746,14.04793],[120.698624,14.048],[120.701157,14.04789],[120.702011,14.04838],[120.702713,14.04817],[120.703087,14.04793],[120.704453,14.04759],[120.704933,14.04709],[120.706017,14.04523],[120.705994,14.04433],[120.70623,14.04349],[120.706848,14.04261],[120.707863,14.04235],[120.708763,14.04245],[120.709557,14.04233],[120.710403,14.0424],[120.711472,14.04182],[120.712189,14.04145],[120.712692,14.04151],[120.713852,14.04152],[120.714394,14.0413],[120.71521,14.04114],[120.715683,14.04064],[120.716087,14.03979],[120.716492,14.03951],[120.717644,14.03892],[120.718246,14.03828],[120.71804,14.03752],[120.717888,14.03689],[120.717941,14.03631],[120.718468,14.03477],[120.718803,14.03372],[120.719101,14.03276],[120.720001,14.03111],[120.720543,14.03029],[120.720657,14.02954],[120.720596,14.02908],[120.720238,14.02858],[120.719467,14.02825],[120.718643,14.02804],[120.717934,14.02818],[120.716637,14.0274],[120.716293,14.02694],[120.716103,14.02621],[120.71508,14.02593],[120.714287,14.02593],[120.713577,14.02569],[120.712563,14.0247],[120.711403,14.02482],[120.710426,14.02573],[120.709557,14.02698],[120.708412,14.02717],[120.707474,14.02745],[120.706703,14.02807],[120.705688,14.02796],[120.704651,14.02827],[120.703773,14.02815],[120.703033,14.02768],[120.701897,14.02678],[120.698257,14.03386],[120.693047,14.04409]]]]}},{"type":"Feature","properties":{"ID_0":177,"ISO":"PHL","NAME_0":"Philippines","ID_1":4010,"NAME_1":"Batangas","ID_2":401034,"NAME_2":"Tuy","ID_3":401034009,"NAME_3":"Magahis","NL_NAME_3":null,"VARNAME_3":null,"TYPE_3":"Barangay","ENGTYPE_3":"Village","PROVINCE":"Batangas","REGION":"Region IV-A (Calabarzon)","id":"barangay-0401034009","name":"Magahis","barangayCode":"0401034009","population":null,"formattedPop":null,"densityCategory":"No data","vulnerabilityRating":"No data","healthRiskLevel":"No data","areaKm2":12.482375,"centerLat":14.042482,"centerLng":120.76101,"geometrySource":"all_barangay-2.csv detailed WKT","geometryMatchMethod":"unique_official_admin_names","boundaryPointCount":139},"geometry":{"type":"MultiPolygon","coordinates":[[[[120.78492,14.05669],[120.784798,14.05544],[120.784348,14.05337],[120.783257,14.05041],[120.782356,14.04902],[120.781693,14.04795],[120.78154,14.0476],[120.778458,14.04344],[120.776932,14.04163],[120.776009,14.04066],[120.775078,14.03992],[120.772537,14.03878],[120.772079,14.03849],[120.771553,14.03788],[120.771339,14.03712],[120.771103,14.03601],[120.770813,14.03556],[120.77018,14.035],[120.769531,14.03459],[120.768593,14.03434],[120.767937,14.03292],[120.76757,14.03214],[120.767174,14.03143],[120.766792,14.03031],[120.766296,14.02963],[120.765213,14.02926],[120.763939,14.02918],[120.763519,14.02928],[120.762787,14.02916],[120.761917,14.02939],[120.760887,14.03025],[120.760162,14.03015],[120.759483,14.02961],[120.758957,14.02868],[120.75827,14.02793],[120.757629,14.02781],[120.757019,14.02782],[120.756233,14.02761],[120.755577,14.02772],[120.754791,14.02818],[120.753922,14.0282],[120.752548,14.02796],[120.751137,14.02744],[120.749527,14.02704],[120.749168,14.02677],[120.748672,14.02583],[120.748413,14.02496],[120.747978,14.02428],[120.747093,14.02353],[120.746483,14.02346],[120.743698,14.02119],[120.743233,14.0212],[120.742867,14.02081],[120.743027,14.01986],[120.743103,14.01875],[120.742416,14.01846],[120.741699,14.01853],[120.741333,14.01812],[120.740707,14.01651],[120.739929,14.01495],[120.739433,14.01455],[120.738426,14.01423],[120.737297,14.01363],[120.735909,14.01341],[120.734718,14.01207],[120.733818,14.01128],[120.733131,14.01109],[120.732697,14.0111],[120.732277,14.01408],[120.732079,14.01861],[120.731857,14.02237],[120.73159,14.02423],[120.732063,14.02517],[120.73336,14.0262],[120.734367,14.02662],[120.735603,14.0264],[120.736023,14.02657],[120.736359,14.02724],[120.736427,14.02791],[120.736366,14.02874],[120.736397,14.03041],[120.736847,14.03124],[120.737457,14.03198],[120.738037,14.03283],[120.738693,14.03355],[120.739464,14.03411],[120.740227,14.03458],[120.740517,14.03489],[120.741638,14.03584],[120.742577,14.03669],[120.743607,14.03741],[120.74501,14.03793],[120.747101,14.03862],[120.747597,14.03955],[120.748573,14.04087],[120.749496,14.04215],[120.749397,14.04291],[120.749313,14.04347],[120.749924,14.04536],[120.750992,14.04591],[120.752609,14.04637],[120.753143,14.04708],[120.753342,14.04839],[120.753349,14.04948],[120.753899,14.05065],[120.754829,14.05216],[120.755287,14.05309],[120.755669,14.05343],[120.758583,14.05331],[120.759377,14.05292],[120.759911,14.05327],[120.759689,14.0546],[120.75972,14.0558],[120.760048,14.0573],[120.760841,14.05821],[120.762154,14.05891],[120.763527,14.05929],[120.764069,14.05944],[120.764763,14.06021],[120.76561,14.06149],[120.766632,14.06276],[120.767326,14.06371],[120.76828,14.06468],[120.76947,14.06442],[120.770187,14.06436],[120.771141,14.06466],[120.772423,14.06469],[120.77459,14.06383],[120.777138,14.06249],[120.777939,14.06247],[120.778923,14.06216],[120.780022,14.06123],[120.780609,14.0605],[120.781601,14.05994],[120.782402,14.05899],[120.783028,14.05852],[120.783562,14.05834],[120.784409,14.05767],[120.78492,14.05669]]]]}},{"type":"Feature","properties":{"ID_0":177,"ISO":"PHL","NAME_0":"Philippines","ID_1":4010,"NAME_1":"Batangas","ID_2":401034,"NAME_2":"Tuy","ID_3":401034010,"NAME_3":"Malibu","NL_NAME_3":null,"VARNAME_3":null,"TYPE_3":"Barangay","ENGTYPE_3":"Village","PROVINCE":"Batangas","REGION":"Region IV-A (Calabarzon)","id":"barangay-0401034010","name":"Malibu","barangayCode":"0401034010","population":null,"formattedPop":null,"densityCategory":"No data","vulnerabilityRating":"No data","healthRiskLevel":"No data","areaKm2":3.756843,"centerLat":13.995379,"centerLng":120.70173,"geometrySource":"all_barangay-2.csv detailed WKT","geometryMatchMethod":"unique_official_admin_names","boundaryPointCount":68},"geometry":{"type":"MultiPolygon","coordinates":[[[[120.71711,13.99927],[120.717842,13.99811],[120.71801,13.99725],[120.717529,13.99687],[120.716537,13.9964],[120.716011,13.99577],[120.716072,13.99556],[120.716591,13.9954],[120.716988,13.99512],[120.71698,13.99363],[120.716843,13.99319],[120.716393,13.99283],[120.715134,13.99159],[120.715042,13.99108],[120.715263,13.99075],[120.715446,13.99007],[120.715538,13.98891],[120.715736,13.98855],[120.716003,13.98822],[120.716217,13.98743],[120.716331,13.98633],[120.716476,13.98589],[120.717216,13.98501],[120.712173,13.98335],[120.711838,13.98422],[120.710579,13.98662],[120.709663,13.98764],[120.708183,13.98891],[120.707047,13.98958],[120.70549,13.98983],[120.704079,13.99003],[120.703423,13.99039],[120.702591,13.99146],[120.70166,13.99215],[120.701233,13.99268],[120.700897,13.99303],[120.699547,13.99344],[120.69796,13.99401],[120.696823,13.99427],[120.694771,13.99493],[120.693298,13.99534],[120.692268,13.99576],[120.691704,13.99568],[120.691177,13.99525],[120.690376,13.99441],[120.689278,13.99421],[120.688744,13.99441],[120.688057,13.99498],[120.68795,13.9983],[120.688164,14.00064],[120.687851,14.00446],[120.691887,14.00517],[120.692993,14.00528],[120.694618,14.00508],[120.696114,14.00467],[120.697762,14.00421],[120.698868,14.00304],[120.699516,14.00198],[120.700233,14.00157],[120.700783,14.00072],[120.701736,14.00009],[120.70295,13.9993],[120.70388,13.99853],[120.705116,13.99785],[120.706268,13.99738],[120.707489,13.99665],[120.708923,13.99541],[120.71711,13.99927]]]]}},{"type":"Feature","properties":{"ID_0":177,"ISO":"PHL","NAME_0":"Philippines","ID_1":4010,"NAME_1":"Batangas","ID_2":401034,"NAME_2":"Tuy","ID_3":401034011,"NAME_3":"Mataywanac","NL_NAME_3":null,"VARNAME_3":null,"TYPE_3":"Barangay","ENGTYPE_3":"Village","PROVINCE":"Batangas","REGION":"Region IV-A (Calabarzon)","id":"barangay-0401034011","name":"Mataywanac","barangayCode":"0401034011","population":null,"formattedPop":null,"densityCategory":"No data","vulnerabilityRating":"No data","healthRiskLevel":"No data","areaKm2":2.311361,"centerLat":14.031875,"centerLng":120.72986,"geometrySource":"all_barangay-2.csv detailed WKT","geometryMatchMethod":"unique_official_admin_names","boundaryPointCount":52},"geometry":{"type":"MultiPolygon","coordinates":[[[[120.740517,14.03489],[120.740227,14.03458],[120.739464,14.03411],[120.738693,14.03355],[120.738037,14.03283],[120.737457,14.03198],[120.736847,14.03124],[120.736397,14.03041],[120.736366,14.02874],[120.736427,14.02791],[120.736359,14.02724],[120.736023,14.02657],[120.735603,14.0264],[120.734367,14.02662],[120.73336,14.0262],[120.732063,14.02517],[120.73159,14.02423],[120.730667,14.02358],[120.729958,14.02332],[120.727783,14.02157],[120.725304,14.02261],[120.723793,14.02336],[120.722183,14.02452],[120.720337,14.026],[120.718643,14.02804],[120.719467,14.02825],[120.720238,14.02858],[120.720596,14.02908],[120.721283,14.02867],[120.721741,14.02903],[120.722237,14.03004],[120.722549,14.03028],[120.723511,14.03086],[120.725212,14.03137],[120.726837,14.03244],[120.727768,14.03337],[120.728508,14.03458],[120.729103,14.0354],[120.729591,14.0378],[120.729736,14.03856],[120.730026,14.03913],[120.730957,14.03959],[120.731468,14.04018],[120.731743,14.04047],[120.732643,14.04066],[120.73333,14.04104],[120.733749,14.04149],[120.734772,14.04202],[120.73658,14.04239],[120.738213,14.03924],[120.739677,14.03654],[120.740517,14.03489]]]]}},{"type":"Feature","properties":{"ID_0":177,"ISO":"PHL","NAME_0":"Philippines","ID_1":4010,"NAME_1":"Batangas","ID_2":401034,"NAME_2":"Tuy","ID_3":401034012,"NAME_3":"Palincaro","NL_NAME_3":null,"VARNAME_3":null,"TYPE_3":"Barangay","ENGTYPE_3":"Village","PROVINCE":"Batangas","REGION":"Region IV-A (Calabarzon)","id":"barangay-0401034012","name":"Palincaro","barangayCode":"0401034012","population":null,"formattedPop":null,"densityCategory":"No data","vulnerabilityRating":"No data","healthRiskLevel":"No data","areaKm2":3.544675,"centerLat":14.006356,"centerLng":120.701121,"geometrySource":"all_barangay-2.csv detailed WKT","geometryMatchMethod":"unique_official_admin_names","boundaryPointCount":46},"geometry":{"type":"MultiPolygon","coordinates":[[[[120.709824,14.01131],[120.710564,14.00995],[120.711014,14.00961],[120.711899,14.00935],[120.712227,14.00888],[120.712334,14.00842],[120.711937,14.00727],[120.712051,14.00689],[120.712608,14.00651],[120.712936,14.00627],[120.713287,14.00484],[120.713188,14.00419],[120.713333,14.00331],[120.713593,14.00263],[120.715683,14.00162],[120.716217,14.00149],[120.716621,14.00042],[120.716766,13.99995],[120.71711,13.99927],[120.708923,13.99541],[120.707489,13.99665],[120.706268,13.99738],[120.705116,13.99785],[120.70388,13.99853],[120.70295,13.9993],[120.701736,14.00009],[120.700783,14.00072],[120.700233,14.00157],[120.699516,14.00198],[120.698868,14.00304],[120.697762,14.00421],[120.696114,14.00467],[120.694618,14.00508],[120.692993,14.00528],[120.691887,14.00517],[120.687851,14.00446],[120.687157,14.00752],[120.687286,14.0103],[120.697433,14.01439],[120.700127,14.01374],[120.705353,14.0127],[120.706352,14.01193],[120.70652,14.01102],[120.706932,14.01085],[120.708237,14.01091],[120.709824,14.01131]]]]}},{"type":"Feature","properties":{"ID_0":177,"ISO":"PHL","NAME_0":"Philippines","ID_1":4010,"NAME_1":"Batangas","ID_2":401034,"NAME_2":"Tuy","ID_3":401034013,"NAME_3":"Luna","NL_NAME_3":null,"VARNAME_3":null,"TYPE_3":"Barangay","ENGTYPE_3":"Village","PROVINCE":"Batangas","REGION":"Region IV-A (Calabarzon)","id":"barangay-0401034013","name":"Luna","barangayCode":"0401034013","population":null,"formattedPop":null,"densityCategory":"No data","vulnerabilityRating":"No data","healthRiskLevel":"No data","areaKm2":1.168441,"centerLat":14.019151,"centerLng":120.733686,"geometrySource":"all_barangay-2.csv detailed WKT","geometryMatchMethod":"unique_official_admin_names","boundaryPointCount":14},"geometry":{"type":"MultiPolygon","coordinates":[[[[120.73159,14.02423],[120.731857,14.02237],[120.732079,14.01861],[120.732277,14.01408],[120.731697,14.01403],[120.731133,14.01382],[120.731133,14.01477],[120.731117,14.01592],[120.731117,14.01726],[120.731102,14.01863],[120.730766,14.01861],[120.730751,14.01966],[120.730667,14.02358],[120.73159,14.02423]]]]}},{"type":"Feature","properties":{"ID_0":177,"ISO":"PHL","NAME_0":"Philippines","ID_1":4010,"NAME_1":"Batangas","ID_2":401034,"NAME_2":"Tuy","ID_3":401034014,"NAME_3":"Burgos","NL_NAME_3":null,"VARNAME_3":null,"TYPE_3":"Barangay","ENGTYPE_3":"Village","PROVINCE":"Batangas","REGION":"Region IV-A (Calabarzon)","id":"barangay-0401034014","name":"Burgos","barangayCode":"0401034014","population":null,"formattedPop":null,"densityCategory":"No data","vulnerabilityRating":"No data","healthRiskLevel":"No data","areaKm2":0.113639,"centerLat":14.015951,"centerLng":120.730158,"geometrySource":"all_barangay-2.csv detailed WKT","geometryMatchMethod":"unique_official_admin_names","boundaryPointCount":16},"geometry":{"type":"MultiPolygon","coordinates":[[[[120.730667,14.02358],[120.730751,14.01966],[120.730766,14.01861],[120.731102,14.01863],[120.731117,14.01726],[120.731117,14.01592],[120.731133,14.01477],[120.731133,14.01382],[120.730789,14.01366],[120.730186,14.01352],[120.730186,14.01477],[120.730164,14.0159],[120.730164,14.01862],[120.730164,14.01966],[120.729958,14.02332],[120.730667,14.02358]]]]}},{"type":"Feature","properties":{"ID_0":177,"ISO":"PHL","NAME_0":"Philippines","ID_1":4010,"NAME_1":"Batangas","ID_2":401034,"NAME_2":"Tuy","ID_3":401034015,"NAME_3":"Rizal","NL_NAME_3":null,"VARNAME_3":null,"TYPE_3":"Barangay","ENGTYPE_3":"Village","PROVINCE":"Batangas","REGION":"Region IV-A (Calabarzon)","id":"barangay-0401034015","name":"Rizal","barangayCode":"0401034015","population":null,"formattedPop":null,"densityCategory":"No data","vulnerabilityRating":"No data","healthRiskLevel":"No data","areaKm2":0.208818,"centerLat":14.017228,"centerLng":120.729041,"geometrySource":"all_barangay-2.csv detailed WKT","geometryMatchMethod":"unique_official_admin_names","boundaryPointCount":15},"geometry":{"type":"MultiPolygon","coordinates":[[[[120.729958,14.02332],[120.730164,14.01966],[120.730164,14.01862],[120.730164,14.0159],[120.730186,14.01477],[120.730186,14.01352],[120.729637,14.01326],[120.729286,14.01308],[120.729271,14.01476],[120.729279,14.0159],[120.729271,14.01724],[120.729263,14.01861],[120.729263,14.01966],[120.727783,14.02157],[120.729958,14.02332]]]]}},{"type":"Feature","properties":{"ID_0":177,"ISO":"PHL","NAME_0":"Philippines","ID_1":4010,"NAME_1":"Batangas","ID_2":401034,"NAME_2":"Tuy","ID_3":401034016,"NAME_3":"Rillo","NL_NAME_3":null,"VARNAME_3":null,"TYPE_3":"Barangay","ENGTYPE_3":"Village","PROVINCE":"Batangas","REGION":"Region IV-A (Calabarzon)","id":"barangay-0401034016","name":"Rillo","barangayCode":"0401034016","population":null,"formattedPop":null,"densityCategory":"No data","vulnerabilityRating":"No data","healthRiskLevel":"No data","areaKm2":0.684525,"centerLat":14.01637,"centerLng":120.725782,"geometrySource":"all_barangay-2.csv detailed WKT","geometryMatchMethod":"unique_official_admin_names","boundaryPointCount":29},"geometry":{"type":"MultiPolygon","coordinates":[[[[120.727783,14.02157],[120.729263,14.01966],[120.729263,14.01861],[120.729271,14.01724],[120.729279,14.0159],[120.729271,14.01476],[120.729286,14.01308],[120.728737,14.01243],[120.728142,14.01182],[120.727478,14.01096],[120.726898,14.0103],[120.72538,14.01034],[120.724129,14.01011],[120.723877,14.0116],[120.723793,14.01182],[120.723877,14.01242],[120.723846,14.01311],[120.723663,14.01384],[120.723923,14.01499],[120.723892,14.01569],[120.723953,14.01636],[120.724182,14.01677],[120.724121,14.01728],[120.724136,14.018],[120.724449,14.01883],[120.725021,14.01995],[120.72567,14.02035],[120.726547,14.02072],[120.727783,14.02157]]]]}},{"type":"Feature","properties":{"ID_0":177,"ISO":"PHL","NAME_0":"Philippines","ID_1":4010,"NAME_1":"Batangas","ID_2":401034,"NAME_2":"Tuy","ID_3":401034017,"NAME_3":"Putol","NL_NAME_3":null,"VARNAME_3":null,"TYPE_3":"Barangay","ENGTYPE_3":"Village","PROVINCE":"Batangas","REGION":"Region IV-A (Calabarzon)","id":"barangay-0401034017","name":"Putol","barangayCode":"0401034017","population":null,"formattedPop":null,"densityCategory":"No data","vulnerabilityRating":"No data","healthRiskLevel":"No data","areaKm2":3.659484,"centerLat":13.991296,"centerLng":120.729525,"geometrySource":"all_barangay-2.csv detailed WKT","geometryMatchMethod":"unique_official_admin_names","boundaryPointCount":45},"geometry":{"type":"MultiPolygon","coordinates":[[[[120.742264,13.99964],[120.743172,13.99751],[120.743988,13.9961],[120.744041,13.99452],[120.743477,13.99282],[120.742409,13.9915],[120.742027,13.99065],[120.742081,13.98944],[120.741913,13.98842],[120.74173,13.98776],[120.741074,13.9868],[120.728867,13.98471],[120.727303,13.98447],[120.726936,13.98587],[120.724991,13.98554],[120.724709,13.98564],[120.724449,13.98646],[120.717216,13.98501],[120.716476,13.98589],[120.716331,13.98633],[120.716217,13.98743],[120.716003,13.98822],[120.715736,13.98855],[120.715538,13.98891],[120.715446,13.99007],[120.715263,13.99075],[120.715042,13.99108],[120.715134,13.99159],[120.718048,13.992],[120.718742,13.9924],[120.725052,13.99434],[120.728302,13.99544],[120.7304,13.99653],[120.731453,13.99701],[120.732002,13.99746],[120.732277,13.9985],[120.733719,13.99978],[120.734818,14.00036],[120.735413,14.00055],[120.736366,14.00027],[120.73674,13.99994],[120.737282,13.99969],[120.737907,13.99952],[120.738403,13.99925],[120.742264,13.99964]]]]}},{"type":"Feature","properties":{"ID_0":177,"ISO":"PHL","NAME_0":"Philippines","ID_1":4010,"NAME_1":"Batangas","ID_2":401034,"NAME_2":"Tuy","ID_3":401034018,"NAME_3":"Sabang","NL_NAME_3":null,"VARNAME_3":null,"TYPE_3":"Barangay","ENGTYPE_3":"Village","PROVINCE":"Batangas","REGION":"Region IV-A (Calabarzon)","id":"barangay-0401034018","name":"Sabang","barangayCode":"0401034018","population":null,"formattedPop":null,"densityCategory":"No data","vulnerabilityRating":"No data","healthRiskLevel":"No data","areaKm2":4.832022,"centerLat":14.051847,"centerLng":120.708943,"geometrySource":"all_barangay-2.csv detailed WKT","geometryMatchMethod":"unique_official_admin_names","boundaryPointCount":88},"geometry":{"type":"MultiPolygon","coordinates":[[[[120.721458,14.05745],[120.721138,14.0535],[120.720818,14.05133],[120.720497,14.04705],[120.720016,14.04465],[120.719597,14.04207],[120.718246,14.03828],[120.717644,14.03892],[120.716492,14.03951],[120.716087,14.03979],[120.715683,14.04064],[120.71521,14.04114],[120.714394,14.0413],[120.713852,14.04152],[120.712692,14.04151],[120.712189,14.04145],[120.711472,14.04182],[120.710403,14.0424],[120.709557,14.04233],[120.708763,14.04245],[120.707863,14.04235],[120.706848,14.04261],[120.70623,14.04349],[120.705994,14.04433],[120.706017,14.04523],[120.704933,14.04709],[120.704453,14.04759],[120.703087,14.04793],[120.702713,14.04817],[120.702011,14.04838],[120.701157,14.04789],[120.698624,14.048],[120.697746,14.04793],[120.696701,14.04743],[120.696022,14.04698],[120.695534,14.04632],[120.69471,14.04591],[120.693481,14.0466],[120.692253,14.04916],[120.692467,14.05041],[120.69265,14.05138],[120.693588,14.05345],[120.693916,14.05425],[120.694557,14.05595],[120.697723,14.05682],[120.697662,14.05798],[120.697983,14.05876],[120.698563,14.05921],[120.699249,14.05937],[120.699989,14.05954],[120.700859,14.06014],[120.701462,14.06036],[120.702003,14.06041],[120.7024,14.06019],[120.702728,14.05942],[120.702858,14.05881],[120.703087,14.05857],[120.703506,14.05916],[120.703667,14.05983],[120.703934,14.06061],[120.704437,14.06115],[120.705109,14.06137],[120.706284,14.05999],[120.706863,14.05928],[120.707207,14.05892],[120.707703,14.05859],[120.708488,14.05856],[120.709007,14.0589],[120.709831,14.05922],[120.710609,14.05909],[120.711777,14.05868],[120.712837,14.05829],[120.714073,14.05828],[120.714882,14.05804],[120.715752,14.05793],[120.716591,14.05807],[120.717163,14.05826],[120.717697,14.05813],[120.718224,14.058],[120.718826,14.05806],[120.719269,14.05848],[120.719421,14.0588],[120.719589,14.05892],[120.720047,14.05932],[120.720543,14.05961],[120.721024,14.05955],[120.721237,14.05878],[120.721458,14.05745]]]]}},{"type":"Feature","properties":{"ID_0":177,"ISO":"PHL","NAME_0":"Philippines","ID_1":4010,"NAME_1":"Batangas","ID_2":401034,"NAME_2":"Tuy","ID_3":401034019,"NAME_3":"San Jose","NL_NAME_3":null,"VARNAME_3":null,"TYPE_3":"Barangay","ENGTYPE_3":"Village","PROVINCE":"Batangas","REGION":"Region IV-A (Calabarzon)","id":"barangay-0401034019","name":"San Jose","barangayCode":"0401034019","population":null,"formattedPop":null,"densityCategory":"No data","vulnerabilityRating":"No data","healthRiskLevel":"No data","areaKm2":9.670216,"centerLat":14.034091,"centerLng":120.781853,"geometrySource":"all_barangay-2.csv detailed WKT","geometryMatchMethod":"unique_official_admin_names","boundaryPointCount":58},"geometry":{"type":"MultiPolygon","coordinates":[[[[120.792343,14.06168],[120.793892,14.05995],[120.79406,14.05888],[120.794312,14.05767],[120.794113,14.05689],[120.793663,14.0553],[120.79361,14.05419],[120.793831,14.05373],[120.793938,14.05236],[120.794159,14.05173],[120.794708,14.05114],[120.795479,14.04945],[120.795822,14.04833],[120.796219,14.04795],[120.796837,14.0477],[120.797836,14.04812],[120.798927,14.04843],[120.799797,14.04844],[120.800507,14.04826],[120.801361,14.04749],[120.800377,14.0459],[120.79892,14.0435],[120.797943,14.04182],[120.796257,14.03922],[120.794296,14.03651],[120.792297,14.03409],[120.791199,14.03335],[120.790207,14.0324],[120.789726,14.03105],[120.789803,14.02989],[120.789864,14.02771],[120.789658,14.02589],[120.789017,14.02748],[120.788002,14.02931],[120.78685,14.03126],[120.785843,14.03237],[120.783997,14.03407],[120.783096,14.03474],[120.781448,14.03582],[120.779091,14.03713],[120.776878,14.03793],[120.774971,14.0386],[120.772537,14.03878],[120.775078,14.03992],[120.776009,14.04066],[120.776932,14.04163],[120.778458,14.04344],[120.78154,14.0476],[120.781693,14.04795],[120.782356,14.04902],[120.783257,14.05041],[120.784348,14.05337],[120.784798,14.05544],[120.78492,14.05669],[120.78685,14.05768],[120.788979,14.05922],[120.790718,14.06029],[120.792343,14.06168]]]]}},{"type":"Feature","properties":{"ID_0":177,"ISO":"PHL","NAME_0":"Philippines","ID_1":4010,"NAME_1":"Batangas","ID_2":401034,"NAME_2":"Tuy","ID_3":401034021,"NAME_3":"Talon","NL_NAME_3":null,"VARNAME_3":null,"TYPE_3":"Barangay","ENGTYPE_3":"Village","PROVINCE":"Batangas","REGION":"Region IV-A (Calabarzon)","id":"barangay-0401034021","name":"Talon","barangayCode":"0401034021","population":null,"formattedPop":null,"densityCategory":"No data","vulnerabilityRating":"No data","healthRiskLevel":"No data","areaKm2":3.343847,"centerLat":14.018712,"centerLng":120.700201,"geometrySource":"all_barangay-2.csv detailed WKT","geometryMatchMethod":"unique_official_admin_names","boundaryPointCount":59},"geometry":{"type":"MultiPolygon","coordinates":[[[[120.701897,14.02678],[120.703033,14.02768],[120.703773,14.02815],[120.704651,14.02827],[120.705688,14.02796],[120.706703,14.02807],[120.707474,14.02745],[120.708412,14.02717],[120.709557,14.02698],[120.710426,14.02573],[120.711403,14.02482],[120.712563,14.0247],[120.712624,14.02368],[120.712128,14.02269],[120.711357,14.0225],[120.711029,14.02223],[120.71106,14.0217],[120.711517,14.02138],[120.712029,14.02077],[120.712334,14.01993],[120.712532,14.01936],[120.712761,14.01901],[120.712997,14.01826],[120.712891,14.01748],[120.712517,14.01593],[120.712372,14.01496],[120.71241,14.01452],[120.712608,14.01414],[120.712883,14.01365],[120.712883,14.01344],[120.712433,14.01317],[120.710678,14.01252],[120.71032,14.01223],[120.709824,14.01131],[120.708237,14.01091],[120.706932,14.01085],[120.70652,14.01102],[120.706352,14.01193],[120.705353,14.0127],[120.700127,14.01374],[120.697433,14.01439],[120.687286,14.0103],[120.687263,14.01274],[120.687881,14.0164],[120.68837,14.0185],[120.690811,14.01899],[120.691704,14.01939],[120.692421,14.01997],[120.693703,14.02089],[120.694672,14.02138],[120.695427,14.02131],[120.69677,14.02088],[120.697746,14.02111],[120.699043,14.02159],[120.700218,14.02216],[120.700447,14.02276],[120.701134,14.02404],[120.701607,14.02538],[120.701897,14.02678]]]]}},{"type":"Feature","properties":{"ID_0":177,"ISO":"PHL","NAME_0":"Philippines","ID_1":4010,"NAME_1":"Batangas","ID_2":401034,"NAME_2":"Tuy","ID_3":401034022,"NAME_3":"Toong","NL_NAME_3":null,"VARNAME_3":null,"TYPE_3":"Barangay","ENGTYPE_3":"Village","PROVINCE":"Batangas","REGION":"Region IV-A (Calabarzon)","id":"barangay-0401034022","name":"Toong","barangayCode":"0401034022","population":null,"formattedPop":null,"densityCategory":"No data","vulnerabilityRating":"No data","healthRiskLevel":"No data","areaKm2":13.830535,"centerLat":14.062679,"centerLng":120.761425,"geometrySource":"all_barangay-2.csv detailed WKT","geometryMatchMethod":"unique_official_admin_names","boundaryPointCount":145},"geometry":{"type":"MultiPolygon","coordinates":[[[[120.760887,14.07684],[120.761391,14.07588],[120.761673,14.07504],[120.762253,14.07461],[120.763,14.07496],[120.764099,14.07546],[120.767647,14.07729],[120.768677,14.07817],[120.770157,14.08021],[120.770813,14.0811],[120.771584,14.08143],[120.772133,14.08109],[120.773354,14.08029],[120.774483,14.08031],[120.77581,14.08062],[120.777618,14.08148],[120.779358,14.08266],[120.780518,14.08305],[120.78183,14.08299],[120.782784,14.08255],[120.785988,14.08152],[120.787979,14.0813],[120.78891,14.08098],[120.790092,14.07972],[120.790131,14.07843],[120.790367,14.07756],[120.790642,14.07642],[120.790527,14.07564],[120.789993,14.07457],[120.79026,14.07359],[120.790657,14.07256],[120.790321,14.06951],[120.79055,14.06842],[120.791153,14.06523],[120.791267,14.06361],[120.791656,14.06253],[120.792343,14.06168],[120.790718,14.06029],[120.788979,14.05922],[120.78685,14.05768],[120.78492,14.05669],[120.784409,14.05767],[120.783562,14.05834],[120.783028,14.05852],[120.782402,14.05899],[120.781601,14.05994],[120.780609,14.0605],[120.780022,14.06123],[120.778923,14.06216],[120.777939,14.06247],[120.777138,14.06249],[120.77459,14.06383],[120.772423,14.06469],[120.771141,14.06466],[120.770187,14.06436],[120.76947,14.06442],[120.76828,14.06468],[120.767326,14.06371],[120.766632,14.06276],[120.76561,14.06149],[120.764763,14.06021],[120.764069,14.05944],[120.763527,14.05929],[120.762154,14.05891],[120.760841,14.05821],[120.760048,14.0573],[120.75972,14.0558],[120.759689,14.0546],[120.759911,14.05327],[120.759377,14.05292],[120.758583,14.05331],[120.755669,14.05343],[120.755287,14.05309],[120.754829,14.05216],[120.753899,14.05065],[120.753349,14.04948],[120.753342,14.04839],[120.753143,14.04708],[120.752609,14.04637],[120.750992,14.04591],[120.749924,14.04536],[120.749313,14.04347],[120.749397,14.04291],[120.749496,14.04215],[120.748573,14.04087],[120.747597,14.03955],[120.747101,14.03862],[120.74501,14.03793],[120.743607,14.03741],[120.742577,14.03669],[120.741638,14.03584],[120.740517,14.03489],[120.739677,14.03654],[120.738213,14.03924],[120.73658,14.04239],[120.737,14.04312],[120.737297,14.0435],[120.737694,14.04363],[120.738251,14.04487],[120.738312,14.04561],[120.738098,14.0465],[120.7379,14.04708],[120.737846,14.04773],[120.738083,14.04844],[120.738327,14.04888],[120.738312,14.04985],[120.738602,14.05019],[120.739304,14.05059],[120.739372,14.05091],[120.735786,14.05689],[120.734009,14.05974],[120.7341,14.06059],[120.734207,14.06115],[120.734909,14.06157],[120.735367,14.06158],[120.736366,14.06174],[120.736923,14.06216],[120.737663,14.06309],[120.738358,14.06366],[120.739578,14.06432],[120.740952,14.06465],[120.741318,14.06427],[120.741699,14.06354],[120.742393,14.06306],[120.742897,14.06374],[120.743118,14.06453],[120.743507,14.06526],[120.744423,14.06574],[120.745827,14.06598],[120.746948,14.0663],[120.748337,14.06715],[120.749413,14.06851],[120.75103,14.07013],[120.75164,14.07081],[120.752151,14.07181],[120.752777,14.07226],[120.75386,14.07242],[120.75486,14.07251],[120.755676,14.07369],[120.7565,14.07425],[120.757347,14.07495],[120.758469,14.07573],[120.75946,14.07656],[120.76017,14.07691],[120.760887,14.07684]]]]}},{"type":"Feature","properties":{"ID_0":177,"ISO":"PHL","NAME_0":"Philippines","ID_1":4010,"NAME_1":"Batangas","ID_2":401034,"NAME_2":"Tuy","ID_3":401034023,"NAME_3":"Tuyon-tuyon","NL_NAME_3":null,"VARNAME_3":null,"TYPE_3":"Barangay","ENGTYPE_3":"Village","PROVINCE":"Batangas","REGION":"Region IV-A (Calabarzon)","id":"barangay-0401034023","name":"Tuyon-tuyon","barangayCode":"0401034023","population":null,"formattedPop":null,"densityCategory":"No data","vulnerabilityRating":"No data","healthRiskLevel":"No data","areaKm2":3.276803,"centerLat":14.003081,"centerLng":120.724585,"geometrySource":"all_barangay-2.csv detailed WKT","geometryMatchMethod":"unique_official_admin_names","boundaryPointCount":66},"geometry":{"type":"MultiPolygon","coordinates":[[[[120.732277,14.01408],[120.732697,14.0111],[120.733131,14.01109],[120.733818,14.01128],[120.734718,14.01207],[120.735733,14.00776],[120.737282,13.99969],[120.73674,13.99994],[120.736366,14.00027],[120.735413,14.00055],[120.734818,14.00036],[120.733719,13.99978],[120.732277,13.9985],[120.732002,13.99746],[120.731453,13.99701],[120.7304,13.99653],[120.728302,13.99544],[120.725052,13.99434],[120.718742,13.9924],[120.718048,13.992],[120.715134,13.99159],[120.716393,13.99283],[120.716843,13.99319],[120.71698,13.99363],[120.716988,13.99512],[120.716591,13.9954],[120.716072,13.99556],[120.716011,13.99577],[120.716537,13.9964],[120.717529,13.99687],[120.71801,13.99725],[120.717842,13.99811],[120.71711,13.99927],[120.717873,13.99967],[120.718033,14.00027],[120.718193,14.00107],[120.718407,14.00207],[120.718323,14.00281],[120.718483,14.00378],[120.71843,14.00487],[120.718002,14.00558],[120.717003,14.00551],[120.716187,14.00591],[120.715607,14.00673],[120.716011,14.00721],[120.716423,14.00759],[120.71656,14.00822],[120.716797,14.00884],[120.717484,14.00935],[120.718353,14.00977],[120.719177,14.00991],[120.721413,14.00958],[120.722809,14.0095],[120.724129,14.01011],[120.72538,14.01034],[120.726898,14.0103],[120.727478,14.01096],[120.728142,14.01182],[120.728737,14.01243],[120.729286,14.01308],[120.729637,14.01326],[120.730186,14.01352],[120.730789,14.01366],[120.731133,14.01382],[120.731697,14.01403],[120.732277,14.01408]]]]}}]}
