{"type":"FeatureCollection","features":[{"type":"Feature","properties":{"ID_0":177,"ISO":"PHL","NAME_0":"Philippines","ID_1":1055,"NAME_1":"Pangasinan","ID_2":105510,"NAME_2":"Bautista","ID_3":105510001,"NAME_3":"Artacho","NL_NAME_3":null,"VARNAME_3":null,"TYPE_3":"Barangay","ENGTYPE_3":"Village","PROVINCE":"Pangasinan","REGION":"Region I (Ilocos Region)","id":"barangay-0105510001","name":"Artacho","barangayCode":"0105510001","population":null,"formattedPop":null,"densityCategory":"No data","vulnerabilityRating":"No data","healthRiskLevel":"No data","areaKm2":1.233427,"centerLat":15.808149,"centerLng":120.565077,"geometrySource":"all_barangay-2.csv detailed WKT","geometryMatchMethod":"unique_official_admin_names","boundaryPointCount":21},"geometry":{"type":"MultiPolygon","coordinates":[[[[120.573029,15.83228],[120.569283,15.81758],[120.568687,15.81691],[120.567719,15.81645],[120.566277,15.81564],[120.563599,15.81423],[120.561913,15.81338],[120.560379,15.81277],[120.559807,15.81375],[120.557999,15.81636],[120.555687,15.81938],[120.553268,15.82241],[120.551849,15.82478],[120.551323,15.82625],[120.548759,15.83051],[120.547638,15.8317],[120.546982,15.83224],[120.550323,15.8322],[120.554359,15.83214],[120.563026,15.83203],[120.573029,15.83228]]]]}},{"type":"Feature","properties":{"ID_0":177,"ISO":"PHL","NAME_0":"Philippines","ID_1":1055,"NAME_1":"Pangasinan","ID_2":105510,"NAME_2":"Bautista","ID_3":105510003,"NAME_3":"Cabuaan","NL_NAME_3":null,"VARNAME_3":null,"TYPE_3":"Barangay","ENGTYPE_3":"Village","PROVINCE":"Pangasinan","REGION":"Region I (Ilocos Region)","id":"barangay-0105510003","name":"Cabuaan","barangayCode":"0105510003","population":null,"formattedPop":null,"densityCategory":"No data","vulnerabilityRating":"No data","healthRiskLevel":"No data","areaKm2":0.440925,"centerLat":15.807669,"centerLng":120.469064,"geometrySource":"all_barangay-2.csv detailed WKT","geometryMatchMethod":"unique_official_admin_names","boundaryPointCount":23},"geometry":{"type":"MultiPolygon","coordinates":[[[[120.473457,15.81271],[120.476593,15.81199],[120.476913,15.81077],[120.480942,15.81186],[120.480614,15.81369],[120.486603,15.8112],[120.486656,15.81037],[120.486771,15.8087],[120.486702,15.80758],[120.485977,15.80644],[120.484627,15.80616],[120.483498,15.80668],[120.482422,15.8065],[120.481697,15.80622],[120.480743,15.80556],[120.479897,15.80595],[120.479591,15.80629],[120.47818,15.80656],[120.477013,15.80638],[120.475197,15.80713],[120.47419,15.80849],[120.472893,15.81184],[120.473457,15.81271]]]]}},{"type":"Feature","properties":{"ID_0":177,"ISO":"PHL","NAME_0":"Philippines","ID_1":1055,"NAME_1":"Pangasinan","ID_2":105510,"NAME_2":"Bautista","ID_3":105510004,"NAME_3":"Cacandongan","NL_NAME_3":null,"VARNAME_3":null,"TYPE_3":"Barangay","ENGTYPE_3":"Village","PROVINCE":"Pangasinan","REGION":"Region I (Ilocos Region)","id":"barangay-0105510004","name":"Cacandongan","barangayCode":"0105510004","population":null,"formattedPop":null,"densityCategory":"No data","vulnerabilityRating":"No data","healthRiskLevel":"No data","areaKm2":0.429588,"centerLat":15.82144,"centerLng":120.481338,"geometrySource":"all_barangay-2.csv detailed WKT","geometryMatchMethod":"unique_official_admin_names","boundaryPointCount":22},"geometry":{"type":"MultiPolygon","coordinates":[[[[120.493042,15.83179],[120.49659,15.8316],[120.495682,15.83132],[120.493782,15.82995],[120.49263,15.82882],[120.491493,15.82734],[120.491249,15.82651],[120.490868,15.82473],[120.490379,15.82309],[120.48922,15.82228],[120.488647,15.82268],[120.488083,15.82289],[120.487534,15.82315],[120.488998,15.82554],[120.488937,15.82717],[120.487221,15.82949],[120.485947,15.83056],[120.484741,15.83133],[120.48671,15.83197],[120.489349,15.83219],[120.490959,15.83207],[120.493042,15.83179]]]]}},{"type":"Feature","properties":{"ID_0":177,"ISO":"PHL","NAME_0":"Philippines","ID_1":1055,"NAME_1":"Pangasinan","ID_2":105510,"NAME_2":"Bautista","ID_3":105510006,"NAME_3":"Diaz","NL_NAME_3":null,"VARNAME_3":null,"TYPE_3":"Barangay","ENGTYPE_3":"Village","PROVINCE":"Pangasinan","REGION":"Region I (Ilocos Region)","id":"barangay-0105510006","name":"Diaz","barangayCode":"0105510006","population":null,"formattedPop":null,"densityCategory":"No data","vulnerabilityRating":"No data","healthRiskLevel":"No data","areaKm2":13.481488,"centerLat":15.793816,"centerLng":120.508022,"geometrySource":"all_barangay-2.csv detailed WKT","geometryMatchMethod":"unique_official_admin_names","boundaryPointCount":60},"geometry":{"type":"MultiPolygon","coordinates":[[[[120.531303,15.81734],[120.531319,15.81681],[120.532379,15.81524],[120.532707,15.81137],[120.532051,15.80989],[120.53199,15.80512],[120.532593,15.80124],[120.533279,15.79749],[120.533768,15.79412],[120.533981,15.79255],[120.529327,15.79457],[120.528008,15.78535],[120.527641,15.78194],[120.52639,15.77605],[120.525002,15.76935],[120.52417,15.76605],[120.506241,15.78314],[120.506416,15.78505],[120.507042,15.78744],[120.507942,15.79024],[120.508423,15.7956],[120.507751,15.79697],[120.503853,15.79965],[120.500587,15.801],[120.496964,15.80243],[120.494476,15.80399],[120.494347,15.80538],[120.494614,15.80716],[120.494507,15.80783],[120.494362,15.8088],[120.493736,15.80948],[120.492996,15.81159],[120.492867,15.81249],[120.493088,15.81361],[120.49366,15.81549],[120.494812,15.81527],[120.4953,15.81531],[120.495644,15.81526],[120.4972,15.81361],[120.498039,15.8129],[120.499153,15.81301],[120.499817,15.81384],[120.501213,15.81473],[120.502739,15.81629],[120.503227,15.81685],[120.504608,15.8168],[120.505783,15.8174],[120.508186,15.8173],[120.509842,15.81796],[120.513329,15.81912],[120.515167,15.81958],[120.516823,15.81968],[120.517273,15.81842],[120.517982,15.81659],[120.519203,15.81456],[120.520119,15.81443],[120.522499,15.81472],[120.525963,15.81551],[120.528358,15.81624],[120.531303,15.81734]]]]}},{"type":"Feature","properties":{"ID_0":177,"ISO":"PHL","NAME_0":"Philippines","ID_1":1055,"NAME_1":"Pangasinan","ID_2":105510,"NAME_2":"Bautista","ID_3":105510007,"NAME_3":"Nandacan","NL_NAME_3":null,"VARNAME_3":null,"TYPE_3":"Barangay","ENGTYPE_3":"Village","PROVINCE":"Pangasinan","REGION":"Region I (Ilocos Region)","id":"barangay-0105510007","name":"Nandacan","barangayCode":"0105510007","population":null,"formattedPop":null,"densityCategory":"No data","vulnerabilityRating":"No data","healthRiskLevel":"No data","areaKm2":0.373844,"centerLat":15.812771,"centerLng":120.479258,"geometrySource":"all_barangay-2.csv detailed WKT","geometryMatchMethod":"unique_official_admin_names","boundaryPointCount":20},"geometry":{"type":"MultiPolygon","coordinates":[[[[120.48922,15.82228],[120.489632,15.82104],[120.490349,15.81956],[120.49173,15.81814],[120.491013,15.81754],[120.490837,15.81714],[120.490547,15.81578],[120.488503,15.81426],[120.486633,15.81452],[120.484871,15.81544],[120.482246,15.81695],[120.481644,15.81759],[120.482628,15.8185],[120.484062,15.8198],[120.484756,15.82034],[120.486526,15.82152],[120.487534,15.82315],[120.488083,15.82289],[120.488647,15.82268],[120.48922,15.82228]]]]}},{"type":"Feature","properties":{"ID_0":177,"ISO":"PHL","NAME_0":"Philippines","ID_1":1055,"NAME_1":"Pangasinan","ID_2":105510,"NAME_2":"Bautista","ID_3":105510009,"NAME_3":"Nibaliw Norte","NL_NAME_3":null,"VARNAME_3":null,"TYPE_3":"Barangay","ENGTYPE_3":"Village","PROVINCE":"Pangasinan","REGION":"Region I (Ilocos Region)","id":"barangay-0105510009","name":"Nibaliw Norte","barangayCode":"0105510009","population":null,"formattedPop":null,"densityCategory":"No data","vulnerabilityRating":"No data","healthRiskLevel":"No data","areaKm2":0.643469,"centerLat":15.814524,"centerLng":120.461982,"geometrySource":"all_barangay-2.csv detailed WKT","geometryMatchMethod":"unique_official_admin_names","boundaryPointCount":12},"geometry":{"type":"MultiPolygon","coordinates":[[[[120.465446,15.81862],[120.466042,15.82072],[120.469704,15.82276],[120.470497,15.82067],[120.471123,15.81842],[120.471626,15.81697],[120.472656,15.81434],[120.467232,15.81256],[120.466766,15.81343],[120.465591,15.81614],[120.465797,15.81799],[120.465446,15.81862]]]]}},{"type":"Feature","properties":{"ID_0":177,"ISO":"PHL","NAME_0":"Philippines","ID_1":1055,"NAME_1":"Pangasinan","ID_2":105510,"NAME_2":"Bautista","ID_3":105510010,"NAME_3":"Nibaliw Sur","NL_NAME_3":null,"VARNAME_3":null,"TYPE_3":"Barangay","ENGTYPE_3":"Village","PROVINCE":"Pangasinan","REGION":"Region I (Ilocos Region)","id":"barangay-0105510010","name":"Nibaliw Sur","barangayCode":"0105510010","population":null,"formattedPop":null,"densityCategory":"No data","vulnerabilityRating":"No data","healthRiskLevel":"No data","areaKm2":0.228293,"centerLat":15.809209,"centerLng":120.461835,"geometrySource":"all_barangay-2.csv detailed WKT","geometryMatchMethod":"unique_official_admin_names","boundaryPointCount":9},"geometry":{"type":"MultiPolygon","coordinates":[[[[120.473457,15.81271],[120.472893,15.81184],[120.468407,15.80895],[120.468391,15.80931],[120.468277,15.81067],[120.468277,15.81073],[120.467232,15.81256],[120.472656,15.81434],[120.473457,15.81271]]]]}},{"type":"Feature","properties":{"ID_0":177,"ISO":"PHL","NAME_0":"Philippines","ID_1":1055,"NAME_1":"Pangasinan","ID_2":105510,"NAME_2":"Bautista","ID_3":105510011,"NAME_3":"Palisoc","NL_NAME_3":null,"VARNAME_3":null,"TYPE_3":"Barangay","ENGTYPE_3":"Village","PROVINCE":"Pangasinan","REGION":"Region I (Ilocos Region)","id":"barangay-0105510011","name":"Palisoc","barangayCode":"0105510011","population":null,"formattedPop":null,"densityCategory":"No data","vulnerabilityRating":"No data","healthRiskLevel":"No data","areaKm2":1.282277,"centerLat":15.81041,"centerLng":120.491339,"geometrySource":"all_barangay-2.csv detailed WKT","geometryMatchMethod":"unique_official_admin_names","boundaryPointCount":29},"geometry":{"type":"MultiPolygon","coordinates":[[[[120.49987,15.8257],[120.501183,15.82651],[120.502113,15.82622],[120.502907,15.82618],[120.504517,15.82558],[120.504784,15.82382],[120.504593,15.82184],[120.504631,15.81975],[120.505783,15.8174],[120.504608,15.8168],[120.503227,15.81685],[120.502739,15.81629],[120.501213,15.81473],[120.499817,15.81384],[120.499153,15.81301],[120.498039,15.8129],[120.4972,15.81361],[120.495644,15.81526],[120.4953,15.81531],[120.494812,15.81527],[120.49366,15.81549],[120.493301,15.81664],[120.492996,15.81844],[120.492859,15.81872],[120.494583,15.81996],[120.496307,15.82162],[120.496811,15.82234],[120.497917,15.82317],[120.49987,15.8257]]]]}},{"type":"Feature","properties":{"ID_0":177,"ISO":"PHL","NAME_0":"Philippines","ID_1":1055,"NAME_1":"Pangasinan","ID_2":105510,"NAME_2":"Bautista","ID_3":105510012,"NAME_3":"Poblacion East","NL_NAME_3":null,"VARNAME_3":null,"TYPE_3":"Barangay","ENGTYPE_3":"Village","PROVINCE":"Pangasinan","REGION":"Region I (Ilocos Region)","id":"barangay-0105510012","name":"Poblacion East","barangayCode":"0105510012","population":null,"formattedPop":null,"densityCategory":"No data","vulnerabilityRating":"No data","healthRiskLevel":"No data","areaKm2":0.506108,"centerLat":15.809615,"centerLng":120.477832,"geometrySource":"all_barangay-2.csv detailed WKT","geometryMatchMethod":"unique_official_admin_names","boundaryPointCount":25},"geometry":{"type":"MultiPolygon","coordinates":[[[[120.49173,15.81814],[120.492859,15.81872],[120.492996,15.81844],[120.493301,15.81664],[120.49366,15.81549],[120.493088,15.81361],[120.492867,15.81249],[120.492996,15.81159],[120.493736,15.80948],[120.494362,15.8088],[120.486603,15.8112],[120.480614,15.81369],[120.477638,15.81449],[120.477341,15.81664],[120.478256,15.81594],[120.479881,15.8163],[120.481644,15.81759],[120.482246,15.81695],[120.484871,15.81544],[120.486633,15.81452],[120.488503,15.81426],[120.490547,15.81578],[120.490837,15.81714],[120.491013,15.81754],[120.49173,15.81814]]]]}},{"type":"Feature","properties":{"ID_0":177,"ISO":"PHL","NAME_0":"Philippines","ID_1":1055,"NAME_1":"Pangasinan","ID_2":105510,"NAME_2":"Bautista","ID_3":105510013,"NAME_3":"Poblacion West","NL_NAME_3":null,"VARNAME_3":null,"TYPE_3":"Barangay","ENGTYPE_3":"Village","PROVINCE":"Pangasinan","REGION":"Region I (Ilocos Region)","id":"barangay-0105510013","name":"Poblacion West","barangayCode":"0105510013","population":null,"formattedPop":null,"densityCategory":"No data","vulnerabilityRating":"No data","healthRiskLevel":"No data","areaKm2":0.176788,"centerLat":15.811087,"centerLng":120.467683,"geometrySource":"all_barangay-2.csv detailed WKT","geometryMatchMethod":"unique_official_admin_names","boundaryPointCount":10},"geometry":{"type":"MultiPolygon","coordinates":[[[[120.471626,15.81697],[120.477341,15.81664],[120.477638,15.81449],[120.480614,15.81369],[120.480942,15.81186],[120.476913,15.81077],[120.476593,15.81199],[120.473457,15.81271],[120.472656,15.81434],[120.471626,15.81697]]]]}},{"type":"Feature","properties":{"ID_0":177,"ISO":"PHL","NAME_0":"Philippines","ID_1":1055,"NAME_1":"Pangasinan","ID_2":105510,"NAME_2":"Bautista","ID_3":105510014,"NAME_3":"Pogo","NL_NAME_3":null,"VARNAME_3":null,"TYPE_3":"Barangay","ENGTYPE_3":"Village","PROVINCE":"Pangasinan","REGION":"Region I (Ilocos Region)","id":"barangay-0105510014","name":"Pogo","barangayCode":"0105510014","population":null,"formattedPop":null,"densityCategory":"No data","vulnerabilityRating":"No data","healthRiskLevel":"No data","areaKm2":2.608131,"centerLat":15.812867,"centerLng":120.503921,"geometrySource":"all_barangay-2.csv detailed WKT","geometryMatchMethod":"unique_official_admin_names","boundaryPointCount":39},"geometry":{"type":"MultiPolygon","coordinates":[[[[120.52092,15.83206],[120.526497,15.83192],[120.528549,15.83205],[120.53006,15.83211],[120.530296,15.83177],[120.531067,15.82944],[120.531273,15.8272],[120.531158,15.82201],[120.531227,15.81871],[120.531319,15.81748],[120.531303,15.81734],[120.528358,15.81624],[120.525963,15.81551],[120.522499,15.81472],[120.520119,15.81443],[120.519203,15.81456],[120.517982,15.81659],[120.517273,15.81842],[120.516823,15.81968],[120.515167,15.81958],[120.513329,15.81912],[120.509842,15.81796],[120.508186,15.8173],[120.505783,15.8174],[120.504631,15.81975],[120.504593,15.82184],[120.504784,15.82382],[120.504517,15.82558],[120.502907,15.82618],[120.502113,15.82622],[120.501183,15.82651],[120.49987,15.8257],[120.493782,15.82995],[120.495682,15.83132],[120.49659,15.8316],[120.497437,15.83157],[120.511848,15.83209],[120.514648,15.83218],[120.52092,15.83206]]]]}},{"type":"Feature","properties":{"ID_0":177,"ISO":"PHL","NAME_0":"Philippines","ID_1":1055,"NAME_1":"Pangasinan","ID_2":105510,"NAME_2":"Bautista","ID_3":105510015,"NAME_3":"Poponto","NL_NAME_3":null,"VARNAME_3":null,"TYPE_3":"Barangay","ENGTYPE_3":"Village","PROVINCE":"Pangasinan","REGION":"Region I (Ilocos Region)","id":"barangay-0105510015","name":"Poponto","barangayCode":"0105510015","population":null,"formattedPop":null,"densityCategory":"No data","vulnerabilityRating":"No data","healthRiskLevel":"No data","areaKm2":4.32996,"centerLat":15.779378,"centerLng":120.540406,"geometrySource":"all_barangay-2.csv detailed WKT","geometryMatchMethod":"unique_official_admin_names","boundaryPointCount":22},"geometry":{"type":"MultiPolygon","coordinates":[[[[120.558434,15.79261],[120.555519,15.78713],[120.553947,15.78443],[120.552452,15.78136],[120.551582,15.77783],[120.551102,15.77557],[120.550034,15.77298],[120.547928,15.77071],[120.546227,15.76958],[120.543411,15.76807],[120.539749,15.76618],[120.537033,15.76422],[120.530609,15.76024],[120.52417,15.76605],[120.525002,15.76935],[120.52639,15.77605],[120.527641,15.78194],[120.528008,15.78535],[120.529327,15.79457],[120.533981,15.79255],[120.54483,15.78782],[120.558434,15.79261]]]]}},{"type":"Feature","properties":{"ID_0":177,"ISO":"PHL","NAME_0":"Philippines","ID_1":1055,"NAME_1":"Pangasinan","ID_2":105510,"NAME_2":"Bautista","ID_3":105510016,"NAME_3":"Primicias","NL_NAME_3":null,"VARNAME_3":null,"TYPE_3":"Barangay","ENGTYPE_3":"Village","PROVINCE":"Pangasinan","REGION":"Region I (Ilocos Region)","id":"barangay-0105510016","name":"Primicias","barangayCode":"0105510016","population":null,"formattedPop":null,"densityCategory":"No data","vulnerabilityRating":"No data","healthRiskLevel":"No data","areaKm2":2.670498,"centerLat":15.78797,"centerLng":120.546563,"geometrySource":"all_barangay-2.csv detailed WKT","geometryMatchMethod":"unique_official_admin_names","boundaryPointCount":33},"geometry":{"type":"MultiPolygon","coordinates":[[[[120.560379,15.81277],[120.561913,15.81338],[120.563599,15.81423],[120.566277,15.81564],[120.567719,15.81645],[120.568687,15.81691],[120.569283,15.81758],[120.564651,15.80917],[120.563507,15.80455],[120.562851,15.80252],[120.56189,15.80014],[120.560364,15.79609],[120.558434,15.79261],[120.54483,15.78782],[120.533981,15.79255],[120.533768,15.79412],[120.533279,15.79749],[120.532593,15.80124],[120.53199,15.80512],[120.532051,15.80989],[120.532707,15.81137],[120.532379,15.81524],[120.534698,15.81395],[120.539169,15.81324],[120.541489,15.8132],[120.546173,15.81266],[120.548149,15.81231],[120.551514,15.81189],[120.553207,15.81178],[120.556862,15.81112],[120.557793,15.81124],[120.559738,15.81196],[120.560379,15.81277]]]]}},{"type":"Feature","properties":{"ID_0":177,"ISO":"PHL","NAME_0":"Philippines","ID_1":1055,"NAME_1":"Pangasinan","ID_2":105510,"NAME_2":"Bautista","ID_3":105510017,"NAME_3":"Ketegan","NL_NAME_3":null,"VARNAME_3":null,"TYPE_3":"Barangay","ENGTYPE_3":"Village","PROVINCE":"Pangasinan","REGION":"Region I (Ilocos Region)","id":"barangay-0105510017","name":"Ketegan","barangayCode":"0105510017","population":null,"formattedPop":null,"densityCategory":"No data","vulnerabilityRating":"No data","healthRiskLevel":"No data","areaKm2":0.856597,"centerLat":15.81581,"centerLng":120.486381,"geometrySource":"all_barangay-2.csv detailed WKT","geometryMatchMethod":"unique_official_admin_names","boundaryPointCount":17},"geometry":{"type":"MultiPolygon","coordinates":[[[[120.49987,15.8257],[120.497917,15.82317],[120.496811,15.82234],[120.496307,15.82162],[120.494583,15.81996],[120.492859,15.81872],[120.49173,15.81814],[120.490349,15.81956],[120.489632,15.82104],[120.48922,15.82228],[120.490379,15.82309],[120.490868,15.82473],[120.491249,15.82651],[120.491493,15.82734],[120.49263,15.82882],[120.493782,15.82995],[120.49987,15.8257]]]]}},{"type":"Feature","properties":{"ID_0":177,"ISO":"PHL","NAME_0":"Philippines","ID_1":1055,"NAME_1":"Pangasinan","ID_2":105510,"NAME_2":"Bautista","ID_3":105510018,"NAME_3":"Sinabaan","NL_NAME_3":null,"VARNAME_3":null,"TYPE_3":"Barangay","ENGTYPE_3":"Village","PROVINCE":"Pangasinan","REGION":"Region I (Ilocos Region)","id":"barangay-0105510018","name":"Sinabaan","barangayCode":"0105510018","population":null,"formattedPop":null,"densityCategory":"No data","vulnerabilityRating":"No data","healthRiskLevel":"No data","areaKm2":0.295289,"centerLat":15.815736,"centerLng":120.466943,"geometrySource":"all_barangay-2.csv detailed WKT","geometryMatchMethod":"unique_official_admin_names","boundaryPointCount":11},"geometry":{"type":"MultiPolygon","coordinates":[[[[120.472298,15.82433],[120.47477,15.82346],[120.475868,15.82135],[120.476509,15.81893],[120.477341,15.81664],[120.471626,15.81697],[120.471123,15.81842],[120.470497,15.82067],[120.469704,15.82276],[120.471626,15.82381],[120.472298,15.82433]]]]}},{"type":"Feature","properties":{"ID_0":177,"ISO":"PHL","NAME_0":"Philippines","ID_1":1055,"NAME_1":"Pangasinan","ID_2":105510,"NAME_2":"Bautista","ID_3":105510019,"NAME_3":"Vacante","NL_NAME_3":null,"VARNAME_3":null,"TYPE_3":"Barangay","ENGTYPE_3":"Village","PROVINCE":"Pangasinan","REGION":"Region I (Ilocos Region)","id":"barangay-0105510019","name":"Vacante","barangayCode":"0105510019","population":null,"formattedPop":null,"densityCategory":"No data","vulnerabilityRating":"No data","healthRiskLevel":"No data","areaKm2":3.640242,"centerLat":15.795299,"centerLng":120.479403,"geometrySource":"all_barangay-2.csv detailed WKT","geometryMatchMethod":"unique_official_admin_names","boundaryPointCount":28},"geometry":{"type":"MultiPolygon","coordinates":[[[[120.494362,15.8088],[120.494507,15.80783],[120.494614,15.80716],[120.494347,15.80538],[120.494476,15.80399],[120.496964,15.80243],[120.500587,15.801],[120.503853,15.79965],[120.507751,15.79697],[120.508423,15.7956],[120.507942,15.79024],[120.507042,15.78744],[120.506416,15.78505],[120.506241,15.78314],[120.50264,15.78658],[120.488373,15.79969],[120.482246,15.79992],[120.480743,15.80556],[120.481697,15.80622],[120.482422,15.8065],[120.483498,15.80668],[120.484627,15.80616],[120.485977,15.80644],[120.486702,15.80758],[120.486771,15.8087],[120.486656,15.81037],[120.486603,15.8112],[120.494362,15.8088]]]]}},{"type":"Feature","properties":{"ID_0":177,"ISO":"PHL","NAME_0":"Philippines","ID_1":1055,"NAME_1":"Pangasinan","ID_2":105510,"NAME_2":"Bautista","ID_3":105510020,"NAME_3":"Villanueva","NL_NAME_3":null,"VARNAME_3":null,"TYPE_3":"Barangay","ENGTYPE_3":"Village","PROVINCE":"Pangasinan","REGION":"Region I (Ilocos Region)","id":"barangay-0105510020","name":"Villanueva","barangayCode":"0105510020","population":null,"formattedPop":null,"densityCategory":"No data","vulnerabilityRating":"No data","healthRiskLevel":"No data","areaKm2":4.925358,"centerLat":15.797993,"centerLng":120.545183,"geometrySource":"all_barangay-2.csv detailed WKT","geometryMatchMethod":"unique_official_admin_names","boundaryPointCount":37},"geometry":{"type":"MultiPolygon","coordinates":[[[[120.532944,15.832],[120.536087,15.83192],[120.537567,15.83194],[120.540077,15.83201],[120.541359,15.83193],[120.544159,15.83219],[120.546982,15.83224],[120.547638,15.8317],[120.548759,15.83051],[120.551323,15.82625],[120.551849,15.82478],[120.553268,15.82241],[120.555687,15.81938],[120.557999,15.81636],[120.559807,15.81375],[120.560379,15.81277],[120.559738,15.81196],[120.557793,15.81124],[120.556862,15.81112],[120.553207,15.81178],[120.551514,15.81189],[120.548149,15.81231],[120.546173,15.81266],[120.541489,15.8132],[120.539169,15.81324],[120.534698,15.81395],[120.532379,15.81524],[120.531319,15.81681],[120.531303,15.81734],[120.531319,15.81748],[120.531227,15.81871],[120.531158,15.82201],[120.531273,15.8272],[120.531067,15.82944],[120.530296,15.83177],[120.53006,15.83211],[120.532944,15.832]]]]}},{"type":"Feature","properties":{"ID_0":177,"ISO":"PHL","NAME_0":"Philippines","ID_1":1055,"NAME_1":"Pangasinan","ID_2":105510,"NAME_2":"Bautista","ID_3":105510021,"NAME_3":"Baluyot","NL_NAME_3":null,"VARNAME_3":null,"TYPE_3":"Barangay","ENGTYPE_3":"Village","PROVINCE":"Pangasinan","REGION":"Region I (Ilocos Region)","id":"barangay-0105510021","name":"Baluyot","barangayCode":"0105510021","population":null,"formattedPop":null,"densityCategory":"No data","vulnerabilityRating":"No data","healthRiskLevel":"No data","areaKm2":3.277444,"centerLat":15.796178,"centerLng":120.465364,"geometrySource":"all_barangay-2.csv detailed WKT","geometryMatchMethod":"unique_official_admin_names","boundaryPointCount":18},"geometry":{"type":"MultiPolygon","coordinates":[[[[120.472893,15.81184],[120.47419,15.80849],[120.475197,15.80713],[120.477013,15.80638],[120.47818,15.80656],[120.479591,15.80629],[120.479897,15.80595],[120.480743,15.80556],[120.482246,15.79992],[120.479889,15.79997],[120.473328,15.80039],[120.468826,15.8011],[120.468407,15.80184],[120.468521,15.80318],[120.468643,15.80511],[120.468567,15.80688],[120.468407,15.80895],[120.472893,15.81184]]]]}}]}
