{"type":"FeatureCollection","features":[{"type":"Feature","properties":{"ID_0":177,"ISO":"PHL","NAME_0":"Philippines","ID_1":1029,"NAME_1":"Ilocos Sur","ID_2":102920,"NAME_2":"San Juan (Lapog)","ID_3":102920001,"NAME_3":"Bacsil","NL_NAME_3":null,"VARNAME_3":null,"TYPE_3":"Barangay","ENGTYPE_3":"Village","PROVINCE":"Ilocos Sur","REGION":"Region I (Ilocos Region)","id":"barangay-0102920001","name":"Bacsil","barangayCode":"0102920001","population":null,"formattedPop":null,"densityCategory":"No data","vulnerabilityRating":"No data","healthRiskLevel":"No data","areaKm2":1.418659,"centerLat":17.718095,"centerLng":120.455528,"geometrySource":"all_barangay-2.csv detailed WKT","geometryMatchMethod":"psgc_coordinate_bridge","boundaryPointCount":18},"geometry":{"type":"MultiPolygon","coordinates":[[[[120.451889,17.72562],[120.455467,17.72221],[120.456848,17.72105],[120.459419,17.720591],[120.460716,17.72007],[120.462532,17.7201],[120.462708,17.71932],[120.46328,17.71814],[120.464729,17.71619],[120.465363,17.714161],[120.463676,17.7145],[120.461906,17.714621],[120.457108,17.71496],[120.453163,17.71463],[120.451752,17.71468],[120.448174,17.714211],[120.451302,17.72411],[120.451889,17.72562]]]]}},{"type":"Feature","properties":{"ID_0":177,"ISO":"PHL","NAME_0":"Philippines","ID_1":1029,"NAME_1":"Ilocos Sur","ID_2":102920,"NAME_2":"San Juan (Lapog)","ID_3":102920002,"NAME_3":"Baliw","NL_NAME_3":null,"VARNAME_3":null,"TYPE_3":"Barangay","ENGTYPE_3":"Village","PROVINCE":"Ilocos Sur","REGION":"Region I (Ilocos Region)","id":"barangay-0102920002","name":"Baliw","barangayCode":"0102920002","population":null,"formattedPop":null,"densityCategory":"No data","vulnerabilityRating":"No data","healthRiskLevel":"No data","areaKm2":1.822066,"centerLat":17.735828,"centerLng":120.447804,"geometrySource":"all_barangay-2.csv detailed WKT","geometryMatchMethod":"psgc_coordinate_bridge","boundaryPointCount":16},"geometry":{"type":"MultiPolygon","coordinates":[[[[120.443687,17.74408],[120.445236,17.743111],[120.447227,17.74239],[120.450562,17.74124],[120.451591,17.74045],[120.452477,17.7407],[120.452522,17.740061],[120.453712,17.739559],[120.455856,17.739111],[120.456787,17.73826],[120.453453,17.72966],[120.449471,17.72978],[120.446281,17.72975],[120.44532,17.729601],[120.440353,17.730129],[120.443687,17.74408]]]]}},{"type":"Feature","properties":{"ID_0":177,"ISO":"PHL","NAME_0":"Philippines","ID_1":1029,"NAME_1":"Ilocos Sur","ID_2":102920,"NAME_2":"San Juan (Lapog)","ID_3":102920003,"NAME_3":"Bannuar","NL_NAME_3":null,"VARNAME_3":null,"TYPE_3":"Barangay","ENGTYPE_3":"Village","PROVINCE":"Ilocos Sur","REGION":"Region I (Ilocos Region)","id":"barangay-0102920003","name":"Bannuar","barangayCode":"0102920003","population":null,"formattedPop":null,"densityCategory":"No data","vulnerabilityRating":"No data","healthRiskLevel":"No data","areaKm2":0.69301,"centerLat":17.744603,"centerLng":120.461447,"geometrySource":"all_barangay-2.csv detailed WKT","geometryMatchMethod":"psgc_coordinate_bridge","boundaryPointCount":5},"geometry":{"type":"MultiPolygon","coordinates":[[[[120.460297,17.7484],[120.466042,17.747219],[120.465668,17.742161],[120.45842,17.743839],[120.460297,17.7484]]]]}},{"type":"Feature","properties":{"ID_0":177,"ISO":"PHL","NAME_0":"Philippines","ID_1":1029,"NAME_1":"Ilocos Sur","ID_2":102920,"NAME_2":"San Juan (Lapog)","ID_3":102920004,"NAME_3":"Barbar","NL_NAME_3":null,"VARNAME_3":null,"TYPE_3":"Barangay","ENGTYPE_3":"Village","PROVINCE":"Ilocos Sur","REGION":"Region I (Ilocos Region)","id":"barangay-0102920004","name":"Barbar","barangayCode":"0102920004","population":null,"formattedPop":null,"densityCategory":"No data","vulnerabilityRating":"No data","healthRiskLevel":"No data","areaKm2":17.084717,"centerLat":17.713042,"centerLng":120.51351,"geometrySource":"all_barangay-2.csv detailed WKT","geometryMatchMethod":"psgc_coordinate_bridge","boundaryPointCount":25},"geometry":{"type":"MultiPolygon","coordinates":[[[[120.489403,17.72933],[120.512947,17.730221],[120.513603,17.72673],[120.514488,17.724791],[120.515991,17.722151],[120.518356,17.719469],[120.52095,17.716999],[120.523201,17.71463],[120.524963,17.71298],[120.527161,17.710831],[120.529701,17.70825],[120.532867,17.705629],[120.534912,17.703739],[120.528809,17.693291],[120.525291,17.69371],[120.522346,17.694349],[120.515533,17.69537],[120.510132,17.69696],[120.504539,17.69821],[120.500153,17.699499],[120.492447,17.702499],[120.491722,17.702761],[120.489067,17.71419],[120.48909,17.71557],[120.489403,17.72933]]]]}},{"type":"Feature","properties":{"ID_0":177,"ISO":"PHL","NAME_0":"Philippines","ID_1":1029,"NAME_1":"Ilocos Sur","ID_2":102920,"NAME_2":"San Juan (Lapog)","ID_3":102920005,"NAME_3":"Cabanglotan","NL_NAME_3":null,"VARNAME_3":null,"TYPE_3":"Barangay","ENGTYPE_3":"Village","PROVINCE":"Ilocos Sur","REGION":"Region I (Ilocos Region)","id":"barangay-0102920005","name":"Cabanglotan","barangayCode":"0102920005","population":null,"formattedPop":null,"densityCategory":"No data","vulnerabilityRating":"No data","healthRiskLevel":"No data","areaKm2":1.729836,"centerLat":17.746925,"centerLng":120.44504,"geometrySource":"all_barangay-2.csv detailed WKT","geometryMatchMethod":"psgc_coordinate_bridge","boundaryPointCount":26},"geometry":{"type":"MultiPolygon","coordinates":[[[[120.449493,17.752069],[120.451721,17.75001],[120.453201,17.749559],[120.454987,17.748791],[120.454247,17.745411],[120.453247,17.74309],[120.453003,17.742399],[120.452477,17.7407],[120.451591,17.74045],[120.450562,17.74124],[120.447227,17.74239],[120.445236,17.743111],[120.443687,17.74408],[120.442734,17.74408],[120.442123,17.743971],[120.441368,17.743179],[120.440071,17.742001],[120.438202,17.754101],[120.438889,17.75428],[120.440643,17.75453],[120.441177,17.754169],[120.442047,17.75466],[120.44323,17.754881],[120.446274,17.75305],[120.448624,17.75205],[120.449493,17.752069]]]]}},{"type":"Feature","properties":{"ID_0":177,"ISO":"PHL","NAME_0":"Philippines","ID_1":1029,"NAME_1":"Ilocos Sur","ID_2":102920,"NAME_2":"San Juan (Lapog)","ID_3":102920006,"NAME_3":"Cacandongan","NL_NAME_3":null,"VARNAME_3":null,"TYPE_3":"Barangay","ENGTYPE_3":"Village","PROVINCE":"Ilocos Sur","REGION":"Region I (Ilocos Region)","id":"barangay-0102920006","name":"Cacandongan","barangayCode":"0102920006","population":null,"formattedPop":null,"densityCategory":"No data","vulnerabilityRating":"No data","healthRiskLevel":"No data","areaKm2":2.426145,"centerLat":17.750577,"centerLng":120.489781,"geometrySource":"all_barangay-2.csv detailed WKT","geometryMatchMethod":"psgc_coordinate_bridge","boundaryPointCount":19},"geometry":{"type":"MultiPolygon","coordinates":[[[[120.48925,17.75979],[120.493027,17.757589],[120.495453,17.7561],[120.497627,17.754601],[120.499481,17.75318],[120.489258,17.74299],[120.487587,17.742929],[120.486572,17.742479],[120.485733,17.74231],[120.485336,17.7416],[120.485962,17.74016],[120.484833,17.73925],[120.483559,17.740021],[120.482117,17.74172],[120.48201,17.742229],[120.478783,17.751789],[120.483597,17.75527],[120.48822,17.759991],[120.48925,17.75979]]]]}},{"type":"Feature","properties":{"ID_0":177,"ISO":"PHL","NAME_0":"Philippines","ID_1":1029,"NAME_1":"Ilocos Sur","ID_2":102920,"NAME_2":"San Juan (Lapog)","ID_3":102920007,"NAME_3":"Camanggaan","NL_NAME_3":null,"VARNAME_3":null,"TYPE_3":"Barangay","ENGTYPE_3":"Village","PROVINCE":"Ilocos Sur","REGION":"Region I (Ilocos Region)","id":"barangay-0102920007","name":"Camanggaan","barangayCode":"0102920007","population":null,"formattedPop":null,"densityCategory":"No data","vulnerabilityRating":"No data","healthRiskLevel":"No data","areaKm2":1.461361,"centerLat":17.722243,"centerLng":120.484513,"geometrySource":"all_barangay-2.csv detailed WKT","geometryMatchMethod":"psgc_coordinate_bridge","boundaryPointCount":9},"geometry":{"type":"MultiPolygon","coordinates":[[[[120.481644,17.7304],[120.489403,17.72933],[120.48909,17.71557],[120.489067,17.71419],[120.485786,17.713619],[120.483177,17.71353],[120.48037,17.71423],[120.478867,17.715561],[120.481644,17.7304]]]]}},{"type":"Feature","properties":{"ID_0":177,"ISO":"PHL","NAME_0":"Philippines","ID_1":1029,"NAME_1":"Ilocos Sur","ID_2":102920,"NAME_2":"San Juan (Lapog)","ID_3":102920008,"NAME_3":"Camindoroan","NL_NAME_3":null,"VARNAME_3":null,"TYPE_3":"Barangay","ENGTYPE_3":"Village","PROVINCE":"Ilocos Sur","REGION":"Region I (Ilocos Region)","id":"barangay-0102920008","name":"Camindoroan","barangayCode":"0102920008","population":null,"formattedPop":null,"densityCategory":"No data","vulnerabilityRating":"No data","healthRiskLevel":"No data","areaKm2":0.376003,"centerLat":17.748804,"centerLng":120.435361,"geometrySource":"all_barangay-2.csv detailed WKT","geometryMatchMethod":"psgc_coordinate_bridge","boundaryPointCount":33},"geometry":{"type":"MultiPolygon","coordinates":[[[[120.438202,17.754101],[120.440071,17.742001],[120.439629,17.74189],[120.437843,17.742001],[120.436989,17.74197],[120.435837,17.74194],[120.435837,17.74222],[120.434998,17.743059],[120.434998,17.744169],[120.434723,17.74444],[120.434723,17.745279],[120.434448,17.74556],[120.434448,17.746389],[120.434174,17.74667],[120.434174,17.746941],[120.433891,17.747219],[120.433891,17.74778],[120.433487,17.74818],[120.432922,17.749741],[120.432503,17.750629],[120.43222,17.75139],[120.431664,17.75194],[120.431664,17.75222],[120.431389,17.752501],[120.431107,17.752501],[120.430832,17.752781],[120.430817,17.753071],[120.431084,17.75318],[120.431938,17.753201],[120.433418,17.75248],[120.434013,17.751841],[120.436234,17.752411],[120.438202,17.754101]]]]}},{"type":"Feature","properties":{"ID_0":177,"ISO":"PHL","NAME_0":"Philippines","ID_1":1029,"NAME_1":"Ilocos Sur","ID_2":102920,"NAME_2":"San Juan (Lapog)","ID_3":102920009,"NAME_3":"Caronoan","NL_NAME_3":null,"VARNAME_3":null,"TYPE_3":"Barangay","ENGTYPE_3":"Village","PROVINCE":"Ilocos Sur","REGION":"Region I (Ilocos Region)","id":"barangay-0102920009","name":"Caronoan","barangayCode":"0102920009","population":null,"formattedPop":null,"densityCategory":"No data","vulnerabilityRating":"No data","healthRiskLevel":"No data","areaKm2":2.226878,"centerLat":17.752444,"centerLng":120.468592,"geometrySource":"all_barangay-2.csv detailed WKT","geometryMatchMethod":"psgc_coordinate_bridge","boundaryPointCount":9},"geometry":{"type":"MultiPolygon","coordinates":[[[[120.483597,17.75527],[120.478783,17.751789],[120.472328,17.74655],[120.466042,17.747219],[120.460297,17.7484],[120.458527,17.74955],[120.458817,17.75238],[120.459557,17.75601],[120.483597,17.75527]]]]}},{"type":"Feature","properties":{"ID_0":177,"ISO":"PHL","NAME_0":"Philippines","ID_1":1029,"NAME_1":"Ilocos Sur","ID_2":102920,"NAME_2":"San Juan (Lapog)","ID_3":102920010,"NAME_3":"Darao","NL_NAME_3":null,"VARNAME_3":null,"TYPE_3":"Barangay","ENGTYPE_3":"Village","PROVINCE":"Ilocos Sur","REGION":"Region I (Ilocos Region)","id":"barangay-0102920010","name":"Darao","barangayCode":"0102920010","population":null,"formattedPop":null,"densityCategory":"No data","vulnerabilityRating":"No data","healthRiskLevel":"No data","areaKm2":2.228472,"centerLat":17.744143,"centerLng":120.475706,"geometrySource":"all_barangay-2.csv detailed WKT","geometryMatchMethod":"psgc_coordinate_bridge","boundaryPointCount":15},"geometry":{"type":"MultiPolygon","coordinates":[[[[120.478783,17.751789],[120.48201,17.742229],[120.482117,17.74172],[120.481659,17.740601],[120.47937,17.73885],[120.47718,17.738449],[120.474648,17.738661],[120.471611,17.739241],[120.469269,17.73889],[120.467232,17.73875],[120.465248,17.740351],[120.465668,17.742161],[120.466042,17.747219],[120.472328,17.74655],[120.478783,17.751789]]]]}},{"type":"Feature","properties":{"ID_0":177,"ISO":"PHL","NAME_0":"Philippines","ID_1":1029,"NAME_1":"Ilocos Sur","ID_2":102920,"NAME_2":"San Juan (Lapog)","ID_3":102920012,"NAME_3":"Dardarat","NL_NAME_3":null,"VARNAME_3":null,"TYPE_3":"Barangay","ENGTYPE_3":"Village","PROVINCE":"Ilocos Sur","REGION":"Region I (Ilocos Region)","id":"barangay-0102920012","name":"Dardarat","barangayCode":"0102920012","population":null,"formattedPop":null,"densityCategory":"No data","vulnerabilityRating":"No data","healthRiskLevel":"No data","areaKm2":1.182914,"centerLat":17.76723,"centerLng":120.430068,"geometrySource":"all_barangay-2.csv detailed WKT","geometryMatchMethod":"psgc_coordinate_bridge","boundaryPointCount":28},"geometry":{"type":"MultiPolygon","coordinates":[[[[120.425987,17.773411],[120.425987,17.77239],[120.426483,17.77216],[120.427673,17.77109],[120.4282,17.77043],[120.430527,17.769461],[120.432747,17.77002],[120.435089,17.770069],[120.4375,17.769541],[120.438812,17.76943],[120.436172,17.76162],[120.434387,17.76226],[120.431488,17.76338],[120.426529,17.764481],[120.422562,17.76482],[120.422188,17.76486],[120.422096,17.76486],[120.421944,17.76487],[120.421944,17.769171],[120.422501,17.769171],[120.422501,17.76889],[120.423058,17.76889],[120.423141,17.769739],[120.424004,17.770491],[120.424492,17.771311],[120.425133,17.771919],[120.425827,17.773331],[120.425987,17.773411]]]]}},{"type":"Feature","properties":{"ID_0":177,"ISO":"PHL","NAME_0":"Philippines","ID_1":1029,"NAME_1":"Ilocos Sur","ID_2":102920,"NAME_2":"San Juan (Lapog)","ID_3":102920013,"NAME_3":"Guimod Norte","NL_NAME_3":null,"VARNAME_3":null,"TYPE_3":"Barangay","ENGTYPE_3":"Village","PROVINCE":"Ilocos Sur","REGION":"Region I (Ilocos Region)","id":"barangay-0102920013","name":"Guimod Norte","barangayCode":"0102920013","population":null,"formattedPop":null,"densityCategory":"No data","vulnerabilityRating":"No data","healthRiskLevel":"No data","areaKm2":1.395699,"centerLat":17.726647,"centerLng":120.445174,"geometrySource":"all_barangay-2.csv detailed WKT","geometryMatchMethod":"psgc_coordinate_bridge","boundaryPointCount":17},"geometry":{"type":"MultiPolygon","coordinates":[[[[120.453453,17.72966],[120.451889,17.72562],[120.451302,17.72411],[120.449318,17.7241],[120.445534,17.723961],[120.442833,17.722851],[120.439217,17.7202],[120.436348,17.720909],[120.435608,17.721649],[120.435333,17.722521],[120.435364,17.72336],[120.440323,17.72928],[120.440353,17.730129],[120.44532,17.729601],[120.446281,17.72975],[120.449471,17.72978],[120.453453,17.72966]]]]}},{"type":"Feature","properties":{"ID_0":177,"ISO":"PHL","NAME_0":"Philippines","ID_1":1029,"NAME_1":"Ilocos Sur","ID_2":102920,"NAME_2":"San Juan (Lapog)","ID_3":102920014,"NAME_3":"Guimod Sur","NL_NAME_3":null,"VARNAME_3":null,"TYPE_3":"Barangay","ENGTYPE_3":"Village","PROVINCE":"Ilocos Sur","REGION":"Region I (Ilocos Region)","id":"barangay-0102920014","name":"Guimod Sur","barangayCode":"0102920014","population":null,"formattedPop":null,"densityCategory":"No data","vulnerabilityRating":"No data","healthRiskLevel":"No data","areaKm2":1.697358,"centerLat":17.71861,"centerLng":120.441013,"geometrySource":"all_barangay-2.csv detailed WKT","geometryMatchMethod":"psgc_coordinate_bridge","boundaryPointCount":18},"geometry":{"type":"MultiPolygon","coordinates":[[[[120.451302,17.72411],[120.448174,17.714211],[120.447723,17.71402],[120.447083,17.714041],[120.443932,17.714121],[120.439819,17.713751],[120.436378,17.71376],[120.43409,17.713739],[120.434967,17.71736],[120.434982,17.720711],[120.435333,17.722521],[120.435608,17.721649],[120.436348,17.720909],[120.439217,17.7202],[120.442833,17.722851],[120.445534,17.723961],[120.449318,17.7241],[120.451302,17.72411]]]]}},{"type":"Feature","properties":{"ID_0":177,"ISO":"PHL","NAME_0":"Philippines","ID_1":1029,"NAME_1":"Ilocos Sur","ID_2":102920,"NAME_2":"San Juan (Lapog)","ID_3":102920015,"NAME_3":"Immayos Norte","NL_NAME_3":null,"VARNAME_3":null,"TYPE_3":"Barangay","ENGTYPE_3":"Village","PROVINCE":"Ilocos Sur","REGION":"Region I (Ilocos Region)","id":"barangay-0102920015","name":"Immayos Norte","barangayCode":"0102920015","population":null,"formattedPop":null,"densityCategory":"No data","vulnerabilityRating":"No data","healthRiskLevel":"No data","areaKm2":0.907877,"centerLat":17.732668,"centerLng":120.459742,"geometrySource":"all_barangay-2.csv detailed WKT","geometryMatchMethod":"psgc_coordinate_bridge","boundaryPointCount":18},"geometry":{"type":"MultiPolygon","coordinates":[[[[120.463837,17.738199],[120.464813,17.7381],[120.465683,17.73761],[120.466957,17.73567],[120.468918,17.73171],[120.469917,17.729731],[120.466728,17.72472],[120.466087,17.725691],[120.463226,17.72776],[120.460037,17.72839],[120.456299,17.729059],[120.453453,17.72966],[120.456787,17.73826],[120.458076,17.73802],[120.459579,17.73683],[120.46096,17.73675],[120.462517,17.737711],[120.463837,17.738199]]]]}},{"type":"Feature","properties":{"ID_0":177,"ISO":"PHL","NAME_0":"Philippines","ID_1":1029,"NAME_1":"Ilocos Sur","ID_2":102920,"NAME_2":"San Juan (Lapog)","ID_3":102920016,"NAME_3":"Immayos Sur","NL_NAME_3":null,"VARNAME_3":null,"TYPE_3":"Barangay","ENGTYPE_3":"Village","PROVINCE":"Ilocos Sur","REGION":"Region I (Ilocos Region)","id":"barangay-0102920016","name":"Immayos Sur","barangayCode":"0102920016","population":null,"formattedPop":null,"densityCategory":"No data","vulnerabilityRating":"No data","healthRiskLevel":"No data","areaKm2":0.719246,"centerLat":17.725917,"centerLng":120.45833,"geometrySource":"all_barangay-2.csv detailed WKT","geometryMatchMethod":"psgc_coordinate_bridge","boundaryPointCount":14},"geometry":{"type":"MultiPolygon","coordinates":[[[[120.453453,17.72966],[120.456299,17.729059],[120.460037,17.72839],[120.463226,17.72776],[120.466087,17.725691],[120.466728,17.72472],[120.466187,17.724369],[120.462532,17.7201],[120.460716,17.72007],[120.459419,17.720591],[120.456848,17.72105],[120.455467,17.72221],[120.451889,17.72562],[120.453453,17.72966]]]]}},{"type":"Feature","properties":{"ID_0":177,"ISO":"PHL","NAME_0":"Philippines","ID_1":1029,"NAME_1":"Ilocos Sur","ID_2":102920,"NAME_2":"San Juan (Lapog)","ID_3":102920017,"NAME_3":"Labnig","NL_NAME_3":null,"VARNAME_3":null,"TYPE_3":"Barangay","ENGTYPE_3":"Village","PROVINCE":"Ilocos Sur","REGION":"Region I (Ilocos Region)","id":"barangay-0102920017","name":"Labnig","barangayCode":"0102920017","population":null,"formattedPop":null,"densityCategory":"No data","vulnerabilityRating":"No data","healthRiskLevel":"No data","areaKm2":2.957607,"centerLat":17.761612,"centerLng":120.472622,"geometrySource":"all_barangay-2.csv detailed WKT","geometryMatchMethod":"psgc_coordinate_bridge","boundaryPointCount":18},"geometry":{"type":"MultiPolygon","coordinates":[[[[120.47551,17.764561],[120.480133,17.76338],[120.483994,17.76199],[120.486748,17.76083],[120.48822,17.759991],[120.483597,17.75527],[120.459557,17.75601],[120.459717,17.756929],[120.460281,17.75923],[120.460892,17.761089],[120.463028,17.76499],[120.463661,17.765791],[120.463509,17.76655],[120.46553,17.766069],[120.467194,17.765961],[120.469597,17.765659],[120.472878,17.7649],[120.47551,17.764561]]]]}},{"type":"Feature","properties":{"ID_0":177,"ISO":"PHL","NAME_0":"Philippines","ID_1":1029,"NAME_1":"Ilocos Sur","ID_2":102920,"NAME_2":"San Juan (Lapog)","ID_3":102920018,"NAME_3":"Lapting","NL_NAME_3":null,"VARNAME_3":null,"TYPE_3":"Barangay","ENGTYPE_3":"Village","PROVINCE":"Ilocos Sur","REGION":"Region I (Ilocos Region)","id":"barangay-0102920018","name":"Lapting","barangayCode":"0102920018","population":null,"formattedPop":null,"densityCategory":"No data","vulnerabilityRating":"No data","healthRiskLevel":"No data","areaKm2":1.600222,"centerLat":17.757496,"centerLng":120.455752,"geometrySource":"all_barangay-2.csv detailed WKT","geometryMatchMethod":"psgc_coordinate_bridge","boundaryPointCount":26},"geometry":{"type":"MultiPolygon","coordinates":[[[[120.461998,17.766701],[120.463509,17.76655],[120.463661,17.765791],[120.463028,17.76499],[120.460892,17.761089],[120.460281,17.75923],[120.459717,17.756929],[120.459557,17.75601],[120.458817,17.75238],[120.458527,17.74955],[120.457687,17.748819],[120.456512,17.74855],[120.454987,17.748791],[120.453201,17.749559],[120.451721,17.75001],[120.449493,17.752069],[120.450363,17.75396],[120.451263,17.755819],[120.451653,17.75666],[120.451874,17.757721],[120.452652,17.758829],[120.455017,17.764851],[120.455849,17.76693],[120.456978,17.76683],[120.45977,17.766809],[120.461998,17.766701]]]]}},{"type":"Feature","properties":{"ID_0":177,"ISO":"PHL","NAME_0":"Philippines","ID_1":1029,"NAME_1":"Ilocos Sur","ID_2":102920,"NAME_2":"San Juan (Lapog)","ID_3":102920019,"NAME_3":"Lira","NL_NAME_3":null,"VARNAME_3":null,"TYPE_3":"Barangay","ENGTYPE_3":"Village","PROVINCE":"Ilocos Sur","REGION":"Region I (Ilocos Region)","id":"barangay-0102920019","name":"Lira","barangayCode":"0102920019","population":null,"formattedPop":null,"densityCategory":"No data","vulnerabilityRating":"No data","healthRiskLevel":"No data","areaKm2":0.241791,"centerLat":17.741863,"centerLng":120.454015,"geometrySource":"all_barangay-2.csv detailed WKT","geometryMatchMethod":"psgc_coordinate_bridge","boundaryPointCount":11},"geometry":{"type":"MultiPolygon","coordinates":[[[[120.45842,17.743839],[120.457008,17.740191],[120.456787,17.73826],[120.455856,17.739111],[120.453712,17.739559],[120.452522,17.740061],[120.452477,17.7407],[120.453003,17.742399],[120.453247,17.74309],[120.454247,17.745411],[120.45842,17.743839]]]]}},{"type":"Feature","properties":{"ID_0":177,"ISO":"PHL","NAME_0":"Philippines","ID_1":1029,"NAME_1":"Ilocos Sur","ID_2":102920,"NAME_2":"San Juan (Lapog)","ID_3":102920020,"NAME_3":"Malamin","NL_NAME_3":null,"VARNAME_3":null,"TYPE_3":"Barangay","ENGTYPE_3":"Village","PROVINCE":"Ilocos Sur","REGION":"Region I (Ilocos Region)","id":"barangay-0102920020","name":"Malamin","barangayCode":"0102920020","population":null,"formattedPop":null,"densityCategory":"No data","vulnerabilityRating":"No data","healthRiskLevel":"No data","areaKm2":8.675874,"centerLat":17.735928,"centerLng":120.512187,"geometrySource":"all_barangay-2.csv detailed WKT","geometryMatchMethod":"psgc_coordinate_bridge","boundaryPointCount":11},"geometry":{"type":"MultiPolygon","coordinates":[[[[120.512138,17.74398],[120.512329,17.741329],[120.512817,17.73386],[120.512947,17.730221],[120.489403,17.72933],[120.489258,17.74299],[120.499481,17.75318],[120.501907,17.751539],[120.504028,17.75028],[120.509804,17.745411],[120.512138,17.74398]]]]}},{"type":"Feature","properties":{"ID_0":177,"ISO":"PHL","NAME_0":"Philippines","ID_1":1029,"NAME_1":"Ilocos Sur","ID_2":102920,"NAME_2":"San Juan (Lapog)","ID_3":102920021,"NAME_3":"Muraya","NL_NAME_3":null,"VARNAME_3":null,"TYPE_3":"Barangay","ENGTYPE_3":"Village","PROVINCE":"Ilocos Sur","REGION":"Region I (Ilocos Region)","id":"barangay-0102920021","name":"Muraya","barangayCode":"0102920021","population":null,"formattedPop":null,"densityCategory":"No data","vulnerabilityRating":"No data","healthRiskLevel":"No data","areaKm2":2.575135,"centerLat":17.735101,"centerLng":120.478674,"geometrySource":"all_barangay-2.csv detailed WKT","geometryMatchMethod":"psgc_coordinate_bridge","boundaryPointCount":31},"geometry":{"type":"MultiPolygon","coordinates":[[[[120.489258,17.74299],[120.489403,17.72933],[120.481644,17.7304],[120.479134,17.73036],[120.477013,17.73028],[120.472473,17.729731],[120.471001,17.729549],[120.469917,17.729731],[120.468918,17.73171],[120.466957,17.73567],[120.465683,17.73761],[120.464813,17.7381],[120.463837,17.738199],[120.465149,17.739981],[120.465248,17.740351],[120.467232,17.73875],[120.469269,17.73889],[120.471611,17.739241],[120.474648,17.738661],[120.47718,17.738449],[120.47937,17.73885],[120.481659,17.740601],[120.482117,17.74172],[120.483559,17.740021],[120.484833,17.73925],[120.485962,17.74016],[120.485336,17.7416],[120.485733,17.74231],[120.486572,17.742479],[120.487587,17.742929],[120.489258,17.74299]]]]}},{"type":"Feature","properties":{"ID_0":177,"ISO":"PHL","NAME_0":"Philippines","ID_1":1029,"NAME_1":"Ilocos Sur","ID_2":102920,"NAME_2":"San Juan (Lapog)","ID_3":102920022,"NAME_3":"Nagsabaran","NL_NAME_3":null,"VARNAME_3":null,"TYPE_3":"Barangay","ENGTYPE_3":"Village","PROVINCE":"Ilocos Sur","REGION":"Region I (Ilocos Region)","id":"barangay-0102920022","name":"Nagsabaran","barangayCode":"0102920022","population":null,"formattedPop":null,"densityCategory":"No data","vulnerabilityRating":"No data","healthRiskLevel":"No data","areaKm2":1.479517,"centerLat":17.717093,"centerLng":120.467596,"geometrySource":"barangays.geojson simplified fallback","geometryMatchMethod":"simplified_fallback","boundaryPointCount":5},"geometry":{"type":"Polygon","coordinates":[[[120.46155899400003,17.724011587000064],[120.4764646110001,17.717302191000044],[120.47367377300009,17.710575894000044],[120.46156662500005,17.71285075700007],[120.46155899400003,17.724011587000064]]]}},{"type":"Feature","properties":{"ID_0":177,"ISO":"PHL","NAME_0":"Philippines","ID_1":1029,"NAME_1":"Ilocos Sur","ID_2":102920,"NAME_2":"San Juan (Lapog)","ID_3":102920023,"NAME_3":"Nagsupotan","NL_NAME_3":null,"VARNAME_3":null,"TYPE_3":"Barangay","ENGTYPE_3":"Village","PROVINCE":"Ilocos Sur","REGION":"Region I (Ilocos Region)","id":"barangay-0102920023","name":"Nagsupotan","barangayCode":"0102920023","population":null,"formattedPop":null,"densityCategory":"No data","vulnerabilityRating":"No data","healthRiskLevel":"No data","areaKm2":2.253072,"centerLat":17.725526,"centerLng":120.472574,"geometrySource":"all_barangay-2.csv detailed WKT","geometryMatchMethod":"psgc_coordinate_bridge","boundaryPointCount":16},"geometry":{"type":"MultiPolygon","coordinates":[[[[120.469917,17.729731],[120.471001,17.729549],[120.472473,17.729731],[120.477013,17.73028],[120.479134,17.73036],[120.481644,17.7304],[120.478867,17.715561],[120.476486,17.71673],[120.474747,17.71734],[120.472252,17.71843],[120.469467,17.72057],[120.468246,17.722719],[120.466507,17.72393],[120.466187,17.724369],[120.466728,17.72472],[120.469917,17.729731]]]]}},{"type":"Feature","properties":{"ID_0":177,"ISO":"PHL","NAME_0":"Philippines","ID_1":1029,"NAME_1":"Ilocos Sur","ID_2":102920,"NAME_2":"San Juan (Lapog)","ID_3":102920025,"NAME_3":"Pandayan","NL_NAME_3":null,"VARNAME_3":null,"TYPE_3":"Barangay","ENGTYPE_3":"Village","PROVINCE":"Ilocos Sur","REGION":"Region I (Ilocos Region)","id":"barangay-0102920025","name":"Pandayan","barangayCode":"0102920025","population":null,"formattedPop":null,"densityCategory":"No data","vulnerabilityRating":"No data","healthRiskLevel":"No data","areaKm2":0.229811,"centerLat":17.746056,"centerLng":120.45559,"geometrySource":"all_barangay-2.csv detailed WKT","geometryMatchMethod":"psgc_coordinate_bridge","boundaryPointCount":8},"geometry":{"type":"MultiPolygon","coordinates":[[[[120.454987,17.748791],[120.456512,17.74855],[120.457687,17.748819],[120.458527,17.74955],[120.460297,17.7484],[120.45842,17.743839],[120.454247,17.745411],[120.454987,17.748791]]]]}},{"type":"Feature","properties":{"ID_0":177,"ISO":"PHL","NAME_0":"Philippines","ID_1":1029,"NAME_1":"Ilocos Sur","ID_2":102920,"NAME_2":"San Juan (Lapog)","ID_3":102920027,"NAME_3":"Refaro","NL_NAME_3":null,"VARNAME_3":null,"TYPE_3":"Barangay","ENGTYPE_3":"Village","PROVINCE":"Ilocos Sur","REGION":"Region I (Ilocos Region)","id":"barangay-0102920027","name":"Refaro","barangayCode":"0102920027","population":null,"formattedPop":null,"densityCategory":"No data","vulnerabilityRating":"No data","healthRiskLevel":"No data","areaKm2":2.067346,"centerLat":17.762834,"centerLng":120.444433,"geometrySource":"all_barangay-2.csv detailed WKT","geometryMatchMethod":"psgc_coordinate_bridge","boundaryPointCount":14},"geometry":{"type":"MultiPolygon","coordinates":[[[[120.438812,17.76943],[120.440491,17.769279],[120.443329,17.7686],[120.448036,17.76786],[120.450317,17.767361],[120.452744,17.767139],[120.455849,17.76693],[120.455017,17.764851],[120.452652,17.758829],[120.451874,17.757721],[120.446114,17.75902],[120.438179,17.761],[120.436172,17.76162],[120.438812,17.76943]]]]}},{"type":"Feature","properties":{"ID_0":177,"ISO":"PHL","NAME_0":"Philippines","ID_1":1029,"NAME_1":"Ilocos Sur","ID_2":102920,"NAME_2":"San Juan (Lapog)","ID_3":102920028,"NAME_3":"Resurreccion","NL_NAME_3":null,"VARNAME_3":null,"TYPE_3":"Barangay","ENGTYPE_3":"Village","PROVINCE":"Ilocos Sur","REGION":"Region I (Ilocos Region)","id":"barangay-0102920028","name":"Resurreccion","barangayCode":"0102920028","population":null,"formattedPop":null,"densityCategory":"No data","vulnerabilityRating":"No data","healthRiskLevel":"No data","areaKm2":0.379869,"centerLat":17.739231,"centerLng":120.459333,"geometrySource":"all_barangay-2.csv detailed WKT","geometryMatchMethod":"psgc_coordinate_bridge","boundaryPointCount":12},"geometry":{"type":"MultiPolygon","coordinates":[[[[120.465668,17.742161],[120.465248,17.740351],[120.465149,17.739981],[120.463837,17.738199],[120.462517,17.737711],[120.46096,17.73675],[120.459579,17.73683],[120.458076,17.73802],[120.456787,17.73826],[120.457008,17.740191],[120.45842,17.743839],[120.465668,17.742161]]]]}},{"type":"Feature","properties":{"ID_0":177,"ISO":"PHL","NAME_0":"Philippines","ID_1":1029,"NAME_1":"Ilocos Sur","ID_2":102920,"NAME_2":"San Juan (Lapog)","ID_3":102920029,"NAME_3":"Sabangan","NL_NAME_3":null,"VARNAME_3":null,"TYPE_3":"Barangay","ENGTYPE_3":"Village","PROVINCE":"Ilocos Sur","REGION":"Region I (Ilocos Region)","id":"barangay-0102920029","name":"Sabangan","barangayCode":"0102920029","population":null,"formattedPop":null,"densityCategory":"No data","vulnerabilityRating":"No data","healthRiskLevel":"No data","areaKm2":0.69026,"centerLat":17.738341,"centerLng":120.438866,"geometrySource":"all_barangay-2.csv detailed WKT","geometryMatchMethod":"psgc_coordinate_bridge","boundaryPointCount":27},"geometry":{"type":"MultiPolygon","coordinates":[[[[120.440071,17.742001],[120.441368,17.743179],[120.442123,17.743971],[120.442734,17.74408],[120.443687,17.74408],[120.440353,17.730129],[120.440323,17.72928],[120.435944,17.73208],[120.435799,17.73217],[120.4356,17.73229],[120.435837,17.7325],[120.435837,17.73278],[120.436111,17.733061],[120.436111,17.73333],[120.436417,17.73428],[120.436111,17.735001],[120.436111,17.73889],[120.435837,17.73917],[120.435837,17.739719],[120.436111,17.74],[120.436111,17.74111],[120.435837,17.74139],[120.435837,17.74194],[120.436989,17.74197],[120.437843,17.742001],[120.439629,17.74189],[120.440071,17.742001]]]]}},{"type":"Feature","properties":{"ID_0":177,"ISO":"PHL","NAME_0":"Philippines","ID_1":1029,"NAME_1":"Ilocos Sur","ID_2":102920,"NAME_2":"San Juan (Lapog)","ID_3":102920031,"NAME_3":"San Isidro","NL_NAME_3":null,"VARNAME_3":null,"TYPE_3":"Barangay","ENGTYPE_3":"Village","PROVINCE":"Ilocos Sur","REGION":"Region I (Ilocos Region)","id":"barangay-0102920031","name":"San Isidro","barangayCode":"0102920031","population":null,"formattedPop":null,"densityCategory":"No data","vulnerabilityRating":"No data","healthRiskLevel":"No data","areaKm2":1.83597,"centerLat":17.720106,"centerLng":120.425253,"geometrySource":"all_barangay-2.csv detailed WKT","geometryMatchMethod":"psgc_coordinate_bridge","boundaryPointCount":27},"geometry":{"type":"MultiPolygon","coordinates":[[[[120.435364,17.72336],[120.435333,17.722521],[120.434982,17.720711],[120.434967,17.71736],[120.43409,17.713739],[120.429688,17.71452],[120.420677,17.715059],[120.420197,17.71509],[120.419724,17.71512],[120.419724,17.715281],[120.419167,17.715561],[120.419441,17.71583],[120.419441,17.71833],[120.419998,17.718889],[120.419998,17.72028],[120.42083,17.72056],[120.420563,17.720831],[120.419998,17.721109],[120.42028,17.72139],[120.42028,17.72389],[120.419998,17.724171],[120.419998,17.72472],[120.419724,17.725],[120.419724,17.725969],[120.420242,17.72591],[120.420448,17.72587],[120.435364,17.72336]]]]}},{"type":"Feature","properties":{"ID_0":177,"ISO":"PHL","NAME_0":"Philippines","ID_1":1029,"NAME_1":"Ilocos Sur","ID_2":102920,"NAME_2":"San Juan (Lapog)","ID_3":102920035,"NAME_3":"Saoang","NL_NAME_3":null,"VARNAME_3":null,"TYPE_3":"Barangay","ENGTYPE_3":"Village","PROVINCE":"Ilocos Sur","REGION":"Region I (Ilocos Region)","id":"barangay-0102920035","name":"Saoang","barangayCode":"0102920035","population":null,"formattedPop":null,"densityCategory":"No data","vulnerabilityRating":"No data","healthRiskLevel":"No data","areaKm2":1.031069,"centerLat":17.727045,"centerLng":120.432741,"geometrySource":"all_barangay-2.csv detailed WKT","geometryMatchMethod":"psgc_coordinate_bridge","boundaryPointCount":35},"geometry":{"type":"MultiPolygon","coordinates":[[[[120.440323,17.72928],[120.435364,17.72336],[120.420448,17.72587],[120.420242,17.72591],[120.419724,17.725969],[120.419724,17.727779],[120.42083,17.728889],[120.422234,17.728889],[120.422234,17.728729],[120.422234,17.728609],[120.421387,17.728331],[120.421669,17.72806],[120.421669,17.727779],[120.422501,17.727779],[120.422501,17.72806],[120.423058,17.72806],[120.425247,17.728081],[120.426666,17.728331],[120.426941,17.728609],[120.427223,17.728609],[120.427498,17.728889],[120.42778,17.728889],[120.428047,17.72917],[120.429443,17.72917],[120.429642,17.729361],[120.429733,17.729441],[120.43,17.729441],[120.430267,17.729719],[120.430557,17.729719],[120.432678,17.73064],[120.434799,17.73159],[120.4356,17.73229],[120.435799,17.73217],[120.435944,17.73208],[120.440323,17.72928]]]]}},{"type":"Feature","properties":{"ID_0":177,"ISO":"PHL","NAME_0":"Philippines","ID_1":1029,"NAME_1":"Ilocos Sur","ID_2":102920,"NAME_2":"San Juan (Lapog)","ID_3":102920037,"NAME_3":"Solotsolot","NL_NAME_3":null,"VARNAME_3":null,"TYPE_3":"Barangay","ENGTYPE_3":"Village","PROVINCE":"Ilocos Sur","REGION":"Region I (Ilocos Region)","id":"barangay-0102920037","name":"Solotsolot","barangayCode":"0102920037","population":null,"formattedPop":null,"densityCategory":"No data","vulnerabilityRating":"No data","healthRiskLevel":"No data","areaKm2":1.117908,"centerLat":17.75957,"centerLng":120.428875,"geometrySource":"all_barangay-2.csv detailed WKT","geometryMatchMethod":"psgc_coordinate_bridge","boundaryPointCount":31},"geometry":{"type":"MultiPolygon","coordinates":[[[[120.436172,17.76162],[120.434647,17.759069],[120.434227,17.75807],[120.432854,17.75589],[120.431473,17.754141],[120.430634,17.75326],[120.430557,17.75333],[120.430557,17.753611],[120.429733,17.75444],[120.429443,17.75444],[120.429169,17.754721],[120.428047,17.754721],[120.42778,17.75444],[120.427223,17.75444],[120.426109,17.75556],[120.425827,17.75556],[120.425552,17.755831],[120.424263,17.756479],[120.424263,17.757259],[120.424294,17.758961],[120.423981,17.76166],[120.423073,17.76391],[120.422379,17.764669],[120.422318,17.76474],[120.422096,17.76486],[120.422188,17.76486],[120.422562,17.76482],[120.426529,17.764481],[120.431488,17.76338],[120.434387,17.76226],[120.436172,17.76162]]]]}},{"type":"Feature","properties":{"ID_0":177,"ISO":"PHL","NAME_0":"Philippines","ID_1":1029,"NAME_1":"Ilocos Sur","ID_2":102920,"NAME_2":"San Juan (Lapog)","ID_3":102920038,"NAME_3":"Sunggiam","NL_NAME_3":null,"VARNAME_3":null,"TYPE_3":"Barangay","ENGTYPE_3":"Village","PROVINCE":"Ilocos Sur","REGION":"Region I (Ilocos Region)","id":"barangay-0102920038","name":"Sunggiam","barangayCode":"0102920038","population":null,"formattedPop":null,"densityCategory":"No data","vulnerabilityRating":"No data","healthRiskLevel":"No data","areaKm2":1.218734,"centerLat":17.754889,"centerLng":120.440718,"geometrySource":"all_barangay-2.csv detailed WKT","geometryMatchMethod":"psgc_coordinate_bridge","boundaryPointCount":28},"geometry":{"type":"MultiPolygon","coordinates":[[[[120.451874,17.757721],[120.451653,17.75666],[120.451263,17.755819],[120.450363,17.75396],[120.449493,17.752069],[120.448624,17.75205],[120.446274,17.75305],[120.44323,17.754881],[120.442047,17.75466],[120.441177,17.754169],[120.440643,17.75453],[120.438889,17.75428],[120.438202,17.754101],[120.436234,17.752411],[120.434013,17.751841],[120.433418,17.75248],[120.431938,17.753201],[120.431084,17.75318],[120.430817,17.753071],[120.430634,17.75326],[120.431473,17.754141],[120.432854,17.75589],[120.434227,17.75807],[120.434647,17.759069],[120.436172,17.76162],[120.438179,17.761],[120.446114,17.75902],[120.451874,17.757721]]]]}},{"type":"Feature","properties":{"ID_0":177,"ISO":"PHL","NAME_0":"Philippines","ID_1":1029,"NAME_1":"Ilocos Sur","ID_2":102920,"NAME_2":"San Juan (Lapog)","ID_3":102920039,"NAME_3":"Surngit","NL_NAME_3":null,"VARNAME_3":null,"TYPE_3":"Barangay","ENGTYPE_3":"Village","PROVINCE":"Ilocos Sur","REGION":"Region I (Ilocos Region)","id":"barangay-0102920039","name":"Surngit","barangayCode":"0102920039","population":null,"formattedPop":null,"densityCategory":"No data","vulnerabilityRating":"No data","healthRiskLevel":"No data","areaKm2":1.194894,"centerLat":17.759836,"centerLng":120.416075,"geometrySource":"all_barangay-2.csv detailed WKT","geometryMatchMethod":"psgc_coordinate_bridge","boundaryPointCount":65},"geometry":{"type":"MultiPolygon","coordinates":[[[[120.422096,17.76486],[120.422318,17.76474],[120.422379,17.764669],[120.423073,17.76391],[120.423981,17.76166],[120.424294,17.758961],[120.424263,17.757259],[120.424263,17.756479],[120.423889,17.75667],[120.423058,17.75667],[120.422501,17.75639],[120.422234,17.756109],[120.419319,17.755899],[120.418327,17.755831],[120.41729,17.755831],[120.41687,17.755619],[120.415977,17.755619],[120.415283,17.75556],[120.414436,17.755831],[120.413887,17.756109],[120.413612,17.756109],[120.41333,17.755831],[120.413063,17.755831],[120.412781,17.756109],[120.412498,17.756109],[120.411667,17.756941],[120.41111,17.756941],[120.410843,17.757219],[120.410553,17.757219],[120.410278,17.7575],[120.410004,17.7575],[120.409721,17.75778],[120.409157,17.75778],[120.40889,17.758051],[120.408783,17.75795],[120.408607,17.75778],[120.408607,17.7575],[120.407784,17.75667],[120.407448,17.75703],[120.406738,17.75757],[120.406738,17.758459],[120.40667,17.759171],[120.40667,17.76083],[120.406387,17.76111],[120.406937,17.761669],[120.406937,17.76194],[120.407501,17.762501],[120.407501,17.762779],[120.408333,17.762779],[120.409447,17.762501],[120.409447,17.76222],[120.409721,17.76222],[120.409721,17.762501],[120.411392,17.762501],[120.411667,17.76222],[120.412498,17.76194],[120.413887,17.761669],[120.415833,17.76194],[120.417221,17.76222],[120.418327,17.762501],[120.419998,17.76306],[120.420563,17.76333],[120.421944,17.764721],[120.421944,17.76487],[120.422096,17.76486]]]]}},{"type":"Feature","properties":{"ID_0":177,"ISO":"PHL","NAME_0":"Philippines","ID_1":1029,"NAME_1":"Ilocos Sur","ID_2":102920,"NAME_2":"San Juan (Lapog)","ID_3":102920040,"NAME_3":"Asilang","NL_NAME_3":null,"VARNAME_3":null,"TYPE_3":"Barangay","ENGTYPE_3":"Village","PROVINCE":"Ilocos Sur","REGION":"Region I (Ilocos Region)","id":"barangay-0102920040","name":"Asilang","barangayCode":"0102920040","population":null,"formattedPop":null,"densityCategory":"No data","vulnerabilityRating":"No data","healthRiskLevel":"No data","areaKm2":1.554794,"centerLat":17.71092,"centerLng":120.48324,"geometrySource":"all_barangay-2.csv detailed WKT","geometryMatchMethod":"psgc_coordinate_bridge","boundaryPointCount":13},"geometry":{"type":"MultiPolygon","coordinates":[[[[120.478867,17.715561],[120.48037,17.71423],[120.483177,17.71353],[120.485786,17.713619],[120.489067,17.71419],[120.491722,17.702761],[120.487411,17.7048],[120.482849,17.706751],[120.47805,17.708731],[120.474388,17.710581],[120.473969,17.710951],[120.476486,17.71673],[120.478867,17.715561]]]]}}]}
