{"type":"FeatureCollection","features":[{"type":"Feature","properties":{"ID_0":177,"ISO":"PHL","NAME_0":"Philippines","ID_1":10035,"NAME_1":"Lanao del Norte","ID_2":1003505,"NAME_2":"Kapatagan","ID_3":1003505001,"NAME_3":"Bagong Badian","NL_NAME_3":null,"VARNAME_3":null,"TYPE_3":"Barangay","ENGTYPE_3":"Village","PROVINCE":"Lanao del Norte","REGION":"Region X (Northern Mindanao)","id":"barangay-1003505001","name":"Bagong Badian","barangayCode":"1003505001","population":null,"formattedPop":null,"densityCategory":"No data","vulnerabilityRating":"No data","healthRiskLevel":"No data","areaKm2":3.68659,"centerLat":7.907921,"centerLng":123.691041,"geometrySource":"all_barangay-2.csv detailed WKT","geometryMatchMethod":"unique_official_admin_names","boundaryPointCount":29},"geometry":{"type":"MultiPolygon","coordinates":[[[[123.676109,7.89256],[123.690224,7.87834],[123.690903,7.87729],[123.69149,7.87652],[123.692848,7.87638],[123.694237,7.87503],[123.695412,7.87373],[123.696327,7.87221],[123.697029,7.87154],[123.698837,7.87144],[123.701241,7.87016],[123.702759,7.86825],[123.684799,7.83995],[123.683517,7.84094],[123.682541,7.842],[123.680817,7.84363],[123.677811,7.84699],[123.676277,7.84886],[123.675369,7.85035],[123.672592,7.85452],[123.670662,7.85751],[123.669594,7.86018],[123.66713,7.8652],[123.66523,7.87111],[123.665024,7.87278],[123.663887,7.87569],[123.674606,7.89187],[123.675148,7.89213],[123.676109,7.89256]]]]}},{"type":"Feature","properties":{"ID_0":177,"ISO":"PHL","NAME_0":"Philippines","ID_1":10035,"NAME_1":"Lanao del Norte","ID_2":1003505,"NAME_2":"Kapatagan","ID_3":1003505003,"NAME_3":"Bagong Silang","NL_NAME_3":null,"VARNAME_3":null,"TYPE_3":"Barangay","ENGTYPE_3":"Village","PROVINCE":"Lanao del Norte","REGION":"Region X (Northern Mindanao)","id":"barangay-1003505003","name":"Bagong Silang","barangayCode":"1003505003","population":null,"formattedPop":null,"densityCategory":"No data","vulnerabilityRating":"No data","healthRiskLevel":"No data","areaKm2":4.8125,"centerLat":7.879133,"centerLng":123.802913,"geometrySource":"all_barangay-2.csv detailed WKT","geometryMatchMethod":"unique_official_admin_names","boundaryPointCount":54},"geometry":{"type":"MultiPolygon","coordinates":[[[[123.803551,7.8934],[123.803741,7.89128],[123.804031,7.88972],[123.804771,7.8881],[123.805054,7.88704],[123.805878,7.88544],[123.806953,7.88484],[123.807312,7.88443],[123.808777,7.88414],[123.810287,7.88387],[123.810966,7.88266],[123.812111,7.88141],[123.813316,7.88033],[123.814949,7.87985],[123.817741,7.87956],[123.818619,7.8793],[123.816299,7.87614],[123.811218,7.86823],[123.809143,7.86251],[123.7994,7.87072],[123.798531,7.87305],[123.797478,7.87367],[123.796867,7.87456],[123.79599,7.87459],[123.794891,7.87498],[123.79422,7.87632],[123.793259,7.87653],[123.791267,7.87623],[123.790253,7.87653],[123.789726,7.87675],[123.78878,7.87617],[123.788078,7.87578],[123.786926,7.87513],[123.784126,7.87532],[123.781776,7.87565],[123.78038,7.87711],[123.779739,7.87885],[123.778954,7.87982],[123.779602,7.88157],[123.77887,7.88256],[123.777847,7.88415],[123.776649,7.8853],[123.777428,7.88534],[123.778297,7.88649],[123.780373,7.88719],[123.781532,7.88676],[123.783829,7.88562],[123.785316,7.88529],[123.785797,7.88519],[123.79203,7.88516],[123.800888,7.89272],[123.801498,7.89315],[123.802368,7.89326],[123.803551,7.8934]]]]}},{"type":"Feature","properties":{"ID_0":177,"ISO":"PHL","NAME_0":"Philippines","ID_1":10035,"NAME_1":"Lanao del Norte","ID_2":1003505,"NAME_2":"Kapatagan","ID_3":1003505004,"NAME_3":"Balili","NL_NAME_3":null,"VARNAME_3":null,"TYPE_3":"Barangay","ENGTYPE_3":"Village","PROVINCE":"Lanao del Norte","REGION":"Region X (Northern Mindanao)","id":"barangay-1003505004","name":"Balili","barangayCode":"1003505004","population":null,"formattedPop":null,"densityCategory":"No data","vulnerabilityRating":"No data","healthRiskLevel":"No data","areaKm2":4.452294,"centerLat":7.902981,"centerLng":123.729557,"geometrySource":"all_barangay-2.csv detailed WKT","geometryMatchMethod":"unique_official_admin_names","boundaryPointCount":78},"geometry":{"type":"MultiPolygon","coordinates":[[[[123.741638,7.91386],[123.740768,7.91062],[123.740112,7.90894],[123.739212,7.90596],[123.738258,7.90281],[123.738152,7.90237],[123.738007,7.90167],[123.737091,7.89942],[123.735779,7.89921],[123.735382,7.89745],[123.735786,7.89656],[123.735924,7.89507],[123.73526,7.89372],[123.734413,7.89218],[123.733963,7.89084],[123.733551,7.89055],[123.733749,7.88879],[123.733772,7.88801],[123.733139,7.88726],[123.732399,7.88669],[123.730591,7.88603],[123.730164,7.88455],[123.73111,7.8833],[123.731018,7.88213],[123.729347,7.88177],[123.727882,7.88089],[123.727272,7.88067],[123.726601,7.88199],[123.726578,7.88327],[123.726044,7.88442],[123.725594,7.88395],[123.724586,7.88278],[123.723381,7.88252],[123.722832,7.88287],[123.72184,7.88435],[123.721611,7.88522],[123.720482,7.88677],[123.719093,7.88721],[123.717957,7.88693],[123.716858,7.88695],[123.715881,7.88729],[123.715942,7.888],[123.715591,7.88822],[123.714699,7.88857],[123.714203,7.88922],[123.71418,7.89041],[123.714523,7.8914],[123.714622,7.89223],[123.715073,7.89368],[123.715912,7.89525],[123.716591,7.896],[123.717323,7.89636],[123.718941,7.89644],[123.720787,7.89677],[123.721786,7.89764],[123.723862,7.89831],[123.725273,7.89849],[123.725922,7.89933],[123.726067,7.89977],[123.728447,7.90012],[123.728508,7.90035],[123.729187,7.9017],[123.729584,7.90267],[123.730072,7.9044],[123.729248,7.90561],[123.729057,7.90599],[123.727524,7.90734],[123.726768,7.90843],[123.726852,7.90971],[123.726898,7.91109],[123.725517,7.91287],[123.724762,7.91365],[123.724487,7.9149],[123.726723,7.91896],[123.734642,7.91703],[123.735901,7.91614],[123.736839,7.91557],[123.741638,7.91386]]]]}},{"type":"Feature","properties":{"ID_0":177,"ISO":"PHL","NAME_0":"Philippines","ID_1":10035,"NAME_1":"Lanao del Norte","ID_2":1003505,"NAME_2":"Kapatagan","ID_3":1003505005,"NAME_3":"Bansarvil","NL_NAME_3":null,"VARNAME_3":null,"TYPE_3":"Barangay","ENGTYPE_3":"Village","PROVINCE":"Lanao del Norte","REGION":"Region X (Northern Mindanao)","id":"barangay-1003505005","name":"Bansarvil","barangayCode":"1003505005","population":null,"formattedPop":null,"densityCategory":"No data","vulnerabilityRating":"No data","healthRiskLevel":"No data","areaKm2":6.76805,"centerLat":7.874396,"centerLng":123.723822,"geometrySource":"all_barangay-2.csv detailed WKT","geometryMatchMethod":"unique_official_admin_names","boundaryPointCount":38},"geometry":{"type":"MultiPolygon","coordinates":[[[[123.732399,7.88669],[123.736107,7.87927],[123.736107,7.86885],[123.735733,7.86833],[123.735489,7.86764],[123.73571,7.8658],[123.735168,7.86533],[123.73452,7.8643],[123.734848,7.86196],[123.734352,7.86048],[123.734177,7.85886],[123.733818,7.85727],[123.733437,7.85659],[123.733704,7.85409],[123.734367,7.85332],[123.735588,7.8512],[123.735611,7.85012],[123.73555,7.84766],[123.73642,7.84595],[123.738319,7.84481],[123.739609,7.84265],[123.739189,7.83958],[123.728348,7.81903],[123.721909,7.82235],[123.714928,7.8265],[123.708328,7.82849],[123.704048,7.83033],[123.703011,7.83119],[123.717033,7.86116],[123.726646,7.88039],[123.727272,7.88067],[123.727882,7.88089],[123.729347,7.88177],[123.731018,7.88213],[123.73111,7.8833],[123.730164,7.88455],[123.730591,7.88603],[123.732399,7.88669]]]]}},{"type":"Feature","properties":{"ID_0":177,"ISO":"PHL","NAME_0":"Philippines","ID_1":10035,"NAME_1":"Lanao del Norte","ID_2":1003505,"NAME_2":"Kapatagan","ID_3":1003505007,"NAME_3":"Belis","NL_NAME_3":null,"VARNAME_3":null,"TYPE_3":"Barangay","ENGTYPE_3":"Village","PROVINCE":"Lanao del Norte","REGION":"Region X (Northern Mindanao)","id":"barangay-1003505007","name":"Belis","barangayCode":"1003505007","population":null,"formattedPop":null,"densityCategory":"No data","vulnerabilityRating":"No data","healthRiskLevel":"No data","areaKm2":4.553704,"centerLat":7.849491,"centerLng":123.755011,"geometrySource":"all_barangay-2.csv detailed WKT","geometryMatchMethod":"unique_official_admin_names","boundaryPointCount":38},"geometry":{"type":"MultiPolygon","coordinates":[[[[123.74601,7.87054],[123.746353,7.86983],[123.748077,7.86061],[123.747482,7.85974],[123.746964,7.85853],[123.74675,7.85659],[123.746269,7.85522],[123.745407,7.85327],[123.743858,7.85225],[123.742401,7.85242],[123.741074,7.85258],[123.739372,7.85358],[123.738861,7.85373],[123.737907,7.85399],[123.737328,7.85529],[123.736801,7.85643],[123.735977,7.85715],[123.735741,7.85804],[123.734177,7.85886],[123.734352,7.86048],[123.734848,7.86196],[123.73452,7.8643],[123.735168,7.86533],[123.73571,7.8658],[123.735489,7.86764],[123.735733,7.86833],[123.736107,7.86885],[123.737038,7.86884],[123.738159,7.86905],[123.738907,7.869],[123.739853,7.86784],[123.74015,7.86661],[123.740822,7.86634],[123.741257,7.8673],[123.74231,7.86806],[123.743279,7.86928],[123.744797,7.87014],[123.74601,7.87054]]]]}},{"type":"Feature","properties":{"ID_0":177,"ISO":"PHL","NAME_0":"Philippines","ID_1":10035,"NAME_1":"Lanao del Norte","ID_2":1003505,"NAME_2":"Kapatagan","ID_3":1003505008,"NAME_3":"Buenavista","NL_NAME_3":null,"VARNAME_3":null,"TYPE_3":"Barangay","ENGTYPE_3":"Village","PROVINCE":"Lanao del Norte","REGION":"Region X (Northern Mindanao)","id":"barangay-1003505008","name":"Buenavista","barangayCode":"1003505008","population":null,"formattedPop":null,"densityCategory":"No data","vulnerabilityRating":"No data","healthRiskLevel":"No data","areaKm2":2.56163,"centerLat":7.862853,"centerLng":123.797765,"geometrySource":"all_barangay-2.csv detailed WKT","geometryMatchMethod":"unique_official_admin_names","boundaryPointCount":20},"geometry":{"type":"MultiPolygon","coordinates":[[[[123.809143,7.86251],[123.808212,7.85631],[123.800903,7.82955],[123.800392,7.82938],[123.799133,7.82926],[123.798843,7.8305],[123.798569,7.83273],[123.797737,7.83534],[123.797119,7.83699],[123.796333,7.8388],[123.795753,7.84123],[123.795624,7.8422],[123.793983,7.84414],[123.791733,7.84603],[123.79023,7.84784],[123.789131,7.84908],[123.787712,7.85029],[123.785347,7.85102],[123.7994,7.87072],[123.809143,7.86251]]]]}},{"type":"Feature","properties":{"ID_0":177,"ISO":"PHL","NAME_0":"Philippines","ID_1":10035,"NAME_1":"Lanao del Norte","ID_2":1003505,"NAME_2":"Kapatagan","ID_3":1003505010,"NAME_3":"Butadon","NL_NAME_3":null,"VARNAME_3":null,"TYPE_3":"Barangay","ENGTYPE_3":"Village","PROVINCE":"Lanao del Norte","REGION":"Region X (Northern Mindanao)","id":"barangay-1003505010","name":"Butadon","barangayCode":"1003505010","population":null,"formattedPop":null,"densityCategory":"No data","vulnerabilityRating":"No data","healthRiskLevel":"No data","areaKm2":6.592111,"centerLat":7.884648,"centerLng":123.749079,"geometrySource":"all_barangay-2.csv detailed WKT","geometryMatchMethod":"unique_official_admin_names","boundaryPointCount":63},"geometry":{"type":"MultiPolygon","coordinates":[[[[123.745033,7.91316],[123.74614,7.91283],[123.746712,7.91266],[123.748528,7.91245],[123.752136,7.91234],[123.758369,7.9119],[123.759666,7.91179],[123.761238,7.91166],[123.761833,7.91171],[123.762482,7.91178],[123.762932,7.91187],[123.763329,7.91194],[123.76313,7.91079],[123.762383,7.90819],[123.761971,7.90506],[123.76207,7.90481],[123.759521,7.90348],[123.758507,7.90315],[123.755943,7.90212],[123.755707,7.90204],[123.755249,7.90187],[123.754761,7.90109],[123.754288,7.9003],[123.754578,7.89916],[123.754829,7.89818],[123.75531,7.8963],[123.755402,7.89539],[123.755402,7.89534],[123.755493,7.89448],[123.755669,7.89339],[123.755814,7.89242],[123.755722,7.89187],[123.755623,7.89122],[123.75547,7.88861],[123.754929,7.88692],[123.754753,7.88712],[123.754578,7.88732],[123.744217,7.88546],[123.742958,7.88829],[123.74205,7.89052],[123.741623,7.89159],[123.741333,7.89249],[123.740753,7.89422],[123.740387,7.89644],[123.740646,7.89757],[123.740257,7.89817],[123.739838,7.8988],[123.739594,7.89908],[123.739319,7.89938],[123.738899,7.89968],[123.738518,7.89994],[123.737801,7.89968],[123.737747,7.89966],[123.737091,7.89942],[123.738007,7.90167],[123.738152,7.90237],[123.738258,7.90281],[123.739212,7.90596],[123.740112,7.90894],[123.740768,7.91062],[123.741638,7.91386],[123.742493,7.91369],[123.745033,7.91316]]]]}},{"type":"Feature","properties":{"ID_0":177,"ISO":"PHL","NAME_0":"Philippines","ID_1":10035,"NAME_1":"Lanao del Norte","ID_2":1003505,"NAME_2":"Kapatagan","ID_3":1003505012,"NAME_3":"Cathedral Falls","NL_NAME_3":null,"VARNAME_3":null,"TYPE_3":"Barangay","ENGTYPE_3":"Village","PROVINCE":"Lanao del Norte","REGION":"Region X (Northern Mindanao)","id":"barangay-1003505012","name":"Cathedral Falls","barangayCode":"1003505012","population":null,"formattedPop":null,"densityCategory":"No data","vulnerabilityRating":"No data","healthRiskLevel":"No data","areaKm2":0.690362,"centerLat":7.872991,"centerLng":123.775287,"geometrySource":"all_barangay-2.csv detailed WKT","geometryMatchMethod":"unique_official_admin_names","boundaryPointCount":28},"geometry":{"type":"MultiPolygon","coordinates":[[[[123.778954,7.87982],[123.779739,7.87885],[123.78038,7.87711],[123.781776,7.87565],[123.784126,7.87532],[123.786926,7.87513],[123.776947,7.85776],[123.775749,7.85801],[123.774498,7.85964],[123.774437,7.86007],[123.774353,7.86049],[123.774712,7.86123],[123.774712,7.86223],[123.774261,7.86471],[123.774559,7.86589],[123.773987,7.86657],[123.772888,7.86716],[123.771896,7.86779],[123.77124,7.86819],[123.771339,7.87059],[123.771683,7.87179],[123.771446,7.87271],[123.770828,7.87376],[123.767616,7.87656],[123.765747,7.87845],[123.765244,7.87957],[123.764458,7.881],[123.778954,7.87982]]]]}},{"type":"Feature","properties":{"ID_0":177,"ISO":"PHL","NAME_0":"Philippines","ID_1":10035,"NAME_1":"Lanao del Norte","ID_2":1003505,"NAME_2":"Kapatagan","ID_3":1003505014,"NAME_3":"Concepcion","NL_NAME_3":null,"VARNAME_3":null,"TYPE_3":"Barangay","ENGTYPE_3":"Village","PROVINCE":"Lanao del Norte","REGION":"Region X (Northern Mindanao)","id":"barangay-1003505014","name":"Concepcion","barangayCode":"1003505014","population":null,"formattedPop":null,"densityCategory":"No data","vulnerabilityRating":"No data","healthRiskLevel":"No data","areaKm2":1.92657,"centerLat":7.918237,"centerLng":123.724526,"geometrySource":"all_barangay-2.csv detailed WKT","geometryMatchMethod":"unique_official_admin_names","boundaryPointCount":35},"geometry":{"type":"MultiPolygon","coordinates":[[[[123.726723,7.91896],[123.724487,7.9149],[123.724762,7.91365],[123.725517,7.91287],[123.726898,7.91109],[123.726852,7.90971],[123.726768,7.90843],[123.727524,7.90734],[123.729057,7.90599],[123.729248,7.90561],[123.730072,7.9044],[123.729584,7.90267],[123.729187,7.9017],[123.728508,7.90035],[123.728447,7.90012],[123.726067,7.89977],[123.726097,7.90163],[123.725883,7.90315],[123.724983,7.9042],[123.723534,7.9056],[123.722878,7.9061],[123.720329,7.90889],[123.718452,7.91087],[123.716049,7.91271],[123.714523,7.91362],[123.712357,7.91376],[123.711319,7.91385],[123.709488,7.91332],[123.699722,7.91426],[123.705673,7.92694],[123.708107,7.92581],[123.710403,7.92501],[123.71608,7.9227],[123.721626,7.92055],[123.726723,7.91896]]]]}},{"type":"Feature","properties":{"ID_0":177,"ISO":"PHL","NAME_0":"Philippines","ID_1":10035,"NAME_1":"Lanao del Norte","ID_2":1003505,"NAME_2":"Kapatagan","ID_3":1003505015,"NAME_3":"Curvada","NL_NAME_3":null,"VARNAME_3":null,"TYPE_3":"Barangay","ENGTYPE_3":"Village","PROVINCE":"Lanao del Norte","REGION":"Region X (Northern Mindanao)","id":"barangay-1003505015","name":"Curvada","barangayCode":"1003505015","population":null,"formattedPop":null,"densityCategory":"No data","vulnerabilityRating":"No data","healthRiskLevel":"No data","areaKm2":3.185618,"centerLat":7.891905,"centerLng":123.789063,"geometrySource":"all_barangay-2.csv detailed WKT","geometryMatchMethod":"unique_official_admin_names","boundaryPointCount":12},"geometry":{"type":"MultiPolygon","coordinates":[[[[123.800888,7.89272],[123.79203,7.88516],[123.785797,7.88519],[123.786797,7.89075],[123.787064,7.8962],[123.795387,7.89567],[123.796288,7.89536],[123.796806,7.89457],[123.798813,7.89436],[123.7994,7.89458],[123.799911,7.89355],[123.800888,7.89272]]]]}},{"type":"Feature","properties":{"ID_0":177,"ISO":"PHL","NAME_0":"Philippines","ID_1":10035,"NAME_1":"Lanao del Norte","ID_2":1003505,"NAME_2":"Kapatagan","ID_3":1003505016,"NAME_3":"De Asis","NL_NAME_3":null,"VARNAME_3":null,"TYPE_3":"Barangay","ENGTYPE_3":"Village","PROVINCE":"Lanao del Norte","REGION":"Region X (Northern Mindanao)","id":"barangay-1003505016","name":"De Asis","barangayCode":"1003505016","population":null,"formattedPop":null,"densityCategory":"No data","vulnerabilityRating":"No data","healthRiskLevel":"No data","areaKm2":2.0713,"centerLat":7.903626,"centerLng":123.786094,"geometrySource":"all_barangay-2.csv detailed WKT","geometryMatchMethod":"unique_official_admin_names","boundaryPointCount":15},"geometry":{"type":"MultiPolygon","coordinates":[[[[123.793694,7.90596],[123.794853,7.90373],[123.795174,7.90215],[123.793999,7.89986],[123.794487,7.89888],[123.795647,7.8986],[123.796127,7.89767],[123.795273,7.89636],[123.795387,7.89567],[123.787064,7.8962],[123.786797,7.89075],[123.778976,7.8938],[123.779373,7.90354],[123.779251,7.9055],[123.793694,7.90596]]]]}},{"type":"Feature","properties":{"ID_0":177,"ISO":"PHL","NAME_0":"Philippines","ID_1":10035,"NAME_1":"Lanao del Norte","ID_2":1003505,"NAME_2":"Kapatagan","ID_3":1003505018,"NAME_3":"Donggoan","NL_NAME_3":null,"VARNAME_3":null,"TYPE_3":"Barangay","ENGTYPE_3":"Village","PROVINCE":"Lanao del Norte","REGION":"Region X (Northern Mindanao)","id":"barangay-1003505018","name":"Donggoan","barangayCode":"1003505018","population":null,"formattedPop":null,"densityCategory":"No data","vulnerabilityRating":"No data","healthRiskLevel":"No data","areaKm2":3.443926,"centerLat":7.915854,"centerLng":123.710942,"geometrySource":"all_barangay-2.csv detailed WKT","geometryMatchMethod":"unique_official_admin_names","boundaryPointCount":46},"geometry":{"type":"MultiPolygon","coordinates":[[[[123.699722,7.91426],[123.709488,7.91332],[123.711319,7.91385],[123.712357,7.91376],[123.714523,7.91362],[123.716049,7.91271],[123.718452,7.91087],[123.720329,7.90889],[123.722878,7.9061],[123.723534,7.9056],[123.724983,7.9042],[123.725883,7.90315],[123.726097,7.90163],[123.726067,7.89977],[123.725922,7.89933],[123.725273,7.89849],[123.723862,7.89831],[123.721786,7.89764],[123.720787,7.89677],[123.718941,7.89644],[123.717323,7.89636],[123.715309,7.89695],[123.714149,7.89736],[123.71312,7.89739],[123.711487,7.89825],[123.709976,7.89892],[123.709534,7.89903],[123.708008,7.89815],[123.707291,7.89745],[123.706573,7.89653],[123.705544,7.89678],[123.70401,7.89737],[123.703217,7.8977],[123.700706,7.89827],[123.699631,7.8998],[123.698898,7.90118],[123.698151,7.90181],[123.696259,7.90152],[123.694962,7.90013],[123.694267,7.89936],[123.692459,7.89921],[123.691032,7.89999],[123.689262,7.90032],[123.688667,7.90022],[123.697456,7.91095],[123.699722,7.91426]]]]}},{"type":"Feature","properties":{"ID_0":177,"ISO":"PHL","NAME_0":"Philippines","ID_1":10035,"NAME_1":"Lanao del Norte","ID_2":1003505,"NAME_2":"Kapatagan","ID_3":1003505019,"NAME_3":"Durano","NL_NAME_3":null,"VARNAME_3":null,"TYPE_3":"Barangay","ENGTYPE_3":"Village","PROVINCE":"Lanao del Norte","REGION":"Region X (Northern Mindanao)","id":"barangay-1003505019","name":"Durano","barangayCode":"1003505019","population":null,"formattedPop":null,"densityCategory":"No data","vulnerabilityRating":"No data","healthRiskLevel":"No data","areaKm2":1.699376,"centerLat":7.897482,"centerLng":123.658593,"geometrySource":"all_barangay-2.csv detailed WKT","geometryMatchMethod":"unique_official_admin_names","boundaryPointCount":36},"geometry":{"type":"MultiPolygon","coordinates":[[[[123.674492,7.92101],[123.675972,7.92149],[123.676598,7.92191],[123.678513,7.92185],[123.6791,7.9219],[123.681549,7.92015],[123.68438,7.91804],[123.686478,7.917],[123.697456,7.91095],[123.688667,7.90022],[123.688248,7.89998],[123.686234,7.90082],[123.684341,7.90191],[123.681198,7.90323],[123.679268,7.90411],[123.677483,7.90486],[123.67659,7.90523],[123.6744,7.90563],[123.673431,7.9055],[123.671471,7.90501],[123.668518,7.90582],[123.665909,7.90629],[123.663872,7.90644],[123.659027,7.90538],[123.659592,7.9112],[123.661491,7.91942],[123.662697,7.91944],[123.663528,7.91961],[123.665443,7.9199],[123.66713,7.91923],[123.668221,7.91883],[123.668953,7.91946],[123.670029,7.92013],[123.671318,7.92003],[123.673508,7.92056],[123.674492,7.92101]]]]}},{"type":"Feature","properties":{"ID_0":177,"ISO":"PHL","NAME_0":"Philippines","ID_1":10035,"NAME_1":"Lanao del Norte","ID_2":1003505,"NAME_2":"Kapatagan","ID_3":1003505021,"NAME_3":"Kahayagan","NL_NAME_3":null,"VARNAME_3":null,"TYPE_3":"Barangay","ENGTYPE_3":"Village","PROVINCE":"Lanao del Norte","REGION":"Region X (Northern Mindanao)","id":"barangay-1003505021","name":"Kahayagan","barangayCode":"1003505021","population":null,"formattedPop":null,"densityCategory":"No data","vulnerabilityRating":"No data","healthRiskLevel":"No data","areaKm2":2.572616,"centerLat":7.91339,"centerLng":123.672147,"geometrySource":"all_barangay-2.csv detailed WKT","geometryMatchMethod":"unique_official_admin_names","boundaryPointCount":31},"geometry":{"type":"MultiPolygon","coordinates":[[[[123.688248,7.89998],[123.687592,7.89871],[123.68602,7.89752],[123.684433,7.89707],[123.683167,7.8968],[123.681343,7.89642],[123.68042,7.89602],[123.679413,7.8951],[123.678337,7.8944],[123.677109,7.89382],[123.676689,7.89312],[123.676109,7.89256],[123.675148,7.89213],[123.671127,7.8927],[123.6558,7.89442],[123.657784,7.90228],[123.658348,7.90453],[123.659027,7.90538],[123.663872,7.90644],[123.665909,7.90629],[123.668518,7.90582],[123.671471,7.90501],[123.673431,7.9055],[123.6744,7.90563],[123.67659,7.90523],[123.677483,7.90486],[123.679268,7.90411],[123.681198,7.90323],[123.684341,7.90191],[123.686234,7.90082],[123.688248,7.89998]]]]}},{"type":"Feature","properties":{"ID_0":177,"ISO":"PHL","NAME_0":"Philippines","ID_1":10035,"NAME_1":"Lanao del Norte","ID_2":1003505,"NAME_2":"Kapatagan","ID_3":1003505026,"NAME_3":"Kidalos","NL_NAME_3":null,"VARNAME_3":null,"TYPE_3":"Barangay","ENGTYPE_3":"Village","PROVINCE":"Lanao del Norte","REGION":"Region X (Northern Mindanao)","id":"barangay-1003505026","name":"Kidalos","barangayCode":"1003505026","population":null,"formattedPop":null,"densityCategory":"No data","vulnerabilityRating":"No data","healthRiskLevel":"No data","areaKm2":5.98155,"centerLat":7.841965,"centerLng":123.773057,"geometrySource":"all_barangay-2.csv detailed WKT","geometryMatchMethod":"unique_official_admin_names","boundaryPointCount":76},"geometry":{"type":"MultiPolygon","coordinates":[[[[123.776947,7.85776],[123.778252,7.85687],[123.778381,7.85625],[123.779182,7.85454],[123.780533,7.85369],[123.781822,7.85366],[123.783783,7.85225],[123.785347,7.85102],[123.787712,7.85029],[123.789131,7.84908],[123.79023,7.84784],[123.791733,7.84603],[123.793983,7.84414],[123.795624,7.8422],[123.795753,7.84123],[123.796333,7.8388],[123.797119,7.83699],[123.797737,7.83534],[123.798569,7.83273],[123.798843,7.8305],[123.799133,7.82926],[123.800392,7.82938],[123.800903,7.82955],[123.78994,7.788],[123.786819,7.79015],[123.783203,7.79162],[123.767616,7.79934],[123.756577,7.80423],[123.764137,7.81812],[123.764099,7.81881],[123.763542,7.82145],[123.763077,7.82347],[123.761909,7.82506],[123.760803,7.8261],[123.760307,7.82752],[123.760361,7.82978],[123.760521,7.83089],[123.759613,7.83339],[123.758133,7.83393],[123.755966,7.83414],[123.754807,7.83425],[123.754372,7.83627],[123.75428,7.83846],[123.754051,7.8412],[123.753517,7.8425],[123.753372,7.84374],[123.754219,7.84429],[123.756577,7.84522],[123.758713,7.84596],[123.759789,7.8461],[123.76078,7.84711],[123.761368,7.84777],[123.762657,7.84842],[123.76339,7.8486],[123.763863,7.84896],[123.765327,7.84853],[123.765877,7.8487],[123.767128,7.84979],[123.767899,7.85039],[123.769867,7.85212],[123.770042,7.85272],[123.769287,7.8543],[123.769089,7.85466],[123.770271,7.85547],[123.770493,7.8561],[123.77124,7.85677],[123.772133,7.85704],[123.772888,7.85741],[123.772797,7.85888],[123.772507,7.85947],[123.773232,7.86027],[123.774353,7.86049],[123.774437,7.86007],[123.774498,7.85964],[123.775749,7.85801],[123.776947,7.85776]]]]}},{"type":"Feature","properties":{"ID_0":177,"ISO":"PHL","NAME_0":"Philippines","ID_1":10035,"NAME_1":"Lanao del Norte","ID_2":1003505,"NAME_2":"Kapatagan","ID_3":1003505027,"NAME_3":"La Libertad","NL_NAME_3":null,"VARNAME_3":null,"TYPE_3":"Barangay","ENGTYPE_3":"Village","PROVINCE":"Lanao del Norte","REGION":"Region X (Northern Mindanao)","id":"barangay-1003505027","name":"La Libertad","barangayCode":"1003505027","population":null,"formattedPop":null,"densityCategory":"No data","vulnerabilityRating":"No data","healthRiskLevel":"No data","areaKm2":3.358453,"centerLat":7.882929,"centerLng":123.707215,"geometrySource":"all_barangay-2.csv detailed WKT","geometryMatchMethod":"unique_official_admin_names","boundaryPointCount":28},"geometry":{"type":"MultiPolygon","coordinates":[[[[123.727272,7.88067],[123.726646,7.88039],[123.717033,7.86116],[123.715424,7.86199],[123.714081,7.86244],[123.712067,7.86325],[123.711304,7.86399],[123.709824,7.86551],[123.708961,7.8667],[123.707268,7.86726],[123.704727,7.86694],[123.70311,7.86798],[123.702759,7.86825],[123.715881,7.88729],[123.716858,7.88695],[123.717957,7.88693],[123.719093,7.88721],[123.720482,7.88677],[123.721611,7.88522],[123.72184,7.88435],[123.722832,7.88287],[123.723381,7.88252],[123.724586,7.88278],[123.725594,7.88395],[123.726044,7.88442],[123.726578,7.88327],[123.726601,7.88199],[123.727272,7.88067]]]]}},{"type":"Feature","properties":{"ID_0":177,"ISO":"PHL","NAME_0":"Philippines","ID_1":10035,"NAME_1":"Lanao del Norte","ID_2":1003505,"NAME_2":"Kapatagan","ID_3":1003505028,"NAME_3":"Lapinig","NL_NAME_3":null,"VARNAME_3":null,"TYPE_3":"Barangay","ENGTYPE_3":"Village","PROVINCE":"Lanao del Norte","REGION":"Region X (Northern Mindanao)","id":"barangay-1003505028","name":"Lapinig","barangayCode":"1003505028","population":null,"formattedPop":null,"densityCategory":"No data","vulnerabilityRating":"No data","healthRiskLevel":"No data","areaKm2":11.275512,"centerLat":7.939776,"centerLng":123.69091,"geometrySource":"all_barangay-2.csv detailed WKT","geometryMatchMethod":"unique_official_admin_names","boundaryPointCount":83},"geometry":{"type":"MultiPolygon","coordinates":[[[[123.674843,7.95215],[123.674942,7.95215],[123.675293,7.95243],[123.675568,7.95271],[123.675568,7.95313],[123.675636,7.95361],[123.67569,7.95361],[123.675888,7.95386],[123.676117,7.95416],[123.676399,7.95451],[123.676727,7.95492],[123.677147,7.95532],[123.677223,7.9554],[123.677551,7.95575],[123.678017,7.9561],[123.678497,7.95641],[123.678917,7.95681],[123.679337,7.95699],[123.679764,7.95768],[123.67968,7.9585],[123.679581,7.95898],[123.679466,7.95949],[123.679451,7.96005],[123.67952,7.96061],[123.679733,7.96111],[123.680038,7.96155],[123.680428,7.96193],[123.680847,7.96225],[123.681297,7.96255],[123.681717,7.96289],[123.682228,7.96312],[123.682739,7.96334],[123.683228,7.96358],[123.683746,7.96375],[123.68428,7.96391],[123.684776,7.96417],[123.68528,7.96446],[123.685768,7.96481],[123.686218,7.9652],[123.687042,7.96519],[123.687202,7.96519],[123.68718,7.96451],[123.686783,7.96155],[123.686737,7.95974],[123.686119,7.95827],[123.687302,7.95747],[123.688332,7.95492],[123.68895,7.95255],[123.689499,7.95142],[123.691307,7.94973],[123.692467,7.94814],[123.692627,7.94513],[123.69252,7.94223],[123.692467,7.93985],[123.693748,7.93788],[123.694557,7.93476],[123.694977,7.93184],[123.69928,7.92838],[123.703247,7.92756],[123.705673,7.92694],[123.699722,7.91426],[123.697456,7.91095],[123.686478,7.917],[123.690903,7.92203],[123.690697,7.92397],[123.689232,7.92629],[123.687988,7.92764],[123.686867,7.92948],[123.685463,7.93127],[123.683723,7.93312],[123.682182,7.93485],[123.680603,7.93636],[123.680077,7.93831],[123.679764,7.94002],[123.679558,7.94094],[123.678627,7.9424],[123.678322,7.94325],[123.678177,7.94478],[123.677872,7.94719],[123.677429,7.94834],[123.676392,7.95032],[123.67527,7.95148],[123.674843,7.95215]]]]}},{"type":"Feature","properties":{"ID_0":177,"ISO":"PHL","NAME_0":"Philippines","ID_1":10035,"NAME_1":"Lanao del Norte","ID_2":1003505,"NAME_2":"Kapatagan","ID_3":1003505030,"NAME_3":"Mahayahay","NL_NAME_3":null,"VARNAME_3":null,"TYPE_3":"Barangay","ENGTYPE_3":"Village","PROVINCE":"Lanao del Norte","REGION":"Region X (Northern Mindanao)","id":"barangay-1003505030","name":"Mahayahay","barangayCode":"1003505030","population":null,"formattedPop":null,"densityCategory":"No data","vulnerabilityRating":"No data","healthRiskLevel":"No data","areaKm2":8.725635,"centerLat":7.845522,"centerLng":123.787801,"geometrySource":"all_barangay-2.csv detailed WKT","geometryMatchMethod":"unique_official_admin_names","boundaryPointCount":71},"geometry":{"type":"MultiPolygon","coordinates":[[[[123.748077,7.86061],[123.748512,7.86112],[123.750427,7.86225],[123.752373,7.86193],[123.769089,7.85466],[123.769287,7.8543],[123.770042,7.85272],[123.769867,7.85212],[123.767899,7.85039],[123.767128,7.84979],[123.765877,7.8487],[123.765327,7.84853],[123.763863,7.84896],[123.76339,7.8486],[123.762657,7.84842],[123.761368,7.84777],[123.76078,7.84711],[123.759789,7.8461],[123.758713,7.84596],[123.756577,7.84522],[123.754219,7.84429],[123.753372,7.84374],[123.753517,7.8425],[123.754051,7.8412],[123.75428,7.83846],[123.754372,7.83627],[123.754807,7.83425],[123.755966,7.83414],[123.758133,7.83393],[123.759613,7.83339],[123.760521,7.83089],[123.760361,7.82978],[123.760307,7.82752],[123.760803,7.8261],[123.761909,7.82506],[123.763077,7.82347],[123.763542,7.82145],[123.764099,7.81881],[123.764137,7.81812],[123.756577,7.80423],[123.750641,7.8078],[123.735657,7.81545],[123.728348,7.81903],[123.739189,7.83958],[123.739609,7.84265],[123.738319,7.84481],[123.73642,7.84595],[123.73555,7.84766],[123.735611,7.85012],[123.735588,7.8512],[123.734367,7.85332],[123.733704,7.85409],[123.733437,7.85659],[123.733818,7.85727],[123.734177,7.85886],[123.735741,7.85804],[123.735977,7.85715],[123.736801,7.85643],[123.737328,7.85529],[123.737907,7.85399],[123.738861,7.85373],[123.739372,7.85358],[123.741074,7.85258],[123.742401,7.85242],[123.743858,7.85225],[123.745407,7.85327],[123.746269,7.85522],[123.74675,7.85659],[123.746964,7.85853],[123.747482,7.85974],[123.748077,7.86061]]]]}},{"type":"Feature","properties":{"ID_0":177,"ISO":"PHL","NAME_0":"Philippines","ID_1":10035,"NAME_1":"Lanao del Norte","ID_2":1003505,"NAME_2":"Kapatagan","ID_3":1003505031,"NAME_3":"Malinas","NL_NAME_3":null,"VARNAME_3":null,"TYPE_3":"Barangay","ENGTYPE_3":"Village","PROVINCE":"Lanao del Norte","REGION":"Region X (Northern Mindanao)","id":"barangay-1003505031","name":"Malinas","barangayCode":"1003505031","population":null,"formattedPop":null,"densityCategory":"No data","vulnerabilityRating":"No data","healthRiskLevel":"No data","areaKm2":6.38081,"centerLat":7.856549,"centerLng":123.731431,"geometrySource":"all_barangay-2.csv detailed WKT","geometryMatchMethod":"unique_official_admin_names","boundaryPointCount":28},"geometry":{"type":"MultiPolygon","coordinates":[[[[123.752548,7.87131],[123.774117,7.86507],[123.774261,7.86471],[123.774712,7.86223],[123.774712,7.86123],[123.774353,7.86049],[123.773232,7.86027],[123.772507,7.85947],[123.772797,7.85888],[123.772888,7.85741],[123.772133,7.85704],[123.77124,7.85677],[123.770493,7.8561],[123.770271,7.85547],[123.769089,7.85466],[123.752373,7.86193],[123.750427,7.86225],[123.748512,7.86112],[123.748077,7.86061],[123.746353,7.86983],[123.74601,7.87054],[123.746407,7.8717],[123.746727,7.87262],[123.747337,7.87303],[123.749397,7.87234],[123.75042,7.8716],[123.751488,7.87126],[123.752548,7.87131]]]]}},{"type":"Feature","properties":{"ID_0":177,"ISO":"PHL","NAME_0":"Philippines","ID_1":10035,"NAME_1":"Lanao del Norte","ID_2":1003505,"NAME_2":"Kapatagan","ID_3":1003505033,"NAME_3":"Maranding","NL_NAME_3":null,"VARNAME_3":null,"TYPE_3":"Barangay","ENGTYPE_3":"Village","PROVINCE":"Lanao del Norte","REGION":"Region X (Northern Mindanao)","id":"barangay-1003505033","name":"Maranding","barangayCode":"1003505033","population":null,"formattedPop":null,"densityCategory":"No data","vulnerabilityRating":"No data","healthRiskLevel":"No data","areaKm2":4.54059,"centerLat":7.921761,"centerLng":123.770637,"geometrySource":"all_barangay-2.csv detailed WKT","geometryMatchMethod":"unique_official_admin_names","boundaryPointCount":24},"geometry":{"type":"MultiPolygon","coordinates":[[[[123.780563,7.91637],[123.779251,7.9055],[123.779373,7.90354],[123.76207,7.90481],[123.761971,7.90506],[123.762383,7.90819],[123.76313,7.91079],[123.763329,7.91194],[123.764122,7.91259],[123.765251,7.91351],[123.766052,7.91383],[123.766853,7.91411],[123.768181,7.91454],[123.768944,7.91557],[123.769737,7.91623],[123.76992,7.91673],[123.770897,7.91719],[123.772308,7.91751],[123.773949,7.91831],[123.775383,7.91932],[123.776642,7.91945],[123.778236,7.91788],[123.779793,7.91651],[123.780563,7.91637]]]]}},{"type":"Feature","properties":{"ID_0":177,"ISO":"PHL","NAME_0":"Philippines","ID_1":10035,"NAME_1":"Lanao del Norte","ID_2":1003505,"NAME_2":"Kapatagan","ID_3":1003505034,"NAME_3":"Margos","NL_NAME_3":null,"VARNAME_3":null,"TYPE_3":"Barangay","ENGTYPE_3":"Village","PROVINCE":"Lanao del Norte","REGION":"Region X (Northern Mindanao)","id":"barangay-1003505034","name":"Margos","barangayCode":"1003505034","population":null,"formattedPop":null,"densityCategory":"No data","vulnerabilityRating":"No data","healthRiskLevel":"No data","areaKm2":10.587915,"centerLat":7.93439,"centerLng":123.668786,"geometrySource":"all_barangay-2.csv detailed WKT","geometryMatchMethod":"unique_official_admin_names","boundaryPointCount":22},"geometry":{"type":"MultiPolygon","coordinates":[[[[123.674492,7.92101],[123.678627,7.9424],[123.679558,7.94094],[123.679764,7.94002],[123.680077,7.93831],[123.680603,7.93636],[123.682182,7.93485],[123.683723,7.93312],[123.685463,7.93127],[123.686867,7.92948],[123.687988,7.92764],[123.689232,7.92629],[123.690697,7.92397],[123.690903,7.92203],[123.686478,7.917],[123.68438,7.91804],[123.681549,7.92015],[123.6791,7.9219],[123.678513,7.92185],[123.676598,7.92191],[123.675972,7.92149],[123.674492,7.92101]]]]}},{"type":"Feature","properties":{"ID_0":177,"ISO":"PHL","NAME_0":"Philippines","ID_1":10035,"NAME_1":"Lanao del Norte","ID_2":1003505,"NAME_2":"Kapatagan","ID_3":1003505036,"NAME_3":"Poblacion","NL_NAME_3":null,"VARNAME_3":null,"TYPE_3":"Barangay","ENGTYPE_3":"Village","PROVINCE":"Lanao del Norte","REGION":"Region X (Northern Mindanao)","id":"barangay-1003505036","name":"Poblacion","barangayCode":"1003505036","population":null,"formattedPop":null,"densityCategory":"No data","vulnerabilityRating":"No data","healthRiskLevel":"No data","areaKm2":3.186955,"centerLat":7.897236,"centerLng":123.766791,"geometrySource":"all_barangay-2.csv detailed WKT","geometryMatchMethod":"unique_official_admin_names","boundaryPointCount":45},"geometry":{"type":"MultiPolygon","coordinates":[[[[123.76207,7.90481],[123.779373,7.90354],[123.778976,7.8938],[123.786797,7.89075],[123.785797,7.88519],[123.785316,7.88529],[123.783829,7.88562],[123.781532,7.88676],[123.780373,7.88719],[123.778297,7.88649],[123.777428,7.88534],[123.776649,7.8853],[123.77504,7.88602],[123.77343,7.88671],[123.771523,7.88703],[123.770821,7.88752],[123.769043,7.88817],[123.767677,7.8882],[123.766403,7.88868],[123.765007,7.88901],[123.763733,7.88967],[123.761887,7.88955],[123.760513,7.88901],[123.759392,7.88864],[123.758476,7.88811],[123.754929,7.88692],[123.75547,7.88861],[123.755623,7.89122],[123.755722,7.89187],[123.755814,7.89242],[123.755669,7.89339],[123.755493,7.89448],[123.755402,7.89534],[123.755402,7.89539],[123.75531,7.8963],[123.754829,7.89818],[123.754578,7.89916],[123.754288,7.9003],[123.754761,7.90109],[123.755249,7.90187],[123.755707,7.90204],[123.755943,7.90212],[123.758507,7.90315],[123.759521,7.90348],[123.76207,7.90481]]]]}},{"type":"Feature","properties":{"ID_0":177,"ISO":"PHL","NAME_0":"Philippines","ID_1":10035,"NAME_1":"Lanao del Norte","ID_2":1003505,"NAME_2":"Kapatagan","ID_3":1003505038,"NAME_3":"Pulang Yuta","NL_NAME_3":null,"VARNAME_3":null,"TYPE_3":"Barangay","ENGTYPE_3":"Village","PROVINCE":"Lanao del Norte","REGION":"Region X (Northern Mindanao)","id":"barangay-1003505038","name":"Pulang Yuta","barangayCode":"1003505038","population":null,"formattedPop":null,"densityCategory":"No data","vulnerabilityRating":"No data","healthRiskLevel":"No data","areaKm2":1.282977,"centerLat":7.88558,"centerLng":123.693222,"geometrySource":"all_barangay-2.csv detailed WKT","geometryMatchMethod":"unique_official_admin_names","boundaryPointCount":19},"geometry":{"type":"MultiPolygon","coordinates":[[[[123.702759,7.86825],[123.70311,7.86798],[123.704727,7.86694],[123.707268,7.86726],[123.708961,7.8667],[123.709824,7.86551],[123.711304,7.86399],[123.712067,7.86325],[123.714081,7.86244],[123.715424,7.86199],[123.717033,7.86116],[123.703011,7.83119],[123.698051,7.83322],[123.69455,7.83519],[123.692703,7.83635],[123.690224,7.83763],[123.685944,7.83935],[123.684799,7.83995],[123.702759,7.86825]]]]}},{"type":"Feature","properties":{"ID_0":177,"ISO":"PHL","NAME_0":"Philippines","ID_1":10035,"NAME_1":"Lanao del Norte","ID_2":1003505,"NAME_2":"Kapatagan","ID_3":1003505039,"NAME_3":"San Isidro","NL_NAME_3":null,"VARNAME_3":null,"TYPE_3":"Barangay","ENGTYPE_3":"Village","PROVINCE":"Lanao del Norte","REGION":"Region X (Northern Mindanao)","id":"barangay-1003505039","name":"San Isidro","barangayCode":"1003505039","population":null,"formattedPop":null,"densityCategory":"No data","vulnerabilityRating":"No data","healthRiskLevel":"No data","areaKm2":3.425256,"centerLat":7.897465,"centerLng":123.715231,"geometrySource":"all_barangay-2.csv detailed WKT","geometryMatchMethod":"unique_official_admin_names","boundaryPointCount":29},"geometry":{"type":"MultiPolygon","coordinates":[[[[123.688667,7.90022],[123.689262,7.90032],[123.691032,7.89999],[123.692459,7.89921],[123.694267,7.89936],[123.694962,7.90013],[123.696259,7.90152],[123.698151,7.90181],[123.698898,7.90118],[123.699631,7.8998],[123.700706,7.89827],[123.703217,7.8977],[123.70401,7.89737],[123.705544,7.89678],[123.706573,7.89653],[123.690224,7.87834],[123.676109,7.89256],[123.676689,7.89312],[123.677109,7.89382],[123.678337,7.8944],[123.679413,7.8951],[123.68042,7.89602],[123.681343,7.89642],[123.683167,7.8968],[123.684433,7.89707],[123.68602,7.89752],[123.687592,7.89871],[123.688248,7.89998],[123.688667,7.90022]]]]}},{"type":"Feature","properties":{"ID_0":177,"ISO":"PHL","NAME_0":"Philippines","ID_1":10035,"NAME_1":"Lanao del Norte","ID_2":1003505,"NAME_2":"Kapatagan","ID_3":1003505040,"NAME_3":"San Vicente","NL_NAME_3":null,"VARNAME_3":null,"TYPE_3":"Barangay","ENGTYPE_3":"Village","PROVINCE":"Lanao del Norte","REGION":"Region X (Northern Mindanao)","id":"barangay-1003505040","name":"San Vicente","barangayCode":"1003505040","population":null,"formattedPop":null,"densityCategory":"No data","vulnerabilityRating":"No data","healthRiskLevel":"No data","areaKm2":3.20976,"centerLat":7.886044,"centerLng":123.775398,"geometrySource":"all_barangay-2.csv detailed WKT","geometryMatchMethod":"unique_official_admin_names","boundaryPointCount":26},"geometry":{"type":"MultiPolygon","coordinates":[[[[123.776649,7.8853],[123.777847,7.88415],[123.77887,7.88256],[123.779602,7.88157],[123.778954,7.87982],[123.764458,7.881],[123.762947,7.88241],[123.761871,7.88301],[123.761177,7.88329],[123.759209,7.88439],[123.758667,7.88666],[123.758652,7.88761],[123.758476,7.88811],[123.759392,7.88864],[123.760513,7.88901],[123.761887,7.88955],[123.763733,7.88967],[123.765007,7.88901],[123.766403,7.88868],[123.767677,7.8882],[123.769043,7.88817],[123.770821,7.88752],[123.771523,7.88703],[123.77343,7.88671],[123.77504,7.88602],[123.776649,7.8853]]]]}},{"type":"Feature","properties":{"ID_0":177,"ISO":"PHL","NAME_0":"Philippines","ID_1":10035,"NAME_1":"Lanao del Norte","ID_2":1003505,"NAME_2":"Kapatagan","ID_3":1003505041,"NAME_3":"Santa Cruz","NL_NAME_3":null,"VARNAME_3":null,"TYPE_3":"Barangay","ENGTYPE_3":"Village","PROVINCE":"Lanao del Norte","REGION":"Region X (Northern Mindanao)","id":"barangay-1003505041","name":"Santa Cruz","barangayCode":"1003505041","population":null,"formattedPop":null,"densityCategory":"No data","vulnerabilityRating":"No data","healthRiskLevel":"No data","areaKm2":1.54975,"centerLat":7.892553,"centerLng":123.736872,"geometrySource":"all_barangay-2.csv detailed WKT","geometryMatchMethod":"unique_official_admin_names","boundaryPointCount":27},"geometry":{"type":"MultiPolygon","coordinates":[[[[123.733551,7.89055],[123.733963,7.89084],[123.734413,7.89218],[123.73526,7.89372],[123.735924,7.89507],[123.735786,7.89656],[123.735382,7.89745],[123.735779,7.89921],[123.737091,7.89942],[123.737747,7.89966],[123.737801,7.89968],[123.738518,7.89994],[123.738899,7.89968],[123.739319,7.89938],[123.739594,7.89908],[123.739838,7.8988],[123.740257,7.89817],[123.740646,7.89757],[123.740387,7.89644],[123.740753,7.89422],[123.741333,7.89249],[123.741623,7.89159],[123.74205,7.89052],[123.742958,7.88829],[123.744217,7.88546],[123.740639,7.88483],[123.733551,7.89055]]]]}},{"type":"Feature","properties":{"ID_0":177,"ISO":"PHL","NAME_0":"Philippines","ID_1":10035,"NAME_1":"Lanao del Norte","ID_2":1003505,"NAME_2":"Kapatagan","ID_3":1003505042,"NAME_3":"Santo Tomas","NL_NAME_3":null,"VARNAME_3":null,"TYPE_3":"Barangay","ENGTYPE_3":"Village","PROVINCE":"Lanao del Norte","REGION":"Region X (Northern Mindanao)","id":"barangay-1003505042","name":"Santo Tomas","barangayCode":"1003505042","population":null,"formattedPop":null,"densityCategory":"No data","vulnerabilityRating":"No data","healthRiskLevel":"No data","areaKm2":1.794385,"centerLat":7.912734,"centerLng":123.785444,"geometrySource":"all_barangay-2.csv detailed WKT","geometryMatchMethod":"unique_official_admin_names","boundaryPointCount":17},"geometry":{"type":"MultiPolygon","coordinates":[[[[123.785927,7.91654],[123.787567,7.91686],[123.788948,7.91623],[123.789337,7.9149],[123.790718,7.91279],[123.792107,7.91082],[123.792793,7.90945],[123.793121,7.90807],[123.793793,7.90627],[123.793694,7.90596],[123.779251,7.9055],[123.780563,7.91637],[123.781723,7.9162],[123.783142,7.91637],[123.784851,7.91642],[123.785362,7.91654],[123.785927,7.91654]]]]}},{"type":"Feature","properties":{"ID_0":177,"ISO":"PHL","NAME_0":"Philippines","ID_1":10035,"NAME_1":"Lanao del Norte","ID_2":1003505,"NAME_2":"Kapatagan","ID_3":1003505043,"NAME_3":"Suso","NL_NAME_3":null,"VARNAME_3":null,"TYPE_3":"Barangay","ENGTYPE_3":"Village","PROVINCE":"Lanao del Norte","REGION":"Region X (Northern Mindanao)","id":"barangay-1003505043","name":"Suso","barangayCode":"1003505043","population":null,"formattedPop":null,"densityCategory":"No data","vulnerabilityRating":"No data","healthRiskLevel":"No data","areaKm2":4.599504,"centerLat":7.865993,"centerLng":123.756296,"geometrySource":"all_barangay-2.csv detailed WKT","geometryMatchMethod":"unique_official_admin_names","boundaryPointCount":44},"geometry":{"type":"MultiPolygon","coordinates":[[[[123.733551,7.89055],[123.740639,7.88483],[123.744217,7.88546],[123.754578,7.88732],[123.754753,7.88712],[123.754929,7.88692],[123.754883,7.88539],[123.755836,7.88353],[123.757217,7.88188],[123.757584,7.88094],[123.75724,7.87992],[123.755821,7.87927],[123.754829,7.87857],[123.753616,7.87702],[123.753258,7.87655],[123.751953,7.87542],[123.751266,7.87457],[123.751152,7.87386],[123.752083,7.87249],[123.752548,7.87131],[123.751488,7.87126],[123.75042,7.8716],[123.749397,7.87234],[123.747337,7.87303],[123.746727,7.87262],[123.746407,7.8717],[123.74601,7.87054],[123.744797,7.87014],[123.743279,7.86928],[123.74231,7.86806],[123.741257,7.8673],[123.740822,7.86634],[123.74015,7.86661],[123.739853,7.86784],[123.738907,7.869],[123.738159,7.86905],[123.737038,7.86884],[123.736107,7.86885],[123.736107,7.87927],[123.732399,7.88669],[123.733139,7.88726],[123.733772,7.88801],[123.733749,7.88879],[123.733551,7.89055]]]]}},{"type":"Feature","properties":{"ID_0":177,"ISO":"PHL","NAME_0":"Philippines","ID_1":10035,"NAME_1":"Lanao del Norte","ID_2":1003505,"NAME_2":"Kapatagan","ID_3":1003505046,"NAME_3":"Taguitic","NL_NAME_3":null,"VARNAME_3":null,"TYPE_3":"Barangay","ENGTYPE_3":"Village","PROVINCE":"Lanao del Norte","REGION":"Region X (Northern Mindanao)","id":"barangay-1003505046","name":"Taguitic","barangayCode":"1003505046","population":null,"formattedPop":null,"densityCategory":"No data","vulnerabilityRating":"No data","healthRiskLevel":"No data","areaKm2":5.118856,"centerLat":7.942938,"centerLng":123.647622,"geometrySource":"all_barangay-2.csv detailed WKT","geometryMatchMethod":"unique_official_admin_names","boundaryPointCount":35},"geometry":{"type":"MultiPolygon","coordinates":[[[[123.670387,7.95352],[123.670479,7.95355],[123.670753,7.95366],[123.671356,7.9539],[123.6717,7.95399],[123.672043,7.95408],[123.672783,7.95391],[123.673447,7.95371],[123.673882,7.95336],[123.673973,7.95299],[123.674103,7.95278],[123.674316,7.95243],[123.674797,7.95215],[123.674843,7.95215],[123.67527,7.95148],[123.676392,7.95032],[123.677429,7.94834],[123.677872,7.94719],[123.678177,7.94478],[123.678322,7.94325],[123.678627,7.9424],[123.674492,7.92101],[123.673508,7.92056],[123.671318,7.92003],[123.670029,7.92013],[123.668953,7.91946],[123.668221,7.91883],[123.66713,7.91923],[123.665443,7.9199],[123.663528,7.91961],[123.662697,7.91944],[123.661491,7.91942],[123.663277,7.92594],[123.669067,7.9521],[123.670387,7.95352]]]]}},{"type":"Feature","properties":{"ID_0":177,"ISO":"PHL","NAME_0":"Philippines","ID_1":10035,"NAME_1":"Lanao del Norte","ID_2":1003505,"NAME_2":"Kapatagan","ID_3":1003505047,"NAME_3":"Tiacongan","NL_NAME_3":null,"VARNAME_3":null,"TYPE_3":"Barangay","ENGTYPE_3":"Village","PROVINCE":"Lanao del Norte","REGION":"Region X (Northern Mindanao)","id":"barangay-1003505047","name":"Tiacongan","barangayCode":"1003505047","population":null,"formattedPop":null,"densityCategory":"No data","vulnerabilityRating":"No data","healthRiskLevel":"No data","areaKm2":2.310031,"centerLat":7.874945,"centerLng":123.785954,"geometrySource":"all_barangay-2.csv detailed WKT","geometryMatchMethod":"unique_official_admin_names","boundaryPointCount":23},"geometry":{"type":"MultiPolygon","coordinates":[[[[123.786926,7.87513],[123.788078,7.87578],[123.78878,7.87617],[123.789726,7.87675],[123.790253,7.87653],[123.791267,7.87623],[123.793259,7.87653],[123.79422,7.87632],[123.794891,7.87498],[123.79599,7.87459],[123.796867,7.87456],[123.797478,7.87367],[123.798531,7.87305],[123.7994,7.87072],[123.785347,7.85102],[123.783783,7.85225],[123.781822,7.85366],[123.780533,7.85369],[123.779182,7.85454],[123.778381,7.85625],[123.778252,7.85687],[123.776947,7.85776],[123.786926,7.87513]]]]}},{"type":"Feature","properties":{"ID_0":177,"ISO":"PHL","NAME_0":"Philippines","ID_1":10035,"NAME_1":"Lanao del Norte","ID_2":1003505,"NAME_2":"Kapatagan","ID_3":1003505048,"NAME_3":"Tipolo","NL_NAME_3":null,"VARNAME_3":null,"TYPE_3":"Barangay","ENGTYPE_3":"Village","PROVINCE":"Lanao del Norte","REGION":"Region X (Northern Mindanao)","id":"barangay-1003505048","name":"Tipolo","barangayCode":"1003505048","population":null,"formattedPop":null,"densityCategory":"No data","vulnerabilityRating":"No data","healthRiskLevel":"No data","areaKm2":3.632223,"centerLat":7.89883,"centerLng":123.673539,"geometrySource":"all_barangay-2.csv detailed WKT","geometryMatchMethod":"unique_official_admin_names","boundaryPointCount":11},"geometry":{"type":"MultiPolygon","coordinates":[[[[123.6558,7.89442],[123.671127,7.8927],[123.675148,7.89213],[123.674606,7.89187],[123.663887,7.87569],[123.647598,7.87587],[123.651711,7.88418],[123.651733,7.88423],[123.652962,7.88673],[123.65432,7.8885],[123.6558,7.89442]]]]}},{"type":"Feature","properties":{"ID_0":177,"ISO":"PHL","NAME_0":"Philippines","ID_1":10035,"NAME_1":"Lanao del Norte","ID_2":1003505,"NAME_2":"Kapatagan","ID_3":1003505049,"NAME_3":"Tulatulahan","NL_NAME_3":null,"VARNAME_3":null,"TYPE_3":"Barangay","ENGTYPE_3":"Village","PROVINCE":"Lanao del Norte","REGION":"Region X (Northern Mindanao)","id":"barangay-1003505049","name":"Tulatulahan","barangayCode":"1003505049","population":null,"formattedPop":null,"densityCategory":"No data","vulnerabilityRating":"No data","healthRiskLevel":"No data","areaKm2":2.450816,"centerLat":7.895175,"centerLng":123.699979,"geometrySource":"all_barangay-2.csv detailed WKT","geometryMatchMethod":"unique_official_admin_names","boundaryPointCount":33},"geometry":{"type":"MultiPolygon","coordinates":[[[[123.717323,7.89636],[123.716591,7.896],[123.715912,7.89525],[123.715073,7.89368],[123.714622,7.89223],[123.714523,7.8914],[123.71418,7.89041],[123.714203,7.88922],[123.714699,7.88857],[123.715591,7.88822],[123.715942,7.888],[123.715881,7.88729],[123.702759,7.86825],[123.701241,7.87016],[123.698837,7.87144],[123.697029,7.87154],[123.696327,7.87221],[123.695412,7.87373],[123.694237,7.87503],[123.692848,7.87638],[123.69149,7.87652],[123.690903,7.87729],[123.690224,7.87834],[123.706573,7.89653],[123.707291,7.89745],[123.708008,7.89815],[123.709534,7.89903],[123.709976,7.89892],[123.711487,7.89825],[123.71312,7.89739],[123.714149,7.89736],[123.715309,7.89695],[123.717323,7.89636]]]]}},{"type":"Feature","properties":{"ID_0":177,"ISO":"PHL","NAME_0":"Philippines","ID_1":10035,"NAME_1":"Lanao del Norte","ID_2":1003505,"NAME_2":"Kapatagan","ID_3":1003505050,"NAME_3":"Waterfalls","NL_NAME_3":null,"VARNAME_3":null,"TYPE_3":"Barangay","ENGTYPE_3":"Village","PROVINCE":"Lanao del Norte","REGION":"Region X (Northern Mindanao)","id":"barangay-1003505050","name":"Waterfalls","barangayCode":"1003505050","population":null,"formattedPop":null,"densityCategory":"No data","vulnerabilityRating":"No data","healthRiskLevel":"No data","areaKm2":2.183634,"centerLat":7.87121,"centerLng":123.768321,"geometrySource":"all_barangay-2.csv detailed WKT","geometryMatchMethod":"unique_official_admin_names","boundaryPointCount":38},"geometry":{"type":"MultiPolygon","coordinates":[[[[123.758476,7.88811],[123.758652,7.88761],[123.758667,7.88666],[123.759209,7.88439],[123.761177,7.88329],[123.761871,7.88301],[123.762947,7.88241],[123.764458,7.881],[123.765244,7.87957],[123.765747,7.87845],[123.767616,7.87656],[123.770828,7.87376],[123.771446,7.87271],[123.771683,7.87179],[123.771339,7.87059],[123.77124,7.86819],[123.771896,7.86779],[123.772888,7.86716],[123.773987,7.86657],[123.774559,7.86589],[123.774261,7.86471],[123.774117,7.86507],[123.752548,7.87131],[123.752083,7.87249],[123.751152,7.87386],[123.751266,7.87457],[123.751953,7.87542],[123.753258,7.87655],[123.753616,7.87702],[123.754829,7.87857],[123.755821,7.87927],[123.75724,7.87992],[123.757584,7.88094],[123.757217,7.88188],[123.755836,7.88353],[123.754883,7.88539],[123.754929,7.88692],[123.758476,7.88811]]]]}}]}
