{"type":"FeatureCollection","features":[{"type":"Feature","properties":{"ID_0":177,"ISO":"PHL","NAME_0":"Philippines","ID_1":6030,"NAME_1":"Iloilo","ID_2":603016,"NAME_2":"Dingle","ID_3":603016001,"NAME_3":"Abangay","NL_NAME_3":null,"VARNAME_3":null,"TYPE_3":"Barangay","ENGTYPE_3":"Village","PROVINCE":"Iloilo","REGION":"Region VI (Western Visayas)","id":"barangay-0603016001","name":"Abangay","barangayCode":"0603016001","population":null,"formattedPop":null,"densityCategory":"No data","vulnerabilityRating":"No data","healthRiskLevel":"No data","areaKm2":4.112566,"centerLat":10.96319,"centerLng":122.656152,"geometrySource":"all_barangay-2.csv detailed WKT","geometryMatchMethod":"unique_official_admin_names","boundaryPointCount":65},"geometry":{"type":"MultiPolygon","coordinates":[[[[122.646957,10.97017],[122.648537,10.9741],[122.64962,10.97436],[122.64991,10.97532],[122.650414,10.97562],[122.650887,10.97637],[122.650093,10.97722],[122.650391,10.97875],[122.651573,10.97865],[122.652657,10.97735],[122.653297,10.9756],[122.653961,10.97367],[122.65435,10.97174],[122.65451,10.97087],[122.655113,10.97032],[122.655647,10.97047],[122.664627,10.96361],[122.665306,10.962114],[122.666183,10.96017],[122.667412,10.95824],[122.667847,10.9558],[122.666931,10.95382],[122.665527,10.95181],[122.664307,10.94944],[122.663544,10.94912],[122.663017,10.9483],[122.662376,10.94658],[122.662437,10.94573],[122.661743,10.94575],[122.661034,10.94622],[122.658867,10.94881],[122.659462,10.94981],[122.655029,10.95234],[122.65451,10.95192],[122.654167,10.95451],[122.652931,10.95528],[122.65287,10.95562],[122.65419,10.95776],[122.654533,10.95851],[122.655449,10.95911],[122.655647,10.95983],[122.655617,10.96072],[122.654709,10.96087],[122.653969,10.96158],[122.65332,10.9616],[122.65316,10.96201],[122.653191,10.962114],[122.653442,10.96307],[122.652702,10.96282],[122.652863,10.96351],[122.652802,10.96431],[122.653152,10.96489],[122.653519,10.96548],[122.653214,10.96662],[122.653542,10.96731],[122.652634,10.96822],[122.65213,10.96824],[122.650879,10.96734],[122.650078,10.96801],[122.649406,10.96791],[122.648262,10.96775],[122.648209,10.96859],[122.648499,10.96934],[122.648087,10.97025],[122.646957,10.97017]]]]}},{"type":"Feature","properties":{"ID_0":177,"ISO":"PHL","NAME_0":"Philippines","ID_1":6030,"NAME_1":"Iloilo","ID_2":603016,"NAME_2":"Dingle","ID_3":603016002,"NAME_3":"Agsalanan","NL_NAME_3":null,"VARNAME_3":null,"TYPE_3":"Barangay","ENGTYPE_3":"Village","PROVINCE":"Iloilo","REGION":"Region VI (Western Visayas)","id":"barangay-0603016002","name":"Agsalanan","barangayCode":"0603016002","population":null,"formattedPop":null,"densityCategory":"No data","vulnerabilityRating":"No data","healthRiskLevel":"No data","areaKm2":1.164873,"centerLat":10.997004,"centerLng":122.696099,"geometrySource":"all_barangay-2.csv detailed WKT","geometryMatchMethod":"unique_official_admin_names","boundaryPointCount":34},"geometry":{"type":"MultiPolygon","coordinates":[[[[122.68885,11.00589],[122.690193,11.00633],[122.691879,11.00659],[122.693123,11.00688],[122.694351,11.00627],[122.694946,11.00632],[122.695709,11.00662],[122.697411,11.00694],[122.698334,11.00639],[122.698967,11.00713],[122.699493,11.0071],[122.699966,11.00691],[122.701157,11.00745],[122.703011,11.00741],[122.700829,10.99316],[122.699852,10.99327],[122.69899,10.99283],[122.698112,10.99242],[122.696617,10.99216],[122.695061,10.99232],[122.693977,10.99248],[122.694153,10.99377],[122.694252,10.9948],[122.69252,10.9961],[122.693581,10.99658],[122.694443,10.99735],[122.693626,10.99799],[122.692253,10.99824],[122.691254,10.99867],[122.690331,10.99961],[122.689499,11.00058],[122.68998,11.00227],[122.690353,11.00326],[122.68885,11.00589]]]]}},{"type":"Feature","properties":{"ID_0":177,"ISO":"PHL","NAME_0":"Philippines","ID_1":6030,"NAME_1":"Iloilo","ID_2":603016,"NAME_2":"Dingle","ID_3":603016003,"NAME_3":"Agtatacay","NL_NAME_3":null,"VARNAME_3":null,"TYPE_3":"Barangay","ENGTYPE_3":"Village","PROVINCE":"Iloilo","REGION":"Region VI (Western Visayas)","id":"barangay-0603016003","name":"Agtatacay","barangayCode":"0603016003","population":null,"formattedPop":null,"densityCategory":"No data","vulnerabilityRating":"No data","healthRiskLevel":"No data","areaKm2":3.910661,"centerLat":11.034088,"centerLng":122.698822,"geometrySource":"all_barangay-2.csv detailed WKT","geometryMatchMethod":"unique_official_admin_names","boundaryPointCount":11},"geometry":{"type":"MultiPolygon","coordinates":[[[[122.698372,11.04547],[122.714546,11.03136],[122.7089,11.02364],[122.698761,11.02618],[122.696472,11.02617],[122.694077,11.02522],[122.692352,11.02502],[122.691704,11.02557],[122.690826,11.02624],[122.692947,11.0454],[122.698372,11.04547]]]]}},{"type":"Feature","properties":{"ID_0":177,"ISO":"PHL","NAME_0":"Philippines","ID_1":6030,"NAME_1":"Iloilo","ID_2":603016,"NAME_2":"Dingle","ID_3":603016004,"NAME_3":"Alegria","NL_NAME_3":null,"VARNAME_3":null,"TYPE_3":"Barangay","ENGTYPE_3":"Village","PROVINCE":"Iloilo","REGION":"Region VI (Western Visayas)","id":"barangay-0603016004","name":"Alegria","barangayCode":"0603016004","population":null,"formattedPop":null,"densityCategory":"No data","vulnerabilityRating":"No data","healthRiskLevel":"No data","areaKm2":1.476074,"centerLat":11.00183,"centerLng":122.608917,"geometrySource":"all_barangay-2.csv detailed WKT","geometryMatchMethod":"unique_official_admin_names","boundaryPointCount":41},"geometry":{"type":"MultiPolygon","coordinates":[[[[122.616318,11.00449],[122.613327,10.99849],[122.612961,10.99859],[122.612587,10.99869],[122.612038,10.99945],[122.611603,11.0],[122.611481,11.00084],[122.610977,11.00153],[122.610283,11.00176],[122.609489,11.00155],[122.608879,11.00124],[122.607933,11.00102],[122.606796,11.0008],[122.605583,10.99987],[122.604767,11.00039],[122.605171,11.00108],[122.605637,11.00189],[122.606071,11.00283],[122.605873,11.00358],[122.604736,11.0041],[122.604286,11.00453],[122.604156,11.00523],[122.603752,11.00622],[122.603447,11.00798],[122.601738,11.00986],[122.605293,11.00866],[122.605476,11.00697],[122.607269,11.00729],[122.608467,11.00737],[122.609253,11.0074],[122.609894,11.00718],[122.610397,11.00742],[122.61084,11.0066],[122.611389,11.00681],[122.611877,11.00744],[122.612778,11.00698],[122.613091,11.00586],[122.613518,11.00456],[122.614792,11.00498],[122.615463,11.00549],[122.616318,11.00449]]]]}},{"type":"Feature","properties":{"ID_0":177,"ISO":"PHL","NAME_0":"Philippines","ID_1":6030,"NAME_1":"Iloilo","ID_2":603016,"NAME_2":"Dingle","ID_3":603016005,"NAME_3":"Bongloy","NL_NAME_3":null,"VARNAME_3":null,"TYPE_3":"Barangay","ENGTYPE_3":"Village","PROVINCE":"Iloilo","REGION":"Region VI (Western Visayas)","id":"barangay-0603016005","name":"Bongloy","barangayCode":"0603016005","population":null,"formattedPop":null,"densityCategory":"No data","vulnerabilityRating":"No data","healthRiskLevel":"No data","areaKm2":3.269325,"centerLat":10.991053,"centerLng":122.647532,"geometrySource":"all_barangay-2.csv detailed WKT","geometryMatchMethod":"unique_official_admin_names","boundaryPointCount":41},"geometry":{"type":"MultiPolygon","coordinates":[[[[122.657211,10.99456],[122.652771,10.98388],[122.650391,10.97875],[122.650093,10.97722],[122.650887,10.97637],[122.650414,10.97562],[122.64991,10.97532],[122.64962,10.97436],[122.648537,10.9741],[122.646957,10.97017],[122.645683,10.97042],[122.645088,10.97139],[122.645447,10.97343],[122.645393,10.97514],[122.645241,10.97596],[122.645126,10.97654],[122.644623,10.97766],[122.645378,10.97799],[122.645767,10.97919],[122.646469,10.98261],[122.646461,10.98301],[122.646263,10.98346],[122.645767,10.98361],[122.645172,10.98371],[122.644836,10.98357],[122.643692,10.98355],[122.642807,10.98371],[122.642387,10.98413],[122.642517,10.98485],[122.642952,10.98584],[122.644653,10.98875],[122.643448,10.98928],[122.643211,10.9896],[122.642799,10.98992],[122.642082,10.99025],[122.641777,10.99204],[122.644402,10.99742],[122.648918,11.00044],[122.650803,10.99928],[122.653503,10.99794],[122.657211,10.99456]]]]}},{"type":"Feature","properties":{"ID_0":177,"ISO":"PHL","NAME_0":"Philippines","ID_1":6030,"NAME_1":"Iloilo","ID_2":603016,"NAME_2":"Dingle","ID_3":603016006,"NAME_3":"Buenavista","NL_NAME_3":null,"VARNAME_3":null,"TYPE_3":"Barangay","ENGTYPE_3":"Village","PROVINCE":"Iloilo","REGION":"Region VI (Western Visayas)","id":"barangay-0603016006","name":"Buenavista","barangayCode":"0603016006","population":null,"formattedPop":null,"densityCategory":"No data","vulnerabilityRating":"No data","healthRiskLevel":"No data","areaKm2":4.205287,"centerLat":11.019786,"centerLng":122.616755,"geometrySource":"all_barangay-2.csv detailed WKT","geometryMatchMethod":"unique_official_admin_names","boundaryPointCount":17},"geometry":{"type":"MultiPolygon","coordinates":[[[[122.61248,11.03095],[122.628326,11.02102],[122.628822,11.01845],[122.621422,11.00838],[122.621017,11.00914],[122.620354,11.01083],[122.618912,11.01142],[122.617142,11.01197],[122.615807,11.01225],[122.614792,11.01211],[122.614304,11.01311],[122.612534,11.01378],[122.612068,11.0149],[122.611267,11.01437],[122.605423,11.01609],[122.609123,11.02363],[122.61248,11.03095]]]]}},{"type":"Feature","properties":{"ID_0":177,"ISO":"PHL","NAME_0":"Philippines","ID_1":6030,"NAME_1":"Iloilo","ID_2":603016,"NAME_2":"Dingle","ID_3":603016007,"NAME_3":"Caguyuman","NL_NAME_3":null,"VARNAME_3":null,"TYPE_3":"Barangay","ENGTYPE_3":"Village","PROVINCE":"Iloilo","REGION":"Region VI (Western Visayas)","id":"barangay-0603016007","name":"Caguyuman","barangayCode":"0603016007","population":null,"formattedPop":null,"densityCategory":"No data","vulnerabilityRating":"No data","healthRiskLevel":"No data","areaKm2":6.816107,"centerLat":11.034882,"centerLng":122.677784,"geometrySource":"all_barangay-2.csv detailed WKT","geometryMatchMethod":"unique_official_admin_names","boundaryPointCount":12},"geometry":{"type":"MultiPolygon","coordinates":[[[[122.692947,11.0454],[122.690826,11.02624],[122.690277,11.02399],[122.689819,11.0233],[122.688339,11.02259],[122.686523,11.02194],[122.685463,11.02176],[122.684563,11.02036],[122.674377,11.02294],[122.66993,11.01894],[122.664268,11.04328],[122.692947,11.0454]]]]}},{"type":"Feature","properties":{"ID_0":177,"ISO":"PHL","NAME_0":"Philippines","ID_1":6030,"NAME_1":"Iloilo","ID_2":603016,"NAME_2":"Dingle","ID_3":603016008,"NAME_3":"Calicuang","NL_NAME_3":null,"VARNAME_3":null,"TYPE_3":"Barangay","ENGTYPE_3":"Village","PROVINCE":"Iloilo","REGION":"Region VI (Western Visayas)","id":"barangay-0603016008","name":"Calicuang","barangayCode":"0603016008","population":null,"formattedPop":null,"densityCategory":"No data","vulnerabilityRating":"No data","healthRiskLevel":"No data","areaKm2":4.1606,"centerLat":10.967044,"centerLng":122.678752,"geometrySource":"all_barangay-2.csv detailed WKT","geometryMatchMethod":"unique_official_admin_names","boundaryPointCount":71},"geometry":{"type":"MultiPolygon","coordinates":[[[[122.688667,10.985],[122.69252,10.9832],[122.697533,10.98179],[122.696571,10.98069],[122.696243,10.98095],[122.694977,10.98024],[122.693352,10.97741],[122.693947,10.97673],[122.693466,10.97669],[122.693382,10.97636],[122.692719,10.97652],[122.692307,10.97463],[122.692192,10.97426],[122.691788,10.9734],[122.691368,10.97242],[122.691101,10.97135],[122.690979,10.97052],[122.690727,10.97009],[122.691063,10.9695],[122.69072,10.9693],[122.692123,10.96748],[122.691673,10.96632],[122.691467,10.96588],[122.691353,10.96537],[122.691803,10.96517],[122.691551,10.96481],[122.691307,10.96461],[122.691368,10.96445],[122.691833,10.96414],[122.691048,10.96318],[122.69043,10.96292],[122.690224,10.96277],[122.690269,10.9626],[122.690086,10.962114],[122.690041,10.962],[122.689743,10.96207],[122.689217,10.96208],[122.689087,10.962114],[122.688911,10.96216],[122.688896,10.962114],[122.688744,10.96167],[122.689934,10.96112],[122.689621,10.96012],[122.690804,10.95892],[122.688972,10.95912],[122.688873,10.96018],[122.688026,10.96099],[122.687027,10.96085],[122.684799,10.96099],[122.68235,10.96124],[122.676758,10.96191],[122.67601,10.962114],[122.674149,10.96262],[122.67244,10.9638],[122.670792,10.96454],[122.667793,10.96398],[122.664627,10.96361],[122.663773,10.96632],[122.663803,10.96819],[122.664917,10.96993],[122.667007,10.97064],[122.668991,10.97056],[122.671951,10.97054],[122.67498,10.97067],[122.678833,10.97137],[122.681633,10.97303],[122.683434,10.97575],[122.684532,10.97875],[122.685143,10.98094],[122.686523,10.98282],[122.688667,10.985]]]]}},{"type":"Feature","properties":{"ID_0":177,"ISO":"PHL","NAME_0":"Philippines","ID_1":6030,"NAME_1":"Iloilo","ID_2":603016,"NAME_2":"Dingle","ID_3":603016009,"NAME_3":"Camambugan","NL_NAME_3":null,"VARNAME_3":null,"TYPE_3":"Barangay","ENGTYPE_3":"Village","PROVINCE":"Iloilo","REGION":"Region VI (Western Visayas)","id":"barangay-0603016009","name":"Camambugan","barangayCode":"0603016009","population":null,"formattedPop":null,"densityCategory":"No data","vulnerabilityRating":"No data","healthRiskLevel":"No data","areaKm2":2.971327,"centerLat":11.011926,"centerLng":122.675011,"geometrySource":"all_barangay-2.csv detailed WKT","geometryMatchMethod":"unique_official_admin_names","boundaryPointCount":40},"geometry":{"type":"MultiPolygon","coordinates":[[[[122.66993,11.01894],[122.674377,11.02294],[122.684563,11.02036],[122.684959,11.01848],[122.685028,11.01722],[122.683289,11.0153],[122.682571,11.01383],[122.683067,11.01184],[122.682831,11.01079],[122.682549,11.01016],[122.68187,11.00956],[122.681023,11.00945],[122.681038,11.00866],[122.681343,11.00764],[122.680801,11.00656],[122.680687,11.00523],[122.679893,11.00403],[122.679626,11.00241],[122.679123,11.00115],[122.678947,10.99988],[122.677513,10.99978],[122.675652,11.00102],[122.67318,11.00366],[122.67012,11.00462],[122.667427,11.00566],[122.667442,11.00814],[122.667908,11.00886],[122.667137,11.01013],[122.666969,11.01043],[122.668678,11.01012],[122.669601,11.01135],[122.669487,11.01168],[122.669594,11.0128],[122.669853,11.01392],[122.669029,11.0151],[122.669579,11.01567],[122.670029,11.01723],[122.669693,11.01745],[122.670013,11.01856],[122.66993,11.01894]]]]}},{"type":"Feature","properties":{"ID_0":177,"ISO":"PHL","NAME_0":"Philippines","ID_1":6030,"NAME_1":"Iloilo","ID_2":603016,"NAME_2":"Dingle","ID_3":603016011,"NAME_3":"Dawis","NL_NAME_3":null,"VARNAME_3":null,"TYPE_3":"Barangay","ENGTYPE_3":"Village","PROVINCE":"Iloilo","REGION":"Region VI (Western Visayas)","id":"barangay-0603016011","name":"Dawis","barangayCode":"0603016011","population":null,"formattedPop":null,"densityCategory":"No data","vulnerabilityRating":"No data","healthRiskLevel":"No data","areaKm2":0.653718,"centerLat":10.995635,"centerLng":122.678186,"geometrySource":"all_barangay-2.csv detailed WKT","geometryMatchMethod":"unique_official_admin_names","boundaryPointCount":24},"geometry":{"type":"MultiPolygon","coordinates":[[[[122.671013,10.99808],[122.673447,10.99788],[122.675102,10.9991],[122.675728,10.9988],[122.676239,10.99879],[122.676781,10.99819],[122.6772,10.99798],[122.678032,10.99704],[122.679543,10.997],[122.681358,10.9974],[122.682007,10.99592],[122.681953,10.99438],[122.681778,10.993],[122.681221,10.99198],[122.679169,10.99226],[122.67878,10.99212],[122.677994,10.99194],[122.677567,10.99186],[122.676201,10.99202],[122.675117,10.99317],[122.674583,10.99459],[122.673309,10.99614],[122.672653,10.99662],[122.671013,10.99808]]]]}},{"type":"Feature","properties":{"ID_0":177,"ISO":"PHL","NAME_0":"Philippines","ID_1":6030,"NAME_1":"Iloilo","ID_2":603016,"NAME_2":"Dingle","ID_3":603016012,"NAME_3":"Ginalinan Nuevo","NL_NAME_3":null,"VARNAME_3":null,"TYPE_3":"Barangay","ENGTYPE_3":"Village","PROVINCE":"Iloilo","REGION":"Region VI (Western Visayas)","id":"barangay-0603016012","name":"Ginalinan Nuevo","barangayCode":"0603016012","population":null,"formattedPop":null,"densityCategory":"No data","vulnerabilityRating":"No data","healthRiskLevel":"No data","areaKm2":0.778929,"centerLat":10.95951,"centerLng":122.671343,"geometrySource":"all_barangay-2.csv detailed WKT","geometryMatchMethod":"unique_official_admin_names","boundaryPointCount":35},"geometry":{"type":"MultiPolygon","coordinates":[[[[122.687027,10.96085],[122.68647,10.95971],[122.686172,10.95842],[122.685547,10.95737],[122.684082,10.95681],[122.682068,10.95703],[122.680893,10.95743],[122.679329,10.95825],[122.676643,10.95695],[122.674843,10.95479],[122.671707,10.95148],[122.671227,10.9516],[122.669533,10.95104],[122.667557,10.94942],[122.666321,10.94487],[122.665176,10.94529],[122.665199,10.94741],[122.665077,10.94911],[122.664307,10.94944],[122.665527,10.95181],[122.666931,10.95382],[122.667847,10.9558],[122.667412,10.95824],[122.666183,10.96017],[122.665306,10.962114],[122.664627,10.96361],[122.667793,10.96398],[122.670792,10.96454],[122.67244,10.9638],[122.674149,10.96262],[122.67601,10.962114],[122.676758,10.96191],[122.68235,10.96124],[122.684799,10.96099],[122.687027,10.96085]]]]}},{"type":"Feature","properties":{"ID_0":177,"ISO":"PHL","NAME_0":"Philippines","ID_1":6030,"NAME_1":"Iloilo","ID_2":603016,"NAME_2":"Dingle","ID_3":603016013,"NAME_3":"Ginalinan Viejo","NL_NAME_3":null,"VARNAME_3":null,"TYPE_3":"Barangay","ENGTYPE_3":"Village","PROVINCE":"Iloilo","REGION":"Region VI (Western Visayas)","id":"barangay-0603016013","name":"Ginalinan Viejo","barangayCode":"0603016013","population":null,"formattedPop":null,"densityCategory":"No data","vulnerabilityRating":"No data","healthRiskLevel":"No data","areaKm2":0.923374,"centerLat":11.002142,"centerLng":122.598296,"geometrySource":"all_barangay-2.csv detailed WKT","geometryMatchMethod":"unique_official_admin_names","boundaryPointCount":25},"geometry":{"type":"MultiPolygon","coordinates":[[[[122.600548,11.00911],[122.601738,11.00986],[122.603447,11.00798],[122.603752,11.00622],[122.604156,11.00523],[122.604286,11.00453],[122.604736,11.0041],[122.605873,11.00358],[122.606071,11.00283],[122.605637,11.00189],[122.605171,11.00108],[122.604767,11.00039],[122.603867,11.00064],[122.602814,11.00037],[122.60186,10.99953],[122.60144,10.99962],[122.60038,10.99966],[122.600227,10.99957],[122.598221,10.99982],[122.597389,10.99953],[122.596107,10.99884],[122.5942,10.99773],[122.593117,10.99774],[122.595032,11.00128],[122.600548,11.00911]]]]}},{"type":"Feature","properties":{"ID_0":177,"ISO":"PHL","NAME_0":"Philippines","ID_1":6030,"NAME_1":"Iloilo","ID_2":603016,"NAME_2":"Dingle","ID_3":603016014,"NAME_3":"Gutao","NL_NAME_3":null,"VARNAME_3":null,"TYPE_3":"Barangay","ENGTYPE_3":"Village","PROVINCE":"Iloilo","REGION":"Region VI (Western Visayas)","id":"barangay-0603016014","name":"Gutao","barangayCode":"0603016014","population":null,"formattedPop":null,"densityCategory":"No data","vulnerabilityRating":"No data","healthRiskLevel":"No data","areaKm2":2.572065,"centerLat":11.021126,"centerLng":122.693973,"geometrySource":"all_barangay-2.csv detailed WKT","geometryMatchMethod":"unique_official_admin_names","boundaryPointCount":44},"geometry":{"type":"MultiPolygon","coordinates":[[[[122.7089,11.02364],[122.705353,11.01754],[122.704857,11.01441],[122.703293,11.01517],[122.702759,11.01614],[122.702042,11.01699],[122.701157,11.01636],[122.700607,11.01613],[122.700447,11.0155],[122.699577,11.01574],[122.69635,11.01553],[122.695396,11.01491],[122.694901,11.0156],[122.692627,11.01514],[122.69149,11.01515],[122.69091,11.01482],[122.690147,11.01504],[122.689056,11.01474],[122.687477,11.01355],[122.687157,11.01238],[122.686493,11.01193],[122.685608,11.01113],[122.684677,11.01147],[122.684303,11.01234],[122.683777,11.01211],[122.683594,11.01175],[122.683067,11.01184],[122.682571,11.01383],[122.683289,11.0153],[122.685028,11.01722],[122.684959,11.01848],[122.684563,11.02036],[122.685463,11.02176],[122.686523,11.02194],[122.688339,11.02259],[122.689819,11.0233],[122.690277,11.02399],[122.690826,11.02624],[122.691704,11.02557],[122.692352,11.02502],[122.694077,11.02522],[122.696472,11.02617],[122.698761,11.02618],[122.7089,11.02364]]]]}},{"type":"Feature","properties":{"ID_0":177,"ISO":"PHL","NAME_0":"Philippines","ID_1":6030,"NAME_1":"Iloilo","ID_2":603016,"NAME_2":"Dingle","ID_3":603016015,"NAME_3":"Ilajas","NL_NAME_3":null,"VARNAME_3":null,"TYPE_3":"Barangay","ENGTYPE_3":"Village","PROVINCE":"Iloilo","REGION":"Region VI (Western Visayas)","id":"barangay-0603016015","name":"Ilajas","barangayCode":"0603016015","population":null,"formattedPop":null,"densityCategory":"No data","vulnerabilityRating":"No data","healthRiskLevel":"No data","areaKm2":3.355893,"centerLat":11.00083,"centerLng":122.685771,"geometrySource":"all_barangay-2.csv detailed WKT","geometryMatchMethod":"unique_official_admin_names","boundaryPointCount":41},"geometry":{"type":"MultiPolygon","coordinates":[[[[122.685608,11.01113],[122.68885,11.00589],[122.690353,11.00326],[122.68998,11.00227],[122.689499,11.00058],[122.690331,10.99961],[122.691254,10.99867],[122.692253,10.99824],[122.693626,10.99799],[122.694443,10.99735],[122.693581,10.99658],[122.69252,10.9961],[122.69017,10.99308],[122.68618,10.98785],[122.684067,10.98847],[122.681747,10.98927],[122.680862,10.99048],[122.681221,10.99198],[122.681778,10.993],[122.681953,10.99438],[122.682007,10.99592],[122.681358,10.9974],[122.680618,10.99846],[122.678947,10.99988],[122.679123,11.00115],[122.679626,11.00241],[122.679893,11.00403],[122.680687,11.00523],[122.680801,11.00656],[122.681343,11.00764],[122.681038,11.00866],[122.681023,11.00945],[122.68187,11.00956],[122.682549,11.01016],[122.682831,11.01079],[122.683067,11.01184],[122.683594,11.01175],[122.683777,11.01211],[122.684303,11.01234],[122.684677,11.01147],[122.685608,11.01113]]]]}},{"type":"Feature","properties":{"ID_0":177,"ISO":"PHL","NAME_0":"Philippines","ID_1":6030,"NAME_1":"Iloilo","ID_2":603016,"NAME_2":"Dingle","ID_3":603016016,"NAME_3":"Libo-o","NL_NAME_3":null,"VARNAME_3":null,"TYPE_3":"Barangay","ENGTYPE_3":"Village","PROVINCE":"Iloilo","REGION":"Region VI (Western Visayas)","id":"barangay-0603016016","name":"Libo-o","barangayCode":"0603016016","population":null,"formattedPop":null,"densityCategory":"No data","vulnerabilityRating":"No data","healthRiskLevel":"No data","areaKm2":5.061727,"centerLat":11.002226,"centerLng":122.634328,"geometrySource":"all_barangay-2.csv detailed WKT","geometryMatchMethod":"unique_official_admin_names","boundaryPointCount":54},"geometry":{"type":"MultiPolygon","coordinates":[[[[122.628822,11.01845],[122.631432,11.01563],[122.632217,11.01435],[122.635246,11.01309],[122.636909,11.01296],[122.639252,11.01267],[122.640907,11.01106],[122.64164,11.00937],[122.643051,11.00867],[122.64492,11.00883],[122.645081,11.00741],[122.646347,11.00596],[122.646057,11.00466],[122.646591,11.00402],[122.646187,11.003],[122.648529,11.00235],[122.648918,11.00044],[122.644402,10.99742],[122.641777,10.99204],[122.639893,10.99247],[122.639137,10.99311],[122.639023,10.99369],[122.639168,10.99455],[122.638443,10.99495],[122.637909,10.99589],[122.637672,10.99582],[122.636871,10.99461],[122.635986,10.99453],[122.63517,10.99371],[122.634308,10.99372],[122.633476,10.99354],[122.632133,10.99403],[122.631271,10.99409],[122.630951,10.9957],[122.630447,10.99636],[122.630241,10.99655],[122.629929,10.99672],[122.629517,10.99702],[122.629066,10.99727],[122.62825,10.99752],[122.627663,10.99759],[122.627701,10.99698],[122.626999,10.99666],[122.627098,10.99632],[122.627731,10.99629],[122.627022,10.99489],[122.6259,10.99842],[122.62368,11.00103],[122.622833,11.00272],[122.622269,11.00312],[122.622093,11.00451],[122.621521,11.00678],[122.621422,11.00838],[122.628822,11.01845]]]]}},{"type":"Feature","properties":{"ID_0":177,"ISO":"PHL","NAME_0":"Philippines","ID_1":6030,"NAME_1":"Iloilo","ID_2":603016,"NAME_2":"Dingle","ID_3":603016017,"NAME_3":"Licu-an","NL_NAME_3":null,"VARNAME_3":null,"TYPE_3":"Barangay","ENGTYPE_3":"Village","PROVINCE":"Iloilo","REGION":"Region VI (Western Visayas)","id":"barangay-0603016017","name":"Licu-an","barangayCode":"0603016017","population":null,"formattedPop":null,"densityCategory":"No data","vulnerabilityRating":"No data","healthRiskLevel":"No data","areaKm2":2.483714,"centerLat":11.010293,"centerLng":122.651818,"geometrySource":"all_barangay-2.csv detailed WKT","geometryMatchMethod":"unique_official_admin_names","boundaryPointCount":28},"geometry":{"type":"MultiPolygon","coordinates":[[[[122.643547,11.01594],[122.644943,11.01584],[122.645889,11.01674],[122.646217,11.01834],[122.647346,11.01911],[122.647972,11.01857],[122.649223,11.01771],[122.65094,11.01722],[122.652382,11.01718],[122.654694,11.0177],[122.657417,11.0172],[122.659317,11.01538],[122.660942,11.0131],[122.662064,11.01098],[122.657211,10.99456],[122.653503,10.99794],[122.650803,10.99928],[122.648918,11.00044],[122.648529,11.00235],[122.646187,11.003],[122.646591,11.00402],[122.646057,11.00466],[122.646347,11.00596],[122.645081,11.00741],[122.64492,11.00883],[122.645721,11.0117],[122.643661,11.01301],[122.643547,11.01594]]]]}},{"type":"Feature","properties":{"ID_0":177,"ISO":"PHL","NAME_0":"Philippines","ID_1":6030,"NAME_1":"Iloilo","ID_2":603016,"NAME_2":"Dingle","ID_3":603016018,"NAME_3":"Lincud","NL_NAME_3":null,"VARNAME_3":null,"TYPE_3":"Barangay","ENGTYPE_3":"Village","PROVINCE":"Iloilo","REGION":"Region VI (Western Visayas)","id":"barangay-0603016018","name":"Lincud","barangayCode":"0603016018","population":null,"formattedPop":null,"densityCategory":"No data","vulnerabilityRating":"No data","healthRiskLevel":"No data","areaKm2":6.213203,"centerLat":11.033499,"centerLng":122.644695,"geometrySource":"all_barangay-2.csv detailed WKT","geometryMatchMethod":"unique_official_admin_names","boundaryPointCount":39},"geometry":{"type":"MultiPolygon","coordinates":[[[[122.663521,11.04531],[122.656342,11.03122],[122.655563,11.03135],[122.655586,11.03087],[122.654762,11.03075],[122.654442,11.02985],[122.654198,11.02958],[122.654037,11.02898],[122.653732,11.02855],[122.652863,11.02672],[122.651772,11.02645],[122.651077,11.02616],[122.650887,11.02446],[122.651398,11.02365],[122.650238,11.02278],[122.648743,11.02194],[122.648712,11.02119],[122.647972,11.01857],[122.647346,11.01911],[122.646217,11.01834],[122.645889,11.01674],[122.644943,11.01584],[122.643547,11.01594],[122.642387,11.01697],[122.641273,11.01946],[122.640701,11.0223],[122.640587,11.02472],[122.640747,11.02746],[122.639473,11.03025],[122.637848,11.03217],[122.636703,11.03356],[122.634537,11.03464],[122.632584,11.03456],[122.63118,11.03554],[122.630272,11.0372],[122.629417,11.03899],[122.628304,11.04184],[122.659599,11.0456],[122.663521,11.04531]]]]}},{"type":"Feature","properties":{"ID_0":177,"ISO":"PHL","NAME_0":"Philippines","ID_1":6030,"NAME_1":"Iloilo","ID_2":603016,"NAME_2":"Dingle","ID_3":603016019,"NAME_3":"Matangharon","NL_NAME_3":null,"VARNAME_3":null,"TYPE_3":"Barangay","ENGTYPE_3":"Village","PROVINCE":"Iloilo","REGION":"Region VI (Western Visayas)","id":"barangay-0603016019","name":"Matangharon","barangayCode":"0603016019","population":null,"formattedPop":null,"densityCategory":"No data","vulnerabilityRating":"No data","healthRiskLevel":"No data","areaKm2":2.549721,"centerLat":10.951872,"centerLng":122.677223,"geometrySource":"all_barangay-2.csv detailed WKT","geometryMatchMethod":"unique_official_admin_names","boundaryPointCount":51},"geometry":{"type":"MultiPolygon","coordinates":[[[[122.687027,10.96085],[122.688026,10.96099],[122.688873,10.96018],[122.688972,10.95912],[122.690804,10.95892],[122.690491,10.95803],[122.69017,10.95749],[122.690399,10.95665],[122.690033,10.95538],[122.689636,10.95512],[122.689667,10.95453],[122.689522,10.95379],[122.689102,10.95364],[122.68895,10.95315],[122.687019,10.95211],[122.685867,10.95108],[122.684288,10.9496],[122.685562,10.94837],[122.684479,10.94736],[122.682892,10.94762],[122.681877,10.94771],[122.681976,10.94674],[122.682228,10.94516],[122.68206,10.94344],[122.681374,10.94254],[122.68087,10.94227],[122.679672,10.94167],[122.678993,10.94246],[122.678223,10.9411],[122.677673,10.93981],[122.677803,10.93812],[122.677437,10.93694],[122.67614,10.9367],[122.674667,10.93688],[122.672783,10.93705],[122.672188,10.93847],[122.672188,10.93984],[122.674141,10.94731],[122.673859,10.94981],[122.672707,10.95075],[122.671707,10.95148],[122.674843,10.95479],[122.676643,10.95695],[122.679329,10.95825],[122.680893,10.95743],[122.682068,10.95703],[122.684082,10.95681],[122.685547,10.95737],[122.686172,10.95842],[122.68647,10.95971],[122.687027,10.96085]]]]}},{"type":"Feature","properties":{"ID_0":177,"ISO":"PHL","NAME_0":"Philippines","ID_1":6030,"NAME_1":"Iloilo","ID_2":603016,"NAME_2":"Dingle","ID_3":603016020,"NAME_3":"Moroboro","NL_NAME_3":null,"VARNAME_3":null,"TYPE_3":"Barangay","ENGTYPE_3":"Village","PROVINCE":"Iloilo","REGION":"Region VI (Western Visayas)","id":"barangay-0603016020","name":"Moroboro","barangayCode":"0603016020","population":null,"formattedPop":null,"densityCategory":"No data","vulnerabilityRating":"No data","healthRiskLevel":"No data","areaKm2":4.797858,"centerLat":11.023859,"centerLng":122.660876,"geometrySource":"all_barangay-2.csv detailed WKT","geometryMatchMethod":"unique_official_admin_names","boundaryPointCount":46},"geometry":{"type":"MultiPolygon","coordinates":[[[[122.664268,11.04328],[122.66993,11.01894],[122.670013,11.01856],[122.669693,11.01745],[122.670029,11.01723],[122.669579,11.01567],[122.669029,11.0151],[122.669853,11.01392],[122.669594,11.0128],[122.669487,11.01168],[122.669601,11.01135],[122.668678,11.01012],[122.666969,11.01043],[122.667137,11.01013],[122.667908,11.00886],[122.667442,11.00814],[122.667427,11.00566],[122.665466,11.00688],[122.663857,11.00861],[122.662064,11.01098],[122.660942,11.0131],[122.659317,11.01538],[122.657417,11.0172],[122.654694,11.0177],[122.652382,11.01718],[122.65094,11.01722],[122.649223,11.01771],[122.647972,11.01857],[122.648712,11.02119],[122.648743,11.02194],[122.650238,11.02278],[122.651398,11.02365],[122.650887,11.02446],[122.651077,11.02616],[122.651772,11.02645],[122.652863,11.02672],[122.653732,11.02855],[122.654037,11.02898],[122.654198,11.02958],[122.654442,11.02985],[122.654762,11.03075],[122.655586,11.03087],[122.655563,11.03135],[122.656342,11.03122],[122.663521,11.04531],[122.664268,11.04328]]]]}},{"type":"Feature","properties":{"ID_0":177,"ISO":"PHL","NAME_0":"Philippines","ID_1":6030,"NAME_1":"Iloilo","ID_2":603016,"NAME_2":"Dingle","ID_3":603016021,"NAME_3":"Namatay","NL_NAME_3":null,"VARNAME_3":null,"TYPE_3":"Barangay","ENGTYPE_3":"Village","PROVINCE":"Iloilo","REGION":"Region VI (Western Visayas)","id":"barangay-0603016021","name":"Namatay","barangayCode":"0603016021","population":null,"formattedPop":null,"densityCategory":"No data","vulnerabilityRating":"No data","healthRiskLevel":"No data","areaKm2":2.040114,"centerLat":10.984255,"centerLng":122.691167,"geometrySource":"all_barangay-2.csv detailed WKT","geometryMatchMethod":"unique_official_admin_names","boundaryPointCount":32},"geometry":{"type":"MultiPolygon","coordinates":[[[[122.700829,10.99316],[122.70002,10.9894],[122.700279,10.98819],[122.699982,10.9873],[122.699753,10.9866],[122.69912,10.98637],[122.699112,10.98587],[122.698929,10.9854],[122.698669,10.98479],[122.698418,10.98399],[122.698372,10.9832],[122.697281,10.9831],[122.697098,10.98263],[122.697037,10.98234],[122.69735,10.98201],[122.697533,10.98179],[122.69252,10.9832],[122.688667,10.985],[122.688469,10.98602],[122.688217,10.98681],[122.68618,10.98785],[122.69017,10.99308],[122.69252,10.9961],[122.694252,10.9948],[122.694153,10.99377],[122.693977,10.99248],[122.695061,10.99232],[122.696617,10.99216],[122.698112,10.99242],[122.69899,10.99283],[122.699852,10.99327],[122.700829,10.99316]]]]}},{"type":"Feature","properties":{"ID_0":177,"ISO":"PHL","NAME_0":"Philippines","ID_1":6030,"NAME_1":"Iloilo","ID_2":603016,"NAME_2":"Dingle","ID_3":603016022,"NAME_3":"Nazuni","NL_NAME_3":null,"VARNAME_3":null,"TYPE_3":"Barangay","ENGTYPE_3":"Village","PROVINCE":"Iloilo","REGION":"Region VI (Western Visayas)","id":"barangay-0603016022","name":"Nazuni","barangayCode":"0603016022","population":null,"formattedPop":null,"densityCategory":"No data","vulnerabilityRating":"No data","healthRiskLevel":"No data","areaKm2":8.089385,"centerLat":11.051459,"centerLng":122.713413,"geometrySource":"all_barangay-2.csv detailed WKT","geometryMatchMethod":"unique_official_admin_names","boundaryPointCount":7},"geometry":{"type":"MultiPolygon","coordinates":[[[[122.735077,11.07625],[122.727257,11.04387],[122.714546,11.03136],[122.698372,11.04547],[122.711929,11.07074],[122.721916,11.07668],[122.735077,11.07625]]]]}},{"type":"Feature","properties":{"ID_0":177,"ISO":"PHL","NAME_0":"Philippines","ID_1":6030,"NAME_1":"Iloilo","ID_2":603016,"NAME_2":"Dingle","ID_3":603016023,"NAME_3":"Pandan","NL_NAME_3":null,"VARNAME_3":null,"TYPE_3":"Barangay","ENGTYPE_3":"Village","PROVINCE":"Iloilo","REGION":"Region VI (Western Visayas)","id":"barangay-0603016023","name":"Pandan","barangayCode":"0603016023","population":null,"formattedPop":null,"densityCategory":"No data","vulnerabilityRating":"No data","healthRiskLevel":"No data","areaKm2":2.155897,"centerLat":10.976091,"centerLng":122.66,"geometrySource":"all_barangay-2.csv detailed WKT","geometryMatchMethod":"unique_official_admin_names","boundaryPointCount":21},"geometry":{"type":"MultiPolygon","coordinates":[[[[122.652771,10.98388],[122.6577,10.98285],[122.662643,10.98192],[122.6689,10.9785],[122.670181,10.97717],[122.667427,10.97358],[122.667007,10.97064],[122.664917,10.96993],[122.663803,10.96819],[122.663773,10.96632],[122.664627,10.96361],[122.655647,10.97047],[122.655113,10.97032],[122.65451,10.97087],[122.65435,10.97174],[122.653961,10.97367],[122.653297,10.9756],[122.652657,10.97735],[122.651573,10.97865],[122.650391,10.97875],[122.652771,10.98388]]]]}},{"type":"Feature","properties":{"ID_0":177,"ISO":"PHL","NAME_0":"Philippines","ID_1":6030,"NAME_1":"Iloilo","ID_2":603016,"NAME_2":"Dingle","ID_3":603016024,"NAME_3":"Poblacion","NL_NAME_3":null,"VARNAME_3":null,"TYPE_3":"Barangay","ENGTYPE_3":"Village","PROVINCE":"Iloilo","REGION":"Region VI (Western Visayas)","id":"barangay-0603016024","name":"Poblacion","barangayCode":"0603016024","population":null,"formattedPop":null,"densityCategory":"No data","vulnerabilityRating":"No data","healthRiskLevel":"No data","areaKm2":0.55493,"centerLat":11.000252,"centerLng":122.670749,"geometrySource":"all_barangay-2.csv detailed WKT","geometryMatchMethod":"unique_official_admin_names","boundaryPointCount":23},"geometry":{"type":"MultiPolygon","coordinates":[[[[122.678947,10.99988],[122.680618,10.99846],[122.681358,10.9974],[122.679543,10.997],[122.678032,10.99704],[122.6772,10.99798],[122.676781,10.99819],[122.676239,10.99879],[122.675728,10.9988],[122.675102,10.9991],[122.673447,10.99788],[122.671013,10.99808],[122.671867,10.99976],[122.668953,11.00155],[122.66748,11.00298],[122.66758,11.00376],[122.668343,11.00409],[122.669487,11.00387],[122.67012,11.00462],[122.67318,11.00366],[122.675652,11.00102],[122.677513,10.99978],[122.678947,10.99988]]]]}},{"type":"Feature","properties":{"ID_0":177,"ISO":"PHL","NAME_0":"Philippines","ID_1":6030,"NAME_1":"Iloilo","ID_2":603016,"NAME_2":"Dingle","ID_3":603016025,"NAME_3":"Potolan","NL_NAME_3":null,"VARNAME_3":null,"TYPE_3":"Barangay","ENGTYPE_3":"Village","PROVINCE":"Iloilo","REGION":"Region VI (Western Visayas)","id":"barangay-0603016025","name":"Potolan","barangayCode":"0603016025","population":null,"formattedPop":null,"densityCategory":"No data","vulnerabilityRating":"No data","healthRiskLevel":"No data","areaKm2":2.13862,"centerLat":11.01092,"centerLng":122.696791,"geometrySource":"all_barangay-2.csv detailed WKT","geometryMatchMethod":"unique_official_admin_names","boundaryPointCount":35},"geometry":{"type":"MultiPolygon","coordinates":[[[[122.704857,11.01441],[122.703011,11.00741],[122.701157,11.00745],[122.699966,11.00691],[122.699493,11.0071],[122.698967,11.00713],[122.698334,11.00639],[122.697411,11.00694],[122.695709,11.00662],[122.694946,11.00632],[122.694351,11.00627],[122.693123,11.00688],[122.691879,11.00659],[122.690193,11.00633],[122.68885,11.00589],[122.685608,11.01113],[122.686493,11.01193],[122.687157,11.01238],[122.687477,11.01355],[122.689056,11.01474],[122.690147,11.01504],[122.69091,11.01482],[122.69149,11.01515],[122.692627,11.01514],[122.694901,11.0156],[122.695396,11.01491],[122.69635,11.01553],[122.699577,11.01574],[122.700447,11.0155],[122.700607,11.01613],[122.701157,11.01636],[122.702042,11.01699],[122.702759,11.01614],[122.703293,11.01517],[122.704857,11.01441]]]]}},{"type":"Feature","properties":{"ID_0":177,"ISO":"PHL","NAME_0":"Philippines","ID_1":6030,"NAME_1":"Iloilo","ID_2":603016,"NAME_2":"Dingle","ID_3":603016026,"NAME_3":"San Jose","NL_NAME_3":null,"VARNAME_3":null,"TYPE_3":"Barangay","ENGTYPE_3":"Village","PROVINCE":"Iloilo","REGION":"Region VI (Western Visayas)","id":"barangay-0603016026","name":"San Jose","barangayCode":"0603016026","population":null,"formattedPop":null,"densityCategory":"No data","vulnerabilityRating":"No data","healthRiskLevel":"No data","areaKm2":1.421034,"centerLat":10.993671,"centerLng":122.66869,"geometrySource":"all_barangay-2.csv detailed WKT","geometryMatchMethod":"unique_official_admin_names","boundaryPointCount":12},"geometry":{"type":"MultiPolygon","coordinates":[[[[122.671013,10.99808],[122.672653,10.99662],[122.673309,10.99614],[122.674583,10.99459],[122.675117,10.99317],[122.676201,10.99202],[122.671021,10.98877],[122.666946,10.99136],[122.662338,10.99507],[122.663857,10.99641],[122.666061,10.9985],[122.671013,10.99808]]]]}},{"type":"Feature","properties":{"ID_0":177,"ISO":"PHL","NAME_0":"Philippines","ID_1":6030,"NAME_1":"Iloilo","ID_2":603016,"NAME_2":"Dingle","ID_3":603016027,"NAME_3":"San Matias","NL_NAME_3":null,"VARNAME_3":null,"TYPE_3":"Barangay","ENGTYPE_3":"Village","PROVINCE":"Iloilo","REGION":"Region VI (Western Visayas)","id":"barangay-0603016027","name":"San Matias","barangayCode":"0603016027","population":null,"formattedPop":null,"densityCategory":"No data","vulnerabilityRating":"No data","healthRiskLevel":"No data","areaKm2":1.620732,"centerLat":11.002473,"centerLng":122.661017,"geometrySource":"all_barangay-2.csv detailed WKT","geometryMatchMethod":"unique_official_admin_names","boundaryPointCount":22},"geometry":{"type":"MultiPolygon","coordinates":[[[[122.667427,11.00566],[122.67012,11.00462],[122.669487,11.00387],[122.668343,11.00409],[122.66758,11.00376],[122.66748,11.00298],[122.668953,11.00155],[122.671867,10.99976],[122.671013,10.99808],[122.666061,10.9985],[122.663857,10.99641],[122.662338,10.99507],[122.660912,10.99637],[122.660637,10.99671],[122.659248,10.99639],[122.658546,10.99612],[122.658203,10.99525],[122.657211,10.99456],[122.662064,11.01098],[122.663857,11.00861],[122.665466,11.00688],[122.667427,11.00566]]]]}},{"type":"Feature","properties":{"ID_0":177,"ISO":"PHL","NAME_0":"Philippines","ID_1":6030,"NAME_1":"Iloilo","ID_2":603016,"NAME_2":"Dingle","ID_3":603016028,"NAME_3":"Siniba-an","NL_NAME_3":null,"VARNAME_3":null,"TYPE_3":"Barangay","ENGTYPE_3":"Village","PROVINCE":"Iloilo","REGION":"Region VI (Western Visayas)","id":"barangay-0603016028","name":"Siniba-an","barangayCode":"0603016028","population":null,"formattedPop":null,"densityCategory":"No data","vulnerabilityRating":"No data","healthRiskLevel":"No data","areaKm2":3.263935,"centerLat":10.980873,"centerLng":122.676,"geometrySource":"all_barangay-2.csv detailed WKT","geometryMatchMethod":"unique_official_admin_names","boundaryPointCount":35},"geometry":{"type":"MultiPolygon","coordinates":[[[[122.676201,10.99202],[122.677567,10.99186],[122.677994,10.99194],[122.67878,10.99212],[122.679169,10.99226],[122.681221,10.99198],[122.680862,10.99048],[122.681747,10.98927],[122.684067,10.98847],[122.68618,10.98785],[122.688217,10.98681],[122.688469,10.98602],[122.688667,10.985],[122.686523,10.98282],[122.685143,10.98094],[122.684532,10.97875],[122.683434,10.97575],[122.681633,10.97303],[122.678833,10.97137],[122.67498,10.97067],[122.671951,10.97054],[122.668991,10.97056],[122.667007,10.97064],[122.667427,10.97358],[122.670181,10.97717],[122.6689,10.9785],[122.670036,10.98009],[122.670563,10.98204],[122.671661,10.98335],[122.672203,10.98488],[122.671638,10.98564],[122.670532,10.98664],[122.670601,10.98706],[122.671021,10.98877],[122.676201,10.99202]]]]}},{"type":"Feature","properties":{"ID_0":177,"ISO":"PHL","NAME_0":"Philippines","ID_1":6030,"NAME_1":"Iloilo","ID_2":603016,"NAME_2":"Dingle","ID_3":603016029,"NAME_3":"Tabugon","NL_NAME_3":null,"VARNAME_3":null,"TYPE_3":"Barangay","ENGTYPE_3":"Village","PROVINCE":"Iloilo","REGION":"Region VI (Western Visayas)","id":"barangay-0603016029","name":"Tabugon","barangayCode":"0603016029","population":null,"formattedPop":null,"densityCategory":"No data","vulnerabilityRating":"No data","healthRiskLevel":"No data","areaKm2":2.269965,"centerLat":11.018969,"centerLng":122.634668,"geometrySource":"all_barangay-2.csv detailed WKT","geometryMatchMethod":"unique_official_admin_names","boundaryPointCount":26},"geometry":{"type":"MultiPolygon","coordinates":[[[[122.634537,11.03464],[122.636703,11.03356],[122.637848,11.03217],[122.639473,11.03025],[122.640747,11.02746],[122.640587,11.02472],[122.640701,11.0223],[122.641273,11.01946],[122.642387,11.01697],[122.643547,11.01594],[122.643661,11.01301],[122.645721,11.0117],[122.64492,11.00883],[122.643051,11.00867],[122.64164,11.00937],[122.640907,11.01106],[122.639252,11.01267],[122.636909,11.01296],[122.635246,11.01309],[122.632217,11.01435],[122.631432,11.01563],[122.628822,11.01845],[122.628326,11.02102],[122.630432,11.02312],[122.631317,11.02403],[122.634537,11.03464]]]]}},{"type":"Feature","properties":{"ID_0":177,"ISO":"PHL","NAME_0":"Philippines","ID_1":6030,"NAME_1":"Iloilo","ID_2":603016,"NAME_2":"Dingle","ID_3":603016030,"NAME_3":"Tambunac","NL_NAME_3":null,"VARNAME_3":null,"TYPE_3":"Barangay","ENGTYPE_3":"Village","PROVINCE":"Iloilo","REGION":"Region VI (Western Visayas)","id":"barangay-0603016030","name":"Tambunac","barangayCode":"0603016030","population":null,"formattedPop":null,"densityCategory":"No data","vulnerabilityRating":"No data","healthRiskLevel":"No data","areaKm2":1.642341,"centerLat":10.999612,"centerLng":122.619022,"geometrySource":"all_barangay-2.csv detailed WKT","geometryMatchMethod":"unique_official_admin_names","boundaryPointCount":42},"geometry":{"type":"MultiPolygon","coordinates":[[[[122.622093,11.00451],[122.622269,11.00312],[122.622833,11.00272],[122.62368,11.00103],[122.6259,10.99842],[122.627022,10.99489],[122.62632,10.99479],[122.62645,10.99365],[122.626343,10.99275],[122.625816,10.99249],[122.625267,10.99221],[122.625137,10.99215],[122.624603,10.99187],[122.623833,10.99241],[122.623222,10.9926],[122.622726,10.99263],[122.622253,10.99266],[122.621857,10.99201],[122.621071,10.99173],[122.620354,10.99149],[122.61969,10.99135],[122.61898,10.99138],[122.618759,10.99208],[122.618248,10.99306],[122.617477,10.99329],[122.617447,10.99445],[122.617119,10.99463],[122.617027,10.99525],[122.616577,10.99535],[122.616371,10.99526],[122.616058,10.99519],[122.615677,10.99532],[122.61554,10.99571],[122.615044,10.99576],[122.615013,10.99606],[122.614738,10.99665],[122.614037,10.99674],[122.613853,10.9974],[122.613747,10.99792],[122.613327,10.99849],[122.616318,11.00449],[122.622093,11.00451]]]]}},{"type":"Feature","properties":{"ID_0":177,"ISO":"PHL","NAME_0":"Philippines","ID_1":6030,"NAME_1":"Iloilo","ID_2":603016,"NAME_2":"Dingle","ID_3":603016031,"NAME_3":"Tanghawan","NL_NAME_3":null,"VARNAME_3":null,"TYPE_3":"Barangay","ENGTYPE_3":"Village","PROVINCE":"Iloilo","REGION":"Region VI (Western Visayas)","id":"barangay-0603016031","name":"Tanghawan","barangayCode":"0603016031","population":null,"formattedPop":null,"densityCategory":"No data","vulnerabilityRating":"No data","healthRiskLevel":"No data","areaKm2":2.110507,"centerLat":10.986842,"centerLng":122.660518,"geometrySource":"all_barangay-2.csv detailed WKT","geometryMatchMethod":"unique_official_admin_names","boundaryPointCount":21},"geometry":{"type":"MultiPolygon","coordinates":[[[[122.662338,10.99507],[122.666946,10.99136],[122.671021,10.98877],[122.670601,10.98706],[122.670532,10.98664],[122.671638,10.98564],[122.672203,10.98488],[122.671661,10.98335],[122.670563,10.98204],[122.670036,10.98009],[122.6689,10.9785],[122.662643,10.98192],[122.6577,10.98285],[122.652771,10.98388],[122.657211,10.99456],[122.658203,10.99525],[122.658546,10.99612],[122.659248,10.99639],[122.660637,10.99671],[122.660912,10.99637],[122.662338,10.99507]]]]}},{"type":"Feature","properties":{"ID_0":177,"ISO":"PHL","NAME_0":"Philippines","ID_1":6030,"NAME_1":"Iloilo","ID_2":603016,"NAME_2":"Dingle","ID_3":603016032,"NAME_3":"Tiguib","NL_NAME_3":null,"VARNAME_3":null,"TYPE_3":"Barangay","ENGTYPE_3":"Village","PROVINCE":"Iloilo","REGION":"Region VI (Western Visayas)","id":"barangay-0603016032","name":"Tiguib","barangayCode":"0603016032","population":null,"formattedPop":null,"densityCategory":"No data","vulnerabilityRating":"No data","healthRiskLevel":"No data","areaKm2":0.947069,"centerLat":11.009595,"centerLng":122.612554,"geometrySource":"all_barangay-2.csv detailed WKT","geometryMatchMethod":"unique_official_admin_names","boundaryPointCount":32},"geometry":{"type":"MultiPolygon","coordinates":[[[[122.601738,11.00986],[122.605423,11.01609],[122.611267,11.01437],[122.612068,11.0149],[122.612534,11.01378],[122.614304,11.01311],[122.614792,11.01211],[122.615807,11.01225],[122.617142,11.01197],[122.618912,11.01142],[122.620354,11.01083],[122.621017,11.00914],[122.621422,11.00838],[122.621521,11.00678],[122.622093,11.00451],[122.616318,11.00449],[122.615463,11.00549],[122.614792,11.00498],[122.613518,11.00456],[122.613091,11.00586],[122.612778,11.00698],[122.611877,11.00744],[122.611389,11.00681],[122.61084,11.0066],[122.610397,11.00742],[122.609894,11.00718],[122.609253,11.0074],[122.608467,11.00737],[122.607269,11.00729],[122.605476,11.00697],[122.605293,11.00866],[122.601738,11.00986]]]]}},{"type":"Feature","properties":{"ID_0":177,"ISO":"PHL","NAME_0":"Philippines","ID_1":6030,"NAME_1":"Iloilo","ID_2":603016,"NAME_2":"Dingle","ID_3":603016033,"NAME_3":"Tinocuan","NL_NAME_3":null,"VARNAME_3":null,"TYPE_3":"Barangay","ENGTYPE_3":"Village","PROVINCE":"Iloilo","REGION":"Region VI (Western Visayas)","id":"barangay-0603016033","name":"Tinocuan","barangayCode":"0603016033","population":null,"formattedPop":null,"densityCategory":"No data","vulnerabilityRating":"No data","healthRiskLevel":"No data","areaKm2":2.662064,"centerLat":11.03103,"centerLng":122.626428,"geometrySource":"all_barangay-2.csv detailed WKT","geometryMatchMethod":"unique_official_admin_names","boundaryPointCount":24},"geometry":{"type":"MultiPolygon","coordinates":[[[[122.621742,11.03795],[122.621941,11.03807],[122.623543,11.03806],[122.624748,11.03839],[122.624817,11.03939],[122.624779,11.04047],[122.626373,11.04043],[122.627411,11.04106],[122.628304,11.04184],[122.629417,11.03899],[122.630272,11.0372],[122.63118,11.03554],[122.632584,11.03456],[122.634537,11.03464],[122.631317,11.02403],[122.630432,11.02312],[122.628326,11.02102],[122.61248,11.03095],[122.613312,11.03197],[122.615517,11.03262],[122.616539,11.03388],[122.617699,11.03511],[122.619873,11.03676],[122.621742,11.03795]]]]}},{"type":"Feature","properties":{"ID_0":177,"ISO":"PHL","NAME_0":"Philippines","ID_1":6030,"NAME_1":"Iloilo","ID_2":603016,"NAME_2":"Dingle","ID_3":603016034,"NAME_3":"Tulatula-an","NL_NAME_3":null,"VARNAME_3":null,"TYPE_3":"Barangay","ENGTYPE_3":"Village","PROVINCE":"Iloilo","REGION":"Region VI (Western Visayas)","id":"barangay-0603016034","name":"Tulatula-an","barangayCode":"0603016034","population":null,"formattedPop":null,"densityCategory":"No data","vulnerabilityRating":"No data","healthRiskLevel":"No data","areaKm2":6.09494,"centerLat":11.054733,"centerLng":122.68825,"geometrySource":"all_barangay-2.csv detailed WKT","geometryMatchMethod":"unique_official_admin_names","boundaryPointCount":10},"geometry":{"type":"MultiPolygon","coordinates":[[[[122.701469,11.06963],[122.711929,11.07074],[122.698372,11.04547],[122.692947,11.0454],[122.664268,11.04328],[122.663521,11.04531],[122.675011,11.05565],[122.685478,11.06324],[122.688004,11.0648],[122.701469,11.06963]]]]}}]}
